{"type":"FeatureCollection","features":[{"type":"Feature","id":"SOCHUN:11500:31500001150020240002UJC1000001001","properties":{"MNUM":"31500001150020240002UJC1000001001","admin_code":"11500","sgg_code":"11500","source_layer":"LSMD_CONT_UJ301","semantic":"sochun"},"geometry":{"type":"MultiPolygon","coordinates":[[[[126.76737,37.553132],[126.767474,37.553316],[126.767423,37.553223],[126.767471,37.553175],[126.76756,37.552919],[126.767647,37.55289],[126.767669,37.552938],[126.767735,37.552931],[126.767813,37.55289],[126.767837,37.552832],[126.768189,37.552675],[126.768447,37.552505],[126.769171,37.55157],[126.76887,37.551512],[126.768306,37.552284],[126.768201,37.552386],[126.767636,37.55258],[126.767624,37.552638],[126.767714,37.552833],[126.76754,37.552909],[126.76737,37.553132]]],[[[126.769807,37.550539],[126.769848,37.550657],[126.77037,37.549969],[126.770418,37.549957],[126.770887,37.549304],[126.771004,37.549189],[126.771227,37.548773],[126.771258,37.548619],[126.771053,37.548688],[126.770993,37.548745],[126.771025,37.548892],[126.771006,37.549028],[126.770926,37.549133],[126.770843,37.54935],[126.770636,37.549571],[126.770484,37.549646],[126.770327,37.549828],[126.770267,37.549999],[126.769922,37.550175],[126.769807,37.550539]]]]}}]}