{"type":"FeatureCollection","features":[{"type":"Feature","id":"SOCHUN:28155:34900002815520130012UJC2000002007","properties":{"MNUM":"34900002815520130012UJC2000002007","admin_code":"28155","sgg_code":"28155","source_layer":"LSMD_CONT_UJ301","semantic":"sochun","stream_name":"동강천","alias_raw":"동강천","notified_on":"2013-02-12"},"geometry":{"type":"Polygon","coordinates":[[[126.530347,37.507002],[126.530619,37.506946],[126.530692,37.507031],[126.531249,37.506777],[126.531362,37.506769],[126.532649,37.506093],[126.53325,37.505704],[126.533376,37.505661],[126.533702,37.50562],[126.534245,37.505665],[126.534784,37.50559],[126.535689,37.505326],[126.536211,37.505247],[126.535689,37.505247],[126.535168,37.505412],[126.53462,37.505545],[126.534065,37.505508],[126.533509,37.505554],[126.53301,37.505736],[126.531634,37.506525],[126.531129,37.506738],[126.530347,37.507002]]]}},{"type":"Feature","id":"SOCHUN:28155:34900002815520130012UJC2000007000","properties":{"MNUM":"34900002815520130012UJC2000007000","admin_code":"28155","sgg_code":"28155","source_layer":"LSMD_CONT_UJ301","semantic":"sochun","stream_name":"전소천","remark_raw":"전소천","notified_on":"2013-02-12"},"geometry":{"type":"Polygon","coordinates":[[[126.536903,37.487549],[126.537138,37.487572],[126.537153,37.487423],[126.537133,37.487515],[126.536906,37.487499],[126.536903,37.487549]]]}},{"type":"Feature","id":"SOCHUN:28155:34900002815520130012UJC2000002006","properties":{"MNUM":"34900002815520130012UJC2000002006","admin_code":"28155","sgg_code":"28155","source_layer":"LSMD_CONT_UJ301","semantic":"sochun","notified_on":"2013-02-12"},"geometry":{"type":"Polygon","coordinates":[[[126.521836,37.509339],[126.521963,37.50934],[126.521965,37.509319],[126.522922,37.509175],[126.523342,37.509063],[126.523498,37.509048],[126.523563,37.509004],[126.524144,37.508828],[126.525288,37.508566],[126.525859,37.508231],[126.526399,37.508157],[126.526871,37.508019],[126.526589,37.508041],[126.526264,37.508151],[126.52582,37.508214],[126.525362,37.508475],[126.524828,37.508651],[126.524282,37.508762],[126.523222,37.509068],[126.522669,37.509188],[126.521843,37.509294],[126.521836,37.509339]]]}},{"type":"Feature","id":"SOCHUN:28155:34900002815520130012UJC1000002000","properties":{"MNUM":"34900002815520130012UJC1000002000","admin_code":"28155","sgg_code":"28155","source_layer":"LSMD_CONT_UJ301","semantic":"sochun","stream_name":"동강천","remark_raw":"동강천","notified_on":"2013-02-12"},"geometry":{"type":"Polygon","coordinates":[[[126.516473,37.509582],[126.516473,37.509624],[126.516635,37.509622],[126.516838,37.50968],[126.517114,37.50962],[126.517451,37.509496],[126.517571,37.509525],[126.517606,37.509486],[126.518972,37.508928],[126.520203,37.509382],[126.520289,37.50934],[126.520382,37.509374],[126.520437,37.509344],[126.521537,37.509325],[126.522669,37.509188],[126.523222,37.509068],[126.524282,37.508762],[126.524828,37.508651],[126.525362,37.508475],[126.52582,37.508214],[126.526264,37.508151],[126.526589,37.508041],[126.527492,37.507944],[126.52848,37.507519],[126.530608,37.506927],[126.531634,37.506525],[126.53301,37.505736],[126.533509,37.505554],[126.534065,37.505508],[126.53462,37.505545],[126.535168,37.505412],[126.535689,37.505247],[126.536211,37.505247],[126.536465,37.505357],[126.536817,37.505431],[126.537164,37.505629],[126.537508,37.505932],[126.537832,37.506306],[126.538555,37.507002],[126.539529,37.507509],[126.540133,37.508134],[126.54011,37.508149],[126.540611,37.508764],[126.540806,37.508956],[126.541297,37.50934],[126.541937,37.509679],[126.54236,37.509982],[126.54238,37.510109],[126.542486,37.510229],[126.542539,37.510347],[126.542614,37.510663],[126.541993,37.51579],[126.54157,37.519151],[126.541457,37.519268],[126.54143,37.519349],[126.54144,37.519413],[126.541619,37.519395],[126.541661,37.519499],[126.541838,37.519432],[126.541862,37.519308],[126.542035,37.519246],[126.542576,37.515129],[126.543017,37.511425],[126.543059,37.510968],[126.542979,37.510378],[126.543,37.510062],[126.543086,37.509989],[126.543075,37.509936],[126.54305,37.509884],[126.542835,37.509819],[126.541463,37.509114],[126.541077,37.508809],[126.539934,37.507688],[126.539625,37.507432],[126.53912,37.507181],[126.538708,37.506911],[126.537353,37.505545],[126.536841,37.505217],[126.536262,37.505046],[126.535676,37.505108],[126.534497,37.505416],[126.534065,37.50538],[126.533489,37.505417],[126.532514,37.505918],[126.53161,37.506459],[126.531109,37.506663],[126.528968,37.507231],[126.528429,37.507396],[126.527411,37.50779],[126.526896,37.507895],[126.526315,37.507944],[126.525771,37.508126],[126.525291,37.508365],[126.5248,37.508543],[126.523186,37.508974],[126.523206,37.508908],[126.523154,37.508965],[126.52299,37.508992],[126.522896,37.509057],[126.522122,37.509187],[126.520996,37.509203],[126.520211,37.50925],[126.518958,37.508814],[126.51887,37.508826],[126.518826,37.508922],[126.517547,37.509464],[126.517407,37.509445],[126.517389,37.509473],[126.516988,37.509584],[126.516699,37.509587],[126.516672,37.509566],[126.516696,37.509392],[126.516615,37.509549],[126.516473,37.509582]]]}},{"type":"Feature","id":"SOCHUN:28155:34900002815520130012UJC2000002000","properties":{"MNUM":"34900002815520130012UJC2000002000","admin_code":"28155","sgg_code":"28155","source_layer":"LSMD_CONT_UJ301","semantic":"sochun","stream_name":"전소천","remark_raw":"전소천","notified_on":"2013-02-12"},"geometry":{"type":"Polygon","coordinates":[[[126.537358,37.487267],[126.537389,37.48733],[126.5375,37.48691],[126.537653,37.486825],[126.537628,37.486785],[126.537494,37.486885],[126.537358,37.487267]]]}},{"type":"Feature","id":"SOCHUN:28155:34900002815520130012UJC2000008000","properties":{"MNUM":"34900002815520130012UJC2000008000","admin_code":"28155","sgg_code":"28155","source_layer":"LSMD_CONT_UJ301","semantic":"sochun","stream_name":"전소천","remark_raw":"전소천","notified_on":"2013-02-12"},"geometry":{"type":"Polygon","coordinates":[[[126.53511,37.48986],[126.535181,37.489901],[126.535364,37.489879],[126.535599,37.489908],[126.535816,37.48985],[126.535962,37.489777],[126.536428,37.489821],[126.536709,37.489662],[126.537107,37.489267],[126.53711,37.489234],[126.537302,37.489122],[126.537257,37.488986],[126.537277,37.488819],[126.537239,37.488757],[126.537289,37.488741],[126.537185,37.488487],[126.537181,37.487918],[126.537145,37.487789],[126.53711,37.48808],[126.537117,37.488698],[126.537157,37.488702],[126.537237,37.48906],[126.537214,37.489106],[126.536896,37.489342],[126.536671,37.489612],[126.536434,37.489739],[126.536214,37.489696],[126.535535,37.489841],[126.535502,37.48984],[126.535486,37.489796],[126.535382,37.489776],[126.535141,37.489829],[126.53511,37.48986]]]}},{"type":"Feature","id":"SOCHUN:28155:34900002815520130012UJC2000006000","properties":{"MNUM":"34900002815520130012UJC2000006000","admin_code":"28155","sgg_code":"28155","source_layer":"LSMD_CONT_UJ301","semantic":"sochun","stream_name":"전소천","remark_raw":"전소천","notified_on":"2013-02-12"},"geometry":{"type":"Polygon","coordinates":[[[126.537553,37.485546],[126.537567,37.485585],[126.537717,37.485114],[126.537849,37.485072],[126.53784,37.485045],[126.53774,37.485029],[126.537753,37.484957],[126.537553,37.485546]]]}},{"type":"Feature","id":"SOCHUN:28155:34900002815520130012UJC2000002001","properties":{"MNUM":"34900002815520130012UJC2000002001","admin_code":"28155","sgg_code":"28155","source_layer":"LSMD_CONT_UJ301","semantic":"sochun","stream_name":"동강천","remark_raw":"동강천","notified_on":"2013-02-12"},"geometry":{"type":"Polygon","coordinates":[[[126.533467,37.505428],[126.532939,37.50562],[126.532756,37.505719],[126.532616,37.505745],[126.532204,37.505982],[126.532135,37.506068],[126.531576,37.506415],[126.531072,37.506612],[126.528958,37.507199],[126.528699,37.507243],[126.528719,37.507263],[126.528408,37.507362],[126.527543,37.507717],[126.527463,37.507669],[126.527305,37.507792],[126.526141,37.507931],[126.525665,37.508122],[126.525283,37.508355],[126.524791,37.508515],[126.524249,37.508631],[126.523707,37.508801],[126.523559,37.508794],[126.523569,37.50884],[126.523241,37.508936],[126.52325,37.508957],[126.5248,37.508543],[126.525291,37.508365],[126.525771,37.508126],[126.526315,37.507944],[126.526896,37.507895],[126.527411,37.50779],[126.528429,37.507396],[126.528968,37.507231],[126.531109,37.506663],[126.53161,37.506459],[126.532514,37.505918],[126.533467,37.505428]]]}},{"type":"Feature","id":"SOCHUN:28155:34900002815520130012UJC2000002005","properties":{"MNUM":"34900002815520130012UJC2000002005","admin_code":"28155","sgg_code":"28155","source_layer":"LSMD_CONT_UJ301","semantic":"sochun","stream_name":"동강천","alias_raw":"동강천","notified_on":"2013-02-12"},"geometry":{"type":"Polygon","coordinates":[[[126.535993,37.505063],[126.536262,37.505046],[126.536841,37.505217],[126.537353,37.505545],[126.536846,37.50521],[126.536386,37.505043],[126.536427,37.505004],[126.536266,37.504993],[126.535993,37.505063]]]}},{"type":"Feature","id":"SOCHUN:28155:34900002815520130012UJC2000002002","properties":{"MNUM":"34900002815520130012UJC2000002002","admin_code":"28155","sgg_code":"28155","source_layer":"LSMD_CONT_UJ301","semantic":"sochun","stream_name":"동강천","remark_raw":"동강천","notified_on":"2013-02-12"},"geometry":{"type":"Polygon","coordinates":[[[126.528526,37.507506],[126.528786,37.507441],[126.529013,37.507383],[126.529228,37.50732],[126.52945,37.507262],[126.529511,37.507228],[126.529005,37.507373],[126.528526,37.507506]]]}},{"type":"Feature","id":"SOCHUN:28155:34900002815520130012UJC2000002003","properties":{"MNUM":"34900002815520130012UJC2000002003","admin_code":"28155","sgg_code":"28155","source_layer":"LSMD_CONT_UJ301","semantic":"sochun","stream_name":"동강천","alias_raw":"동강천","notified_on":"2013-02-12"},"geometry":{"type":"Polygon","coordinates":[[[126.537164,37.505629],[126.537247,37.505706],[126.53727,37.505877],[126.537427,37.505897],[126.537494,37.505964],[126.537518,37.506104],[126.537613,37.506114],[126.537782,37.506337],[126.538486,37.507045],[126.539444,37.507544],[126.540136,37.508222],[126.540611,37.508764],[126.54011,37.508149],[126.540133,37.508134],[126.539529,37.507509],[126.538555,37.507002],[126.537832,37.506306],[126.537508,37.505932],[126.537164,37.505629]]]}},{"type":"Feature","id":"SOCHUN:28155:34900002815520130012UJC1000001000","properties":{"MNUM":"34900002815520130012UJC1000001000","admin_code":"28155","sgg_code":"28155","source_layer":"LSMD_CONT_UJ301","semantic":"sochun","stream_name":"전소천","alias_raw":"전소천","notified_on":"2013-02-12"},"geometry":{"type":"Polygon","coordinates":[[[126.525561,37.491101],[126.526585,37.491328],[126.526733,37.491336],[126.529637,37.491278],[126.529953,37.491199],[126.53017,37.491043],[126.530442,37.490994],[126.530679,37.490907],[126.530995,37.490874],[126.532443,37.490537],[126.53259,37.490482],[126.533186,37.490392],[126.534231,37.49032],[126.534712,37.490199],[126.535275,37.489973],[126.535665,37.489976],[126.536051,37.489852],[126.536442,37.489889],[126.536656,37.489828],[126.536814,37.48973],[126.537192,37.489304],[126.537431,37.489145],[126.537448,37.48905],[126.537308,37.488373],[126.537343,37.487652],[126.537317,37.487512],[126.537411,37.487072],[126.537494,37.486885],[126.537581,37.486821],[126.537581,37.486797],[126.537532,37.486802],[126.537605,37.486694],[126.537645,37.486529],[126.537652,37.486289],[126.537538,37.48582],[126.537553,37.485546],[126.537753,37.484957],[126.537763,37.484742],[126.537734,37.484458],[126.537416,37.483936],[126.537365,37.483521],[126.537415,37.483539],[126.537488,37.483278],[126.537635,37.48298],[126.538309,37.482205],[126.53851,37.482029],[126.538778,37.481849],[126.539081,37.48171],[126.540341,37.48137],[126.540359,37.481271],[126.540567,37.480953],[126.539952,37.480697],[126.539731,37.481032],[126.539598,37.481144],[126.53884,37.48136],[126.538391,37.481583],[126.537933,37.481946],[126.537284,37.482687],[126.537142,37.482894],[126.536906,37.483363],[126.537051,37.483412],[126.53711,37.483826],[126.537197,37.484074],[126.537373,37.484347],[126.537515,37.484738],[126.537509,37.484893],[126.537273,37.485693],[126.537431,37.486293],[126.537427,37.486504],[126.537202,37.487035],[126.537139,37.487538],[126.537181,37.487918],[126.537185,37.488487],[126.537289,37.488741],[126.537239,37.488757],[126.537277,37.488819],[126.537257,37.488986],[126.537305,37.48911],[126.53711,37.489234],[126.537107,37.489267],[126.536709,37.489662],[126.536563,37.489762],[126.536428,37.489821],[126.535962,37.489777],[126.535816,37.48985],[126.535599,37.489908],[126.535364,37.489879],[126.535181,37.489901],[126.53511,37.48986],[126.53498,37.489957],[126.534731,37.490018],[126.534536,37.490116],[126.534538,37.490138],[126.534358,37.490186],[126.533169,37.49028],[126.531038,37.490769],[126.530663,37.490807],[126.53035,37.490929],[126.530009,37.49096],[126.529932,37.491015],[126.529911,37.491122],[126.529597,37.491232],[126.526603,37.491294],[126.52573,37.491101],[126.525684,37.490855],[126.525572,37.491012],[126.525561,37.491101]]]}},{"type":"Feature","id":"SOCHUN:28155:34900002815520130012UJC2000001000","properties":{"MNUM":"34900002815520130012UJC2000001000","admin_code":"28155","sgg_code":"28155","source_layer":"LSMD_CONT_UJ301","semantic":"sochun","stream_name":"전소천","remark_raw":"전소천","notified_on":"2013-02-12"},"geometry":{"type":"Polygon","coordinates":[[[126.534547,37.49023],[126.534551,37.490262],[126.534781,37.490199],[126.535309,37.490019],[126.535468,37.490023],[126.535858,37.489962],[126.535983,37.489914],[126.536253,37.489929],[126.53667,37.489863],[126.536885,37.489715],[126.537081,37.48948],[126.537341,37.489271],[126.537487,37.489193],[126.537448,37.48905],[126.537431,37.489145],[126.537192,37.489304],[126.536814,37.48973],[126.536656,37.489828],[126.536388,37.489893],[126.536001,37.489858],[126.535665,37.489976],[126.535316,37.489964],[126.534998,37.490065],[126.534712,37.490199],[126.534547,37.49023]]]}},{"type":"Feature","id":"SOCHUN:28155:34900002815520130012UJC2000002004","properties":{"MNUM":"34900002815520130012UJC2000002004","admin_code":"28155","sgg_code":"28155","source_layer":"LSMD_CONT_UJ301","semantic":"sochun","stream_name":"동강천","alias_raw":"동강천","notified_on":"2013-02-12"},"geometry":{"type":"Polygon","coordinates":[[[126.538357,37.506576],[126.538708,37.506911],[126.53912,37.507181],[126.539625,37.507432],[126.540163,37.507895],[126.540465,37.508234],[126.540732,37.508449],[126.541077,37.508809],[126.541463,37.509114],[126.542402,37.509601],[126.541316,37.508963],[126.54095,37.508642],[126.540412,37.508077],[126.54036,37.508097],[126.540026,37.507738],[126.539624,37.507419],[126.539054,37.507133],[126.538357,37.506576]]]}},{"type":"Feature","id":"SOCHUN:28155:34900002815520130012UJC2000005000","properties":{"MNUM":"34900002815520130012UJC2000005000","admin_code":"28155","sgg_code":"28155","source_layer":"LSMD_CONT_UJ301","semantic":"sochun","stream_name":"전소천","remark_raw":"전소천","notified_on":"2013-02-12"},"geometry":{"type":"Polygon","coordinates":[[[126.537257,37.485704],[126.53737,37.486033],[126.537277,37.48565],[126.537511,37.48483],[126.537285,37.485513],[126.537257,37.485704]]]}},{"type":"Feature","id":"SOCHUN:28155:34900002815520130012UJC2000004000","properties":{"MNUM":"34900002815520130012UJC2000004000","admin_code":"28155","sgg_code":"28155","source_layer":"LSMD_CONT_UJ301","semantic":"sochun","stream_name":"전소천","remark_raw":"전소천","notified_on":"2013-02-12"},"geometry":{"type":"Polygon","coordinates":[[[126.537646,37.486421],[126.537645,37.486529],[126.537652,37.486501],[126.537657,37.486314],[126.537652,37.486289],[126.53765,37.486332],[126.537646,37.486421]]]}},{"type":"Feature","id":"SOCHUN:28155:34900002815520130012UJC2000003000","properties":{"MNUM":"34900002815520130012UJC2000003000","admin_code":"28155","sgg_code":"28155","source_layer":"LSMD_CONT_UJ301","semantic":"sochun","stream_name":"전소천","remark_raw":"전소천","notified_on":"2013-02-12"},"geometry":{"type":"Polygon","coordinates":[[[126.537388,37.486631],[126.537427,37.486504],[126.537421,37.486263],[126.537388,37.486631]]]}}]}