{"type":"FeatureCollection","features":[{"type":"Feature","id":"SOCHUN:11650:32100001165020170013UJC2000002161","properties":{"MNUM":"32100001165020170013UJC2000002161","admin_code":"11650","sgg_code":"11650","source_layer":"LSMD_CONT_UJ301","semantic":"sochun","notified_on":"2017-02-16"},"geometry":{"type":"MultiPolygon","coordinates":[[[[127.086427,37.466732],[127.086461,37.466743],[127.086643,37.46638],[127.086815,37.466132],[127.086921,37.46587],[127.08686,37.465191],[127.08682,37.465218],[127.086832,37.465507],[127.086896,37.465792],[127.086876,37.465898],[127.086427,37.466732]]],[[[127.085772,37.46872],[127.085805,37.468725],[127.085813,37.468692],[127.085835,37.46844],[127.085804,37.468418],[127.085772,37.46872]]]]}},{"type":"Feature","id":"SOCHUN:11650:32100001165020170013UJC2000002162","properties":{"MNUM":"32100001165020170013UJC2000002162","admin_code":"11650","sgg_code":"11650","source_layer":"LSMD_CONT_UJ301","semantic":"sochun"},"geometry":{"type":"MultiPolygon","coordinates":[[[[127.052358,37.453353],[127.052382,37.453709],[127.052612,37.454049],[127.052695,37.454283],[127.052761,37.454243],[127.052686,37.454027],[127.052451,37.453663],[127.052431,37.453409],[127.052538,37.453169],[127.052541,37.452885],[127.052592,37.452731],[127.052698,37.452596],[127.053088,37.452283],[127.053059,37.45226],[127.052984,37.452342],[127.052876,37.452391],[127.052517,37.45275],[127.052458,37.453206],[127.052499,37.453243],[127.052358,37.453353]]],[[[127.052271,37.45343],[127.052283,37.453642],[127.052563,37.454051],[127.052653,37.454308],[127.052581,37.454065],[127.052346,37.453712],[127.052285,37.453319],[127.052271,37.45343]]],[[[127.052306,37.453294],[127.05239,37.453217],[127.052428,37.453103],[127.052385,37.45286],[127.052384,37.453136],[127.052306,37.453294]]],[[[127.052205,37.451996],[127.052595,37.45213],[127.052712,37.452272],[127.052702,37.452402],[127.052485,37.452619],[127.052854,37.452288],[127.0526,37.452076],[127.052205,37.451996]]],[[[127.052737,37.452079],[127.052816,37.452176],[127.05293,37.452237],[127.052977,37.452195],[127.052904,37.452212],[127.052737,37.452079]]],[[[127.052122,37.451857],[127.052161,37.4519],[127.052317,37.451927],[127.05245,37.451997],[127.052531,37.451991],[127.052122,37.451857]]],[[[127.051522,37.451521],[127.05153,37.451544],[127.051533,37.451541],[127.051533,37.451541],[127.051535,37.451538],[127.051522,37.451521]]],[[[127.047753,37.449892],[127.047917,37.450205],[127.048211,37.450525],[127.048318,37.450601],[127.048781,37.450737],[127.049373,37.450864],[127.049681,37.451059],[127.04983,37.451119],[127.049997,37.451082],[127.050151,37.45099],[127.050469,37.451088],[127.050649,37.450997],[127.050777,37.45102],[127.050951,37.451098],[127.051517,37.451513],[127.051015,37.451142],[127.051041,37.45112],[127.051019,37.451104],[127.050789,37.450993],[127.050625,37.450966],[127.050431,37.451043],[127.050139,37.450958],[127.049924,37.45106],[127.049812,37.451066],[127.049446,37.450849],[127.04879,37.450702],[127.048343,37.450569],[127.048228,37.450492],[127.047991,37.450239],[127.047821,37.44991],[127.047777,37.44987],[127.047753,37.449892]]],[[[127.047131,37.448843],[127.047201,37.448989],[127.047415,37.449069],[127.047468,37.449145],[127.047581,37.449412],[127.047603,37.449862],[127.047684,37.449929],[127.04787,37.450278],[127.048261,37.450669],[127.048622,37.450783],[127.049345,37.450934],[127.049687,37.451149],[127.049806,37.451188],[127.049979,37.451172],[127.050157,37.451096],[127.050432,37.451167],[127.050638,37.451076],[127.05073,37.451092],[127.050947,37.451199],[127.050984,37.451168],[127.051475,37.451531],[127.050963,37.451124],[127.050771,37.451033],[127.050656,37.45101],[127.050464,37.451101],[127.050154,37.451004],[127.050006,37.451094],[127.049828,37.451133],[127.04967,37.45107],[127.049368,37.450877],[127.048776,37.45075],[127.048311,37.450614],[127.048162,37.4505],[127.047924,37.450243],[127.047753,37.449911],[127.047636,37.449859],[127.047609,37.449413],[127.047481,37.449073],[127.047421,37.44902],[127.047273,37.448983],[127.047151,37.448912],[127.047155,37.448727],[127.047131,37.448843]]],[[[127.047644,37.449538],[127.047662,37.449703],[127.047658,37.449439],[127.047644,37.449538]]]]}},{"type":"Feature","id":"SOCHUN:11650:32100001165020190013UJC2000001031","properties":{"MNUM":"32100001165020190013UJC2000001031","admin_code":"11650","sgg_code":"11650","source_layer":"LSMD_CONT_UJ301","semantic":"sochun"},"geometry":{"type":"Polygon","coordinates":[[[127.064,37.461745],[127.06403,37.46178],[127.064015,37.461725],[127.064,37.461745]]]}},{"type":"Feature","id":"SOCHUN:11650:32100001165020180201UJC1000008023","properties":{"MNUM":"32100001165020180201UJC1000008023","admin_code":"11650","sgg_code":"11650","source_layer":"LSMD_CONT_UJ301","semantic":"sochun"},"geometry":{"type":"Polygon","coordinates":[[[127.060402,37.456621],[127.060753,37.457039],[127.061498,37.458142],[127.061751,37.458248],[127.061927,37.458383],[127.062364,37.458546],[127.062472,37.458616],[127.062579,37.458861],[127.06273,37.459091],[127.062792,37.45947],[127.062989,37.459675],[127.062989,37.459736],[127.063205,37.459987],[127.063189,37.460105],[127.063026,37.460427],[127.062827,37.460714],[127.062863,37.460902],[127.062597,37.460889],[127.062531,37.460939],[127.06256,37.461119],[127.062545,37.461313],[127.062658,37.461436],[127.062994,37.461561],[127.063126,37.461719],[127.063209,37.461767],[127.063336,37.461785],[127.063871,37.461673],[127.064015,37.461725],[127.064164,37.462275],[127.064146,37.462574],[127.064198,37.462576],[127.064216,37.462269],[127.064026,37.461644],[127.063816,37.461578],[127.063293,37.461696],[127.063156,37.461636],[127.062978,37.461452],[127.062763,37.461416],[127.062609,37.461275],[127.062636,37.461172],[127.062617,37.460962],[127.062867,37.460961],[127.062917,37.460928],[127.062884,37.460722],[127.063051,37.460492],[127.063283,37.460017],[127.063264,37.459952],[127.062822,37.459444],[127.0628,37.459116],[127.062622,37.458837],[127.062601,37.458733],[127.062504,37.45857],[127.061945,37.458333],[127.061812,37.458209],[127.06154,37.458124],[127.060798,37.45702],[127.060428,37.456603],[127.060402,37.456621]]]}},{"type":"Feature","id":"SOCHUN:11650:32100001165020170028UJC2000004013","properties":{"MNUM":"32100001165020170028UJC2000004013","admin_code":"11650","sgg_code":"11650","source_layer":"LSMD_CONT_UJ301","semantic":"sochun"},"geometry":{"type":"MultiPolygon","coordinates":[[[[127.048668,37.45472],[127.048776,37.454974],[127.048887,37.455122],[127.049259,37.455344],[127.049252,37.45566],[127.049329,37.455813],[127.049666,37.45612],[127.050187,37.456335],[127.050346,37.456474],[127.050362,37.456575],[127.050415,37.456588],[127.05039,37.456427],[127.050323,37.456361],[127.049864,37.456182],[127.049566,37.455989],[127.049557,37.455914],[127.049402,37.455793],[127.049356,37.455694],[127.049337,37.455332],[127.048903,37.455032],[127.048787,37.454858],[127.048757,37.454612],[127.048668,37.45472]]],[[[127.048836,37.454524],[127.048935,37.454936],[127.048992,37.455013],[127.049401,37.455293],[127.049411,37.455636],[127.049468,37.45575],[127.049801,37.456034],[127.05021,37.456176],[127.050593,37.456389],[127.050343,37.456199],[127.049865,37.456025],[127.049495,37.455713],[127.049458,37.455633],[127.049471,37.455355],[127.04944,37.455282],[127.049021,37.454982],[127.048943,37.454815],[127.048919,37.454549],[127.048873,37.454484],[127.048836,37.454524]]],[[[127.047481,37.453607],[127.047529,37.453651],[127.047831,37.453769],[127.048263,37.454146],[127.048295,37.454112],[127.047858,37.453742],[127.047493,37.453578],[127.047481,37.453607]]],[[[127.045561,37.45087],[127.045761,37.451044],[127.04596,37.451278],[127.046293,37.45177],[127.04651,37.451943],[127.046688,37.452142],[127.046706,37.452289],[127.046515,37.452636],[127.046538,37.452762],[127.046685,37.45288],[127.047108,37.452935],[127.047209,37.452984],[127.047257,37.453072],[127.047242,37.453289],[127.047313,37.4535],[127.047349,37.453488],[127.047277,37.453289],[127.047263,37.453062],[127.047202,37.452935],[127.047065,37.452884],[127.046685,37.452849],[127.046566,37.452736],[127.046571,37.452626],[127.046766,37.452262],[127.046751,37.45217],[127.046665,37.452039],[127.04626,37.451654],[127.04611,37.451445],[127.046129,37.451418],[127.046083,37.451343],[127.0459,37.451123],[127.045641,37.45089],[127.045584,37.450849],[127.045561,37.45087]]],[[[127.046635,37.45265],[127.046642,37.452707],[127.046738,37.452771],[127.047134,37.452817],[127.047259,37.452865],[127.047339,37.452932],[127.047368,37.45291],[127.047159,37.452775],[127.046747,37.452714],[127.046818,37.452516],[127.046793,37.452493],[127.04686,37.452356],[127.046823,37.452345],[127.046635,37.45265]]],[[[127.045504,37.450619],[127.045524,37.45069],[127.045897,37.450991],[127.04643,37.451701],[127.046681,37.451918],[127.046702,37.451887],[127.0464,37.451652],[127.046158,37.451308],[127.046182,37.451296],[127.04615,37.451247],[127.04586,37.450897],[127.045562,37.450665],[127.045561,37.450574],[127.045843,37.450307],[127.045839,37.450169],[127.04574,37.44988],[127.045774,37.449773],[127.045919,37.44956],[127.045786,37.449226],[127.0459,37.449547],[127.04589,37.449627],[127.045772,37.449745],[127.045718,37.449892],[127.045816,37.450226],[127.04579,37.450293],[127.045523,37.450549],[127.045504,37.450619]]],[[[127.045359,37.450709],[127.045415,37.450709],[127.045416,37.450581],[127.045493,37.450446],[127.045761,37.450247],[127.04565,37.449809],[127.045824,37.449604],[127.045833,37.449554],[127.04569,37.449255],[127.045661,37.449267],[127.045787,37.449561],[127.045658,37.44973],[127.045609,37.449876],[127.045694,37.450252],[127.045431,37.450513],[127.045401,37.450685],[127.045359,37.450709]]],[[[127.045592,37.447485],[127.045752,37.447617],[127.045811,37.4476],[127.045635,37.447459],[127.045592,37.447485]]],[[[127.045344,37.44678],[127.04554,37.446885],[127.045537,37.446998],[127.045411,37.447202],[127.045396,37.447308],[127.045426,37.447377],[127.045465,37.447357],[127.045451,37.447248],[127.045562,37.447109],[127.045628,37.446829],[127.045344,37.44678]]],[[[127.044646,37.446588],[127.04513,37.446733],[127.045252,37.4468],[127.045248,37.446886],[127.045285,37.446907],[127.045326,37.446883],[127.045438,37.446941],[127.045432,37.447005],[127.045319,37.447161],[127.045337,37.447294],[127.045386,37.447127],[127.045478,37.446993],[127.045463,37.446929],[127.045103,37.446708],[127.044646,37.446588]]]]}},{"type":"Feature","id":"SOCHUN:11650:32100001165020170013UJC1000002016","properties":{"MNUM":"32100001165020170013UJC1000002016","admin_code":"11650","sgg_code":"11650","source_layer":"LSMD_CONT_UJ301","semantic":"sochun","notified_on":"2017-02-16"},"geometry":{"type":"MultiPolygon","coordinates":[[[[127.085297,37.468886],[127.085352,37.468961],[127.08568,37.468948],[127.085819,37.468852],[127.085897,37.468734],[127.085903,37.468421],[127.08603,37.467916],[127.086116,37.467918],[127.08611,37.467552],[127.086369,37.467195],[127.086391,37.467112],[127.086364,37.466909],[127.086427,37.466732],[127.086876,37.465898],[127.086896,37.465792],[127.086832,37.465507],[127.086802,37.464711],[127.086858,37.464653],[127.086677,37.464662],[127.086715,37.464717],[127.086712,37.464982],[127.086748,37.464977],[127.086781,37.465518],[127.086845,37.46582],[127.086765,37.466022],[127.086341,37.466795],[127.086307,37.466904],[127.086331,37.467084],[127.086306,37.467193],[127.085989,37.467557],[127.085945,37.46799],[127.085834,37.468435],[127.085805,37.468725],[127.085637,37.46887],[127.085297,37.468886]]],[[[127.043485,37.445665],[127.043715,37.445882],[127.043907,37.445945],[127.043997,37.446064],[127.044245,37.44623],[127.044416,37.446305],[127.044598,37.446559],[127.045103,37.446708],[127.04547,37.446939],[127.045472,37.447011],[127.045365,37.447176],[127.045337,37.447379],[127.045691,37.447648],[127.045762,37.447805],[127.04577,37.447928],[127.04575,37.448089],[127.045671,37.448215],[127.045725,37.448877],[127.045669,37.448961],[127.045574,37.449022],[127.045551,37.449091],[127.045582,37.44915],[127.045665,37.449191],[127.045833,37.449584],[127.04565,37.449809],[127.045761,37.450247],[127.045493,37.450446],[127.045416,37.450581],[127.045415,37.450709],[127.045359,37.450709],[127.045345,37.450767],[127.045535,37.450814],[127.0459,37.451123],[127.046083,37.451343],[127.046129,37.451418],[127.04611,37.451445],[127.04626,37.451654],[127.046665,37.452039],[127.046733,37.452138],[127.046761,37.452286],[127.046571,37.452626],[127.046574,37.452751],[127.046685,37.452849],[127.047065,37.452884],[127.047202,37.452935],[127.047263,37.453062],[127.047277,37.453289],[127.047349,37.453489],[127.047545,37.453616],[127.047858,37.453742],[127.048354,37.454162],[127.048759,37.454615],[127.048787,37.454858],[127.048903,37.455032],[127.049337,37.455332],[127.049363,37.455713],[127.049402,37.455793],[127.049557,37.455914],[127.049572,37.455995],[127.049864,37.456182],[127.050323,37.456361],[127.05039,37.456427],[127.050415,37.456588],[127.050723,37.456588],[127.050688,37.456448],[127.050623,37.456367],[127.05058,37.456395],[127.05021,37.456176],[127.049801,37.456034],[127.049468,37.45575],[127.049411,37.455636],[127.049401,37.455293],[127.048992,37.455013],[127.048935,37.454936],[127.048845,37.454533],[127.048489,37.454163],[127.047916,37.453681],[127.047454,37.453442],[127.047354,37.453281],[127.047379,37.453075],[127.047339,37.452932],[127.047165,37.452824],[127.046738,37.452771],[127.046642,37.452707],[127.046657,37.452591],[127.046843,37.452297],[127.046835,37.452127],[127.046677,37.451912],[127.04643,37.451701],[127.045897,37.450991],[127.045508,37.450655],[127.045523,37.450549],[127.04579,37.450293],[127.045817,37.450224],[127.045718,37.449892],[127.045772,37.449745],[127.04589,37.449627],[127.0459,37.449547],[127.045768,37.449241],[127.045744,37.449078],[127.045807,37.449009],[127.045861,37.448815],[127.045798,37.448305],[127.045901,37.448126],[127.045922,37.447861],[127.045688,37.447548],[127.045402,37.447342],[127.045418,37.447174],[127.045537,37.446998],[127.04554,37.446885],[127.045052,37.446611],[127.044711,37.446487],[127.044514,37.446269],[127.044369,37.446157],[127.044234,37.446141],[127.044068,37.445998],[127.044034,37.445925],[127.043796,37.445863],[127.043532,37.445613],[127.043485,37.445665]]],[[[127.047144,37.448843],[127.047151,37.448912],[127.047273,37.448983],[127.047421,37.44902],[127.047481,37.449073],[127.047609,37.449413],[127.047636,37.449859],[127.047753,37.449911],[127.047924,37.450243],[127.048162,37.4505],[127.048311,37.450614],[127.048776,37.45075],[127.049368,37.450877],[127.04967,37.45107],[127.049828,37.451133],[127.050006,37.451094],[127.050154,37.451004],[127.050464,37.451101],[127.050656,37.45101],[127.050771,37.451033],[127.050963,37.451124],[127.051639,37.451657],[127.051543,37.451528],[127.05153,37.451544],[127.050951,37.451098],[127.050777,37.45102],[127.050649,37.450997],[127.050469,37.451088],[127.050151,37.45099],[127.049997,37.451082],[127.04983,37.451119],[127.049681,37.451059],[127.049373,37.450864],[127.048781,37.450737],[127.048318,37.450601],[127.048211,37.450525],[127.047917,37.450205],[127.047768,37.449903],[127.047671,37.449831],[127.047637,37.449343],[127.047491,37.449033],[127.047253,37.448935],[127.047216,37.448875],[127.047233,37.448741],[127.047203,37.448695],[127.047155,37.448727],[127.047144,37.448843]]],[[[127.051718,37.451763],[127.052035,37.451881],[127.052205,37.451996],[127.0526,37.452076],[127.052854,37.452288],[127.052462,37.452632],[127.052379,37.452818],[127.052428,37.453103],[127.052361,37.453262],[127.052285,37.453319],[127.052346,37.453712],[127.052581,37.454065],[127.052662,37.454302],[127.052695,37.454283],[127.052632,37.454087],[127.052374,37.453688],[127.052358,37.453353],[127.052499,37.453243],[127.052458,37.453206],[127.052517,37.45275],[127.052876,37.452391],[127.052984,37.452342],[127.053059,37.45226],[127.052977,37.452195],[127.05293,37.452237],[127.052816,37.452176],[127.052708,37.452037],[127.052607,37.451994],[127.05245,37.451997],[127.052317,37.451927],[127.052161,37.4519],[127.052092,37.451826],[127.051967,37.451764],[127.051729,37.451718],[127.051751,37.451732],[127.051718,37.451763]]]]}},{"type":"Feature","id":"SOCHUN:11650:32100001165020120900UJC2000011015","properties":{"MNUM":"32100001165020120900UJC2000011015","admin_code":"11650","sgg_code":"11650","source_layer":"LSMD_CONT_UJ301","semantic":"sochun"},"geometry":{"type":"Polygon","coordinates":[[[127.012362,37.462759],[127.01251,37.462835],[127.012525,37.462633],[127.01262,37.462511],[127.012731,37.462458],[127.012793,37.462467],[127.012936,37.462418],[127.013052,37.46235],[127.013106,37.46234],[127.013371,37.462461],[127.013719,37.462372],[127.013773,37.462182],[127.01374,37.462055],[127.013632,37.461934],[127.013645,37.461804],[127.013988,37.46165],[127.014337,37.46135],[127.014542,37.460955],[127.014565,37.460715],[127.014591,37.460739],[127.014722,37.460604],[127.014935,37.460502],[127.015128,37.460364],[127.015219,37.460236],[127.01528,37.460033],[127.015377,37.459957],[127.015586,37.459945],[127.015973,37.460042],[127.016255,37.460055],[127.016501,37.459915],[127.016515,37.459862],[127.016915,37.4595],[127.017193,37.459158],[127.017561,37.458928],[127.017699,37.458884],[127.017515,37.458753],[127.017152,37.458969],[127.016999,37.459115],[127.016832,37.459399],[127.016548,37.45963],[127.016425,37.459781],[127.016167,37.459907],[127.016008,37.459924],[127.015684,37.459841],[127.015463,37.459819],[127.015299,37.459837],[127.015204,37.459896],[127.015119,37.460008],[127.015081,37.460188],[127.015009,37.460322],[127.014634,37.460518],[127.014461,37.460683],[127.014282,37.461201],[127.014185,37.461303],[127.014201,37.461226],[127.013903,37.461526],[127.013932,37.461536],[127.013912,37.461551],[127.01377,37.461632],[127.01358,37.461682],[127.013503,37.461741],[127.013462,37.461878],[127.013496,37.462003],[127.013595,37.462133],[127.013573,37.462258],[127.013442,37.4623],[127.013042,37.462253],[127.012612,37.462371],[127.012414,37.462537],[127.012362,37.462759]]]}},{"type":"Feature","id":"SOCHUN:11650:32100001165020190013UJC2000001313","properties":{"MNUM":"32100001165020190013UJC2000001313","admin_code":"11650","sgg_code":"11650","source_layer":"LSMD_CONT_UJ301","semantic":"sochun"},"geometry":{"type":"Polygon","coordinates":[[[127.061927,37.458421],[127.062392,37.458587],[127.062447,37.458634],[127.062471,37.458713],[127.062512,37.458699],[127.062456,37.458598],[127.062364,37.458546],[127.061927,37.458383],[127.061927,37.458421]]]}},{"type":"Feature","id":"SOCHUN:11650:32100001165020190013UJC2000001312","properties":{"MNUM":"32100001165020190013UJC2000001312","admin_code":"11650","sgg_code":"11650","source_layer":"LSMD_CONT_UJ301","semantic":"sochun"},"geometry":{"type":"Polygon","coordinates":[[[127.062922,37.459626],[127.062989,37.459735],[127.062989,37.459675],[127.062922,37.459626]]]}},{"type":"Feature","id":"SOCHUN:11650:32100001165020190013UJC2000001311","properties":{"MNUM":"32100001165020190013UJC2000001311","admin_code":"11650","sgg_code":"11650","source_layer":"LSMD_CONT_UJ301","semantic":"sochun"},"geometry":{"type":"Polygon","coordinates":[[[127.064038,37.461709],[127.064075,37.461754],[127.064063,37.4617],[127.064038,37.461709]]]}},{"type":"Feature","id":"SOCHUN:11650:32100001165020180201UJC2000008023","properties":{"MNUM":"32100001165020180201UJC2000008023","admin_code":"11650","sgg_code":"11650","source_layer":"LSMD_CONT_UJ301","semantic":"sochun"},"geometry":{"type":"Polygon","coordinates":[[[127.060796,37.457017],[127.06154,37.458124],[127.061812,37.458209],[127.061945,37.458333],[127.062487,37.458555],[127.062601,37.458733],[127.062622,37.458837],[127.0628,37.459116],[127.062822,37.459444],[127.06328,37.459987],[127.063267,37.460079],[127.063051,37.460492],[127.062884,37.460722],[127.062925,37.460908],[127.062935,37.460733],[127.063114,37.460482],[127.063315,37.460085],[127.063328,37.459994],[127.063293,37.459913],[127.063083,37.459673],[127.063064,37.459583],[127.063004,37.459555],[127.062883,37.459414],[127.062849,37.459086],[127.062579,37.458582],[127.062482,37.458492],[127.06204,37.458326],[127.061822,37.458174],[127.061598,37.458085],[127.06082,37.457006],[127.060796,37.457017]]]}},{"type":"Feature","id":"SOCHUN:11650:32100001165020180201UJC1000008231","properties":{"MNUM":"32100001165020180201UJC1000008231","admin_code":"11650","sgg_code":"11650","source_layer":"LSMD_CONT_UJ301","semantic":"sochun"},"geometry":{"type":"Polygon","coordinates":[[[127.052699,37.45563],[127.053192,37.455812],[127.053439,37.455821],[127.053605,37.455759],[127.054222,37.455323],[127.05439,37.455285],[127.057543,37.455373],[127.057666,37.45539],[127.057922,37.455506],[127.058383,37.455792],[127.058987,37.456029],[127.059063,37.456032],[127.059307,37.456166],[127.059356,37.456238],[127.060104,37.45662],[127.060335,37.456655],[127.060428,37.456603],[127.060366,37.456493],[127.060445,37.456422],[127.061019,37.456166],[127.061404,37.456032],[127.062501,37.455539],[127.062574,37.455422],[127.06258,37.455219],[127.062624,37.455137],[127.063066,37.454714],[127.063989,37.454496],[127.064699,37.454412],[127.064845,37.454372],[127.064935,37.454286],[127.065005,37.454093],[127.065123,37.453961],[127.065102,37.453725],[127.065246,37.453683],[127.0651,37.453713],[127.065092,37.453921],[127.064949,37.454072],[127.064881,37.454261],[127.064806,37.454326],[127.063947,37.454443],[127.062973,37.454667],[127.062889,37.454733],[127.06278,37.454902],[127.062523,37.455141],[127.062487,37.455245],[127.062493,37.455416],[127.062417,37.455517],[127.061696,37.455813],[127.061379,37.455976],[127.061017,37.456097],[127.060298,37.45641],[127.060209,37.456395],[127.059323,37.455888],[127.058585,37.455543],[127.05795,37.455187],[127.057637,37.455084],[127.0562,37.45513],[127.054366,37.455092],[127.054096,37.45514],[127.054146,37.455227],[127.054102,37.455219],[127.053893,37.45533],[127.053447,37.455658],[127.053281,37.455667],[127.052768,37.455484],[127.052699,37.45563]]]}},{"type":"Feature","id":"SOCHUN:11650:32100001165020190013UJC2000001316","properties":{"MNUM":"32100001165020190013UJC2000001316","admin_code":"11650","sgg_code":"11650","source_layer":"LSMD_CONT_UJ301","semantic":"sochun"},"geometry":{"type":"Polygon","coordinates":[[[127.052768,37.455484],[127.053333,37.455674],[127.05348,37.455641],[127.053699,37.455476],[127.053536,37.455569],[127.053343,37.455602],[127.053181,37.455581],[127.052784,37.455449],[127.052768,37.455484]]]}},{"type":"Feature","id":"SOCHUN:11650:32100001165020190013UJC2000001315","properties":{"MNUM":"32100001165020190013UJC2000001315","admin_code":"11650","sgg_code":"11650","source_layer":"LSMD_CONT_UJ301","semantic":"sochun"},"geometry":{"type":"Polygon","coordinates":[[[127.052662,37.455707],[127.053137,37.455863],[127.053408,37.455877],[127.053659,37.455802],[127.054039,37.455509],[127.054378,37.455376],[127.05479,37.455338],[127.055769,37.455338],[127.055653,37.455303],[127.05439,37.455285],[127.054222,37.455323],[127.053605,37.455759],[127.053439,37.455821],[127.053192,37.455812],[127.052699,37.45563],[127.052662,37.455707]]]}},{"type":"Feature","id":"SOCHUN:11650:32100001165020190013UJC2000001314","properties":{"MNUM":"32100001165020190013UJC2000001314","admin_code":"11650","sgg_code":"11650","source_layer":"LSMD_CONT_UJ301","semantic":"sochun"},"geometry":{"type":"Polygon","coordinates":[[[127.060335,37.456655],[127.060697,37.457062],[127.060672,37.457074],[127.061465,37.458137],[127.061501,37.458141],[127.060753,37.457039],[127.060402,37.456621],[127.060428,37.456603],[127.060335,37.456655]]]}}]}