{"type":"FeatureCollection","features":[{"type":"Feature","id":"SOCHUN:29200:36300002920020170007UJC1000001005","properties":{"MNUM":"36300002920020170007UJC1000001005","admin_code":"29200","sgg_code":"29200","source_layer":"LSMD_CONT_UJ301","semantic":"sochun","notified_on":"2017-01-24"},"geometry":{"type":"Polygon","coordinates":[[[126.749026,35.212997],[126.752638,35.216214],[126.752791,35.216432],[126.758554,35.22008],[126.759062,35.220358],[126.759824,35.220996],[126.759956,35.221209],[126.760281,35.221445],[126.760596,35.221573],[126.760781,35.221616],[126.760428,35.222223],[126.760464,35.222276],[126.760708,35.222353],[126.76114,35.222557],[126.761473,35.222558],[126.761547,35.22262],[126.761693,35.222642],[126.761804,35.222854],[126.762075,35.223113],[126.762308,35.223702],[126.762336,35.224021],[126.76222,35.2252],[126.762175,35.225389],[126.762052,35.225372],[126.762045,35.225394],[126.761703,35.225417],[126.760962,35.225813],[126.760639,35.226159],[126.760358,35.226396],[126.760331,35.226383],[126.760299,35.226461],[126.759962,35.226659],[126.759862,35.22664],[126.759654,35.226702],[126.759597,35.226786],[126.759629,35.226832],[126.759616,35.226877],[126.759457,35.227035],[126.759314,35.227013],[126.759142,35.227115],[126.758648,35.227535],[126.758519,35.227706],[126.758411,35.227744],[126.758118,35.227957],[126.757992,35.228011],[126.757944,35.228],[126.758063,35.228115],[126.758148,35.22806],[126.758162,35.228006],[126.758508,35.227772],[126.758698,35.227705],[126.758675,35.227656],[126.759006,35.227444],[126.759169,35.227247],[126.759324,35.227118],[126.759424,35.22714],[126.759549,35.22711],[126.759812,35.226842],[126.75998,35.22674],[126.760117,35.226715],[126.760217,35.226611],[126.760308,35.226593],[126.760509,35.226389],[126.760608,35.226369],[126.760727,35.226276],[126.760974,35.225993],[126.761001,35.225891],[126.761364,35.225686],[126.761543,35.225636],[126.761596,35.225568],[126.76175,35.225493],[126.762207,35.225439],[126.762294,35.225396],[126.762351,35.22531],[126.762404,35.224756],[126.762437,35.224744],[126.762478,35.224285],[126.762537,35.224062],[126.762506,35.223809],[126.76245,35.223563],[126.762333,35.223271],[126.76216,35.222946],[126.761925,35.222667],[126.761856,35.222407],[126.761743,35.222219],[126.761747,35.222082],[126.761779,35.222062],[126.761284,35.221744],[126.761071,35.221489],[126.760414,35.221406],[126.760228,35.221186],[126.760066,35.221172],[126.760008,35.221132],[126.759908,35.220914],[126.75914,35.220306],[126.756761,35.2188],[126.756528,35.218692],[126.756267,35.218472],[126.752908,35.216363],[126.752689,35.21607],[126.751911,35.215354],[126.751766,35.215154],[126.751695,35.215182],[126.751647,35.215144],[126.74948,35.213216],[126.749248,35.212997],[126.749171,35.212849],[126.749026,35.212997]]]}},{"type":"Feature","id":"SOCHUN:29200:36300002920020170007UJC1000001006","properties":{"MNUM":"36300002920020170007UJC1000001006","admin_code":"29200","sgg_code":"29200","source_layer":"LSMD_CONT_UJ301","semantic":"sochun","notified_on":"2017-01-24"},"geometry":{"type":"Polygon","coordinates":[[[126.754823,35.208049],[126.757992,35.210881],[126.758041,35.210924],[126.758063,35.210907],[126.758348,35.211154],[126.758452,35.211284],[126.759362,35.212098],[126.759345,35.212415],[126.759406,35.212448],[126.759466,35.212538],[126.769146,35.217791],[126.76918,35.21774],[126.769534,35.217781],[126.769435,35.217747],[126.76957,35.21757],[126.769572,35.217477],[126.769536,35.217449],[126.769308,35.217506],[126.769072,35.21751],[126.768685,35.21737],[126.760558,35.212962],[126.760522,35.212897],[126.759746,35.212486],[126.759583,35.212254],[126.759556,35.211976],[126.755551,35.208397],[126.755578,35.208373],[126.755366,35.208163],[126.75533,35.207638],[126.755246,35.207627],[126.754964,35.207816],[126.754982,35.207841],[126.754841,35.207932],[126.754874,35.208017],[126.754823,35.208049]]]}},{"type":"Feature","id":"SOCHUN:29200:36300002920020170007UJC1000001007","properties":{"MNUM":"36300002920020170007UJC1000001007","admin_code":"29200","sgg_code":"29200","source_layer":"LSMD_CONT_UJ301","semantic":"sochun","notified_on":"2017-01-24"},"geometry":{"type":"Polygon","coordinates":[[[126.758515,35.196609],[126.758587,35.196836],[126.758721,35.196869],[126.758961,35.197009],[126.759041,35.197215],[126.759126,35.197173],[126.760081,35.197848],[126.760292,35.198029],[126.760461,35.198114],[126.760876,35.198403],[126.764119,35.200807],[126.764766,35.201764],[126.764753,35.201846],[126.764788,35.201898],[126.765001,35.202032],[126.765336,35.20216],[126.765957,35.202273],[126.771175,35.202889],[126.771671,35.202885],[126.771844,35.202831],[126.771915,35.202753],[126.771981,35.20273],[126.772008,35.202678],[126.771938,35.202232],[126.771908,35.202179],[126.771782,35.202158],[126.771684,35.202211],[126.771659,35.202286],[126.771682,35.202577],[126.771678,35.202656],[126.77164,35.2027],[126.771199,35.202708],[126.76587,35.202098],[126.765219,35.201947],[126.765079,35.201879],[126.764985,35.201756],[126.764992,35.201722],[126.764857,35.201608],[126.764331,35.200768],[126.763725,35.200289],[126.763738,35.20025],[126.760585,35.197955],[126.759663,35.197179],[126.7591,35.196786],[126.758993,35.19668],[126.758646,35.196587],[126.758515,35.196609]]]}},{"type":"Feature","id":"SOCHUN:29200:36300002920020170007UJC1000001008","properties":{"MNUM":"36300002920020170007UJC1000001008","admin_code":"29200","sgg_code":"29200","source_layer":"LSMD_CONT_UJ301","semantic":"sochun","notified_on":"2017-01-24"},"geometry":{"type":"Polygon","coordinates":[[[126.816754,35.204248],[126.818777,35.207042],[126.819401,35.207554],[126.820635,35.208408],[126.820639,35.208454],[126.821023,35.20872],[126.821787,35.209066],[126.821882,35.209115],[126.821944,35.209193],[126.821972,35.209152],[126.822301,35.209326],[126.82233,35.209317],[126.823156,35.2097],[126.823197,35.209641],[126.82115,35.208686],[126.81955,35.207575],[126.81883,35.20699],[126.816814,35.204214],[126.816754,35.204248]]]}},{"type":"Feature","id":"SOCHUN:29200:36300002920020170007UJC1000001009","properties":{"MNUM":"36300002920020170007UJC1000001009","admin_code":"29200","sgg_code":"29200","source_layer":"LSMD_CONT_UJ301","semantic":"sochun","notified_on":"2017-01-24"},"geometry":{"type":"Polygon","coordinates":[[[126.758003,35.19488],[126.758026,35.19498],[126.758383,35.19511],[126.758566,35.195066],[126.758863,35.195185],[126.759771,35.195599],[126.7603,35.195896],[126.760812,35.196267],[126.761422,35.196796],[126.761446,35.196849],[126.761523,35.196876],[126.761601,35.19685],[126.761727,35.196956],[126.762223,35.197615],[126.762471,35.197834],[126.762873,35.198066],[126.763113,35.198169],[126.76364,35.198292],[126.764109,35.198345],[126.764268,35.198328],[126.76667,35.198521],[126.767365,35.1986],[126.767362,35.198624],[126.767401,35.1986],[126.767727,35.198628],[126.768002,35.198611],[126.768902,35.198475],[126.769062,35.198406],[126.769288,35.198242],[126.769388,35.198212],[126.76935,35.198177],[126.769371,35.198141],[126.770132,35.197601],[126.771692,35.196412],[126.771754,35.196404],[126.771735,35.196344],[126.772661,35.195648],[126.771443,35.194555],[126.771418,35.194583],[126.771327,35.194518],[126.771388,35.194467],[126.771357,35.194445],[126.771294,35.194494],[126.769828,35.193435],[126.769665,35.192997],[126.76964,35.192953],[126.769567,35.192963],[126.769551,35.19299],[126.769706,35.193476],[126.770166,35.193807],[126.770146,35.193833],[126.770189,35.193899],[126.770852,35.19436],[126.771296,35.194713],[126.77148,35.194816],[126.772376,35.195654],[126.772318,35.195715],[126.772333,35.195748],[126.770123,35.197394],[126.770081,35.197406],[126.76996,35.197296],[126.769909,35.197334],[126.769939,35.197399],[126.769911,35.197465],[126.768844,35.198224],[126.767887,35.198359],[126.767266,35.198316],[126.767242,35.198352],[126.766911,35.198338],[126.764714,35.198156],[126.764704,35.198203],[126.764281,35.198168],[126.764239,35.198136],[126.763352,35.19802],[126.763136,35.197957],[126.762504,35.197587],[126.762178,35.197186],[126.761963,35.196838],[126.761702,35.196629],[126.761331,35.196234],[126.760174,35.195419],[126.758497,35.194624],[126.758327,35.194899],[126.758153,35.194869],[126.758003,35.19488]]]}},{"type":"Feature","id":"SOCHUN:29200:36300002920020170007UJC2000001023","properties":{"MNUM":"36300002920020170007UJC2000001023","admin_code":"29200","sgg_code":"29200","source_layer":"LSMD_CONT_UJ301","semantic":"sochun","notified_on":"2017-01-24"},"geometry":{"type":"MultiPolygon","coordinates":[[[[126.77105,35.20287],[126.771141,35.20288],[126.771118,35.202873],[126.771061,35.202866],[126.77105,35.20287]]],[[[126.768822,35.202615],[126.769374,35.202695],[126.769378,35.202717],[126.770645,35.202862],[126.770659,35.202842],[126.770991,35.202872],[126.768822,35.202615]]],[[[126.765683,35.20206],[126.771199,35.202708],[126.771604,35.202714],[126.771678,35.202656],[126.771661,35.202305],[126.771651,35.202621],[126.771427,35.202661],[126.765898,35.202049],[126.765715,35.202035],[126.765683,35.20206]]],[[[126.759088,35.197193],[126.759704,35.197673],[126.764074,35.200866],[126.764716,35.201833],[126.764752,35.201819],[126.764766,35.201764],[126.764119,35.200807],[126.760876,35.198403],[126.760461,35.198114],[126.760292,35.198029],[126.760081,35.197848],[126.759126,35.197173],[126.759088,35.197193]]],[[[126.758955,35.196673],[126.759663,35.197179],[126.760585,35.197955],[126.761355,35.198532],[126.761915,35.198936],[126.761973,35.198943],[126.763738,35.20025],[126.763725,35.200289],[126.764331,35.200768],[126.764857,35.201608],[126.76499,35.20173],[126.765023,35.201718],[126.764321,35.200661],[126.761057,35.198234],[126.760001,35.197413],[126.759982,35.197352],[126.758999,35.196632],[126.758955,35.196673]]],[[[126.75865,35.196876],[126.759009,35.197134],[126.758961,35.197009],[126.758721,35.196869],[126.758678,35.196851],[126.75865,35.196876]]]]}},{"type":"Feature","id":"SOCHUN:29200:36300002920020170007UJC1000001001","properties":{"MNUM":"36300002920020170007UJC1000001001","admin_code":"29200","sgg_code":"29200","source_layer":"LSMD_CONT_UJ301","semantic":"sochun","notified_on":"2017-01-24"},"geometry":{"type":"Polygon","coordinates":[[[126.6846,35.210478],[126.685649,35.210488],[126.686064,35.210442],[126.686138,35.210468],[126.686729,35.210492],[126.68689,35.210575],[126.687123,35.210758],[126.687576,35.210924],[126.688419,35.21087],[126.688922,35.210795],[126.689859,35.211033],[126.690511,35.211373],[126.69159,35.212997],[126.691691,35.213078],[126.691831,35.213064],[126.691844,35.213031],[126.691631,35.212825],[126.690632,35.211354],[126.689849,35.210953],[126.688917,35.210746],[126.688368,35.21083],[126.687607,35.210878],[126.687184,35.210711],[126.687165,35.210633],[126.686999,35.210526],[126.686901,35.210398],[126.686696,35.210298],[126.684632,35.210301],[126.6846,35.210478]]]}},{"type":"Feature","id":"SOCHUN:29200:36300002920020170007UJC1000001002","properties":{"MNUM":"36300002920020170007UJC1000001002","admin_code":"29200","sgg_code":"29200","source_layer":"LSMD_CONT_UJ301","semantic":"sochun","notified_on":"2017-01-24"},"geometry":{"type":"Polygon","coordinates":[[[126.679504,35.184329],[126.680269,35.184825],[126.680429,35.184961],[126.680512,35.184967],[126.680688,35.185154],[126.680756,35.185375],[126.680726,35.185593],[126.680849,35.185895],[126.681275,35.186457],[126.682107,35.187128],[126.682479,35.18732],[126.682863,35.187451],[126.683024,35.187582],[126.683203,35.18781],[126.683347,35.187891],[126.683476,35.187883],[126.683656,35.187932],[126.683801,35.188007],[126.683989,35.188169],[126.684152,35.188058],[126.684172,35.188009],[126.684419,35.188128],[126.684454,35.188359],[126.684535,35.188584],[126.684537,35.188733],[126.684691,35.188909],[126.684857,35.189199],[126.685129,35.189496],[126.68516,35.189722],[126.685216,35.189791],[126.685911,35.19024],[126.686153,35.190575],[126.686157,35.190677],[126.686112,35.190798],[126.685818,35.191061],[126.68586,35.191178],[126.685862,35.191424],[126.686078,35.191604],[126.686613,35.191709],[126.68693,35.191883],[126.687206,35.19192],[126.687321,35.191998],[126.687664,35.192433],[126.687805,35.192689],[126.687835,35.192821],[126.688197,35.193052],[126.688506,35.193299],[126.688601,35.1934],[126.688772,35.1938],[126.689029,35.194042],[126.689246,35.19411],[126.689523,35.194152],[126.689668,35.194229],[126.690015,35.194293],[126.690474,35.194437],[126.690908,35.194652],[126.691198,35.194858],[126.691326,35.194891],[126.691458,35.194914],[126.691648,35.194877],[126.691901,35.194894],[126.692045,35.194873],[126.69253,35.195001],[126.692893,35.195141],[126.693123,35.195108],[126.693374,35.195149],[126.693694,35.195159],[126.693868,35.195201],[126.694275,35.195447],[126.69443,35.19559],[126.694618,35.195876],[126.694839,35.196014],[126.695085,35.196223],[126.69542,35.196247],[126.695967,35.196234],[126.696185,35.196192],[126.696792,35.196191],[126.696998,35.196108],[126.697126,35.196097],[126.697103,35.195991],[126.69648,35.196107],[126.69621,35.196102],[126.695361,35.196166],[126.695159,35.196145],[126.694734,35.195851],[126.694593,35.19568],[126.694453,35.195425],[126.694234,35.195309],[126.694084,35.195167],[126.693922,35.195083],[126.693293,35.195003],[126.692978,35.19502],[126.692684,35.194946],[126.692492,35.194861],[126.692332,35.194852],[126.692054,35.194775],[126.691869,35.194813],[126.691378,35.194801],[126.690918,35.194504],[126.690593,35.19435],[126.689925,35.194143],[126.689621,35.194012],[126.68915,35.193916],[126.688942,35.193729],[126.688807,35.193434],[126.688604,35.19321],[126.688048,35.192796],[126.687694,35.192246],[126.687384,35.191873],[126.687293,35.191832],[126.687156,35.191833],[126.686972,35.19178],[126.686476,35.191561],[126.686258,35.191539],[126.686032,35.191392],[126.685997,35.191254],[126.686029,35.191163],[126.686312,35.190726],[126.686284,35.190528],[126.686188,35.190367],[126.685901,35.190095],[126.685855,35.189965],[126.685622,35.189896],[126.685615,35.189866],[126.68536,35.189721],[126.685251,35.189433],[126.685074,35.189247],[126.684792,35.188788],[126.684679,35.18868],[126.684486,35.188071],[126.684185,35.18793],[126.684082,35.187951],[126.684032,35.188021],[126.683874,35.187901],[126.683661,35.18781],[126.683371,35.187754],[126.683287,35.187784],[126.683196,35.187669],[126.682881,35.187396],[126.682462,35.187248],[126.682158,35.187085],[126.681326,35.18642],[126.680815,35.185661],[126.680829,35.185245],[126.680808,35.185168],[126.680655,35.184984],[126.680228,35.184608],[126.679713,35.184272],[126.679574,35.184199],[126.679504,35.184329]]]}},{"type":"Feature","id":"SOCHUN:29200:36300002920020170007UJC2000001024","properties":{"MNUM":"36300002920020170007UJC2000001024","admin_code":"29200","sgg_code":"29200","source_layer":"LSMD_CONT_UJ301","semantic":"sochun","notified_on":"2017-01-24"},"geometry":{"type":"MultiPolygon","coordinates":[[[[126.76935,35.198177],[126.76937,35.198196],[126.770174,35.197611],[126.771754,35.196404],[126.771692,35.196412],[126.76935,35.198177]]],[[[126.76932,35.197898],[126.769374,35.197864],[126.769678,35.197638],[126.76932,35.197898]]],[[[126.770045,35.197374],[126.770081,35.197406],[126.770123,35.197394],[126.772333,35.195748],[126.772318,35.195715],[126.772376,35.195654],[126.771985,35.195278],[126.772311,35.195611],[126.772288,35.195678],[126.770045,35.197374]]],[[[126.771327,35.194518],[126.771418,35.194583],[126.771443,35.194555],[126.771549,35.194635],[126.77136,35.194491],[126.771327,35.194518]]],[[[126.769653,35.192989],[126.769828,35.193435],[126.771294,35.194494],[126.771329,35.194467],[126.771145,35.194326],[126.769865,35.193413],[126.76968,35.192982],[126.769653,35.192989]]],[[[126.770451,35.194087],[126.770571,35.19418],[126.77098,35.194481],[126.771036,35.194514],[126.771,35.194488],[126.770839,35.194372],[126.770852,35.19436],[126.770846,35.194358],[126.770819,35.194345],[126.770818,35.194344],[126.770814,35.194348],[126.770502,35.194124],[126.770451,35.194087]]],[[[126.769493,35.19295],[126.769669,35.193488],[126.770197,35.193891],[126.770146,35.193833],[126.770166,35.193807],[126.769706,35.193476],[126.769551,35.19299],[126.769594,35.192957],[126.769583,35.192926],[126.769493,35.19295]]],[[[126.76157,35.196867],[126.761722,35.197003],[126.762384,35.197815],[126.762611,35.197977],[126.763187,35.198216],[126.763525,35.198292],[126.764458,35.198392],[126.767357,35.198599],[126.76543,35.198417],[126.764268,35.198328],[126.764109,35.198345],[126.763299,35.198228],[126.762873,35.198066],[126.762471,35.197834],[126.762113,35.197486],[126.761809,35.197039],[126.761601,35.19685],[126.76157,35.196867]]],[[[126.764783,35.198163],[126.764821,35.198166],[126.764929,35.198177],[126.765119,35.198192],[126.765309,35.198207],[126.765364,35.198213],[126.76556,35.198233],[126.765673,35.198245],[126.765756,35.198253],[126.765809,35.198259],[126.765873,35.198264],[126.765926,35.198267],[126.765937,35.198268],[126.765942,35.198268],[126.765808,35.198254],[126.765779,35.198243],[126.765039,35.19818],[126.764783,35.198163]]],[[[126.763943,35.198098],[126.764239,35.198136],[126.764281,35.198168],[126.764704,35.198203],[126.764711,35.198165],[126.763943,35.198098]]]]}},{"type":"Feature","id":"SOCHUN:29200:36300002920020170007UJC2000001026","properties":{"MNUM":"36300002920020170007UJC2000001026","admin_code":"29200","sgg_code":"29200","source_layer":"LSMD_CONT_UJ301","semantic":"sochun","notified_on":"2017-01-24"},"geometry":{"type":"MultiPolygon","coordinates":[[[[126.769183,35.198325],[126.7692,35.198316],[126.769294,35.198251],[126.769291,35.198244],[126.769288,35.198242],[126.769287,35.198245],[126.769224,35.198298],[126.769183,35.198325]]],[[[126.771735,35.196344],[126.771749,35.196369],[126.771808,35.196325],[126.771787,35.196304],[126.771735,35.196344]]]]}},{"type":"Feature","id":"SOCHUN:29200:36300002920020170007UJC2000001027","properties":{"MNUM":"36300002920020170007UJC2000001027","admin_code":"29200","sgg_code":"29200","source_layer":"LSMD_CONT_UJ301","semantic":"sochun","notified_on":"2017-01-24"},"geometry":{"type":"MultiPolygon","coordinates":[[[[126.731219,35.191987],[126.731329,35.19157],[126.731238,35.191772],[126.731219,35.191987]]],[[[126.731357,35.191514],[126.731492,35.191228],[126.73198,35.190618],[126.731998,35.190524],[126.732261,35.190212],[126.73212,35.190314],[126.731981,35.190475],[126.731953,35.190614],[126.731482,35.191225],[126.731357,35.191514]]],[[[126.732591,35.189666],[126.732596,35.189796],[126.732616,35.189707],[126.732657,35.187953],[126.732626,35.188027],[126.732631,35.189042],[126.732599,35.189126],[126.732591,35.189666]]],[[[126.732817,35.189507],[126.732862,35.189508],[126.73286,35.188898],[126.732827,35.188885],[126.732817,35.189507]]],[[[126.732897,35.187916],[126.732991,35.187811],[126.733226,35.187353],[126.732897,35.187916]]],[[[126.733892,35.185944],[126.733972,35.186049],[126.733976,35.185968],[126.734388,35.185561],[126.734423,35.185424],[126.734413,35.185242],[126.734316,35.184633],[126.734617,35.184409],[126.734665,35.184239],[126.734663,35.184069],[126.734622,35.184041],[126.734524,35.184101],[126.734477,35.184365],[126.734218,35.184634],[126.734301,35.185168],[126.734282,35.1855],[126.733949,35.185846],[126.733892,35.185944]]],[[[126.734141,35.184587],[126.734159,35.184694],[126.734199,35.184509],[126.734408,35.184378],[126.734444,35.184246],[126.734434,35.18399],[126.734661,35.183799],[126.737263,35.181895],[126.739085,35.180522],[126.739201,35.180379],[126.742796,35.177713],[126.742665,35.17777],[126.742085,35.178195],[126.736588,35.182317],[126.735275,35.18326],[126.735284,35.183289],[126.734411,35.183957],[126.734385,35.184176],[126.734417,35.184224],[126.734385,35.184321],[126.734173,35.184502],[126.734141,35.184587]]],[[[126.735113,35.183685],[126.735134,35.183698],[126.735776,35.183241],[126.73746,35.181972],[126.738437,35.18129],[126.742855,35.177988],[126.742917,35.177909],[126.739393,35.180522],[126.739355,35.18058],[126.739234,35.18062],[126.735113,35.183685]]],[[[126.742964,35.177863],[126.743232,35.17767],[126.743298,35.177658],[126.744155,35.177018],[126.744013,35.177114],[126.743991,35.177094],[126.742964,35.177863]]],[[[126.743117,35.177438],[126.743122,35.177471],[126.743182,35.177429],[126.744034,35.176784],[126.743748,35.176448],[126.743763,35.176413],[126.743666,35.176486],[126.743958,35.176805],[126.743117,35.177438]]]]}},{"type":"Feature","id":"SOCHUN:29200:36300002920020170007UJC2000001029","properties":{"MNUM":"36300002920020170007UJC2000001029","admin_code":"29200","sgg_code":"29200","source_layer":"LSMD_CONT_UJ301","semantic":"sochun","notified_on":"2017-01-24"},"geometry":{"type":"MultiPolygon","coordinates":[[[[126.71573,35.18432],[126.715731,35.184341],[126.716543,35.184073],[126.716641,35.184007],[126.716681,35.183931],[126.716542,35.18404],[126.716224,35.184116],[126.71573,35.18432]]],[[[126.716549,35.183832],[126.71659,35.183853],[126.717085,35.183338],[126.717647,35.183103],[126.717771,35.183026],[126.71781,35.182962],[126.717766,35.182888],[126.717681,35.183036],[126.717051,35.183306],[126.716549,35.183832]]],[[[126.71736,35.183343],[126.717661,35.183215],[126.717733,35.183178],[126.717789,35.183146],[126.717836,35.183112],[126.717785,35.183137],[126.717777,35.183142],[126.717517,35.183266],[126.71737,35.183337],[126.71736,35.183343]]],[[[126.71789,35.18277],[126.718021,35.182692],[126.718166,35.182547],[126.71789,35.18277]]],[[[126.718088,35.178575],[126.718175,35.17938],[126.71831,35.181963],[126.718286,35.181976],[126.718295,35.182164],[126.71833,35.182276],[126.718313,35.181433],[126.718155,35.178642],[126.718224,35.178508],[126.718343,35.178384],[126.718329,35.178305],[126.718193,35.178424],[126.718088,35.178575]]],[[[126.718324,35.179027],[126.718333,35.179297],[126.718343,35.179567],[126.718355,35.179837],[126.718359,35.179927],[126.718369,35.180109],[126.718386,35.18047],[126.718388,35.180517],[126.718402,35.180789],[126.71841,35.180924],[126.718434,35.181347],[126.718434,35.181347],[126.71843,35.181177],[126.718406,35.180725],[126.718401,35.180521],[126.718398,35.180463],[126.718385,35.180275],[126.718369,35.179856],[126.718345,35.179374],[126.718327,35.179026],[126.718324,35.179027]]],[[[126.71827,35.178652],[126.718312,35.178825],[126.718293,35.178577],[126.71827,35.178652]]],[[[126.717789,35.17426],[126.717957,35.175236],[126.717923,35.175241],[126.718497,35.178177],[126.718513,35.178314],[126.718436,35.178451],[126.718544,35.178333],[126.717833,35.174456],[126.717839,35.174282],[126.717884,35.174193],[126.718754,35.173316],[126.718807,35.167138],[126.71871,35.166457],[126.718676,35.173325],[126.717872,35.174133],[126.717789,35.17426]]],[[[126.717579,35.17429],[126.718007,35.173819],[126.718558,35.17332],[126.718579,35.167128],[126.718449,35.167126],[126.718445,35.171874],[126.718479,35.173267],[126.717709,35.174042],[126.71761,35.174182],[126.717579,35.17429]]],[[[126.718121,35.167124],[126.718165,35.167122],[126.718144,35.167112],[126.71827,35.166951],[126.718247,35.166933],[126.71816,35.167001],[126.718121,35.167124]]],[[[126.718643,35.16647],[126.718709,35.166451],[126.718701,35.166401],[126.718643,35.16647]]]]}},{"type":"Feature","id":"SOCHUN:29200:36300002920020170007UJC2000001030","properties":{"MNUM":"36300002920020170007UJC2000001030","admin_code":"29200","sgg_code":"29200","source_layer":"LSMD_CONT_UJ301","semantic":"sochun","notified_on":"2017-01-24"},"geometry":{"type":"MultiPolygon","coordinates":[[[[126.766256,35.08933],[126.766259,35.089371],[126.766277,35.08937],[126.766266,35.08933],[126.766259,35.08933],[126.766256,35.08933]]],[[[126.766247,35.089246],[126.766249,35.089268],[126.766475,35.089232],[126.766247,35.089246]]],[[[126.76644,35.089359],[126.766888,35.089351],[126.767022,35.089301],[126.7673,35.089118],[126.767277,35.089088],[126.766917,35.089309],[126.766613,35.089321],[126.766563,35.089347],[126.766493,35.089331],[126.76644,35.089359]]],[[[126.766675,35.089232],[126.766685,35.089272],[126.766853,35.089278],[126.767139,35.089147],[126.767383,35.088982],[126.76723,35.089024],[126.76684,35.089234],[126.766675,35.089232]]],[[[126.767434,35.088958],[126.76751,35.088912],[126.767879,35.088332],[126.767816,35.088334],[126.767434,35.088958]]],[[[126.768351,35.088661],[126.768509,35.088703],[126.768933,35.088627],[126.769062,35.088628],[126.769446,35.088435],[126.769564,35.088329],[126.769757,35.088005],[126.769972,35.087834],[126.77005,35.087731],[126.77008,35.087619],[126.770011,35.087547],[126.770237,35.087275],[126.770574,35.086951],[126.770838,35.086464],[126.770877,35.086458],[126.771292,35.086658],[126.771328,35.086612],[126.770869,35.086388],[126.770812,35.086395],[126.770537,35.086931],[126.770384,35.087057],[126.770234,35.087242],[126.770138,35.087289],[126.7701,35.087349],[126.770143,35.087365],[126.769996,35.087564],[126.769944,35.087727],[126.769709,35.08796],[126.76956,35.088156],[126.769481,35.088322],[126.769046,35.08857],[126.768848,35.088588],[126.768457,35.088694],[126.768409,35.088636],[126.768374,35.088626],[126.768351,35.088661]]],[[[126.771308,35.08641],[126.771371,35.086471],[126.771469,35.086413],[126.771646,35.086224],[126.771536,35.086174],[126.7714,35.086347],[126.771308,35.08641]]],[[[126.771518,35.086526],[126.771792,35.086279],[126.771749,35.086249],[126.771541,35.08646],[126.771518,35.086526]]],[[[126.772336,35.086078],[126.772483,35.086053],[126.772635,35.085965],[126.773253,35.085315],[126.773554,35.084945],[126.773669,35.084489],[126.773646,35.084297],[126.773562,35.0841],[126.773547,35.084194],[126.773603,35.08452],[126.773586,35.084689],[126.773517,35.084772],[126.773433,35.085013],[126.772607,35.085919],[126.772336,35.086078]]],[[[126.77362,35.083979],[126.773848,35.083777],[126.774104,35.083803],[126.77425,35.083762],[126.774607,35.083515],[126.774693,35.083361],[126.774541,35.08353],[126.774176,35.08373],[126.773769,35.083732],[126.773699,35.083776],[126.77362,35.083979]]],[[[126.77335,35.08387],[126.77337,35.083932],[126.77342,35.083927],[126.773554,35.083838],[126.773659,35.08371],[126.773835,35.083628],[126.774095,35.083679],[126.77425,35.083587],[126.774414,35.083436],[126.774103,35.083615],[126.773894,35.083579],[126.773715,35.083612],[126.773597,35.083687],[126.773475,35.08383],[126.77335,35.08387]]],[[[126.77456,35.083141],[126.774687,35.082992],[126.774718,35.082677],[126.774697,35.082372],[126.774646,35.082895],[126.77456,35.083141]]],[[[126.774907,35.082354],[126.775181,35.081687],[126.77527,35.081554],[126.775402,35.081442],[126.775837,35.081181],[126.776337,35.080758],[126.776475,35.080734],[126.778892,35.080854],[126.777075,35.080729],[126.776426,35.080709],[126.776321,35.080748],[126.775792,35.081179],[126.775271,35.081511],[126.775154,35.081685],[126.774907,35.082354]]],[[[126.77953,35.080873],[126.77998,35.080802],[126.780302,35.080847],[126.780495,35.080927],[126.780952,35.081296],[126.781266,35.081435],[126.782461,35.081765],[126.783206,35.081813],[126.783427,35.081798],[126.783741,35.081726],[126.784235,35.08171],[126.784511,35.08165],[126.784805,35.081521],[126.785403,35.081109],[126.785634,35.081084],[126.785974,35.080954],[126.785957,35.080923],[126.785409,35.08109],[126.785143,35.081224],[126.784819,35.081483],[126.784669,35.081558],[126.784285,35.081676],[126.783232,35.081776],[126.782398,35.08171],[126.781254,35.081405],[126.781024,35.081312],[126.781017,35.081275],[126.780825,35.081169],[126.780534,35.080912],[126.780335,35.080832],[126.779922,35.080785],[126.77953,35.080873]]],[[[126.785267,35.080871],[126.785296,35.080904],[126.785343,35.080857],[126.78584,35.080673],[126.786464,35.080388],[126.785267,35.080871]]]]}},{"type":"Feature","id":"SOCHUN:29200:36300002920020170007UJC1000001014","properties":{"MNUM":"36300002920020170007UJC1000001014","admin_code":"29200","sgg_code":"29200","source_layer":"LSMD_CONT_UJ301","semantic":"sochun","notified_on":"2017-01-24"},"geometry":{"type":"Polygon","coordinates":[[[126.708371,35.114904],[126.708372,35.114943],[126.708624,35.114942],[126.708578,35.115006],[126.708794,35.11494],[126.712435,35.114343],[126.717071,35.114214],[126.717389,35.114115],[126.719001,35.11298],[126.719503,35.112658],[126.719746,35.11255],[126.720024,35.112478],[126.720932,35.112433],[126.722608,35.112666],[126.723348,35.112802],[126.723504,35.112897],[126.724864,35.114069],[126.725997,35.115115],[126.7276,35.11649],[126.733065,35.12133],[126.733043,35.121346],[126.735259,35.123314],[126.73522,35.123364],[126.735282,35.123344],[126.73529,35.123375],[126.735335,35.123369],[126.735475,35.123286],[126.735483,35.123255],[126.735384,35.123152],[126.730713,35.119035],[126.730603,35.118972],[126.730281,35.118688],[126.7302,35.118583],[126.72612,35.114962],[126.723533,35.112744],[126.723422,35.112692],[126.722709,35.112566],[126.722649,35.112511],[126.722387,35.112509],[126.72144,35.112344],[126.721395,35.112302],[126.721349,35.112329],[126.721328,35.112392],[126.720864,35.112293],[126.72052,35.112338],[126.720497,35.112321],[126.720304,35.112348],[126.720291,35.11232],[126.720223,35.112326],[126.720209,35.112362],[126.720166,35.112367],[126.720104,35.112331],[126.719925,35.112362],[126.719417,35.112571],[126.71899,35.112836],[126.717305,35.114031],[126.717042,35.114122],[126.712428,35.114239],[126.708688,35.114836],[126.708651,35.114903],[126.708371,35.114904]]]}},{"type":"Feature","id":"SOCHUN:29200:36300002920020170007UJC2000001022","properties":{"MNUM":"36300002920020170007UJC2000001022","admin_code":"29200","sgg_code":"29200","source_layer":"LSMD_CONT_UJ301","semantic":"sochun","notified_on":"2017-01-24"},"geometry":{"type":"MultiPolygon","coordinates":[[[[126.768609,35.217489],[126.768886,35.217672],[126.768965,35.217689],[126.768609,35.217489]]],[[[126.760541,35.212931],[126.768685,35.21737],[126.768951,35.217479],[126.762967,35.214217],[126.762488,35.213925],[126.762178,35.213795],[126.760541,35.212931]]],[[[126.76702,35.216628],[126.767534,35.216924],[126.767774,35.21704],[126.767777,35.217037],[126.767569,35.216924],[126.767294,35.216774],[126.767021,35.216626],[126.76702,35.216628]]],[[[126.759434,35.212542],[126.759514,35.21263],[126.759707,35.212749],[126.762101,35.214013],[126.762097,35.214035],[126.762302,35.214137],[126.762298,35.214158],[126.763734,35.214865],[126.766276,35.216224],[126.759459,35.212528],[126.759434,35.212542]]],[[[126.755366,35.208163],[126.755711,35.208547],[126.759556,35.211976],[126.759583,35.212254],[126.759648,35.212336],[126.759669,35.212062],[126.759597,35.211898],[126.758552,35.210955],[126.758522,35.210979],[126.757947,35.210481],[126.755386,35.208148],[126.755366,35.208163]]],[[[126.758048,35.210918],[126.758423,35.211245],[126.75816,35.210987],[126.758048,35.210918]]],[[[126.755104,35.208315],[126.756006,35.209134],[126.75606,35.209152],[126.755104,35.208315]]]]}},{"type":"Feature","id":"SOCHUN:29200:36300002920020170007UJC2000001020","properties":{"MNUM":"36300002920020170007UJC2000001020","admin_code":"29200","sgg_code":"29200","source_layer":"LSMD_CONT_UJ301","semantic":"sochun","notified_on":"2017-01-24"},"geometry":{"type":"Polygon","coordinates":[[[126.741279,35.197862],[126.741394,35.197778],[126.741379,35.197788],[126.741322,35.197823],[126.741279,35.197862]]]}},{"type":"Feature","id":"SOCHUN:29200:36300002920020170007UJC2000001021","properties":{"MNUM":"36300002920020170007UJC2000001021","admin_code":"29200","sgg_code":"29200","source_layer":"LSMD_CONT_UJ301","semantic":"sochun","notified_on":"2017-01-24"},"geometry":{"type":"MultiPolygon","coordinates":[[[[126.672596,35.159526],[126.67311,35.160389],[126.673544,35.160992],[126.674782,35.162191],[126.675289,35.162637],[126.675329,35.162628],[126.675152,35.162457],[126.674989,35.162375],[126.67476,35.162089],[126.674692,35.162076],[126.674691,35.162042],[126.67354,35.160964],[126.672998,35.160187],[126.672596,35.159526]]],[[[126.673542,35.160646],[126.673689,35.160875],[126.67443,35.161565],[126.674438,35.161619],[126.674797,35.161959],[126.674817,35.161945],[126.67444,35.161564],[126.673789,35.160965],[126.673542,35.160646]]],[[[126.672649,35.158967],[126.672699,35.159292],[126.672871,35.159616],[126.673251,35.16026],[126.673536,35.160638],[126.673047,35.159907],[126.672714,35.159288],[126.672655,35.158606],[126.672649,35.158967]]],[[[126.672345,35.157709],[126.672545,35.157948],[126.672634,35.158188],[126.672655,35.15818],[126.672655,35.158605],[126.672685,35.158212],[126.672582,35.15795],[126.672366,35.157694],[126.672514,35.157368],[126.67241,35.157512],[126.672345,35.157709]]],[[[126.672542,35.157128],[126.672565,35.157143],[126.672746,35.156871],[126.672905,35.156753],[126.673173,35.156633],[126.672875,35.156746],[126.672713,35.156873],[126.672542,35.157128]]],[[[126.673393,35.156516],[126.674296,35.155929],[126.674749,35.15568],[126.675088,35.155616],[126.675221,35.155521],[126.675324,35.155356],[126.67511,35.155582],[126.674766,35.155641],[126.674656,35.155727],[126.674252,35.155912],[126.673596,35.156336],[126.673393,35.156516]]],[[[126.673666,35.156045],[126.673694,35.156077],[126.674579,35.155557],[126.674786,35.155483],[126.675076,35.15544],[126.675154,35.155329],[126.675054,35.155447],[126.674621,35.15552],[126.673666,35.156045]]],[[[126.672168,35.157874],[126.672321,35.15803],[126.672385,35.158147],[126.6724,35.159117],[126.672497,35.159346],[126.672424,35.159063],[126.672426,35.158396],[126.672395,35.15811],[126.672319,35.15798],[126.672168,35.157874]]]]}},{"type":"Feature","id":"SOCHUN:29200:36300002920020170007UJC1000001003","properties":{"MNUM":"36300002920020170007UJC1000001003","admin_code":"29200","sgg_code":"29200","source_layer":"LSMD_CONT_UJ301","semantic":"sochun","notified_on":"2017-01-24"},"geometry":{"type":"Polygon","coordinates":[[[126.672135,35.157761],[126.672157,35.157862],[126.672319,35.15798],[126.672395,35.15811],[126.672426,35.158396],[126.672424,35.159063],[126.672497,35.159347],[126.672998,35.160187],[126.673413,35.160806],[126.673683,35.161111],[126.674691,35.162042],[126.674692,35.162076],[126.67476,35.162089],[126.674989,35.162375],[126.675152,35.162457],[126.675328,35.16263],[126.675416,35.162654],[126.675955,35.163167],[126.675897,35.163181],[126.675922,35.163239],[126.676579,35.16345],[126.677055,35.163508],[126.677443,35.163478],[126.677471,35.163502],[126.678794,35.16325],[126.679048,35.163243],[126.680453,35.163476],[126.680725,35.163558],[126.680845,35.163557],[126.68109,35.163613],[126.682019,35.164084],[126.682122,35.164107],[126.682187,35.164162],[126.684798,35.165479],[126.685239,35.16585],[126.685457,35.165933],[126.685921,35.166274],[126.68607,35.166348],[126.686047,35.166366],[126.686471,35.166694],[126.686618,35.166748],[126.686822,35.166647],[126.686753,35.166538],[126.686573,35.166384],[126.684995,35.165291],[126.682721,35.164146],[126.682559,35.164023],[126.682525,35.164043],[126.682421,35.163998],[126.682078,35.163796],[126.682083,35.163824],[126.681276,35.163439],[126.679019,35.163025],[126.677436,35.163297],[126.677398,35.163327],[126.677134,35.163374],[126.676822,35.163357],[126.676439,35.163274],[126.676096,35.163153],[126.674581,35.161757],[126.674438,35.161619],[126.67443,35.161565],[126.673689,35.160875],[126.673251,35.16026],[126.672699,35.159292],[126.672649,35.158967],[126.672655,35.15818],[126.672634,35.158188],[126.672545,35.157948],[126.672347,35.157733],[126.672376,35.157582],[126.672539,35.157331],[126.672542,35.157128],[126.672713,35.156873],[126.672875,35.156746],[126.673195,35.15663],[126.673393,35.156515],[126.673596,35.156336],[126.674252,35.155912],[126.674656,35.155727],[126.674766,35.155641],[126.67511,35.155582],[126.675386,35.155288],[126.675584,35.15521],[126.675615,35.155167],[126.676104,35.155027],[126.67603,35.1549],[126.675354,35.155185],[126.67516,35.155303],[126.675076,35.15544],[126.674786,35.155483],[126.674579,35.155557],[126.673662,35.156097],[126.673079,35.156526],[126.672799,35.156642],[126.672809,35.156664],[126.672494,35.156942],[126.672135,35.157761]]]}},{"type":"Feature","id":"SOCHUN:29200:36300002920020170007UJC1000001004","properties":{"MNUM":"36300002920020170007UJC1000001004","admin_code":"29200","sgg_code":"29200","source_layer":"LSMD_CONT_UJ301","semantic":"sochun","notified_on":"2017-01-24"},"geometry":{"type":"Polygon","coordinates":[[[126.656203,35.15091],[126.656336,35.151075],[126.656348,35.151171],[126.656466,35.151368],[126.656556,35.151449],[126.657031,35.151647],[126.65706,35.151719],[126.657282,35.15188],[126.657302,35.151946],[126.657418,35.152547],[126.657485,35.152672],[126.657414,35.152977],[126.657329,35.153147],[126.657276,35.153493],[126.657433,35.154199],[126.657295,35.154858],[126.6572,35.155045],[126.657443,35.155133],[126.657492,35.155261],[126.657708,35.155494],[126.658046,35.156268],[126.658038,35.156426],[126.658146,35.156551],[126.658404,35.157091],[126.658393,35.157271],[126.658493,35.157428],[126.658579,35.157503],[126.658676,35.157735],[126.658711,35.157954],[126.658607,35.158248],[126.658624,35.158366],[126.658574,35.158516],[126.658612,35.15867],[126.658585,35.15881],[126.658656,35.159086],[126.658848,35.159485],[126.658835,35.159596],[126.658896,35.159733],[126.658792,35.160143],[126.658641,35.160423],[126.658678,35.160429],[126.658617,35.160527],[126.658686,35.160549],[126.658716,35.160435],[126.658802,35.160449],[126.658877,35.160146],[126.658946,35.160011],[126.659028,35.159953],[126.659057,35.159821],[126.659035,35.159709],[126.65898,35.159693],[126.658883,35.159274],[126.658721,35.158969],[126.658792,35.158836],[126.658816,35.158702],[126.658736,35.158269],[126.658889,35.157831],[126.658794,35.157614],[126.658611,35.157363],[126.65856,35.157212],[126.658587,35.157069],[126.658287,35.156538],[126.658223,35.156312],[126.658125,35.156161],[126.657933,35.155675],[126.657786,35.155391],[126.657626,35.155208],[126.657696,35.154456],[126.657638,35.153998],[126.657479,35.153339],[126.657609,35.1528],[126.657444,35.151934],[126.657404,35.151825],[126.657153,35.151566],[126.656719,35.151387],[126.656591,35.151298],[126.656415,35.150938],[126.656203,35.15091]]]}},{"type":"Feature","id":"SOCHUN:29200:36300002920020170007UJC2000001005","properties":{"MNUM":"36300002920020170007UJC2000001005","admin_code":"29200","sgg_code":"29200","source_layer":"LSMD_CONT_UJ301","semantic":"sochun","notified_on":"2017-01-24"},"geometry":{"type":"MultiPolygon","coordinates":[[[[126.687296,35.19198],[126.687301,35.191985],[126.687309,35.191993],[126.687448,35.192174],[126.687523,35.192282],[126.687583,35.192333],[126.687643,35.192401],[126.687621,35.192368],[126.687572,35.192306],[126.687525,35.192245],[126.68751,35.192234],[126.687491,35.192196],[126.687375,35.192051],[126.687321,35.191998],[126.687296,35.19198]]],[[[126.685809,35.191252],[126.685823,35.191388],[126.685874,35.191491],[126.686046,35.19164],[126.68619,35.191691],[126.686581,35.191754],[126.686963,35.191927],[126.687281,35.191968],[126.687206,35.19192],[126.68693,35.191883],[126.686613,35.191709],[126.686078,35.191604],[126.685909,35.191482],[126.685842,35.191385],[126.685839,35.191106],[126.685809,35.191252]]],[[[126.685865,35.190012],[126.685901,35.190095],[126.686188,35.190367],[126.686311,35.190592],[126.686278,35.190808],[126.686116,35.190995],[126.685997,35.191254],[126.686032,35.191392],[126.686258,35.191539],[126.686476,35.191561],[126.686972,35.19178],[126.687156,35.191833],[126.687351,35.19185],[126.687525,35.192015],[126.68756,35.191997],[126.687453,35.191867],[126.68735,35.191803],[126.686997,35.191755],[126.686637,35.191582],[126.686185,35.191503],[126.686073,35.191419],[126.686027,35.191328],[126.686055,35.191149],[126.686306,35.190819],[126.686341,35.190585],[126.68621,35.190343],[126.685865,35.190012]]],[[[126.683347,35.187891],[126.683693,35.187982],[126.683969,35.188177],[126.684102,35.188172],[126.684197,35.188099],[126.68434,35.188165],[126.684452,35.18871],[126.684676,35.188994],[126.684827,35.189274],[126.685043,35.189516],[126.685116,35.18977],[126.685291,35.189922],[126.685782,35.190201],[126.686053,35.190467],[126.686122,35.190691],[126.685935,35.190946],[126.686136,35.190758],[126.68616,35.190609],[126.686127,35.19052],[126.685911,35.19024],[126.685216,35.189791],[126.68516,35.189722],[126.685129,35.189496],[126.684857,35.189199],[126.684691,35.188909],[126.684537,35.188733],[126.684535,35.188584],[126.684454,35.188359],[126.684419,35.188128],[126.684172,35.188009],[126.684152,35.188058],[126.683989,35.188169],[126.683801,35.188007],[126.683656,35.187932],[126.683476,35.187883],[126.683347,35.187891]]],[[[126.679574,35.184199],[126.680228,35.184608],[126.680758,35.185105],[126.680829,35.185245],[126.680801,35.185596],[126.680869,35.185776],[126.681326,35.18642],[126.681698,35.186723],[126.682281,35.187166],[126.682924,35.187423],[126.683287,35.187784],[126.683371,35.187754],[126.683661,35.18781],[126.683874,35.187901],[126.684032,35.188021],[126.684081,35.187952],[126.684185,35.18793],[126.684486,35.188071],[126.684679,35.18868],[126.684792,35.188788],[126.685074,35.189247],[126.685251,35.189433],[126.68536,35.189721],[126.685615,35.189866],[126.685622,35.189896],[126.685715,35.189926],[126.68538,35.189688],[126.685359,35.189562],[126.685272,35.189417],[126.684992,35.189095],[126.684717,35.188671],[126.684571,35.188091],[126.684517,35.188013],[126.684227,35.187863],[126.684091,35.187862],[126.684006,35.187915],[126.683734,35.187758],[126.683407,35.187688],[126.683306,35.18769],[126.683166,35.187506],[126.682933,35.187342],[126.682621,35.187232],[126.682104,35.186939],[126.681499,35.186454],[126.68114,35.186094],[126.680853,35.185634],[126.680881,35.185244],[126.680787,35.185066],[126.680267,35.184581],[126.679608,35.18415],[126.679574,35.184199]]],[[[126.679494,35.184348],[126.680116,35.18476],[126.680593,35.185208],[126.680633,35.185331],[126.680612,35.185544],[126.68068,35.185755],[126.68103,35.186259],[126.681262,35.186489],[126.682215,35.187245],[126.682772,35.187478],[126.682978,35.187645],[126.68311,35.187724],[126.683135,35.187712],[126.683024,35.187582],[126.682812,35.187422],[126.682479,35.18732],[126.682152,35.187161],[126.681275,35.186457],[126.680801,35.185826],[126.680726,35.185593],[126.680756,35.185375],[126.680718,35.185189],[126.680512,35.184967],[126.680429,35.184961],[126.680269,35.184825],[126.679504,35.184329],[126.679494,35.184348]]]]}},{"type":"Feature","id":"SOCHUN:29200:36300002920020170007UJC2000001007","properties":{"MNUM":"36300002920020170007UJC2000001007","admin_code":"29200","sgg_code":"29200","source_layer":"LSMD_CONT_UJ301","semantic":"sochun","notified_on":"2017-01-24"},"geometry":{"type":"MultiPolygon","coordinates":[[[[126.658624,35.160448],[126.658678,35.160429],[126.658641,35.160423],[126.658812,35.160053],[126.658624,35.160448]]],[[[126.658721,35.158969],[126.658883,35.159274],[126.65898,35.159693],[126.659035,35.159709],[126.659057,35.159821],[126.659028,35.159953],[126.658946,35.160011],[126.658877,35.160146],[126.658803,35.160448],[126.659021,35.160007],[126.659081,35.159785],[126.659024,35.159508],[126.658806,35.158944],[126.658721,35.158969]]],[[[126.658777,35.158866],[126.658827,35.158721],[126.658794,35.158585],[126.658815,35.158769],[126.658777,35.158866]]],[[[126.658736,35.158269],[126.658785,35.158534],[126.658769,35.158228],[126.65886,35.157918],[126.658736,35.158269]]],[[[126.65856,35.157212],[126.658611,35.157363],[126.658794,35.157614],[126.65888,35.157811],[126.658825,35.157619],[126.658623,35.157318],[126.65858,35.157136],[126.65856,35.157212]]],[[[126.656366,35.150934],[126.656415,35.150938],[126.656572,35.151274],[126.656634,35.151338],[126.657153,35.151566],[126.657419,35.151857],[126.657609,35.1528],[126.657479,35.153339],[126.657638,35.153998],[126.657696,35.154456],[126.657626,35.155208],[126.657799,35.155414],[126.658125,35.156161],[126.658223,35.156312],[126.658287,35.156538],[126.658534,35.156974],[126.657869,35.155424],[126.65771,35.155163],[126.657737,35.154291],[126.657547,35.153348],[126.657639,35.152748],[126.657468,35.151902],[126.657376,35.151753],[126.657185,35.151563],[126.656648,35.151309],[126.656561,35.151206],[126.656436,35.150915],[126.656366,35.150934]]],[[[126.658691,35.160527],[126.658759,35.160545],[126.658802,35.160449],[126.658716,35.160435],[126.658691,35.160527]]]]}},{"type":"Feature","id":"SOCHUN:29200:36300002920020170007UJC2000001008","properties":{"MNUM":"36300002920020170007UJC2000001008","admin_code":"29200","sgg_code":"29200","source_layer":"LSMD_CONT_UJ301","semantic":"sochun","notified_on":"2017-01-24"},"geometry":{"type":"Polygon","coordinates":[[[126.672497,35.159347],[126.672498,35.15935],[126.672534,35.159422],[126.672595,35.159524],[126.672595,35.159524],[126.672556,35.159445],[126.672548,35.159428],[126.672532,35.159412],[126.672498,35.15935],[126.672497,35.159347]]]}},{"type":"Feature","id":"SOCHUN:29200:36300002920020170007UJC2000001009","properties":{"MNUM":"36300002920020170007UJC2000001009","admin_code":"29200","sgg_code":"29200","source_layer":"LSMD_CONT_UJ301","semantic":"sochun","notified_on":"2017-01-24"},"geometry":{"type":"MultiPolygon","coordinates":[[[[126.683446,35.164798],[126.68445,35.165325],[126.684467,35.165303],[126.683446,35.164798]]],[[[126.683469,35.164524],[126.684619,35.165107],[126.684634,35.165087],[126.683469,35.164524]]],[[[126.682386,35.164257],[126.682586,35.164373],[126.683056,35.164606],[126.683442,35.164796],[126.68331,35.164728],[126.683124,35.164632],[126.682938,35.164536],[126.682876,35.164504],[126.682753,35.164439],[126.682538,35.164333],[126.682386,35.164257]]],[[[126.682099,35.163822],[126.682111,35.163837],[126.682159,35.163859],[126.682205,35.163889],[126.682246,35.163911],[126.682421,35.163998],[126.682427,35.164],[126.682284,35.163915],[126.682099,35.163822]]],[[[126.679292,35.16307],[126.67947,35.163123],[126.681276,35.163439],[126.682083,35.163824],[126.681348,35.163443],[126.681142,35.163379],[126.679292,35.16307]]],[[[126.681199,35.16366],[126.681653,35.163898],[126.681806,35.163966],[126.681629,35.163875],[126.681496,35.163807],[126.681304,35.163709],[126.68126,35.163686],[126.681199,35.16366]]],[[[126.675982,35.163261],[126.676101,35.16334],[126.676389,35.163433],[126.677045,35.163553],[126.677321,35.163532],[126.678809,35.16327],[126.679001,35.163264],[126.681064,35.163609],[126.68118,35.163652],[126.680965,35.16358],[126.680725,35.163558],[126.680566,35.163497],[126.679048,35.163243],[126.678794,35.16325],[126.677471,35.163502],[126.677443,35.163478],[126.677055,35.163508],[126.676579,35.16345],[126.675982,35.163261]]],[[[126.676391,35.16326],[126.676822,35.163357],[126.677134,35.163374],[126.677398,35.163327],[126.677436,35.163297],[126.679009,35.163025],[126.678533,35.163068],[126.677208,35.163312],[126.676829,35.163325],[126.676409,35.163225],[126.676391,35.16326]]]]}},{"type":"Feature","id":"SOCHUN:29200:36300002920020170007UJC2000001012","properties":{"MNUM":"36300002920020170007UJC2000001012","admin_code":"29200","sgg_code":"29200","source_layer":"LSMD_CONT_UJ301","semantic":"sochun","notified_on":"2017-01-24"},"geometry":{"type":"MultiPolygon","coordinates":[[[[126.708787,35.114986],[126.70889,35.114992],[126.712434,35.114401],[126.717156,35.114277],[126.717412,35.114162],[126.719046,35.113032],[126.719685,35.112651],[126.720013,35.112557],[126.72095,35.112504],[126.723298,35.112856],[126.723413,35.112916],[126.725137,35.114417],[126.735246,35.123331],[126.735259,35.123314],[126.729914,35.118535],[126.725997,35.115115],[126.724864,35.114069],[126.723504,35.112897],[126.723348,35.112802],[126.722608,35.112666],[126.720932,35.112433],[126.720012,35.11248],[126.719633,35.112596],[126.719308,35.112773],[126.717389,35.114115],[126.717071,35.114214],[126.712435,35.114343],[126.708794,35.11494],[126.708787,35.114986]]],[[[126.708751,35.114831],[126.712428,35.114239],[126.717042,35.114122],[126.717305,35.114031],[126.71899,35.112836],[126.719417,35.112571],[126.719925,35.112362],[126.720104,35.112331],[126.720166,35.112367],[126.720209,35.112362],[126.720223,35.112326],[126.720291,35.11232],[126.720304,35.112348],[126.720497,35.112321],[126.72052,35.112338],[126.720864,35.112293],[126.719966,35.112333],[126.719606,35.112442],[126.718699,35.112976],[126.717179,35.114025],[126.717015,35.114082],[126.712395,35.114212],[126.709145,35.11474],[126.708829,35.114794],[126.708751,35.114831]]],[[[126.720898,35.112305],[126.721328,35.112392],[126.721344,35.112343],[126.720898,35.112305]]],[[[126.721755,35.112401],[126.722387,35.112509],[126.722534,35.11251],[126.721755,35.112401]]],[[[126.722661,35.112521],[126.722709,35.112566],[126.723422,35.112692],[126.723533,35.112744],[126.724062,35.113207],[126.724087,35.113191],[126.723509,35.112701],[126.723324,35.112635],[126.722661,35.112521]]],[[[126.72773,35.116405],[126.728467,35.117057],[126.728495,35.117082],[126.72926,35.117752],[126.729294,35.117783],[126.729814,35.118244],[126.729958,35.118371],[126.730045,35.118445],[126.730054,35.118438],[126.729893,35.118301],[126.72952,35.11797],[126.729143,35.117643],[126.72877,35.117313],[126.728541,35.117102],[126.728436,35.11701],[126.728399,35.116981],[126.728022,35.116653],[126.72773,35.116405]]],[[[126.730885,35.119203],[126.733193,35.121237],[126.731394,35.119616],[126.730885,35.119203]]],[[[126.735177,35.123391],[126.73521,35.123438],[126.735316,35.123371],[126.735282,35.123344],[126.735177,35.123391]]]]}},{"type":"Feature","id":"SOCHUN:29200:36300002920020170007UJC1000001010","properties":{"MNUM":"36300002920020170007UJC1000001010","admin_code":"29200","sgg_code":"29200","source_layer":"LSMD_CONT_UJ301","semantic":"sochun","notified_on":"2017-01-24"},"geometry":{"type":"Polygon","coordinates":[[[126.737563,35.202157],[126.737574,35.20233],[126.737641,35.202326],[126.737714,35.202291],[126.737665,35.201999],[126.737629,35.201982],[126.738327,35.201894],[126.738567,35.201594],[126.738813,35.201214],[126.738782,35.201192],[126.740293,35.198923],[126.740675,35.198576],[126.74076,35.198537],[126.740754,35.198503],[126.741319,35.198009],[126.742939,35.196863],[126.745328,35.196117],[126.746115,35.195777],[126.746314,35.195628],[126.746372,35.195643],[126.747388,35.194904],[126.74736,35.19487],[126.747506,35.194759],[126.748434,35.19408],[126.748554,35.194046],[126.748906,35.193788],[126.749512,35.193262],[126.749892,35.192807],[126.749988,35.192771],[126.750271,35.192426],[126.750464,35.192078],[126.750598,35.191722],[126.750697,35.191349],[126.750638,35.191277],[126.750646,35.191234],[126.750332,35.191175],[126.750282,35.19152],[126.750171,35.1919],[126.750126,35.191921],[126.750137,35.191991],[126.750089,35.192099],[126.749869,35.192441],[126.74894,35.19346],[126.748411,35.193905],[126.746248,35.195417],[126.745727,35.195738],[126.745442,35.195885],[126.744812,35.196121],[126.743065,35.196672],[126.742999,35.196688],[126.742957,35.19665],[126.741099,35.197994],[126.740274,35.198734],[126.740253,35.19882],[126.73854,35.201335],[126.73824,35.201853],[126.737625,35.20194],[126.737623,35.201916],[126.737575,35.201921],[126.737563,35.202157]]]}},{"type":"Feature","id":"SOCHUN:29200:36300002920020170007UJC2000001010","properties":{"MNUM":"36300002920020170007UJC2000001010","admin_code":"29200","sgg_code":"29200","source_layer":"LSMD_CONT_UJ301","semantic":"sochun","notified_on":"2017-01-24"},"geometry":{"type":"MultiPolygon","coordinates":[[[[126.821075,35.208769],[126.823042,35.209721],[126.823177,35.209722],[126.823164,35.209689],[126.82233,35.209317],[126.822301,35.209326],[126.821972,35.209152],[126.821944,35.209193],[126.821882,35.209115],[126.821446,35.208896],[126.821123,35.20875],[126.821075,35.208769]]],[[[126.8194,35.207633],[126.820087,35.208117],[126.820136,35.208072],[126.819483,35.207608],[126.8194,35.207633]]],[[[126.818339,35.206315],[126.81851,35.206548],[126.818561,35.206524],[126.818391,35.20629],[126.818339,35.206315]]],[[[126.816645,35.204296],[126.818013,35.206164],[126.818043,35.206161],[126.818377,35.206614],[126.818442,35.206582],[126.816757,35.204242],[126.816645,35.204296]]],[[[126.816814,35.204214],[126.818173,35.206093],[126.818239,35.20606],[126.816917,35.204165],[126.816814,35.204214]]]]}},{"type":"Feature","id":"SOCHUN:29200:36300002920020170007UJC1000001011","properties":{"MNUM":"36300002920020170007UJC1000001011","admin_code":"29200","sgg_code":"29200","source_layer":"LSMD_CONT_UJ301","semantic":"sochun","notified_on":"2017-01-24"},"geometry":{"type":"Polygon","coordinates":[[[126.729893,35.19267],[126.729932,35.192816],[126.730115,35.192719],[126.730075,35.192611],[126.730132,35.192528],[126.730331,35.19253],[126.731102,35.192424],[126.731258,35.192363],[126.731324,35.192304],[126.731536,35.191644],[126.731711,35.191278],[126.732072,35.190835],[126.732273,35.190513],[126.732791,35.189839],[126.732788,35.18976],[126.732885,35.189509],[126.732817,35.189507],[126.732827,35.188885],[126.732868,35.188901],[126.732869,35.188008],[126.732912,35.187867],[126.733994,35.18608],[126.733892,35.185944],[126.733907,35.18591],[126.734282,35.1855],[126.734301,35.185168],[126.734218,35.184634],[126.734498,35.184332],[126.734513,35.184133],[126.734555,35.184063],[126.734901,35.183858],[126.739234,35.18062],[126.739355,35.18058],[126.739393,35.180522],[126.74288,35.177946],[126.743583,35.177392],[126.744319,35.176893],[126.744322,35.176831],[126.743949,35.176293],[126.74388,35.176291],[126.743728,35.17638],[126.743776,35.176425],[126.743748,35.176448],[126.744034,35.176784],[126.743988,35.176831],[126.739201,35.180379],[126.739085,35.180522],[126.738645,35.180855],[126.734434,35.18399],[126.734444,35.184246],[126.734408,35.184378],[126.734199,35.184509],[126.734216,35.184524],[126.734162,35.184579],[126.734237,35.185188],[126.734239,35.185487],[126.733809,35.185923],[126.733714,35.186121],[126.733737,35.186153],[126.733554,35.186382],[126.733141,35.18714],[126.732832,35.187613],[126.732778,35.187801],[126.732657,35.187953],[126.732602,35.189798],[126.731998,35.190524],[126.73198,35.190618],[126.731438,35.191309],[126.731251,35.191839],[126.731221,35.192054],[126.731136,35.192188],[126.730778,35.192268],[126.730498,35.192273],[126.729935,35.192432],[126.729893,35.19267]]]}},{"type":"Feature","id":"SOCHUN:29200:36300002920020170007UJC1000001012","properties":{"MNUM":"36300002920020170007UJC1000001012","admin_code":"29200","sgg_code":"29200","source_layer":"LSMD_CONT_UJ301","semantic":"sochun","notified_on":"2017-01-24"},"geometry":{"type":"Polygon","coordinates":[[[126.71563,35.184326],[126.715659,35.184569],[126.715744,35.184537],[126.71573,35.18432],[126.715939,35.184217],[126.716589,35.184014],[126.716713,35.183896],[126.716756,35.183892],[126.71725,35.18339],[126.717838,35.183111],[126.717922,35.183029],[126.717962,35.182917],[126.71806,35.182861],[126.71849,35.182455],[126.718555,35.182334],[126.718472,35.182005],[126.718316,35.178825],[126.718293,35.178824],[126.71827,35.178652],[126.718276,35.178577],[126.71843,35.178463],[126.718513,35.178298],[126.717923,35.175241],[126.717957,35.175236],[126.717789,35.17426],[126.717872,35.174133],[126.718676,35.173325],[126.718712,35.166448],[126.718564,35.166479],[126.718309,35.166824],[126.71827,35.166839],[126.718291,35.16685],[126.718236,35.166925],[126.71827,35.166951],[126.718144,35.167112],[126.718579,35.167128],[126.718558,35.17332],[126.717721,35.174106],[126.717556,35.174295],[126.717542,35.174353],[126.717612,35.174735],[126.717646,35.174731],[126.717708,35.175038],[126.718334,35.178273],[126.718343,35.178384],[126.718224,35.178508],[126.718155,35.178642],[126.718343,35.182211],[126.718315,35.182346],[126.718229,35.182483],[126.718021,35.182692],[126.717802,35.182835],[126.717766,35.182888],[126.71781,35.182962],[126.717771,35.183026],[126.717647,35.183103],[126.717085,35.183338],[126.716687,35.183725],[126.716501,35.183973],[126.716208,35.184081],[126.716161,35.184057],[126.715903,35.184155],[126.715647,35.184272],[126.71563,35.184326]]]}},{"type":"Feature","id":"SOCHUN:29200:36300002920020170007UJC2000001011","properties":{"MNUM":"36300002920020170007UJC2000001011","admin_code":"29200","sgg_code":"29200","source_layer":"LSMD_CONT_UJ301","semantic":"sochun","notified_on":"2017-01-24"},"geometry":{"type":"MultiPolygon","coordinates":[[[[126.706136,35.132986],[126.706203,35.132997],[126.706145,35.132956],[126.706136,35.132986]]],[[[126.706181,35.132836],[126.706252,35.132771],[126.706451,35.132062],[126.706643,35.131806],[126.706439,35.132072],[126.706181,35.132836]]],[[[126.706685,35.131758],[126.706829,35.131632],[126.707017,35.131464],[126.707088,35.131403],[126.70676,35.131674],[126.706685,35.131758]]],[[[126.707605,35.131012],[126.708692,35.130672],[126.709156,35.130499],[126.709195,35.130516],[126.709372,35.130457],[126.709449,35.130392],[126.707985,35.130851],[126.707605,35.131012]]],[[[126.711563,35.129682],[126.711772,35.129669],[126.71228,35.129747],[126.711838,35.129656],[126.711563,35.129682]]],[[[126.713253,35.129914],[126.713973,35.130075],[126.714236,35.130059],[126.713253,35.129914]]],[[[126.714334,35.130073],[126.714382,35.130109],[126.71473,35.130173],[126.714675,35.130208],[126.714716,35.130225],[126.714892,35.130244],[126.714998,35.130228],[126.715143,35.130088],[126.715138,35.130049],[126.714974,35.130161],[126.714334,35.130073]]],[[[126.714105,35.130234],[126.714329,35.130284],[126.714811,35.13035],[126.714625,35.130318],[126.714529,35.130301],[126.714105,35.130234]]],[[[126.715102,35.130317],[126.715226,35.130285],[126.715231,35.130253],[126.715102,35.130317]]]]}},{"type":"Feature","id":"SOCHUN:29200:36300002920020170007UJC1000001013","properties":{"MNUM":"36300002920020170007UJC1000001013","admin_code":"29200","sgg_code":"29200","source_layer":"LSMD_CONT_UJ301","semantic":"sochun","notified_on":"2017-01-24"},"geometry":{"type":"Polygon","coordinates":[[[126.706127,35.132943],[126.706203,35.132997],[126.706146,35.133123],[126.706309,35.133192],[126.70649,35.132518],[126.706655,35.13237],[126.706648,35.132157],[126.706686,35.132036],[126.706742,35.131957],[126.706788,35.131971],[126.706835,35.131902],[126.70739,35.13143],[126.707751,35.131154],[126.709876,35.130424],[126.709903,35.130383],[126.710045,35.130334],[126.711664,35.129814],[126.711901,35.129826],[126.71263,35.130001],[126.71489,35.130364],[126.71487,35.130585],[126.714913,35.130689],[126.715045,35.130361],[126.715286,35.130215],[126.715272,35.130195],[126.715287,35.130215],[126.715933,35.130077],[126.715944,35.130119],[126.71817,35.129721],[126.718403,35.129712],[126.719118,35.129596],[126.721962,35.129064],[126.722008,35.129066],[126.722185,35.129232],[126.722264,35.129216],[126.722284,35.129024],[126.72321,35.128508],[126.723444,35.12846],[126.723569,35.128547],[126.723675,35.128487],[126.723807,35.128322],[126.723876,35.128342],[126.724475,35.128085],[126.724321,35.127827],[126.724161,35.127729],[126.724413,35.127551],[126.724479,35.127434],[126.724288,35.127271],[126.724212,35.127312],[126.723721,35.127766],[126.722996,35.128342],[126.722405,35.128652],[126.722051,35.128782],[126.721307,35.12892],[126.720749,35.128938],[126.720587,35.128918],[126.720649,35.129003],[126.71585,35.129857],[126.715862,35.129904],[126.715195,35.130014],[126.715138,35.130045],[126.715143,35.130088],[126.715092,35.130151],[126.71495,35.130243],[126.714716,35.130225],[126.714675,35.130208],[126.71473,35.130173],[126.714382,35.130109],[126.714331,35.130068],[126.714345,35.130042],[126.713973,35.130075],[126.712349,35.129745],[126.712237,35.129749],[126.711772,35.129669],[126.711521,35.129687],[126.709773,35.130286],[126.709702,35.130287],[126.709456,35.130385],[126.709372,35.130457],[126.709195,35.130516],[126.709156,35.130499],[126.708692,35.130672],[126.70778,35.130946],[126.707486,35.13108],[126.70665,35.131785],[126.706622,35.131867],[126.706451,35.132062],[126.706252,35.132771],[126.706166,35.132849],[126.706127,35.132943]]]}},{"type":"Feature","id":"SOCHUN:29200:36300002920020170007UJC2000001017","properties":{"MNUM":"36300002920020170007UJC2000001017","admin_code":"29200","sgg_code":"29200","source_layer":"LSMD_CONT_UJ301","semantic":"sochun","notified_on":"2017-01-24"},"geometry":{"type":"MultiPolygon","coordinates":[[[[126.738321,35.201647],[126.738843,35.200923],[126.738793,35.2009],[126.738355,35.201545],[126.738321,35.201647]]],[[[126.739225,35.200287],[126.739258,35.200288],[126.740251,35.198796],[126.739689,35.199575],[126.739225,35.200287]]],[[[126.739823,35.199636],[126.739857,35.199651],[126.740113,35.199253],[126.7404,35.198882],[126.741111,35.198209],[126.741404,35.198041],[126.741775,35.197774],[126.741725,35.197728],[126.741319,35.198009],[126.740754,35.198503],[126.74076,35.198537],[126.740715,35.198543],[126.740371,35.198832],[126.739823,35.199636]]],[[[126.7407,35.198364],[126.741122,35.197991],[126.74074,35.198281],[126.740752,35.198307],[126.7407,35.198364]]],[[[126.742423,35.197006],[126.742441,35.19702],[126.742882,35.196704],[126.742423,35.197006]]],[[[126.742983,35.196673],[126.743128,35.196654],[126.744475,35.196229],[126.744454,35.196209],[126.743969,35.196349],[126.743967,35.196369],[126.742983,35.196673]]],[[[126.747403,35.194839],[126.747441,35.194875],[126.74894,35.193827],[126.749269,35.193528],[126.749933,35.192835],[126.749892,35.192807],[126.749512,35.193262],[126.748906,35.193788],[126.748554,35.194046],[126.748434,35.19408],[126.747403,35.194839]]],[[[126.747753,35.19435],[126.747754,35.194351],[126.747881,35.194262],[126.748001,35.194177],[126.748268,35.193989],[126.748257,35.193982],[126.748134,35.194072],[126.747753,35.19435]]]]}},{"type":"Feature","id":"SOCHUN:29200:36300002920020170007UJC2000001001","properties":{"MNUM":"36300002920020170007UJC2000001001","admin_code":"29200","sgg_code":"29200","source_layer":"LSMD_CONT_UJ301","semantic":"sochun","notified_on":"2017-01-24"},"geometry":{"type":"Polygon","coordinates":[[[126.685649,35.210471],[126.686643,35.210493],[126.687066,35.210747],[126.687572,35.210965],[126.687689,35.210983],[126.688465,35.21092],[126.688936,35.210848],[126.689382,35.210979],[126.689863,35.211065],[126.690141,35.211222],[126.690161,35.211281],[126.690555,35.211457],[126.691555,35.212995],[126.691632,35.213088],[126.691691,35.213078],[126.691454,35.212818],[126.690511,35.211373],[126.689893,35.211047],[126.688922,35.210795],[126.688419,35.21087],[126.687633,35.210932],[126.687123,35.210758],[126.68689,35.210575],[126.686729,35.210492],[126.686138,35.210468],[126.686064,35.210442],[126.685649,35.210471]]]}},{"type":"Feature","id":"SOCHUN:29200:36300002920020170007UJC1000001015","properties":{"MNUM":"36300002920020170007UJC1000001015","admin_code":"29200","sgg_code":"29200","source_layer":"LSMD_CONT_UJ301","semantic":"sochun","notified_on":"2017-01-24"},"geometry":{"type":"Polygon","coordinates":[[[126.766173,35.089288],[126.76619,35.089339],[126.766266,35.08933],[126.766283,35.08939],[126.766493,35.089331],[126.766563,35.089347],[126.766613,35.089321],[126.766917,35.089309],[126.767368,35.089048],[126.767531,35.089079],[126.767878,35.088517],[126.767893,35.08842],[126.768363,35.088606],[126.768457,35.088694],[126.768848,35.088588],[126.769046,35.08857],[126.769122,35.088532],[126.769481,35.088322],[126.76956,35.088156],[126.769709,35.08796],[126.769944,35.087727],[126.769996,35.087564],[126.770143,35.087365],[126.7701,35.087349],[126.770138,35.087289],[126.770234,35.087242],[126.770384,35.087057],[126.770537,35.086931],[126.770794,35.086408],[126.770869,35.086388],[126.77133,35.086613],[126.771367,35.086555],[126.771505,35.086619],[126.771541,35.08646],[126.771856,35.086141],[126.772086,35.086056],[126.772271,35.086101],[126.772527,35.085987],[126.772607,35.085919],[126.772834,35.085647],[126.773217,35.085278],[126.773474,35.084946],[126.773517,35.084772],[126.773586,35.084689],[126.773603,35.084525],[126.773555,35.084115],[126.773699,35.083776],[126.773854,35.083716],[126.774034,35.083743],[126.774176,35.08373],[126.774541,35.08353],[126.774712,35.083339],[126.774848,35.082982],[126.774865,35.082625],[126.77493,35.082438],[126.774891,35.082435],[126.774913,35.082323],[126.775213,35.081583],[126.775329,35.081454],[126.775792,35.081179],[126.776321,35.080748],[126.776426,35.080709],[126.777075,35.080729],[126.779422,35.080892],[126.78002,35.080783],[126.780447,35.080866],[126.780825,35.081169],[126.781017,35.081275],[126.781024,35.081312],[126.781254,35.081405],[126.782398,35.08171],[126.783232,35.081776],[126.784285,35.081676],[126.784669,35.081558],[126.784819,35.081483],[126.785143,35.081224],[126.785409,35.08109],[126.785957,35.080923],[126.785971,35.080948],[126.786623,35.080722],[126.786476,35.080399],[126.785343,35.080857],[126.785258,35.080943],[126.785069,35.08102],[126.784707,35.081336],[126.784453,35.081456],[126.784063,35.081531],[126.784005,35.081493],[126.78372,35.081507],[126.783433,35.081589],[126.783189,35.081602],[126.782551,35.081579],[126.782357,35.081487],[126.781299,35.08125],[126.781171,35.081197],[126.780728,35.080833],[126.780454,35.080668],[126.779958,35.080644],[126.77959,35.080707],[126.779175,35.080654],[126.778986,35.080597],[126.778502,35.08058],[126.778235,35.080538],[126.777884,35.080567],[126.776645,35.080503],[126.776324,35.080524],[126.776029,35.080647],[126.775758,35.080984],[126.775435,35.081175],[126.775268,35.081205],[126.775201,35.081376],[126.775005,35.08153],[126.774714,35.082376],[126.774687,35.082992],[126.77454,35.083165],[126.774521,35.083298],[126.77441,35.083442],[126.774095,35.083679],[126.773835,35.083628],[126.773659,35.08371],[126.773554,35.083838],[126.77342,35.083927],[126.773328,35.083932],[126.77348,35.084488],[126.773386,35.08488],[126.772506,35.085858],[126.772336,35.085972],[126.772151,35.085954],[126.7721,35.085922],[126.77204,35.085962],[126.771864,35.085999],[126.771469,35.086413],[126.771348,35.086482],[126.771012,35.08637],[126.770819,35.086262],[126.770799,35.086296],[126.770778,35.086284],[126.770719,35.086494],[126.770526,35.086893],[126.770412,35.086971],[126.770315,35.087104],[126.770085,35.087343],[126.770047,35.087329],[126.769937,35.087464],[126.769842,35.08759],[126.769899,35.087661],[126.769636,35.087931],[126.769437,35.088265],[126.769121,35.088477],[126.769041,35.08852],[126.768897,35.08852],[126.768477,35.088622],[126.767902,35.088412],[126.76786,35.088363],[126.76751,35.088912],[126.767139,35.089147],[126.766853,35.089278],[126.766685,35.089272],[126.766675,35.089232],[126.766581,35.089212],[126.766173,35.089288]]]}},{"type":"Feature","id":"SOCHUN:29200:36300002920020170007UJC2000001044","properties":{"MNUM":"36300002920020170007UJC2000001044","admin_code":"29200","sgg_code":"29200","source_layer":"LSMD_CONT_UJ301","semantic":"sochun","notified_on":"2017-01-24"},"geometry":{"type":"Polygon","coordinates":[[[126.769839,35.087695],[126.769862,35.087705],[126.769899,35.087661],[126.769871,35.087629],[126.769839,35.087695]]]}},{"type":"Feature","id":"SOCHUN:29200:36300002920020170007UJC2000001004","properties":{"MNUM":"36300002920020170007UJC2000001004","admin_code":"29200","sgg_code":"29200","source_layer":"LSMD_CONT_UJ301","semantic":"sochun","notified_on":"2017-01-24"},"geometry":{"type":"Polygon","coordinates":[[[126.687953,35.192882],[126.688074,35.193013],[126.6884,35.193231],[126.688595,35.193404],[126.688267,35.193102],[126.687953,35.192882]]]}},{"type":"Feature","id":"SOCHUN:29200:36300002920020170007UJC2000001006","properties":{"MNUM":"36300002920020170007UJC2000001006","admin_code":"29200","sgg_code":"29200","source_layer":"LSMD_CONT_UJ301","semantic":"sochun","notified_on":"2017-01-24"},"geometry":{"type":"MultiPolygon","coordinates":[[[[126.748984,35.213041],[126.74915,35.21323],[126.751567,35.215329],[126.751669,35.215502],[126.752505,35.21621],[126.752735,35.216476],[126.752868,35.216572],[126.752908,35.216565],[126.753076,35.216645],[126.754084,35.217276],[126.752791,35.216432],[126.752638,35.216214],[126.751564,35.215271],[126.751026,35.214754],[126.749093,35.213037],[126.749026,35.212997],[126.748984,35.213041]]],[[[126.751724,35.215171],[126.751766,35.215154],[126.751043,35.2145],[126.750922,35.214423],[126.750314,35.213817],[126.749573,35.213163],[126.749201,35.212879],[126.749248,35.212997],[126.74948,35.213216],[126.751647,35.215144],[126.751695,35.215182],[126.751724,35.215171]]],[[[126.751766,35.215154],[126.751911,35.215354],[126.752689,35.21607],[126.752908,35.216363],[126.755299,35.217869],[126.754257,35.217202],[126.754256,35.217142],[126.753756,35.216805],[126.753115,35.216415],[126.752337,35.215604],[126.751766,35.215154]]],[[[126.755525,35.218009],[126.756267,35.218472],[126.756528,35.218692],[126.756761,35.2188],[126.75914,35.220306],[126.759065,35.22018],[126.758686,35.219956],[126.758653,35.219977],[126.757575,35.219232],[126.757394,35.219126],[126.757365,35.219155],[126.756419,35.218581],[126.756267,35.218414],[126.755831,35.21814],[126.755585,35.217996],[126.755525,35.218009]]],[[[126.758931,35.220332],[126.759742,35.220998],[126.759895,35.221222],[126.760199,35.221421],[126.760302,35.221454],[126.759956,35.221209],[126.759824,35.220996],[126.759062,35.220358],[126.758948,35.220311],[126.758931,35.220332]]],[[[126.756414,35.218741],[126.756704,35.218913],[126.75642,35.218734],[126.756414,35.218741]]]]}},{"type":"Feature","id":"SOCHUN:29200:36300002920020170007UJC2000001041","properties":{"MNUM":"36300002920020170007UJC2000001041","admin_code":"29200","sgg_code":"29200","source_layer":"LSMD_CONT_UJ301","semantic":"sochun","notified_on":"2017-01-24"},"geometry":{"type":"Polygon","coordinates":[[[126.718271,35.16684],[126.718277,35.166869],[126.718291,35.16685],[126.718282,35.166845],[126.718271,35.16684]]]}},{"type":"Feature","id":"SOCHUN:29200:36300002920020170007UJC2000001002","properties":{"MNUM":"36300002920020170007UJC2000001002","admin_code":"29200","sgg_code":"29200","source_layer":"LSMD_CONT_UJ301","semantic":"sochun","notified_on":"2017-01-24"},"geometry":{"type":"Polygon","coordinates":[[[126.684592,35.210509],[126.685312,35.210492],[126.685319,35.210469],[126.6846,35.210478],[126.684592,35.210509]]]}},{"type":"Feature","id":"SOCHUN:29200:36300002920020170007UJC2000001003","properties":{"MNUM":"36300002920020170007UJC2000001003","admin_code":"29200","sgg_code":"29200","source_layer":"LSMD_CONT_UJ301","semantic":"sochun","notified_on":"2017-01-24"},"geometry":{"type":"Polygon","coordinates":[[[126.684631,35.210256],[126.684632,35.210301],[126.684688,35.21031],[126.686696,35.210298],[126.686901,35.210398],[126.686999,35.210526],[126.687165,35.210633],[126.687184,35.210711],[126.687607,35.210878],[126.688368,35.21083],[126.688917,35.210746],[126.689849,35.210953],[126.690632,35.211354],[126.691631,35.212825],[126.691844,35.213031],[126.691879,35.213007],[126.691773,35.21289],[126.691784,35.212866],[126.690846,35.211425],[126.690638,35.211231],[126.689927,35.210868],[126.688958,35.210614],[126.688343,35.210699],[126.687621,35.21074],[126.687099,35.210544],[126.686822,35.210317],[126.686697,35.210268],[126.686024,35.21024],[126.684631,35.210256]]]}}]}