{"type":"FeatureCollection","features":[{"type":"Feature","id":"SOCHUN:44250:55800004425020150082UJC2000003014","properties":{"MNUM":"55800004425020150082UJC2000003014","admin_code":"44250","sgg_code":"44250","source_layer":"LSMD_CONT_UJ301","semantic":"sochun","stream_name":"동촌천","alias_raw":"동촌천","notified_on":"2015-12-15"},"geometry":{"type":"Polygon","coordinates":[[[127.223596,36.283151],[127.223584,36.283125],[127.223567,36.283082],[127.223581,36.283122],[127.223589,36.283144],[127.223598,36.283159],[127.223638,36.283252],[127.223626,36.283222],[127.223606,36.283175],[127.223596,36.283151]]]}},{"type":"Feature","id":"SOCHUN:44250:55800004425020150082UJC2000008004","properties":{"MNUM":"55800004425020150082UJC2000008004","admin_code":"44250","sgg_code":"44250","source_layer":"LSMD_CONT_UJ301","semantic":"sochun","stream_name":"용수말천","alias_raw":"용수말천","notified_on":"2015-12-15"},"geometry":{"type":"Polygon","coordinates":[[[127.254995,36.257775],[127.255071,36.258001],[127.255187,36.25817],[127.255231,36.258152],[127.255142,36.258004],[127.254967,36.257523],[127.254984,36.257434],[127.255162,36.257151],[127.2552,36.257031],[127.255101,36.256547],[127.254985,36.25637],[127.254788,36.25621],[127.254599,36.256125],[127.254228,36.25602],[127.254122,36.255811],[127.254152,36.255713],[127.254346,36.255541],[127.254426,36.255417],[127.254449,36.255264],[127.254391,36.255103],[127.254223,36.254883],[127.253983,36.254694],[127.253802,36.254618],[127.253247,36.254492],[127.253138,36.254416],[127.252789,36.254033],[127.252639,36.254073],[127.252945,36.254414],[127.253116,36.254551],[127.253198,36.254599],[127.253478,36.254606],[127.253801,36.25469],[127.254014,36.254807],[127.254303,36.255075],[127.254389,36.255268],[127.254358,36.255403],[127.254172,36.255644],[127.253952,36.255757],[127.253927,36.255847],[127.253992,36.255946],[127.254159,36.256082],[127.254614,36.256193],[127.254803,36.256281],[127.255045,36.256556],[127.255068,36.256784],[127.255156,36.257045],[127.254925,36.257395],[127.254921,36.257557],[127.254962,36.257589],[127.254938,36.25762],[127.254995,36.257775]]]}},{"type":"Feature","id":"SOCHUN:44250:55800004425020150082UJC2000006013","properties":{"MNUM":"55800004425020150082UJC2000006013","admin_code":"44250","sgg_code":"44250","source_layer":"LSMD_CONT_UJ301","semantic":"sochun","stream_name":"배울천","alias_raw":"배울천","notified_on":"2015-12-15"},"geometry":{"type":"Polygon","coordinates":[[[127.216401,36.264511],[127.21642,36.264006],[127.216369,36.263851],[127.216139,36.263653],[127.21581,36.263586],[127.216108,36.263661],[127.216235,36.263735],[127.216374,36.263892],[127.216411,36.263986],[127.216401,36.264511]]]}},{"type":"Feature","id":"SOCHUN:44250:55800004425020150082UJC2000008006","properties":{"MNUM":"55800004425020150082UJC2000008006","admin_code":"44250","sgg_code":"44250","source_layer":"LSMD_CONT_UJ301","semantic":"sochun","stream_name":"용수말천","alias_raw":"용수말천","notified_on":"2015-12-15"},"geometry":{"type":"Polygon","coordinates":[[[127.252767,36.254365],[127.25275,36.25435],[127.25274,36.254343],[127.252787,36.25439],[127.252767,36.254365]]]}},{"type":"Feature","id":"SOCHUN:44250:55800004425020230037UJC2000100009","properties":{"MNUM":"55800004425020230037UJC2000100009","admin_code":"44250","sgg_code":"44250","source_layer":"LSMD_CONT_UJ301","semantic":"sochun","stream_name":"개터천","alias_raw":"소하천예정지","remark_raw":"개터천","notified_on":"2023-02-10"},"geometry":{"type":"Polygon","coordinates":[[[127.246111,36.257991],[127.246175,36.257984],[127.246058,36.257975],[127.246111,36.257991]]]}},{"type":"Feature","id":"SOCHUN:44250:55800004425020150082UJC2000004010","properties":{"MNUM":"55800004425020150082UJC2000004010","admin_code":"44250","sgg_code":"44250","source_layer":"LSMD_CONT_UJ301","semantic":"sochun","stream_name":"검배천","alias_raw":"검배천","notified_on":"2015-12-15"},"geometry":{"type":"Polygon","coordinates":[[[127.229967,36.285765],[127.2299,36.285484],[127.229878,36.285488],[127.229924,36.285586],[127.229962,36.285869],[127.230012,36.285927],[127.23003,36.285895],[127.22997,36.285827],[127.229967,36.285765]]]}},{"type":"Feature","id":"SOCHUN:44250:55800004425020150082UJC2000002010","properties":{"MNUM":"55800004425020150082UJC2000002010","admin_code":"44250","sgg_code":"44250","source_layer":"LSMD_CONT_UJ301","semantic":"sochun","stream_name":"향한천","alias_raw":"향한천","notified_on":"2015-12-15"},"geometry":{"type":"Polygon","coordinates":[[[127.224122,36.275718],[127.224123,36.276086],[127.224194,36.276023],[127.224178,36.275621],[127.224143,36.275581],[127.224122,36.275718]]]}},{"type":"Feature","id":"SOCHUN:44250:55800004425020150082UJC2000006011","properties":{"MNUM":"55800004425020150082UJC2000006011","admin_code":"44250","sgg_code":"44250","source_layer":"LSMD_CONT_UJ301","semantic":"sochun","stream_name":"배울천","alias_raw":"배울천","notified_on":"2015-12-15"},"geometry":{"type":"Polygon","coordinates":[[[127.216193,36.264392],[127.216205,36.264195],[127.216216,36.264128],[127.216212,36.264111],[127.216195,36.264306],[127.216194,36.264335],[127.216193,36.264364],[127.216193,36.264392]]]}},{"type":"Feature","id":"SOCHUN:44250:55800004425020150082UJC2000003019","properties":{"MNUM":"55800004425020150082UJC2000003019","admin_code":"44250","sgg_code":"44250","source_layer":"LSMD_CONT_UJ301","semantic":"sochun","stream_name":"동촌천","alias_raw":"동촌천","notified_on":"2015-12-15"},"geometry":{"type":"Polygon","coordinates":[[[127.224044,36.284759],[127.223884,36.284405],[127.223998,36.284766],[127.224059,36.284803],[127.224044,36.284759]]]}},{"type":"Feature","id":"SOCHUN:44250:55800004425020150082UJC2000004007","properties":{"MNUM":"55800004425020150082UJC2000004007","admin_code":"44250","sgg_code":"44250","source_layer":"LSMD_CONT_UJ301","semantic":"sochun","stream_name":"검배천","alias_raw":"검배천","notified_on":"2015-12-15"},"geometry":{"type":"Polygon","coordinates":[[[127.229918,36.28409],[127.229988,36.284141],[127.229868,36.283991],[127.229918,36.28409]]]}},{"type":"Feature","id":"SOCHUN:44250:55800004425020150082UJC2000006005","properties":{"MNUM":"55800004425020150082UJC2000006005","admin_code":"44250","sgg_code":"44250","source_layer":"LSMD_CONT_UJ301","semantic":"sochun","stream_name":"배울천","alias_raw":"배울천","notified_on":"2015-12-15"},"geometry":{"type":"Polygon","coordinates":[[[127.215319,36.262804],[127.215321,36.262778],[127.215289,36.26271],[127.2153,36.262741],[127.21531,36.262773],[127.215319,36.262804]]]}},{"type":"Feature","id":"SOCHUN:44250:55800004425020230037UJC2000100011","properties":{"MNUM":"55800004425020230037UJC2000100011","admin_code":"44250","sgg_code":"44250","source_layer":"LSMD_CONT_UJ301","semantic":"sochun","stream_name":"개터천","alias_raw":"소하천예정지","remark_raw":"개터천","notified_on":"2023-02-10"},"geometry":{"type":"Polygon","coordinates":[[[127.247245,36.257948],[127.247464,36.257846],[127.247938,36.257861],[127.24748,36.257825],[127.247245,36.257948]]]}},{"type":"Feature","id":"SOCHUN:44250:55800004425020150082UJC2000003002","properties":{"MNUM":"55800004425020150082UJC2000003002","admin_code":"44250","sgg_code":"44250","source_layer":"LSMD_CONT_UJ301","semantic":"sochun","stream_name":"동촌천","alias_raw":"동촌천","notified_on":"2015-12-15"},"geometry":{"type":"Polygon","coordinates":[[[127.223892,36.280691],[127.223883,36.280659],[127.223877,36.280646],[127.22388,36.280655],[127.223884,36.280668],[127.223887,36.280681],[127.22389,36.280694],[127.223892,36.280691]]]}},{"type":"Feature","id":"SOCHUN:44250:55800004425020150082UJC2000002008","properties":{"MNUM":"55800004425020150082UJC2000002008","admin_code":"44250","sgg_code":"44250","source_layer":"LSMD_CONT_UJ301","semantic":"sochun","stream_name":"향한천","alias_raw":"향한천","notified_on":"2015-12-15"},"geometry":{"type":"Polygon","coordinates":[[[127.22482,36.277945],[127.224743,36.277236],[127.224761,36.277426],[127.224713,36.27754],[127.224812,36.278013],[127.224822,36.278291],[127.22482,36.277945]]]}},{"type":"Feature","id":"SOCHUN:44250:55800004425020150082UJC2000003008","properties":{"MNUM":"55800004425020150082UJC2000003008","admin_code":"44250","sgg_code":"44250","source_layer":"LSMD_CONT_UJ301","semantic":"sochun","stream_name":"동촌천","alias_raw":"동촌천","notified_on":"2015-12-15"},"geometry":{"type":"Polygon","coordinates":[[[127.223598,36.282218],[127.223633,36.282183],[127.223701,36.282114],[127.223688,36.282108],[127.223611,36.282188],[127.223503,36.282295],[127.223474,36.282323],[127.223429,36.282362],[127.22342,36.282375],[127.223365,36.282435],[127.223359,36.282445],[127.223389,36.282413],[127.223397,36.282404],[127.223401,36.282401],[127.223454,36.282352],[127.223465,36.282341],[127.223518,36.282293],[127.223531,36.282281],[127.223587,36.282228],[127.223598,36.282218]]]}},{"type":"Feature","id":"SOCHUN:44250:55800004425020150082UJC2000004002","properties":{"MNUM":"55800004425020150082UJC2000004002","admin_code":"44250","sgg_code":"44250","source_layer":"LSMD_CONT_UJ301","semantic":"sochun","stream_name":"검배천","alias_raw":"검배천","notified_on":"2015-12-15"},"geometry":{"type":"Polygon","coordinates":[[[127.224128,36.281236],[127.22404,36.281171],[127.224002,36.281184],[127.224031,36.281233],[127.224279,36.281356],[127.224128,36.281236]]]}},{"type":"Feature","id":"SOCHUN:44250:55800004425020230036UJC1000100001","properties":{"MNUM":"55800004425020230036UJC1000100001","admin_code":"44250","sgg_code":"44250","source_layer":"LSMD_CONT_UJ301","semantic":"sochun","stream_name":"개터천","alias_raw":"소하천구역","remark_raw":"개터천","notified_on":"2023-02-10"},"geometry":{"type":"Polygon","coordinates":[[[127.254294,36.260616],[127.254231,36.260402],[127.254281,36.260392],[127.254239,36.260278],[127.254192,36.260287],[127.253779,36.260016],[127.254294,36.260616]]]}},{"type":"Feature","id":"SOCHUN:44250:45400004425020200083UJC2000030003","properties":{"MNUM":"45400004425020200083UJC2000030003","admin_code":"44250","sgg_code":"44250","source_layer":"LSMD_CONT_UJ301","semantic":"sochun","stream_name":"무주천","alias_raw":"소하천예정지","remark_raw":"무주천","notified_on":"2020-06-08"},"geometry":{"type":"Polygon","coordinates":[[[127.22734,36.257734],[127.227403,36.257698],[127.227398,36.257693],[127.22734,36.257734]]]}},{"type":"Feature","id":"SOCHUN:44250:55800004425020150082UJC2000004011","properties":{"MNUM":"55800004425020150082UJC2000004011","admin_code":"44250","sgg_code":"44250","source_layer":"LSMD_CONT_UJ301","semantic":"sochun","stream_name":"검배천","alias_raw":"검배천","notified_on":"2015-12-15"},"geometry":{"type":"Polygon","coordinates":[[[127.230013,36.286003],[127.229994,36.285994],[127.229938,36.285967],[127.229944,36.285972],[127.22995,36.285977],[127.229957,36.285981],[127.229963,36.285986],[127.22997,36.28599],[127.229976,36.285994],[127.229983,36.285998],[127.22999,36.286001],[127.229998,36.286005],[127.230005,36.286008],[127.230028,36.286018],[127.230013,36.286005],[127.230013,36.286003]]]}},{"type":"Feature","id":"SOCHUN:44250:55800004425020230037UJC2000100002","properties":{"MNUM":"55800004425020230037UJC2000100002","admin_code":"44250","sgg_code":"44250","source_layer":"LSMD_CONT_UJ301","semantic":"sochun","stream_name":"개터천","alias_raw":"소하천예정지","remark_raw":"개터천","notified_on":"2023-02-10"},"geometry":{"type":"Polygon","coordinates":[[[127.254192,36.260287],[127.254237,36.260276],[127.254094,36.260221],[127.254192,36.260287]]]}},{"type":"Feature","id":"SOCHUN:44250:55800004425020230037UJC2000100005","properties":{"MNUM":"55800004425020230037UJC2000100005","admin_code":"44250","sgg_code":"44250","source_layer":"LSMD_CONT_UJ301","semantic":"sochun","stream_name":"개터천","alias_raw":"소하천예정지","remark_raw":"개터천","notified_on":"2023-02-10"},"geometry":{"type":"Polygon","coordinates":[[[127.246822,36.258085],[127.246198,36.258093],[127.246757,36.258101],[127.247277,36.258058],[127.246822,36.258085]]]}},{"type":"Feature","id":"SOCHUN:44250:55800004425020150082UJC2000003018","properties":{"MNUM":"55800004425020150082UJC2000003018","admin_code":"44250","sgg_code":"44250","source_layer":"LSMD_CONT_UJ301","semantic":"sochun","stream_name":"동촌천","alias_raw":"동촌천","notified_on":"2015-12-15"},"geometry":{"type":"Polygon","coordinates":[[[127.22384,36.284282],[127.223838,36.28427],[127.22383,36.284258],[127.22384,36.284282]]]}},{"type":"Feature","id":"SOCHUN:44250:55800004425020150082UJC2000006012","properties":{"MNUM":"55800004425020150082UJC2000006012","admin_code":"44250","sgg_code":"44250","source_layer":"LSMD_CONT_UJ301","semantic":"sochun","stream_name":"배울천","alias_raw":"배울천","notified_on":"2015-12-15"},"geometry":{"type":"Polygon","coordinates":[[[127.2162,36.264466],[127.2162,36.264465],[127.216194,36.2644],[127.216195,36.264422],[127.216197,36.264444],[127.2162,36.264466]]]}},{"type":"Feature","id":"SOCHUN:44250:55800004425020150082UJC2000003012","properties":{"MNUM":"55800004425020150082UJC2000003012","admin_code":"44250","sgg_code":"44250","source_layer":"LSMD_CONT_UJ301","semantic":"sochun","stream_name":"동촌천","alias_raw":"동촌천","notified_on":"2015-12-15"},"geometry":{"type":"Polygon","coordinates":[[[127.223242,36.282792],[127.223238,36.282786],[127.223237,36.282785],[127.223237,36.282787],[127.223242,36.282792]]]}},{"type":"Feature","id":"SOCHUN:44250:55800004425020150082UJC2000006010","properties":{"MNUM":"55800004425020150082UJC2000006010","admin_code":"44250","sgg_code":"44250","source_layer":"LSMD_CONT_UJ301","semantic":"sochun","stream_name":"배울천","alias_raw":"배울천","notified_on":"2015-12-15"},"geometry":{"type":"Polygon","coordinates":[[[127.216212,36.264109],[127.216228,36.264047],[127.21623,36.264035],[127.216226,36.264012],[127.216215,36.264],[127.216216,36.264006],[127.216217,36.264012],[127.216218,36.264018],[127.216218,36.264024],[127.216218,36.26403],[127.216218,36.264036],[127.216218,36.264042],[127.216212,36.264109]]]}},{"type":"Feature","id":"SOCHUN:44250:55800004425020150082UJC2000003010","properties":{"MNUM":"55800004425020150082UJC2000003010","admin_code":"44250","sgg_code":"44250","source_layer":"LSMD_CONT_UJ301","semantic":"sochun","stream_name":"동촌천","alias_raw":"동촌천","notified_on":"2015-12-15"},"geometry":{"type":"Polygon","coordinates":[[[127.223007,36.282577],[127.223037,36.28254],[127.223041,36.282533],[127.223019,36.282561],[127.223015,36.282566],[127.223011,36.282571],[127.223007,36.282577]]]}},{"type":"Feature","id":"SOCHUN:44250:45400004425020200083UJC2000030002","properties":{"MNUM":"45400004425020200083UJC2000030002","admin_code":"44250","sgg_code":"44250","source_layer":"LSMD_CONT_UJ301","semantic":"sochun","stream_name":"무주천","alias_raw":"소하천예정지","remark_raw":"무주천","notified_on":"2020-06-08"},"geometry":{"type":"Polygon","coordinates":[[[127.227103,36.25792],[127.227227,36.257836],[127.227312,36.25777],[127.227326,36.257746],[127.227331,36.257741],[127.227117,36.257893],[127.227106,36.257915],[127.227103,36.25792]]]}},{"type":"Feature","id":"SOCHUN:44250:55800004425020230027UJC2000100012","properties":{"MNUM":"55800004425020230027UJC2000100012","admin_code":"44250","sgg_code":"44250","source_layer":"LSMD_CONT_UJ301","semantic":"sochun","stream_name":"개터천","alias_raw":"소하천예정지","remark_raw":"개터천","notified_on":"2023-02-10"},"geometry":{"type":"Polygon","coordinates":[[[127.245518,36.257948],[127.245557,36.257839],[127.24547,36.257894],[127.245518,36.257948]]]}},{"type":"Feature","id":"SOCHUN:44250:55800004425020150081UJC1000002001","properties":{"MNUM":"55800004425020150081UJC1000002001","admin_code":"44250","sgg_code":"44250","source_layer":"LSMD_CONT_UJ301","semantic":"sochun","stream_name":"향한천","alias_raw":"향한천","notified_on":"2015-12-15"},"geometry":{"type":"Polygon","coordinates":[[[127.215391,36.287376],[127.215454,36.287213],[127.215495,36.287156],[127.215547,36.287155],[127.215775,36.28671],[127.216146,36.286461],[127.21614,36.28642],[127.21585,36.286597],[127.215824,36.286589],[127.216499,36.285773],[127.216658,36.285613],[127.21668,36.285627],[127.216833,36.285415],[127.216778,36.285386],[127.216925,36.285169],[127.217659,36.284615],[127.217871,36.284322],[127.217911,36.284309],[127.217923,36.284245],[127.218278,36.283862],[127.218319,36.28386],[127.218541,36.283662],[127.218675,36.283606],[127.21904,36.283533],[127.218998,36.283457],[127.219523,36.28315],[127.21959,36.283123],[127.21976,36.283141],[127.219971,36.283061],[127.22033,36.282996],[127.220911,36.28272],[127.220964,36.282454],[127.220942,36.282341],[127.221115,36.282016],[127.22137,36.281894],[127.221729,36.281665],[127.221948,36.28159],[127.222864,36.28084],[127.223658,36.280263],[127.223905,36.280112],[127.224127,36.280097],[127.224258,36.279831],[127.22436,36.279703],[127.224612,36.279533],[127.224862,36.278948],[127.224799,36.27896],[127.224743,36.278926],[127.224805,36.27861],[127.22489,36.27848],[127.224902,36.278337],[127.224822,36.278291],[127.224812,36.278013],[127.224713,36.27754],[127.224761,36.277426],[127.224734,36.277264],[127.224782,36.277032],[127.224751,36.276914],[127.224845,36.276716],[127.224831,36.27663],[127.224671,36.276497],[127.22466,36.276364],[127.224606,36.276384],[127.22456,36.276343],[127.224563,36.276227],[127.224466,36.275936],[127.224484,36.275674],[127.224544,36.275611],[127.224669,36.275056],[127.224213,36.275333],[127.224153,36.275574],[127.224194,36.276023],[127.22409,36.276115],[127.224158,36.276116],[127.224176,36.276206],[127.223995,36.276779],[127.22407,36.276904],[127.224093,36.277176],[127.224382,36.277582],[127.224407,36.278538],[127.224358,36.27891],[127.224257,36.279222],[127.223959,36.279394],[127.223743,36.279636],[127.223605,36.279723],[127.22381,36.279916],[127.223551,36.280051],[127.222669,36.280676],[127.221875,36.281331],[127.221773,36.281381],[127.221734,36.281346],[127.221593,36.281315],[127.221545,36.281528],[127.22142,36.281592],[127.221233,36.281634],[127.220973,36.281837],[127.220818,36.282073],[127.220663,36.282461],[127.220696,36.282487],[127.220258,36.282824],[127.219461,36.282955],[127.219263,36.283055],[127.219293,36.283081],[127.219125,36.283193],[127.21867,36.283372],[127.21861,36.28334],[127.217927,36.283781],[127.217795,36.283911],[127.217737,36.284101],[127.217616,36.28428],[127.217442,36.284433],[127.217114,36.284813],[127.216679,36.285204],[127.216183,36.285936],[127.216105,36.286012],[127.216076,36.285995],[127.215913,36.286061],[127.215775,36.286247],[127.215683,36.2863],[127.21544,36.286667],[127.215372,36.286806],[127.215401,36.286811],[127.215402,36.286857],[127.215122,36.287459],[127.21494,36.287733],[127.214897,36.287901],[127.214913,36.288024],[127.215022,36.288104],[127.215208,36.288419],[127.215231,36.288506],[127.215164,36.288705],[127.215094,36.288803],[127.215086,36.288876],[127.214951,36.289006],[127.214724,36.289417],[127.214392,36.289564],[127.214533,36.289675],[127.214612,36.28968],[127.21489,36.289493],[127.215026,36.289273],[127.215176,36.289106],[127.215438,36.28891],[127.215517,36.288754],[127.215456,36.288367],[127.215263,36.288057],[127.215204,36.288058],[127.215173,36.288008],[127.215266,36.287625],[127.215391,36.287376]]]}},{"type":"Feature","id":"SOCHUN:44250:55800004425020150082UJC2000008014","properties":{"MNUM":"55800004425020150082UJC2000008014","admin_code":"44250","sgg_code":"44250","source_layer":"LSMD_CONT_UJ301","semantic":"sochun","stream_name":"용수말천","alias_raw":"용수말천","notified_on":"2015-12-15"},"geometry":{"type":"Polygon","coordinates":[[[127.248996,36.250687],[127.248922,36.250628],[127.248553,36.250552],[127.248484,36.2505],[127.248195,36.250483],[127.247828,36.250293],[127.247682,36.250075],[127.247619,36.250034],[127.247486,36.250063],[127.247324,36.250157],[127.247128,36.25015],[127.246951,36.250184],[127.246587,36.250083],[127.246285,36.24986],[127.24618,36.249833],[127.246073,36.249843],[127.246277,36.249908],[127.246551,36.250132],[127.246903,36.250236],[127.247295,36.250208],[127.247603,36.250074],[127.247745,36.250284],[127.248181,36.25052],[127.248401,36.250535],[127.248911,36.250666],[127.249181,36.250827],[127.249619,36.250967],[127.250193,36.251017],[127.250438,36.251255],[127.25056,36.251321],[127.250705,36.251339],[127.250996,36.251286],[127.251285,36.251284],[127.251376,36.251304],[127.251401,36.251361],[127.251454,36.251297],[127.251407,36.251269],[127.251233,36.251233],[127.251026,36.251238],[127.250913,36.25127],[127.250858,36.251255],[127.250694,36.251293],[127.250566,36.251267],[127.250455,36.251215],[127.250237,36.250972],[127.249626,36.250916],[127.249248,36.250816],[127.248996,36.250687]]]}},{"type":"Feature","id":"SOCHUN:44250:55800004425020150082UJC2000008007","properties":{"MNUM":"55800004425020150082UJC2000008007","admin_code":"44250","sgg_code":"44250","source_layer":"LSMD_CONT_UJ301","semantic":"sochun","stream_name":"용수말천","alias_raw":"용수말천","notified_on":"2015-12-15"},"geometry":{"type":"Polygon","coordinates":[[[127.245925,36.249818],[127.245826,36.249764],[127.245641,36.249495],[127.245652,36.249425],[127.245407,36.249469],[127.24535,36.249503],[127.245581,36.249478],[127.245749,36.249737],[127.245925,36.249818]]]}},{"type":"Feature","id":"SOCHUN:44250:55800004425020150082UJC2000002005","properties":{"MNUM":"55800004425020150082UJC2000002005","admin_code":"44250","sgg_code":"44250","source_layer":"LSMD_CONT_UJ301","semantic":"sochun","stream_name":"향한천","alias_raw":"향한천","notified_on":"2015-12-15"},"geometry":{"type":"Polygon","coordinates":[[[127.223728,36.279961],[127.22381,36.279916],[127.223805,36.279911],[127.223791,36.27992],[127.223676,36.27998],[127.22358,36.280036],[127.223728,36.279961]]]}},{"type":"Feature","id":"SOCHUN:44250:55800004425020150082UJC2000004001","properties":{"MNUM":"55800004425020150082UJC2000004001","admin_code":"44250","sgg_code":"44250","source_layer":"LSMD_CONT_UJ301","semantic":"sochun","stream_name":"검배천","alias_raw":"검배천","notified_on":"2015-12-15"},"geometry":{"type":"Polygon","coordinates":[[[127.230575,36.286201],[127.230238,36.286148],[127.230571,36.28622],[127.230575,36.286201]]]}},{"type":"Feature","id":"SOCHUN:44250:55800004425020150082UJC2000003011","properties":{"MNUM":"55800004425020150082UJC2000003011","admin_code":"44250","sgg_code":"44250","source_layer":"LSMD_CONT_UJ301","semantic":"sochun","stream_name":"동촌천","alias_raw":"동촌천","notified_on":"2015-12-15"},"geometry":{"type":"Polygon","coordinates":[[[127.222975,36.28265],[127.223001,36.282587],[127.222996,36.282595],[127.222992,36.282602],[127.222989,36.28261],[127.222985,36.282618],[127.222982,36.282626],[127.22298,36.282634],[127.222977,36.282642],[127.222975,36.28265]]]}},{"type":"Feature","id":"SOCHUN:44250:45400004425020200083UJC1000030001","properties":{"MNUM":"45400004425020200083UJC1000030001","admin_code":"44250","sgg_code":"44250","source_layer":"LSMD_CONT_UJ301","semantic":"sochun","stream_name":"무주천","alias_raw":"소하천구역","remark_raw":"무주천","notified_on":"2020-06-08"},"geometry":{"type":"Polygon","coordinates":[[[127.224749,36.258865],[127.225621,36.25882],[127.226111,36.258633],[127.226284,36.258532],[127.226422,36.258519],[127.226519,36.258471],[127.227608,36.257811],[127.227561,36.257841],[127.227403,36.257698],[127.227103,36.25792],[127.22692,36.25817],[127.226748,36.258315],[127.226355,36.258357],[127.225599,36.258692],[127.225425,36.258719],[127.225123,36.258714],[127.224748,36.2588],[127.224749,36.258865]]]}},{"type":"Feature","id":"SOCHUN:44250:55800004425020150082UJC2000008010","properties":{"MNUM":"55800004425020150082UJC2000008010","admin_code":"44250","sgg_code":"44250","source_layer":"LSMD_CONT_UJ301","semantic":"sochun","stream_name":"용수말천","alias_raw":"용수말천","notified_on":"2015-12-15"},"geometry":{"type":"Polygon","coordinates":[[[127.249119,36.250605],[127.248942,36.250509],[127.24838,36.250374],[127.248201,36.250365],[127.247956,36.250237],[127.248068,36.25033],[127.248265,36.250407],[127.248563,36.250452],[127.248748,36.250521],[127.248987,36.250546],[127.249119,36.250605]]]}},{"type":"Feature","id":"SOCHUN:44250:55800004425020150082UJC2000008015","properties":{"MNUM":"55800004425020150082UJC2000008015","admin_code":"44250","sgg_code":"44250","source_layer":"LSMD_CONT_UJ301","semantic":"sochun","stream_name":"용수말천","alias_raw":"용수말천","notified_on":"2015-12-15"},"geometry":{"type":"Polygon","coordinates":[[[127.252613,36.25419],[127.252587,36.254186],[127.252686,36.254287],[127.25268,36.254262],[127.252659,36.254224],[127.252613,36.25419]]]}},{"type":"Feature","id":"SOCHUN:44250:55800004425020150082UJC2000004014","properties":{"MNUM":"55800004425020150082UJC2000004014","admin_code":"44250","sgg_code":"44250","source_layer":"LSMD_CONT_UJ301","semantic":"sochun","stream_name":"검배천","alias_raw":"검배천","notified_on":"2015-12-15"},"geometry":{"type":"Polygon","coordinates":[[[127.224064,36.281312],[127.223991,36.281283],[127.223977,36.2813],[127.224064,36.281312]]]}},{"type":"Feature","id":"SOCHUN:44250:55800004425020150081UJC1000008001","properties":{"MNUM":"55800004425020150081UJC1000008001","admin_code":"44250","sgg_code":"44250","source_layer":"LSMD_CONT_UJ301","semantic":"sochun","stream_name":"용수말천","alias_raw":"용수말천","notified_on":"2015-12-15"},"geometry":{"type":"Polygon","coordinates":[[[127.25505,36.256624],[127.255045,36.256556],[127.254803,36.256281],[127.254614,36.256193],[127.254159,36.256082],[127.253992,36.255946],[127.253927,36.255847],[127.253952,36.255757],[127.254172,36.255644],[127.254358,36.255403],[127.254389,36.255268],[127.254266,36.255031],[127.254014,36.254807],[127.253801,36.25469],[127.253478,36.254606],[127.253198,36.254599],[127.252945,36.254414],[127.252635,36.254083],[127.252809,36.254027],[127.25262,36.253815],[127.252578,36.253711],[127.252726,36.253193],[127.252714,36.252992],[127.252523,36.252709],[127.252505,36.252574],[127.252125,36.252317],[127.251866,36.252048],[127.251704,36.251497],[127.251725,36.251483],[127.251666,36.251389],[127.251663,36.251246],[127.251577,36.251277],[127.251274,36.25115],[127.250582,36.251202],[127.250273,36.250896],[127.250075,36.250808],[127.249385,36.250752],[127.249224,36.25069],[127.249199,36.250632],[127.248987,36.250546],[127.248748,36.250521],[127.248563,36.250452],[127.248265,36.250407],[127.248068,36.25033],[127.247809,36.250132],[127.247676,36.249959],[127.247596,36.249934],[127.247302,36.250078],[127.246978,36.25013],[127.246714,36.250055],[127.246544,36.249971],[127.246392,36.249803],[127.24635,36.249828],[127.246218,36.249772],[127.24621,36.249727],[127.245993,36.249728],[127.245854,36.249668],[127.245707,36.249436],[127.245936,36.249358],[127.245076,36.249318],[127.245292,36.249548],[127.245337,36.24954],[127.245374,36.249479],[127.245652,36.249425],[127.245641,36.249495],[127.245856,36.249794],[127.245978,36.249838],[127.24596,36.249811],[127.245984,36.249811],[127.24605,36.249851],[127.24618,36.249833],[127.246285,36.24986],[127.246618,36.250096],[127.246951,36.250184],[127.247128,36.25015],[127.247187,36.250169],[127.247324,36.250157],[127.247486,36.250063],[127.247619,36.250034],[127.247682,36.250075],[127.247828,36.250293],[127.248195,36.250483],[127.248484,36.2505],[127.248553,36.250552],[127.248922,36.250628],[127.249166,36.250787],[127.249626,36.250916],[127.250237,36.250972],[127.250455,36.251215],[127.250566,36.251267],[127.250694,36.251293],[127.250858,36.251255],[127.250913,36.25127],[127.251026,36.251238],[127.251233,36.251233],[127.251339,36.25124],[127.251454,36.251297],[127.251401,36.251361],[127.251445,36.251687],[127.251615,36.252159],[127.252317,36.252904],[127.252385,36.25319],[127.252257,36.253809],[127.252218,36.25383],[127.252279,36.253861],[127.252313,36.253992],[127.252507,36.254114],[127.252532,36.254141],[127.25247,36.254155],[127.252496,36.254177],[127.252613,36.25419],[127.252659,36.254224],[127.25272,36.254329],[127.253089,36.25468],[127.253295,36.254777],[127.253205,36.254672],[127.253279,36.254664],[127.253326,36.254666],[127.25336,36.254713],[127.253716,36.254762],[127.253856,36.254816],[127.254008,36.254933],[127.254247,36.255286],[127.254154,36.255492],[127.254003,36.255571],[127.253782,36.255771],[127.253931,36.25607],[127.25426,36.256208],[127.254696,36.256336],[127.254848,36.256497],[127.254974,36.256804],[127.255002,36.257062],[127.254761,36.257468],[127.254764,36.257517],[127.255015,36.258138],[127.255216,36.258417],[127.25524,36.258503],[127.255172,36.258482],[127.255167,36.25853],[127.25524,36.25853],[127.255257,36.25875],[127.25514,36.25904],[127.254707,36.259574],[127.254571,36.259794],[127.254501,36.259831],[127.254366,36.260122],[127.254237,36.260279],[127.254278,36.260393],[127.254352,36.260377],[127.254473,36.260492],[127.254443,36.260328],[127.254485,36.260216],[127.254568,36.260067],[127.254724,36.259905],[127.254865,36.259575],[127.255143,36.259318],[127.255327,36.258917],[127.255389,36.258712],[127.255392,36.258536],[127.255441,36.258534],[127.255393,36.258369],[127.255244,36.258147],[127.255187,36.25817],[127.255071,36.258001],[127.254938,36.25762],[127.254962,36.257589],[127.254921,36.257557],[127.254925,36.257395],[127.255156,36.257045],[127.25505,36.256624]],[[127.250154,36.250898],[127.249749,36.250875],[127.249568,36.250826],[127.249944,36.250837],[127.250154,36.250898]]]}},{"type":"Feature","id":"SOCHUN:44250:55800004425020230037UJC2000100012","properties":{"MNUM":"55800004425020230037UJC2000100012","admin_code":"44250","sgg_code":"44250","source_layer":"LSMD_CONT_UJ301","semantic":"sochun","stream_name":"개터천","alias_raw":"소하천예정지","remark_raw":"개터천","notified_on":"2023-02-10"},"geometry":{"type":"Polygon","coordinates":[[[127.245518,36.257948],[127.245557,36.257839],[127.24547,36.257894],[127.245518,36.257948]]]}},{"type":"Feature","id":"SOCHUN:44250:55800004425020150082UJC2000004012","properties":{"MNUM":"55800004425020150082UJC2000004012","admin_code":"44250","sgg_code":"44250","source_layer":"LSMD_CONT_UJ301","semantic":"sochun","stream_name":"검배천","alias_raw":"검배천","notified_on":"2015-12-15"},"geometry":{"type":"Polygon","coordinates":[[[127.230314,36.286053],[127.230039,36.285903],[127.230037,36.285937],[127.230188,36.286004],[127.230282,36.286083],[127.230409,36.286073],[127.230314,36.286053]]]}},{"type":"Feature","id":"SOCHUN:44250:55800004425020150082UJC2000003021","properties":{"MNUM":"55800004425020150082UJC2000003021","admin_code":"44250","sgg_code":"44250","source_layer":"LSMD_CONT_UJ301","semantic":"sochun","stream_name":"동촌천","alias_raw":"동촌천","notified_on":"2015-12-15"},"geometry":{"type":"Polygon","coordinates":[[[127.226955,36.287811],[127.227053,36.287628],[127.22694,36.287751],[127.226955,36.287811]]]}},{"type":"Feature","id":"SOCHUN:44250:55800004425020150082UJC2000003003","properties":{"MNUM":"55800004425020150082UJC2000003003","admin_code":"44250","sgg_code":"44250","source_layer":"LSMD_CONT_UJ301","semantic":"sochun","stream_name":"동촌천","alias_raw":"동촌천","notified_on":"2015-12-15"},"geometry":{"type":"Polygon","coordinates":[[[127.224053,36.281101],[127.224115,36.280941],[127.224076,36.280908],[127.223995,36.281132],[127.224002,36.281184],[127.22404,36.281171],[127.224053,36.281101]]]}},{"type":"Feature","id":"SOCHUN:44250:55800004425020230037UJC2000100008","properties":{"MNUM":"55800004425020230037UJC2000100008","admin_code":"44250","sgg_code":"44250","source_layer":"LSMD_CONT_UJ301","semantic":"sochun","stream_name":"개터천","alias_raw":"소하천예정지","remark_raw":"개터천","notified_on":"2023-02-10"},"geometry":{"type":"Polygon","coordinates":[[[127.246725,36.258017],[127.247163,36.257971],[127.246286,36.257987],[127.246725,36.258017]]]}},{"type":"Feature","id":"SOCHUN:44250:55800004425020150082UJC2000006014","properties":{"MNUM":"55800004425020150082UJC2000006014","admin_code":"44250","sgg_code":"44250","source_layer":"LSMD_CONT_UJ301","semantic":"sochun","stream_name":"배울천","alias_raw":"배울천","notified_on":"2015-12-15"},"geometry":{"type":"Polygon","coordinates":[[[127.216362,36.264741],[127.216247,36.264637],[127.216217,36.264557],[127.216257,36.264678],[127.216362,36.264741]]]}},{"type":"Feature","id":"SOCHUN:44250:55800004425020150082UJC2000003001","properties":{"MNUM":"55800004425020150082UJC2000003001","admin_code":"44250","sgg_code":"44250","source_layer":"LSMD_CONT_UJ301","semantic":"sochun","stream_name":"동촌천","alias_raw":"동촌천","notified_on":"2015-12-15"},"geometry":{"type":"Polygon","coordinates":[[[127.223899,36.280161],[127.223888,36.280145],[127.223869,36.280176],[127.22384,36.280367],[127.223899,36.280161]]]}},{"type":"Feature","id":"SOCHUN:44250:55800004425020230037UJC2000100003","properties":{"MNUM":"55800004425020230037UJC2000100003","admin_code":"44250","sgg_code":"44250","source_layer":"LSMD_CONT_UJ301","semantic":"sochun","stream_name":"개터천","alias_raw":"소하천예정지","remark_raw":"개터천","notified_on":"2023-02-10"},"geometry":{"type":"Polygon","coordinates":[[[127.25324,36.259615],[127.25337,36.259624],[127.253327,36.259553],[127.253174,36.259376],[127.252986,36.259236],[127.252884,36.259181],[127.252867,36.259205],[127.252427,36.258988],[127.252447,36.258966],[127.250831,36.25818],[127.250979,36.258323],[127.251215,36.2584],[127.251446,36.2587],[127.252325,36.259128],[127.252341,36.259104],[127.252779,36.259318],[127.252768,36.259344],[127.253007,36.259509],[127.25324,36.259615]]]}},{"type":"Feature","id":"SOCHUN:44250:55800004425020150082UJC2000002007","properties":{"MNUM":"55800004425020150082UJC2000002007","admin_code":"44250","sgg_code":"44250","source_layer":"LSMD_CONT_UJ301","semantic":"sochun","stream_name":"향한천","alias_raw":"향한천","notified_on":"2015-12-15"},"geometry":{"type":"Polygon","coordinates":[[[127.224369,36.278846],[127.224376,36.278785],[127.224352,36.278927],[127.224358,36.27891],[127.224369,36.278846]]]}},{"type":"Feature","id":"SOCHUN:44250:55800004425020150082UJC2000006006","properties":{"MNUM":"55800004425020150082UJC2000006006","admin_code":"44250","sgg_code":"44250","source_layer":"LSMD_CONT_UJ301","semantic":"sochun","stream_name":"배울천","alias_raw":"배울천","notified_on":"2015-12-15"},"geometry":{"type":"Polygon","coordinates":[[[127.215536,36.262919],[127.2155,36.262721],[127.215437,36.262709],[127.215536,36.262919]]]}},{"type":"Feature","id":"SOCHUN:44250:55800004425020150082UJC2000002001","properties":{"MNUM":"55800004425020150082UJC2000002001","admin_code":"44250","sgg_code":"44250","source_layer":"LSMD_CONT_UJ301","semantic":"sochun","stream_name":"향한천","alias_raw":"향한천","notified_on":"2015-12-15"},"geometry":{"type":"Polygon","coordinates":[[[127.216343,36.285731],[127.216706,36.285186],[127.216653,36.2852],[127.216427,36.285568],[127.216129,36.285922],[127.216153,36.285965],[127.216343,36.285731]]]}},{"type":"Feature","id":"SOCHUN:44250:55800004425020150082UJC2000004008","properties":{"MNUM":"55800004425020150082UJC2000004008","admin_code":"44250","sgg_code":"44250","source_layer":"LSMD_CONT_UJ301","semantic":"sochun","stream_name":"검배천","alias_raw":"검배천","notified_on":"2015-12-15"},"geometry":{"type":"Polygon","coordinates":[[[127.229297,36.283431],[127.22904,36.283301],[127.228856,36.283048],[127.228831,36.283002],[127.228887,36.282945],[127.228921,36.282825],[127.228882,36.282735],[127.228547,36.282535],[127.228448,36.282522],[127.228356,36.282598],[127.228224,36.282881],[127.228345,36.282638],[127.228441,36.282583],[127.228547,36.282593],[127.228855,36.28275],[127.228882,36.282829],[127.228828,36.283031],[127.228872,36.283158],[127.228968,36.283278],[127.229261,36.283481],[127.229852,36.284184],[127.229842,36.284234],[127.22967,36.284355],[127.229603,36.284464],[127.22984,36.284287],[127.22988,36.284209],[127.229789,36.284013],[127.229405,36.283636],[127.229297,36.283431]]]}},{"type":"Feature","id":"SOCHUN:44250:55800004425020150082UJC2000002006","properties":{"MNUM":"55800004425020150082UJC2000002006","admin_code":"44250","sgg_code":"44250","source_layer":"LSMD_CONT_UJ301","semantic":"sochun","stream_name":"향한천","alias_raw":"향한천","notified_on":"2015-12-15"},"geometry":{"type":"Polygon","coordinates":[[[127.224776,36.278946],[127.224831,36.278584],[127.224763,36.27879],[127.224743,36.278926],[127.224776,36.278946]]]}},{"type":"Feature","id":"SOCHUN:44250:55800004425020150082UJC2000003020","properties":{"MNUM":"55800004425020150082UJC2000003020","admin_code":"44250","sgg_code":"44250","source_layer":"LSMD_CONT_UJ301","semantic":"sochun","stream_name":"동촌천","alias_raw":"동촌천","notified_on":"2015-12-15"},"geometry":{"type":"Polygon","coordinates":[[[127.224251,36.284752],[127.22416,36.284641],[127.22405,36.284299],[127.224189,36.284707],[127.224591,36.28494],[127.224251,36.284752]]]}},{"type":"Feature","id":"SOCHUN:44250:55800004425020150082UJC2000003013","properties":{"MNUM":"55800004425020150082UJC2000003013","admin_code":"44250","sgg_code":"44250","source_layer":"LSMD_CONT_UJ301","semantic":"sochun","stream_name":"동촌천","alias_raw":"동촌천","notified_on":"2015-12-15"},"geometry":{"type":"Polygon","coordinates":[[[127.223152,36.282958],[127.223024,36.282818],[127.222971,36.282709],[127.223068,36.282886],[127.223405,36.283205],[127.223152,36.282958]]]}},{"type":"Feature","id":"SOCHUN:44250:55800004425020150082UJC2000003007","properties":{"MNUM":"55800004425020150082UJC2000003007","admin_code":"44250","sgg_code":"44250","source_layer":"LSMD_CONT_UJ301","semantic":"sochun","stream_name":"동촌천","alias_raw":"동촌천","notified_on":"2015-12-15"},"geometry":{"type":"Polygon","coordinates":[[[127.22358,36.281979],[127.223657,36.281855],[127.223383,36.282176],[127.22358,36.281979]]]}},{"type":"Feature","id":"SOCHUN:44250:55800004425020150082UJC2000004005","properties":{"MNUM":"55800004425020150082UJC2000004005","admin_code":"44250","sgg_code":"44250","source_layer":"LSMD_CONT_UJ301","semantic":"sochun","stream_name":"검배천","alias_raw":"검배천","notified_on":"2015-12-15"},"geometry":{"type":"Polygon","coordinates":[[[127.22425,36.281412],[127.224168,36.281364],[127.224069,36.28137],[127.224511,36.281897],[127.224607,36.281972],[127.225056,36.282284],[127.225914,36.282809],[127.226458,36.283084],[127.22667,36.283257],[127.226853,36.28331],[127.227117,36.283311],[127.227462,36.283233],[127.22768,36.283082],[127.227451,36.283188],[127.227133,36.283266],[127.2268,36.283269],[127.226695,36.283222],[127.226536,36.283097],[127.226414,36.282897],[127.226008,36.282703],[127.22467,36.281866],[127.22425,36.281412]]]}},{"type":"Feature","id":"SOCHUN:44250:55800004425020150082UJC2000004009","properties":{"MNUM":"55800004425020150082UJC2000004009","admin_code":"44250","sgg_code":"44250","source_layer":"LSMD_CONT_UJ301","semantic":"sochun","stream_name":"검배천","alias_raw":"검배천","notified_on":"2015-12-15"},"geometry":{"type":"Polygon","coordinates":[[[127.229873,36.285772],[127.229806,36.285505],[127.22978,36.285511],[127.22984,36.285699],[127.229839,36.285834],[127.229867,36.285892],[127.229873,36.285772]]]}},{"type":"Feature","id":"SOCHUN:44250:55800004425020150082UJC2000006015","properties":{"MNUM":"55800004425020150082UJC2000006015","admin_code":"44250","sgg_code":"44250","source_layer":"LSMD_CONT_UJ301","semantic":"sochun","stream_name":"배울천","alias_raw":"배울천","notified_on":"2015-12-15"},"geometry":{"type":"Polygon","coordinates":[[[127.21715,36.264867],[127.217111,36.264846],[127.217072,36.264826],[127.217032,36.264807],[127.216991,36.26479],[127.21695,36.264773],[127.216908,36.264758],[127.216803,36.264722],[127.21715,36.264867]]]}},{"type":"Feature","id":"SOCHUN:44250:55800004425020150081UJC1000001001","properties":{"MNUM":"55800004425020150081UJC1000001001","admin_code":"44250","sgg_code":"44250","source_layer":"LSMD_CONT_UJ301","semantic":"sochun","stream_name":"상원천","alias_raw":"상원천","notified_on":"2015-12-15"},"geometry":{"type":"Polygon","coordinates":[[[127.243572,36.319795],[127.243685,36.320401],[127.24383,36.320634],[127.243867,36.320771],[127.243899,36.321087],[127.243821,36.32118],[127.243777,36.321176],[127.243739,36.321253],[127.243732,36.321381],[127.243813,36.321595],[127.243921,36.32174],[127.244083,36.321726],[127.244166,36.321825],[127.244593,36.32208],[127.244751,36.32221],[127.244861,36.322209],[127.244861,36.322153],[127.244981,36.322207],[127.245254,36.322507],[127.245429,36.322845],[127.245647,36.32312],[127.245755,36.323183],[127.245817,36.323184],[127.245936,36.323288],[127.246178,36.32359],[127.246159,36.323674],[127.246396,36.323911],[127.246939,36.325202],[127.247009,36.325495],[127.247103,36.325644],[127.247106,36.325812],[127.24742,36.325754],[127.247386,36.325602],[127.247265,36.325502],[127.24724,36.325437],[127.24721,36.325448],[127.24713,36.325314],[127.247134,36.325235],[127.247052,36.325027],[127.247052,36.324899],[127.246967,36.324833],[127.246937,36.324764],[127.246837,36.324367],[127.246825,36.324227],[127.246874,36.324167],[127.246747,36.323931],[127.24653,36.323805],[127.246396,36.323583],[127.246434,36.323372],[127.246392,36.323143],[127.245951,36.322756],[127.24455,36.321355],[127.244248,36.320843],[127.244078,36.320253],[127.244114,36.320189],[127.244063,36.319936],[127.243972,36.319852],[127.243985,36.319137],[127.244074,36.318112],[127.244067,36.317359],[127.244009,36.317081],[127.24406,36.317081],[127.244077,36.316883],[127.243995,36.316783],[127.244007,36.316451],[127.2442,36.316249],[127.244223,36.315834],[127.244401,36.31593],[127.244503,36.315879],[127.244432,36.315869],[127.243871,36.315494],[127.243807,36.3154],[127.243754,36.314998],[127.243704,36.314937],[127.243649,36.314602],[127.243589,36.314451],[127.243698,36.314623],[127.243663,36.314453],[127.243428,36.31401],[127.243367,36.314002],[127.24314,36.31358],[127.24316,36.313486],[127.243117,36.313443],[127.243032,36.312995],[127.243014,36.312637],[127.243081,36.31264],[127.243081,36.31261],[127.242981,36.312543],[127.242981,36.312368],[127.242896,36.312299],[127.242915,36.312157],[127.242867,36.312087],[127.242849,36.311942],[127.242915,36.31185],[127.242847,36.311645],[127.24275,36.31149],[127.242763,36.311392],[127.242692,36.311152],[127.24272,36.310808],[127.242519,36.310394],[127.242374,36.310279],[127.242348,36.310211],[127.242519,36.310206],[127.242362,36.310152],[127.242222,36.310061],[127.242089,36.309914],[127.241987,36.309598],[127.242135,36.3094],[127.241702,36.309086],[127.241596,36.308574],[127.241425,36.308482],[127.241292,36.308363],[127.241149,36.30801],[127.24101,36.307822],[127.240659,36.307651],[127.24054,36.307686],[127.240037,36.307668],[127.239876,36.307563],[127.239661,36.307157],[127.239397,36.307351],[127.238851,36.308287],[127.238874,36.308294],[127.238845,36.308443],[127.239082,36.308399],[127.239411,36.308402],[127.240277,36.308523],[127.240749,36.308356],[127.24095,36.30839],[127.241159,36.30872],[127.241402,36.309325],[127.241609,36.309621],[127.241711,36.309868],[127.241665,36.309966],[127.241905,36.310295],[127.242149,36.310557],[127.242279,36.310799],[127.242305,36.310791],[127.242448,36.311242],[127.242473,36.311335],[127.242448,36.311334],[127.242437,36.311407],[127.242621,36.31259],[127.242613,36.312944],[127.242648,36.313218],[127.24276,36.313513],[127.242806,36.313548],[127.242846,36.313709],[127.242736,36.313872],[127.242634,36.313915],[127.242538,36.314166],[127.242776,36.314672],[127.243123,36.315007],[127.243194,36.315034],[127.243369,36.315021],[127.243433,36.315581],[127.243372,36.315545],[127.243469,36.315655],[127.24352,36.316033],[127.243578,36.316113],[127.243547,36.31627],[127.243661,36.317519],[127.243615,36.317531],[127.243759,36.317932],[127.243738,36.318162],[127.243608,36.318065],[127.243581,36.318472],[127.243467,36.318652],[127.243327,36.319119],[127.24336,36.319555],[127.243572,36.319795]],[[127.243701,36.318585],[127.243618,36.319644],[127.243581,36.319629],[127.243451,36.319394],[127.243455,36.319278],[127.243465,36.31918],[127.243701,36.318585]],[[127.2433,36.314334],[127.243442,36.314718],[127.243383,36.31478],[127.243289,36.314684],[127.243142,36.314763],[127.243093,36.314711],[127.243034,36.314526],[127.242884,36.314368],[127.242876,36.314205],[127.243066,36.314271],[127.243204,36.314284],[127.243227,36.314336],[127.2433,36.314334]],[[127.24286,36.314004],[127.242803,36.314362],[127.242964,36.314755],[127.242847,36.314648],[127.242649,36.314369],[127.242645,36.314217],[127.242595,36.314146],[127.242615,36.314055],[127.242756,36.313905],[127.24286,36.314004]],[[127.244076,36.321421],[127.244112,36.321258],[127.244253,36.321501],[127.244621,36.321871],[127.24434,36.321753],[127.244173,36.321611],[127.244076,36.321421]]]}},{"type":"Feature","id":"SOCHUN:44250:55800004425020150082UJC2000003009","properties":{"MNUM":"55800004425020150082UJC2000003009","admin_code":"44250","sgg_code":"44250","source_layer":"LSMD_CONT_UJ301","semantic":"sochun","stream_name":"동촌천","alias_raw":"동촌천","notified_on":"2015-12-15"},"geometry":{"type":"Polygon","coordinates":[[[127.223255,36.282301],[127.223295,36.282266],[127.223319,36.282239],[127.223293,36.282261],[127.223269,36.282282],[127.223257,36.282294],[127.223191,36.282359],[127.22313,36.282425],[127.223094,36.282467],[127.223048,36.282524],[127.223066,36.282503],[127.223087,36.282475],[127.223137,36.282418],[127.223188,36.282364],[127.223255,36.282301]]]}},{"type":"Feature","id":"SOCHUN:44250:55800004425020150082UJC2000006001","properties":{"MNUM":"55800004425020150082UJC2000006001","admin_code":"44250","sgg_code":"44250","source_layer":"LSMD_CONT_UJ301","semantic":"sochun","stream_name":"배울천","alias_raw":"배울천","notified_on":"2015-12-15"},"geometry":{"type":"Polygon","coordinates":[[[127.217845,36.265332],[127.217577,36.265203],[127.217188,36.264889],[127.217583,36.265242],[127.217776,36.265329],[127.217845,36.265332]]]}},{"type":"Feature","id":"SOCHUN:44250:55800004425020150082UJC2000006002","properties":{"MNUM":"55800004425020150082UJC2000006002","admin_code":"44250","sgg_code":"44250","source_layer":"LSMD_CONT_UJ301","semantic":"sochun","stream_name":"배울천","alias_raw":"배울천","notified_on":"2015-12-15"},"geometry":{"type":"Polygon","coordinates":[[[127.216022,36.263794],[127.215908,36.263755],[127.215577,36.263742],[127.215416,36.263626],[127.215365,36.263482],[127.215385,36.263618],[127.2155,36.263722],[127.216022,36.263794]]]}},{"type":"Feature","id":"SOCHUN:44250:55800004425020150082UJC2000004006","properties":{"MNUM":"55800004425020150082UJC2000004006","admin_code":"44250","sgg_code":"44250","source_layer":"LSMD_CONT_UJ301","semantic":"sochun","stream_name":"검배천","alias_raw":"검배천","notified_on":"2015-12-15"},"geometry":{"type":"Polygon","coordinates":[[[127.229442,36.283431],[127.229403,36.283376],[127.229075,36.283155],[127.229029,36.283037],[127.229092,36.28282],[127.229035,36.282798],[127.228976,36.283027],[127.229017,36.283138],[127.229119,36.283247],[127.229374,36.28337],[127.229413,36.283501],[127.229653,36.283779],[127.229721,36.283816],[127.229478,36.283526],[127.229442,36.283431]]]}},{"type":"Feature","id":"SOCHUN:44250:55800004425020230036UJC1000100003","properties":{"MNUM":"55800004425020230036UJC1000100003","admin_code":"44250","sgg_code":"44250","source_layer":"LSMD_CONT_UJ301","semantic":"sochun","stream_name":"개터천","alias_raw":"소하천구역","remark_raw":"개터천","notified_on":"2023-02-10"},"geometry":{"type":"Polygon","coordinates":[[[127.251446,36.2587],[127.25117,36.25837],[127.250979,36.258323],[127.250831,36.25818],[127.250425,36.257982],[127.250402,36.258004],[127.250531,36.258054],[127.250565,36.258182],[127.250678,36.258294],[127.251149,36.25849],[127.251266,36.258612],[127.251446,36.2587]]]}},{"type":"Feature","id":"SOCHUN:44250:55800004425020150082UJC2000008002","properties":{"MNUM":"55800004425020150082UJC2000008002","admin_code":"44250","sgg_code":"44250","source_layer":"LSMD_CONT_UJ301","semantic":"sochun","stream_name":"용수말천","alias_raw":"용수말천","notified_on":"2015-12-15"},"geometry":{"type":"Polygon","coordinates":[[[127.25424,36.260278],[127.254366,36.260122],[127.254501,36.259831],[127.254571,36.259794],[127.254707,36.259574],[127.25514,36.25904],[127.255257,36.25875],[127.25524,36.25853],[127.255211,36.25853],[127.255215,36.258736],[127.25507,36.25906],[127.254608,36.259626],[127.25424,36.260278]]]}},{"type":"Feature","id":"SOCHUN:44250:55800004425020150082UJC2000002009","properties":{"MNUM":"55800004425020150082UJC2000002009","admin_code":"44250","sgg_code":"44250","source_layer":"LSMD_CONT_UJ301","semantic":"sochun","stream_name":"향한천","alias_raw":"향한천","notified_on":"2015-12-15"},"geometry":{"type":"Polygon","coordinates":[[[127.224176,36.276206],[127.224158,36.276116],[127.224127,36.276116],[127.224151,36.276278],[127.224176,36.276206]]]}},{"type":"Feature","id":"SOCHUN:44250:55800004425020230037UJC2000100007","properties":{"MNUM":"55800004425020230037UJC2000100007","admin_code":"44250","sgg_code":"44250","source_layer":"LSMD_CONT_UJ301","semantic":"sochun","stream_name":"개터천","alias_raw":"소하천예정지","remark_raw":"개터천","notified_on":"2023-02-10"},"geometry":{"type":"Polygon","coordinates":[[[127.247313,36.258039],[127.247388,36.257993],[127.247354,36.257987],[127.247313,36.258039]]]}},{"type":"Feature","id":"SOCHUN:44250:55800004425020150082UJC2000004003","properties":{"MNUM":"55800004425020150082UJC2000004003","admin_code":"44250","sgg_code":"44250","source_layer":"LSMD_CONT_UJ301","semantic":"sochun","stream_name":"검배천","alias_raw":"검배천","notified_on":"2015-12-15"},"geometry":{"type":"Polygon","coordinates":[[[127.227914,36.282998],[127.228059,36.282986],[127.228212,36.282894],[127.228048,36.28296],[127.227818,36.282978],[127.227794,36.282996],[127.227914,36.282998]]]}},{"type":"Feature","id":"SOCHUN:44250:55800004425020150082UJC2000008001","properties":{"MNUM":"55800004425020150082UJC2000008001","admin_code":"44250","sgg_code":"44250","source_layer":"LSMD_CONT_UJ301","semantic":"sochun","stream_name":"용수말천","alias_raw":"용수말천","notified_on":"2015-12-15"},"geometry":{"type":"Polygon","coordinates":[[[127.254458,36.260467],[127.254804,36.259745],[127.255149,36.259353],[127.255339,36.259042],[127.255472,36.258667],[127.255458,36.25852],[127.255395,36.258382],[127.255441,36.258534],[127.255392,36.258536],[127.255389,36.258712],[127.255215,36.25918],[127.255143,36.259318],[127.254865,36.259575],[127.254724,36.259905],[127.254568,36.260067],[127.254443,36.260328],[127.254458,36.260467]]]}},{"type":"Feature","id":"SOCHUN:44250:55800004425020150082UJC2000004013","properties":{"MNUM":"55800004425020150082UJC2000004013","admin_code":"44250","sgg_code":"44250","source_layer":"LSMD_CONT_UJ301","semantic":"sochun","stream_name":"검배천","alias_raw":"검배천","notified_on":"2015-12-15"},"geometry":{"type":"Polygon","coordinates":[[[127.230654,36.286152],[127.230505,36.286093],[127.230691,36.286209],[127.230654,36.286152]]]}},{"type":"Feature","id":"SOCHUN:44250:55800004425020230036UJC1000100004","properties":{"MNUM":"55800004425020230036UJC1000100004","admin_code":"44250","sgg_code":"44250","source_layer":"LSMD_CONT_UJ301","semantic":"sochun","stream_name":"개터천","alias_raw":"소하천구역","remark_raw":"개터천","notified_on":"2023-02-10"},"geometry":{"type":"Polygon","coordinates":[[[127.250096,36.25794],[127.250215,36.257934],[127.250148,36.25792],[127.249883,36.257902],[127.250096,36.25794]]]}},{"type":"Feature","id":"SOCHUN:44250:55800004425020150082UJC2000003016","properties":{"MNUM":"55800004425020150082UJC2000003016","admin_code":"44250","sgg_code":"44250","source_layer":"LSMD_CONT_UJ301","semantic":"sochun","stream_name":"동촌천","alias_raw":"동촌천","notified_on":"2015-12-15"},"geometry":{"type":"Polygon","coordinates":[[[127.223895,36.283903],[127.22388,36.283865],[127.223815,36.283698],[127.223782,36.283614],[127.223757,36.28355],[127.223769,36.28359],[127.223786,36.283626],[127.223785,36.283641],[127.223836,36.283767],[127.223872,36.283859],[127.223872,36.283869],[127.223905,36.283954],[127.223934,36.284018],[127.223935,36.284021],[127.223956,36.28404],[127.223952,36.28403],[127.223922,36.283971],[127.223919,36.283964],[127.223904,36.283925],[127.223895,36.283903]]]}},{"type":"Feature","id":"SOCHUN:44250:55800004425020150082UJC2000002004","properties":{"MNUM":"55800004425020150082UJC2000002004","admin_code":"44250","sgg_code":"44250","source_layer":"LSMD_CONT_UJ301","semantic":"sochun","stream_name":"향한천","alias_raw":"향한천","notified_on":"2015-12-15"},"geometry":{"type":"Polygon","coordinates":[[[127.223513,36.280094],[127.223546,36.280056],[127.223531,36.280066],[127.223528,36.280068],[127.223526,36.280069],[127.223524,36.28007],[127.223522,36.280072],[127.22352,36.280073],[127.223518,36.280075],[127.223517,36.280076],[127.223515,36.280078],[127.223513,36.280079],[127.223512,36.280081],[127.22351,36.280083],[127.223509,36.280085],[127.223508,36.280087],[127.223507,36.280088],[127.223505,36.28009],[127.223504,36.280092],[127.223503,36.280094],[127.223502,36.280096],[127.223502,36.280098],[127.223501,36.2801],[127.2235,36.280102],[127.223513,36.280094]]]}},{"type":"Feature","id":"SOCHUN:44250:55800004425020150082UJC2000004004","properties":{"MNUM":"55800004425020150082UJC2000004004","admin_code":"44250","sgg_code":"44250","source_layer":"LSMD_CONT_UJ301","semantic":"sochun","stream_name":"검배천","alias_raw":"검배천","notified_on":"2015-12-15"},"geometry":{"type":"Polygon","coordinates":[[[127.227103,36.2832],[127.227447,36.283094],[127.227429,36.283071],[127.227027,36.283166],[127.226849,36.283147],[127.226707,36.283095],[127.226843,36.283184],[127.227103,36.2832]]]}},{"type":"Feature","id":"SOCHUN:44250:55800004425020150081UJC1000003001","properties":{"MNUM":"55800004425020150081UJC1000003001","admin_code":"44250","sgg_code":"44250","source_layer":"LSMD_CONT_UJ301","semantic":"sochun","stream_name":"동촌천","alias_raw":"동촌천","notified_on":"2015-12-15"},"geometry":{"type":"Polygon","coordinates":[[[127.223237,36.282787],[127.223312,36.282513],[127.223365,36.282435],[127.223688,36.282108],[127.223776,36.282146],[127.223744,36.282118],[127.223893,36.281921],[127.223917,36.281761],[127.224,36.281717],[127.223935,36.281681],[127.223921,36.281389],[127.224031,36.281233],[127.223995,36.281132],[127.224076,36.280908],[127.224085,36.280189],[127.224127,36.280097],[127.223869,36.280135],[127.223899,36.280161],[127.223831,36.280529],[127.223892,36.280691],[127.223861,36.28094],[127.223734,36.28129],[127.223719,36.281736],[127.22358,36.281979],[127.223002,36.282583],[127.222964,36.282678],[127.222984,36.282749],[127.223077,36.282886],[127.2234,36.283188],[127.223431,36.283357],[127.223647,36.283776],[127.223767,36.284079],[127.223762,36.284147],[127.224067,36.284826],[127.224977,36.285298],[127.225463,36.285466],[127.225587,36.285579],[127.226425,36.28588],[127.226442,36.2863],[127.226393,36.286495],[127.226629,36.28664],[127.226724,36.286818],[127.226885,36.286952],[127.227037,36.287159],[127.227098,36.287316],[127.227084,36.287383],[127.226945,36.287562],[127.226817,36.287645],[127.226831,36.28771],[127.226745,36.287821],[127.226758,36.287948],[127.226841,36.288057],[127.226867,36.288042],[127.226971,36.28815],[127.227144,36.288472],[127.227255,36.288573],[127.227399,36.288642],[127.22781,36.288743],[127.227991,36.288856],[127.228051,36.289033],[127.228022,36.289063],[127.228106,36.28925],[127.228095,36.289421],[127.22821,36.289554],[127.228203,36.289637],[127.228277,36.289812],[127.228317,36.289826],[127.228427,36.289752],[127.228334,36.289419],[127.228241,36.28924],[127.228207,36.289084],[127.228289,36.289043],[127.22819,36.288827],[127.227957,36.288646],[127.22779,36.28857],[127.227549,36.288507],[127.227394,36.288521],[127.227027,36.288006],[127.22694,36.287751],[127.227071,36.287609],[127.227382,36.287466],[127.227506,36.287322],[127.227499,36.287167],[127.22732,36.286945],[127.226891,36.286745],[127.226864,36.286704],[127.226973,36.286622],[127.226841,36.286424],[127.226658,36.286393],[127.226559,36.286168],[127.226624,36.285988],[127.226578,36.285963],[127.22656,36.28584],[127.226486,36.285757],[127.226228,36.285627],[127.226129,36.285638],[127.22586,36.285537],[127.225658,36.285343],[127.225516,36.285275],[127.225329,36.285216],[127.225075,36.285186],[127.224225,36.284746],[127.224152,36.284639],[127.224031,36.284153],[127.223905,36.283954],[127.223567,36.283082],[127.223237,36.282787]]]}},{"type":"Feature","id":"SOCHUN:44250:55800004425020150082UJC2000006007","properties":{"MNUM":"55800004425020150082UJC2000006007","admin_code":"44250","sgg_code":"44250","source_layer":"LSMD_CONT_UJ301","semantic":"sochun","stream_name":"배울천","alias_raw":"배울천","notified_on":"2015-12-15"},"geometry":{"type":"Polygon","coordinates":[[[127.215586,36.263385],[127.215589,36.263362],[127.215591,36.263344],[127.215592,36.263325],[127.215592,36.263306],[127.215592,36.263287],[127.215592,36.263284],[127.21559,36.263284],[127.215586,36.263385]]]}},{"type":"Feature","id":"SOCHUN:44250:55800004425020150082UJC2000002002","properties":{"MNUM":"55800004425020150082UJC2000002002","admin_code":"44250","sgg_code":"44250","source_layer":"LSMD_CONT_UJ301","semantic":"sochun","stream_name":"향한천","alias_raw":"향한천","notified_on":"2015-12-15"},"geometry":{"type":"Polygon","coordinates":[[[127.219125,36.283193],[127.219276,36.283093],[127.218807,36.283282],[127.21879,36.283311],[127.219125,36.283193]]]}},{"type":"Feature","id":"SOCHUN:44250:55800004425020150082UJC2000008005","properties":{"MNUM":"55800004425020150082UJC2000008005","admin_code":"44250","sgg_code":"44250","source_layer":"LSMD_CONT_UJ301","semantic":"sochun","stream_name":"용수말천","alias_raw":"용수말천","notified_on":"2015-12-15"},"geometry":{"type":"Polygon","coordinates":[[[127.252886,36.2545],[127.253026,36.254629],[127.252952,36.254522],[127.252885,36.254464],[127.252854,36.25446],[127.252886,36.2545]]]}},{"type":"Feature","id":"SOCHUN:44250:55800004425020150082UJC2000003005","properties":{"MNUM":"55800004425020150082UJC2000003005","admin_code":"44250","sgg_code":"44250","source_layer":"LSMD_CONT_UJ301","semantic":"sochun","stream_name":"동촌천","alias_raw":"동촌천","notified_on":"2015-12-15"},"geometry":{"type":"Polygon","coordinates":[[[127.223938,36.281519],[127.223953,36.281367],[127.223928,36.281366],[127.223922,36.281384],[127.223921,36.281389],[127.223922,36.281392],[127.223923,36.281505],[127.223929,36.281547],[127.223933,36.281618],[127.223935,36.281681],[127.223939,36.281683],[127.223939,36.281669],[127.223939,36.281656],[127.223939,36.281642],[127.223937,36.281628],[127.223936,36.281615],[127.223935,36.281613],[127.223934,36.281604],[127.223933,36.281595],[127.223933,36.281585],[127.223933,36.281576],[127.223933,36.281566],[127.223934,36.281557],[127.223938,36.281519]]]}},{"type":"Feature","id":"SOCHUN:44250:55800004425020230037UJC2000100006","properties":{"MNUM":"55800004425020230037UJC2000100006","admin_code":"44250","sgg_code":"44250","source_layer":"LSMD_CONT_UJ301","semantic":"sochun","stream_name":"개터천","alias_raw":"소하천예정지","remark_raw":"개터천","notified_on":"2023-02-10"},"geometry":{"type":"Polygon","coordinates":[[[127.245909,36.258064],[127.245904,36.258043],[127.245566,36.257983],[127.245909,36.258064]]]}},{"type":"Feature","id":"SOCHUN:44250:55800004425020230027UJC2000100006","properties":{"MNUM":"55800004425020230027UJC2000100006","admin_code":"44250","sgg_code":"44250","source_layer":"LSMD_CONT_UJ301","semantic":"sochun","stream_name":"개터천","alias_raw":"소하천예정지","remark_raw":"개터천","notified_on":"2023-02-10"},"geometry":{"type":"Polygon","coordinates":[[[127.245909,36.258064],[127.245904,36.258043],[127.245566,36.257983],[127.245909,36.258064]]]}},{"type":"Feature","id":"SOCHUN:44250:55800004425020150082UJC2000008008","properties":{"MNUM":"55800004425020150082UJC2000008008","admin_code":"44250","sgg_code":"44250","source_layer":"LSMD_CONT_UJ301","semantic":"sochun","stream_name":"용수말천","alias_raw":"용수말천","notified_on":"2015-12-15"},"geometry":{"type":"Polygon","coordinates":[[[127.246022,36.249835],[127.245984,36.249811],[127.24596,36.249811],[127.24597,36.249826],[127.246022,36.249835]]]}},{"type":"Feature","id":"SOCHUN:44250:55800004425020150082UJC2000003017","properties":{"MNUM":"55800004425020150082UJC2000003017","admin_code":"44250","sgg_code":"44250","source_layer":"LSMD_CONT_UJ301","semantic":"sochun","stream_name":"동촌천","alias_raw":"동촌천","notified_on":"2015-12-15"},"geometry":{"type":"Polygon","coordinates":[[[127.223767,36.284079],[127.223726,36.283995],[127.22373,36.284004],[127.223741,36.284034],[127.223765,36.284094],[127.223765,36.28409],[127.223767,36.284079]]]}},{"type":"Feature","id":"SOCHUN:44250:55800004425020230037UJC2000100001","properties":{"MNUM":"55800004425020230037UJC2000100001","admin_code":"44250","sgg_code":"44250","source_layer":"LSMD_CONT_UJ301","semantic":"sochun","stream_name":"개터천","alias_raw":"소하천예정지","remark_raw":"개터천","notified_on":"2023-02-10"},"geometry":{"type":"Polygon","coordinates":[[[127.254294,36.260616],[127.253779,36.260016],[127.253366,36.259752],[127.253147,36.259684],[127.253264,36.259861],[127.253419,36.260014],[127.254061,36.260458],[127.254196,36.260613],[127.254294,36.260616]]]}},{"type":"Feature","id":"SOCHUN:44250:55800004425020150082UJC2000008013","properties":{"MNUM":"55800004425020150082UJC2000008013","admin_code":"44250","sgg_code":"44250","source_layer":"LSMD_CONT_UJ301","semantic":"sochun","stream_name":"용수말천","alias_raw":"용수말천","notified_on":"2015-12-15"},"geometry":{"type":"Polygon","coordinates":[[[127.250745,36.251176],[127.251331,36.251154],[127.251577,36.251277],[127.251616,36.251272],[127.251332,36.251119],[127.251019,36.251115],[127.250627,36.251157],[127.250364,36.250901],[127.250268,36.25086],[127.250198,36.250855],[127.250341,36.250955],[127.250532,36.251169],[127.250582,36.251202],[127.250745,36.251176]]]}},{"type":"Feature","id":"SOCHUN:44250:55800004425020150082UJC2000008009","properties":{"MNUM":"55800004425020150082UJC2000008009","admin_code":"44250","sgg_code":"44250","source_layer":"LSMD_CONT_UJ301","semantic":"sochun","stream_name":"용수말천","alias_raw":"용수말천","notified_on":"2015-12-15"},"geometry":{"type":"Polygon","coordinates":[[[127.24786,36.250164],[127.247749,36.249971],[127.24763,36.249913],[127.247528,36.249926],[127.247252,36.250057],[127.24695,36.250082],[127.246734,36.250022],[127.246365,36.249768],[127.245937,36.249656],[127.245773,36.249432],[127.245709,36.249442],[127.245854,36.249668],[127.245993,36.249728],[127.24621,36.249727],[127.246218,36.249772],[127.24635,36.249828],[127.246392,36.249803],[127.246544,36.249971],[127.246714,36.250055],[127.246978,36.25013],[127.247302,36.250078],[127.247596,36.249934],[127.247676,36.249959],[127.24786,36.250164]]]}},{"type":"Feature","id":"SOCHUN:44250:55800004425020150082UJC2000003006","properties":{"MNUM":"55800004425020150082UJC2000003006","admin_code":"44250","sgg_code":"44250","source_layer":"LSMD_CONT_UJ301","semantic":"sochun","stream_name":"동촌천","alias_raw":"동촌천","notified_on":"2015-12-15"},"geometry":{"type":"Polygon","coordinates":[[[127.223886,36.28186],[127.223912,36.281798],[127.223917,36.281785],[127.223922,36.281772],[127.223926,36.281759],[127.223917,36.281761],[127.223893,36.281808],[127.223884,36.281842],[127.223886,36.28186]]]}},{"type":"Feature","id":"SOCHUN:44250:55800004425020150081UJC1000006001","properties":{"MNUM":"55800004425020150081UJC1000006001","admin_code":"44250","sgg_code":"44250","source_layer":"LSMD_CONT_UJ301","semantic":"sochun","stream_name":"배울천","alias_raw":"배울천","notified_on":"2015-12-15"},"geometry":{"type":"Polygon","coordinates":[[[127.217829,36.265407],[127.217878,36.265333],[127.217776,36.265329],[127.217583,36.265242],[127.217175,36.264877],[127.216453,36.264595],[127.21638,36.264477],[127.21639,36.26392],[127.216235,36.263735],[127.216108,36.263661],[127.21558,36.263539],[127.215607,36.26309],[127.21551,36.262849],[127.215194,36.262289],[127.215099,36.26223],[127.21509,36.262193],[127.21464,36.262095],[127.214218,36.261883],[127.213966,36.261653],[127.213889,36.261512],[127.213575,36.261174],[127.213492,36.261017],[127.213394,36.261066],[127.213183,36.26093],[127.212906,36.260684],[127.2129,36.260639],[127.212981,36.260559],[127.212975,36.260524],[127.213062,36.260445],[127.212942,36.260295],[127.212649,36.260233],[127.212442,36.260143],[127.212247,36.259854],[127.212238,36.25975],[127.21203,36.259682],[127.211812,36.259492],[127.211384,36.259213],[127.211305,36.259132],[127.211331,36.259103],[127.21108,36.258979],[127.211056,36.258913],[127.211101,36.258768],[127.211061,36.258708],[127.210951,36.258628],[127.210624,36.258647],[127.210381,36.258597],[127.210383,36.258552],[127.210078,36.258537],[127.209951,36.258494],[127.209748,36.258345],[127.209584,36.25804],[127.209426,36.258091],[127.20929,36.257955],[127.209122,36.257944],[127.209128,36.257863],[127.208949,36.257831],[127.208752,36.257931],[127.208696,36.257911],[127.208612,36.257942],[127.208579,36.257929],[127.208458,36.257712],[127.208221,36.257438],[127.208113,36.257228],[127.207963,36.2573],[127.20808,36.257391],[127.208158,36.25757],[127.208295,36.257641],[127.208338,36.257704],[127.208318,36.257764],[127.208367,36.257768],[127.208511,36.258025],[127.20857,36.258042],[127.208704,36.258013],[127.208874,36.258049],[127.209186,36.258021],[127.209458,36.258186],[127.209472,36.258262],[127.209502,36.258268],[127.209594,36.258452],[127.209669,36.258463],[127.209837,36.258607],[127.209859,36.258593],[127.210039,36.25868],[127.210201,36.258684],[127.210438,36.258794],[127.210517,36.258749],[127.210691,36.258789],[127.210858,36.258936],[127.210908,36.259049],[127.211076,36.259254],[127.211187,36.259299],[127.211274,36.259294],[127.211454,36.259414],[127.211727,36.259662],[127.21175,36.259731],[127.212041,36.259902],[127.212316,36.260278],[127.212461,36.26036],[127.212796,36.260439],[127.212695,36.260649],[127.21277,36.26078],[127.212982,36.261026],[127.213248,36.261173],[127.213477,36.261354],[127.213473,36.261496],[127.213566,36.261629],[127.213623,36.261637],[127.213712,36.261595],[127.21375,36.261614],[127.214172,36.262012],[127.214521,36.262209],[127.214932,36.262309],[127.215247,36.262622],[127.215321,36.262778],[127.21537,36.263149],[127.215364,36.263478],[127.215416,36.263626],[127.215577,36.263742],[127.216012,36.263783],[127.216226,36.264012],[127.216193,36.264395],[127.216247,36.264637],[127.216356,36.264738],[127.216503,36.264808],[127.217078,36.265025],[127.217359,36.265358],[127.217544,36.265432],[127.217626,36.265439],[127.217715,36.265373],[127.217829,36.265407]],[[127.210912,36.258705],[127.210819,36.258735],[127.210716,36.258685],[127.210834,36.258669],[127.210912,36.258705]]]}},{"type":"Feature","id":"SOCHUN:44250:55500004425020140017UJC1000001001","properties":{"MNUM":"55500004425020140017UJC1000001001","admin_code":"44250","sgg_code":"44250","source_layer":"LSMD_CONT_UJ301","semantic":"sochun","stream_name":"장자동천","remark_raw":"장자동천","notified_on":"2014-02-28"},"geometry":{"type":"Polygon","coordinates":[[[127.211027,36.275056],[127.211124,36.275111],[127.211298,36.275088],[127.211214,36.275166],[127.211322,36.275233],[127.211406,36.275107],[127.211513,36.275126],[127.212262,36.274811],[127.212467,36.274756],[127.212552,36.274621],[127.212656,36.274375],[127.21259,36.273881],[127.212531,36.27386],[127.21263,36.273572],[127.212761,36.272686],[127.212655,36.272518],[127.21266,36.272413],[127.212941,36.271787],[127.213066,36.27163],[127.213195,36.271355],[127.213393,36.270794],[127.213228,36.270413],[127.213245,36.270289],[127.213712,36.270058],[127.214184,36.269945],[127.214732,36.269755],[127.215342,36.269481],[127.215738,36.269228],[127.216293,36.26896],[127.217083,36.267697],[127.217384,36.267272],[127.21787,36.266721],[127.218036,36.266254],[127.218343,36.265761],[127.218258,36.265676],[127.218314,36.265571],[127.218017,36.265684],[127.217562,36.26664],[127.217096,36.267453],[127.21643,36.268372],[127.215885,36.268929],[127.215416,36.269258],[127.21495,36.269495],[127.213413,36.270012],[127.213311,36.270081],[127.213326,36.270015],[127.213288,36.269883],[127.2132,36.269996],[127.212901,36.270421],[127.212984,36.270594],[127.213096,36.270604],[127.21317,36.270818],[127.212972,36.271363],[127.212716,36.271708],[127.21253,36.272068],[127.212521,36.272138],[127.212571,36.272189],[127.212488,36.272631],[127.212604,36.2727],[127.212616,36.272935],[127.212541,36.273534],[127.21233,36.273763],[127.212291,36.273951],[127.212346,36.274397],[127.212223,36.274575],[127.211716,36.274893],[127.211407,36.274978],[127.211223,36.274962],[127.211027,36.275056]]]}},{"type":"Feature","id":"SOCHUN:44250:55800004425020230036UJC1000100005","properties":{"MNUM":"55800004425020230036UJC1000100005","admin_code":"44250","sgg_code":"44250","source_layer":"LSMD_CONT_UJ301","semantic":"sochun","stream_name":"개터천","alias_raw":"소하천구역","remark_raw":"개터천","notified_on":"2023-02-10"},"geometry":{"type":"Polygon","coordinates":[[[127.246165,36.258092],[127.247277,36.258058],[127.247354,36.257987],[127.247565,36.257947],[127.247836,36.257945],[127.248065,36.257894],[127.247938,36.257861],[127.247464,36.257846],[127.247201,36.257966],[127.246725,36.258017],[127.246111,36.257991],[127.245678,36.257908],[127.245576,36.257827],[127.245518,36.257948],[127.245566,36.257983],[127.245904,36.258043],[127.245909,36.258064],[127.246165,36.258092]]]}},{"type":"Feature","id":"SOCHUN:44250:55800004425020150082UJC2000006008","properties":{"MNUM":"55800004425020150082UJC2000006008","admin_code":"44250","sgg_code":"44250","source_layer":"LSMD_CONT_UJ301","semantic":"sochun","stream_name":"배울천","alias_raw":"배울천","notified_on":"2015-12-15"},"geometry":{"type":"Polygon","coordinates":[[[127.2156,36.263543],[127.215598,36.263541],[127.215596,36.263539],[127.215594,36.263536],[127.215592,36.263534],[127.21559,36.263531],[127.215588,36.263529],[127.215586,36.263526],[127.215585,36.263524],[127.215583,36.263521],[127.215582,36.263518],[127.21558,36.263515],[127.21558,36.263539],[127.2156,36.263543]]]}},{"type":"Feature","id":"SOCHUN:44250:55800004425020150082UJC2000006003","properties":{"MNUM":"55800004425020150082UJC2000006003","admin_code":"44250","sgg_code":"44250","source_layer":"LSMD_CONT_UJ301","semantic":"sochun","stream_name":"배울천","alias_raw":"배울천","notified_on":"2015-12-15"},"geometry":{"type":"Polygon","coordinates":[[[127.214695,36.262263],[127.214521,36.262209],[127.214172,36.262012],[127.213935,36.261775],[127.213912,36.26179],[127.214155,36.262012],[127.214494,36.262203],[127.214695,36.262263]]]}},{"type":"Feature","id":"SOCHUN:44250:55800004425020150082UJC2000002003","properties":{"MNUM":"55800004425020150082UJC2000002003","admin_code":"44250","sgg_code":"44250","source_layer":"LSMD_CONT_UJ301","semantic":"sochun","stream_name":"향한천","alias_raw":"향한천","notified_on":"2015-12-15"},"geometry":{"type":"Polygon","coordinates":[[[127.223341,36.280473],[127.221965,36.28156],[127.222014,36.281548],[127.223213,36.280613],[127.22383,36.280179],[127.223869,36.280176],[127.223869,36.280135],[127.223341,36.280473]]]}},{"type":"Feature","id":"SOCHUN:44250:55800004425020230036UJC1000100002","properties":{"MNUM":"55800004425020230036UJC1000100002","admin_code":"44250","sgg_code":"44250","source_layer":"LSMD_CONT_UJ301","semantic":"sochun","stream_name":"개터천","alias_raw":"소하천구역","remark_raw":"개터천","notified_on":"2023-02-10"},"geometry":{"type":"Polygon","coordinates":[[[127.253551,36.259851],[127.25337,36.259624],[127.253228,36.259613],[127.253007,36.259509],[127.253147,36.259684],[127.253287,36.259717],[127.253551,36.259851]]]}},{"type":"Feature","id":"SOCHUN:44250:55800004425020150082UJC2000006004","properties":{"MNUM":"55800004425020150082UJC2000006004","admin_code":"44250","sgg_code":"44250","source_layer":"LSMD_CONT_UJ301","semantic":"sochun","stream_name":"배울천","alias_raw":"배울천","notified_on":"2015-12-15"},"geometry":{"type":"Polygon","coordinates":[[[127.214938,36.262314],[127.214932,36.262309],[127.214822,36.262288],[127.214754,36.262275],[127.214937,36.262313],[127.214938,36.262314]]]}},{"type":"Feature","id":"SOCHUN:44250:55800004425020150082UJC2000008012","properties":{"MNUM":"55800004425020150082UJC2000008012","admin_code":"44250","sgg_code":"44250","source_layer":"LSMD_CONT_UJ301","semantic":"sochun","stream_name":"용수말천","alias_raw":"용수말천","notified_on":"2015-12-15"},"geometry":{"type":"Polygon","coordinates":[[[127.250151,36.250899],[127.249954,36.250839],[127.249568,36.250826],[127.249749,36.250875],[127.250151,36.250899]]]}},{"type":"Feature","id":"SOCHUN:44250:55800004425020150082UJC2000003004","properties":{"MNUM":"55800004425020150082UJC2000003004","admin_code":"44250","sgg_code":"44250","source_layer":"LSMD_CONT_UJ301","semantic":"sochun","stream_name":"동촌천","alias_raw":"동촌천","notified_on":"2015-12-15"},"geometry":{"type":"Polygon","coordinates":[[[127.223722,36.281395],[127.223861,36.28093],[127.223712,36.281323],[127.223731,36.281541],[127.223722,36.281395]]]}},{"type":"Feature","id":"SOCHUN:44250:55800004425020150082UJC2000008011","properties":{"MNUM":"55800004425020150082UJC2000008011","admin_code":"44250","sgg_code":"44250","source_layer":"LSMD_CONT_UJ301","semantic":"sochun","stream_name":"용수말천","alias_raw":"용수말천","notified_on":"2015-12-15"},"geometry":{"type":"Polygon","coordinates":[[[127.249514,36.250769],[127.249221,36.250673],[127.249385,36.250752],[127.249514,36.250769]]]}},{"type":"Feature","id":"SOCHUN:44250:55800004425020150082UJC2000003015","properties":{"MNUM":"55800004425020150082UJC2000003015","admin_code":"44250","sgg_code":"44250","source_layer":"LSMD_CONT_UJ301","semantic":"sochun","stream_name":"동촌천","alias_raw":"동촌천","notified_on":"2015-12-15"},"geometry":{"type":"Polygon","coordinates":[[[127.223704,36.283917],[127.223658,36.283803],[127.223662,36.283813],[127.223675,36.283848],[127.223705,36.283934],[127.223708,36.283941],[127.223711,36.283952],[127.223704,36.283917]]]}},{"type":"Feature","id":"SOCHUN:44250:55800004425020230037UJC2000100010","properties":{"MNUM":"55800004425020230037UJC2000100010","admin_code":"44250","sgg_code":"44250","source_layer":"LSMD_CONT_UJ301","semantic":"sochun","stream_name":"개터천","alias_raw":"소하천예정지","remark_raw":"개터천","notified_on":"2023-02-10"},"geometry":{"type":"Polygon","coordinates":[[[127.24625,36.257989],[127.246253,36.257986],[127.246244,36.257986],[127.24625,36.257989]]]}},{"type":"Feature","id":"SOCHUN:44250:55800004425020150081UJC1000005001","properties":{"MNUM":"55800004425020150081UJC1000005001","admin_code":"44250","sgg_code":"44250","source_layer":"LSMD_CONT_UJ301","semantic":"sochun","stream_name":"상산명천","alias_raw":"상산명천","notified_on":"2015-12-15"},"geometry":{"type":"Polygon","coordinates":[[[127.210006,36.271616],[127.210219,36.271747],[127.210531,36.271874],[127.21063,36.271878],[127.210843,36.271797],[127.210987,36.271784],[127.212315,36.27088],[127.212654,36.270704],[127.212983,36.270594],[127.212901,36.270421],[127.212933,36.270372],[127.212187,36.270706],[127.210959,36.271528],[127.210875,36.271495],[127.210943,36.271571],[127.210872,36.271648],[127.210722,36.271699],[127.210405,36.271684],[127.20985,36.271361],[127.209196,36.271274],[127.208722,36.271321],[127.208548,36.271383],[127.20816,36.271322],[127.207933,36.27133],[127.207695,36.271416],[127.207375,36.27161],[127.207244,36.271657],[127.207028,36.271659],[127.206813,36.271507],[127.206673,36.271622],[127.206911,36.271744],[127.207013,36.271842],[127.207434,36.271932],[127.207495,36.271849],[127.207488,36.271751],[127.207535,36.271698],[127.207839,36.271516],[127.208047,36.271461],[127.208146,36.271454],[127.208187,36.271502],[127.208433,36.271553],[127.209205,36.271425],[127.209607,36.271496],[127.209816,36.271499],[127.210006,36.271616]]]}},{"type":"Feature","id":"SOCHUN:44250:55800004425020150082UJC2000006009","properties":{"MNUM":"55800004425020150082UJC2000006009","admin_code":"44250","sgg_code":"44250","source_layer":"LSMD_CONT_UJ301","semantic":"sochun","stream_name":"배울천","alias_raw":"배울천","notified_on":"2015-12-15"},"geometry":{"type":"Polygon","coordinates":[[[127.211823,36.259781],[127.211818,36.259775],[127.211814,36.259778],[127.211826,36.259787],[127.211834,36.259792],[127.211823,36.259781]]]}},{"type":"Feature","id":"SOCHUN:44250:55800004425020230027UJC2000100009","properties":{"MNUM":"55800004425020230027UJC2000100009","admin_code":"44250","sgg_code":"44250","source_layer":"LSMD_CONT_UJ301","semantic":"sochun","stream_name":"개터천","alias_raw":"소하천예정지","remark_raw":"개터천","notified_on":"2023-02-10"},"geometry":{"type":"Polygon","coordinates":[[[127.246111,36.257991],[127.246175,36.257984],[127.246058,36.257975],[127.246111,36.257991]]]}},{"type":"Feature","id":"SOCHUN:44250:45400004425020200083UJC2000030001","properties":{"MNUM":"45400004425020200083UJC2000030001","admin_code":"44250","sgg_code":"44250","source_layer":"LSMD_CONT_UJ301","semantic":"sochun","stream_name":"무주천","alias_raw":"소하천예정지","remark_raw":"무주천","notified_on":"2020-06-08"},"geometry":{"type":"Polygon","coordinates":[[[127.224746,36.258907],[127.225393,36.25889],[127.225879,36.258769],[127.226868,36.258343],[127.227369,36.258048],[127.227617,36.25787],[127.227611,36.257815],[127.226422,36.258519],[127.226284,36.258532],[127.226111,36.258633],[127.225621,36.25882],[127.224749,36.258865],[127.224746,36.258907]]]}},{"type":"Feature","id":"SOCHUN:44250:55800004425020150081UJC1000004001","properties":{"MNUM":"55800004425020150081UJC1000004001","admin_code":"44250","sgg_code":"44250","source_layer":"LSMD_CONT_UJ301","semantic":"sochun","stream_name":"검배천","alias_raw":"검배천","notified_on":"2015-12-15"},"geometry":{"type":"Polygon","coordinates":[[[127.22605,36.282563],[127.22636,36.282804],[127.226604,36.283168],[127.2268,36.283269],[127.227012,36.283283],[127.227451,36.283188],[127.227637,36.283114],[127.227818,36.282978],[127.228048,36.28296],[127.228221,36.282891],[127.228356,36.282598],[127.228448,36.282522],[127.228547,36.282535],[127.228841,36.282701],[127.228921,36.282825],[127.228887,36.282945],[127.228831,36.283002],[127.228999,36.283262],[127.229297,36.283431],[127.229405,36.283636],[127.229789,36.284013],[127.22988,36.284209],[127.22984,36.284287],[127.229632,36.28442],[127.229545,36.284678],[127.229476,36.284775],[127.229628,36.285037],[127.229642,36.285286],[127.22958,36.285326],[127.229598,36.285386],[127.229801,36.285497],[127.22985,36.285594],[127.229878,36.28573],[127.229865,36.285926],[127.230013,36.286003],[127.230188,36.286148],[127.23058,36.286219],[127.230693,36.286211],[127.230463,36.286063],[127.230282,36.286083],[127.230188,36.286004],[127.230037,36.285937],[127.230108,36.285641],[127.229952,36.285385],[127.229832,36.28534],[127.229733,36.285155],[127.229718,36.285025],[127.229614,36.284798],[127.22976,36.284451],[127.229992,36.284294],[127.230034,36.284209],[127.229887,36.284055],[127.229862,36.283971],[127.22975,36.283832],[127.229653,36.283779],[127.229413,36.283501],[127.229374,36.28337],[127.229289,36.283346],[127.229049,36.283184],[127.228976,36.283027],[127.229042,36.282818],[127.229018,36.282754],[127.228865,36.282607],[127.228596,36.28248],[127.228418,36.282454],[127.228262,36.282518],[127.228191,36.282597],[127.228141,36.282771],[127.228045,36.282871],[127.227756,36.282902],[127.2275,36.283075],[127.227103,36.2832],[127.226843,36.283184],[127.22666,36.283044],[127.226496,36.282629],[127.226431,36.282659],[127.226358,36.282632],[127.22589,36.282301],[127.225546,36.282169],[127.225532,36.282126],[127.225246,36.281979],[127.224801,36.281876],[127.224371,36.28143],[127.224253,36.281336],[127.224031,36.281233],[127.223991,36.281283],[127.224071,36.281315],[127.223977,36.2813],[127.223928,36.281366],[127.224168,36.281364],[127.224271,36.281425],[127.224697,36.281885],[127.224893,36.281969],[127.225195,36.282046],[127.225815,36.282379],[127.225865,36.28241],[127.225849,36.282478],[127.22605,36.282563]],[[127.23007,36.285727],[127.230019,36.285929],[127.229962,36.285869],[127.229924,36.285586],[127.22986,36.285421],[127.230017,36.285543],[127.23007,36.285727]]]}},{"type":"Feature","id":"SOCHUN:44250:55800004425020150082UJC2000008003","properties":{"MNUM":"55800004425020150082UJC2000008003","admin_code":"44250","sgg_code":"44250","source_layer":"LSMD_CONT_UJ301","semantic":"sochun","stream_name":"용수말천","alias_raw":"용수말천","notified_on":"2015-12-15"},"geometry":{"type":"Polygon","coordinates":[[[127.25524,36.258503],[127.255216,36.258417],[127.254964,36.258036],[127.254764,36.257517],[127.254761,36.257468],[127.255012,36.257024],[127.254974,36.256804],[127.254848,36.256497],[127.254779,36.256406],[127.254627,36.256302],[127.25426,36.256208],[127.253931,36.25607],[127.253782,36.255771],[127.253868,36.255677],[127.254003,36.255571],[127.254102,36.255539],[127.254195,36.255447],[127.254236,36.255255],[127.254008,36.254933],[127.253856,36.254816],[127.25364,36.254744],[127.25336,36.254713],[127.253326,36.254666],[127.253205,36.254672],[127.253273,36.254732],[127.253619,36.254779],[127.253826,36.254845],[127.25404,36.255033],[127.254173,36.255217],[127.254192,36.255296],[127.254167,36.255374],[127.254032,36.255523],[127.253785,36.255689],[127.25375,36.25585],[127.253875,36.25605],[127.253988,36.256151],[127.254134,36.256221],[127.25457,36.256335],[127.254698,36.256423],[127.254829,36.256578],[127.254938,36.257038],[127.25474,36.257377],[127.254719,36.25756],[127.254921,36.258094],[127.255193,36.258488],[127.25524,36.258503]]]}},{"type":"Feature","id":"SOCHUN:44250:55800004425020230037UJC2000100004","properties":{"MNUM":"55800004425020230037UJC2000100004","admin_code":"44250","sgg_code":"44250","source_layer":"LSMD_CONT_UJ301","semantic":"sochun","stream_name":"개터천","alias_raw":"소하천예정지","remark_raw":"개터천","notified_on":"2023-02-10"},"geometry":{"type":"Polygon","coordinates":[[[127.251266,36.258607],[127.251149,36.25849],[127.250678,36.258294],[127.250565,36.258182],[127.250531,36.258054],[127.25047,36.258014],[127.25021,36.257961],[127.250215,36.257934],[127.249821,36.257907],[127.249307,36.258018],[127.248954,36.25805],[127.248512,36.258014],[127.248065,36.257894],[127.248013,36.257921],[127.247565,36.257947],[127.247545,36.257968],[127.247891,36.258],[127.248486,36.258157],[127.248861,36.258193],[127.249282,36.258169],[127.249782,36.258057],[127.250037,36.258051],[127.25004,36.258024],[127.250226,36.258073],[127.250209,36.258096],[127.251266,36.258607]]]}}]}