{"type":"FeatureCollection","features":[{"type":"Feature","id":"SOCHUN:29170:36200002917020170193UJC2000001000","properties":{"MNUM":"36200002917020170193UJC2000001000","admin_code":"12300","sgg_code":"12300","source_layer":"LSMD_CONT_UJ301","semantic":"sochun"},"geometry":{"type":"MultiPolygon","coordinates":[[[[126.908519,35.256323],[126.908667,35.256856],[126.908879,35.257363],[126.908886,35.257829],[126.909022,35.257846],[126.909024,35.257679],[126.908946,35.257364],[126.908796,35.256978],[126.90869,35.256568],[126.908672,35.256228],[126.90871,35.256005],[126.908958,35.255455],[126.909193,35.255154],[126.909492,35.254927],[126.910116,35.254625],[126.910381,35.254454],[126.910773,35.254068],[126.91094,35.253826],[126.911085,35.253417],[126.91114,35.253088],[126.91107,35.252401],[126.910944,35.251841],[126.910942,35.251235],[126.910976,35.251093],[126.911165,35.250707],[126.91136,35.250436],[126.91147,35.250339],[126.912259,35.250051],[126.912555,35.249899],[126.914153,35.248776],[126.914592,35.248422],[126.91475,35.248359],[126.91536,35.248239],[126.915497,35.248183],[126.915618,35.248071],[126.915787,35.24772],[126.915592,35.248079],[126.915484,35.248174],[126.915101,35.248281],[126.915083,35.24824],[126.914814,35.248256],[126.914538,35.248357],[126.914128,35.248688],[126.91351,35.24912],[126.913439,35.249241],[126.912519,35.249883],[126.912268,35.25003],[126.911564,35.250263],[126.91131,35.250473],[126.911,35.250981],[126.910935,35.251146],[126.910918,35.251306],[126.910937,35.251921],[126.911107,35.252695],[126.911129,35.252976],[126.911127,35.253164],[126.910974,35.253624],[126.910698,35.254043],[126.910312,35.254458],[126.909908,35.254693],[126.909468,35.254851],[126.909236,35.254991],[126.909055,35.255144],[126.908889,35.255385],[126.908603,35.255928],[126.908519,35.256323]]],[[[126.908232,35.256242],[126.908283,35.256753],[126.908605,35.257778],[126.908618,35.257663],[126.908425,35.257186],[126.908373,35.256973],[126.9083,35.256439],[126.908299,35.256006],[126.908382,35.255882],[126.908411,35.255754],[126.908706,35.255264],[126.908951,35.254935],[126.909161,35.254784],[126.909955,35.254411],[126.910147,35.254294],[126.910592,35.253816],[126.910732,35.253586],[126.910838,35.253224],[126.910874,35.253193],[126.910856,35.252848],[126.910647,35.251927],[126.91058,35.251861],[126.910581,35.251333],[126.910693,35.250922],[126.91093,35.250485],[126.911125,35.250258],[126.911282,35.250156],[126.91205,35.249902],[126.912821,35.249462],[126.914445,35.248292],[126.914661,35.248218],[126.915386,35.248055],[126.915596,35.247656],[126.91554,35.247638],[126.915334,35.248025],[126.91464,35.248169],[126.914441,35.24824],[126.914136,35.248406],[126.912307,35.249703],[126.91206,35.249819],[126.911277,35.250088],[126.911065,35.25024],[126.910836,35.250585],[126.910618,35.251037],[126.910562,35.251263],[126.91057,35.251863],[126.910743,35.252544],[126.910804,35.253108],[126.910793,35.253277],[126.910719,35.25354],[126.910404,35.253998],[126.909948,35.254326],[126.909202,35.254699],[126.908823,35.255014],[126.908648,35.255238],[126.908346,35.255758],[126.908265,35.255984],[126.908232,35.256242]]],[[[126.918504,35.244007],[126.918777,35.243876],[126.91903,35.243633],[126.918991,35.243607],[126.918698,35.243873],[126.918504,35.244007]]],[[[126.916171,35.246654],[126.916188,35.246656],[126.916249,35.246263],[126.916255,35.24622],[126.916261,35.246176],[126.916276,35.246047],[126.916258,35.246046],[126.916243,35.246157],[126.916233,35.246238],[126.916216,35.246364],[126.9162,35.246455],[126.916189,35.246526],[126.916176,35.246611],[126.916171,35.246654]]],[[[126.997253,35.162785],[126.997814,35.162913],[126.998693,35.163401],[126.998724,35.163466],[126.998705,35.16366],[126.998735,35.163842],[126.999037,35.164514],[126.999214,35.164728],[126.999846,35.165282],[127.000066,35.16573],[127.000513,35.166301],[127.000597,35.166452],[127.000636,35.166688],[127.000634,35.167032],[127.000582,35.167247],[127.000408,35.167467],[127.000104,35.167642],[126.999985,35.167744],[126.999898,35.167878],[126.999838,35.168069],[126.999816,35.168293],[126.999847,35.168534],[127.000084,35.169047],[127.000243,35.169184],[127.0015,35.169864],[127.002428,35.170446],[127.002921,35.170668],[127.003656,35.170788],[127.003844,35.170859],[127.004001,35.171009],[127.004073,35.171127],[127.004009,35.171185],[127.004263,35.171287],[127.004182,35.171087],[127.004005,35.170884],[127.003816,35.170739],[127.003613,35.170667],[127.003234,35.170608],[127.002702,35.170427],[127.000698,35.169334],[127.000585,35.169295],[127.0003,35.169123],[127.000162,35.168974],[127.000037,35.16877],[126.999938,35.168452],[126.999906,35.168196],[126.999931,35.168072],[127.000027,35.167803],[127.00014,35.167693],[127.000406,35.167557],[127.000637,35.167387],[127.000773,35.167093],[127.000701,35.166837],[127.000707,35.166456],[127.000484,35.166082],[127.000343,35.16594],[127.000129,35.16564],[126.999972,35.1653],[126.999038,35.164389],[126.998806,35.163806],[126.998787,35.163551],[126.998861,35.163305],[126.998083,35.162795],[126.997934,35.162733],[126.997794,35.162765],[126.997394,35.162756],[126.997304,35.162647],[126.997253,35.162785]]],[[[126.999114,35.164018],[126.99924,35.164329],[126.999331,35.164446],[126.999557,35.164691],[126.999701,35.164749],[127.00002,35.165053],[127.000047,35.165161],[127.000232,35.165385],[127.000424,35.165736],[127.000761,35.16612],[127.000892,35.166502],[127.00094,35.167098],[127.000906,35.167149],[127.000913,35.167246],[127.000809,35.16747],[127.000487,35.167788],[127.00024,35.167919],[127.000142,35.168103],[127.00015,35.168495],[127.000194,35.168656],[127.000306,35.168856],[127.000511,35.169011],[127.000719,35.169073],[127.00105,35.169258],[127.001257,35.169335],[127.001819,35.169648],[127.002505,35.170137],[127.003009,35.170356],[127.003587,35.170456],[127.003597,35.170399],[127.003198,35.17033],[127.002636,35.170107],[127.001764,35.169553],[127.000512,35.168899],[127.000442,35.168837],[127.000274,35.168446],[127.000275,35.168115],[127.000344,35.167953],[127.000762,35.167685],[127.0009,35.167532],[127.001007,35.167344],[127.001073,35.167021],[127.000999,35.166378],[127.000905,35.166171],[127.000461,35.165609],[127.000208,35.165162],[126.999445,35.16446],[126.999218,35.164023],[126.999114,35.164018]]],[[[127.00441,35.170974],[127.004569,35.171301],[127.004775,35.171465],[127.005239,35.17172],[127.005785,35.171927],[127.006967,35.172518],[127.006974,35.172445],[127.0058,35.171868],[127.005177,35.17162],[127.004744,35.171345],[127.00466,35.171249],[127.004534,35.171],[127.00441,35.170974]]],[[[127.005069,35.171968],[127.005075,35.171992],[127.006694,35.172688],[127.006651,35.172601],[127.006023,35.172251],[127.005498,35.172056],[127.005275,35.17199],[127.005069,35.171968]]],[[[127.006905,35.172973],[127.007184,35.173237],[127.007421,35.173535],[127.007857,35.174297],[127.008034,35.174718],[127.008208,35.175292],[127.008438,35.175714],[127.008813,35.176125],[127.009621,35.176766],[127.009743,35.176939],[127.009798,35.177134],[127.009762,35.17739],[127.009605,35.177638],[127.009493,35.177735],[127.009133,35.177929],[127.008756,35.178402],[127.008538,35.178804],[127.008346,35.179353],[127.008154,35.179598],[127.007793,35.17988],[127.007664,35.18002],[127.007373,35.180695],[127.007329,35.181012],[127.007327,35.18189],[127.007366,35.182222],[127.007583,35.18284],[127.007969,35.183461],[127.008039,35.183431],[127.008,35.183261],[127.00782,35.182997],[127.007621,35.182613],[127.007489,35.182108],[127.007482,35.181828],[127.007534,35.181746],[127.007508,35.181416],[127.00753,35.181053],[127.007493,35.180955],[127.007558,35.180511],[127.007575,35.180448],[127.007612,35.180438],[127.007624,35.180363],[127.00759,35.18035],[127.007752,35.180068],[127.00795,35.179915],[127.008284,35.179554],[127.008386,35.179378],[127.008585,35.178788],[127.00885,35.178319],[127.009191,35.1779],[127.009565,35.177761],[127.00984,35.177501],[127.009927,35.177316],[127.00994,35.17712],[127.009879,35.17696],[127.009745,35.176763],[127.008799,35.176103],[127.008551,35.175848],[127.008419,35.175653],[127.008244,35.175285],[127.008098,35.174691],[127.007955,35.174354],[127.007747,35.174081],[127.00724,35.173161],[127.007119,35.173036],[127.006973,35.172959],[127.006905,35.172973]]],[[[127.008456,35.174884],[127.008772,35.175714],[127.009582,35.176352],[127.009786,35.176458],[127.00996,35.176642],[127.010155,35.176969],[127.010186,35.176889],[127.010167,35.176841],[127.009978,35.176556],[127.009179,35.175933],[127.008969,35.175726],[127.00868,35.175289],[127.008519,35.174816],[127.00846,35.174798],[127.008456,35.174884]]]]}},{"type":"Feature","id":"SOCHUN:29170:36200002917020170193UJC1000001000","properties":{"MNUM":"36200002917020170193UJC1000001000","admin_code":"12300","sgg_code":"12300","source_layer":"LSMD_CONT_UJ301","semantic":"sochun"},"geometry":{"type":"MultiPolygon","coordinates":[[[[126.908295,35.256198],[126.908373,35.256973],[126.908425,35.257186],[126.908618,35.257663],[126.908627,35.257739],[126.908592,35.257787],[126.908886,35.257829],[126.908879,35.257363],[126.908667,35.256856],[126.908519,35.256323],[126.908565,35.256031],[126.908889,35.255385],[126.909109,35.255087],[126.909468,35.254851],[126.909908,35.254693],[126.910312,35.254458],[126.910698,35.254043],[126.910974,35.253624],[126.911127,35.253164],[126.911129,35.252976],[126.911107,35.252695],[126.910937,35.251921],[126.910918,35.251306],[126.910964,35.25107],[126.911164,35.25068],[126.911437,35.250343],[126.911564,35.250263],[126.912268,35.25003],[126.912519,35.249883],[126.913439,35.249241],[126.91351,35.24912],[126.914128,35.248688],[126.914538,35.248357],[126.914914,35.248242],[126.915083,35.24824],[126.915101,35.248281],[126.915252,35.248257],[126.915439,35.248199],[126.915563,35.248115],[126.915722,35.247844],[126.916219,35.246716],[126.916168,35.246692],[126.916176,35.246611],[126.91636,35.245421],[126.916482,35.245202],[126.916623,35.245053],[126.916725,35.245089],[126.91703,35.244807],[126.917321,35.244592],[126.918265,35.244304],[126.918664,35.244147],[126.919114,35.243817],[126.91997,35.242925],[126.920624,35.242858],[126.920945,35.24279],[126.921186,35.242644],[126.921254,35.242644],[126.921572,35.242395],[126.921665,35.242254],[126.921814,35.242155],[126.921968,35.242118],[126.922468,35.242085],[126.922923,35.242001],[126.922964,35.242031],[126.92321,35.241978],[126.923605,35.241941],[126.924525,35.241702],[126.924874,35.241893],[126.925469,35.242017],[126.925641,35.242024],[126.926284,35.24188],[126.926793,35.241834],[126.926984,35.241788],[126.927298,35.241684],[126.927654,35.241496],[126.927573,35.241455],[126.927335,35.24159],[126.926897,35.241718],[126.925967,35.241839],[126.925662,35.241923],[126.925245,35.241874],[126.924824,35.241761],[126.924667,35.241638],[126.924617,35.241561],[126.924554,35.241542],[126.92387,35.241657],[126.923528,35.241783],[126.922979,35.241849],[126.922296,35.241988],[126.921958,35.241982],[126.921811,35.242008],[126.921628,35.242111],[126.921424,35.242295],[126.920928,35.242654],[126.920588,35.242728],[126.920066,35.242774],[126.919865,35.242836],[126.918853,35.243808],[126.918666,35.243941],[126.918127,35.244136],[126.917263,35.244376],[126.917023,35.244495],[126.916719,35.244723],[126.916461,35.244975],[126.916507,35.245015],[126.916335,35.245198],[126.916289,35.245186],[126.916182,35.245311],[126.916215,35.245369],[126.916199,35.245559],[126.916014,35.246686],[126.915907,35.247023],[126.915386,35.248055],[126.914661,35.248218],[126.914445,35.248292],[126.912821,35.249462],[126.91205,35.249902],[126.911282,35.250156],[126.911125,35.250258],[126.91093,35.250485],[126.910693,35.250922],[126.910581,35.251333],[126.91058,35.251861],[126.910647,35.251927],[126.910856,35.252848],[126.910874,35.253193],[126.910838,35.253224],[126.910732,35.253586],[126.910592,35.253816],[126.910147,35.254294],[126.909955,35.254411],[126.909161,35.254784],[126.908951,35.254935],[126.908706,35.255264],[126.908426,35.255724],[126.908382,35.255882],[126.908299,35.256006],[126.908295,35.256198]]],[[[126.901488,35.205347],[126.902797,35.205859],[126.903437,35.206078],[126.903948,35.20621],[126.903994,35.206193],[126.905145,35.206569],[126.905407,35.206804],[126.905503,35.207085],[126.905529,35.207089],[126.905655,35.20756],[126.905697,35.207571],[126.905772,35.207692],[126.906041,35.207943],[126.906058,35.208075],[126.906119,35.20815],[126.906336,35.208304],[126.906793,35.208372],[126.907036,35.208452],[126.907361,35.208652],[126.907827,35.209058],[126.907901,35.209082],[126.907957,35.209055],[126.907714,35.208888],[126.907483,35.208655],[126.907056,35.208394],[126.906835,35.208319],[126.906414,35.20826],[126.906323,35.20819],[126.906322,35.208066],[126.906399,35.208052],[126.9064,35.208018],[126.90617,35.207939],[126.905917,35.20772],[126.905733,35.207512],[126.905547,35.206897],[126.905557,35.206824],[126.905612,35.206782],[126.905355,35.206503],[126.904999,35.206338],[126.904604,35.206201],[126.903429,35.205832],[126.903393,35.205881],[126.902765,35.205685],[126.901592,35.205238],[126.901547,35.205246],[126.901488,35.205347]]],[[[126.996964,35.162253],[126.997394,35.162756],[126.997794,35.162765],[126.997934,35.162733],[126.998083,35.162795],[126.998861,35.163305],[126.998787,35.163551],[126.998806,35.163806],[126.999038,35.164389],[126.999972,35.1653],[127.000129,35.16564],[127.000343,35.16594],[127.000484,35.166082],[127.000707,35.166456],[127.000701,35.166837],[127.000773,35.167093],[127.000637,35.167387],[127.000406,35.167557],[127.00014,35.167693],[127.000027,35.167803],[126.999931,35.168072],[126.999906,35.168196],[126.999938,35.168452],[127.000037,35.16877],[127.000162,35.168974],[127.0003,35.169123],[127.000585,35.169295],[127.000698,35.169334],[127.002702,35.170427],[127.003234,35.170608],[127.003613,35.170667],[127.003816,35.170739],[127.004005,35.170884],[127.004182,35.171087],[127.004264,35.171246],[127.004247,35.171388],[127.004755,35.171826],[127.00514,35.171992],[127.005275,35.17199],[127.006023,35.172251],[127.006651,35.172601],[127.006695,35.17268],[127.006668,35.17281],[127.007119,35.173036],[127.00724,35.173161],[127.007747,35.174081],[127.007955,35.174354],[127.008098,35.174691],[127.008244,35.175285],[127.008419,35.175653],[127.008551,35.175848],[127.008799,35.176103],[127.009745,35.176763],[127.009879,35.17696],[127.009943,35.177169],[127.009873,35.177457],[127.009565,35.177761],[127.009191,35.1779],[127.00885,35.178319],[127.008585,35.178788],[127.008386,35.179378],[127.008284,35.179554],[127.00795,35.179915],[127.007752,35.180068],[127.00759,35.18035],[127.007624,35.180363],[127.007612,35.180438],[127.007575,35.180448],[127.007558,35.180511],[127.007493,35.180955],[127.00753,35.181053],[127.007508,35.181416],[127.007534,35.181746],[127.007482,35.181828],[127.007489,35.182108],[127.007621,35.182613],[127.00782,35.182997],[127.008,35.183261],[127.008039,35.183431],[127.008362,35.183291],[127.007988,35.182788],[127.007766,35.18221],[127.007725,35.181937],[127.007725,35.181085],[127.007784,35.180696],[127.00801,35.180168],[127.008471,35.179782],[127.009932,35.177986],[127.010055,35.177783],[127.010169,35.177345],[127.010155,35.176969],[127.00996,35.176642],[127.009786,35.176458],[127.009582,35.176352],[127.008772,35.175714],[127.008549,35.175185],[127.008456,35.174884],[127.008438,35.174708],[127.008226,35.174193],[127.007756,35.173363],[127.007559,35.173126],[127.007422,35.172859],[127.007305,35.172724],[127.006875,35.172463],[127.005785,35.171927],[127.005239,35.17172],[127.00466,35.171394],[127.004569,35.171301],[127.004331,35.170784],[127.004243,35.170694],[127.004028,35.170585],[127.003742,35.170487],[127.003009,35.170356],[127.002505,35.170137],[127.001819,35.169648],[127.001257,35.169335],[127.00105,35.169258],[127.000719,35.169073],[127.000511,35.169011],[127.000306,35.168856],[127.000194,35.168656],[127.00015,35.168495],[127.000142,35.168103],[127.00024,35.167919],[127.000487,35.167788],[127.000777,35.167528],[127.000913,35.167246],[127.000906,35.167149],[127.00094,35.167098],[127.000903,35.166547],[127.000761,35.16612],[127.000424,35.165736],[127.000232,35.165385],[127.000047,35.165161],[127.00002,35.165053],[126.999701,35.164749],[126.999557,35.164691],[126.99924,35.164329],[126.999025,35.163726],[126.999038,35.163505],[126.999079,35.163409],[126.999156,35.163363],[126.99915,35.163281],[126.998821,35.163125],[126.998159,35.162731],[126.997651,35.162595],[126.997485,35.162611],[126.997384,35.162555],[126.997069,35.162213],[126.996964,35.162253]]]]}}]}