{"type":"FeatureCollection","features":[{"type":"Feature","id":"SOCHUN:26140:32600002614020160000UJC1000001001","properties":{"MNUM":"32600002614020160000UJC1000001001","admin_code":"26140","sgg_code":"26140","source_layer":"LSMD_CONT_UJ301","semantic":"sochun","stream_name":"꽃마을천","alias_raw":"꽃마을천","notified_on":"2016-04-01"},"geometry":{"type":"Polygon","coordinates":[[[129.004203,35.132409],[129.004634,35.132426],[129.004829,35.132485],[129.00516,35.132471],[129.005273,35.132525],[129.005517,35.132506],[129.005729,35.132479],[129.005928,35.132357],[129.005962,35.132287],[129.006207,35.132187],[129.006324,35.132091],[129.006376,35.131997],[129.006315,35.131676],[129.006277,35.131632],[129.006275,35.131361],[129.006305,35.131254],[129.00638,35.131167],[129.006396,35.131094],[129.006523,35.131006],[129.006702,35.130948],[129.006834,35.130814],[129.006918,35.130792],[129.007051,35.130664],[129.007179,35.130419],[129.007524,35.130435],[129.00769,35.130391],[129.007891,35.13053],[129.008209,35.130528],[129.008255,35.130597],[129.008393,35.130631],[129.008481,35.130746],[129.008771,35.130692],[129.008766,35.130668],[129.009202,35.130805],[129.009227,35.130854],[129.009496,35.130862],[129.009571,35.130928],[129.009776,35.130896],[129.01001,35.130939],[129.010034,35.130996],[129.010301,35.131041],[129.010336,35.130998],[129.010469,35.131022],[129.010447,35.130976],[129.010474,35.130949],[129.010341,35.130972],[129.010108,35.130885],[129.010077,35.130844],[129.010039,35.130853],[129.009818,35.130719],[129.00961,35.130703],[129.009561,35.130734],[129.009294,35.130744],[129.009149,35.13067],[129.008959,35.130629],[129.008876,35.130558],[129.008706,35.130537],[129.008604,35.130574],[129.008579,35.130539],[129.008408,35.130502],[129.008295,35.130433],[129.007738,35.130303],[129.007178,35.130353],[129.006706,35.130682],[129.006588,35.130879],[129.006445,35.130882],[129.006381,35.130972],[129.006216,35.131052],[129.006174,35.131158],[129.006208,35.131236],[129.006143,35.131323],[129.00615,35.131578],[129.00621,35.13191],[129.006272,35.132019],[129.006172,35.132137],[129.005396,35.132401],[129.005126,35.132355],[129.004915,35.132365],[129.004816,35.132324],[129.004478,35.132309],[129.004203,35.132319],[129.004203,35.132409]]]}}]}