{"type":"FeatureCollection","features":[{"type":"Feature","id":"SOCHUN:28290:35600002829020190088UJC2000001025","properties":{"MNUM":"35600002829020190088UJC2000001025","admin_code":"28290","sgg_code":"28290","source_layer":"LSMD_CONT_UJ301","semantic":"sochun"},"geometry":{"type":"Polygon","coordinates":[[[126.637557,37.611882],[126.637799,37.612003],[126.637807,37.611977],[126.637557,37.611882]]]}},{"type":"Feature","id":"SOCHUN:28290:35600002829020190088UJC2000001017","properties":{"MNUM":"35600002829020190088UJC2000001017","admin_code":"28290","sgg_code":"28290","source_layer":"LSMD_CONT_UJ301","semantic":"sochun"},"geometry":{"type":"Polygon","coordinates":[[[126.635148,37.608595],[126.635255,37.60882],[126.635213,37.608678],[126.635148,37.608595]]]}},{"type":"Feature","id":"SOCHUN:28290:35600002829020190088UJC2000001043","properties":{"MNUM":"35600002829020190088UJC2000001043","admin_code":"28290","sgg_code":"28290","source_layer":"LSMD_CONT_UJ301","semantic":"sochun"},"geometry":{"type":"Polygon","coordinates":[[[126.64235,37.608423],[126.642633,37.608727],[126.64272,37.608779],[126.642883,37.608985],[126.642899,37.60897],[126.64261,37.608654],[126.64235,37.608423]]]}},{"type":"Feature","id":"SOCHUN:28290:35600002829020190088UJC2000001028","properties":{"MNUM":"35600002829020190088UJC2000001028","admin_code":"28290","sgg_code":"28290","source_layer":"LSMD_CONT_UJ301","semantic":"sochun"},"geometry":{"type":"Polygon","coordinates":[[[126.638357,37.611799],[126.638384,37.611771],[126.638359,37.61177],[126.638357,37.611799]]]}},{"type":"Feature","id":"SOCHUN:28290:35600002829020190088UJC2000001042","properties":{"MNUM":"35600002829020190088UJC2000001042","admin_code":"28290","sgg_code":"28290","source_layer":"LSMD_CONT_UJ301","semantic":"sochun"},"geometry":{"type":"Polygon","coordinates":[[[126.642397,37.608524],[126.642479,37.608609],[126.642454,37.608576],[126.642416,37.608538],[126.642397,37.608524]]]}},{"type":"Feature","id":"SOCHUN:28290:35600002829020190088UJC2000001004","properties":{"MNUM":"35600002829020190088UJC2000001004","admin_code":"28290","sgg_code":"28290","source_layer":"LSMD_CONT_UJ301","semantic":"sochun"},"geometry":{"type":"Polygon","coordinates":[[[126.655256,37.633293],[126.655336,37.633357],[126.655747,37.633384],[126.655343,37.633352],[126.655256,37.633293]]]}},{"type":"Feature","id":"SOCHUN:28290:35600002829020190088UJC2000001035","properties":{"MNUM":"35600002829020190088UJC2000001035","admin_code":"28290","sgg_code":"28290","source_layer":"LSMD_CONT_UJ301","semantic":"sochun"},"geometry":{"type":"Polygon","coordinates":[[[126.63686,37.606764],[126.637281,37.607079],[126.637519,37.607212],[126.637868,37.607366],[126.638244,37.607432],[126.637834,37.607317],[126.637255,37.607009],[126.63702,37.606816],[126.63686,37.606764]]]}},{"type":"Feature","id":"SOCHUN:28290:35600002829020190088UJC2000001050","properties":{"MNUM":"35600002829020190088UJC2000001050","admin_code":"28290","sgg_code":"28290","source_layer":"LSMD_CONT_UJ301","semantic":"sochun"},"geometry":{"type":"Polygon","coordinates":[[[126.645718,37.612937],[126.645729,37.612928],[126.645834,37.612839],[126.645854,37.612806],[126.645872,37.612783],[126.645873,37.612781],[126.645804,37.612847],[126.645729,37.612903],[126.645718,37.612937]]]}},{"type":"Feature","id":"SOCHUN:28290:35600002829020190088UJC2000001018","properties":{"MNUM":"35600002829020190088UJC2000001018","admin_code":"28290","sgg_code":"28290","source_layer":"LSMD_CONT_UJ301","semantic":"sochun"},"geometry":{"type":"Polygon","coordinates":[[[126.634585,37.606698],[126.634632,37.606924],[126.634609,37.607545],[126.634726,37.607787],[126.634933,37.608066],[126.635145,37.608585],[126.635169,37.608547],[126.635028,37.608161],[126.634711,37.607698],[126.63466,37.60757],[126.634676,37.606905],[126.634626,37.60672],[126.634602,37.606676],[126.634585,37.606698]]]}},{"type":"Feature","id":"SOCHUN:28290:35600002829020190088UJC2000001008","properties":{"MNUM":"35600002829020190088UJC2000001008","admin_code":"28290","sgg_code":"28290","source_layer":"LSMD_CONT_UJ301","semantic":"sochun"},"geometry":{"type":"Polygon","coordinates":[[[126.658455,37.635474],[126.658811,37.635603],[126.658956,37.635622],[126.659463,37.635527],[126.659649,37.635518],[126.660085,37.635535],[126.660502,37.635632],[126.661032,37.635649],[126.661345,37.6356],[126.661649,37.635357],[126.661527,37.635401],[126.66126,37.635571],[126.660969,37.635627],[126.660515,37.635623],[126.660121,37.635531],[126.659637,37.635495],[126.659461,37.635505],[126.658956,37.635608],[126.658455,37.635474]]]}},{"type":"Feature","id":"SOCHUN:28290:35600002829020190088UJC2000001048","properties":{"MNUM":"35600002829020190088UJC2000001048","admin_code":"28290","sgg_code":"28290","source_layer":"LSMD_CONT_UJ301","semantic":"sochun"},"geometry":{"type":"Polygon","coordinates":[[[126.6457,37.612086],[126.645805,37.612244],[126.645869,37.61228],[126.645877,37.612211],[126.645842,37.612164],[126.6457,37.612086]]]}},{"type":"Feature","id":"SOCHUN:28290:35600002829020190088UJC2000001011","properties":{"MNUM":"35600002829020190088UJC2000001011","admin_code":"28290","sgg_code":"28290","source_layer":"LSMD_CONT_UJ301","semantic":"sochun"},"geometry":{"type":"Polygon","coordinates":[[[126.684344,37.622189],[126.684435,37.622269],[126.689839,37.618889],[126.689874,37.618865],[126.689788,37.618767],[126.68953,37.618995],[126.689092,37.619277],[126.688771,37.619465],[126.688635,37.6195],[126.685815,37.62126],[126.684598,37.621986],[126.684344,37.622189]]]}},{"type":"Feature","id":"SOCHUN:28290:35600002829020190088UJC2000001016","properties":{"MNUM":"35600002829020190088UJC2000001016","admin_code":"28290","sgg_code":"28290","source_layer":"LSMD_CONT_UJ301","semantic":"sochun"},"geometry":{"type":"Polygon","coordinates":[[[126.634482,37.606494],[126.634518,37.606519],[126.6345,37.606494],[126.634514,37.606493],[126.634513,37.606492],[126.634482,37.606494]]]}},{"type":"Feature","id":"SOCHUN:28290:35600002829020190088UJC2000001044","properties":{"MNUM":"35600002829020190088UJC2000001044","admin_code":"28290","sgg_code":"28290","source_layer":"LSMD_CONT_UJ301","semantic":"sochun"},"geometry":{"type":"Polygon","coordinates":[[[126.642962,37.609036],[126.643003,37.609082],[126.643041,37.60912],[126.643049,37.609126],[126.642962,37.609036]]]}},{"type":"Feature","id":"SOCHUN:28290:35600002829020190088UJC2000001006","properties":{"MNUM":"35600002829020190088UJC2000001006","admin_code":"28290","sgg_code":"28290","source_layer":"LSMD_CONT_UJ301","semantic":"sochun"},"geometry":{"type":"Polygon","coordinates":[[[126.656444,37.633979],[126.656469,37.63407],[126.656582,37.634189],[126.656444,37.633979]]]}},{"type":"Feature","id":"SOCHUN:28290:35600002829020190088UJC2000001045","properties":{"MNUM":"35600002829020190088UJC2000001045","admin_code":"28290","sgg_code":"28290","source_layer":"LSMD_CONT_UJ301","semantic":"sochun"},"geometry":{"type":"Polygon","coordinates":[[[126.643396,37.609493],[126.643404,37.609506],[126.643442,37.609547],[126.643452,37.609565],[126.64346,37.609574],[126.643492,37.609609],[126.643558,37.609671],[126.643563,37.609676],[126.643519,37.609625],[126.643478,37.609582],[126.643396,37.609493]]]}},{"type":"Feature","id":"SOCHUN:28290:35600002829020190088UJC2000001007","properties":{"MNUM":"35600002829020190088UJC2000001007","admin_code":"28290","sgg_code":"28290","source_layer":"LSMD_CONT_UJ301","semantic":"sochun"},"geometry":{"type":"Polygon","coordinates":[[[126.656655,37.634336],[126.656749,37.634519],[126.657189,37.634679],[126.657379,37.634801],[126.657632,37.635161],[126.657476,37.63489],[126.657332,37.634733],[126.657151,37.634631],[126.656757,37.634504],[126.656655,37.634336]]]}},{"type":"Feature","id":"SOCHUN:28290:35600002829020190088UJC2000001061","properties":{"MNUM":"35600002829020190088UJC2000001061","admin_code":"28290","sgg_code":"28290","source_layer":"LSMD_CONT_UJ301","semantic":"sochun"},"geometry":{"type":"Polygon","coordinates":[[[126.676119,37.576452],[126.676332,37.576413],[126.676314,37.576391],[126.676144,37.576423],[126.676119,37.576452]]]}},{"type":"Feature","id":"SOCHUN:28290:35600002829020190088UJC2000001041","properties":{"MNUM":"35600002829020190088UJC2000001041","admin_code":"28290","sgg_code":"28290","source_layer":"LSMD_CONT_UJ301","semantic":"sochun"},"geometry":{"type":"Polygon","coordinates":[[[126.642208,37.608407],[126.642221,37.608422],[126.642223,37.608424],[126.642225,37.608427],[126.642227,37.608429],[126.64223,37.608431],[126.642232,37.608434],[126.642235,37.608436],[126.642237,37.608438],[126.64224,37.60844],[126.642243,37.608442],[126.642246,37.608444],[126.642249,37.608445],[126.642252,37.608447],[126.642255,37.608449],[126.642258,37.60845],[126.642352,37.608493],[126.642348,37.608491],[126.642304,37.608464],[126.642268,37.608443],[126.642208,37.608407]]]}},{"type":"Feature","id":"SOCHUN:28290:35600002829020190088UJC2000001033","properties":{"MNUM":"35600002829020190088UJC2000001033","admin_code":"28290","sgg_code":"28290","source_layer":"LSMD_CONT_UJ301","semantic":"sochun"},"geometry":{"type":"Polygon","coordinates":[[[126.638698,37.612886],[126.638698,37.612888],[126.638699,37.612889],[126.6387,37.612891],[126.6387,37.612893],[126.638701,37.612895],[126.638702,37.612896],[126.638702,37.612898],[126.638703,37.6129],[126.638704,37.612901],[126.638705,37.612903],[126.638705,37.612905],[126.638706,37.612906],[126.638707,37.612908],[126.638708,37.61291],[126.638709,37.612912],[126.638709,37.612913],[126.63871,37.612915],[126.638711,37.612917],[126.638712,37.612918],[126.638713,37.61292],[126.638714,37.612921],[126.638715,37.612923],[126.638716,37.612925],[126.638717,37.612926],[126.638718,37.612928],[126.638719,37.61293],[126.63872,37.612931],[126.638721,37.612933],[126.638722,37.612934],[126.638723,37.612936],[126.638724,37.612938],[126.638725,37.612939],[126.638726,37.612941],[126.638865,37.61314],[126.638866,37.613141],[126.638867,37.613143],[126.638868,37.613144],[126.638869,37.613146],[126.63887,37.613148],[126.638872,37.613149],[126.638873,37.613151],[126.638874,37.613152],[126.638875,37.613154],[126.638876,37.613156],[126.638877,37.613157],[126.638878,37.613159],[126.638879,37.613161],[126.63888,37.613162],[126.638881,37.613164],[126.638882,37.613165],[126.638883,37.613167],[126.638884,37.613169],[126.638885,37.61317],[126.638885,37.613172],[126.638886,37.613174],[126.638887,37.613175],[126.638888,37.613177],[126.638889,37.613178],[126.63889,37.61318],[126.638891,37.613182],[126.638892,37.613183],[126.638893,37.613185],[126.638894,37.613187],[126.638895,37.613188],[126.638895,37.61319],[126.638938,37.613273],[126.638916,37.613221],[126.638901,37.613193],[126.638712,37.612909],[126.63871,37.612905],[126.638698,37.612886]]]}},{"type":"Feature","id":"SOCHUN:28290:35600002829020190088UJC2000001027","properties":{"MNUM":"35600002829020190088UJC2000001027","admin_code":"28290","sgg_code":"28290","source_layer":"LSMD_CONT_UJ301","semantic":"sochun"},"geometry":{"type":"Polygon","coordinates":[[[126.637683,37.611827],[126.637693,37.611857],[126.637716,37.611842],[126.637683,37.611827]]]}},{"type":"Feature","id":"SOCHUN:28290:35600002829020190088UJC2000001049","properties":{"MNUM":"35600002829020190088UJC2000001049","admin_code":"28290","sgg_code":"28290","source_layer":"LSMD_CONT_UJ301","semantic":"sochun"},"geometry":{"type":"Polygon","coordinates":[[[126.645901,37.612725],[126.645965,37.612523],[126.645944,37.612497],[126.645901,37.612725]]]}},{"type":"Feature","id":"SOCHUN:28290:35600002829020190087UJC1000001003","properties":{"MNUM":"35600002829020190087UJC1000001003","admin_code":"28290","sgg_code":"28290","source_layer":"LSMD_CONT_UJ301","semantic":"sochun","stream_name":"매천","alias_raw":"매천"},"geometry":{"type":"Polygon","coordinates":[[[126.699949,37.601204],[126.700042,37.601899],[126.7,37.602053],[126.700047,37.602053],[126.700088,37.601901],[126.699997,37.601204],[126.700159,37.600794],[126.700136,37.600722],[126.700165,37.600268],[126.700275,37.599968],[126.700289,37.599788],[126.700221,37.599656],[126.700192,37.599486],[126.700195,37.599446],[126.700239,37.599465],[126.70024,37.599377],[126.700267,37.599374],[126.700205,37.599353],[126.700865,37.59679],[126.700975,37.596511],[126.700837,37.596349],[126.700862,37.595989],[126.700801,37.595777],[126.700899,37.595421],[126.70125,37.594806],[126.701372,37.59474],[126.701433,37.594662],[126.701373,37.594476],[126.701421,37.594347],[126.701795,37.594049],[126.702188,37.593438],[126.702414,37.593152],[126.70281,37.592856],[126.702836,37.592664],[126.702962,37.59261],[126.703017,37.592492],[126.703686,37.592193],[126.704102,37.59191],[126.704389,37.591628],[126.704733,37.591114],[126.704921,37.590936],[126.705375,37.590719],[126.706079,37.590548],[126.706712,37.590476],[126.707689,37.590437],[126.714491,37.590819],[126.714984,37.590863],[126.715289,37.590935],[126.715035,37.59063],[126.707663,37.5902],[126.706518,37.590255],[126.705846,37.590351],[126.705189,37.590528],[126.704723,37.590762],[126.704483,37.590989],[126.704145,37.591496],[126.703833,37.591794],[126.703434,37.592044],[126.702741,37.59233],[126.702672,37.592788],[126.702247,37.593107],[126.70227,37.593144],[126.701689,37.59405],[126.701355,37.594311],[126.70129,37.594498],[126.701324,37.59465],[126.7013,37.594699],[126.701196,37.594749],[126.700906,37.595237],[126.700761,37.595581],[126.700737,37.595831],[126.700801,37.595982],[126.700758,37.596336],[126.700903,37.596507],[126.700798,37.596779],[126.700206,37.599085],[126.700126,37.599255],[126.700125,37.599444],[126.700178,37.599669],[126.700244,37.599792],[126.70023,37.599962],[126.700121,37.600258],[126.70009,37.600727],[126.700112,37.600793],[126.699949,37.601204]]]}},{"type":"Feature","id":"SOCHUN:28290:62800002829020200403UJC2000001004","properties":{"MNUM":"62800002829020200403UJC2000001004","admin_code":"28290","sgg_code":"28290","source_layer":"LSMD_CONT_UJ301","semantic":"sochun","alias_raw":"소하천예정지"},"geometry":{"type":"Polygon","coordinates":[[[126.659213,37.615379],[126.659151,37.615368],[126.659118,37.615498],[126.659249,37.616188],[126.659409,37.616355],[126.659687,37.616443],[126.659597,37.616821],[126.659537,37.616943],[126.659312,37.617083],[126.658971,37.617457],[126.659091,37.617407],[126.659352,37.617101],[126.659552,37.616948],[126.659602,37.61694],[126.659745,37.616509],[126.659669,37.616391],[126.659685,37.616363],[126.659601,37.616373],[126.659383,37.616224],[126.659189,37.615546],[126.659213,37.615379]]]}},{"type":"Feature","id":"SOCHUN:28290:35600002829020190088UJC2000001057","properties":{"MNUM":"35600002829020190088UJC2000001057","admin_code":"28290","sgg_code":"28290","source_layer":"LSMD_CONT_UJ301","semantic":"sochun"},"geometry":{"type":"Polygon","coordinates":[[[126.670385,37.57302],[126.670983,37.573281],[126.670769,37.573101],[126.670529,37.572992],[126.670407,37.572964],[126.670385,37.57302]]]}},{"type":"Feature","id":"SOCHUN:28290:62800002829020200403UJC2000001001","properties":{"MNUM":"62800002829020200403UJC2000001001","admin_code":"28290","sgg_code":"28290","source_layer":"LSMD_CONT_UJ301","semantic":"sochun","alias_raw":"소하천예정지"},"geometry":{"type":"Polygon","coordinates":[[[126.658734,37.618197],[126.658755,37.618113],[126.65865,37.618115],[126.658586,37.618226],[126.658226,37.618579],[126.658106,37.618749],[126.657922,37.619142],[126.657751,37.619347],[126.657783,37.619382],[126.658013,37.619181],[126.65831,37.618611],[126.658692,37.61827],[126.658734,37.618197]]]}},{"type":"Feature","id":"SOCHUN:28290:35600002829020190087UJC1000001011","properties":{"MNUM":"35600002829020190087UJC1000001011","admin_code":"28290","sgg_code":"28290","source_layer":"LSMD_CONT_UJ301","semantic":"sochun","stream_name":"용천","alias_raw":"용천"},"geometry":{"type":"Polygon","coordinates":[[[126.6345,37.606494],[126.634626,37.60672],[126.634676,37.606905],[126.634647,37.607384],[126.63468,37.607635],[126.635028,37.608161],[126.635169,37.608547],[126.635143,37.608588],[126.635213,37.608678],[126.635397,37.609185],[126.636003,37.609989],[126.636657,37.610501],[126.636773,37.610771],[126.63687,37.610908],[126.637403,37.611541],[126.637526,37.611755],[126.637557,37.611882],[126.637807,37.611977],[126.638353,37.611879],[126.638352,37.611905],[126.638458,37.611888],[126.638503,37.611926],[126.638467,37.612354],[126.638525,37.612433],[126.638582,37.612439],[126.638622,37.612808],[126.638864,37.613179],[126.638976,37.613465],[126.638999,37.613463],[126.638888,37.613177],[126.63864,37.612812],[126.638606,37.612451],[126.638537,37.612313],[126.638641,37.611865],[126.638557,37.611793],[126.638399,37.611756],[126.638361,37.611839],[126.637767,37.611923],[126.637717,37.611841],[126.637693,37.611857],[126.637596,37.6116],[126.636979,37.610823],[126.636806,37.610395],[126.636209,37.609941],[126.636088,37.609814],[126.635671,37.609209],[126.635498,37.608768],[126.635417,37.608675],[126.635356,37.608511],[126.635337,37.608441],[126.635409,37.60841],[126.635399,37.608381],[126.635331,37.608385],[126.635204,37.608058],[126.634872,37.607548],[126.634878,37.607215],[126.634922,37.607156],[126.634884,37.607113],[126.634888,37.606931],[126.63475,37.606482],[126.6345,37.606494]]]}},{"type":"Feature","id":"SOCHUN:28290:35600002829020190088UJC2000001074","properties":{"MNUM":"35600002829020190088UJC2000001074","admin_code":"28290","sgg_code":"28290","source_layer":"LSMD_CONT_UJ301","semantic":"sochun"},"geometry":{"type":"Polygon","coordinates":[[[126.684486,37.622344],[126.68455,37.622412],[126.68458,37.6224],[126.685309,37.621978],[126.689317,37.619469],[126.689732,37.619176],[126.689842,37.619025],[126.689983,37.618963],[126.689932,37.618918],[126.684486,37.622344]]]}},{"type":"Feature","id":"SOCHUN:28290:35600002829020190087UJC1000001010","properties":{"MNUM":"35600002829020190087UJC1000001010","admin_code":"28290","sgg_code":"28290","source_layer":"LSMD_CONT_UJ301","semantic":"sochun","stream_name":"목지천","alias_raw":"목지천"},"geometry":{"type":"Polygon","coordinates":[[[126.684435,37.622269],[126.684486,37.622344],[126.689932,37.618918],[126.689874,37.618865],[126.684435,37.622269]]]}},{"type":"Feature","id":"SOCHUN:28290:62800002829020200403UJC1000001002","properties":{"MNUM":"62800002829020200403UJC1000001002","admin_code":"28290","sgg_code":"28290","source_layer":"LSMD_CONT_UJ301","semantic":"sochun"},"geometry":{"type":"Polygon","coordinates":[[[126.659141,37.615138],[126.659144,37.614852],[126.659234,37.614591],[126.659499,37.614235],[126.659831,37.613882],[126.660361,37.613449],[126.66128,37.61292],[126.661803,37.612484],[126.662146,37.612247],[126.662646,37.611999],[126.66312,37.611843],[126.664978,37.611599],[126.665299,37.611489],[126.665569,37.611316],[126.665748,37.611134],[126.665848,37.610977],[126.66599,37.610439],[126.666376,37.610174],[126.666685,37.609897],[126.667797,37.608658],[126.668026,37.608165],[126.668129,37.607493],[126.668179,37.607545],[126.668258,37.607355],[126.668282,37.607382],[126.668441,37.606893],[126.668629,37.606811],[126.668768,37.606809],[126.669613,37.607036],[126.669856,37.60715],[126.669844,37.60686],[126.668754,37.606581],[126.66867,37.606584],[126.668406,37.606679],[126.668178,37.606812],[126.668082,37.607187],[126.668092,37.60727],[126.667956,37.60756],[126.667952,37.607894],[126.667908,37.608091],[126.667733,37.608521],[126.667523,37.608807],[126.666383,37.610032],[126.666187,37.610182],[126.66597,37.610278],[126.665892,37.610346],[126.665696,37.610996],[126.665499,37.611236],[126.665219,37.611418],[126.664907,37.611518],[126.663009,37.611771],[126.662695,37.611872],[126.662087,37.612171],[126.661776,37.612381],[126.661168,37.612879],[126.660266,37.613422],[126.659647,37.613949],[126.65915,37.614565],[126.659035,37.614929],[126.65909,37.615306],[126.659201,37.615349],[126.659141,37.615138]]]}},{"type":"Feature","id":"SOCHUN:28290:35600002829020190088UJC2000001030","properties":{"MNUM":"35600002829020190088UJC2000001030","admin_code":"28290","sgg_code":"28290","source_layer":"LSMD_CONT_UJ301","semantic":"sochun"},"geometry":{"type":"Polygon","coordinates":[[[126.638537,37.612313],[126.638606,37.612451],[126.638622,37.612411],[126.638594,37.612253],[126.638656,37.611972],[126.638638,37.611883],[126.638537,37.612313]]]}},{"type":"Feature","id":"SOCHUN:28290:35600002829020190088UJC2000001032","properties":{"MNUM":"35600002829020190088UJC2000001032","admin_code":"28290","sgg_code":"28290","source_layer":"LSMD_CONT_UJ301","semantic":"sochun"},"geometry":{"type":"Polygon","coordinates":[[[126.638609,37.612529],[126.63864,37.612812],[126.638666,37.612853],[126.638662,37.612832],[126.638649,37.612813],[126.638645,37.612801],[126.638625,37.612621],[126.638609,37.612529]]]}},{"type":"Feature","id":"SOCHUN:28290:35600002829020190088UJC2000001051","properties":{"MNUM":"35600002829020190088UJC2000001051","admin_code":"28290","sgg_code":"28290","source_layer":"LSMD_CONT_UJ301","semantic":"sochun"},"geometry":{"type":"Polygon","coordinates":[[[126.640352,37.607082],[126.640515,37.607144],[126.640404,37.607099],[126.640352,37.607082]]]}},{"type":"Feature","id":"SOCHUN:28290:35600002829020190087UJC1000001006","properties":{"MNUM":"35600002829020190087UJC1000001006","admin_code":"28290","sgg_code":"28290","source_layer":"LSMD_CONT_UJ301","semantic":"sochun","stream_name":"오랑천","alias_raw":"오랑천"},"geometry":{"type":"Polygon","coordinates":[[[126.669923,37.572921],[126.670924,37.573359],[126.670562,37.573141],[126.670364,37.573073],[126.670374,37.573049],[126.67181,37.573674],[126.671804,37.573698],[126.67218,37.573869],[126.673789,37.574557],[126.674586,37.575011],[126.674579,37.574935],[126.674765,37.574993],[126.674988,37.575718],[126.675497,37.576101],[126.675513,37.576162],[126.675953,37.576415],[126.676004,37.57654],[126.67604,37.576539],[126.676144,37.576423],[126.676314,37.576391],[126.676345,37.576427],[126.676592,37.576414],[126.676678,37.576448],[126.677135,37.576392],[126.677353,37.576488],[126.677524,37.576511],[126.677851,37.576676],[126.678602,37.577137],[126.678768,37.577282],[126.678856,37.577183],[126.678799,37.57718],[126.678701,37.577098],[126.678628,37.57698],[126.678485,37.576978],[126.678369,37.576871],[126.678247,37.576826],[126.678112,37.576707],[126.677643,37.576441],[126.677362,37.576383],[126.677135,37.576294],[126.676874,37.57635],[126.676435,37.57632],[126.67637,37.576374],[126.676177,37.576409],[126.675995,37.576292],[126.675825,37.576251],[126.675531,37.576052],[126.675513,37.576071],[126.675056,37.575724],[126.674797,37.574972],[126.674576,37.574904],[126.674563,37.574837],[126.674045,37.574535],[126.673891,37.574449],[126.6726,37.573933],[126.67219,37.573742],[126.671869,37.573615],[126.671842,37.573656],[126.671786,37.573634],[126.671813,37.573597],[126.671168,37.573321],[126.671,37.573198],[126.670777,37.573108],[126.670983,37.573281],[126.670734,37.573173],[126.670385,37.57302],[126.670407,37.572964],[126.670523,37.572989],[126.669979,37.572843],[126.669923,37.572921]]]}},{"type":"Feature","id":"SOCHUN:28290:35600002829020190087UJC1000001001","properties":{"MNUM":"35600002829020190087UJC1000001001","admin_code":"28290","sgg_code":"28290","source_layer":"LSMD_CONT_UJ301","semantic":"sochun","stream_name":"갈산천","alias_raw":"갈산천"},"geometry":{"type":"Polygon","coordinates":[[[126.677509,37.61898],[126.677525,37.619026],[126.677651,37.619098],[126.679548,37.615864],[126.679573,37.615874],[126.680133,37.614953],[126.680488,37.614625],[126.680524,37.614498],[126.680594,37.614472],[126.680931,37.614127],[126.681121,37.613878],[126.682186,37.612072],[126.681994,37.611988],[126.681698,37.612528],[126.681702,37.612616],[126.68089,37.613955],[126.68042,37.614446],[126.680388,37.614544],[126.680349,37.614531],[126.679969,37.61488],[126.67986,37.615033],[126.677509,37.61898]]]}},{"type":"Feature","id":"SOCHUN:28290:35600002829020190088UJC2000001005","properties":{"MNUM":"35600002829020190088UJC2000001005","admin_code":"28290","sgg_code":"28290","source_layer":"LSMD_CONT_UJ301","semantic":"sochun"},"geometry":{"type":"Polygon","coordinates":[[[126.656405,37.634165],[126.656528,37.634373],[126.656585,37.634579],[126.656747,37.634642],[126.656838,37.634629],[126.656643,37.634578],[126.656504,37.634246],[126.656405,37.634165]]]}},{"type":"Feature","id":"SOCHUN:28290:35600002829020190088UJC2000001023","properties":{"MNUM":"35600002829020190088UJC2000001023","admin_code":"28290","sgg_code":"28290","source_layer":"LSMD_CONT_UJ301","semantic":"sochun"},"geometry":{"type":"Polygon","coordinates":[[[126.636084,37.610059],[126.636647,37.610533],[126.636855,37.610929],[126.637063,37.611141],[126.636773,37.610771],[126.63664,37.61048],[126.636084,37.610059]]]}},{"type":"Feature","id":"SOCHUN:28290:62800002829020200403UJC2000001002","properties":{"MNUM":"62800002829020200403UJC2000001002","admin_code":"28290","sgg_code":"28290","source_layer":"LSMD_CONT_UJ301","semantic":"sochun","alias_raw":"소하천예정지"},"geometry":{"type":"Polygon","coordinates":[[[126.657783,37.619382],[126.657834,37.619436],[126.658068,37.619293],[126.658248,37.619004],[126.65826,37.61887],[126.65836,37.618669],[126.658749,37.6183],[126.659001,37.617713],[126.659173,37.617467],[126.659421,37.617231],[126.659362,37.617191],[126.659379,37.617166],[126.659588,37.617002],[126.659771,37.616935],[126.659785,37.616889],[126.659791,37.616579],[126.659892,37.616428],[126.659826,37.616388],[126.659811,37.616312],[126.659554,37.616288],[126.65943,37.616206],[126.659267,37.615476],[126.659418,37.615114],[126.659134,37.614942],[126.659141,37.615138],[126.65925,37.615199],[126.659213,37.615258],[126.659189,37.615546],[126.659351,37.616154],[126.659461,37.616296],[126.659601,37.616373],[126.659685,37.616363],[126.659669,37.616391],[126.659745,37.616509],[126.659664,37.616824],[126.659602,37.61694],[126.659552,37.616948],[126.659352,37.617101],[126.659091,37.617407],[126.658944,37.617465],[126.658997,37.617492],[126.658966,37.617548],[126.659004,37.617561],[126.658994,37.617601],[126.658724,37.618237],[126.65831,37.618611],[126.658013,37.619181],[126.657783,37.619382]]]}},{"type":"Feature","id":"SOCHUN:28290:35600002829020190087UJC1000001009","properties":{"MNUM":"35600002829020190087UJC1000001009","admin_code":"28290","sgg_code":"28290","source_layer":"LSMD_CONT_UJ301","semantic":"sochun","stream_name":"황곡천","alias_raw":"황곡천"},"geometry":{"type":"Polygon","coordinates":[[[126.654181,37.632207],[126.654364,37.632272],[126.654594,37.632431],[126.65511,37.633001],[126.655106,37.63321],[126.655198,37.633496],[126.655517,37.633508],[126.656048,37.633601],[126.656173,37.633649],[126.65623,37.633731],[126.65633,37.634046],[126.656403,37.634162],[126.656504,37.634246],[126.656643,37.634578],[126.656892,37.634646],[126.65727,37.63483],[126.657555,37.635258],[126.657831,37.635374],[126.657958,37.635459],[126.65891,37.635713],[126.659042,37.635712],[126.659388,37.635625],[126.659607,37.635612],[126.660115,37.635661],[126.660484,37.635789],[126.660662,37.635765],[126.6611,37.635794],[126.661363,37.635756],[126.661486,37.635693],[126.661633,37.635557],[126.661764,37.635504],[126.662558,37.635506],[126.662792,37.635452],[126.663153,37.635455],[126.662974,37.635271],[126.662587,37.635346],[126.661943,37.635313],[126.66168,37.635327],[126.661376,37.635586],[126.661166,37.63564],[126.660519,37.635634],[126.660085,37.635535],[126.659649,37.635518],[126.659463,37.635527],[126.658956,37.635622],[126.658811,37.635603],[126.658106,37.635374],[126.65764,37.635171],[126.657379,37.634801],[126.657257,37.634716],[126.656734,37.634507],[126.6566,37.634207],[126.656469,37.63407],[126.656335,37.633625],[126.655763,37.63338],[126.65544,37.633372],[126.655284,37.633335],[126.65521,37.633171],[126.655205,37.632991],[126.655016,37.632735],[126.654564,37.632296],[126.654519,37.632302],[126.654422,37.632212],[126.654205,37.632157],[126.654181,37.632207]]]}},{"type":"Feature","id":"SOCHUN:28290:35600002829020190087UJC1000001007","properties":{"MNUM":"35600002829020190087UJC1000001007","admin_code":"28290","sgg_code":"28290","source_layer":"LSMD_CONT_UJ301","semantic":"sochun","stream_name":"금곡천","alias_raw":"금곡천"},"geometry":{"type":"Polygon","coordinates":[[[126.636865,37.606755],[126.63702,37.606816],[126.637255,37.607009],[126.637834,37.607317],[126.63821,37.607425],[126.638383,37.607462],[126.638761,37.607366],[126.639037,37.607247],[126.639408,37.607183],[126.639654,37.607071],[126.639807,37.607073],[126.640083,37.60714],[126.640717,37.60736],[126.640866,37.607442],[126.641051,37.607667],[126.641154,37.60774],[126.64129,37.607792],[126.64162,37.607793],[126.641675,37.607834],[126.641931,37.608053],[126.642073,37.608292],[126.642416,37.608538],[126.642773,37.608956],[126.643367,37.609553],[126.643411,37.609654],[126.643505,37.609716],[126.643814,37.610136],[126.64389,37.610159],[126.644087,37.610385],[126.644437,37.610908],[126.644852,37.611419],[126.645206,37.611771],[126.6456,37.612086],[126.645867,37.612431],[126.645894,37.61248],[126.645859,37.612636],[126.645801,37.612753],[126.645635,37.61291],[126.645606,37.612978],[126.645609,37.61329],[126.645638,37.613364],[126.645693,37.613331],[126.645677,37.613002],[126.645729,37.612903],[126.645911,37.61274],[126.645931,37.612526],[126.645944,37.612497],[126.645967,37.612513],[126.645976,37.61242],[126.645646,37.612027],[126.645466,37.611907],[126.644869,37.611364],[126.644734,37.611155],[126.644607,37.611024],[126.644561,37.611017],[126.644153,37.610421],[126.644162,37.610364],[126.64402,37.610205],[126.64395,37.610078],[126.643965,37.610007],[126.64386,37.610003],[126.64372,37.609866],[126.643211,37.609266],[126.642901,37.608968],[126.642879,37.608986],[126.64272,37.608779],[126.642483,37.608576],[126.641818,37.607865],[126.641638,37.60775],[126.641426,37.607691],[126.641261,37.607605],[126.640812,37.607233],[126.640011,37.606955],[126.639593,37.606909],[126.639288,37.607055],[126.638941,37.607084],[126.638453,37.607206],[126.638404,37.607274],[126.638335,37.607303],[126.638027,37.607263],[126.637836,37.607196],[126.637394,37.606955],[126.637028,37.606626],[126.636865,37.606755]]]}},{"type":"Feature","id":"SOCHUN:28290:35600002829020190088UJC2000001021","properties":{"MNUM":"35600002829020190088UJC2000001021","admin_code":"28290","sgg_code":"28290","source_layer":"LSMD_CONT_UJ301","semantic":"sochun"},"geometry":{"type":"Polygon","coordinates":[[[126.634754,37.606495],[126.634866,37.606834],[126.634884,37.607113],[126.634913,37.607133],[126.634888,37.606793],[126.634799,37.606511],[126.634754,37.606495]]]}},{"type":"Feature","id":"SOCHUN:28290:35600002829020190088UJC2000001010","properties":{"MNUM":"35600002829020190088UJC2000001010","admin_code":"28290","sgg_code":"28290","source_layer":"LSMD_CONT_UJ301","semantic":"sochun"},"geometry":{"type":"Polygon","coordinates":[[[126.677651,37.619098],[126.677769,37.619146],[126.679329,37.616496],[126.679515,37.616076],[126.680157,37.615044],[126.680346,37.61482],[126.681012,37.614189],[126.681193,37.613964],[126.681713,37.61297],[126.682254,37.6121],[126.682186,37.612072],[126.681024,37.614026],[126.680594,37.614472],[126.680524,37.614498],[126.680488,37.614625],[126.680133,37.614953],[126.679573,37.615874],[126.679548,37.615864],[126.677651,37.619098]]]}},{"type":"Feature","id":"SOCHUN:28290:35600002829020190088UJC2000001037","properties":{"MNUM":"35600002829020190088UJC2000001037","admin_code":"28290","sgg_code":"28290","source_layer":"LSMD_CONT_UJ301","semantic":"sochun"},"geometry":{"type":"Polygon","coordinates":[[[126.638854,37.607326],[126.639313,37.607259],[126.639701,37.60712],[126.640071,37.607198],[126.64077,37.607413],[126.640876,37.60749],[126.641047,37.607704],[126.641153,37.607756],[126.641549,37.607868],[126.641592,37.607818],[126.641753,37.607921],[126.641987,37.608146],[126.641834,37.607957],[126.64162,37.607793],[126.64129,37.607792],[126.641154,37.60774],[126.641051,37.607667],[126.640866,37.607442],[126.640717,37.60736],[126.640083,37.60714],[126.639807,37.607073],[126.639654,37.607071],[126.639408,37.607183],[126.639037,37.607247],[126.638854,37.607326]]]}},{"type":"Feature","id":"SOCHUN:28290:35600002829020190088UJC2000001046","properties":{"MNUM":"35600002829020190088UJC2000001046","admin_code":"28290","sgg_code":"28290","source_layer":"LSMD_CONT_UJ301","semantic":"sochun"},"geometry":{"type":"Polygon","coordinates":[[[126.643955,37.610243],[126.644503,37.611045],[126.644465,37.611065],[126.644752,37.611399],[126.645134,37.611782],[126.645605,37.612139],[126.645843,37.612478],[126.645893,37.612476],[126.645602,37.612089],[126.645206,37.611771],[126.644852,37.611419],[126.643955,37.610243]]]}},{"type":"Feature","id":"SOCHUN:28290:35600002829020190088UJC2000001015","properties":{"MNUM":"35600002829020190088UJC2000001015","admin_code":"28290","sgg_code":"28290","source_layer":"LSMD_CONT_UJ301","semantic":"sochun"},"geometry":{"type":"Polygon","coordinates":[[[126.65417,37.632232],[126.654378,37.632293],[126.654578,37.632427],[126.654712,37.632567],[126.654594,37.632431],[126.654364,37.632272],[126.654181,37.632207],[126.65417,37.632232]]]}},{"type":"Feature","id":"SOCHUN:28290:35600002829020190088UJC2000001022","properties":{"MNUM":"35600002829020190088UJC2000001022","admin_code":"28290","sgg_code":"28290","source_layer":"LSMD_CONT_UJ301","semantic":"sochun"},"geometry":{"type":"Polygon","coordinates":[[[126.635337,37.608441],[126.635448,37.608702],[126.635369,37.608427],[126.635337,37.608441]]]}},{"type":"Feature","id":"SOCHUN:28290:35600002829020190088UJC2000001009","properties":{"MNUM":"35600002829020190088UJC2000001009","admin_code":"28290","sgg_code":"28290","source_layer":"LSMD_CONT_UJ301","semantic":"sochun"},"geometry":{"type":"Polygon","coordinates":[[[126.677433,37.618931],[126.677509,37.61898],[126.67986,37.615033],[126.679969,37.61488],[126.680349,37.614531],[126.680388,37.614544],[126.68042,37.614446],[126.68089,37.613955],[126.681702,37.612616],[126.681698,37.612528],[126.681994,37.611988],[126.681949,37.611969],[126.681699,37.612456],[126.680868,37.613804],[126.680295,37.614442],[126.68,37.614717],[126.679812,37.614958],[126.679483,37.615563],[126.678943,37.616345],[126.677732,37.618377],[126.677433,37.618931]]]}},{"type":"Feature","id":"SOCHUN:28290:35600002829020190088UJC2000001060","properties":{"MNUM":"35600002829020190088UJC2000001060","admin_code":"28290","sgg_code":"28290","source_layer":"LSMD_CONT_UJ301","semantic":"sochun"},"geometry":{"type":"Polygon","coordinates":[[[126.675531,37.576052],[126.675713,37.576195],[126.675955,37.576283],[126.675531,37.576052]]]}},{"type":"Feature","id":"SOCHUN:28290:35600002829020190088UJC2000001064","properties":{"MNUM":"35600002829020190088UJC2000001064","admin_code":"28290","sgg_code":"28290","source_layer":"LSMD_CONT_UJ301","semantic":"sochun"},"geometry":{"type":"Polygon","coordinates":[[[126.676691,37.576447],[126.676936,37.576445],[126.677031,37.576418],[126.676691,37.576447]]]}},{"type":"Feature","id":"SOCHUN:28290:35600002829020190088UJC2000001066","properties":{"MNUM":"35600002829020190088UJC2000001066","admin_code":"28290","sgg_code":"28290","source_layer":"LSMD_CONT_UJ301","semantic":"sochun"},"geometry":{"type":"Polygon","coordinates":[[[126.678377,37.576878],[126.678485,37.576978],[126.678584,37.576978],[126.678377,37.576878]]]}},{"type":"Feature","id":"SOCHUN:28290:35600002829020190088UJC2000001024","properties":{"MNUM":"35600002829020190088UJC2000001024","admin_code":"28290","sgg_code":"28290","source_layer":"LSMD_CONT_UJ301","semantic":"sochun"},"geometry":{"type":"Polygon","coordinates":[[[126.637014,37.610875],[126.637115,37.610998],[126.637271,37.611179],[126.637406,37.611342],[126.637408,37.611346],[126.637414,37.611336],[126.637176,37.611054],[126.637032,37.610883],[126.637014,37.610875]]]}},{"type":"Feature","id":"SOCHUN:28290:35600002829020190088UJC2000001055","properties":{"MNUM":"35600002829020190088UJC2000001055","admin_code":"28290","sgg_code":"28290","source_layer":"LSMD_CONT_UJ301","semantic":"sochun"},"geometry":{"type":"Polygon","coordinates":[[[126.670336,37.573107],[126.670695,37.573267],[126.670513,37.573163],[126.670336,37.573107]]]}},{"type":"Feature","id":"SOCHUN:28290:35600002829020190088UJC2000001052","properties":{"MNUM":"35600002829020190088UJC2000001052","admin_code":"28290","sgg_code":"28290","source_layer":"LSMD_CONT_UJ301","semantic":"sochun"},"geometry":{"type":"Polygon","coordinates":[[[126.643626,37.609749],[126.64372,37.609866],[126.643742,37.609883],[126.643742,37.609883],[126.643626,37.609749]]]}},{"type":"Feature","id":"SOCHUN:28290:35600002829020190088UJC2000001034","properties":{"MNUM":"35600002829020190088UJC2000001034","admin_code":"28290","sgg_code":"28290","source_layer":"LSMD_CONT_UJ301","semantic":"sochun"},"geometry":{"type":"Polygon","coordinates":[[[126.638982,37.613378],[126.63899,37.613417],[126.638991,37.613422],[126.638993,37.613427],[126.638994,37.613433],[126.638995,37.613438],[126.638996,37.613443],[126.638999,37.613463],[126.639007,37.613462],[126.639004,37.613443],[126.638994,37.613406],[126.638982,37.613378]]]}},{"type":"Feature","id":"SOCHUN:28290:35600002829020190088UJC2000001071","properties":{"MNUM":"35600002829020190088UJC2000001071","admin_code":"28290","sgg_code":"28290","source_layer":"LSMD_CONT_UJ301","semantic":"sochun"},"geometry":{"type":"Polygon","coordinates":[[[126.678597,37.577137],[126.678625,37.577166],[126.678625,37.577166],[126.678602,37.577137],[126.678598,37.577138],[126.678597,37.577137]]]}},{"type":"Feature","id":"SOCHUN:28290:35600002829020190088UJC2000001026","properties":{"MNUM":"35600002829020190088UJC2000001026","admin_code":"28290","sgg_code":"28290","source_layer":"LSMD_CONT_UJ301","semantic":"sochun"},"geometry":{"type":"Polygon","coordinates":[[[126.637719,37.611844],[126.637767,37.611923],[126.637813,37.611932],[126.637817,37.611904],[126.637719,37.611844]]]}},{"type":"Feature","id":"SOCHUN:28290:35600002829020190088UJC2000001054","properties":{"MNUM":"35600002829020190088UJC2000001054","admin_code":"28290","sgg_code":"28290","source_layer":"LSMD_CONT_UJ301","semantic":"sochun"},"geometry":{"type":"Polygon","coordinates":[[[126.669979,37.572843],[126.670176,37.572879],[126.669994,37.572821],[126.669979,37.572843]]]}},{"type":"Feature","id":"SOCHUN:28290:35600002829020190088UJC2000001013","properties":{"MNUM":"35600002829020190088UJC2000001013","admin_code":"28290","sgg_code":"28290","source_layer":"LSMD_CONT_UJ301","semantic":"sochun"},"geometry":{"type":"Polygon","coordinates":[[[126.654565,37.632297],[126.655016,37.632735],[126.655195,37.632977],[126.655153,37.632837],[126.654929,37.632588],[126.654647,37.632323],[126.654565,37.632297]]]}},{"type":"Feature","id":"SOCHUN:28290:35600002829020190088UJC2000001047","properties":{"MNUM":"35600002829020190088UJC2000001047","admin_code":"28290","sgg_code":"28290","source_layer":"LSMD_CONT_UJ301","semantic":"sochun"},"geometry":{"type":"Polygon","coordinates":[[[126.644249,37.61057],[126.6443,37.61065],[126.644561,37.611017],[126.644567,37.611016],[126.644249,37.61057]]]}},{"type":"Feature","id":"SOCHUN:28290:35600002829020190088UJC2000001040","properties":{"MNUM":"35600002829020190088UJC2000001040","admin_code":"28290","sgg_code":"28290","source_layer":"LSMD_CONT_UJ301","semantic":"sochun"},"geometry":{"type":"Polygon","coordinates":[[[126.640813,37.607233],[126.641261,37.607605],[126.641426,37.607691],[126.641656,37.607762],[126.641662,37.607735],[126.641439,37.607671],[126.64128,37.607589],[126.641003,37.60734],[126.640813,37.607233]]]}},{"type":"Feature","id":"SOCHUN:28290:35600002829020190088UJC2000001065","properties":{"MNUM":"35600002829020190088UJC2000001065","admin_code":"28290","sgg_code":"28290","source_layer":"LSMD_CONT_UJ301","semantic":"sochun"},"geometry":{"type":"Polygon","coordinates":[[[126.678228,37.576923],[126.678369,37.577003],[126.678257,37.576933],[126.678232,37.576924],[126.678228,37.576923]]]}},{"type":"Feature","id":"SOCHUN:28290:35600002829020190088UJC2000001019","properties":{"MNUM":"35600002829020190088UJC2000001019","admin_code":"28290","sgg_code":"28290","source_layer":"LSMD_CONT_UJ301","semantic":"sochun"},"geometry":{"type":"Polygon","coordinates":[[[126.634861,37.607415],[126.634901,37.607618],[126.635204,37.608058],[126.635353,37.608384],[126.63524,37.608077],[126.634899,37.607542],[126.634909,37.607162],[126.634861,37.607415]]]}},{"type":"Feature","id":"SOCHUN:28290:35600002829020190088UJC2000001056","properties":{"MNUM":"35600002829020190088UJC2000001056","admin_code":"28290","sgg_code":"28290","source_layer":"LSMD_CONT_UJ301","semantic":"sochun"},"geometry":{"type":"Polygon","coordinates":[[[126.670364,37.573073],[126.670562,37.573141],[126.670924,37.573359],[126.672427,37.573975],[126.671804,37.573698],[126.67181,37.573674],[126.670374,37.573049],[126.670364,37.573073]]]}},{"type":"Feature","id":"SOCHUN:28290:62800002829020200403UJC2000001003","properties":{"MNUM":"62800002829020200403UJC2000001003","admin_code":"28290","sgg_code":"28290","source_layer":"LSMD_CONT_UJ301","semantic":"sochun","alias_raw":"소하천예정지"},"geometry":{"type":"Polygon","coordinates":[[[126.658997,37.617492],[126.658955,37.617478],[126.658907,37.617656],[126.65894,37.617737],[126.659004,37.617561],[126.658966,37.617548],[126.658997,37.617492]]]}},{"type":"Feature","id":"SOCHUN:28290:35600002829020190088UJC2000001058","properties":{"MNUM":"35600002829020190088UJC2000001058","admin_code":"28290","sgg_code":"28290","source_layer":"LSMD_CONT_UJ301","semantic":"sochun"},"geometry":{"type":"Polygon","coordinates":[[[126.671,37.573198],[126.671168,37.573321],[126.671813,37.573597],[126.671786,37.573634],[126.671842,37.573656],[126.671869,37.573615],[126.673891,37.574449],[126.674551,37.57483],[126.674547,37.574785],[126.674494,37.574744],[126.673947,37.574416],[126.671,37.573198]]]}},{"type":"Feature","id":"SOCHUN:28290:35600002829020190088UJC2000001038","properties":{"MNUM":"35600002829020190088UJC2000001038","admin_code":"28290","sgg_code":"28290","source_layer":"LSMD_CONT_UJ301","semantic":"sochun"},"geometry":{"type":"Polygon","coordinates":[[[126.638949,37.607084],[126.639288,37.607055],[126.639555,37.606927],[126.639282,37.607047],[126.638949,37.607084]]]}},{"type":"Feature","id":"SOCHUN:28290:35600002829020190088UJC2000001072","properties":{"MNUM":"35600002829020190088UJC2000001072","admin_code":"28290","sgg_code":"28290","source_layer":"LSMD_CONT_UJ301","semantic":"sochun"},"geometry":{"type":"Polygon","coordinates":[[[126.678006,37.576781],[126.678075,37.576827],[126.678011,37.576779],[126.678006,37.576781]]]}},{"type":"Feature","id":"SOCHUN:28290:35600002829020190088UJC2000001039","properties":{"MNUM":"35600002829020190088UJC2000001039","admin_code":"28290","sgg_code":"28290","source_layer":"LSMD_CONT_UJ301","semantic":"sochun"},"geometry":{"type":"Polygon","coordinates":[[[126.639726,37.606914],[126.640011,37.606955],[126.640324,37.607073],[126.640016,37.606949],[126.639726,37.606914]]]}},{"type":"Feature","id":"SOCHUN:28290:35600002829020190088UJC2000001062","properties":{"MNUM":"35600002829020190088UJC2000001062","admin_code":"28290","sgg_code":"28290","source_layer":"LSMD_CONT_UJ301","semantic":"sochun"},"geometry":{"type":"Polygon","coordinates":[[[126.676147,37.576391],[126.676177,37.576409],[126.67637,37.576374],[126.67646,37.576321],[126.676147,37.576391]]]}},{"type":"Feature","id":"SOCHUN:28290:35600002829020190088UJC2000001059","properties":{"MNUM":"35600002829020190088UJC2000001059","admin_code":"28290","sgg_code":"28290","source_layer":"LSMD_CONT_UJ301","semantic":"sochun"},"geometry":{"type":"Polygon","coordinates":[[[126.674422,37.574909],[126.674474,37.574941],[126.674485,37.574943],[126.674451,37.57492],[126.674422,37.574909]]]}},{"type":"Feature","id":"SOCHUN:28290:35600002829020190088UJC2000001036","properties":{"MNUM":"35600002829020190088UJC2000001036","admin_code":"28290","sgg_code":"28290","source_layer":"LSMD_CONT_UJ301","semantic":"sochun"},"geometry":{"type":"Polygon","coordinates":[[[126.637014,37.606634],[126.637394,37.606955],[126.637836,37.607196],[126.638027,37.607263],[126.638335,37.607303],[126.638437,37.607243],[126.638416,37.607208],[126.638264,37.607237],[126.63813,37.607216],[126.637812,37.607107],[126.637452,37.606906],[126.637058,37.606596],[126.637014,37.606634]]]}},{"type":"Feature","id":"SOCHUN:28290:35600002829020190088UJC2000001063","properties":{"MNUM":"35600002829020190088UJC2000001063","admin_code":"28290","sgg_code":"28290","source_layer":"LSMD_CONT_UJ301","semantic":"sochun"},"geometry":{"type":"Polygon","coordinates":[[[126.676382,37.576421],[126.676642,37.576441],[126.676592,37.576414],[126.676382,37.576421]]]}},{"type":"Feature","id":"SOCHUN:28290:35600002829020190088UJC2000001014","properties":{"MNUM":"35600002829020190088UJC2000001014","admin_code":"28290","sgg_code":"28290","source_layer":"LSMD_CONT_UJ301","semantic":"sochun"},"geometry":{"type":"Polygon","coordinates":[[[126.654971,37.632837],[126.655053,37.632985],[126.655054,37.633175],[126.655102,37.633368],[126.655178,37.633435],[126.655106,37.63321],[126.65511,37.633001],[126.654971,37.632837]]]}},{"type":"Feature","id":"SOCHUN:28290:35600002829020190088UJC2000001067","properties":{"MNUM":"35600002829020190088UJC2000001067","admin_code":"28290","sgg_code":"28290","source_layer":"LSMD_CONT_UJ301","semantic":"sochun"},"geometry":{"type":"Polygon","coordinates":[[[126.678638,37.577008],[126.678655,37.577056],[126.678799,37.57718],[126.678856,37.577183],[126.678638,37.577008]]]}},{"type":"Feature","id":"SOCHUN:28290:35600002829020190088UJC2000001073","properties":{"MNUM":"35600002829020190088UJC2000001073","admin_code":"28290","sgg_code":"28290","source_layer":"LSMD_CONT_UJ301","semantic":"sochun"},"geometry":{"type":"Polygon","coordinates":[[[126.67687,37.576338],[126.676977,37.57634],[126.677135,37.576294],[126.677362,37.576383],[126.677643,37.576441],[126.678112,37.576707],[126.678247,37.576826],[126.678361,37.576868],[126.677932,37.576585],[126.677595,37.57641],[126.677369,37.576372],[126.677132,37.576278],[126.67687,37.576338]]]}},{"type":"Feature","id":"SOCHUN:28290:35600002829020190088UJC2000001031","properties":{"MNUM":"35600002829020190088UJC2000001031","admin_code":"28290","sgg_code":"28290","source_layer":"LSMD_CONT_UJ301","semantic":"sochun"},"geometry":{"type":"Polygon","coordinates":[[[126.638552,37.612441],[126.638604,37.612832],[126.638856,37.613212],[126.638976,37.613465],[126.63887,37.613189],[126.638622,37.612808],[126.638582,37.612439],[126.638552,37.612441]]]}},{"type":"Feature","id":"SOCHUN:28290:35600002829020190088UJC2000001029","properties":{"MNUM":"35600002829020190088UJC2000001029","admin_code":"28290","sgg_code":"28290","source_layer":"LSMD_CONT_UJ301","semantic":"sochun"},"geometry":{"type":"Polygon","coordinates":[[[126.638358,37.611905],[126.638472,37.611911],[126.638458,37.611888],[126.638358,37.611905]]]}}]}