{"type":"FeatureCollection","features":[{"type":"Feature","id":"SOCHUN:28200:35300002820020220076UJC1000001001","properties":{"MNUM":"35300002820020220076UJC1000001001","admin_code":"28200","sgg_code":"28200","source_layer":"LSMD_CONT_UJ301","semantic":"sochun","stream_name":"음실천","alias_raw":"음실천","notified_on":"2022-08-01"},"geometry":{"type":"Polygon","coordinates":[[[126.764011,37.426095],[126.764013,37.42614],[126.764184,37.426148],[126.764388,37.42672],[126.764771,37.427984],[126.764769,37.428141],[126.764826,37.428334],[126.764788,37.428392],[126.76489,37.428395],[126.764953,37.42861],[126.764923,37.428609],[126.764901,37.428673],[126.764948,37.428692],[126.764992,37.42881],[126.765149,37.429342],[126.765204,37.429572],[126.765094,37.429578],[126.76522,37.429691],[126.76534,37.430048],[126.765523,37.430438],[126.765489,37.430462],[126.765559,37.430586],[126.765623,37.430627],[126.765782,37.430957],[126.765755,37.430998],[126.765859,37.431121],[126.765878,37.43124],[126.765831,37.431252],[126.765907,37.431302],[126.76588,37.431334],[126.766336,37.431366],[126.766301,37.431332],[126.766298,37.431249],[126.766215,37.431185],[126.766247,37.43116],[126.766116,37.431012],[126.766119,37.43097],[126.766043,37.430925],[126.765939,37.430645],[126.765681,37.430149],[126.765505,37.429574],[126.765456,37.429537],[126.765351,37.42929],[126.765196,37.428772],[126.765193,37.428724],[126.765241,37.428675],[126.765217,37.428656],[126.765171,37.428674],[126.765152,37.428612],[126.765102,37.428613],[126.765038,37.428398],[126.765141,37.428393],[126.765162,37.428339],[126.765121,37.428339],[126.765078,37.428287],[126.76495,37.427728],[126.76492,37.427704],[126.764892,37.427528],[126.764929,37.427507],[126.764839,37.427376],[126.764803,37.427259],[126.764843,37.427219],[126.764757,37.42706],[126.764461,37.426152],[126.76452,37.426141],[126.764529,37.426097],[126.764346,37.426054],[126.764011,37.426095]]]}},{"type":"Feature","id":"SOCHUN:28200:35300002820020220077UJC2000001002","properties":{"MNUM":"35300002820020220077UJC2000001002","admin_code":"28200","sgg_code":"28200","source_layer":"LSMD_CONT_UJ301","semantic":"sochun","stream_name":"음실천","alias_raw":"음실천","notified_on":"2022-08-01"},"geometry":{"type":"Polygon","coordinates":[[[126.766037,37.431293],[126.766908,37.432249],[126.766871,37.432257],[126.766971,37.432622],[126.767267,37.433479],[126.767295,37.433895],[126.767197,37.434269],[126.767288,37.434372],[126.767463,37.434732],[126.767373,37.435128],[126.766912,37.435437],[126.766906,37.435505],[126.767028,37.435721],[126.767126,37.436235],[126.767087,37.436408],[126.766937,37.4366],[126.767069,37.43667],[126.767256,37.436414],[126.767289,37.436223],[126.767191,37.435735],[126.76714,37.43559],[126.76706,37.435507],[126.76707,37.435471],[126.767153,37.43539],[126.767502,37.435214],[126.767631,37.434743],[126.767623,37.434605],[126.767387,37.434184],[126.767469,37.433985],[126.767452,37.433461],[126.767128,37.432543],[126.767147,37.432215],[126.767014,37.43223],[126.76616,37.431295],[126.766037,37.431293]]]}},{"type":"Feature","id":"SOCHUN:28200:35300002820020210014UJC1000001001","properties":{"MNUM":"35300002820020210014UJC1000001001","admin_code":"28200","sgg_code":"28200","source_layer":"LSMD_CONT_UJ301","semantic":"sochun","stream_name":"소곡천","alias_raw":"소곡천","notified_on":"2021-01-28"},"geometry":{"type":"Polygon","coordinates":[[[126.712473,37.418534],[126.71473,37.41809],[126.715831,37.417946],[126.716779,37.417863],[126.717633,37.417641],[126.718449,37.417564],[126.718562,37.417531],[126.718836,37.417355],[126.719201,37.417249],[126.719461,37.417069],[126.719862,37.416881],[126.720287,37.416558],[126.720416,37.416355],[126.720448,37.416107],[126.720831,37.415705],[126.720881,37.415555],[126.720854,37.415283],[126.720777,37.415281],[126.720809,37.41543],[126.720716,37.415708],[126.720373,37.415989],[126.720246,37.41637],[126.720149,37.416511],[126.719827,37.416758],[126.719466,37.416893],[126.719045,37.417116],[126.718761,37.417198],[126.718684,37.417176],[126.718724,37.417213],[126.718493,37.417363],[126.718114,37.4174],[126.718058,37.417369],[126.717987,37.417376],[126.717943,37.417432],[126.717357,37.417497],[126.717109,37.41756],[126.717082,37.41749],[126.717081,37.417567],[126.716636,37.417697],[126.715239,37.417822],[126.712562,37.418349],[126.712473,37.418534]]]}},{"type":"Feature","id":"SOCHUN:28200:35300002820020250116UJC1000001001","properties":{"MNUM":"35300002820020250116UJC1000001001","admin_code":"28200","sgg_code":"28200","source_layer":"LSMD_CONT_UJ301","semantic":"sochun","stream_name":"만수천","remark_raw":"만수천","notified_on":"2025-07-16"},"geometry":{"type":"Polygon","coordinates":[[[126.72235,37.455567],[126.722721,37.455545],[126.725253,37.453746],[126.725391,37.453548],[126.726419,37.450788],[126.726538,37.450594],[126.726823,37.450336],[126.729236,37.448913],[126.729453,37.448672],[126.72966,37.448365],[126.729871,37.447921],[126.730078,37.447601],[126.729878,37.447537],[126.729668,37.447864],[126.729471,37.448286],[126.729134,37.448748],[126.726679,37.450197],[126.726416,37.450417],[126.726205,37.450731],[126.725132,37.453571],[126.725053,37.453653],[126.72235,37.455567]]]}}]}