{"type":"FeatureCollection","features":[{"type":"Feature","id":"SOCHUN:27290:34700002729020200106UJC1000001001","properties":{"MNUM":"34700002729020200106UJC1000001001","admin_code":"27290","sgg_code":"27290","source_layer":"LSMD_CONT_UJ301","semantic":"sochun","stream_name":"수밭골천","alias_raw":"수밭골천"},"geometry":{"type":"Polygon","coordinates":[[[128.547717,35.797006],[128.547855,35.797162],[128.54799,35.797049],[128.548143,35.796725],[128.548276,35.796316],[128.548407,35.796095],[128.549456,35.795478],[128.549649,35.795285],[128.550199,35.794847],[128.550387,35.794603],[128.550463,35.79438],[128.550532,35.794409],[128.550301,35.793442],[128.550287,35.793078],[128.550336,35.792928],[128.550517,35.792638],[128.55089,35.792284],[128.551013,35.792124],[128.551075,35.792113],[128.551168,35.791954],[128.551243,35.791703],[128.551247,35.791153],[128.551283,35.791009],[128.551476,35.790894],[128.551953,35.790737],[128.552436,35.790483],[128.55248,35.790305],[128.552773,35.790088],[128.553078,35.789927],[128.553172,35.789799],[128.553076,35.789723],[128.553123,35.789554],[128.55322,35.789445],[128.553277,35.789464],[128.553773,35.789129],[128.553863,35.789189],[128.554116,35.788833],[128.554195,35.788828],[128.554349,35.788719],[128.554408,35.788752],[128.554544,35.788743],[128.554691,35.788617],[128.554805,35.78843],[128.555045,35.788293],[128.555257,35.787927],[128.555219,35.787289],[128.555253,35.787186],[128.555259,35.786837],[128.55504,35.786461],[128.555001,35.786332],[128.554817,35.786357],[128.554953,35.78673],[128.555086,35.786934],[128.554975,35.787152],[128.555012,35.787718],[128.554935,35.787995],[128.554237,35.7882],[128.554052,35.788298],[128.553932,35.788428],[128.553969,35.788457],[128.553852,35.788561],[128.553768,35.78874],[128.553792,35.788757],[128.553664,35.788905],[128.553526,35.788974],[128.553266,35.789035],[128.552976,35.789273],[128.552669,35.78942],[128.552537,35.789548],[128.552402,35.789829],[128.552145,35.790162],[128.551222,35.790696],[128.550882,35.791046],[128.550839,35.791114],[128.550849,35.791241],[128.55098,35.791402],[128.550919,35.791834],[128.550821,35.792005],[128.55044,35.792382],[128.55038,35.79241],[128.550227,35.7926],[128.550123,35.792779],[128.550015,35.793156],[128.550017,35.793471],[128.55018,35.794005],[128.550159,35.794294],[128.550233,35.794309],[128.550111,35.794601],[128.549913,35.794903],[128.549325,35.795387],[128.548368,35.795938],[128.548233,35.796044],[128.548115,35.796216],[128.547891,35.796833],[128.547717,35.797006]]]}}]}