{"type":"FeatureCollection","features":[{"type":"Feature","id":"SOCHUN:11305:30800001130520180015UJC1000001002","properties":{"MNUM":"30800001130520180015UJC1000001002","admin_code":"11305","sgg_code":"11305","source_layer":"LSMD_CONT_UJ301","semantic":"sochun"},"geometry":{"type":"Polygon","coordinates":[[[127.010185,37.665687],[127.010268,37.665783],[127.010301,37.665781],[127.010639,37.66624],[127.010752,37.666267],[127.010836,37.666497],[127.010737,37.666742],[127.010603,37.666828],[127.010041,37.666981],[127.010005,37.666911],[127.009923,37.666958],[127.009816,37.666859],[127.009424,37.666958],[127.009487,37.667068],[127.009345,37.66709],[127.009122,37.667211],[127.008973,37.667328],[127.008884,37.667459],[127.008715,37.667511],[127.009078,37.667668],[127.009149,37.667831],[127.009201,37.66787],[127.009209,37.668094],[127.009039,37.668508],[127.008278,37.669338],[127.008264,37.669681],[127.008147,37.669809],[127.00808,37.669989],[127.007835,37.670156],[127.006728,37.671272],[127.006631,37.671315],[127.006454,37.671254],[127.005872,37.671587],[127.00584,37.671776],[127.005747,37.671954],[127.005656,37.672281],[127.005493,37.672603],[127.005415,37.672688],[127.005097,37.672826],[127.004893,37.673205],[127.00495,37.673298],[127.004908,37.673612],[127.0046,37.673729],[127.004303,37.673708],[127.004229,37.673732],[127.004058,37.673965],[127.003891,37.674362],[127.003846,37.674389],[127.003759,37.67437],[127.003661,37.674518],[127.003781,37.674615],[127.004006,37.674657],[127.004376,37.674116],[127.004772,37.673979],[127.005071,37.673678],[127.005054,37.673606],[127.005103,37.67339],[127.005004,37.673222],[127.005302,37.672952],[127.005335,37.672884],[127.00577,37.672707],[127.006157,37.672016],[127.006363,37.6718],[127.006745,37.671732],[127.006975,37.671553],[127.007477,37.671034],[127.007505,37.670895],[127.007797,37.670652],[127.007896,37.670605],[127.008416,37.670041],[127.008715,37.669347],[127.008819,37.669008],[127.009374,37.668493],[127.009444,37.66804],[127.009202,37.667575],[127.009256,37.667358],[127.009374,37.667269],[127.009539,37.667321],[127.009586,37.667229],[127.009725,37.667181],[127.009959,37.667146],[127.010215,37.667038],[127.010409,37.667022],[127.010699,37.666932],[127.010948,37.666759],[127.010972,37.666456],[127.010875,37.666086],[127.010605,37.665897],[127.010349,37.665585],[127.010537,37.665186],[127.010815,37.664912],[127.010934,37.664867],[127.01091,37.664892],[127.011259,37.664898],[127.011364,37.664836],[127.01146,37.664851],[127.01156,37.664909],[127.011625,37.664802],[127.012187,37.664893],[127.012369,37.664829],[127.012361,37.66434],[127.012179,37.664391],[127.012193,37.664457],[127.012121,37.664538],[127.012119,37.66466],[127.012206,37.664557],[127.012218,37.664701],[127.012162,37.664754],[127.012042,37.664752],[127.012069,37.664721],[127.011946,37.664694],[127.011984,37.664625],[127.011918,37.664711],[127.011614,37.664641],[127.011142,37.664601],[127.010644,37.664736],[127.010397,37.664867],[127.010211,37.665085],[127.010144,37.665327],[127.010185,37.665687]]]}},{"type":"Feature","id":"SOCHUN:11305:30800001130520180015UJC1000001001","properties":{"MNUM":"30800001130520180015UJC1000001001","admin_code":"11305","sgg_code":"11305","source_layer":"LSMD_CONT_UJ301","semantic":"sochun"},"geometry":{"type":"Polygon","coordinates":[[[127.005799,37.660797],[127.006528,37.661144],[127.006641,37.661575],[127.006611,37.661824],[127.006787,37.661832],[127.006971,37.661932],[127.00725,37.662156],[127.007354,37.662287],[127.007346,37.662437],[127.007441,37.662615],[127.007625,37.662742],[127.007836,37.662856],[127.008109,37.662955],[127.008506,37.663022],[127.008519,37.662989],[127.008601,37.662964],[127.008798,37.662995],[127.009421,37.663575],[127.00961,37.663596],[127.00977,37.663668],[127.010072,37.663692],[127.010959,37.663593],[127.01118,37.663726],[127.011663,37.664112],[127.011741,37.664126],[127.011871,37.663937],[127.011841,37.663946],[127.011728,37.663882],[127.011662,37.663749],[127.011364,37.663566],[127.01105,37.663449],[127.00985,37.663499],[127.00959,37.663357],[127.009215,37.662984],[127.009028,37.662914],[127.008602,37.662661],[127.008245,37.662556],[127.00779,37.662475],[127.007471,37.661948],[127.007331,37.661817],[127.007151,37.661479],[127.007176,37.661224],[127.006895,37.660923],[127.006422,37.660863],[127.005916,37.660643],[127.005799,37.660797]]]}}]}