{"type":"FeatureCollection","features":[{"type":"Feature","id":"SOCHUN:47940:52600004794020220082UJC1000200001","properties":{"MNUM":"52600004794020220082UJC1000200001","admin_code":"47940","sgg_code":"47940","source_layer":"LSMD_CONT_UJ301","semantic":"sochun","stream_name":"구암천","alias_raw":"소하천구역","remark_raw":"구암천","notified_on":"2022-11-17"},"geometry":{"type":"Polygon","coordinates":[[[130.812609,37.486801],[130.812705,37.487075],[130.812914,37.487298],[130.813345,37.48734],[130.814072,37.487295],[130.814381,37.487365],[130.814464,37.487441],[130.814539,37.4877],[130.814775,37.487941],[130.815007,37.488073],[130.815635,37.488181],[130.815728,37.488253],[130.815805,37.48827],[130.817174,37.488242],[130.817428,37.488317],[130.817945,37.488374],[130.818235,37.488456],[130.818388,37.488537],[130.818788,37.48889],[130.818967,37.489142],[130.819359,37.489375],[130.819784,37.489913],[130.820075,37.490088],[130.820529,37.490632],[130.820884,37.490786],[130.82108,37.49092],[130.821095,37.490948],[130.820991,37.491196],[130.821042,37.491436],[130.82117,37.491581],[130.821654,37.491885],[130.821825,37.492044],[130.822104,37.492485],[130.82224,37.492782],[130.822228,37.492932],[130.822273,37.492999],[130.822533,37.49313],[130.822814,37.493374],[130.823287,37.49353],[130.823443,37.493641],[130.823503,37.493749],[130.823659,37.493822],[130.823953,37.494063],[130.82423,37.494233],[130.824518,37.494303],[130.824658,37.494438],[130.824689,37.494589],[130.824743,37.494651],[130.824888,37.494706],[130.825086,37.4947],[130.825183,37.494725],[130.825392,37.49505],[130.82554,37.495116],[130.825584,37.49509],[130.825232,37.494644],[130.825144,37.494612],[130.824846,37.494597],[130.824629,37.494297],[130.824259,37.494163],[130.823786,37.493823],[130.823487,37.493565],[130.822995,37.49334],[130.822832,37.49331],[130.822711,37.493192],[130.822343,37.492967],[130.822314,37.492937],[130.822318,37.492753],[130.822215,37.492485],[130.822092,37.492351],[130.82203,37.492147],[130.821834,37.491941],[130.821628,37.491791],[130.821481,37.491598],[130.821299,37.491564],[130.821233,37.491497],[130.821211,37.491258],[130.821159,37.49113],[130.821268,37.491015],[130.821245,37.490914],[130.821156,37.490778],[130.821066,37.490689],[130.820582,37.490478],[130.820223,37.490023],[130.820195,37.489907],[130.820124,37.489805],[130.819931,37.489636],[130.819652,37.489583],[130.819373,37.489255],[130.819133,37.489133],[130.818771,37.488751],[130.818356,37.48843],[130.817873,37.48822],[130.817263,37.488132],[130.816525,37.488093],[130.815703,37.488124],[130.815457,37.48808],[130.815339,37.488015],[130.815186,37.488014],[130.815016,37.487974],[130.814743,37.487775],[130.814603,37.487629],[130.814518,37.487385],[130.814405,37.487315],[130.813825,37.487186],[130.813446,37.487236],[130.812985,37.487232],[130.81283,37.487093],[130.812713,37.486548],[130.812736,37.486333],[130.812549,37.485861],[130.812237,37.485527],[130.812207,37.485356],[130.81201,37.485066],[130.811718,37.484812],[130.811402,37.484626],[130.811229,37.484559],[130.811053,37.484388],[130.810848,37.484102],[130.810855,37.483989],[130.810981,37.483859],[130.81094,37.483781],[130.810718,37.48359],[130.810333,37.483173],[130.809656,37.482679],[130.809489,37.482604],[130.809032,37.482508],[130.80884,37.482497],[130.807214,37.482506],[130.807203,37.482616],[130.807588,37.482568],[130.8079,37.48257],[130.808016,37.482601],[130.808959,37.482589],[130.809487,37.482718],[130.809756,37.482874],[130.809829,37.48299],[130.81008,37.483128],[130.810231,37.483255],[130.810706,37.483766],[130.810518,37.484058],[130.810553,37.484133],[130.811143,37.484664],[130.811363,37.484735],[130.811674,37.485111],[130.811747,37.485237],[130.811753,37.48547],[130.811804,37.485604],[130.812415,37.486334],[130.812492,37.48646],[130.812609,37.486801]]]}},{"type":"Feature","id":"SOCHUN:47940:52600004794020220082UJC1000700001","properties":{"MNUM":"52600004794020220082UJC1000700001","admin_code":"47940","sgg_code":"47940","source_layer":"LSMD_CONT_UJ301","semantic":"sochun","stream_name":"평리천","alias_raw":"소하천구역","remark_raw":"평리천","notified_on":"2022-11-17"},"geometry":{"type":"Polygon","coordinates":[[[130.840121,37.529478],[130.84011,37.529321],[130.840159,37.52915],[130.840452,37.528804],[130.840324,37.528319],[130.840376,37.528123],[130.840298,37.527988],[130.840372,37.527905],[130.840396,37.527712],[130.840217,37.527644],[130.840236,37.52758],[130.840198,37.527392],[130.840179,37.527348],[130.840128,37.527354],[130.840178,37.527523],[130.840124,37.527584],[130.840131,37.527935],[130.840033,37.528169],[130.84001,37.528489],[130.840025,37.528592],[130.840179,37.528698],[130.840157,37.528825],[130.840039,37.528915],[130.840016,37.529026],[130.839945,37.529126],[130.839911,37.5298],[130.839965,37.530079],[130.840159,37.530254],[130.840196,37.530327],[130.840077,37.530449],[130.839808,37.530628],[130.83971,37.531001],[130.839584,37.531181],[130.839612,37.531355],[130.839736,37.531508],[130.839759,37.531656],[130.839482,37.532522],[130.839314,37.532762],[130.839313,37.532826],[130.839469,37.532986],[130.839437,37.533065],[130.839186,37.533204],[130.838999,37.533351],[130.838818,37.533529],[130.838789,37.533612],[130.839034,37.534725],[130.839109,37.534851],[130.839412,37.535089],[130.83964,37.535208],[130.839815,37.535233],[130.84076,37.535241],[130.841189,37.535287],[130.841772,37.535503],[130.841955,37.535712],[130.842075,37.53609],[130.842115,37.536734],[130.84201,37.537095],[130.841991,37.53734],[130.842144,37.538033],[130.842141,37.538168],[130.841828,37.538609],[130.841788,37.538599],[130.841682,37.53874],[130.841822,37.538786],[130.841896,37.538625],[130.84221,37.538278],[130.842273,37.538109],[130.842084,37.537286],[130.842311,37.53683],[130.842193,37.536348],[130.842189,37.535924],[130.842093,37.535616],[130.841951,37.535471],[130.84185,37.535434],[130.841819,37.535369],[130.841469,37.535202],[130.841197,37.53518],[130.840877,37.535092],[130.840675,37.535096],[130.840524,37.535131],[130.840144,37.535102],[130.840036,37.535126],[130.839597,37.535034],[130.839338,37.534865],[130.839203,37.534724],[130.839091,37.534508],[130.839084,37.533959],[130.838992,37.533746],[130.838989,37.533535],[130.839209,37.533319],[130.839483,37.533205],[130.839559,37.533213],[130.839686,37.533117],[130.83961,37.532935],[130.839482,37.532818],[130.839922,37.531613],[130.839864,37.531383],[130.839867,37.531191],[130.839805,37.531029],[130.839863,37.530778],[130.839903,37.53067],[130.839955,37.530629],[130.840386,37.530439],[130.840417,37.530323],[130.840355,37.530174],[130.840168,37.530013],[130.84009,37.52983],[130.840067,37.529699],[130.840121,37.529478]]]}},{"type":"Feature","id":"SOCHUN:47940:52600004794020220082UJC1000500001","properties":{"MNUM":"52600004794020220082UJC1000500001","admin_code":"47940","sgg_code":"47940","source_layer":"LSMD_CONT_UJ301","semantic":"sochun","stream_name":"내수전천","alias_raw":"소하천구역","remark_raw":"내수전천","notified_on":"2022-11-17"},"geometry":{"type":"Polygon","coordinates":[[[130.907381,37.511493],[130.907152,37.511544],[130.90708,37.511624],[130.906966,37.511681],[130.906972,37.511812],[130.90691,37.511849],[130.906786,37.512067],[130.906658,37.512175],[130.906473,37.512201],[130.906303,37.51219],[130.906008,37.512356],[130.905327,37.513179],[130.905081,37.513332],[130.904552,37.51357],[130.904171,37.513938],[130.9038,37.514133],[130.903778,37.5142],[130.903578,37.514373],[130.90331,37.514488],[130.903212,37.514468],[130.903072,37.51459],[130.902998,37.514613],[130.902219,37.514581],[130.901916,37.514542],[130.901741,37.514476],[130.901341,37.514522],[130.901007,37.514641],[130.900647,37.514708],[130.90053,37.514715],[130.900234,37.514644],[130.900206,37.514719],[130.900316,37.514766],[130.900296,37.514897],[130.900175,37.515029],[130.900193,37.515081],[130.900225,37.515103],[130.900362,37.515068],[130.900531,37.514858],[130.900946,37.514811],[130.901586,37.514587],[130.902053,37.514741],[130.902883,37.514736],[130.903174,37.514692],[130.903384,37.514622],[130.903382,37.514578],[130.903669,37.514399],[130.903902,37.514204],[130.904364,37.513974],[130.904693,37.513707],[130.905185,37.513462],[130.905329,37.513321],[130.905573,37.513171],[130.905741,37.512956],[130.905848,37.512746],[130.906207,37.512393],[130.906373,37.512311],[130.906715,37.51221],[130.907142,37.511814],[130.907208,37.511681],[130.907311,37.511589],[130.907629,37.51155],[130.907915,37.511461],[130.908111,37.511451],[130.9083,37.511356],[130.908576,37.511312],[130.908904,37.511311],[130.909678,37.511085],[130.910075,37.510867],[130.910342,37.510632],[130.910287,37.51058],[130.910342,37.510484],[130.910428,37.510437],[130.910633,37.510367],[130.911009,37.510479],[130.911617,37.510399],[130.911748,37.510259],[130.911998,37.510114],[130.912169,37.509924],[130.912349,37.509832],[130.912532,37.50978],[130.912533,37.509701],[130.912472,37.5097],[130.912205,37.509802],[130.912036,37.509919],[130.911964,37.51004],[130.911516,37.510229],[130.911395,37.510314],[130.910964,37.510393],[130.910589,37.51027],[130.910132,37.51039],[130.910008,37.510452],[130.909966,37.510655],[130.909669,37.510965],[130.909519,37.510988],[130.909317,37.5111],[130.909033,37.511162],[130.908884,37.511227],[130.908342,37.511248],[130.907547,37.511472],[130.907381,37.511493]]]}},{"type":"Feature","id":"SOCHUN:47940:52600004794020220082UJC1000900001","properties":{"MNUM":"52600004794020220082UJC1000900001","admin_code":"47940","sgg_code":"47940","source_layer":"LSMD_CONT_UJ301","semantic":"sochun","stream_name":"남서천","alias_raw":"소하천구역","remark_raw":"남서천","notified_on":"2022-11-17"},"geometry":{"type":"Polygon","coordinates":[[[130.834045,37.473076],[130.834103,37.472952],[130.834469,37.472457],[130.834887,37.471759],[130.834897,37.471483],[130.834532,37.47088],[130.834286,37.471023],[130.83464,37.471596],[130.834673,37.471741],[130.834549,37.471994],[130.833944,37.472873],[130.833802,37.473136],[130.833632,37.473621],[130.83368,37.474072],[130.833114,37.47525],[130.833089,37.476113],[130.833196,37.476929],[130.833129,37.477357],[130.83309,37.477388],[130.833093,37.477694],[130.832732,37.478262],[130.832632,37.478481],[130.832521,37.478818],[130.832477,37.479275],[130.832477,37.479415],[130.83258,37.479715],[130.8326,37.479896],[130.832567,37.480219],[130.832464,37.480645],[130.83249,37.480672],[130.832531,37.480658],[130.832683,37.48088],[130.832677,37.480999],[130.832775,37.481179],[130.832767,37.481258],[130.832821,37.481332],[130.832949,37.481328],[130.833104,37.481604],[130.833069,37.481828],[130.833128,37.481945],[130.833101,37.482088],[130.833261,37.482289],[130.833283,37.482411],[130.833249,37.482623],[130.833392,37.482606],[130.833407,37.482713],[130.833589,37.48307],[130.833575,37.483253],[130.833504,37.48341],[130.833315,37.483469],[130.833093,37.483625],[130.832933,37.483646],[130.832933,37.483671],[130.832567,37.48367],[130.832452,37.48374],[130.832138,37.484099],[130.832143,37.484179],[130.831954,37.484395],[130.831931,37.484777],[130.831747,37.485231],[130.831756,37.485639],[130.831621,37.485886],[130.831475,37.486023],[130.831412,37.486787],[130.831238,37.487309],[130.831247,37.487393],[130.831286,37.487415],[130.831287,37.487976],[130.831109,37.488328],[130.831054,37.488372],[130.830952,37.488983],[130.830827,37.489183],[130.830732,37.489714],[130.831278,37.490161],[130.831275,37.490205],[130.831337,37.490275],[130.831484,37.490221],[130.831623,37.490276],[130.831686,37.490781],[130.831746,37.490962],[130.832054,37.491356],[130.83206,37.491839],[130.832006,37.491929],[130.831705,37.492101],[130.831664,37.492168],[130.831659,37.492266],[130.83175,37.492568],[130.832101,37.492824],[130.832455,37.492994],[130.832712,37.493321],[130.832744,37.493465],[130.83283,37.493554],[130.833292,37.493766],[130.833356,37.493904],[130.833411,37.494281],[130.833463,37.494323],[130.833884,37.49438],[130.833991,37.494379],[130.833977,37.494252],[130.833876,37.494233],[130.833884,37.494208],[130.833675,37.494189],[130.83358,37.49414],[130.833437,37.493745],[130.833012,37.493483],[130.832937,37.493333],[130.832917,37.493201],[130.832855,37.493133],[130.832423,37.492787],[130.832322,37.492679],[130.832224,37.492485],[130.831944,37.492296],[130.831916,37.492164],[130.831978,37.492117],[130.832137,37.492089],[130.832414,37.491781],[130.832364,37.491734],[130.832353,37.491481],[130.832298,37.49144],[130.832269,37.491333],[130.832294,37.491232],[130.832172,37.490791],[130.831915,37.49047],[130.831872,37.4903],[130.83155,37.490099],[130.831463,37.489956],[130.831133,37.48968],[130.83108,37.489561],[130.831071,37.489266],[130.831154,37.488803],[130.831429,37.488032],[130.831574,37.487419],[130.831705,37.487077],[130.831729,37.486608],[130.831829,37.485943],[130.832012,37.485102],[130.832358,37.48414],[130.832623,37.483854],[130.832783,37.483824],[130.832882,37.483888],[130.833437,37.483641],[130.833672,37.483415],[130.833812,37.483167],[130.833802,37.483015],[130.833669,37.482773],[130.833697,37.482418],[130.833674,37.482337],[130.833484,37.482056],[130.833433,37.482097],[130.833318,37.481976],[130.833268,37.481963],[130.833292,37.481852],[130.833428,37.481803],[130.833369,37.481386],[130.833194,37.481243],[130.832901,37.4805],[130.832899,37.480361],[130.832955,37.480318],[130.832965,37.480143],[130.832896,37.480143],[130.832931,37.479564],[130.832842,37.479373],[130.832875,37.479245],[130.832841,37.479093],[130.832963,37.478546],[130.833036,37.478512],[130.832996,37.478398],[130.833024,37.478293],[130.833366,37.477752],[130.833397,37.47736],[130.833345,37.477344],[130.833423,37.477132],[130.833444,37.476946],[130.833337,37.47622],[130.833364,37.47602],[130.833338,37.475339],[130.833433,37.475041],[130.833819,37.474192],[130.833884,37.473433],[130.834045,37.473076]]]}},{"type":"Feature","id":"SOCHUN:47940:52600004794020220082UJC1000800001","properties":{"MNUM":"52600004794020220082UJC1000800001","admin_code":"47940","sgg_code":"47940","source_layer":"LSMD_CONT_UJ301","semantic":"sochun","stream_name":"사동천","alias_raw":"소하천구역","remark_raw":"사동천","notified_on":"2022-11-17"},"geometry":{"type":"Polygon","coordinates":[[[130.891454,37.479647],[130.89134,37.479691],[130.891091,37.479927],[130.891033,37.480009],[130.890944,37.480313],[130.890826,37.480448],[130.891303,37.481147],[130.891312,37.481373],[130.891212,37.481451],[130.891167,37.481908],[130.891652,37.482177],[130.891578,37.482585],[130.891522,37.482627],[130.891546,37.482802],[130.891651,37.482948],[130.891932,37.483141],[130.891965,37.483422],[130.892041,37.483561],[130.892264,37.483775],[130.892396,37.484043],[130.892352,37.484482],[130.892233,37.484604],[130.892008,37.48499],[130.891721,37.485363],[130.891374,37.485741],[130.89107,37.485938],[130.889486,37.485891],[130.889294,37.485927],[130.889197,37.485998],[130.888978,37.486301],[130.888843,37.486645],[130.88834,37.48695],[130.888034,37.486926],[130.887481,37.486505],[130.887298,37.486462],[130.887123,37.486483],[130.886691,37.486681],[130.886599,37.486762],[130.886766,37.486832],[130.886854,37.486699],[130.886947,37.486648],[130.887148,37.486604],[130.887413,37.486611],[130.887563,37.486688],[130.887593,37.486753],[130.887793,37.48684],[130.88799,37.486987],[130.888212,37.48704],[130.888505,37.486969],[130.889033,37.486643],[130.88906,37.486452],[130.88911,37.486391],[130.889024,37.486378],[130.88903,37.486353],[130.889398,37.486021],[130.889664,37.485987],[130.891103,37.48601],[130.891326,37.485899],[130.891593,37.485703],[130.892149,37.484926],[130.892459,37.484563],[130.892537,37.484171],[130.892474,37.483899],[130.892416,37.483785],[130.892229,37.483592],[130.892117,37.483399],[130.892037,37.483059],[130.891754,37.482789],[130.891718,37.482573],[130.891771,37.482157],[130.891711,37.482062],[130.891424,37.481831],[130.891423,37.481615],[130.89137,37.481547],[130.891381,37.481465],[130.891413,37.48145],[130.891399,37.481055],[130.891345,37.481048],[130.890995,37.480465],[130.891106,37.480277],[130.891128,37.480101],[130.891197,37.479967],[130.891506,37.479688],[130.891526,37.479704],[130.891881,37.479387],[130.89225,37.479352],[130.892342,37.479274],[130.892396,37.479179],[130.892446,37.478769],[130.89253,37.478523],[130.892424,37.478531],[130.892336,37.478938],[130.892323,37.479166],[130.892283,37.479237],[130.892212,37.479298],[130.891937,37.479309],[130.89182,37.479344],[130.891472,37.479662],[130.891454,37.479647]]]}},{"type":"Feature","id":"SOCHUN:47940:52600004794020220082UJC1000600001","properties":{"MNUM":"52600004794020220082UJC1000600001","admin_code":"47940","sgg_code":"47940","source_layer":"LSMD_CONT_UJ301","semantic":"sochun","stream_name":"통구미천","alias_raw":"소하천구역","remark_raw":"통구미천","notified_on":"2022-11-17"},"geometry":{"type":"Polygon","coordinates":[[[130.853762,37.467769],[130.85379,37.467656],[130.85373,37.467479],[130.853742,37.467339],[130.853842,37.46719],[130.854076,37.466995],[130.853966,37.466705],[130.85392,37.466268],[130.853969,37.46619],[130.854122,37.466121],[130.854085,37.465942],[130.854213,37.465618],[130.854559,37.465293],[130.854671,37.465127],[130.854644,37.465056],[130.854583,37.46517],[130.854199,37.465539],[130.854097,37.465684],[130.854029,37.465885],[130.854074,37.466114],[130.853921,37.466188],[130.853875,37.466323],[130.853937,37.466513],[130.853935,37.466708],[130.854041,37.467001],[130.853818,37.467173],[130.853702,37.467355],[130.853698,37.467488],[130.853755,37.467701],[130.853301,37.468927],[130.853323,37.469091],[130.853273,37.469308],[130.853207,37.469448],[130.852852,37.469768],[130.852679,37.469825],[130.8526,37.469898],[130.85247,37.470176],[130.852355,37.470329],[130.852315,37.470464],[130.852312,37.470553],[130.852445,37.470857],[130.852472,37.47103],[130.852607,37.471155],[130.852604,37.471485],[130.852671,37.471655],[130.852816,37.471818],[130.852827,37.471933],[130.852676,37.472385],[130.852566,37.472578],[130.852506,37.47283],[130.852427,37.472914],[130.852269,37.47298],[130.852223,37.473041],[130.852206,37.473181],[130.852286,37.473339],[130.85229,37.473428],[130.852095,37.473873],[130.852339,37.474379],[130.852416,37.474505],[130.852476,37.474524],[130.852521,37.47466],[130.85265,37.474823],[130.852797,37.474919],[130.852925,37.474918],[130.853124,37.475111],[130.853426,37.475214],[130.85358,37.475184],[130.8538,37.475401],[130.853996,37.475739],[130.854029,37.475712],[130.853932,37.475495],[130.85374,37.47524],[130.853571,37.475147],[130.853408,37.475162],[130.85312,37.475023],[130.852935,37.474862],[130.852754,37.474819],[130.852562,37.474597],[130.852514,37.474449],[130.852437,37.474377],[130.852341,37.474171],[130.852239,37.473744],[130.852292,37.47357],[130.852381,37.473478],[130.852424,37.473363],[130.852286,37.473083],[130.852289,37.473028],[130.852517,37.47294],[130.852605,37.472865],[130.85264,37.472595],[130.852833,37.472271],[130.852821,37.472132],[130.85291,37.471952],[130.85283,37.471716],[130.852662,37.471524],[130.852635,37.471326],[130.852681,37.471163],[130.852542,37.471026],[130.852524,37.470825],[130.852446,37.470595],[130.852452,37.470471],[130.852595,37.470092],[130.852705,37.469904],[130.852838,37.469846],[130.853075,37.469602],[130.853251,37.469561],[130.853306,37.469492],[130.853396,37.469016],[130.853369,37.468909],[130.853551,37.468515],[130.853629,37.468429],[130.853649,37.468083],[130.853762,37.467769]]]}},{"type":"Feature","id":"SOCHUN:47940:52600004794020240054UJC1000100001","properties":{"MNUM":"52600004794020240054UJC1000100001","admin_code":"47940","sgg_code":"47940","source_layer":"LSMD_CONT_UJ301","semantic":"sochun","stream_name":"옥천천","alias_raw":"소하천구역","remark_raw":"옥천천","notified_on":"2024-08-01"},"geometry":{"type":"Polygon","coordinates":[[[130.884795,37.477639],[130.884705,37.477505],[130.884647,37.477334],[130.884529,37.4772],[130.884174,37.477031],[130.883778,37.477033],[130.8835,37.477104],[130.882811,37.477189],[130.882358,37.477169],[130.882093,37.477195],[130.881763,37.477183],[130.881534,37.477132],[130.881315,37.47698],[130.881175,37.476944],[130.880691,37.477044],[130.880347,37.477262],[130.879996,37.477419],[130.879787,37.47756],[130.879764,37.477617],[130.879316,37.477809],[130.879039,37.478128],[130.87899,37.478241],[130.879122,37.478611],[130.879079,37.478778],[130.878788,37.479068],[130.878091,37.479479],[130.877926,37.479738],[130.877573,37.479755],[130.87745,37.479881],[130.877266,37.479976],[130.877133,37.480003],[130.877047,37.480088],[130.876785,37.48015],[130.876533,37.480171],[130.876245,37.480291],[130.875733,37.480408],[130.875508,37.48041],[130.875473,37.480466],[130.87507,37.48062],[130.874659,37.480845],[130.874426,37.480915],[130.874304,37.48121],[130.873792,37.481499],[130.873015,37.481612],[130.872587,37.481619],[130.872482,37.481646],[130.872041,37.481945],[130.871858,37.48214],[130.871607,37.482314],[130.871493,37.482451],[130.871159,37.482583],[130.87064,37.482598],[130.870595,37.482629],[130.870241,37.482684],[130.86978,37.482906],[130.869832,37.482964],[130.870297,37.48272],[130.871247,37.482633],[130.87162,37.482457],[130.871684,37.482332],[130.871785,37.482318],[130.871864,37.482257],[130.872429,37.481745],[130.872727,37.481749],[130.873147,37.481635],[130.873835,37.481523],[130.874366,37.481242],[130.87446,37.480954],[130.874706,37.480878],[130.87497,37.480711],[130.875384,37.480536],[130.875653,37.480494],[130.876191,37.480346],[130.876555,37.480202],[130.876782,37.480187],[130.87709,37.480111],[130.877379,37.47997],[130.877655,37.479777],[130.878145,37.479744],[130.878188,37.479625],[130.878319,37.479511],[130.878774,37.479266],[130.879124,37.47898],[130.879284,37.478579],[130.879264,37.478229],[130.879362,37.478015],[130.879565,37.477861],[130.881004,37.477163],[130.881127,37.477154],[130.881736,37.477298],[130.882597,37.477314],[130.883273,37.477245],[130.883781,37.477161],[130.884,37.477182],[130.884227,37.477238],[130.884319,37.477299],[130.88462,37.477619],[130.884623,37.477738],[130.884767,37.477773],[130.885079,37.477757],[130.885235,37.477643],[130.88535,37.477455],[130.885412,37.477024],[130.885707,37.476476],[130.885782,37.476155],[130.886027,37.476033],[130.885843,37.475926],[130.885659,37.476079],[130.885606,37.476414],[130.885548,37.476548],[130.885395,37.476726],[130.885287,37.477],[130.885251,37.47735],[130.885193,37.477502],[130.885021,37.477704],[130.884778,37.477709],[130.884795,37.477639]]]}},{"type":"Feature","id":"SOCHUN:47940:52600004794020220082UJC1000300001","properties":{"MNUM":"52600004794020220082UJC1000300001","admin_code":"47940","sgg_code":"47940","source_layer":"LSMD_CONT_UJ301","semantic":"sochun","stream_name":"남양천","alias_raw":"소하천구역","remark_raw":"남양천","notified_on":"2022-11-17"},"geometry":{"type":"Polygon","coordinates":[[[130.845942,37.476887],[130.846853,37.47709],[130.847227,37.477247],[130.847435,37.477398],[130.847558,37.477654],[130.847453,37.478643],[130.847375,37.478944],[130.847442,37.479236],[130.847656,37.479428],[130.848169,37.479776],[130.848555,37.480149],[130.848837,37.480258],[130.849027,37.48037],[130.84965,37.480835],[130.849981,37.4813],[130.850009,37.481887],[130.850267,37.482434],[130.850463,37.482608],[130.850958,37.482842],[130.850967,37.482901],[130.851224,37.483173],[130.85134,37.483437],[130.851431,37.4835],[130.851568,37.483707],[130.851629,37.483963],[130.851587,37.484147],[130.851433,37.484313],[130.851346,37.484734],[130.851397,37.484997],[130.851346,37.485107],[130.851206,37.485182],[130.851124,37.485393],[130.850996,37.485586],[130.850984,37.485677],[130.851058,37.485842],[130.851364,37.485838],[130.851315,37.485716],[130.851325,37.485501],[130.851295,37.485436],[130.851396,37.48524],[130.851592,37.485024],[130.851564,37.484866],[130.851621,37.484357],[130.851847,37.484192],[130.851898,37.483995],[130.851873,37.483886],[130.851456,37.483119],[130.851199,37.482914],[130.851087,37.482709],[130.851004,37.482638],[130.850755,37.482519],[130.85058,37.482345],[130.850427,37.482074],[130.850391,37.481384],[130.85031,37.48115],[130.849947,37.480798],[130.84951,37.480053],[130.849389,37.479969],[130.848897,37.479808],[130.848761,37.47984],[130.848497,37.4798],[130.847799,37.479366],[130.847639,37.479209],[130.847588,37.479083],[130.847591,37.478958],[130.847732,37.477655],[130.847788,37.4776],[130.847577,37.477228],[130.847389,37.477113],[130.847052,37.476984],[130.846999,37.476992],[130.846829,37.476903],[130.846276,37.476811],[130.845772,37.47668],[130.845597,37.476576],[130.845505,37.476414],[130.84532,37.47651],[130.843963,37.476315],[130.843802,37.476266],[130.843495,37.476098],[130.843311,37.476051],[130.8422,37.47581],[130.841659,37.475661],[130.841212,37.475604],[130.839631,37.475238],[130.838862,37.474888],[130.838427,37.474589],[130.838078,37.474225],[130.836672,37.471925],[130.83629,37.471465],[130.836108,37.47082],[130.83598,37.470875],[130.835888,37.470881],[130.835974,37.47113],[130.836194,37.471552],[130.837808,37.474138],[130.837976,37.474376],[130.838641,37.474939],[130.839431,37.475348],[130.839738,37.475469],[130.84105,37.475763],[130.841612,37.47585],[130.84195,37.47596],[130.843281,37.476204],[130.84344,37.476263],[130.843762,37.476448],[130.843917,37.476498],[130.844348,37.476586],[130.845156,37.476676],[130.845942,37.476887]]]}},{"type":"Feature","id":"SOCHUN:47940:52600004794020220082UJC1000100001","properties":{"MNUM":"52600004794020220082UJC1000100001","admin_code":"47940","sgg_code":"47940","source_layer":"LSMD_CONT_UJ301","semantic":"sochun","stream_name":"서달천","alias_raw":"소하천구역","remark_raw":"서달천","notified_on":"2022-11-17"},"geometry":{"type":"Polygon","coordinates":[[[130.814132,37.513702],[130.814303,37.513683],[130.815492,37.513747],[130.815768,37.513675],[130.816009,37.513495],[130.816132,37.513321],[130.816162,37.513161],[130.816152,37.512851],[130.815994,37.512273],[130.81604,37.512062],[130.816274,37.511845],[130.816826,37.511741],[130.81698,37.511685],[130.817099,37.511601],[130.817224,37.511412],[130.817291,37.511224],[130.817855,37.510615],[130.818025,37.510285],[130.818238,37.510152],[130.818138,37.50998],[130.81819,37.509834],[130.818306,37.509839],[130.81868,37.510014],[130.818793,37.510111],[130.818921,37.510122],[130.819091,37.510112],[130.819447,37.509971],[130.819933,37.509912],[130.820358,37.509809],[130.820586,37.509696],[130.82132,37.509204],[130.822437,37.508853],[130.822487,37.508732],[130.822735,37.508636],[130.823701,37.508074],[130.824023,37.50802],[130.824462,37.508105],[130.824902,37.508072],[130.825423,37.508169],[130.825871,37.508146],[130.826812,37.508281],[130.827492,37.50817],[130.827888,37.508154],[130.82801,37.508193],[130.82809,37.508336],[130.828181,37.508401],[130.828577,37.508485],[130.829651,37.508517],[130.829945,37.508607],[130.830343,37.508594],[130.830536,37.508655],[130.830603,37.508711],[130.831065,37.508825],[130.831179,37.508703],[130.830833,37.508574],[130.830633,37.508627],[130.830448,37.50853],[130.829634,37.508391],[130.829226,37.508344],[130.828471,37.508352],[130.828346,37.508327],[130.828219,37.50827],[130.828107,37.508017],[130.828026,37.508044],[130.827773,37.508042],[130.827124,37.508104],[130.826773,37.508048],[130.825812,37.508006],[130.824988,37.507921],[130.824929,37.50787],[130.824613,37.507822],[130.824246,37.507818],[130.823586,37.507988],[130.82351,37.508056],[130.822825,37.508383],[130.822753,37.508473],[130.822402,37.508602],[130.821998,37.508853],[130.821323,37.50908],[130.820275,37.5097],[130.819882,37.509809],[130.819567,37.509801],[130.819301,37.509876],[130.819122,37.510003],[130.818854,37.509968],[130.818747,37.509867],[130.818724,37.509772],[130.818611,37.509771],[130.818413,37.509657],[130.818439,37.509558],[130.818417,37.509329],[130.818253,37.509318],[130.818207,37.509493],[130.818113,37.50964],[130.817941,37.509781],[130.817914,37.50984],[130.817904,37.510108],[130.817763,37.510486],[130.817721,37.510536],[130.81747,37.510644],[130.817337,37.510815],[130.816923,37.511098],[130.816889,37.511195],[130.816967,37.511372],[130.816679,37.511498],[130.816282,37.51145],[130.816071,37.511462],[130.815791,37.511757],[130.815713,37.512276],[130.815798,37.512503],[130.815791,37.512573],[130.815967,37.512915],[130.815952,37.51311],[130.815791,37.513339],[130.815647,37.513438],[130.815599,37.51352],[130.81546,37.513597],[130.814832,37.513452],[130.81466,37.513482],[130.813842,37.513497],[130.813662,37.513529],[130.813267,37.513664],[130.812953,37.513814],[130.813128,37.513941],[130.813392,37.513832],[130.813423,37.513864],[130.813618,37.513787],[130.814132,37.513702]]]}},{"type":"Feature","id":"SOCHUN:47940:52600004794020220044UJC1000100001","properties":{"MNUM":"52600004794020220044UJC1000100001","admin_code":"47940","sgg_code":"47940","source_layer":"LSMD_CONT_UJ301","semantic":"sochun","stream_name":"도동천","alias_raw":"소하천구역","remark_raw":"도동천","notified_on":"2022-06-14"},"geometry":{"type":"Polygon","coordinates":[[[130.905189,37.486903],[130.905404,37.486916],[130.905568,37.486872],[130.905685,37.486747],[130.90575,37.486569],[130.906007,37.486462],[130.906183,37.48628],[130.906568,37.485976],[130.906627,37.485881],[130.906724,37.485478],[130.906846,37.485398],[130.906787,37.48533],[130.906626,37.485449],[130.906563,37.485829],[130.906514,37.485946],[130.906115,37.48626],[130.905961,37.486423],[130.905701,37.486532],[130.905624,37.486726],[130.905526,37.486832],[130.905408,37.486863],[130.905179,37.486851],[130.904971,37.486911],[130.904846,37.486914],[130.90458,37.486909],[130.903958,37.486821],[130.903632,37.487105],[130.903451,37.48714],[130.903059,37.487391],[130.902648,37.487509],[130.902395,37.487656],[130.902265,37.487788],[130.901921,37.488265],[130.901602,37.488511],[130.901257,37.488705],[130.900758,37.48871],[130.900321,37.488804],[130.899976,37.488802],[130.899067,37.488549],[130.898787,37.488445],[130.898256,37.488488],[130.898016,37.488658],[130.897908,37.488695],[130.897858,37.488531],[130.89778,37.488627],[130.897698,37.488473],[130.897612,37.488493],[130.897483,37.488665],[130.897114,37.48894],[130.896979,37.488928],[130.896688,37.488977],[130.896446,37.488971],[130.896345,37.48918],[130.896135,37.489149],[130.896112,37.489102],[130.895979,37.489045],[130.895403,37.489054],[130.895225,37.489089],[130.894986,37.489073],[130.894867,37.48917],[130.894449,37.489005],[130.894418,37.489097],[130.89482,37.489327],[130.894991,37.489185],[130.895431,37.489139],[130.895439,37.489091],[130.896017,37.48915],[130.896051,37.489205],[130.89649,37.489242],[130.896503,37.489186],[130.896637,37.489102],[130.89693,37.489012],[130.897082,37.489039],[130.897276,37.488883],[130.897339,37.488914],[130.897526,37.488768],[130.897625,37.488737],[130.897746,37.488764],[130.89793,37.488745],[130.89804,37.48871],[130.898288,37.488536],[130.898782,37.488497],[130.899045,37.488598],[130.899966,37.488854],[130.900227,37.488867],[130.900829,37.488759],[130.901283,37.488754],[130.901621,37.488567],[130.9019,37.488364],[130.902025,37.488248],[130.902411,37.487719],[130.902677,37.487555],[130.902891,37.487514],[130.903093,37.487436],[130.903477,37.487189],[130.903659,37.487153],[130.903985,37.486873],[130.904574,37.486961],[130.904982,37.486962],[130.905189,37.486903]]]}}]}