{"type":"FeatureCollection","features":[{"type":"Feature","id":"SOCHUN:41110:37400004111020190325UJC2000002001","properties":{"MNUM":"37400004111020190325UJC2000002001","admin_code":"41110","sgg_code":"41110","source_layer":"LSMD_CONT_UJ301","semantic":"sochun"},"geometry":{"type":"MultiPolygon","coordinates":[[[[126.966257,37.257793],[126.966222,37.257773],[126.966163,37.257878],[126.966058,37.258375],[126.966058,37.258494],[126.966202,37.25878],[126.966167,37.259021],[126.966211,37.258751],[126.966085,37.258549],[126.966065,37.25837],[126.966257,37.257793]]],[[[126.966413,37.25815],[126.966379,37.258148],[126.966306,37.258411],[126.966449,37.258739],[126.966334,37.259488],[126.966384,37.25982],[126.966284,37.260009],[126.966174,37.260091],[126.966354,37.259944],[126.966409,37.259843],[126.966412,37.259688],[126.966357,37.259491],[126.966505,37.258813],[126.966473,37.258662],[126.966355,37.258452],[126.966413,37.25815]]],[[[126.965947,37.260254],[126.96598,37.260205],[126.965924,37.26024],[126.965879,37.260309],[126.965891,37.260443],[126.966094,37.260828],[126.965897,37.260384],[126.965947,37.260254]]],[[[126.966218,37.261102],[126.966158,37.260967],[126.966182,37.261296],[126.96612,37.261362],[126.966083,37.261584],[126.966428,37.262134],[126.966383,37.262445],[126.966252,37.262788],[126.96635,37.262692],[126.966463,37.262243],[126.966442,37.262122],[126.966104,37.26154],[126.966203,37.261259],[126.966218,37.261102]]],[[[126.964087,37.263951],[126.964363,37.263893],[126.964572,37.263679],[126.964606,37.263613],[126.964625,37.26321],[126.96475,37.263001],[126.965119,37.262829],[126.965432,37.262745],[126.965862,37.262693],[126.966021,37.262615],[126.966143,37.262229],[126.966122,37.26213],[126.965898,37.261822],[126.965824,37.261649],[126.965823,37.261445],[126.965911,37.261268],[126.965875,37.26127],[126.965847,37.260938],[126.965754,37.260819],[126.965594,37.260446],[126.965585,37.260501],[126.965678,37.260714],[126.965835,37.260993],[126.965854,37.261235],[126.965783,37.261557],[126.965803,37.261652],[126.966098,37.262201],[126.966028,37.262521],[126.96594,37.262633],[126.965104,37.262799],[126.964766,37.262971],[126.964677,37.26305],[126.964591,37.263196],[126.964565,37.263399],[126.964488,37.263445],[126.964557,37.263596],[126.964544,37.263646],[126.964524,37.263672],[126.964464,37.263664],[126.96445,37.263761],[126.964363,37.263849],[126.964034,37.263946],[126.963797,37.264055],[126.964087,37.263951]]],[[[126.962779,37.264404],[126.962911,37.264398],[126.963073,37.264326],[126.963306,37.264156],[126.962914,37.264297],[126.962811,37.264297],[126.962729,37.264375],[126.962779,37.264404]]],[[[126.963026,37.264574],[126.963612,37.264368],[126.964348,37.264201],[126.964586,37.264106],[126.96481,37.263897],[126.96492,37.263742],[126.965,37.263234],[126.965775,37.262967],[126.965234,37.263079],[126.964974,37.263221],[126.964902,37.263681],[126.964766,37.263906],[126.964588,37.264075],[126.964342,37.264179],[126.963117,37.264462],[126.963006,37.264515],[126.962829,37.264538],[126.962687,37.26452],[126.962678,37.264553],[126.96275,37.264563],[126.962738,37.264616],[126.963026,37.264574]]]]}},{"type":"Feature","id":"SOCHUN:41110:37400004111020190325UJC1000013000","properties":{"MNUM":"37400004111020190325UJC1000013000","admin_code":"41110","sgg_code":"41110","source_layer":"LSMD_CONT_UJ301","semantic":"sochun"},"geometry":{"type":"Polygon","coordinates":[[[127.026619,37.239722],[127.026335,37.239162],[127.025853,37.238462],[127.025685,37.238128],[127.025502,37.237559],[127.025423,37.236914],[127.025367,37.236936],[127.025368,37.236473],[127.025129,37.236314],[127.025126,37.235812],[127.024113,37.235146],[127.022505,37.23416],[127.022101,37.233325],[127.022336,37.232828],[127.022332,37.232773],[127.022363,37.232776],[127.023092,37.231319],[127.023033,37.231259],[127.023048,37.231219],[127.023135,37.231205],[127.023162,37.231152],[127.023111,37.231065],[127.023248,37.23082],[127.023166,37.230738],[127.022979,37.231148],[127.02294,37.231148],[127.022912,37.231269],[127.022762,37.231497],[127.022464,37.232175],[127.022167,37.23269],[127.022191,37.232756],[127.021942,37.23323],[127.02204,37.233373],[127.022439,37.2342],[127.025081,37.23583],[127.025084,37.236286],[127.025041,37.23626],[127.025014,37.236444],[127.025173,37.236743],[127.025278,37.237582],[127.025468,37.238176],[127.025414,37.238188],[127.025557,37.238494],[127.026071,37.239243],[127.026359,37.239811],[127.026411,37.239793],[127.026845,37.241025],[127.026923,37.241471],[127.02707,37.243648],[127.02714,37.244116],[127.02733,37.244813],[127.027642,37.245619],[127.028239,37.246691],[127.028452,37.247283],[127.028634,37.247225],[127.028517,37.246894],[127.028502,37.24675],[127.027764,37.245358],[127.02757,37.24484],[127.02743,37.244324],[127.027281,37.243509],[127.027119,37.241242],[127.027011,37.2408],[127.026619,37.239722]]]}},{"type":"Feature","id":"SOCHUN:41110:37400004111020190325UJC1000012000","properties":{"MNUM":"37400004111020190325UJC1000012000","admin_code":"41110","sgg_code":"41110","source_layer":"LSMD_CONT_UJ301","semantic":"sochun"},"geometry":{"type":"Polygon","coordinates":[[[127.019854,37.234657],[127.019887,37.234523],[127.019874,37.234473],[127.019759,37.234394],[127.019775,37.23436],[127.019164,37.234054],[127.01918,37.233961],[127.018962,37.233803],[127.018881,37.233786],[127.018804,37.233681],[127.018566,37.233772],[127.018628,37.233937],[127.018791,37.234126],[127.01875,37.234209],[127.018962,37.234357],[127.019061,37.234289],[127.01915,37.234315],[127.019638,37.234619],[127.019209,37.235382],[127.01903,37.235814],[127.019126,37.236753],[127.01919,37.237002],[127.019308,37.237139],[127.019285,37.237184],[127.01982,37.237699],[127.019873,37.237827],[127.019884,37.23801],[127.019787,37.238259],[127.019315,37.238945],[127.019178,37.23938],[127.019262,37.240603],[127.019191,37.241305],[127.019211,37.241413],[127.019142,37.241858],[127.01913,37.242656],[127.019064,37.242995],[127.019029,37.243498],[127.018946,37.243904],[127.018795,37.244392],[127.018679,37.245447],[127.018679,37.246114],[127.018754,37.246784],[127.018745,37.247144],[127.018712,37.247329],[127.018651,37.247449],[127.01866,37.247509],[127.018244,37.248285],[127.018528,37.248396],[127.018643,37.248207],[127.018682,37.248208],[127.018852,37.247873],[127.018878,37.247874],[127.018963,37.247657],[127.019077,37.247165],[127.019081,37.24676],[127.018995,37.245829],[127.018999,37.245382],[127.019071,37.244798],[127.019209,37.244419],[127.019387,37.243321],[127.019426,37.243133],[127.019468,37.243136],[127.019448,37.242703],[127.019585,37.241582],[127.019582,37.240257],[127.019503,37.239603],[127.019504,37.239346],[127.019583,37.239256],[127.019548,37.23922],[127.01968,37.238938],[127.020119,37.238297],[127.020211,37.238008],[127.020202,37.237804],[127.020117,37.237585],[127.019863,37.237255],[127.019878,37.237225],[127.019472,37.236812],[127.019456,37.236842],[127.019296,37.235852],[127.019496,37.235341],[127.019854,37.234657]]]}},{"type":"Feature","id":"SOCHUN:41110:37400004111020220022UJC1000001002","properties":{"MNUM":"37400004111020220022UJC1000001002","admin_code":"41110","sgg_code":"41110","source_layer":"LSMD_CONT_UJ301","semantic":"sochun"},"geometry":{"type":"Polygon","coordinates":[[[127.036028,37.31032],[127.036107,37.31047],[127.036265,37.310133],[127.036694,37.310015],[127.036845,37.30991],[127.036901,37.309812],[127.036908,37.309678],[127.036717,37.309369],[127.036728,37.3092],[127.037645,37.308279],[127.038199,37.307816],[127.038128,37.307714],[127.037542,37.308209],[127.036598,37.309146],[127.036553,37.309333],[127.036765,37.309666],[127.03676,37.309809],[127.03664,37.309916],[127.036187,37.310043],[127.036028,37.31032]]]}},{"type":"Feature","id":"SOCHUN:41110:37400004111020190325UJC1000002000","properties":{"MNUM":"37400004111020190325UJC1000002000","admin_code":"41110","sgg_code":"41110","source_layer":"LSMD_CONT_UJ301","semantic":"sochun"},"geometry":{"type":"Polygon","coordinates":[[[126.965119,37.262829],[126.96475,37.263001],[126.964663,37.263121],[126.9646,37.263355],[126.964606,37.263613],[126.964497,37.263774],[126.964363,37.263893],[126.964087,37.263951],[126.963797,37.264055],[126.96331,37.264155],[126.963073,37.264326],[126.962911,37.264398],[126.962408,37.26437],[126.961853,37.26445],[126.961666,37.264437],[126.961511,37.26438],[126.960856,37.264022],[126.960128,37.263716],[126.959682,37.263612],[126.959371,37.263609],[126.957825,37.263756],[126.956782,37.26373],[126.956068,37.263886],[126.955831,37.263913],[126.955592,37.263911],[126.955278,37.263865],[126.954599,37.263663],[126.953873,37.263534],[126.952757,37.263106],[126.951955,37.262989],[126.9517,37.262918],[126.950017,37.262023],[126.950158,37.26181],[126.949464,37.261733],[126.949038,37.261852],[126.948142,37.261882],[126.947777,37.262009],[126.947197,37.262068],[126.946642,37.261947],[126.946085,37.262073],[126.943873,37.262414],[126.943356,37.262361],[126.942735,37.262249],[126.942708,37.262212],[126.942382,37.262243],[126.942089,37.262307],[126.941758,37.262656],[126.94159,37.262611],[126.941504,37.262679],[126.941329,37.262718],[126.941085,37.263017],[126.940955,37.26303],[126.94089,37.263002],[126.940891,37.262813],[126.940751,37.262817],[126.940746,37.26285],[126.940846,37.263065],[126.940911,37.2631],[126.941087,37.263122],[126.941273,37.263019],[126.941416,37.26288],[126.941768,37.262811],[126.941891,37.262748],[126.942189,37.262384],[126.942347,37.262352],[126.942788,37.262485],[126.942924,37.262577],[126.943045,37.262514],[126.943762,37.262607],[126.944007,37.262558],[126.944165,37.262569],[126.944465,37.262491],[126.945033,37.262481],[126.946138,37.262309],[126.946703,37.262297],[126.947223,37.262346],[126.947782,37.262178],[126.949021,37.262046],[126.949565,37.262081],[126.949908,37.262206],[126.950019,37.262199],[126.950012,37.262169],[126.951663,37.263053],[126.951954,37.263128],[126.952665,37.263224],[126.953845,37.26367],[126.954592,37.263803],[126.955359,37.264021],[126.95571,37.264051],[126.955974,37.264037],[126.956838,37.263862],[126.957883,37.263889],[126.959353,37.263747],[126.959627,37.263744],[126.960086,37.263851],[126.960727,37.264118],[126.961405,37.264488],[126.961642,37.264565],[126.961943,37.264583],[126.962444,37.264504],[126.962829,37.264538],[126.963006,37.264515],[126.963117,37.264462],[126.964342,37.264179],[126.964588,37.264075],[126.96486,37.263771],[126.964927,37.263617],[126.964948,37.263288],[126.965016,37.263186],[126.965234,37.263079],[126.966048,37.262918],[126.966223,37.262824],[126.966265,37.262772],[126.966383,37.262445],[126.966428,37.262134],[126.966083,37.261584],[126.96612,37.261362],[126.966182,37.261296],[126.966153,37.26088],[126.966084,37.260822],[126.965872,37.260369],[126.965924,37.26024],[126.966284,37.260009],[126.966384,37.25982],[126.966334,37.259488],[126.966449,37.258739],[126.966306,37.258411],[126.966438,37.257899],[126.966257,37.257793],[126.966065,37.25837],[126.966085,37.258549],[126.966211,37.258751],[126.966084,37.259511],[126.966132,37.259763],[126.966093,37.259832],[126.965753,37.260015],[126.96572,37.259994],[126.965586,37.260122],[126.965557,37.260333],[126.965644,37.260599],[126.965847,37.260938],[126.965875,37.26127],[126.965911,37.261268],[126.965823,37.261445],[126.965824,37.261649],[126.965898,37.261822],[126.966122,37.26213],[126.966133,37.262316],[126.966021,37.262615],[126.96595,37.262669],[126.965432,37.262745],[126.965119,37.262829]]]}},{"type":"Feature","id":"SOCHUN:41110:37400004111020220022UJC2000001002","properties":{"MNUM":"37400004111020220022UJC2000001002","admin_code":"41110","sgg_code":"41110","source_layer":"LSMD_CONT_UJ301","semantic":"sochun"},"geometry":{"type":"Polygon","coordinates":[[[127.036542,37.309256],[127.036549,37.309309],[127.036614,37.309126],[127.037499,37.30825],[127.037439,37.308267],[127.037092,37.308551],[127.036864,37.308801],[127.036779,37.308962],[127.036593,37.309132],[127.036542,37.309256]]]}},{"type":"Feature","id":"SOCHUN:41110:37400004111020220022UJC1000008000","properties":{"MNUM":"37400004111020220022UJC1000008000","admin_code":"41110","sgg_code":"41110","source_layer":"LSMD_CONT_UJ301","semantic":"sochun","stream_name":"문암골천","alias_raw":"문암골천"},"geometry":{"type":"Polygon","coordinates":[[[127.027597,37.30903],[127.027625,37.309078],[127.027782,37.309175],[127.028443,37.310135],[127.028989,37.310497],[127.029633,37.310736],[127.029754,37.310941],[127.029825,37.311151],[127.029714,37.311478],[127.029733,37.311567],[127.030805,37.312613],[127.030814,37.312652],[127.030673,37.312673],[127.030823,37.312771],[127.030863,37.312997],[127.031017,37.313263],[127.031212,37.313471],[127.031288,37.313409],[127.0311,37.313217],[127.030993,37.312982],[127.030968,37.312803],[127.030887,37.312605],[127.029782,37.311546],[127.029913,37.311053],[127.029905,37.310952],[127.029807,37.310776],[127.029655,37.31061],[127.029145,37.310416],[127.028624,37.310138],[127.028169,37.309424],[127.028161,37.3092],[127.028093,37.309031],[127.028109,37.309004],[127.028044,37.308871],[127.027971,37.308805],[127.027818,37.309063],[127.027648,37.30896],[127.027597,37.30903]]]}},{"type":"Feature","id":"SOCHUN:41110:37400004111020240380UJC2000007000","properties":{"MNUM":"37400004111020240380UJC2000007000","admin_code":"41110","sgg_code":"41110","source_layer":"LSMD_CONT_UJ301","semantic":"sochun","stream_name":"복골천","alias_raw":"복골천"},"geometry":{"type":"MultiPolygon","coordinates":[[[[127.011035,37.326622],[127.011407,37.326716],[127.011605,37.326858],[127.011971,37.326756],[127.012707,37.326684],[127.013215,37.326374],[127.013444,37.326112],[127.013473,37.325905],[127.013587,37.325565],[127.013567,37.325473],[127.01335,37.326104],[127.013145,37.326318],[127.012737,37.326587],[127.011977,37.326663],[127.011625,37.326762],[127.011331,37.326619],[127.01118,37.326602],[127.011035,37.326622]]],[[[127.013701,37.32528],[127.013872,37.324982],[127.013872,37.324788],[127.013809,37.324517],[127.01388,37.324331],[127.013893,37.324136],[127.013994,37.323949],[127.013983,37.323821],[127.014063,37.323733],[127.014169,37.323709],[127.014357,37.323723],[127.014544,37.323776],[127.014573,37.323721],[127.014742,37.323641],[127.015022,37.323601],[127.015101,37.323628],[127.015109,37.323588],[127.014621,37.323623],[127.01421,37.323601],[127.014059,37.323654],[127.013967,37.323732],[127.013881,37.323895],[127.013749,37.32445],[127.013785,37.325059],[127.013701,37.32528]]],[[[127.014037,37.324974],[127.014005,37.325124],[127.013955,37.325188],[127.013896,37.325184],[127.013727,37.325438],[127.013712,37.325615],[127.013574,37.326046],[127.013283,37.3264],[127.012758,37.326724],[127.012079,37.326774],[127.011768,37.326834],[127.011632,37.32691],[127.011847,37.326826],[127.012704,37.326775],[127.012921,37.326685],[127.013252,37.32646],[127.013468,37.326266],[127.01362,37.326072],[127.013798,37.325503],[127.013988,37.325193],[127.014037,37.324974]]],[[[127.014578,37.323814],[127.015073,37.323768],[127.015095,37.32366],[127.01477,37.323688],[127.014578,37.323814]]],[[[127.014008,37.32437],[127.013929,37.324567],[127.013984,37.324854],[127.014038,37.324957],[127.013996,37.324636],[127.014008,37.32437]]],[[[127.014001,37.324224],[127.014008,37.32437],[127.014092,37.323973],[127.014001,37.324224]]],[[[127.014097,37.323887],[127.014158,37.323812],[127.014252,37.323777],[127.014106,37.323811],[127.014097,37.323887]]],[[[127.014313,37.32377],[127.014497,37.323818],[127.014511,37.323816],[127.01446,37.323807],[127.014398,37.32379],[127.014314,37.323769],[127.014313,37.32377]]]]}},{"type":"Feature","id":"SOCHUN:41110:37400004111020240380UJC1000007000","properties":{"MNUM":"37400004111020240380UJC1000007000","admin_code":"41110","sgg_code":"41110","source_layer":"LSMD_CONT_UJ301","semantic":"sochun","stream_name":"복골천","alias_raw":"복골천"},"geometry":{"type":"Polygon","coordinates":[[[127.010541,37.326645],[127.010739,37.326757],[127.010894,37.326707],[127.011262,37.326733],[127.011409,37.326771],[127.011593,37.326914],[127.011768,37.326834],[127.012079,37.326774],[127.012758,37.326724],[127.013238,37.326436],[127.013574,37.326046],[127.013712,37.325615],[127.013727,37.325438],[127.013896,37.325184],[127.013955,37.325188],[127.014005,37.325124],[127.014038,37.324957],[127.013984,37.324854],[127.013929,37.324507],[127.014008,37.32437],[127.014003,37.324187],[127.014092,37.323973],[127.014106,37.323811],[127.014314,37.323769],[127.014578,37.323814],[127.014742,37.323697],[127.015095,37.32366],[127.015101,37.323628],[127.015022,37.323601],[127.014808,37.323623],[127.014601,37.323703],[127.014544,37.323776],[127.014357,37.323723],[127.014169,37.323709],[127.014063,37.323733],[127.013983,37.323821],[127.013994,37.323949],[127.013893,37.324136],[127.01388,37.324331],[127.013809,37.324517],[127.013872,37.324788],[127.01386,37.325031],[127.013567,37.325473],[127.013587,37.325565],[127.013473,37.325905],[127.013444,37.326112],[127.013181,37.326396],[127.012656,37.326701],[127.011971,37.326756],[127.011605,37.326858],[127.011407,37.326716],[127.011035,37.326622],[127.010786,37.326712],[127.010661,37.326634],[127.010579,37.326621],[127.010541,37.326645]]]}},{"type":"Feature","id":"SOCHUN:41110:37400004111020220022UJC2000012000","properties":{"MNUM":"37400004111020220022UJC2000012000","admin_code":"41110","sgg_code":"41110","source_layer":"LSMD_CONT_UJ301","semantic":"sochun","stream_name":"오룡골천","alias_raw":"오룡골천"},"geometry":{"type":"MultiPolygon","coordinates":[[[[126.944744,37.289402],[126.944848,37.28939],[126.945631,37.289568],[126.945814,37.289582],[126.946492,37.289552],[126.948108,37.289645],[126.946485,37.289503],[126.945921,37.289541],[126.945393,37.289471],[126.94485,37.289352],[126.944744,37.289402]]],[[[126.94475,37.289501],[126.944787,37.289532],[126.945329,37.289657],[126.945731,37.289723],[126.946135,37.289734],[126.94631,37.289699],[126.946468,37.289702],[126.948837,37.28983],[126.94913,37.289902],[126.949166,37.289846],[126.946645,37.289676],[126.946308,37.289672],[126.946078,37.289703],[126.945652,37.289676],[126.94475,37.289501]]]]}},{"type":"Feature","id":"SOCHUN:41110:37400004111020220022UJC1000012000","properties":{"MNUM":"37400004111020220022UJC1000012000","admin_code":"41110","sgg_code":"41110","source_layer":"LSMD_CONT_UJ301","semantic":"sochun","stream_name":"오룡골천","alias_raw":"오룡골천"},"geometry":{"type":"Polygon","coordinates":[[[126.944725,37.28947],[126.944742,37.289493],[126.945556,37.289658],[126.94587,37.289691],[126.946645,37.289676],[126.949051,37.289831],[126.94929,37.289875],[126.949331,37.289746],[126.949016,37.28969],[126.948419,37.289671],[126.948151,37.289633],[126.947991,37.289651],[126.946621,37.289556],[126.945814,37.289582],[126.945631,37.289568],[126.944822,37.289388],[126.944742,37.289401],[126.944725,37.28947]]]}},{"type":"Feature","id":"SOCHUN:41110:37400004111020220022UJC2000005000","properties":{"MNUM":"37400004111020220022UJC2000005000","admin_code":"41110","sgg_code":"41110","source_layer":"LSMD_CONT_UJ301","semantic":"sochun","stream_name":"창사천","alias_raw":"창사천"},"geometry":{"type":"MultiPolygon","coordinates":[[[[127.01567,37.333711],[127.015778,37.333681],[127.016375,37.334],[127.016894,37.334159],[127.016473,37.33397],[127.016371,37.333961],[127.016272,37.333913],[127.015742,37.333591],[127.01567,37.333711]]],[[[127.016746,37.333929],[127.017009,37.333995],[127.017072,37.333987],[127.016982,37.33389],[127.016787,37.33383],[127.016746,37.333929]]],[[[127.016894,37.334159],[127.017234,37.334279],[127.017385,37.334278],[127.01724,37.334216],[127.016894,37.334159]]]]}},{"type":"Feature","id":"SOCHUN:41110:37400004111020220022UJC2000003000","properties":{"MNUM":"37400004111020220022UJC2000003000","admin_code":"41110","sgg_code":"41110","source_layer":"LSMD_CONT_UJ301","semantic":"sochun","stream_name":"조원천","alias_raw":"조원천"},"geometry":{"type":"Polygon","coordinates":[[[127.013486,37.307756],[127.013527,37.307678],[127.013526,37.307676],[127.013534,37.307668],[127.01362,37.307476],[127.013649,37.307354],[127.013641,37.307365],[127.013632,37.307382],[127.013612,37.307452],[127.013609,37.307461],[127.013604,37.307478],[127.013598,37.307496],[127.013591,37.307513],[127.013584,37.30753],[127.013543,37.307628],[127.013538,37.307639],[127.01353,37.307656],[127.01352,37.307673],[127.013502,37.307703],[127.013496,37.307714],[127.013492,37.307724],[127.013489,37.307735],[127.013486,37.307746],[127.013486,37.307756]]]}},{"type":"Feature","id":"SOCHUN:41110:37400004111020220022UJC1000005000","properties":{"MNUM":"37400004111020220022UJC1000005000","admin_code":"41110","sgg_code":"41110","source_layer":"LSMD_CONT_UJ301","semantic":"sochun","stream_name":"창사천","alias_raw":"창사천"},"geometry":{"type":"Polygon","coordinates":[[[127.015621,37.333539],[127.016371,37.333961],[127.016473,37.33397],[127.016894,37.334159],[127.01724,37.334216],[127.01781,37.33444],[127.018181,37.334662],[127.018751,37.33524],[127.019153,37.335573],[127.019438,37.336152],[127.019746,37.336555],[127.019987,37.336779],[127.020596,37.337245],[127.020689,37.337386],[127.021166,37.337807],[127.021203,37.338001],[127.021281,37.3381],[127.021423,37.338507],[127.021834,37.338927],[127.021911,37.338871],[127.021807,37.338725],[127.021712,37.338665],[127.021598,37.338528],[127.021511,37.338329],[127.021551,37.338193],[127.021408,37.338128],[127.021354,37.338033],[127.021318,37.337894],[127.021348,37.337772],[127.02128,37.33746],[127.021141,37.337204],[127.020906,37.337033],[127.020365,37.336862],[127.019858,37.336525],[127.019518,37.336035],[127.019358,37.335563],[127.019118,37.335354],[127.018934,37.33525],[127.018591,37.334922],[127.018382,37.334671],[127.018111,37.334454],[127.017409,37.334171],[127.017216,37.334074],[127.017169,37.334003],[127.017022,37.333976],[127.017009,37.333995],[127.01641,37.333827],[127.015733,37.333453],[127.015707,37.333446],[127.015621,37.333539]]]}},{"type":"Feature","id":"SOCHUN:41110:37400004111020190325UJC1000001001","properties":{"MNUM":"37400004111020190325UJC1000001001","admin_code":"41110","sgg_code":"41110","source_layer":"LSMD_CONT_UJ301","semantic":"sochun"},"geometry":{"type":"MultiPolygon","coordinates":[[[[127.04076,37.296456],[127.040815,37.29656],[127.040913,37.296603],[127.041001,37.296585],[127.040985,37.296627],[127.041401,37.296545],[127.0418,37.296393],[127.042024,37.296236],[127.042146,37.295986],[127.042389,37.295629],[127.042382,37.295595],[127.042513,37.295476],[127.04273,37.295348],[127.043251,37.295181],[127.043743,37.295173],[127.044467,37.295844],[127.045964,37.295503],[127.046969,37.295334],[127.047344,37.295115],[127.047468,37.295089],[127.047468,37.295065],[127.047671,37.294995],[127.047891,37.294845],[127.048073,37.294778],[127.048627,37.294712],[127.049326,37.294801],[127.050021,37.294721],[127.050091,37.294744],[127.050126,37.294798],[127.050147,37.294359],[127.049991,37.294489],[127.049786,37.294554],[127.049335,37.29461],[127.049174,37.294606],[127.04919,37.29465],[127.048589,37.29462],[127.047977,37.294715],[127.047627,37.294913],[127.04726,37.29504],[127.046884,37.295254],[127.046841,37.295207],[127.04561,37.295435],[127.045369,37.295392],[127.045155,37.295394],[127.04461,37.295552],[127.044455,37.295511],[127.04424,37.295328],[127.04385,37.295092],[127.04352,37.295041],[127.043283,37.295057],[127.042566,37.295281],[127.042403,37.295364],[127.04219,37.295592],[127.042163,37.295573],[127.041752,37.296068],[127.041556,37.296255],[127.041283,37.296353],[127.04076,37.296456]]],[[[127.056029,37.293943],[127.056153,37.293998],[127.056211,37.294101],[127.056142,37.295344],[127.056194,37.295591],[127.056319,37.295738],[127.056686,37.295876],[127.056696,37.296064],[127.056833,37.296258],[127.056833,37.296485],[127.056655,37.29667],[127.056667,37.296884],[127.056744,37.297079],[127.056729,37.29717],[127.056909,37.297443],[127.056879,37.297481],[127.057107,37.297715],[127.057151,37.29786],[127.057632,37.298103],[127.057653,37.298092],[127.057488,37.297946],[127.057367,37.297908],[127.057262,37.297788],[127.057256,37.297507],[127.057056,37.297371],[127.056973,37.297357],[127.056876,37.297135],[127.056838,37.29699],[127.056886,37.296788],[127.057037,37.296547],[127.05715,37.296516],[127.056849,37.295819],[127.056703,37.295741],[127.056415,37.295649],[127.056335,37.295558],[127.056327,37.295328],[127.056293,37.295284],[127.05632,37.294637],[127.05638,37.294026],[127.056467,37.293903],[127.056204,37.293949],[127.056029,37.293943]]],[[[127.057533,37.298152],[127.057736,37.298395],[127.05789,37.298505],[127.057984,37.298642],[127.058067,37.298701],[127.058401,37.298823],[127.058849,37.298903],[127.05902,37.298984],[127.059188,37.298952],[127.058932,37.298804],[127.058441,37.298711],[127.058181,37.298616],[127.05782,37.298286],[127.057533,37.298152]]],[[[127.043491,37.311009],[127.043648,37.311734],[127.043569,37.312106],[127.043565,37.31262],[127.043598,37.31262],[127.043578,37.31269],[127.043617,37.312791],[127.043616,37.31298],[127.043772,37.313166],[127.04378,37.312935],[127.043814,37.312934],[127.043821,37.312106],[127.043903,37.311727],[127.043747,37.310945],[127.044189,37.310318],[127.044221,37.310219],[127.044225,37.309777],[127.044281,37.30968],[127.044562,37.30939],[127.044784,37.308817],[127.044746,37.308809],[127.04479,37.308681],[127.044837,37.308687],[127.044953,37.308363],[127.045034,37.308256],[127.045476,37.307943],[127.045564,37.307754],[127.045589,37.306084],[127.045556,37.306068],[127.045553,37.30497],[127.045609,37.304756],[127.045845,37.304506],[127.047176,37.303737],[127.047213,37.303729],[127.047231,37.303758],[127.047461,37.303623],[127.047444,37.303575],[127.047556,37.303591],[127.047606,37.303658],[127.047607,37.30478],[127.047748,37.305467],[127.047682,37.305468],[127.047779,37.305655],[127.047737,37.306189],[127.047622,37.306191],[127.047604,37.306233],[127.047637,37.306578],[127.047719,37.306802],[127.047728,37.306987],[127.047649,37.307107],[127.047662,37.307131],[127.047268,37.307299],[127.047171,37.307407],[127.047127,37.307803],[127.047034,37.30819],[127.047025,37.308482],[127.046901,37.309109],[127.046753,37.309365],[127.046579,37.309785],[127.046423,37.309938],[127.046182,37.309987],[127.046058,37.310086],[127.045622,37.311079],[127.045662,37.311252],[127.046232,37.310121],[127.046301,37.310111],[127.046523,37.310189],[127.04661,37.31014],[127.046627,37.310033],[127.046872,37.310074],[127.047002,37.310004],[127.046897,37.309618],[127.047088,37.309188],[127.047047,37.309174],[127.047057,37.309154],[127.047099,37.309168],[127.047109,37.309088],[127.047151,37.309059],[127.047202,37.30883],[127.047231,37.30822],[127.047372,37.307713],[127.047466,37.307433],[127.047527,37.307364],[127.047507,37.307337],[127.047892,37.307158],[127.047971,37.306907],[127.047861,37.306562],[127.047911,37.306552],[127.04791,37.306439],[127.047866,37.306434],[127.04786,37.306358],[127.048006,37.306358],[127.04801,37.305658],[127.047963,37.305454],[127.047876,37.305467],[127.047823,37.305237],[127.047889,37.305237],[127.047799,37.30484],[127.047798,37.304077],[127.047732,37.304106],[127.047731,37.303951],[127.0478,37.303928],[127.047821,37.303317],[127.04805,37.303044],[127.048039,37.302949],[127.04789,37.302798],[127.047878,37.302886],[127.0474,37.30343],[127.045731,37.304417],[127.045565,37.304557],[127.045469,37.304691],[127.045395,37.304913],[127.045388,37.305474],[127.045351,37.305503],[127.045336,37.307382],[127.045306,37.307573],[127.045149,37.307856],[127.044832,37.308131],[127.044685,37.308326],[127.044577,37.308602],[127.044622,37.308653],[127.044583,37.308765],[127.044523,37.308767],[127.044352,37.309257],[127.043992,37.309699],[127.043958,37.309833],[127.043967,37.31012],[127.043921,37.310287],[127.043551,37.310791],[127.043491,37.311009]]]]}},{"type":"Feature","id":"SOCHUN:41110:37400004111020220022UJC2000004000","properties":{"MNUM":"37400004111020220022UJC2000004000","admin_code":"41110","sgg_code":"41110","source_layer":"LSMD_CONT_UJ301","semantic":"sochun","stream_name":"매산천","alias_raw":"매산천"},"geometry":{"type":"MultiPolygon","coordinates":[[[[126.994394,37.255637],[126.99465,37.256316],[126.995518,37.258246],[126.995539,37.258178],[126.995365,37.257693],[126.994481,37.255736],[126.994394,37.255637]]],[[[126.994241,37.255703],[126.99514,37.257814],[126.995276,37.258089],[126.995372,37.258189],[126.994271,37.25564],[126.994241,37.255703]]],[[[126.99558,37.258382],[126.996075,37.259556],[126.996682,37.260176],[126.996826,37.260283],[126.996787,37.260171],[126.996106,37.25953],[126.99558,37.258382]]],[[[126.995863,37.25949],[126.995993,37.259675],[126.996349,37.260027],[126.996555,37.260168],[126.996011,37.259619],[126.995955,37.25953],[126.995863,37.25949]]],[[[126.997134,37.260748],[126.99718,37.260826],[126.997844,37.261457],[126.997134,37.260748]]],[[[126.99723,37.260699],[126.998015,37.261504],[126.99832,37.261777],[126.998253,37.261651],[126.997642,37.261009],[126.99723,37.260699]]],[[[126.999135,37.262362],[126.999515,37.262628],[126.999493,37.262561],[126.999135,37.262362]]],[[[126.998011,37.261631],[126.998248,37.261972],[126.999179,37.262619],[126.999322,37.262694],[126.999437,37.262697],[126.998179,37.261792],[126.998011,37.261631]]]]}},{"type":"Feature","id":"SOCHUN:41110:37400004111020220022UJC2000001001","properties":{"MNUM":"37400004111020220022UJC2000001001","admin_code":"41110","sgg_code":"41110","source_layer":"LSMD_CONT_UJ301","semantic":"sochun"},"geometry":{"type":"MultiPolygon","coordinates":[[[[127.038971,37.310586],[127.039015,37.310651],[127.039078,37.310745],[127.039026,37.310664],[127.038971,37.310586]]],[[[127.040121,37.313039],[127.040163,37.313184],[127.040197,37.313202],[127.040121,37.313039]]]]}},{"type":"Feature","id":"SOCHUN:41110:37400004111020220022UJC1000001001","properties":{"MNUM":"37400004111020220022UJC1000001001","admin_code":"41110","sgg_code":"41110","source_layer":"LSMD_CONT_UJ301","semantic":"sochun"},"geometry":{"type":"Polygon","coordinates":[[[127.038128,37.307714],[127.038201,37.307792],[127.038434,37.308804],[127.038588,37.309186],[127.038771,37.310542],[127.039065,37.311084],[127.039054,37.311673],[127.039098,37.31182],[127.039341,37.312163],[127.039874,37.312606],[127.040088,37.312953],[127.040197,37.313202],[127.0405,37.313464],[127.040555,37.313421],[127.040367,37.3132],[127.040246,37.312905],[127.040063,37.312593],[127.039885,37.312397],[127.039472,37.312078],[127.039244,37.311741],[127.039232,37.311058],[127.039168,37.310889],[127.038932,37.310501],[127.038778,37.309346],[127.038554,37.308734],[127.038357,37.307808],[127.038377,37.307713],[127.040639,37.306119],[127.04354,37.304419],[127.043832,37.304342],[127.044779,37.303832],[127.045272,37.303605],[127.045715,37.303333],[127.046358,37.303018],[127.046669,37.3029],[127.046645,37.302876],[127.047735,37.302599],[127.047706,37.302515],[127.046517,37.302784],[127.045626,37.303228],[127.045184,37.3035],[127.044696,37.303725],[127.043761,37.304227],[127.043465,37.304305],[127.040541,37.30602],[127.038128,37.307714]]]}},{"type":"Feature","id":"SOCHUN:41110:37400004111020220022UJC2000009000","properties":{"MNUM":"37400004111020220022UJC2000009000","admin_code":"41110","sgg_code":"41110","source_layer":"LSMD_CONT_UJ301","semantic":"sochun","stream_name":"일월천","alias_raw":"일월천"},"geometry":{"type":"MultiPolygon","coordinates":[[[[126.963809,37.27737],[126.964062,37.277484],[126.964203,37.277601],[126.964348,37.27795],[126.964536,37.278087],[126.9644,37.277881],[126.964332,37.277638],[126.964258,37.277508],[126.963883,37.277312],[126.963809,37.27737]]],[[[126.963999,37.277084],[126.964047,37.277189],[126.964412,37.277344],[126.964527,37.277534],[126.964661,37.277944],[126.964998,37.278197],[126.965319,37.278328],[126.965448,37.278418],[126.965385,37.278335],[126.964703,37.27782],[126.964451,37.27726],[126.964055,37.277016],[126.963999,37.277084]]],[[[126.966146,37.279444],[126.96641,37.279774],[126.966505,37.279954],[126.966565,37.280138],[126.966605,37.280504],[126.966759,37.28073],[126.967008,37.28085],[126.96702,37.280832],[126.966861,37.280735],[126.96674,37.280534],[126.966682,37.280379],[126.966647,37.28012],[126.966502,37.279715],[126.966406,37.279588],[126.96626,37.279472],[126.966146,37.279444]]],[[[126.965561,37.279326],[126.966054,37.279682],[126.966155,37.279789],[126.966298,37.280061],[126.966382,37.280562],[126.966463,37.280751],[126.966638,37.280945],[126.966839,37.281033],[126.966884,37.281026],[126.966706,37.28096],[126.966472,37.280669],[126.966294,37.279939],[126.966152,37.279749],[126.965561,37.279326]]]]}},{"type":"Feature","id":"SOCHUN:41110:37400004111020220022UJC2000006000","properties":{"MNUM":"37400004111020220022UJC2000006000","admin_code":"41110","sgg_code":"41110","source_layer":"LSMD_CONT_UJ301","semantic":"sochun","stream_name":"창사하천","alias_raw":"창사하천"},"geometry":{"type":"Polygon","coordinates":[[[127.017339,37.327122],[127.017515,37.327342],[127.017695,37.327451],[127.017519,37.32733],[127.017339,37.327122]]]}},{"type":"Feature","id":"SOCHUN:41110:37400004111020220022UJC1000001003","properties":{"MNUM":"37400004111020220022UJC1000001003","admin_code":"41110","sgg_code":"41110","source_layer":"LSMD_CONT_UJ301","semantic":"sochun"},"geometry":{"type":"Polygon","coordinates":[[[127.036645,37.303597],[127.036706,37.303665],[127.036942,37.303576],[127.037121,37.303365],[127.037154,37.303274],[127.037124,37.303025],[127.037166,37.302754],[127.037291,37.302518],[127.037313,37.302542],[127.038264,37.302049],[127.038559,37.302012],[127.03903,37.301817],[127.039615,37.301786],[127.039806,37.301749],[127.040141,37.301631],[127.040397,37.301448],[127.041006,37.301321],[127.041219,37.30116],[127.041372,37.301085],[127.043215,37.301197],[127.043476,37.301165],[127.045847,37.299922],[127.04608,37.299837],[127.046188,37.299821],[127.04657,37.299844],[127.047927,37.300024],[127.048036,37.300068],[127.04806,37.299878],[127.046402,37.299677],[127.046038,37.299697],[127.045747,37.299802],[127.043359,37.301062],[127.04313,37.301093],[127.041289,37.300991],[127.040961,37.301193],[127.040589,37.301233],[127.04043,37.301276],[127.040107,37.301503],[127.039746,37.301661],[127.039011,37.301718],[127.038831,37.301771],[127.038526,37.301916],[127.038227,37.301955],[127.037324,37.302421],[127.037092,37.302617],[127.036983,37.303414],[127.036891,37.303532],[127.036645,37.303597]]]}},{"type":"Feature","id":"SOCHUN:41110:37400004111020220474UJC1000001001","properties":{"MNUM":"37400004111020220474UJC1000001001","admin_code":"41110","sgg_code":"41110","source_layer":"LSMD_CONT_UJ301","semantic":"sochun","stream_name":"이목천","alias_raw":"이목천"},"geometry":{"type":"Polygon","coordinates":[[[126.973735,37.326251],[126.973801,37.326429],[126.973802,37.32663],[126.973846,37.326769],[126.973803,37.326908],[126.973869,37.327029],[126.973827,37.327084],[126.973868,37.327107],[126.973932,37.327064],[126.973833,37.326901],[126.973878,37.32678],[126.97378,37.326239],[126.973916,37.325974],[126.973938,37.325833],[126.974114,37.325621],[126.974182,37.325484],[126.974335,37.324734],[126.974426,37.32465],[126.974474,37.324492],[126.974651,37.32433],[126.974696,37.324226],[126.974977,37.324011],[126.975181,37.323752],[126.975333,37.323661],[126.97561,37.323274],[126.975822,37.323215],[126.976192,37.323026],[126.976268,37.322948],[126.976242,37.32269],[126.976366,37.322488],[126.976406,37.322272],[126.976362,37.321738],[126.976615,37.32155],[126.976714,37.321324],[126.97662,37.320838],[126.976873,37.320426],[126.976939,37.320283],[126.976956,37.320146],[126.976915,37.32],[126.976565,37.319592],[126.976925,37.319393],[126.976964,37.319408],[126.977059,37.319382],[126.977623,37.319172],[126.977811,37.319047],[126.978113,37.318915],[126.978456,37.318671],[126.978737,37.318414],[126.978888,37.318345],[126.978872,37.318328],[126.979538,37.317936],[126.979919,37.317757],[126.980066,37.317538],[126.980203,37.317427],[126.980327,37.317404],[126.980798,37.317449],[126.981066,37.317445],[126.981464,37.317257],[126.981551,37.317166],[126.98159,37.316733],[126.981756,37.316468],[126.98181,37.316143],[126.982375,37.315504],[126.982418,37.315447],[126.982439,37.31532],[126.982309,37.314914],[126.981924,37.314244],[126.981811,37.313962],[126.981851,37.313612],[126.982055,37.313038],[126.982187,37.312353],[126.982242,37.312297],[126.982311,37.312355],[126.982316,37.312319],[126.982002,37.312011],[126.982028,37.312153],[126.981939,37.31282],[126.981886,37.313098],[126.981691,37.313596],[126.981655,37.313919],[126.981737,37.314234],[126.982139,37.314904],[126.982268,37.315366],[126.9822,37.315524],[126.982008,37.315709],[126.981698,37.316088],[126.981518,37.316679],[126.981484,37.317052],[126.981414,37.317173],[126.981178,37.317309],[126.980961,37.317367],[126.980389,37.317304],[126.98017,37.317344],[126.980075,37.317409],[126.979855,37.317703],[126.979456,37.317896],[126.978809,37.31828],[126.978153,37.318814],[126.977916,37.318891],[126.977524,37.319109],[126.97671,37.319429],[126.976474,37.319562],[126.976863,37.320021],[126.976899,37.320148],[126.976821,37.32041],[126.976562,37.320831],[126.976661,37.321184],[126.976639,37.32136],[126.976538,37.321553],[126.976346,37.321693],[126.976314,37.321753],[126.976341,37.321884],[126.976329,37.322399],[126.976207,37.322667],[126.976199,37.322915],[126.976155,37.322992],[126.975891,37.323141],[126.975549,37.323258],[126.975304,37.323636],[126.975135,37.323752],[126.974465,37.324454],[126.974398,37.324634],[126.974277,37.324782],[126.974263,37.324988],[126.974196,37.325159],[126.974146,37.325492],[126.973905,37.32582],[126.973878,37.325965],[126.973765,37.326125],[126.973735,37.326251]]]}},{"type":"Feature","id":"SOCHUN:41110:37400004111020220022UJC1000009000","properties":{"MNUM":"37400004111020220022UJC1000009000","admin_code":"41110","sgg_code":"41110","source_layer":"LSMD_CONT_UJ301","semantic":"sochun","stream_name":"일월천","alias_raw":"일월천"},"geometry":{"type":"Polygon","coordinates":[[[126.963856,37.277183],[126.96399,37.277273],[126.963883,37.277312],[126.964258,37.277508],[126.964332,37.277638],[126.9644,37.277881],[126.964536,37.278087],[126.964952,37.27841],[126.96517,37.278533],[126.965266,37.278641],[126.965336,37.278771],[126.965374,37.279033],[126.965542,37.279286],[126.965688,37.279424],[126.966152,37.279749],[126.966294,37.279939],[126.966441,37.280608],[126.966706,37.28096],[126.967111,37.281072],[126.968212,37.28118],[126.968237,37.281151],[126.970739,37.28179],[126.971221,37.28198],[126.971604,37.282251],[126.971993,37.282682],[126.972903,37.283826],[126.973089,37.284138],[126.97319,37.284467],[126.973161,37.285168],[126.973067,37.285258],[126.972619,37.285371],[126.972039,37.285614],[126.972113,37.285723],[126.972164,37.285705],[126.972196,37.285727],[126.973072,37.285424],[126.973072,37.285364],[126.973148,37.285337],[126.973309,37.285185],[126.973355,37.284546],[126.973255,37.284135],[126.973034,37.283777],[126.972175,37.282678],[126.97172,37.282152],[126.97132,37.281872],[126.970849,37.281681],[126.968255,37.281057],[126.968241,37.281017],[126.966997,37.280866],[126.967008,37.28085],[126.966759,37.28073],[126.966605,37.280504],[126.966565,37.280138],[126.96641,37.279774],[126.966178,37.279466],[126.965817,37.279227],[126.965689,37.27893],[126.965652,37.278659],[126.965544,37.278483],[126.96535,37.278344],[126.964998,37.278197],[126.964661,37.277944],[126.964516,37.277509],[126.964397,37.277331],[126.964047,37.277189],[126.964015,37.277059],[126.963856,37.277183]]]}},{"type":"Feature","id":"SOCHUN:41110:37400004111020220022UJC1000004000","properties":{"MNUM":"37400004111020220022UJC1000004000","admin_code":"41110","sgg_code":"41110","source_layer":"LSMD_CONT_UJ301","semantic":"sochun","stream_name":"매산천","alias_raw":"매산천"},"geometry":{"type":"Polygon","coordinates":[[[126.994198,37.254981],[126.994276,37.255686],[126.995468,37.258451],[126.995236,37.258595],[126.995231,37.258645],[126.995698,37.259126],[126.995863,37.25949],[126.995955,37.25953],[126.996011,37.259619],[126.998179,37.261792],[127.00002,37.263115],[127.000087,37.263056],[127.000068,37.263018],[126.998261,37.261736],[126.996075,37.259556],[126.994528,37.256026],[126.994399,37.255686],[126.994317,37.254965],[126.99424,37.255002],[126.994198,37.254981]]]}},{"type":"Feature","id":"SOCHUN:41110:37400004111020220022UJC1000010000","properties":{"MNUM":"37400004111020220022UJC1000010000","admin_code":"41110","sgg_code":"41110","source_layer":"LSMD_CONT_UJ301","semantic":"sochun","stream_name":"율전천","alias_raw":"율전천"},"geometry":{"type":"Polygon","coordinates":[[[126.97033,37.306277],[126.970389,37.306341],[126.970395,37.306424],[126.970492,37.306602],[126.970725,37.306762],[126.970949,37.306757],[126.971086,37.306629],[126.971235,37.306587],[126.971473,37.306645],[126.971517,37.306856],[126.971562,37.306897],[126.971527,37.306974],[126.971602,37.307131],[126.971569,37.307293],[126.971589,37.307471],[126.971645,37.307524],[126.971684,37.307519],[126.971696,37.307581],[126.971665,37.307707],[126.971554,37.307848],[126.971548,37.308033],[126.971397,37.308155],[126.971312,37.308367],[126.971329,37.308502],[126.971264,37.308632],[126.971297,37.308813],[126.971175,37.309154],[126.971191,37.309344],[126.971111,37.309558],[126.971091,37.309753],[126.970982,37.309918],[126.971053,37.310058],[126.971016,37.310193],[126.971032,37.310321],[126.971119,37.310458],[126.971166,37.310626],[126.971055,37.310864],[126.971101,37.311015],[126.971031,37.311203],[126.971015,37.311477],[126.970795,37.311863],[126.97096,37.311905],[126.970992,37.311687],[126.971166,37.311297],[126.971211,37.310837],[126.971288,37.310752],[126.971246,37.310381],[126.971138,37.310294],[126.971105,37.310185],[126.97121,37.309512],[126.971303,37.309423],[126.971349,37.309078],[126.971387,37.309042],[126.971358,37.308968],[126.97145,37.30877],[126.971389,37.308663],[126.971403,37.308597],[126.971515,37.308313],[126.971524,37.308209],[126.971663,37.307993],[126.971668,37.307818],[126.971739,37.307758],[126.971778,37.307657],[126.971798,37.307573],[126.971707,37.307361],[126.971805,37.307052],[126.9716,37.306852],[126.97166,37.306559],[126.971655,37.306354],[126.97159,37.306146],[126.971504,37.30608],[126.971287,37.306097],[126.970979,37.306199],[126.970692,37.3062],[126.97033,37.306277]]]}},{"type":"Feature","id":"SOCHUN:41110:37400004111020220022UJC1000006000","properties":{"MNUM":"37400004111020220022UJC1000006000","admin_code":"41110","sgg_code":"41110","source_layer":"LSMD_CONT_UJ301","semantic":"sochun","stream_name":"창사하천","alias_raw":"창사하천"},"geometry":{"type":"Polygon","coordinates":[[[127.014968,37.325804],[127.015078,37.325861],[127.015341,37.326236],[127.015946,37.326645],[127.016117,37.326669],[127.016361,37.326625],[127.016482,37.32654],[127.016464,37.326493],[127.016496,37.326456],[127.016887,37.326625],[127.017146,37.326959],[127.017573,37.327375],[127.017761,37.327482],[127.018544,37.327813],[127.018653,37.327953],[127.018792,37.328055],[127.018847,37.328277],[127.019117,37.328546],[127.019383,37.328734],[127.019589,37.328793],[127.020162,37.329075],[127.020166,37.329036],[127.020421,37.329055],[127.020577,37.329121],[127.021152,37.32927],[127.021662,37.32927],[127.022332,37.32945],[127.022529,37.329416],[127.022577,37.329446],[127.022598,37.329511],[127.022566,37.329612],[127.02263,37.329665],[127.022655,37.329776],[127.022685,37.329779],[127.022703,37.329653],[127.02278,37.329545],[127.022666,37.329378],[127.022542,37.329319],[127.022346,37.329336],[127.022214,37.329291],[127.021883,37.329264],[127.021585,37.329175],[127.021297,37.329176],[127.020943,37.329104],[127.020668,37.329001],[127.020289,37.328952],[127.019447,37.328629],[127.019039,37.328259],[127.018915,37.327975],[127.018702,37.327786],[127.017873,37.327391],[127.017672,37.327264],[127.017214,37.326787],[127.016646,37.326354],[127.016515,37.326361],[127.016196,37.32656],[127.015982,37.326551],[127.015433,37.326197],[127.015133,37.325808],[127.014978,37.325748],[127.014968,37.325804]]]}},{"type":"Feature","id":"SOCHUN:41110:37400004111020220022UJC2000010000","properties":{"MNUM":"37400004111020220022UJC2000010000","admin_code":"41110","sgg_code":"41110","source_layer":"LSMD_CONT_UJ301","semantic":"sochun","stream_name":"율전천","alias_raw":"율전천"},"geometry":{"type":"MultiPolygon","coordinates":[[[[126.970393,37.306247],[126.970448,37.306263],[126.970692,37.3062],[126.970979,37.306199],[126.971364,37.30608],[126.971459,37.306073],[126.971549,37.306104],[126.97161,37.306184],[126.971655,37.306354],[126.97166,37.306559],[126.9716,37.306852],[126.97165,37.306918],[126.971697,37.306385],[126.971635,37.306154],[126.971557,37.306069],[126.971407,37.306041],[126.970955,37.306171],[126.970671,37.306175],[126.970393,37.306247]]],[[[126.970345,37.306323],[126.970371,37.306509],[126.970485,37.306664],[126.970601,37.30675],[126.970765,37.306807],[126.970909,37.306806],[126.970999,37.306776],[126.97112,37.306659],[126.971265,37.306624],[126.971446,37.306702],[126.971529,37.306973],[126.971562,37.306897],[126.971517,37.306856],[126.971473,37.306645],[126.971235,37.306587],[126.971086,37.306629],[126.970949,37.306757],[126.970725,37.306762],[126.970519,37.306634],[126.970408,37.306457],[126.970389,37.306341],[126.970345,37.306291],[126.970345,37.306323]]],[[[126.971175,37.309154],[126.971297,37.308813],[126.971264,37.308632],[126.971329,37.308502],[126.971312,37.308367],[126.971397,37.308155],[126.971548,37.308033],[126.971554,37.307848],[126.971695,37.307644],[126.971684,37.307519],[126.971645,37.307524],[126.971618,37.307679],[126.971521,37.307805],[126.971521,37.307993],[126.971383,37.308127],[126.971231,37.308458],[126.971257,37.30887],[126.971175,37.309154]]],[[[126.97099,37.311528],[126.971008,37.311496],[126.971015,37.311477],[126.971025,37.311429],[126.971033,37.3114],[126.971028,37.311395],[126.971026,37.311373],[126.971017,37.311391],[126.971011,37.311448],[126.97099,37.311528]]],[[[126.971055,37.310864],[126.971068,37.311116],[126.9711,37.310966],[126.971055,37.310864]]],[[[126.970954,37.310146],[126.971105,37.310601],[126.971098,37.310786],[126.971166,37.310626],[126.971119,37.310458],[126.971032,37.310321],[126.971016,37.310193],[126.971053,37.310058],[126.970981,37.309942],[126.970954,37.310146]]],[[[126.970988,37.309903],[126.971091,37.309753],[126.971185,37.309317],[126.971026,37.309674],[126.970988,37.309903]]],[[[126.971607,37.308092],[126.971672,37.308055],[126.971663,37.307993],[126.971607,37.308092]]]]}},{"type":"Feature","id":"SOCHUN:41110:37400004111020220022UJC2000008000","properties":{"MNUM":"37400004111020220022UJC2000008000","admin_code":"41110","sgg_code":"41110","source_layer":"LSMD_CONT_UJ301","semantic":"sochun","stream_name":"문암골천","alias_raw":"문암골천"},"geometry":{"type":"Polygon","coordinates":[[[127.027699,37.309194],[127.028272,37.310004],[127.028392,37.310058],[127.027782,37.309175],[127.027705,37.309129],[127.027699,37.309194]]]}},{"type":"Feature","id":"SOCHUN:41110:37400004111020220022UJC1000003000","properties":{"MNUM":"37400004111020220022UJC1000003000","admin_code":"41110","sgg_code":"41110","source_layer":"LSMD_CONT_UJ301","semantic":"sochun","stream_name":"조원천","alias_raw":"조원천"},"geometry":{"type":"Polygon","coordinates":[[[127.013485,37.307807],[127.013548,37.30796],[127.013621,37.308027],[127.01369,37.308029],[127.013728,37.308088],[127.013766,37.308503],[127.013943,37.308835],[127.014116,37.308966],[127.014238,37.309344],[127.014288,37.309388],[127.014516,37.309451],[127.014722,37.310014],[127.014833,37.310478],[127.014993,37.310627],[127.01522,37.311324],[127.015159,37.311502],[127.015185,37.311706],[127.015261,37.311867],[127.015289,37.31187],[127.015338,37.312096],[127.014937,37.312302],[127.014764,37.312527],[127.0146,37.312655],[127.014642,37.312673],[127.014794,37.312567],[127.015039,37.312308],[127.01532,37.31218],[127.015394,37.312088],[127.015394,37.31198],[127.015217,37.311438],[127.015244,37.311258],[127.014629,37.309383],[127.014337,37.30929],[127.014209,37.308918],[127.014053,37.308834],[127.013938,37.308665],[127.013901,37.308548],[127.013835,37.308501],[127.01387,37.308077],[127.013668,37.307818],[127.013864,37.307279],[127.013713,37.306724],[127.013648,37.306698],[127.013601,37.306711],[127.013536,37.306794],[127.013648,37.307133],[127.013649,37.307354],[127.013485,37.307807]]]}},{"type":"Feature","id":"SOCHUN:41110:37400004111020220022UJC1000002000","properties":{"MNUM":"37400004111020220022UJC1000002000","admin_code":"41110","sgg_code":"41110","source_layer":"LSMD_CONT_UJ301","semantic":"sochun","stream_name":"송죽천","alias_raw":"송죽천"},"geometry":{"type":"Polygon","coordinates":[[[127.003755,37.309018],[127.00382,37.309218],[127.004225,37.309572],[127.00431,37.309815],[127.004434,37.309914],[127.004958,37.310043],[127.005074,37.310235],[127.005317,37.310456],[127.005689,37.311061],[127.006607,37.311639],[127.006791,37.311973],[127.007132,37.312401],[127.007661,37.312955],[127.008167,37.313011],[127.008661,37.31317],[127.008743,37.313264],[127.0088,37.313427],[127.008756,37.313544],[127.00873,37.313918],[127.008773,37.314037],[127.008686,37.314279],[127.008746,37.314409],[127.008711,37.31461],[127.008752,37.314824],[127.008711,37.314898],[127.008557,37.314976],[127.008546,37.315042],[127.008547,37.315102],[127.008663,37.315193],[127.008676,37.315256],[127.008506,37.31532],[127.008399,37.315305],[127.008335,37.315329],[127.008164,37.315498],[127.008111,37.315604],[127.008038,37.315637],[127.007944,37.3158],[127.007847,37.315796],[127.007717,37.315883],[127.007663,37.315859],[127.007531,37.315869],[127.007536,37.315908],[127.007779,37.315929],[127.007799,37.315885],[127.007878,37.315844],[127.007985,37.315859],[127.00805,37.315733],[127.008194,37.315614],[127.008209,37.315552],[127.008331,37.315436],[127.008449,37.315402],[127.00849,37.315348],[127.008607,37.315378],[127.008712,37.315261],[127.008694,37.315178],[127.008595,37.315079],[127.00862,37.315002],[127.008744,37.314923],[127.008795,37.31483],[127.008759,37.314617],[127.008791,37.314394],[127.00874,37.314303],[127.008819,37.314051],[127.008802,37.313818],[127.008858,37.313432],[127.008821,37.313265],[127.008656,37.31312],[127.008344,37.313028],[127.008203,37.312873],[127.007968,37.312925],[127.007635,37.312871],[127.0072,37.312389],[127.007212,37.312367],[127.006811,37.311818],[127.006746,37.311789],[127.006659,37.311622],[127.00581,37.311088],[127.005779,37.310875],[127.005021,37.309975],[127.004934,37.309932],[127.004561,37.309898],[127.004402,37.309801],[127.004275,37.30954],[127.00384,37.30912],[127.00387,37.308655],[127.003795,37.308709],[127.003755,37.309018]]]}},{"type":"Feature","id":"SOCHUN:41110:37400004111020220022UJC2000002000","properties":{"MNUM":"37400004111020220022UJC2000002000","admin_code":"41110","sgg_code":"41110","source_layer":"LSMD_CONT_UJ301","semantic":"sochun","stream_name":"송죽천","alias_raw":"송죽천"},"geometry":{"type":"MultiPolygon","coordinates":[[[[127.00383,37.309033],[127.003869,37.309146],[127.003871,37.309016],[127.00383,37.309033]]],[[[127.004762,37.309997],[127.004925,37.310073],[127.005052,37.31027],[127.00535,37.310509],[127.005074,37.310235],[127.004958,37.310043],[127.004762,37.309997]]],[[[127.008198,37.315452],[127.008335,37.315329],[127.008399,37.315305],[127.008506,37.31532],[127.008676,37.315256],[127.008663,37.315193],[127.008547,37.315102],[127.008546,37.315042],[127.008557,37.314976],[127.008711,37.314898],[127.008752,37.314827],[127.008711,37.31461],[127.008746,37.314409],[127.008686,37.314279],[127.00872,37.314146],[127.008637,37.314206],[127.008619,37.314272],[127.00865,37.314478],[127.008627,37.314633],[127.008663,37.314776],[127.00863,37.314844],[127.008507,37.314919],[127.00848,37.314987],[127.008487,37.315104],[127.008604,37.315238],[127.008324,37.315287],[127.00822,37.315383],[127.008198,37.315452]]],[[[127.003732,37.309066],[127.003743,37.309158],[127.003788,37.309174],[127.003755,37.309018],[127.003732,37.309066]]],[[[127.008278,37.31548],[127.008315,37.315457],[127.008366,37.31543],[127.008331,37.315436],[127.008278,37.31548]]],[[[127.008449,37.315402],[127.008607,37.315378],[127.00849,37.315348],[127.008449,37.315402]]]]}},{"type":"Feature","id":"SOCHUN:41110:37400004111020210413UJC2000011000","properties":{"MNUM":"37400004111020210413UJC2000011000","admin_code":"41110","sgg_code":"41110","source_layer":"LSMD_CONT_UJ301","semantic":"sochun","stream_name":"당수천","alias_raw":"당수천"},"geometry":{"type":"MultiPolygon","coordinates":[[[[126.936983,37.280638],[126.93752,37.280704],[126.937948,37.28088],[126.938457,37.280867],[126.938495,37.280916],[126.938705,37.281026],[126.93879,37.281043],[126.938929,37.28101],[126.939332,37.281173],[126.93946,37.281168],[126.939676,37.281041],[126.940017,37.281041],[126.940208,37.280945],[126.940322,37.281033],[126.940552,37.281096],[126.940648,37.281223],[126.940626,37.281141],[126.94033,37.281006],[126.94028,37.280887],[126.939978,37.281036],[126.939636,37.281014],[126.939501,37.281131],[126.939233,37.281086],[126.938928,37.280973],[126.938754,37.281026],[126.93851,37.280905],[126.938469,37.280808],[126.938331,37.280852],[126.93794,37.28087],[126.93751,37.280657],[126.936983,37.280638]]],[[[126.936873,37.280623],[126.936983,37.280638],[126.936674,37.280529],[126.936628,37.280473],[126.936312,37.28032],[126.936157,37.280262],[126.935893,37.280252],[126.935639,37.280149],[126.935885,37.280258],[126.936148,37.280279],[126.93667,37.280568],[126.936873,37.280623]]],[[[126.934645,37.279753],[126.934747,37.27983],[126.934934,37.279836],[126.935249,37.280025],[126.935626,37.280137],[126.93554,37.280068],[126.935382,37.280058],[126.935364,37.280021],[126.934966,37.279815],[126.934779,37.279791],[126.934751,37.279814],[126.934645,37.279753]]],[[[126.93455,37.279649],[126.934645,37.279753],[126.934437,37.279453],[126.934215,37.279308],[126.933493,37.279142],[126.933651,37.279203],[126.934208,37.279331],[126.934394,37.27947],[126.93455,37.279649]]],[[[126.941022,37.281165],[126.941061,37.281142],[126.940834,37.281114],[126.940817,37.281154],[126.941022,37.281165]]],[[[126.940648,37.281223],[126.940772,37.28127],[126.94098,37.281292],[126.940993,37.281268],[126.940648,37.281223]]]]}},{"type":"Feature","id":"SOCHUN:41110:37400004111020210413UJC1000011000","properties":{"MNUM":"37400004111020210413UJC1000011000","admin_code":"41110","sgg_code":"41110","source_layer":"LSMD_CONT_UJ301","semantic":"sochun","stream_name":"당수천","alias_raw":"당수천"},"geometry":{"type":"Polygon","coordinates":[[[126.952939,37.282879],[126.952732,37.282782],[126.952534,37.28251],[126.952265,37.282415],[126.951854,37.282426],[126.951345,37.282483],[126.951034,37.28235],[126.950949,37.282394],[126.950791,37.282382],[126.95024,37.282485],[126.949965,37.282501],[126.949928,37.282527],[126.949351,37.282531],[126.949199,37.282458],[126.949032,37.28243],[126.948918,37.282112],[126.948756,37.281907],[126.948429,37.28173],[126.948206,37.281665],[126.947969,37.281657],[126.947375,37.281758],[126.947119,37.281774],[126.94607,37.281651],[126.945394,37.281527],[126.944783,37.281578],[126.944687,37.281561],[126.944076,37.281295],[126.943617,37.281251],[126.943387,37.281275],[126.943112,37.281368],[126.942749,37.281417],[126.942275,37.28154],[126.942072,37.281552],[126.941511,37.281441],[126.94105,37.28116],[126.940732,37.281139],[126.940588,37.281019],[126.940354,37.280943],[126.940344,37.280851],[126.940276,37.2808],[126.940072,37.280882],[126.939961,37.280967],[126.939666,37.28094],[126.939432,37.281066],[126.939229,37.281028],[126.93894,37.280917],[126.938768,37.280964],[126.938588,37.280868],[126.938562,37.280803],[126.93851,37.280774],[126.938071,37.280809],[126.937609,37.280607],[126.937405,37.280605],[126.937048,37.280561],[126.936958,37.280511],[126.936777,37.280512],[126.936547,37.280341],[126.936423,37.2803],[126.936387,37.280202],[126.935872,37.280154],[126.935676,37.280024],[126.935357,37.279968],[126.935009,37.279763],[126.934788,37.279752],[126.934489,37.279429],[126.93428,37.279259],[126.933515,37.279079],[126.933493,37.279142],[126.934215,37.279308],[126.934278,37.279369],[126.934403,37.27942],[126.934645,37.279753],[126.934751,37.279814],[126.934779,37.279791],[126.934966,37.279815],[126.935364,37.280021],[126.935382,37.280058],[126.93554,37.280068],[126.935639,37.280149],[126.935893,37.280252],[126.936157,37.280262],[126.936312,37.28032],[126.93684,37.280601],[126.936983,37.280638],[126.93751,37.280657],[126.93794,37.28087],[126.938331,37.280852],[126.938469,37.280808],[126.93851,37.280905],[126.938754,37.281026],[126.938928,37.280973],[126.939233,37.281086],[126.939501,37.281131],[126.939636,37.281014],[126.939978,37.281036],[126.94028,37.280887],[126.94033,37.281006],[126.940626,37.281141],[126.940648,37.281223],[126.940993,37.281268],[126.941009,37.281238],[126.941139,37.281328],[126.941126,37.281351],[126.941423,37.281547],[126.942041,37.281679],[126.942433,37.28167],[126.94281,37.281573],[126.943174,37.281523],[126.943445,37.281431],[126.943611,37.281413],[126.943866,37.281425],[126.944089,37.281471],[126.944585,37.281703],[126.944747,37.281738],[126.945398,37.281691],[126.946037,37.281811],[126.947169,37.281946],[126.948003,37.281826],[126.948136,37.281829],[126.948325,37.28188],[126.948617,37.282039],[126.948715,37.282167],[126.948822,37.28247],[126.948883,37.282554],[126.948988,37.282603],[126.949323,37.282678],[126.949341,37.282607],[126.949932,37.282618],[126.949927,37.282664],[126.950198,37.282631],[126.950202,37.2826],[126.950662,37.282517],[126.950659,37.28256],[126.950869,37.282528],[126.950982,37.282555],[126.951181,37.282667],[126.951347,37.282701],[126.951895,37.282631],[126.952299,37.282629],[126.952565,37.282936],[126.952701,37.283015],[126.952868,37.283065],[126.952875,37.283013],[126.952991,37.283033],[126.953012,37.282928],[126.952934,37.282918],[126.952939,37.282879]]]}},{"type":"Feature","id":"SOCHUN:41110:37400004111020240334UJC1000019000","properties":{"MNUM":"37400004111020240334UJC1000019000","admin_code":"41110","sgg_code":"41110","source_layer":"LSMD_CONT_UJ301","semantic":"sochun"},"geometry":{"type":"Polygon","coordinates":[[[126.938366,37.266397],[126.938442,37.266436],[126.938616,37.266643],[126.938554,37.266683],[126.938586,37.266755],[126.938715,37.266794],[126.939037,37.267016],[126.939219,37.267241],[126.939178,37.267266],[126.939274,37.267377],[126.939332,37.267364],[126.939376,37.267419],[126.939545,37.267446],[126.939916,37.267583],[126.940379,37.26831],[126.940501,37.268559],[126.940687,37.269103],[126.941042,37.269525],[126.941395,37.270109],[126.941718,37.270516],[126.941723,37.270619],[126.941827,37.270749],[126.942006,37.270801],[126.942475,37.271105],[126.942766,37.271241],[126.943172,37.271304],[126.943826,37.271261],[126.944247,37.271294],[126.945195,37.271494],[126.946196,37.271886],[126.94648,37.271923],[126.946974,37.27189],[126.947209,37.271901],[126.948103,37.272139],[126.949015,37.272152],[126.94942,37.272126],[126.94969,37.272151],[126.949933,37.27224],[126.950356,37.272462],[126.950626,37.272502],[126.951114,37.272504],[126.951906,37.272298],[126.952022,37.272294],[126.952226,37.272308],[126.953336,37.272585],[126.954261,37.272709],[126.955556,37.272951],[126.955875,37.272907],[126.956371,37.272765],[126.956744,37.272744],[126.956936,37.272808],[126.957122,37.272957],[126.957245,37.27335],[126.95738,37.273559],[126.957541,37.273659],[126.957826,37.27377],[126.95807,37.273819],[126.958115,37.273898],[126.958595,37.274028],[126.958606,37.273997],[126.958971,37.273966],[126.959216,37.273905],[126.959848,37.273662],[126.960358,37.273396],[126.96047,37.273405],[126.960855,37.273226],[126.960697,37.273005],[126.96054,37.273057],[126.960501,37.273081],[126.960518,37.273105],[126.960118,37.273248],[126.959691,37.273474],[126.958911,37.273741],[126.958411,37.273739],[126.957924,37.273623],[126.957819,37.273555],[126.957706,37.273572],[126.957553,37.273499],[126.957414,37.273322],[126.957345,37.273023],[126.957253,37.27285],[126.957119,37.272726],[126.956778,37.27261],[126.956355,37.272622],[126.955807,37.272781],[126.955497,37.272797],[126.954318,37.272572],[126.953183,37.272408],[126.952276,37.272168],[126.952005,37.27214],[126.951617,37.272201],[126.95113,37.272337],[126.950698,37.272354],[126.950393,37.272295],[126.950037,37.272116],[126.949749,37.272018],[126.948701,37.271983],[126.948258,37.272014],[126.947227,37.271754],[126.947063,37.27174],[126.946521,37.27177],[126.946206,37.271735],[126.945953,37.271652],[126.945483,37.271437],[126.944969,37.271269],[126.944319,37.271159],[126.943835,37.271118],[126.943146,37.271161],[126.942842,37.271106],[126.9427,37.271051],[126.941944,37.270577],[126.941469,37.270005],[126.941216,37.269561],[126.940799,37.269048],[126.940557,37.268387],[126.940228,37.267799],[126.940166,37.267752],[126.94025,37.267729],[126.940246,37.267702],[126.940014,37.267544],[126.940023,37.267495],[126.939855,37.267449],[126.939501,37.267248],[126.939404,37.267023],[126.93891,37.266703],[126.938936,37.266617],[126.938807,37.266432],[126.938583,37.266261],[126.938366,37.266397]]]}},{"type":"Feature","id":"SOCHUN:41110:37400004111020200410UJC2000001000","properties":{"MNUM":"37400004111020200410UJC2000001000","admin_code":"41110","sgg_code":"41110","source_layer":"LSMD_CONT_UJ301","semantic":"sochun","stream_name":"웃파장천","alias_raw":"웃파장천"},"geometry":{"type":"MultiPolygon","coordinates":[[[[126.999582,37.312402],[126.999564,37.312395],[126.999607,37.312419],[126.999705,37.312446],[126.999691,37.312441],[126.999582,37.312402]]],[[[127.000002,37.312536],[126.999917,37.312511],[127.000189,37.312724],[127.000111,37.312596],[127.000002,37.312536]]],[[[127.002608,37.316677],[127.002667,37.316618],[127.002705,37.316389],[127.002675,37.316161],[127.002631,37.316085],[127.002664,37.316433],[127.00258,37.316659],[127.002608,37.316677]]],[[[127.002753,37.316674],[127.002827,37.316423],[127.002787,37.316131],[127.002744,37.316113],[127.002786,37.316444],[127.002759,37.316604],[127.002681,37.316745],[127.002753,37.316674]]],[[[127.002766,37.316986],[127.002701,37.316972],[127.002702,37.316997],[127.002755,37.317009],[127.002766,37.316986]]]]}},{"type":"Feature","id":"SOCHUN:41110:37400004111020220475UJC2000001001","properties":{"MNUM":"37400004111020220475UJC2000001001","admin_code":"41110","sgg_code":"41110","source_layer":"LSMD_CONT_UJ301","semantic":"sochun","stream_name":"이목천","alias_raw":"이목천"},"geometry":{"type":"MultiPolygon","coordinates":[[[[126.98174,37.316051],[126.981741,37.316052],[126.981741,37.316053],[126.98175,37.316051],[126.982002,37.315723],[126.982002,37.315723],[126.98174,37.316051]]],[[[126.98181,37.316144],[126.981817,37.316154],[126.981889,37.316066],[126.982079,37.315827],[126.982071,37.315818],[126.981865,37.316075],[126.98181,37.316143],[126.98181,37.316144]]],[[[126.981345,37.316678],[126.98139,37.31673],[126.981433,37.316726],[126.981506,37.316777],[126.981526,37.316697],[126.981455,37.316597],[126.981387,37.316586],[126.981345,37.316678]]],[[[126.981574,37.31681],[126.981585,37.316861],[126.981711,37.316903],[126.98176,37.316854],[126.981591,37.316736],[126.981758,37.316477],[126.981792,37.31637],[126.981775,37.316298],[126.981756,37.316468],[126.981611,37.316685],[126.981574,37.31681]]],[[[126.981305,37.317183],[126.981361,37.317209],[126.98139,37.317194],[126.981305,37.317183]]],[[[126.981484,37.317239],[126.981498,37.317242],[126.981499,37.317239],[126.981518,37.317243],[126.981522,37.317234],[126.981523,37.317231],[126.981504,37.317226],[126.981505,37.317222],[126.981502,37.317221],[126.981501,37.317221],[126.981498,37.317225],[126.981497,37.317226],[126.981488,37.317234],[126.981484,37.317239]]],[[[126.978872,37.318328],[126.978888,37.318345],[126.979514,37.317981],[126.979939,37.317773],[126.980165,37.317499],[126.980254,37.317445],[126.980364,37.31743],[126.980741,37.317484],[126.980942,37.317482],[126.981027,37.317534],[126.981073,37.317489],[126.981011,37.317446],[126.980327,37.317404],[126.980203,37.317427],[126.980066,37.317538],[126.979919,37.317757],[126.979538,37.317936],[126.978872,37.318328]]],[[[126.978108,37.31883],[126.978809,37.31828],[126.979456,37.317896],[126.979855,37.317703],[126.980144,37.317359],[126.980245,37.317316],[126.980389,37.317304],[126.980887,37.317361],[126.980799,37.317304],[126.980854,37.317247],[126.980805,37.317215],[126.980626,37.317303],[126.980281,37.317271],[126.980095,37.317332],[126.979985,37.317421],[126.979816,37.317643],[126.979395,37.31785],[126.978639,37.318288],[126.978317,37.318574],[126.978288,37.318674],[126.978108,37.31883]]],[[[126.978146,37.318894],[126.978217,37.318869],[126.978412,37.318699],[126.978146,37.318894]]],[[[126.976565,37.319592],[126.976745,37.319528],[126.976905,37.319421],[126.976565,37.319592]]],[[[126.976884,37.320401],[126.976938,37.320294],[126.976956,37.320146],[126.976884,37.320401]]],[[[126.976619,37.321544],[126.976692,37.321428],[126.9767,37.321354],[126.976619,37.321544]]],[[[126.976025,37.322996],[126.976069,37.323038],[126.976155,37.322992],[126.976199,37.322915],[126.976207,37.322667],[126.976329,37.322399],[126.976341,37.321884],[126.976314,37.321753],[126.976346,37.321693],[126.976538,37.321553],[126.976639,37.32136],[126.976661,37.321184],[126.976562,37.320831],[126.976883,37.320274],[126.976899,37.320148],[126.976863,37.320021],[126.976474,37.319562],[126.976848,37.320045],[126.976884,37.320206],[126.976832,37.320363],[126.976547,37.320837],[126.976562,37.320904],[126.976529,37.32091],[126.9766,37.321282],[126.976583,37.321352],[126.976525,37.32134],[126.9765,37.321407],[126.976564,37.321424],[126.976553,37.321448],[126.976346,37.321662],[126.9763,37.32178],[126.976219,37.32178],[126.97622,37.321853],[126.976302,37.321853],[126.976295,37.322388],[126.976216,37.322574],[126.976153,37.322546],[126.976107,37.322624],[126.976081,37.322903],[126.976025,37.322996]]],[[[126.975798,37.323187],[126.975804,37.323185],[126.975891,37.323141],[126.975991,37.323081],[126.975833,37.323169],[126.975815,37.323179],[126.975812,37.32318],[126.97581,37.323182],[126.975808,37.323182],[126.975808,37.323183],[126.975805,37.323184],[126.975803,37.323185],[126.975801,37.323186],[126.975798,37.323187]]],[[[126.976212,37.323012],[126.97629,37.323191],[126.976349,37.323167],[126.976281,37.322767],[126.976406,37.322418],[126.976412,37.32175],[126.976615,37.32155],[126.976362,37.321738],[126.976406,37.322272],[126.976366,37.322488],[126.976242,37.32269],[126.97627,37.322942],[126.976212,37.323012]]],[[[126.97378,37.326239],[126.973873,37.326737],[126.973856,37.32684],[126.97395,37.326775],[126.973897,37.326294],[126.973912,37.326136],[126.974067,37.325821],[126.974279,37.325517],[126.97441,37.324812],[126.974515,37.324687],[126.974558,37.324501],[126.974706,37.324374],[126.974782,37.324249],[126.975047,37.324043],[126.975237,37.323803],[126.975409,37.323678],[126.975645,37.323336],[126.975728,37.323301],[126.97571,37.323259],[126.975835,37.323222],[126.976182,37.323017],[126.975822,37.323215],[126.97561,37.323274],[126.975333,37.323661],[126.975181,37.323752],[126.974977,37.324011],[126.974708,37.324215],[126.974651,37.32433],[126.974501,37.324454],[126.974426,37.32465],[126.974305,37.324804],[126.974297,37.324983],[126.97423,37.325151],[126.97417,37.325514],[126.973938,37.325833],[126.973916,37.325974],[126.97378,37.326239]]],[[[126.978456,37.318671],[126.978516,37.318666],[126.978829,37.318383],[126.978625,37.3185],[126.978456,37.318671]]]]}},{"type":"Feature","id":"SOCHUN:41110:37400004111020200410UJC1000001000","properties":{"MNUM":"37400004111020200410UJC1000001000","admin_code":"41110","sgg_code":"41110","source_layer":"LSMD_CONT_UJ301","semantic":"sochun"},"geometry":{"type":"Polygon","coordinates":[[[127.001816,37.31433],[127.001661,37.314277],[127.001451,37.314053],[127.001309,37.314044],[127.000714,37.313538],[127.0007,37.313478],[127.000478,37.313314],[127.000412,37.313191],[127.000404,37.313053],[127.000317,37.312973],[127.000249,37.312809],[126.999954,37.312524],[126.999607,37.312419],[126.999415,37.312289],[126.998987,37.312284],[126.998984,37.312358],[126.9993,37.312387],[126.999375,37.312462],[126.999602,37.312537],[126.999669,37.312598],[126.999803,37.312593],[126.99997,37.312657],[127.000111,37.312791],[127.000193,37.312982],[127.00028,37.313065],[127.000316,37.313258],[127.000587,37.31355],[127.000853,37.313795],[127.001125,37.313973],[127.00116,37.314036],[127.001231,37.314052],[127.001298,37.314131],[127.001433,37.314187],[127.001655,37.314375],[127.001768,37.314391],[127.001974,37.314874],[127.001925,37.314928],[127.00219,37.315171],[127.002339,37.315356],[127.002675,37.316161],[127.002705,37.316389],[127.002667,37.316618],[127.002608,37.316677],[127.002483,37.316657],[127.002413,37.316704],[127.00245,37.316915],[127.002664,37.317121],[127.002743,37.31729],[127.002884,37.317464],[127.002975,37.317687],[127.003064,37.317763],[127.003105,37.317908],[127.003262,37.317952],[127.003334,37.318035],[127.00335,37.318132],[127.003448,37.318224],[127.003503,37.318368],[127.003445,37.318422],[127.003419,37.318542],[127.003485,37.318693],[127.003859,37.319038],[127.003893,37.319142],[127.004,37.31912],[127.003988,37.319036],[127.003737,37.318752],[127.003502,37.318624],[127.003485,37.318469],[127.003556,37.318302],[127.00352,37.318154],[127.003012,37.317201],[127.002774,37.317005],[127.002702,37.316997],[127.002629,37.316894],[127.002685,37.316704],[127.002759,37.316604],[127.002786,37.316444],[127.002744,37.316113],[127.002797,37.316133],[127.002892,37.316063],[127.002876,37.316016],[127.00278,37.315947],[127.002677,37.315942],[127.002645,37.315895],[127.002581,37.315448],[127.002245,37.315074],[127.002091,37.314833],[127.001915,37.314436],[127.001816,37.31433]]]}},{"type":"Feature","id":"SOCHUN:41110:37400004111020200410UJC2000001001","properties":{"MNUM":"37400004111020200410UJC2000001001","admin_code":"41110","sgg_code":"41110","source_layer":"LSMD_CONT_UJ301","semantic":"sochun"},"geometry":{"type":"Polygon","coordinates":[[[126.95987,37.273651],[126.959126,37.273933],[126.958605,37.274],[126.959117,37.273948],[126.95985,37.27367],[126.960277,37.273451],[126.95987,37.273651]]]}}]}