{"type":"FeatureCollection","features":[{"type":"Feature","id":"RIVERSTD:41430:1120690:start","properties":{"river_code":"1120690","name":"황구지천","river_class":"지방하천","point_role":"시점","location":"경기도 의왕시 초평동 280-2 왕송저수지","admin_code":"41430","admin_name":"경기도 의왕시","source_layer":"RIVER_STANDARD","semantic":"point","provider":"공공데이터포털 전국하천표준데이터","official_data":true,"value_status":"actual","length_km":"13.04","management_org":"경기도청","supply_org":"경기도 수원시","reference_date":"2026-03-30"},"geometry":{"type":"Point","coordinates":[127.028646,37.263476]}},{"type":"Feature","id":"RIVERSTD:41430:1120690:end","properties":{"river_code":"1120690","name":"황구지천","river_class":"지방하천","point_role":"종점","location":"경기도 수원시 권선구 대황교동 533-1 신대황교","admin_code":"41430","admin_name":"경기도 의왕시","source_layer":"RIVER_STANDARD","semantic":"point","provider":"공공데이터포털 전국하천표준데이터","official_data":true,"value_status":"actual","length_km":"13.04","management_org":"경기도청","supply_org":"경기도 수원시","reference_date":"2026-03-30"},"geometry":{"type":"Point","coordinates":[127.028646,37.263476]}}]}