{"type":"FeatureCollection","features":[{"type":"Feature","id":"TN_RIVER_BT:WTR0200000000490V","properties":{"NF_ID":"WTR0200000000490V","admin_code":"28275","source_layer":"TN_RIVER_BT","semantic":"channel","river_class":"소하천","river_class_source":"중심선 공간조인","survey_method":"사진측량"},"geometry":{"type":"Polygon","coordinates":[[[126.66033,37.49487],[126.66093,37.49459],[126.66029,37.49487],[126.6597,37.49416],[126.65641,37.4931],[126.65516,37.49243],[126.65624,37.49305],[126.65577,37.49297],[126.65169,37.49126],[126.64984,37.49088],[126.64809,37.49183],[126.64808,37.492],[126.64841,37.49199],[126.64904,37.4915],[126.65041,37.49115],[126.65417,37.49246],[126.65765,37.49399],[126.65966,37.4943],[126.66001,37.49477],[126.66014,37.49576],[126.6607,37.4962],[126.66097,37.49622],[126.66096,37.49597],[126.66028,37.49561],[126.66033,37.49487]],[[126.6572,37.49358],[126.65674,37.49334],[126.65761,37.49346],[126.65847,37.49391],[126.65784,37.49392],[126.6572,37.49358]],[[126.65517,37.49277],[126.65518,37.49276],[126.6552,37.49277],[126.65542,37.49284],[126.65546,37.49285],[126.65548,37.49287],[126.6555,37.49289],[126.65552,37.4929],[126.65555,37.49292],[126.65557,37.49293],[126.65557,37.49294],[126.65556,37.49294],[126.65555,37.49294],[126.65551,37.49292],[126.65547,37.49291],[126.65543,37.49289],[126.6554,37.49289],[126.65536,37.49288],[126.65533,37.49287],[126.65519,37.4928],[126.65518,37.49279],[126.65517,37.49278],[126.65517,37.49277]]]}},{"type":"Feature","id":"TN_RIVER_BT:WTR0200000000494Z","properties":{"NF_ID":"WTR0200000000494Z","admin_code":"28275","source_layer":"TN_RIVER_BT","semantic":"channel","river_class":"소하천","river_class_source":"중심선 공간조인","survey_method":"사진측량"},"geometry":{"type":"Polygon","coordinates":[[[126.68724,37.5],[126.68723,37.49998],[126.68721,37.49999],[126.68721,37.5],[126.68724,37.5]]]}},{"type":"Feature","id":"TN_RIVER_BT:WTR02000000004LMT","properties":{"NF_ID":"WTR02000000004LMT","admin_code":"28275","source_layer":"TN_RIVER_BT","semantic":"channel","river_class":"소하천","river_class_source":"중심선 공간조인","survey_method":"사진측량"},"geometry":{"type":"Polygon","coordinates":[[[126.68789,37.50139],[126.68813,37.5013],[126.68773,37.50129],[126.68721,37.5],[126.68789,37.50139]]]}},{"type":"Feature","id":"TN_RIVER_BT:WTR02000000004LNU","properties":{"NF_ID":"WTR02000000004LNU","admin_code":"28275","source_layer":"TN_RIVER_BT","semantic":"channel","river_class":"소하천","river_class_source":"중심선 공간조인","survey_method":"사진측량"},"geometry":{"type":"Polygon","coordinates":[[[126.68182,37.50117],[126.68293,37.50192],[126.68352,37.50271],[126.68295,37.50191],[126.68182,37.50117]]]}},{"type":"Feature","id":"TN_RIVER_BT:WTR02000000004LT0","properties":{"NF_ID":"WTR02000000004LT0","admin_code":"28275","source_layer":"TN_RIVER_BT","semantic":"channel","river_class":"소하천","river_class_source":"중심선 공간조인","survey_method":"사진측량"},"geometry":{"type":"Polygon","coordinates":[[[126.68204,37.50726],[126.68208,37.50725],[126.68211,37.50725],[126.68213,37.50726],[126.68221,37.50727],[126.68225,37.50728],[126.68228,37.50728],[126.6823,37.50728],[126.68232,37.50728],[126.68235,37.50727],[126.68238,37.50726],[126.68242,37.50725],[126.68249,37.50722],[126.68257,37.50718],[126.68263,37.50716],[126.68267,37.50715],[126.68269,37.50715],[126.68273,37.50715],[126.68277,37.50715],[126.68288,37.50714],[126.68307,37.50715],[126.68315,37.50715],[126.68319,37.50715],[126.68321,37.50715],[126.68324,37.50715],[126.68331,37.50714],[126.68337,37.50711],[126.6834,37.50711],[126.68344,37.5071],[126.68346,37.5071],[126.6835,37.5071],[126.68355,37.50711],[126.68362,37.50711],[126.68369,37.50711],[126.68371,37.50711],[126.68379,37.50711],[126.68393,37.50709],[126.6841,37.50707],[126.68423,37.50705],[126.68435,37.50703],[126.68456,37.50701],[126.68477,37.50699],[126.68492,37.50698],[126.68509,37.50697],[126.68526,37.50697],[126.68536,37.50697],[126.68542,37.50696],[126.68546,37.50696],[126.6855,37.50696],[126.68555,37.50696],[126.68561,37.50695],[126.68566,37.50695],[126.68568,37.50695],[126.68572,37.50695],[126.68585,37.50695],[126.68598,37.50694],[126.68602,37.50694],[126.6861,37.50693],[126.68615,37.50693],[126.68625,37.50691],[126.68635,37.5069],[126.68643,37.50689],[126.6865,37.50687],[126.68655,37.50687],[126.68661,37.50686],[126.68683,37.50684],[126.68692,37.50683],[126.68694,37.50683],[126.68696,37.50682],[126.68697,37.5068],[126.68695,37.50678],[126.68692,37.50678],[126.68688,37.50678],[126.68681,37.50678],[126.68653,37.50682],[126.68626,37.50685],[126.68608,37.50687],[126.68601,37.50688],[126.68593,37.50688],[126.68584,37.50689],[126.68569,37.50689],[126.68559,37.5069],[126.68545,37.5069],[126.68525,37.50691],[126.68504,37.50692],[126.68493,37.50693],[126.68487,37.50693],[126.6848,37.50693],[126.68476,37.50693],[126.68467,37.50694],[126.68457,37.50695],[126.68451,37.50696],[126.68438,37.50697],[126.68434,37.50699],[126.68422,37.50702],[126.68409,37.50703],[126.68393,37.50706],[126.68379,37.50707],[126.68371,37.50708],[126.68369,37.50708],[126.68362,37.50707],[126.68355,37.50707],[126.6835,37.50707],[126.68346,37.50707],[126.68343,37.50707],[126.68339,37.50707],[126.68336,37.50708],[126.6833,37.50711],[126.68324,37.50712],[126.68321,37.50712],[126.68319,37.50712],[126.68315,37.50712],[126.68307,37.50711],[126.68288,37.50711],[126.68277,37.50711],[126.68273,37.50711],[126.68269,37.50711],[126.68265,37.50712],[126.68261,37.50713],[126.68255,37.50715],[126.68247,37.50719],[126.6824,37.50722],[126.68236,37.50723],[126.68234,37.50724],[126.68231,37.50724],[126.6823,37.50724],[126.68228,37.50724],[126.68226,37.50724],[126.68222,37.50724],[126.68218,37.50723],[126.68214,37.50722],[126.68212,37.50722],[126.68208,37.50722],[126.68203,37.50722],[126.68199,37.50723],[126.68191,37.50727],[126.68178,37.50733],[126.68181,37.50736],[126.68193,37.50729],[126.682,37.50726],[126.68204,37.50726]]]}},{"type":"Feature","id":"TN_RIVER_BT:WTR02000000004M5D","properties":{"NF_ID":"WTR02000000004M5D","admin_code":"28275","source_layer":"TN_RIVER_BT","semantic":"channel","river_class":"소하천","river_class_source":"중심선 공간조인","survey_method":"사진측량"},"geometry":{"type":"Polygon","coordinates":[[[126.61022,37.51545],[126.61014,37.51526],[126.60227,37.5165],[126.60224,37.51679],[126.61022,37.51545]]]}},{"type":"Feature","id":"TN_RIVER_BT:WTR02000000004MGO","properties":{"NF_ID":"WTR02000000004MGO","admin_code":"28275","source_layer":"TN_RIVER_BT","semantic":"channel","river_class":"소하천","river_class_source":"중심선 공간조인","survey_method":"사진측량"},"geometry":{"type":"Polygon","coordinates":[[[126.67572,37.52964],[126.67589,37.53095],[126.67645,37.53137],[126.67652,37.53344],[126.67648,37.53136],[126.67592,37.53093],[126.67572,37.52964]]]}},{"type":"Feature","id":"TN_RIVER_BT:WTR02000000004MHP","properties":{"NF_ID":"WTR02000000004MHP","admin_code":"28275","source_layer":"TN_RIVER_BT","semantic":"channel","river_class":"소하천","river_class_source":"중심선 공간조인","survey_method":"사진측량"},"geometry":{"type":"Polygon","coordinates":[[[126.62632,37.53304],[126.63264,37.53291],[126.6263,37.53296],[126.6263,37.53251],[126.62599,37.53259],[126.62586,37.53242],[126.6257,37.53289],[126.62054,37.53288],[126.62043,37.53267],[126.61905,37.53267],[126.61929,37.53283],[126.61907,37.53316],[126.62043,37.53316],[126.62036,37.53294],[126.62569,37.53295],[126.62577,37.53395],[126.62587,37.53337],[126.62632,37.53304]]]}},{"type":"Feature","id":"TN_RIVER_BT:WTR02000000004MIQ","properties":{"NF_ID":"WTR02000000004MIQ","admin_code":"28275","source_layer":"TN_RIVER_BT","semantic":"channel","river_class":"소하천","river_class_source":"중심선 공간조인","survey_method":"사진측량"},"geometry":{"type":"Polygon","coordinates":[[[126.65481,37.53347],[126.65497,37.53306],[126.66016,37.53296],[126.65496,37.53297],[126.65487,37.53052],[126.65476,37.53272],[126.65431,37.53294],[126.65112,37.533],[126.65437,37.53305],[126.65442,37.53341],[126.65473,37.53351],[126.65489,37.53492],[126.65481,37.53347]],[[126.6547,37.5332],[126.65471,37.5332],[126.65471,37.5332],[126.65471,37.53321],[126.65472,37.53321],[126.65472,37.53321],[126.65473,37.53321],[126.65473,37.53322],[126.65474,37.53322],[126.65474,37.53322],[126.65475,37.53323],[126.65475,37.53323],[126.65475,37.53323],[126.65475,37.53324],[126.65475,37.53324],[126.65475,37.53324],[126.65475,37.53325],[126.65475,37.53325],[126.65475,37.53325],[126.65475,37.53326],[126.65475,37.53326],[126.65475,37.53326],[126.65475,37.53326],[126.65475,37.53326],[126.65474,37.53327],[126.65465,37.53327],[126.65464,37.53327],[126.65464,37.53327],[126.65464,37.53326],[126.65463,37.53326],[126.65463,37.53326],[126.65463,37.53326],[126.65463,37.53326],[126.65463,37.53325],[126.65463,37.53324],[126.65463,37.53324],[126.65463,37.53324],[126.65463,37.53323],[126.65463,37.53323],[126.65463,37.53323],[126.65467,37.53322],[126.65468,37.53321],[126.6547,37.53321],[126.6547,37.53321],[126.6547,37.53321],[126.6547,37.5332]],[[126.65464,37.533],[126.65464,37.53299],[126.65465,37.53299],[126.65465,37.53299],[126.65465,37.53298],[126.65465,37.53298],[126.65466,37.53298],[126.65466,37.53298],[126.65467,37.53298],[126.65467,37.53298],[126.65468,37.53298],[126.65469,37.53298],[126.6547,37.53298],[126.6547,37.53298],[126.6547,37.53298],[126.65471,37.53298],[126.65471,37.53298],[126.65471,37.53299],[126.65472,37.53299],[126.65472,37.53299],[126.65472,37.53299],[126.65472,37.533],[126.65473,37.533],[126.65473,37.53301],[126.65473,37.53301],[126.65473,37.53302],[126.65473,37.53303],[126.65473,37.53303],[126.65473,37.53304],[126.65473,37.53306],[126.65473,37.53308],[126.65473,37.53308],[126.65473,37.53309],[126.65473,37.53309],[126.65473,37.53309],[126.6547,37.53312],[126.65469,37.53312],[126.65468,37.53312],[126.65468,37.53312],[126.65468,37.53313],[126.65467,37.53313],[126.65467,37.53313],[126.65466,37.53313],[126.65466,37.53312],[126.65465,37.53312],[126.65465,37.53312],[126.65464,37.53312],[126.65464,37.53312],[126.65464,37.53312],[126.65464,37.53311],[126.65464,37.53311],[126.65463,37.5331],[126.65463,37.53308],[126.65463,37.53307],[126.65462,37.53307],[126.65462,37.53306],[126.65462,37.53305],[126.65462,37.53304],[126.65463,37.53303],[126.65463,37.53302],[126.65463,37.53302],[126.65463,37.53301],[126.65463,37.53301],[126.65463,37.53301],[126.65463,37.533],[126.65464,37.533],[126.65464,37.533]],[[126.65464,37.53282],[126.65465,37.53282],[126.65465,37.53282],[126.65466,37.53282],[126.65466,37.53282],[126.65466,37.53282],[126.65467,37.53283],[126.65467,37.53283],[126.65468,37.53284],[126.65469,37.53284],[126.6547,37.53285],[126.6547,37.53285],[126.6547,37.53285],[126.6547,37.53286],[126.6547,37.53286],[126.6547,37.53286],[126.6547,37.53289],[126.65468,37.53289],[126.65467,37.5329],[126.65465,37.5329],[126.65464,37.5329],[126.65464,37.5329],[126.65463,37.5329],[126.65462,37.5329],[126.6546,37.5329],[126.6546,37.5329],[126.6546,37.5329],[126.6546,37.5329],[126.6546,37.5329],[126.65459,37.5329],[126.65459,37.5329],[126.65457,37.53288],[126.65457,37.53288],[126.65457,37.53288],[126.65457,37.53288],[126.65457,37.53287],[126.65458,37.53287],[126.65459,37.53286],[126.65461,37.53284],[126.65462,37.53283],[126.65463,37.53282],[126.65464,37.53282],[126.65464,37.53282]]]}},{"type":"Feature","id":"TN_RIVER_BT:WTR02000000004MJR","properties":{"NF_ID":"WTR02000000004MJR","admin_code":"28275","source_layer":"TN_RIVER_BT","semantic":"channel","river_class":"소하천","river_class_source":"중심선 공간조인","survey_method":"사진측량"},"geometry":{"type":"Polygon","coordinates":[[[126.6434,37.5333],[126.64376,37.53308],[126.64502,37.53298],[126.64807,37.53298],[126.64374,37.533],[126.64271,37.53192],[126.64273,37.53055],[126.64267,37.53192],[126.64325,37.53243],[126.64286,37.53291],[126.63596,37.53292],[126.63696,37.53307],[126.64284,37.53299],[126.64325,37.53354],[126.64262,37.53422],[126.64267,37.53541],[126.64269,37.53419],[126.6434,37.5333]],[[126.64306,37.53299],[126.64307,37.53296],[126.64309,37.53292],[126.64313,37.53289],[126.64318,37.53287],[126.64325,37.53286],[126.64335,37.53285],[126.64344,37.53286],[126.64351,37.53288],[126.64356,37.5329],[126.64361,37.53294],[126.64362,37.53297],[126.64362,37.53298],[126.64362,37.53299],[126.64361,37.53302],[126.6436,37.53303],[126.64356,37.53307],[126.64349,37.5331],[126.64343,37.53311],[126.64335,37.53312],[126.64322,37.53311],[126.64316,37.5331],[126.6431,37.53306],[126.64306,37.53302],[126.64306,37.53299]]]}},{"type":"Feature","id":"TN_RIVER_BT:WTR02000000004MLT","properties":{"NF_ID":"WTR02000000004MLT","admin_code":"28275","source_layer":"TN_RIVER_BT","semantic":"channel","river_class":"등급미확인","survey_method":"사진측량"},"geometry":{"type":"Polygon","coordinates":[[[126.61068,37.53961],[126.61039,37.53961],[126.61052,37.53981],[126.61089,37.53965],[126.61068,37.53961]]]}},{"type":"Feature","id":"TN_RIVER_BT:WTR02000000004MMU","properties":{"NF_ID":"WTR02000000004MMU","admin_code":"28275","source_layer":"TN_RIVER_BT","semantic":"channel","river_class":"등급미확인","survey_method":"사진측량"},"geometry":{"type":"Polygon","coordinates":[[[126.61369,37.53995],[126.61374,37.53981],[126.61337,37.53987],[126.61369,37.53995]]]}},{"type":"Feature","id":"TN_RIVER_BT:WTR02000000004MNV","properties":{"NF_ID":"WTR02000000004MNV","admin_code":"28275","source_layer":"TN_RIVER_BT","semantic":"channel","river_class":"등급미확인","survey_method":"사진측량"},"geometry":{"type":"Polygon","coordinates":[[[126.60753,37.53978],[126.60743,37.54001],[126.60767,37.53988],[126.60753,37.53978]]]}},{"type":"Feature","id":"TN_RIVER_BT:WTR02000000004MOW","properties":{"NF_ID":"WTR02000000004MOW","admin_code":"28275","source_layer":"TN_RIVER_BT","semantic":"channel","river_class":"등급미확인","survey_method":"사진측량"},"geometry":{"type":"Polygon","coordinates":[[[126.61331,37.54023],[126.61332,37.54022],[126.61333,37.54021],[126.61334,37.5402],[126.61335,37.54018],[126.61334,37.54017],[126.61333,37.54015],[126.61331,37.54014],[126.61329,37.54013],[126.61327,37.54013],[126.61324,37.54014],[126.61321,37.54014],[126.61317,37.54013],[126.61313,37.54012],[126.61309,37.54012],[126.61306,37.54013],[126.61304,37.54013],[126.61302,37.54014],[126.613,37.54014],[126.61299,37.54014],[126.61299,37.54014],[126.61299,37.54015],[126.613,37.54016],[126.61303,37.54017],[126.61305,37.54018],[126.61306,37.5402],[126.61307,37.54022],[126.61308,37.54023],[126.6131,37.54023],[126.61313,37.54023],[126.61315,37.54023],[126.61321,37.54024],[126.61325,37.54024],[126.61328,37.54024],[126.6133,37.54024],[126.61331,37.54023]]]}},{"type":"Feature","id":"TN_RIVER_BT:WTR02000000004MPX","properties":{"NF_ID":"WTR02000000004MPX","admin_code":"28275","source_layer":"TN_RIVER_BT","semantic":"channel","river_class":"등급미확인","survey_method":"사진측량"},"geometry":{"type":"Polygon","coordinates":[[[126.61365,37.54014],[126.61343,37.54021],[126.61371,37.54029],[126.61365,37.54014]]]}},{"type":"Feature","id":"TN_RIVER_BT:WTR02000000004MQY","properties":{"NF_ID":"WTR02000000004MQY","admin_code":"28275","source_layer":"TN_RIVER_BT","semantic":"channel","river_class":"등급미확인","survey_method":"사진측량"},"geometry":{"type":"Polygon","coordinates":[[[126.6128,37.54022],[126.61278,37.54022],[126.61273,37.54023],[126.61269,37.54024],[126.61268,37.54025],[126.61267,37.54026],[126.61268,37.54027],[126.61268,37.54028],[126.61269,37.54029],[126.6127,37.5403],[126.61269,37.54031],[126.61268,37.54032],[126.61268,37.54032],[126.61268,37.54033],[126.61268,37.54034],[126.61269,37.54035],[126.61271,37.54035],[126.61272,37.54036],[126.61274,37.54038],[126.61276,37.54039],[126.61279,37.54039],[126.61281,37.54039],[126.61283,37.54038],[126.61285,37.54037],[126.61287,37.54037],[126.61288,37.54036],[126.6129,37.54034],[126.61291,37.54033],[126.61292,37.54032],[126.61293,37.54031],[126.61292,37.54029],[126.61292,37.54027],[126.6129,37.54026],[126.61289,37.54025],[126.61287,37.54025],[126.61284,37.54025],[126.61283,37.54024],[126.61283,37.54023],[126.61282,37.54023],[126.6128,37.54022]]]}},{"type":"Feature","id":"TN_RIVER_BT:WTR02000000004MRZ","properties":{"NF_ID":"WTR02000000004MRZ","admin_code":"28275","source_layer":"TN_RIVER_BT","semantic":"channel","river_class":"지방하천","river_class_source":"중심선 공간조인","river_name":"심곡천","river_code":"1520300","survey_method":"사진측량"},"geometry":{"type":"Polygon","coordinates":[[[126.66725,37.54056],[126.66286,37.53846],[126.6626,37.53619],[126.66051,37.5344],[126.66059,37.53394],[126.66211,37.53257],[126.66201,37.53094],[126.66125,37.52795],[126.66124,37.52748],[126.66165,37.52755],[126.66166,37.52734],[126.661,37.52704],[126.66132,37.52679],[126.66074,37.52699],[126.66015,37.52696],[126.66008,37.52676],[126.6449,37.52669],[126.64189,37.52585],[126.62767,37.51957],[126.62724,37.51944],[126.62785,37.51985],[126.62694,37.51961],[126.62524,37.51864],[126.62706,37.51934],[126.62413,37.51808],[126.61658,37.51803],[126.61324,37.51948],[126.61344,37.51737],[126.61167,37.52721],[126.60251,37.52707],[126.60254,37.52771],[126.603,37.52755],[126.60705,37.52754],[126.60843,37.52771],[126.60923,37.52747],[126.60939,37.52768],[126.60991,37.5277],[126.6107,37.52747],[126.6122,37.52771],[126.6129,37.52704],[126.61402,37.52068],[126.61493,37.51956],[126.6166,37.51903],[126.62465,37.51913],[126.62678,37.5198],[126.62665,37.51963],[126.62704,37.51969],[126.62712,37.51989],[126.62694,37.51987],[126.62779,37.52036],[126.63115,37.52166],[126.63348,37.52292],[126.63391,37.52261],[126.634,37.5231],[126.63702,37.52426],[126.63654,37.52517],[126.63714,37.52433],[126.6408,37.52609],[126.64264,37.52658],[126.64611,37.5271],[126.65996,37.52716],[126.66047,37.52698],[126.66095,37.52716],[126.66195,37.53111],[126.66204,37.53248],[126.66028,37.53419],[126.66245,37.53623],[126.66268,37.53827],[126.66298,37.53865],[126.66956,37.54176],[126.66725,37.54056]],[[126.64631,37.5269],[126.64712,37.52694],[126.64709,37.52708],[126.64509,37.52693],[126.64564,37.52667],[126.64708,37.52676],[126.64631,37.5269]],[[126.64494,37.52676],[126.64492,37.52676],[126.6449,37.52676],[126.64487,37.52676],[126.64484,37.52675],[126.64481,37.52674],[126.64474,37.52672],[126.64464,37.52668],[126.64458,37.52666],[126.64457,37.52666],[126.64454,37.52665],[126.64451,37.52665],[126.64449,37.52665],[126.64446,37.52665],[126.64444,37.52664],[126.64441,37.52663],[126.64439,37.52662],[126.64435,37.52661],[126.64433,37.52659],[126.64432,37.52658],[126.64432,37.52658],[126.64434,37.52657],[126.64437,37.52657],[126.64443,37.52656],[126.64445,37.52656],[126.64447,37.52657],[126.64448,37.52657],[126.6445,37.52657],[126.64452,37.52657],[126.64454,37.52657],[126.64456,37.52657],[126.64465,37.52659],[126.64467,37.52659],[126.64469,37.52659],[126.6447,37.52659],[126.64472,37.52659],[126.64474,37.52659],[126.64476,37.52659],[126.64477,37.5266],[126.64477,37.52661],[126.64478,37.52662],[126.64479,37.52664],[126.64483,37.52668],[126.64484,37.52669],[126.64485,37.5267],[126.64487,37.52671],[126.64489,37.52672],[126.64492,37.52673],[126.64495,37.52673],[126.64496,37.52674],[126.64496,37.52675],[126.64495,37.52676],[126.64494,37.52676]],[[126.64472,37.52673],[126.64505,37.52694],[126.64396,37.52679],[126.64316,37.5264],[126.64472,37.52673]],[[126.64308,37.52645],[126.64326,37.52662],[126.64267,37.52642],[126.64308,37.52645]],[[126.64738,37.52699],[126.64743,37.52698],[126.64747,37.52698],[126.64752,37.527],[126.64755,37.52701],[126.64757,37.52702],[126.64757,37.52704],[126.64756,37.52706],[126.64756,37.52707],[126.64756,37.52708],[126.64757,37.5271],[126.64756,37.5271],[126.64755,37.52711],[126.64752,37.52711],[126.64743,37.5271],[126.6474,37.5271],[126.64738,37.5271],[126.64736,37.52709],[126.64735,37.52708],[126.64734,37.52706],[126.64734,37.52703],[126.64734,37.52701],[126.64736,37.52699],[126.64738,37.52699]],[[126.64035,37.5254],[126.64031,37.52539],[126.6403,37.52539],[126.64028,37.52539],[126.64026,37.52539],[126.64023,37.52539],[126.64022,37.52538],[126.64021,37.52537],[126.64018,37.52531],[126.64018,37.5253],[126.64018,37.52529],[126.64019,37.52528],[126.6402,37.52528],[126.64022,37.52527],[126.64025,37.52527],[126.64026,37.52527],[126.64029,37.52528],[126.64031,37.52529],[126.64033,37.52529],[126.64037,37.52531],[126.64039,37.52532],[126.64047,37.52536],[126.64049,37.52536],[126.64052,37.52537],[126.64055,37.52538],[126.64056,37.52539],[126.64056,37.5254],[126.64055,37.52541],[126.64053,37.52542],[126.64051,37.52542],[126.64049,37.52543],[126.64047,37.52542],[126.64038,37.5254],[126.64035,37.5254]],[[126.6388,37.5246],[126.63881,37.5246],[126.63884,37.5246],[126.63887,37.52461],[126.63892,37.52463],[126.63899,37.52466],[126.63909,37.52471],[126.63923,37.52477],[126.6393,37.5248],[126.63934,37.52484],[126.63935,37.52485],[126.63934,37.52487],[126.63932,37.52488],[126.6393,37.52488],[126.63928,37.52488],[126.6392,37.52485],[126.63918,37.52484],[126.63916,37.52484],[126.63913,37.52483],[126.63911,37.52482],[126.63906,37.52478],[126.63904,37.52477],[126.63896,37.52475],[126.63891,37.52474],[126.63888,37.52474],[126.63885,37.52473],[126.63883,37.52473],[126.63881,37.52473],[126.63879,37.52471],[126.63878,37.52469],[126.63877,37.52466],[126.63877,37.52463],[126.63878,37.52461],[126.6388,37.5246]],[[126.63788,37.52434],[126.63739,37.52399],[126.6381,37.5243],[126.63788,37.52434]],[[126.63611,37.52351],[126.63614,37.5235],[126.63619,37.5235],[126.63623,37.52351],[126.6363,37.52354],[126.63639,37.52358],[126.63641,37.52358],[126.63642,37.52359],[126.63645,37.52359],[126.63646,37.52359],[126.63647,37.5236],[126.63647,37.52361],[126.63646,37.52362],[126.63644,37.52364],[126.63642,37.52364],[126.6364,37.52364],[126.63638,37.52363],[126.63635,37.52362],[126.6363,37.52361],[126.63627,37.5236],[126.63624,37.5236],[126.63621,37.52359],[126.63617,37.52359],[126.63614,37.52358],[126.63612,37.52357],[126.6361,37.52355],[126.63609,37.52353],[126.63609,37.52352],[126.63609,37.52351],[126.63611,37.52351]],[[126.63562,37.52335],[126.63549,37.5233],[126.63547,37.5233],[126.63545,37.5233],[126.63543,37.5233],[126.63542,37.52331],[126.63541,37.52332],[126.63539,37.52333],[126.63537,37.52332],[126.63536,37.52331],[126.63532,37.52327],[126.63531,37.52326],[126.63529,37.52325],[126.63526,37.52326],[126.63525,37.52326],[126.63523,37.52327],[126.63522,37.52327],[126.63522,37.52326],[126.63522,37.52325],[126.63522,37.52323],[126.63523,37.52323],[126.63525,37.52323],[126.63526,37.52322],[126.63528,37.52322],[126.6353,37.52321],[126.63531,37.52321],[126.63541,37.52325],[126.63543,37.52326],[126.63545,37.52326],[126.63547,37.52326],[126.63548,37.52326],[126.6355,37.52325],[126.63551,37.52325],[126.63552,37.52325],[126.63556,37.52326],[126.63569,37.52331],[126.6357,37.52332],[126.63571,37.52332],[126.6357,37.52333],[126.63568,37.52334],[126.63566,37.52335],[126.63564,37.52335],[126.63562,37.52335]],[[126.63518,37.52327],[126.63518,37.52328],[126.63517,37.5233],[126.63515,37.52331],[126.63513,37.52331],[126.63512,37.5233],[126.63512,37.52329],[126.63511,37.52327],[126.63511,37.52326],[126.63512,37.52325],[126.63513,37.52324],[126.63515,37.52323],[126.63516,37.52323],[126.63517,37.52323],[126.63518,37.52323],[126.63518,37.52324],[126.63519,37.52325],[126.63518,37.52327]]]}},{"type":"Feature","id":"TN_RIVER_BT:WTR02000000004MX5","properties":{"NF_ID":"WTR02000000004MX5","admin_code":"28275","source_layer":"TN_RIVER_BT","semantic":"channel","river_class":"소하천","river_class_source":"중심선 공간조인","survey_method":"사진측량"},"geometry":{"type":"Polygon","coordinates":[[[126.70038,37.55021],[126.70008,37.55011],[126.69748,37.5507],[126.69599,37.55071],[126.69829,37.55065],[126.7001,37.55019],[126.70105,37.55068],[126.70107,37.55105],[126.70158,37.55124],[126.70109,37.55102],[126.7011,37.55067],[126.70038,37.55021]]]}},{"type":"Feature","id":"TN_RIVER_BT:WTR02000000004N09","properties":{"NF_ID":"WTR02000000004N09","admin_code":"28275","source_layer":"TN_RIVER_BT","semantic":"channel","river_class":"소하천","river_class_source":"중심선 공간조인","survey_method":"사진측량"},"geometry":{"type":"Polygon","coordinates":[[[126.62991,37.55449],[126.62997,37.55448],[126.62999,37.55449],[126.62997,37.55444],[126.62995,37.55444],[126.62991,37.55446],[126.62988,37.55445],[126.62986,37.55445],[126.62979,37.55442],[126.62972,37.55438],[126.62965,37.55435],[126.62957,37.55435],[126.62947,37.55436],[126.6294,37.55435],[126.62935,37.55432],[126.62926,37.55427],[126.62923,37.55426],[126.6292,37.55426],[126.62918,37.55426],[126.62917,37.55426],[126.62913,37.55427],[126.62907,37.5543],[126.62907,37.5543],[126.62908,37.55431],[126.62909,37.55432],[126.62909,37.55432],[126.6291,37.55433],[126.6291,37.55434],[126.62912,37.55433],[126.62916,37.5543],[126.6292,37.55428],[126.62923,37.55428],[126.62925,37.55429],[126.62928,37.55431],[126.62929,37.55431],[126.62933,37.55434],[126.62936,37.55436],[126.62938,37.55437],[126.6294,37.55438],[126.62943,37.55438],[126.62945,37.55438],[126.62953,37.55439],[126.62957,37.55438],[126.62959,37.55438],[126.62967,37.55439],[126.6297,37.5544],[126.62972,37.55441],[126.62974,37.55442],[126.6298,37.55446],[126.62984,37.55447],[126.62987,37.55448],[126.62989,37.55449],[126.62991,37.55449]]]}},{"type":"Feature","id":"TN_RIVER_BT:WTR0200000000490V","properties":{"NF_ID":"WTR0200000000490V","source_layer":"TN_RIVER_BT","semantic":"channel","river_class":"소하천","river_class_source":"중심선 공간조인","survey_method":"사진측량","admin_code":"28275"},"geometry":{"type":"Polygon","coordinates":[[[126.64956,37.49104],[126.64808,37.492],[126.6497,37.49125],[126.651,37.49131],[126.65765,37.49399],[126.65966,37.4943],[126.66001,37.49477],[126.66014,37.49576],[126.66097,37.49622],[126.66095,37.49595],[126.66027,37.49555],[126.66031,37.4949],[126.66093,37.49459],[126.66029,37.49487],[126.6597,37.49416],[126.65641,37.4931],[126.65518,37.49244],[126.65624,37.49305],[126.65577,37.49297],[126.65169,37.49126],[126.64984,37.49089],[126.64956,37.49104]],[[126.65716,37.49355],[126.65676,37.49334],[126.65793,37.49355],[126.65847,37.49391],[126.65784,37.49392],[126.65716,37.49355]],[[126.65518,37.49276],[126.6552,37.49277],[126.65542,37.49284],[126.65546,37.49285],[126.65548,37.49287],[126.6555,37.49289],[126.65552,37.4929],[126.65555,37.49292],[126.65557,37.49293],[126.65557,37.49294],[126.65556,37.49294],[126.65555,37.49294],[126.65551,37.49292],[126.65547,37.49291],[126.65543,37.49289],[126.6554,37.49289],[126.65536,37.49288],[126.65533,37.49287],[126.65519,37.4928],[126.65518,37.49279],[126.65517,37.49278],[126.65517,37.49277],[126.65518,37.49276]]]}},{"type":"Feature","id":"TN_RIVER_BT:WTR0200000000494Z","properties":{"NF_ID":"WTR0200000000494Z","source_layer":"TN_RIVER_BT","semantic":"channel","river_class":"소하천","river_class_source":"중심선 공간조인","survey_method":"사진측량","admin_code":"28275"},"geometry":{"type":"Polygon","coordinates":[[[126.68724,37.5],[126.68723,37.49998],[126.68721,37.49999],[126.68721,37.5],[126.68724,37.5]]]}},{"type":"Feature","id":"TN_RIVER_BT:WTR02000000004LMT","properties":{"NF_ID":"WTR02000000004LMT","source_layer":"TN_RIVER_BT","semantic":"channel","river_class":"소하천","river_class_source":"중심선 공간조인","survey_method":"사진측량","admin_code":"28275"},"geometry":{"type":"Polygon","coordinates":[[[126.68789,37.50139],[126.68813,37.5013],[126.68773,37.50129],[126.68721,37.5],[126.68789,37.50139]]]}},{"type":"Feature","id":"TN_RIVER_BT:WTR02000000004LNU","properties":{"NF_ID":"WTR02000000004LNU","source_layer":"TN_RIVER_BT","semantic":"channel","river_class":"소하천","river_class_source":"중심선 공간조인","survey_method":"사진측량","admin_code":"28275"},"geometry":{"type":"Polygon","coordinates":[[[126.68182,37.50117],[126.68293,37.50192],[126.68352,37.50271],[126.68295,37.50191],[126.68182,37.50117]]]}},{"type":"Feature","id":"TN_RIVER_BT:WTR02000000004LT0","properties":{"NF_ID":"WTR02000000004LT0","source_layer":"TN_RIVER_BT","semantic":"channel","river_class":"소하천","river_class_source":"중심선 공간조인","survey_method":"사진측량","admin_code":"28275"},"geometry":{"type":"Polygon","coordinates":[[[126.68204,37.50726],[126.68208,37.50725],[126.68211,37.50725],[126.68213,37.50726],[126.68221,37.50727],[126.68225,37.50728],[126.68228,37.50728],[126.6823,37.50728],[126.68232,37.50728],[126.68235,37.50727],[126.68238,37.50726],[126.68242,37.50725],[126.68249,37.50722],[126.68257,37.50718],[126.68263,37.50716],[126.68267,37.50715],[126.68269,37.50715],[126.68273,37.50715],[126.68277,37.50715],[126.68288,37.50714],[126.68307,37.50715],[126.68315,37.50715],[126.68319,37.50715],[126.68321,37.50715],[126.68324,37.50715],[126.68331,37.50714],[126.68337,37.50711],[126.6834,37.50711],[126.68344,37.5071],[126.68346,37.5071],[126.6835,37.5071],[126.68355,37.50711],[126.68362,37.50711],[126.68369,37.50711],[126.68371,37.50711],[126.68379,37.50711],[126.68393,37.50709],[126.6841,37.50707],[126.68423,37.50705],[126.68435,37.50703],[126.68456,37.50701],[126.68477,37.50699],[126.68492,37.50698],[126.68509,37.50697],[126.68526,37.50697],[126.68536,37.50697],[126.68542,37.50696],[126.68546,37.50696],[126.6855,37.50696],[126.68555,37.50696],[126.68561,37.50695],[126.68566,37.50695],[126.68568,37.50695],[126.68572,37.50695],[126.68585,37.50695],[126.68598,37.50694],[126.68602,37.50694],[126.6861,37.50693],[126.68615,37.50693],[126.68625,37.50691],[126.68635,37.5069],[126.68643,37.50689],[126.6865,37.50687],[126.68655,37.50687],[126.68661,37.50686],[126.68683,37.50684],[126.68692,37.50683],[126.68694,37.50683],[126.68696,37.50682],[126.68697,37.5068],[126.68695,37.50678],[126.68692,37.50678],[126.68688,37.50678],[126.68681,37.50678],[126.68653,37.50682],[126.68626,37.50685],[126.68608,37.50687],[126.68601,37.50688],[126.68593,37.50688],[126.68584,37.50689],[126.68569,37.50689],[126.68559,37.5069],[126.68545,37.5069],[126.68525,37.50691],[126.68504,37.50692],[126.68493,37.50693],[126.68487,37.50693],[126.6848,37.50693],[126.68476,37.50693],[126.68467,37.50694],[126.68457,37.50695],[126.68451,37.50696],[126.68438,37.50697],[126.68434,37.50699],[126.68422,37.50702],[126.68409,37.50703],[126.68393,37.50706],[126.68379,37.50707],[126.68371,37.50708],[126.68369,37.50708],[126.68362,37.50707],[126.68355,37.50707],[126.6835,37.50707],[126.68346,37.50707],[126.68343,37.50707],[126.68339,37.50707],[126.68336,37.50708],[126.6833,37.50711],[126.68324,37.50712],[126.68321,37.50712],[126.68319,37.50712],[126.68315,37.50712],[126.68307,37.50711],[126.68288,37.50711],[126.68277,37.50711],[126.68273,37.50711],[126.68269,37.50711],[126.68265,37.50712],[126.68261,37.50713],[126.68255,37.50715],[126.68247,37.50719],[126.6824,37.50722],[126.68236,37.50723],[126.68234,37.50724],[126.68231,37.50724],[126.6823,37.50724],[126.68228,37.50724],[126.68226,37.50724],[126.68222,37.50724],[126.68218,37.50723],[126.68214,37.50722],[126.68212,37.50722],[126.68208,37.50722],[126.68203,37.50722],[126.68199,37.50723],[126.68191,37.50727],[126.68178,37.50733],[126.68181,37.50736],[126.68193,37.50729],[126.682,37.50726],[126.68204,37.50726]]]}},{"type":"Feature","id":"TN_RIVER_BT:WTR02000000004M5D","properties":{"NF_ID":"WTR02000000004M5D","source_layer":"TN_RIVER_BT","semantic":"channel","river_class":"소하천","river_class_source":"중심선 공간조인","survey_method":"사진측량","admin_code":"28275"},"geometry":{"type":"Polygon","coordinates":[[[126.61014,37.51526],[126.60227,37.5165],[126.60224,37.51679],[126.61022,37.51545],[126.61014,37.51526]]]}},{"type":"Feature","id":"TN_RIVER_BT:WTR02000000004MGO","properties":{"NF_ID":"WTR02000000004MGO","source_layer":"TN_RIVER_BT","semantic":"channel","river_class":"소하천","river_class_source":"중심선 공간조인","survey_method":"사진측량","admin_code":"28275"},"geometry":{"type":"Polygon","coordinates":[[[126.67572,37.52964],[126.67589,37.53095],[126.67645,37.53137],[126.67652,37.53344],[126.67648,37.53136],[126.67592,37.53093],[126.67572,37.52964]]]}},{"type":"Feature","id":"TN_RIVER_BT:WTR02000000004MHP","properties":{"NF_ID":"WTR02000000004MHP","source_layer":"TN_RIVER_BT","semantic":"channel","river_class":"소하천","river_class_source":"중심선 공간조인","survey_method":"사진측량","admin_code":"28275"},"geometry":{"type":"Polygon","coordinates":[[[126.62632,37.53304],[126.63264,37.53291],[126.6263,37.53296],[126.6263,37.53251],[126.62599,37.53259],[126.62586,37.53242],[126.6257,37.53289],[126.62054,37.53288],[126.62043,37.53267],[126.61905,37.53267],[126.61929,37.53283],[126.61907,37.53316],[126.62043,37.53316],[126.62036,37.53294],[126.62569,37.53295],[126.62577,37.53395],[126.62587,37.53337],[126.62632,37.53304]]]}},{"type":"Feature","id":"TN_RIVER_BT:WTR02000000004MIQ","properties":{"NF_ID":"WTR02000000004MIQ","source_layer":"TN_RIVER_BT","semantic":"channel","river_class":"소하천","river_class_source":"중심선 공간조인","survey_method":"사진측량","admin_code":"28275"},"geometry":{"type":"Polygon","coordinates":[[[126.65481,37.53347],[126.65497,37.53306],[126.66016,37.53296],[126.65496,37.53297],[126.65487,37.53052],[126.65476,37.53272],[126.65431,37.53294],[126.65112,37.533],[126.65437,37.53305],[126.65442,37.53341],[126.65473,37.53351],[126.65489,37.53492],[126.65481,37.53347]],[[126.6547,37.5332],[126.65471,37.5332],[126.65471,37.5332],[126.65471,37.53321],[126.65472,37.53321],[126.65472,37.53321],[126.65473,37.53321],[126.65473,37.53322],[126.65474,37.53322],[126.65474,37.53322],[126.65475,37.53323],[126.65475,37.53323],[126.65475,37.53323],[126.65475,37.53324],[126.65475,37.53324],[126.65475,37.53324],[126.65475,37.53325],[126.65475,37.53325],[126.65475,37.53325],[126.65475,37.53326],[126.65475,37.53326],[126.65475,37.53326],[126.65475,37.53326],[126.65475,37.53326],[126.65474,37.53327],[126.65465,37.53327],[126.65464,37.53327],[126.65464,37.53327],[126.65464,37.53326],[126.65463,37.53326],[126.65463,37.53326],[126.65463,37.53326],[126.65463,37.53326],[126.65463,37.53325],[126.65463,37.53324],[126.65463,37.53324],[126.65463,37.53324],[126.65463,37.53323],[126.65463,37.53323],[126.65463,37.53323],[126.65467,37.53322],[126.65468,37.53321],[126.6547,37.53321],[126.6547,37.53321],[126.6547,37.53321],[126.6547,37.5332]],[[126.65464,37.533],[126.65464,37.53299],[126.65465,37.53299],[126.65465,37.53299],[126.65465,37.53298],[126.65465,37.53298],[126.65466,37.53298],[126.65466,37.53298],[126.65467,37.53298],[126.65467,37.53298],[126.65468,37.53298],[126.65469,37.53298],[126.6547,37.53298],[126.6547,37.53298],[126.6547,37.53298],[126.65471,37.53298],[126.65471,37.53298],[126.65471,37.53299],[126.65472,37.53299],[126.65472,37.53299],[126.65472,37.53299],[126.65472,37.533],[126.65473,37.533],[126.65473,37.53301],[126.65473,37.53301],[126.65473,37.53302],[126.65473,37.53303],[126.65473,37.53303],[126.65473,37.53304],[126.65473,37.53306],[126.65473,37.53308],[126.65473,37.53308],[126.65473,37.53309],[126.65473,37.53309],[126.65473,37.53309],[126.6547,37.53312],[126.65469,37.53312],[126.65468,37.53312],[126.65468,37.53312],[126.65468,37.53313],[126.65467,37.53313],[126.65467,37.53313],[126.65466,37.53313],[126.65466,37.53312],[126.65465,37.53312],[126.65465,37.53312],[126.65464,37.53312],[126.65464,37.53312],[126.65464,37.53312],[126.65464,37.53311],[126.65464,37.53311],[126.65463,37.5331],[126.65463,37.53308],[126.65463,37.53307],[126.65462,37.53307],[126.65462,37.53306],[126.65462,37.53305],[126.65462,37.53304],[126.65463,37.53303],[126.65463,37.53302],[126.65463,37.53302],[126.65463,37.53301],[126.65463,37.53301],[126.65463,37.53301],[126.65463,37.533],[126.65464,37.533],[126.65464,37.533]],[[126.65464,37.53282],[126.65465,37.53282],[126.65465,37.53282],[126.65466,37.53282],[126.65466,37.53282],[126.65466,37.53282],[126.65467,37.53283],[126.65467,37.53283],[126.65468,37.53284],[126.65469,37.53284],[126.6547,37.53285],[126.6547,37.53285],[126.6547,37.53285],[126.6547,37.53286],[126.6547,37.53286],[126.6547,37.53286],[126.6547,37.53289],[126.65468,37.53289],[126.65467,37.5329],[126.65465,37.5329],[126.65464,37.5329],[126.65464,37.5329],[126.65463,37.5329],[126.65462,37.5329],[126.6546,37.5329],[126.6546,37.5329],[126.6546,37.5329],[126.6546,37.5329],[126.6546,37.5329],[126.65459,37.5329],[126.65459,37.5329],[126.65457,37.53288],[126.65457,37.53288],[126.65457,37.53288],[126.65457,37.53288],[126.65457,37.53287],[126.65458,37.53287],[126.65459,37.53286],[126.65461,37.53284],[126.65462,37.53283],[126.65463,37.53282],[126.65464,37.53282],[126.65464,37.53282]]]}},{"type":"Feature","id":"TN_RIVER_BT:WTR02000000004MJR","properties":{"NF_ID":"WTR02000000004MJR","source_layer":"TN_RIVER_BT","semantic":"channel","river_class":"소하천","river_class_source":"중심선 공간조인","survey_method":"사진측량","admin_code":"28275"},"geometry":{"type":"Polygon","coordinates":[[[126.6434,37.5333],[126.64376,37.53308],[126.64502,37.53298],[126.64807,37.53298],[126.64374,37.533],[126.64271,37.53192],[126.64273,37.53055],[126.64267,37.53192],[126.64325,37.53243],[126.64286,37.53291],[126.63596,37.53292],[126.63696,37.53307],[126.64284,37.53299],[126.64325,37.53354],[126.64262,37.53422],[126.64267,37.53541],[126.64269,37.53419],[126.6434,37.5333]],[[126.64306,37.53299],[126.64307,37.53296],[126.64309,37.53292],[126.64313,37.53289],[126.64318,37.53287],[126.64325,37.53286],[126.64335,37.53285],[126.64344,37.53286],[126.64351,37.53288],[126.64356,37.5329],[126.64361,37.53294],[126.64362,37.53297],[126.64362,37.53298],[126.64362,37.53299],[126.64361,37.53302],[126.6436,37.53303],[126.64356,37.53307],[126.64349,37.5331],[126.64343,37.53311],[126.64335,37.53312],[126.64322,37.53311],[126.64316,37.5331],[126.6431,37.53306],[126.64306,37.53302],[126.64306,37.53299]]]}},{"type":"Feature","id":"TN_RIVER_BT:WTR02000000004MLT","properties":{"NF_ID":"WTR02000000004MLT","source_layer":"TN_RIVER_BT","semantic":"channel","river_class":"등급미확인","survey_method":"사진측량","admin_code":"28275"},"geometry":{"type":"Polygon","coordinates":[[[126.61068,37.53961],[126.61039,37.53961],[126.61052,37.53981],[126.61089,37.53965],[126.61068,37.53961]]]}},{"type":"Feature","id":"TN_RIVER_BT:WTR02000000004MMU","properties":{"NF_ID":"WTR02000000004MMU","source_layer":"TN_RIVER_BT","semantic":"channel","river_class":"등급미확인","survey_method":"사진측량","admin_code":"28275"},"geometry":{"type":"Polygon","coordinates":[[[126.61369,37.53995],[126.61374,37.53981],[126.61337,37.53987],[126.61369,37.53995]]]}},{"type":"Feature","id":"TN_RIVER_BT:WTR02000000004MNV","properties":{"NF_ID":"WTR02000000004MNV","source_layer":"TN_RIVER_BT","semantic":"channel","river_class":"등급미확인","survey_method":"사진측량","admin_code":"28275"},"geometry":{"type":"Polygon","coordinates":[[[126.60753,37.53978],[126.60743,37.54001],[126.60767,37.53988],[126.60753,37.53978]]]}},{"type":"Feature","id":"TN_RIVER_BT:WTR02000000004MOW","properties":{"NF_ID":"WTR02000000004MOW","source_layer":"TN_RIVER_BT","semantic":"channel","river_class":"등급미확인","survey_method":"사진측량","admin_code":"28275"},"geometry":{"type":"Polygon","coordinates":[[[126.61331,37.54023],[126.61332,37.54022],[126.61333,37.54021],[126.61334,37.5402],[126.61335,37.54018],[126.61334,37.54017],[126.61333,37.54015],[126.61331,37.54014],[126.61329,37.54013],[126.61327,37.54013],[126.61324,37.54014],[126.61321,37.54014],[126.61317,37.54013],[126.61313,37.54012],[126.61309,37.54012],[126.61306,37.54013],[126.61304,37.54013],[126.61302,37.54014],[126.613,37.54014],[126.61299,37.54014],[126.61299,37.54014],[126.61299,37.54015],[126.613,37.54016],[126.61303,37.54017],[126.61305,37.54018],[126.61306,37.5402],[126.61307,37.54022],[126.61308,37.54023],[126.6131,37.54023],[126.61313,37.54023],[126.61315,37.54023],[126.61321,37.54024],[126.61325,37.54024],[126.61328,37.54024],[126.6133,37.54024],[126.61331,37.54023]]]}},{"type":"Feature","id":"TN_RIVER_BT:WTR02000000004MPX","properties":{"NF_ID":"WTR02000000004MPX","source_layer":"TN_RIVER_BT","semantic":"channel","river_class":"등급미확인","survey_method":"사진측량","admin_code":"28275"},"geometry":{"type":"Polygon","coordinates":[[[126.61365,37.54014],[126.61343,37.54021],[126.61371,37.54029],[126.61365,37.54014]]]}},{"type":"Feature","id":"TN_RIVER_BT:WTR02000000004MQY","properties":{"NF_ID":"WTR02000000004MQY","source_layer":"TN_RIVER_BT","semantic":"channel","river_class":"등급미확인","survey_method":"사진측량","admin_code":"28275"},"geometry":{"type":"Polygon","coordinates":[[[126.6128,37.54022],[126.61278,37.54022],[126.61273,37.54023],[126.61269,37.54024],[126.61268,37.54025],[126.61267,37.54026],[126.61268,37.54027],[126.61268,37.54028],[126.61269,37.54029],[126.6127,37.5403],[126.61269,37.54031],[126.61268,37.54032],[126.61268,37.54032],[126.61268,37.54033],[126.61268,37.54034],[126.61269,37.54035],[126.61271,37.54035],[126.61272,37.54036],[126.61274,37.54038],[126.61276,37.54039],[126.61279,37.54039],[126.61281,37.54039],[126.61283,37.54038],[126.61285,37.54037],[126.61287,37.54037],[126.61288,37.54036],[126.6129,37.54034],[126.61291,37.54033],[126.61292,37.54032],[126.61293,37.54031],[126.61292,37.54029],[126.61292,37.54027],[126.6129,37.54026],[126.61289,37.54025],[126.61287,37.54025],[126.61284,37.54025],[126.61283,37.54024],[126.61283,37.54023],[126.61282,37.54023],[126.6128,37.54022]]]}},{"type":"Feature","id":"TN_RIVER_BT:WTR02000000004MRZ","properties":{"NF_ID":"WTR02000000004MRZ","source_layer":"TN_RIVER_BT","semantic":"channel","river_class":"지방하천","river_class_source":"중심선 공간조인","river_name":"심곡천","river_code":"1520300","survey_method":"사진측량","admin_code":"28275"},"geometry":{"type":"Polygon","coordinates":[[[126.61096,37.52738],[126.6122,37.52771],[126.61277,37.52731],[126.61402,37.52068],[126.61493,37.51956],[126.61665,37.51903],[126.62353,37.51905],[126.62357,37.51922],[126.62397,37.51905],[126.62567,37.51936],[126.62679,37.51981],[126.62663,37.51964],[126.62693,37.51964],[126.62712,37.51988],[126.62694,37.51987],[126.62843,37.52068],[126.63115,37.52166],[126.63348,37.52292],[126.63391,37.52261],[126.634,37.5231],[126.63686,37.52416],[126.63702,37.52432],[126.63654,37.52517],[126.63714,37.52433],[126.6408,37.52609],[126.64442,37.52698],[126.6491,37.52714],[126.65996,37.52716],[126.66061,37.52701],[126.66112,37.52744],[126.66204,37.53248],[126.66028,37.53419],[126.66245,37.53623],[126.66272,37.53836],[126.66298,37.53865],[126.66956,37.54176],[126.66593,37.53981],[126.66286,37.53846],[126.6626,37.53619],[126.66051,37.5344],[126.66059,37.53394],[126.66211,37.53257],[126.66201,37.53094],[126.66125,37.52795],[126.66124,37.52748],[126.66165,37.52755],[126.66166,37.52734],[126.661,37.52704],[126.6613,37.52679],[126.66074,37.52699],[126.66015,37.52696],[126.66008,37.52676],[126.6449,37.52669],[126.64189,37.52585],[126.62767,37.51957],[126.62724,37.51944],[126.62785,37.51985],[126.62694,37.51961],[126.62524,37.51864],[126.62706,37.51934],[126.62413,37.51808],[126.61658,37.51803],[126.61324,37.51948],[126.61347,37.51737],[126.61183,37.52694],[126.61167,37.52721],[126.61096,37.52738]],[[126.64632,37.52692],[126.64712,37.52694],[126.64709,37.52708],[126.64509,37.52689],[126.64567,37.52667],[126.64708,37.52676],[126.64632,37.52692]],[[126.64492,37.52676],[126.6449,37.52676],[126.64487,37.52676],[126.64484,37.52675],[126.64481,37.52674],[126.64474,37.52672],[126.64464,37.52668],[126.64458,37.52666],[126.64457,37.52666],[126.64454,37.52665],[126.64451,37.52665],[126.64449,37.52665],[126.64446,37.52665],[126.64444,37.52664],[126.64441,37.52663],[126.64439,37.52662],[126.64435,37.52661],[126.64433,37.52659],[126.64432,37.52658],[126.64432,37.52658],[126.64434,37.52657],[126.64437,37.52657],[126.64443,37.52656],[126.64445,37.52656],[126.64447,37.52657],[126.64448,37.52657],[126.6445,37.52657],[126.64452,37.52657],[126.64454,37.52657],[126.64456,37.52657],[126.64465,37.52659],[126.64467,37.52659],[126.64469,37.52659],[126.6447,37.52659],[126.64472,37.52659],[126.64474,37.52659],[126.64476,37.52659],[126.64477,37.5266],[126.64477,37.52661],[126.64478,37.52662],[126.64479,37.52664],[126.64483,37.52668],[126.64484,37.52669],[126.64485,37.5267],[126.64487,37.52671],[126.64489,37.52672],[126.64492,37.52673],[126.64495,37.52673],[126.64496,37.52674],[126.64496,37.52675],[126.64495,37.52676],[126.64494,37.52676],[126.64492,37.52676]],[[126.64483,37.52676],[126.64505,37.52694],[126.64396,37.52679],[126.64316,37.5264],[126.64483,37.52676]],[[126.64312,37.52646],[126.64336,37.52653],[126.64322,37.52662],[126.64267,37.52642],[126.64312,37.52646]],[[126.64743,37.52698],[126.64747,37.52698],[126.64752,37.527],[126.64755,37.52701],[126.64757,37.52702],[126.64757,37.52704],[126.64756,37.52706],[126.64756,37.52707],[126.64756,37.52708],[126.64757,37.5271],[126.64756,37.5271],[126.64755,37.52711],[126.64752,37.52711],[126.64743,37.5271],[126.6474,37.5271],[126.64738,37.5271],[126.64736,37.52709],[126.64735,37.52708],[126.64734,37.52706],[126.64734,37.52703],[126.64734,37.52701],[126.64736,37.52699],[126.64738,37.52699],[126.64743,37.52698]],[[126.64031,37.52539],[126.6403,37.52539],[126.64028,37.52539],[126.64026,37.52539],[126.64023,37.52539],[126.64022,37.52538],[126.64021,37.52537],[126.64018,37.52531],[126.64018,37.5253],[126.64018,37.52529],[126.64019,37.52528],[126.6402,37.52528],[126.64022,37.52527],[126.64025,37.52527],[126.64026,37.52527],[126.64029,37.52528],[126.64031,37.52529],[126.64033,37.52529],[126.64037,37.52531],[126.64039,37.52532],[126.64047,37.52536],[126.64049,37.52536],[126.64052,37.52537],[126.64055,37.52538],[126.64056,37.52539],[126.64056,37.5254],[126.64055,37.52541],[126.64053,37.52542],[126.64051,37.52542],[126.64049,37.52543],[126.64047,37.52542],[126.64038,37.5254],[126.64035,37.5254],[126.64031,37.52539]],[[126.63881,37.5246],[126.63884,37.5246],[126.63887,37.52461],[126.63892,37.52463],[126.63899,37.52466],[126.63909,37.52471],[126.63923,37.52477],[126.6393,37.5248],[126.63934,37.52484],[126.63935,37.52485],[126.63934,37.52487],[126.63932,37.52488],[126.6393,37.52488],[126.63928,37.52488],[126.6392,37.52485],[126.63918,37.52484],[126.63916,37.52484],[126.63913,37.52483],[126.63911,37.52482],[126.63906,37.52478],[126.63904,37.52477],[126.63896,37.52475],[126.63891,37.52474],[126.63888,37.52474],[126.63885,37.52473],[126.63883,37.52473],[126.63881,37.52473],[126.63879,37.52471],[126.63878,37.52469],[126.63877,37.52466],[126.63877,37.52463],[126.63878,37.52461],[126.6388,37.5246],[126.63881,37.5246]],[[126.63785,37.52433],[126.63739,37.52399],[126.6381,37.5243],[126.63785,37.52433]],[[126.63614,37.5235],[126.63619,37.5235],[126.63623,37.52351],[126.6363,37.52354],[126.63639,37.52358],[126.63641,37.52358],[126.63642,37.52359],[126.63645,37.52359],[126.63646,37.52359],[126.63647,37.5236],[126.63647,37.52361],[126.63646,37.52362],[126.63644,37.52364],[126.63642,37.52364],[126.6364,37.52364],[126.63638,37.52363],[126.63635,37.52362],[126.6363,37.52361],[126.63627,37.5236],[126.63624,37.5236],[126.63621,37.52359],[126.63617,37.52359],[126.63614,37.52358],[126.63612,37.52357],[126.6361,37.52355],[126.63609,37.52353],[126.63609,37.52352],[126.63609,37.52351],[126.63611,37.52351],[126.63614,37.5235]],[[126.63549,37.5233],[126.63547,37.5233],[126.63545,37.5233],[126.63543,37.5233],[126.63542,37.52331],[126.63541,37.52332],[126.63539,37.52333],[126.63537,37.52332],[126.63536,37.52331],[126.63532,37.52327],[126.63531,37.52326],[126.63529,37.52325],[126.63526,37.52326],[126.63525,37.52326],[126.63523,37.52327],[126.63522,37.52327],[126.63522,37.52326],[126.63522,37.52325],[126.63522,37.52323],[126.63523,37.52323],[126.63525,37.52323],[126.63526,37.52322],[126.63528,37.52322],[126.6353,37.52321],[126.63531,37.52321],[126.63541,37.52325],[126.63543,37.52326],[126.63545,37.52326],[126.63547,37.52326],[126.63548,37.52326],[126.6355,37.52325],[126.63551,37.52325],[126.63552,37.52325],[126.63556,37.52326],[126.63569,37.52331],[126.6357,37.52332],[126.63571,37.52332],[126.6357,37.52333],[126.63568,37.52334],[126.63566,37.52335],[126.63564,37.52335],[126.63562,37.52335],[126.63549,37.5233]],[[126.63518,37.52328],[126.63517,37.5233],[126.63515,37.52331],[126.63513,37.52331],[126.63512,37.5233],[126.63512,37.52329],[126.63511,37.52327],[126.63511,37.52326],[126.63512,37.52325],[126.63513,37.52324],[126.63515,37.52323],[126.63516,37.52323],[126.63517,37.52323],[126.63518,37.52323],[126.63518,37.52324],[126.63519,37.52325],[126.63518,37.52327],[126.63518,37.52328]]]}},{"type":"Feature","id":"TN_RIVER_BT:WTR02000000004MX5","properties":{"NF_ID":"WTR02000000004MX5","source_layer":"TN_RIVER_BT","semantic":"channel","river_class":"소하천","river_class_source":"중심선 공간조인","survey_method":"사진측량","admin_code":"28275"},"geometry":{"type":"Polygon","coordinates":[[[126.70038,37.55021],[126.70008,37.55011],[126.69748,37.5507],[126.69599,37.55071],[126.69829,37.55065],[126.7001,37.55019],[126.70105,37.55068],[126.70107,37.55105],[126.70158,37.55124],[126.70109,37.55102],[126.7011,37.55067],[126.70038,37.55021]]]}},{"type":"Feature","id":"TN_RIVER_BT:WTR02000000004N09","properties":{"NF_ID":"WTR02000000004N09","source_layer":"TN_RIVER_BT","semantic":"channel","river_class":"소하천","river_class_source":"중심선 공간조인","survey_method":"사진측량","admin_code":"28275"},"geometry":{"type":"Polygon","coordinates":[[[126.62991,37.55449],[126.62997,37.55448],[126.62999,37.55449],[126.62997,37.55444],[126.62995,37.55444],[126.62991,37.55446],[126.62988,37.55445],[126.62986,37.55445],[126.62979,37.55442],[126.62972,37.55438],[126.62965,37.55435],[126.62957,37.55435],[126.62947,37.55436],[126.6294,37.55435],[126.62935,37.55432],[126.62926,37.55427],[126.62923,37.55426],[126.6292,37.55426],[126.62918,37.55426],[126.62917,37.55426],[126.62913,37.55427],[126.62907,37.5543],[126.62907,37.5543],[126.62908,37.55431],[126.62909,37.55432],[126.62909,37.55432],[126.6291,37.55433],[126.6291,37.55434],[126.62912,37.55433],[126.62916,37.5543],[126.6292,37.55428],[126.62923,37.55428],[126.62925,37.55429],[126.62928,37.55431],[126.62929,37.55431],[126.62933,37.55434],[126.62936,37.55436],[126.62938,37.55437],[126.6294,37.55438],[126.62943,37.55438],[126.62945,37.55438],[126.62953,37.55439],[126.62957,37.55438],[126.62959,37.55438],[126.62967,37.55439],[126.6297,37.5544],[126.62972,37.55441],[126.62974,37.55442],[126.6298,37.55446],[126.62984,37.55447],[126.62987,37.55448],[126.62989,37.55449],[126.62991,37.55449]]]}}]}