{"type":"FeatureCollection","features":[{"type":"Feature","id":"TN_RIVER_BNDRY:WTR0100000000K1CE","properties":{"NF_ID":"WTR0100000000K1CE","admin_code":"11230","source_layer":"TN_RIVER_BNDRY","semantic":"zone","river_class":"지방하천","river_class_source":"중심선 공간조인","river_name":"중랑천","river_code":"1025090","survey_method":"사진측량"},"geometry":{"type":"Polygon","coordinates":[[[127.07484,37.56388],[127.07417,37.56417],[127.07715,37.56941],[127.07804,37.57164],[127.07812,37.57324],[127.07774,37.57659],[127.07839,37.57664],[127.0788,37.5731],[127.07846,37.57077],[127.07779,37.56918],[127.07484,37.56388]]]}},{"type":"Feature","id":"TN_RIVER_BNDRY:WTR0100000000K1JL","properties":{"NF_ID":"WTR0100000000K1JL","admin_code":"11230","source_layer":"TN_RIVER_BNDRY","semantic":"zone","river_class":"지방하천","river_class_source":"중심선 공간조인","river_name":"중랑천","river_code":"1025090","survey_method":"사진측량"},"geometry":{"type":"Polygon","coordinates":[[[127.07102,37.59864],[127.07035,37.59895],[127.07153,37.60036],[127.07228,37.60218],[127.07126,37.60748],[127.07207,37.60749],[127.07307,37.60303],[127.07307,37.60192],[127.07242,37.6003],[127.07102,37.59864]]]}},{"type":"Feature","id":"TN_RIVER_BNDRY:WTR0100000000K427","properties":{"NF_ID":"WTR0100000000K427","admin_code":"11230","source_layer":"TN_RIVER_BNDRY","semantic":"zone","river_class":"지방하천","river_class_source":"중심선 공간조인","river_name":"정릉천","river_code":"1025290","survey_method":"사진측량"},"geometry":{"type":"Polygon","coordinates":[[[127.03607,37.57241],[127.03524,37.57212],[127.03435,37.57344],[127.03423,37.57795],[127.03445,37.58018],[127.03554,37.58519],[127.03761,37.5892],[127.03778,37.58925],[127.04014,37.59489],[127.0406,37.59693],[127.04063,37.59964],[127.04095,37.59966],[127.0411,37.59777],[127.04075,37.5955],[127.03914,37.59142],[127.03594,37.58509],[127.03531,37.58146],[127.03512,37.58148],[127.03452,37.57863],[127.03481,37.57859],[127.03464,37.57745],[127.03471,37.5739],[127.03535,37.57278],[127.03607,37.57241]]]}},{"type":"Feature","id":"TN_RIVER_BNDRY:WTR0100000000K4CH","properties":{"NF_ID":"WTR0100000000K4CH","admin_code":"11230","source_layer":"TN_RIVER_BNDRY","semantic":"zone","river_class":"지방하천","river_class_source":"중심선 공간조인","river_name":"청계천","river_code":"1015270","survey_method":"사진측량"},"geometry":{"type":"Polygon","coordinates":[[[127.0355,37.57177],[127.03452,37.57133],[127.03275,37.57009],[127.03134,37.56964],[127.03049,37.5696],[127.02782,37.57035],[127.02795,37.57062],[127.03014,37.57003],[127.03151,37.57004],[127.03239,37.57035],[127.03524,37.57212],[127.0355,37.57177]]]}},{"type":"Feature","id":"TN_RIVER_BNDRY:WTR0100000000K4DI","properties":{"NF_ID":"WTR0100000000K4DI","admin_code":"11230","source_layer":"TN_RIVER_BNDRY","semantic":"zone","river_class":"지방하천","river_class_source":"중심선 공간조인","river_name":"청계천","river_code":"1015270","survey_method":"사진측량"},"geometry":{"type":"Polygon","coordinates":[[[127.02795,37.57062],[127.02782,37.57035],[127.0275,37.57037],[127.02751,37.57074],[127.02795,37.57062]]]}},{"type":"Feature","id":"TN_RIVER_BNDRY:WTR0100000000K4EJ","properties":{"NF_ID":"WTR0100000000K4EJ","admin_code":"11230","source_layer":"TN_RIVER_BNDRY","semantic":"zone","river_class":"지방하천","river_class_source":"중심선 공간조인","river_name":"청계천","river_code":"1015270","survey_method":"사진측량"},"geometry":{"type":"Polygon","coordinates":[[[127.03606,37.5719],[127.0355,37.57177],[127.03524,37.57212],[127.03607,37.57241],[127.03606,37.5719]]]}},{"type":"Feature","id":"TN_RIVER_BNDRY:WTR0100000000K5OU","properties":{"NF_ID":"WTR0100000000K5OU","admin_code":"11230","source_layer":"TN_RIVER_BNDRY","semantic":"zone","river_class":"지방하천","river_class_source":"중심선 공간조인","river_name":"중랑천","river_code":"1025090","survey_method":"사진측량"},"geometry":{"type":"Polygon","coordinates":[[[127.07102,37.59864],[127.07094,37.59853],[127.07022,37.59879],[127.07035,37.59895],[127.07102,37.59864]]]}},{"type":"Feature","id":"TN_RIVER_BNDRY:WTR0100000000K5PV","properties":{"NF_ID":"WTR0100000000K5PV","admin_code":"11230","source_layer":"TN_RIVER_BNDRY","semantic":"zone","river_class":"소하천","river_class_source":"중심선 공간조인","survey_method":"사진측량"},"geometry":{"type":"Polygon","coordinates":[[[127.06905,37.5965],[127.06906,37.59633],[127.06874,37.59644],[127.06875,37.59659],[127.06905,37.5965]]]}},{"type":"Feature","id":"TN_RIVER_BNDRY:WTR0100000000K5QW","properties":{"NF_ID":"WTR0100000000K5QW","admin_code":"11230","source_layer":"TN_RIVER_BNDRY","semantic":"zone","river_class":"지방하천","river_class_source":"중심선 공간조인","river_name":"중랑천","river_code":"1025090","survey_method":"사진측량"},"geometry":{"type":"Polygon","coordinates":[[[127.06974,37.5964],[127.06974,37.59622],[127.06906,37.59633],[127.06905,37.5965],[127.06974,37.5964]]]}},{"type":"Feature","id":"TN_RIVER_BNDRY:WTR0100000000K5TZ","properties":{"NF_ID":"WTR0100000000K5TZ","admin_code":"11230","source_layer":"TN_RIVER_BNDRY","semantic":"zone","river_class":"소하천","river_class_source":"중심선 공간조인","survey_method":"사진측량"},"geometry":{"type":"Polygon","coordinates":[[[127.07417,37.56417],[127.07413,37.56411],[127.07399,37.56423],[127.07367,37.56443],[127.07369,37.56446],[127.07395,37.5643],[127.07417,37.56417]]]}}]}