{"type":"FeatureCollection","features":[{"type":"Feature","id":"TN_RIVER_BNDRY:WTR0100000001LJAW","properties":{"NF_ID":"WTR0100000001LJAW","admin_code":"26350","source_layer":"TN_RIVER_BNDRY","semantic":"zone","river_class":"지방하천","river_class_source":"중심선 공간조인","river_name":"석대천","river_code":"2621050","survey_method":"사진측량"},"geometry":{"type":"Polygon","coordinates":[[[129.12196,35.21602],[129.12147,35.21563],[129.12138,35.21573],[129.12192,35.21614],[129.12196,35.21602]]]}},{"type":"Feature","id":"TN_RIVER_BNDRY:WTR0100000001LJBX","properties":{"NF_ID":"WTR0100000001LJBX","admin_code":"26350","source_layer":"TN_RIVER_BNDRY","semantic":"zone","river_class":"지방하천","river_class_source":"중심선 공간조인","river_name":"석대천","river_code":"2621050","survey_method":"사진측량"},"geometry":{"type":"Polygon","coordinates":[[[129.14937,35.22982],[129.14793,35.22933],[129.14752,35.2289],[129.14752,35.2267],[129.14726,35.22614],[129.14667,35.22575],[129.14644,35.22537],[129.14626,35.22489],[129.14631,35.22332],[129.14604,35.22281],[129.14346,35.22079],[129.14226,35.21905],[129.1412,35.2185],[129.13744,35.21834],[129.13426,35.21791],[129.1313,35.21834],[129.13133,35.21823],[129.12593,35.21762],[129.12457,35.21709],[129.12344,35.21688],[129.12343,35.2172],[129.12557,35.21782],[129.13112,35.21859],[129.13482,35.21827],[129.13737,35.21857],[129.14063,35.21863],[129.14166,35.21897],[129.14239,35.21955],[129.14291,35.22022],[129.14297,35.22057],[129.14602,35.22299],[129.14628,35.22545],[129.14731,35.22669],[129.14722,35.22869],[129.14786,35.22942],[129.14934,35.22993],[129.14937,35.22982]]]}},{"type":"Feature","id":"TN_RIVER_BNDRY:WTR0100000001LJCY","properties":{"NF_ID":"WTR0100000001LJCY","admin_code":"26350","source_layer":"TN_RIVER_BNDRY","semantic":"zone","river_class":"소하천","river_class_source":"중심선 공간조인","survey_method":"사진측량"},"geometry":{"type":"Polygon","coordinates":[[[129.1158,35.18975],[129.11572,35.18995],[129.11576,35.18996],[129.11583,35.18999],[129.11585,35.18996],[129.11588,35.18997],[129.1159,35.18989],[129.11584,35.18986],[129.11583,35.18976],[129.1158,35.18975]]]}},{"type":"Feature","id":"TN_RIVER_BNDRY:WTR0100000001LJDZ","properties":{"NF_ID":"WTR0100000001LJDZ","admin_code":"26350","source_layer":"TN_RIVER_BNDRY","semantic":"zone","river_class":"지방하천","river_class_source":"중심선 공간조인","river_name":"수영강","river_code":"2620970","survey_method":"사진측량"},"geometry":{"type":"Polygon","coordinates":[[[129.11623,35.18849],[129.11493,35.18847],[129.11465,35.1894],[129.1158,35.18975],[129.11623,35.18849]]]}},{"type":"Feature","id":"TN_RIVER_BNDRY:WTR0100000001LJE0","properties":{"NF_ID":"WTR0100000001LJE0","admin_code":"26350","source_layer":"TN_RIVER_BNDRY","semantic":"zone","river_class":"지방하천","river_class_source":"중심선 공간조인","river_name":"수영강","river_code":"2620970","survey_method":"사진측량"},"geometry":{"type":"Polygon","coordinates":[[[129.1158,35.18975],[129.11465,35.1894],[129.11459,35.18963],[129.11572,35.18995],[129.1158,35.18975]]]}},{"type":"Feature","id":"TN_RIVER_BNDRY:WTR0100000001LJF1","properties":{"NF_ID":"WTR0100000001LJF1","admin_code":"26350","source_layer":"TN_RIVER_BNDRY","semantic":"zone","river_class":"지방하천","river_class_source":"중심선 공간조인","river_name":"수영강","river_code":"2620970","survey_method":"사진측량"},"geometry":{"type":"Polygon","coordinates":[[[129.13066,35.16161],[129.13291,35.16312],[129.13398,35.16238],[129.13106,35.16112],[129.13066,35.16161]]]}},{"type":"Feature","id":"TN_RIVER_BNDRY:WTR0100000001LJI4","properties":{"NF_ID":"WTR0100000001LJI4","admin_code":"26350","source_layer":"TN_RIVER_BNDRY","semantic":"zone","river_class":"소하천","river_class_source":"중심선 공간조인","survey_method":"사진측량"},"geometry":{"type":"Polygon","coordinates":[[[129.14309,35.23584],[129.14382,35.23492],[129.14364,35.23435],[129.14412,35.23387],[129.14362,35.23433],[129.14359,35.23461],[129.14378,35.23482],[129.14348,35.23534],[129.14309,35.23578],[129.14269,35.23588],[129.1428,35.23612],[129.14278,35.23589],[129.14309,35.23584]]]}},{"type":"Feature","id":"TN_RIVER_BNDRY:WTR0100000001LJK6","properties":{"NF_ID":"WTR0100000001LJK6","admin_code":"26350","source_layer":"TN_RIVER_BNDRY","semantic":"zone","river_class":"소하천","river_class_source":"중심선 공간조인","survey_method":"사진측량"},"geometry":{"type":"Polygon","coordinates":[[[129.14629,35.23211],[129.14709,35.23216],[129.14784,35.232],[129.14697,35.23214],[129.14634,35.23204],[129.14577,35.2326],[129.14629,35.23211]]]}},{"type":"Feature","id":"TN_RIVER_BNDRY:WTR0100000001LJL7","properties":{"NF_ID":"WTR0100000001LJL7","admin_code":"26350","source_layer":"TN_RIVER_BNDRY","semantic":"zone","river_class":"소하천","river_class_source":"중심선 공간조인","survey_method":"사진측량"},"geometry":{"type":"Polygon","coordinates":[[[129.12748,35.22083],[129.12748,35.22087],[129.12766,35.22091],[129.12767,35.22088],[129.12748,35.22083]]]}},{"type":"Feature","id":"TN_RIVER_BNDRY:WTR0100000001LJM8","properties":{"NF_ID":"WTR0100000001LJM8","admin_code":"26350","source_layer":"TN_RIVER_BNDRY","semantic":"zone","river_class":"소하천","river_class_source":"중심선 공간조인","survey_method":"사진측량"},"geometry":{"type":"Polygon","coordinates":[[[129.12748,35.22087],[129.12746,35.22086],[129.12746,35.22107],[129.12746,35.2213],[129.12748,35.22151],[129.1275,35.22151],[129.12747,35.22123],[129.12748,35.22087]]]}},{"type":"Feature","id":"TN_RIVER_BNDRY:WTR0100000001LJN9","properties":{"NF_ID":"WTR0100000001LJN9","admin_code":"26350","source_layer":"TN_RIVER_BNDRY","semantic":"zone","river_class":"소하천","river_class_source":"중심선 공간조인","survey_method":"사진측량"},"geometry":{"type":"Polygon","coordinates":[[[129.12746,35.22082],[129.1274,35.22081],[129.12739,35.22085],[129.12746,35.22086],[129.12746,35.22082]]]}},{"type":"Feature","id":"TN_RIVER_BNDRY:WTR0100000001LJOA","properties":{"NF_ID":"WTR0100000001LJOA","admin_code":"26350","source_layer":"TN_RIVER_BNDRY","semantic":"zone","river_class":"소하천","river_class_source":"중심선 공간조인","survey_method":"사진측량"},"geometry":{"type":"Polygon","coordinates":[[[129.12748,35.22083],[129.12746,35.22082],[129.12746,35.22086],[129.12748,35.22087],[129.12748,35.22083]]]}},{"type":"Feature","id":"TN_RIVER_BNDRY:WTR0100000001LJPB","properties":{"NF_ID":"WTR0100000001LJPB","admin_code":"26350","source_layer":"TN_RIVER_BNDRY","semantic":"zone","river_class":"소하천","river_class_source":"중심선 공간조인","survey_method":"사진측량"},"geometry":{"type":"Polygon","coordinates":[[[129.13093,35.20289],[129.13144,35.20236],[129.13079,35.20289],[129.13019,35.20263],[129.13035,35.20288],[129.13093,35.20289]]]}},{"type":"Feature","id":"TN_RIVER_BNDRY:WTR0100000001LJQC","properties":{"NF_ID":"WTR0100000001LJQC","admin_code":"26350","source_layer":"TN_RIVER_BNDRY","semantic":"zone","river_class":"소하천","river_class_source":"중심선 공간조인","survey_method":"사진측량"},"geometry":{"type":"Polygon","coordinates":[[[129.13718,35.20266],[129.13764,35.2023],[129.13835,35.2023],[129.13773,35.20218],[129.13706,35.20261],[129.13606,35.20254],[129.13577,35.20266],[129.13718,35.20266]]]}},{"type":"Feature","id":"TN_RIVER_BNDRY:WTR0100000001LJRD","properties":{"NF_ID":"WTR0100000001LJRD","admin_code":"26350","source_layer":"TN_RIVER_BNDRY","semantic":"zone","river_class":"소하천","river_class_source":"중심선 공간조인","survey_method":"사진측량"},"geometry":{"type":"Polygon","coordinates":[[[129.1279,35.20187],[129.12759,35.20165],[129.1269,35.202],[129.12645,35.20181],[129.12606,35.20201],[129.1265,35.20186],[129.12691,35.20207],[129.12757,35.20173],[129.12799,35.20216],[129.1279,35.20187]]]}},{"type":"Feature","id":"TN_RIVER_BNDRY:WTR0100000001LJSE","properties":{"NF_ID":"WTR0100000001LJSE","admin_code":"26350","source_layer":"TN_RIVER_BNDRY","semantic":"zone","river_class":"소하천","river_class_source":"중심선 공간조인","survey_method":"사진측량"},"geometry":{"type":"Polygon","coordinates":[[[129.13762,35.20118],[129.13762,35.20116],[129.13759,35.20116],[129.13758,35.20116],[129.13756,35.20117],[129.13755,35.20117],[129.1375,35.20126],[129.13746,35.2013],[129.13742,35.20133],[129.13731,35.20138],[129.13721,35.20142],[129.13724,35.20149],[129.13749,35.20134],[129.13755,35.20131],[129.13762,35.20118]]]}},{"type":"Feature","id":"TN_RIVER_BNDRY:WTR0100000001LJTF","properties":{"NF_ID":"WTR0100000001LJTF","admin_code":"26350","source_layer":"TN_RIVER_BNDRY","semantic":"zone","river_class":"소하천","river_class_source":"중심선 공간조인","survey_method":"사진측량"},"geometry":{"type":"Polygon","coordinates":[[[129.14259,35.22239],[129.14257,35.22236],[129.14249,35.22241],[129.14245,35.22243],[129.14242,35.22245],[129.14241,35.22247],[129.14241,35.22248],[129.14241,35.22249],[129.14241,35.22251],[129.14241,35.22255],[129.14241,35.22257],[129.1424,35.22258],[129.14239,35.2226],[129.14238,35.22261],[129.14236,35.22263],[129.14233,35.22264],[129.14227,35.22266],[129.14227,35.22267],[129.14227,35.22267],[129.14226,35.22267],[129.14226,35.22268],[129.14226,35.22269],[129.14227,35.22278],[129.14227,35.22279],[129.14227,35.2228],[129.14226,35.2228],[129.14226,35.22281],[129.14219,35.22288],[129.14217,35.2229],[129.14214,35.22295],[129.14212,35.22297],[129.14209,35.22304],[129.14208,35.22306],[129.14213,35.22308],[129.14215,35.22298],[129.1422,35.22291],[129.14221,35.22289],[129.14227,35.22285],[129.14228,35.22284],[129.14229,35.22283],[129.14229,35.22282],[129.1423,35.22281],[129.1423,35.2228],[129.1423,35.22279],[129.1423,35.22277],[129.1423,35.22275],[129.1423,35.22273],[129.14229,35.22272],[129.14229,35.2227],[129.14229,35.22269],[129.1423,35.22268],[129.14231,35.22268],[129.14232,35.22267],[129.14233,35.22267],[129.14236,35.22266],[129.14239,35.22264],[129.14242,35.22263],[129.14243,35.2226],[129.14244,35.2226],[129.14244,35.22258],[129.14244,35.22257],[129.14243,35.22254],[129.14243,35.22251],[129.14243,35.2225],[129.14243,35.22249],[129.14243,35.22248],[129.14243,35.22247],[129.14244,35.22246],[129.14247,35.22244],[129.14252,35.22242],[129.14259,35.22239]]]}},{"type":"Feature","id":"TN_RIVER_BNDRY:WTR0100000001LJUG","properties":{"NF_ID":"WTR0100000001LJUG","admin_code":"26350","source_layer":"TN_RIVER_BNDRY","semantic":"zone","river_class":"소하천","river_class_source":"중심선 공간조인","survey_method":"사진측량"},"geometry":{"type":"Polygon","coordinates":[[[129.13092,35.18597],[129.1306,35.18584],[129.12953,35.18592],[129.13092,35.18597]]]}},{"type":"Feature","id":"TN_RIVER_BNDRY:WTR0100000001LJVH","properties":{"NF_ID":"WTR0100000001LJVH","admin_code":"26350","source_layer":"TN_RIVER_BNDRY","semantic":"zone","river_class":"소하천","river_class_source":"중심선 공간조인","survey_method":"사진측량"},"geometry":{"type":"Polygon","coordinates":[[[129.13079,35.17609],[129.13074,35.17608],[129.1307,35.17611],[129.13071,35.17615],[129.13074,35.17616],[129.13079,35.17617],[129.13093,35.17618],[129.13111,35.17619],[129.13127,35.1762],[129.13139,35.17621],[129.1314,35.1762],[129.1314,35.1762],[129.1314,35.17619],[129.1314,35.17619],[129.13121,35.17614],[129.13094,35.17611],[129.13083,35.1761],[129.13079,35.17609]]]}},{"type":"Feature","id":"TN_RIVER_BNDRY:WTR0100000001LJWI","properties":{"NF_ID":"WTR0100000001LJWI","admin_code":"26350","source_layer":"TN_RIVER_BNDRY","semantic":"zone","river_class":"소하천","river_class_source":"중심선 공간조인","survey_method":"사진측량"},"geometry":{"type":"Polygon","coordinates":[[[129.12987,35.17632],[129.13036,35.17598],[129.12973,35.17629],[129.12923,35.17593],[129.12987,35.17632]]]}},{"type":"Feature","id":"TN_RIVER_BNDRY:WTR0100000001LJXJ","properties":{"NF_ID":"WTR0100000001LJXJ","admin_code":"26350","source_layer":"TN_RIVER_BNDRY","semantic":"zone","river_class":"소하천","river_class_source":"중심선 공간조인","survey_method":"사진측량"},"geometry":{"type":"Polygon","coordinates":[[[129.13964,35.17047],[129.13956,35.17134],[129.13995,35.17214],[129.14009,35.17304],[129.14098,35.17454],[129.14178,35.17729],[129.14247,35.17828],[129.14263,35.17886],[129.14256,35.17825],[129.14217,35.17753],[129.14186,35.17726],[129.14169,35.17632],[129.14112,35.17496],[129.14111,35.17447],[129.14032,35.17316],[129.14014,35.17212],[129.13964,35.17131],[129.13964,35.17047]]]}},{"type":"Feature","id":"TN_RIVER_BNDRY:WTR0100000001LJYK","properties":{"NF_ID":"WTR0100000001LJYK","admin_code":"26350","source_layer":"TN_RIVER_BNDRY","semantic":"zone","river_class":"소하천","river_class_source":"중심선 공간조인","survey_method":"사진측량"},"geometry":{"type":"Polygon","coordinates":[[[129.14568,35.17254],[129.14552,35.17249],[129.14536,35.17248],[129.14535,35.17247],[129.14524,35.1725],[129.14522,35.17251],[129.14522,35.17253],[129.14525,35.17253],[129.14537,35.17252],[129.14571,35.17259],[129.14577,35.17261],[129.14588,35.17262],[129.14581,35.17258],[129.14568,35.17254]]]}},{"type":"Feature","id":"TN_RIVER_BNDRY:WTR0100000001LJZL","properties":{"NF_ID":"WTR0100000001LJZL","admin_code":"26350","source_layer":"TN_RIVER_BNDRY","semantic":"zone","river_class":"소하천","river_class_source":"중심선 공간조인","survey_method":"사진측량"},"geometry":{"type":"Polygon","coordinates":[[[129.14864,35.17309],[129.1485,35.173],[129.14747,35.17312],[129.1485,35.17305],[129.14909,35.17392],[129.15013,35.17464],[129.15028,35.17514],[129.15084,35.17582],[129.15009,35.17445],[129.14913,35.17387],[129.14864,35.17309]]]}},{"type":"Feature","id":"TN_RIVER_BNDRY:WTR0100000001LK0N","properties":{"NF_ID":"WTR0100000001LK0N","admin_code":"26350","source_layer":"TN_RIVER_BNDRY","semantic":"zone","river_class":"지방하천","river_class_source":"중심선 공간조인","river_name":"석대천","river_code":"2621050","survey_method":"사진측량"},"geometry":{"type":"Polygon","coordinates":[[[129.16158,35.23588],[129.16163,35.23566],[129.1608,35.23577],[129.15958,35.23563],[129.15771,35.23499],[129.15653,35.2339],[129.15557,35.23245],[129.1554,35.23253],[129.15699,35.2346],[129.15799,35.23527],[129.15898,35.23562],[129.16158,35.23588]]]}},{"type":"Feature","id":"TN_RIVER_BNDRY:WTR0100000001LKCZ","properties":{"NF_ID":"WTR0100000001LKCZ","admin_code":"26350","source_layer":"TN_RIVER_BNDRY","semantic":"zone","river_class":"소하천","river_class_source":"중심선 공간조인","survey_method":"사진측량"},"geometry":{"type":"Polygon","coordinates":[[[129.15502,35.21974],[129.15505,35.21966],[129.15494,35.21964],[129.15492,35.21976],[129.15501,35.21975],[129.15502,35.21974]]]}},{"type":"Feature","id":"TN_RIVER_BNDRY:WTR0100000001LKD0","properties":{"NF_ID":"WTR0100000001LKD0","admin_code":"26350","source_layer":"TN_RIVER_BNDRY","semantic":"zone","river_class":"소하천","river_class_source":"중심선 공간조인","survey_method":"사진측량"},"geometry":{"type":"Polygon","coordinates":[[[129.15505,35.21966],[129.15598,35.21998],[129.15674,35.21982],[129.15602,35.21988],[129.15551,35.21965],[129.15505,35.21966]]]}},{"type":"Feature","id":"TN_RIVER_BNDRY:WTR0100000001LKE1","properties":{"NF_ID":"WTR0100000001LKE1","admin_code":"26350","source_layer":"TN_RIVER_BNDRY","semantic":"zone","river_class":"소하천","river_class_source":"중심선 공간조인","survey_method":"사진측량"},"geometry":{"type":"Polygon","coordinates":[[[129.15492,35.21976],[129.15494,35.21964],[129.15394,35.21988],[129.15492,35.21976]]]}},{"type":"Feature","id":"TN_RIVER_BNDRY:WTR0100000001LKF2","properties":{"NF_ID":"WTR0100000001LKF2","admin_code":"26350","source_layer":"TN_RIVER_BNDRY","semantic":"zone","river_class":"소하천","river_class_source":"중심선 공간조인","survey_method":"사진측량"},"geometry":{"type":"Polygon","coordinates":[[[129.15494,35.21964],[129.15661,35.21822],[129.15725,35.21719],[129.1579,35.21701],[129.15713,35.21717],[129.15683,35.21787],[129.15591,35.21878],[129.15549,35.21898],[129.15494,35.21964]]]}},{"type":"Feature","id":"TN_RIVER_BNDRY:WTR0100000001LKG3","properties":{"NF_ID":"WTR0100000001LKG3","admin_code":"26350","source_layer":"TN_RIVER_BNDRY","semantic":"zone","river_class":"지방하천","river_class_source":"중심선 공간조인","river_name":"춘천","river_code":"2620950","survey_method":"사진측량"},"geometry":{"type":"Polygon","coordinates":[[[129.17435,35.16857],[129.17423,35.16851],[129.17377,35.16896],[129.17332,35.16976],[129.17335,35.17179],[129.17321,35.17233],[129.17282,35.17278],[129.17184,35.17286],[129.17131,35.17314],[129.17001,35.17495],[129.16929,35.17569],[129.16912,35.17664],[129.16831,35.17752],[129.16803,35.17828],[129.16674,35.17896],[129.16605,35.18048],[129.16621,35.18106],[129.16598,35.18166],[129.16508,35.18293],[129.16484,35.18414],[129.16442,35.18463],[129.16419,35.18537],[129.16302,35.18572],[129.16247,35.18613],[129.16273,35.18722],[129.16168,35.18723],[129.16099,35.18789],[129.16128,35.18939],[129.16052,35.19006],[129.16007,35.19114],[129.16072,35.19004],[129.16141,35.18951],[129.16111,35.18801],[129.16176,35.18737],[129.16287,35.18735],[129.16296,35.18708],[129.1627,35.18612],[129.16307,35.18584],[129.16406,35.18564],[129.16443,35.18543],[129.16457,35.18491],[129.16507,35.18418],[129.1654,35.18277],[129.16617,35.1819],[129.16633,35.1812],[129.16683,35.18139],[129.16706,35.18127],[129.16675,35.18069],[129.16695,35.18053],[129.16728,35.18054],[129.16743,35.18026],[129.16659,35.17988],[129.16696,35.17906],[129.16831,35.1783],[129.16859,35.17759],[129.16929,35.17658],[129.16936,35.17576],[129.17022,35.17487],[129.1705,35.17431],[129.17125,35.17366],[129.1715,35.1732],[129.17255,35.17305],[129.17332,35.17253],[129.17354,35.17179],[129.17342,35.17013],[129.17435,35.16857]]]}},{"type":"Feature","id":"TN_RIVER_BNDRY:WTR0100000001LKH4","properties":{"NF_ID":"WTR0100000001LKH4","admin_code":"26350","source_layer":"TN_RIVER_BNDRY","semantic":"zone","river_class":"소하천","river_class_source":"중심선 공간조인","survey_method":"사진측량"},"geometry":{"type":"Polygon","coordinates":[[[129.17506,35.18184],[129.17505,35.18181],[129.17484,35.18185],[129.17461,35.1819],[129.17442,35.18193],[129.17421,35.18196],[129.17394,35.18199],[129.17394,35.18202],[129.17414,35.182],[129.17439,35.18197],[129.17457,35.18194],[129.17478,35.1819],[129.17506,35.18184]]]}},{"type":"Feature","id":"TN_RIVER_BNDRY:WTR0100000001LKI5","properties":{"NF_ID":"WTR0100000001LKI5","admin_code":"26350","source_layer":"TN_RIVER_BNDRY","semantic":"zone","river_class":"소하천","river_class_source":"중심선 공간조인","survey_method":"사진측량"},"geometry":{"type":"Polygon","coordinates":[[[129.15335,35.17096],[129.15342,35.17084],[129.15308,35.17096],[129.15304,35.17114],[129.15335,35.17096]]]}},{"type":"Feature","id":"TN_RIVER_BNDRY:WTR0100000001LKQD","properties":{"NF_ID":"WTR0100000001LKQD","admin_code":"26350","source_layer":"TN_RIVER_BNDRY","semantic":"zone","river_class":"소하천","river_class_source":"중심선 공간조인","survey_method":"사진측량"},"geometry":{"type":"Polygon","coordinates":[[[129.20724,35.1971],[129.20685,35.19681],[129.20398,35.19812],[129.20248,35.19817],[129.20115,35.19883],[129.19866,35.20042],[129.1977,35.20083],[129.19653,35.20059],[129.19445,35.20055],[129.1933,35.20073],[129.19202,35.20123],[129.19184,35.20144],[129.19336,35.20083],[129.19445,35.20067],[129.19652,35.20074],[129.19737,35.20098],[129.19793,35.20093],[129.20248,35.19829],[129.20397,35.19826],[129.20606,35.19735],[129.20724,35.1971]]]}},{"type":"Feature","id":"TN_RIVER_BNDRY:WTR0100000001LLE2","properties":{"NF_ID":"WTR0100000001LLE2","admin_code":"26350","source_layer":"TN_RIVER_BNDRY","semantic":"zone","river_class":"소하천","river_class_source":"중심선 공간조인","survey_method":"사진측량"},"geometry":{"type":"Polygon","coordinates":[[[129.14296,35.17254],[129.14295,35.17253],[129.14293,35.17259],[129.14293,35.17261],[129.14302,35.17264],[129.14312,35.17265],[129.14325,35.17267],[129.14338,35.17267],[129.1434,35.17266],[129.14339,35.17259],[129.14338,35.17259],[129.14311,35.17257],[129.14307,35.17257],[129.14303,35.17256],[129.14296,35.17254]]]}},{"type":"Feature","id":"TN_RIVER_BNDRY:WTR0100000001LLG4","properties":{"NF_ID":"WTR0100000001LLG4","admin_code":"26350","source_layer":"TN_RIVER_BNDRY","semantic":"zone","river_class":"소하천","river_class_source":"중심선 공간조인","survey_method":"사진측량"},"geometry":{"type":"Polygon","coordinates":[[[129.14204,35.23706],[129.14194,35.23797],[129.14213,35.23744],[129.14204,35.23706]]]}},{"type":"Feature","id":"TN_RIVER_BNDRY:WTR0100000001LLK8","properties":{"NF_ID":"WTR0100000001LLK8","admin_code":"26350","source_layer":"TN_RIVER_BNDRY","semantic":"zone","river_class":"지방하천","river_class_source":"중심선 공간조인","river_name":"송정천","river_code":"2720010","survey_method":"사진측량"},"geometry":{"type":"Polygon","coordinates":[[[129.20732,35.19671],[129.20714,35.19611],[129.20763,35.19456],[129.20648,35.19125],[129.20699,35.19024],[129.20704,35.1881],[129.2065,35.1876],[129.20574,35.18612],[129.2063,35.18247],[129.2068,35.18174],[129.2064,35.18157],[129.20588,35.18224],[129.20519,35.18611],[129.20607,35.18776],[129.20663,35.18823],[129.20671,35.18851],[129.20671,35.19001],[129.20617,35.19127],[129.20729,35.19462],[129.20678,35.19593],[129.20685,35.19681],[129.20732,35.19671]]]}},{"type":"Feature","id":"TN_RIVER_BNDRY:WTR0100000001LLNB","properties":{"NF_ID":"WTR0100000001LLNB","admin_code":"26350","source_layer":"TN_RIVER_BNDRY","semantic":"zone","river_class":"지방하천","river_class_source":"중심선 공간조인","river_name":"춘천","river_code":"2620950","survey_method":"지적측량"},"geometry":{"type":"Polygon","coordinates":[[[129.17423,35.16851],[129.17435,35.16857],[129.17459,35.16823],[129.16901,35.16394],[129.16562,35.16236],[129.16216,35.15968],[129.15886,35.15914],[129.15674,35.15841],[129.15583,35.1584],[129.15481,35.15816],[129.15531,35.15843],[129.15483,35.15838],[129.15263,35.15732],[129.15241,35.15758],[129.15269,35.15796],[129.15317,35.15803],[129.15423,35.15854],[129.15483,35.15867],[129.15669,35.15867],[129.15892,35.15939],[129.16202,35.15991],[129.16554,35.16258],[129.16886,35.16408],[129.17429,35.16825],[129.17423,35.16851]]]}},{"type":"Feature","id":"TN_RIVER_BNDRY:WTR0100000001LLOC","properties":{"NF_ID":"WTR0100000001LLOC","admin_code":"26350","source_layer":"TN_RIVER_BNDRY","semantic":"zone","river_class":"등급미확인","survey_method":"지적측량"},"geometry":{"type":"Polygon","coordinates":[[[129.13291,35.16312],[129.13273,35.16323],[129.13379,35.164],[129.13728,35.16573],[129.13793,35.1663],[129.13861,35.16758],[129.1389,35.1686],[129.13879,35.16862],[129.13964,35.17047],[129.13982,35.16982],[129.13931,35.16875],[129.13941,35.16817],[129.1382,35.16595],[129.13291,35.16312]]]}},{"type":"Feature","id":"TN_RIVER_BNDRY:WTR0100000001LLPD","properties":{"NF_ID":"WTR0100000001LLPD","admin_code":"26350","source_layer":"TN_RIVER_BNDRY","semantic":"zone","river_class":"지방하천","river_class_source":"중심선 공간조인","river_name":"수영강","river_code":"2620970","survey_method":"사진측량"},"geometry":{"type":"Polygon","coordinates":[[[129.13291,35.16312],[129.13066,35.16161],[129.13046,35.16192],[129.13273,35.16323],[129.13291,35.16312]]]}},{"type":"Feature","id":"TN_RIVER_BNDRY:WTR0100000001LLQE","properties":{"NF_ID":"WTR0100000001LLQE","admin_code":"26350","source_layer":"TN_RIVER_BNDRY","semantic":"zone","river_class":"지방하천","river_class_source":"중심선 공간조인","river_name":"수영강","river_code":"2620970","survey_method":"사진측량"},"geometry":{"type":"Polygon","coordinates":[[[129.13273,35.16323],[129.13046,35.16192],[129.12856,35.16416],[129.12604,35.16551],[129.12571,35.16598],[129.12519,35.16605],[129.12107,35.17288],[129.11866,35.17562],[129.11813,35.177],[129.11768,35.18154],[129.11561,35.18643],[129.11493,35.18847],[129.11623,35.18849],[129.1188,35.18231],[129.1193,35.18066],[129.11943,35.18042],[129.11958,35.18044],[129.11954,35.17995],[129.12017,35.17718],[129.12076,35.17573],[129.12286,35.17388],[129.12765,35.1662],[129.13273,35.16323]]]}},{"type":"Feature","id":"TN_RIVER_BNDRY:WTR0100000001LLRF","properties":{"NF_ID":"WTR0100000001LLRF","admin_code":"26350","source_layer":"TN_RIVER_BNDRY","semantic":"zone","river_class":"지방하천","river_class_source":"중심선 공간조인","river_name":"석대천","river_code":"2621050","survey_method":"지적측량"},"geometry":{"type":"Polygon","coordinates":[[[129.15557,35.23245],[129.1542,35.23033],[129.15334,35.22963],[129.15033,35.2299],[129.14937,35.22982],[129.14934,35.22993],[129.14993,35.23008],[129.15333,35.22987],[129.15404,35.23043],[129.1554,35.23253],[129.15557,35.23245]]]}},{"type":"Feature","id":"TN_RIVER_BNDRY:WTR0100000001LLSG","properties":{"NF_ID":"WTR0100000001LLSG","admin_code":"26350","source_layer":"TN_RIVER_BNDRY","semantic":"zone","river_class":"지방하천","river_class_source":"중심선 공간조인","river_name":"석대천","river_code":"2621050","survey_method":"지적측량"},"geometry":{"type":"Polygon","coordinates":[[[129.12344,35.21688],[129.12196,35.21602],[129.12192,35.21614],[129.12297,35.21706],[129.12343,35.2172],[129.12344,35.21688]]]}},{"type":"Feature","id":"TN_RIVER_BNDRY:WTR0100000001LLTH","properties":{"NF_ID":"WTR0100000001LLTH","admin_code":"26350","source_layer":"TN_RIVER_BNDRY","semantic":"zone","river_class":"지방하천","river_class_source":"중심선 공간조인","river_name":"석대천","river_code":"2621050","survey_method":"지적측량"},"geometry":{"type":"Polygon","coordinates":[[[129.12147,35.21563],[129.12053,35.21473],[129.12012,35.21464],[129.11997,35.21502],[129.12138,35.21573],[129.12147,35.21563]]]}},{"type":"Feature","id":"TN_RIVER_BNDRY:WTR0100000001LLUI","properties":{"NF_ID":"WTR0100000001LLUI","admin_code":"26350","source_layer":"TN_RIVER_BNDRY","semantic":"zone","river_class":"지방하천","river_class_source":"중심선 공간조인","river_name":"수영강","river_code":"2620970","survey_method":"사진측량"},"geometry":{"type":"Polygon","coordinates":[[[129.11976,35.21438],[129.11918,35.21426],[129.11903,35.21473],[129.11942,35.21491],[129.11976,35.21438]]]}},{"type":"Feature","id":"TN_RIVER_BNDRY:WTR0100000001LLVJ","properties":{"NF_ID":"WTR0100000001LLVJ","admin_code":"26350","source_layer":"TN_RIVER_BNDRY","semantic":"zone","river_class":"지방하천","river_class_source":"중심선 공간조인","river_name":"수영강","river_code":"2620970","survey_method":"사진측량"},"geometry":{"type":"Polygon","coordinates":[[[129.11572,35.18995],[129.11459,35.18963],[129.11391,35.19212],[129.11353,35.19482],[129.11367,35.19641],[129.11379,35.19687],[129.11401,35.19697],[129.11426,35.19644],[129.11435,35.19725],[129.11542,35.2],[129.11934,35.20527],[129.12015,35.20673],[129.12115,35.21002],[129.11918,35.21426],[129.11976,35.21438],[129.11981,35.2139],[129.121,35.21123],[129.12115,35.21126],[129.12103,35.21116],[129.1212,35.21079],[129.12147,35.21076],[129.1216,35.20969],[129.12026,35.20576],[129.11689,35.20112],[129.11496,35.19726],[129.11486,35.19602],[129.11469,35.19592],[129.11468,35.19551],[129.11491,35.1955],[129.11469,35.19544],[129.11456,35.19394],[129.11491,35.19384],[129.11463,35.19379],[129.11572,35.18995]]]}},{"type":"Feature","id":"TN_RIVER_BNDRY:WTR0100000001LLWK","properties":{"NF_ID":"WTR0100000001LLWK","admin_code":"26350","source_layer":"TN_RIVER_BNDRY","semantic":"zone","river_class":"등급미확인","survey_method":"사진측량"},"geometry":{"type":"Polygon","coordinates":[[[129.12012,35.21464],[129.11976,35.21438],[129.11942,35.21491],[129.11997,35.21502],[129.12012,35.21464]]]}}]}