{"type":"FeatureCollection","features":[{"type":"Feature","id":"TN_RIVER_BNDRY:WTR01000000015YAV","properties":{"NF_ID":"WTR01000000015YAV","source_layer":"TN_RIVER_BNDRY","semantic":"zone","river_class":"지방하천","river_class_source":"중심선 공간조인","river_name":"왕대천","river_code":"3021540","survey_method":"사진측량","admin_code":"44250"},"geometry":{"type":"Polygon","coordinates":[[[127.25631,36.24215],[127.25607,36.24204],[127.25558,36.24221],[127.25366,36.24163],[127.25333,36.24164],[127.25407,36.24203],[127.25447,36.24259],[127.25552,36.2431],[127.25622,36.2429],[127.25631,36.24215]]]}},{"type":"Feature","id":"TN_RIVER_BNDRY:WTR010000000160L9","properties":{"NF_ID":"WTR010000000160L9","source_layer":"TN_RIVER_BNDRY","semantic":"zone","river_class":"지방하천","river_class_source":"중심선 공간조인","river_name":"왕대천","river_code":"3021540","survey_method":"사진측량","admin_code":"44250"},"geometry":{"type":"Polygon","coordinates":[[[127.25335,36.24168],[127.25183,36.24138],[127.25118,36.24157],[127.25,36.24095],[127.25118,36.24162],[127.2518,36.24142],[127.25268,36.24168],[127.25335,36.24168]]]}},{"type":"Feature","id":"TN_RIVER_BNDRY:WTR010000000160QE","properties":{"NF_ID":"WTR010000000160QE","source_layer":"TN_RIVER_BNDRY","semantic":"zone","river_class":"소하천","river_class_source":"중심선 공간조인","survey_method":"사진측량","admin_code":"44250"},"geometry":{"type":"MultiPolygon","coordinates":[[[[127.27991,36.24716],[127.27975,36.24691],[127.2788,36.24654],[127.27845,36.24537],[127.27877,36.2466],[127.27969,36.24697],[127.27996,36.24731],[127.27991,36.24716]]],[[[127.281,36.249],[127.28033,36.24801],[127.28088,36.24905],[127.281,36.249]]]]}},{"type":"Feature","id":"TN_RIVER_BNDRY:WTR010000000160RF","properties":{"NF_ID":"WTR010000000160RF","source_layer":"TN_RIVER_BNDRY","semantic":"zone","river_class":"지방하천","river_class_source":"중심선 공간조인","river_name":"왕대천","river_code":"3021540","survey_method":"사진측량","admin_code":"44250"},"geometry":{"type":"Polygon","coordinates":[[[127.25632,36.24208],[127.25689,36.24254],[127.25861,36.24319],[127.26003,36.24422],[127.26024,36.24621],[127.26016,36.24686],[127.26051,36.24843],[127.26282,36.24873],[127.26351,36.24945],[127.26478,36.25],[127.26363,36.24941],[127.26286,36.24864],[127.26064,36.24835],[127.26024,36.2469],[127.26036,36.24631],[127.26009,36.24501],[127.26023,36.24464],[127.26011,36.24412],[127.25867,36.24306],[127.25692,36.24249],[127.25632,36.24208]]]}},{"type":"Feature","id":"TN_RIVER_BNDRY:WTR01000000016PGT","properties":{"NF_ID":"WTR01000000016PGT","source_layer":"TN_RIVER_BNDRY","semantic":"zone","river_class":"지방하천","river_class_source":"중심선 공간조인","river_name":"왕대천","river_code":"3021540","survey_method":"사진측량","admin_code":"44250"},"geometry":{"type":"Polygon","coordinates":[[[127.24768,36.24014],[127.24763,36.24014],[127.24762,36.24017],[127.24761,36.24019],[127.24774,36.24022],[127.24783,36.24025],[127.24784,36.24025],[127.24794,36.24028],[127.24801,36.24032],[127.24802,36.24033],[127.24804,36.24034],[127.24817,36.24038],[127.24818,36.24038],[127.24831,36.24041],[127.24836,36.24043],[127.24837,36.24043],[127.24851,36.24048],[127.24854,36.24049],[127.24855,36.24049],[127.24871,36.24055],[127.24872,36.24056],[127.24873,36.24056],[127.24889,36.24061],[127.24891,36.24062],[127.24892,36.24062],[127.24894,36.24063],[127.2491,36.24068],[127.24911,36.24068],[127.24923,36.24071],[127.24929,36.24073],[127.2493,36.24073],[127.2494,36.24076],[127.24947,36.2408],[127.24948,36.2408],[127.2496,36.24086],[127.24964,36.24088],[127.24965,36.24088],[127.24979,36.24092],[127.24997,36.24097],[127.25,36.24098],[127.25,36.24095],[127.2498,36.24089],[127.24966,36.24085],[127.24965,36.24085],[127.24962,36.24084],[127.2495,36.24078],[127.24949,36.24077],[127.24942,36.24074],[127.24931,36.24071],[127.2493,36.2407],[127.24924,36.24069],[127.24912,36.24065],[127.24911,36.24065],[127.24902,36.24062],[127.24894,36.2406],[127.24892,36.24059],[127.24879,36.24055],[127.24875,36.24054],[127.24874,36.24053],[127.24857,36.24047],[127.24856,36.24046],[127.24847,36.24044],[127.24838,36.24041],[127.24837,36.2404],[127.24828,36.24038],[127.2482,36.24035],[127.24818,36.24035],[127.24805,36.24031],[127.24804,36.2403],[127.24803,36.2403],[127.24796,36.24025],[127.24785,36.24022],[127.24784,36.24022],[127.24768,36.24018],[127.24768,36.24014]]]}},{"type":"Feature","id":"TN_RIVER_BNDRY:WTR01000000016PS5","properties":{"NF_ID":"WTR01000000016PS5","source_layer":"TN_RIVER_BNDRY","semantic":"zone","river_class":"지방하천","river_class_source":"중심선 공간조인","river_name":"농소천","river_code":"3021530","survey_method":"사진측량","admin_code":"44250"},"geometry":{"type":"Polygon","coordinates":[[[127.24765,36.24996],[127.24761,36.24996],[127.24757,36.24996],[127.24755,36.24996],[127.24751,36.24998],[127.24747,36.25],[127.24772,36.25],[127.24772,36.25],[127.24771,36.24998],[127.2477,36.24998],[127.24768,36.24997],[127.24768,36.24996],[127.24767,36.24996],[127.24765,36.24996]]]}},{"type":"Feature","id":"TN_RIVER_BNDRY:WTR01000000016PT6","properties":{"NF_ID":"WTR01000000016PT6","source_layer":"TN_RIVER_BNDRY","semantic":"zone","river_class":"지방하천","river_class_source":"중심선 공간조인","river_name":"농소천","river_code":"3021530","survey_method":"사진측량","admin_code":"44250"},"geometry":{"type":"Polygon","coordinates":[[[127.2464,36.24984],[127.2459,36.24968],[127.24566,36.24945],[127.24584,36.24974],[127.24647,36.25],[127.2466,36.25],[127.2464,36.24984]]]}},{"type":"Feature","id":"TN_RIVER_BNDRY:WTR01000000018HSZ","properties":{"NF_ID":"WTR01000000018HSZ","source_layer":"TN_RIVER_BNDRY","semantic":"zone","river_class":"지방하천","river_class_source":"중심선 공간조인","river_name":"두계천","river_code":"3021520","survey_method":"사진측량","admin_code":"44250"},"geometry":{"type":"Polygon","coordinates":[[[127.26089,36.27561],[127.26183,36.27547],[127.26015,36.27552],[127.2603,36.27572],[127.26089,36.27561]]]}},{"type":"Feature","id":"TN_RIVER_BNDRY:WTR01000000018HT0","properties":{"NF_ID":"WTR01000000018HT0","source_layer":"TN_RIVER_BNDRY","semantic":"zone","river_class":"지방하천","river_class_source":"중심선 공간조인","river_name":"두계천","river_code":"3021520","survey_method":"사진측량","admin_code":"44250"},"geometry":{"type":"Polygon","coordinates":[[[127.2622,36.27541],[127.26213,36.27527],[127.26177,36.27539],[127.2622,36.27541]]]}},{"type":"Feature","id":"TN_RIVER_BNDRY:WTR01000000018HU1","properties":{"NF_ID":"WTR01000000018HU1","source_layer":"TN_RIVER_BNDRY","semantic":"zone","river_class":"지방하천","river_class_source":"중심선 공간조인","river_name":"두계천","river_code":"3021520","survey_method":"사진측량","admin_code":"44250"},"geometry":{"type":"Polygon","coordinates":[[[127.25997,36.27578],[127.2603,36.27572],[127.26015,36.27552],[127.25985,36.27562],[127.25997,36.27578]]]}},{"type":"Feature","id":"TN_RIVER_BNDRY:WTR01000000018LR2","properties":{"NF_ID":"WTR01000000018LR2","source_layer":"TN_RIVER_BNDRY","semantic":"zone","river_class":"지방하천","river_class_source":"중심선 공간조인","river_name":"두계천","river_code":"3021520","survey_method":"사진측량","admin_code":"44250"},"geometry":{"type":"Polygon","coordinates":[[[127.25656,36.27798],[127.25656,36.27797],[127.25659,36.27794],[127.25637,36.27776],[127.25631,36.2778],[127.25651,36.27803],[127.25656,36.27798]]]}},{"type":"Feature","id":"TN_RIVER_BNDRY:WTR01000000018LT4","properties":{"NF_ID":"WTR01000000018LT4","source_layer":"TN_RIVER_BNDRY","semantic":"zone","river_class":"소하천","river_class_source":"중심선 공간조인","survey_method":"사진측량","admin_code":"44250"},"geometry":{"type":"Polygon","coordinates":[[[127.25637,36.27776],[127.25627,36.27768],[127.25623,36.27763],[127.25556,36.27691],[127.25556,36.2769],[127.25528,36.27661],[127.25522,36.27655],[127.25515,36.27647],[127.25513,36.27645],[127.25508,36.27633],[127.25506,36.27632],[127.25505,36.2763],[127.25498,36.27633],[127.25499,36.27635],[127.25508,36.27649],[127.25509,36.2765],[127.25515,36.27659],[127.25518,36.27662],[127.25549,36.27694],[127.25549,36.27695],[127.2561,36.27761],[127.25621,36.27772],[127.25622,36.27773],[127.25631,36.2778],[127.25637,36.27776]]]}},{"type":"Feature","id":"TN_RIVER_BNDRY:WTR01000000018LU5","properties":{"NF_ID":"WTR01000000018LU5","source_layer":"TN_RIVER_BNDRY","semantic":"zone","river_class":"지방하천","river_class_source":"중심선 공간조인","river_name":"두계천","river_code":"3021520","survey_method":"사진측량","admin_code":"44250"},"geometry":{"type":"MultiPolygon","coordinates":[[[[127.25997,36.27579],[127.25985,36.27562],[127.25943,36.2759],[127.25997,36.27579]]],[[[127.25662,36.27791],[127.25763,36.27689],[127.25637,36.27776],[127.25662,36.27791]]]]}},{"type":"Feature","id":"TN_RIVER_BNDRY:WTR01000000018M1D","properties":{"NF_ID":"WTR01000000018M1D","source_layer":"TN_RIVER_BNDRY","semantic":"zone","river_class":"소하천","river_class_source":"중심선 공간조인","survey_method":"사진측량","admin_code":"44250"},"geometry":{"type":"Polygon","coordinates":[[[127.25363,36.25979],[127.25355,36.25978],[127.25353,36.25978],[127.25348,36.25983],[127.25357,36.25984],[127.25363,36.25979]]]}},{"type":"Feature","id":"TN_RIVER_BNDRY:WTR01000000018M2E","properties":{"NF_ID":"WTR01000000018M2E","source_layer":"TN_RIVER_BNDRY","semantic":"zone","river_class":"소하천","river_class_source":"중심선 공간조인","survey_method":"사진측량","admin_code":"44250"},"geometry":{"type":"Polygon","coordinates":[[[127.25357,36.25984],[127.25348,36.25983],[127.25349,36.25983],[127.25349,36.25984],[127.25349,36.25985],[127.25348,36.25985],[127.25347,36.25986],[127.25345,36.25987],[127.25336,36.25992],[127.2533,36.25997],[127.25312,36.26005],[127.25295,36.26011],[127.25289,36.26013],[127.2529,36.26014],[127.25286,36.26015],[127.25286,36.26014],[127.25281,36.26016],[127.25268,36.2602],[127.25255,36.26021],[127.25248,36.26023],[127.25244,36.26025],[127.25246,36.26026],[127.25272,36.26022],[127.25283,36.26019],[127.25307,36.2601],[127.25314,36.26008],[127.25326,36.26003],[127.25334,36.25999],[127.25357,36.25984]]]}},{"type":"Feature","id":"TN_RIVER_BNDRY:WTR01000000018M3F","properties":{"NF_ID":"WTR01000000018M3F","source_layer":"TN_RIVER_BNDRY","semantic":"zone","river_class":"소하천","river_class_source":"중심선 공간조인","survey_method":"사진측량","admin_code":"44250"},"geometry":{"type":"Polygon","coordinates":[[[127.25424,36.26035],[127.25419,36.26033],[127.25408,36.26022],[127.25378,36.25985],[127.25365,36.25981],[127.25363,36.25979],[127.25357,36.25984],[127.25358,36.25984],[127.25367,36.25988],[127.25377,36.25993],[127.2538,36.25996],[127.25386,36.26006],[127.25403,36.26026],[127.25414,36.26039],[127.25424,36.26035]]]}},{"type":"Feature","id":"TN_RIVER_BNDRY:WTR01000000018M4G","properties":{"NF_ID":"WTR01000000018M4G","source_layer":"TN_RIVER_BNDRY","semantic":"zone","river_class":"지방하천","river_class_source":"중심선 공간조인","river_name":"농소천","river_code":"3021530","survey_method":"사진측량","admin_code":"44250"},"geometry":{"type":"Polygon","coordinates":[[[127.25442,36.2605],[127.25414,36.26039],[127.2543,36.26057],[127.25442,36.2605]]]}},{"type":"Feature","id":"TN_RIVER_BNDRY:WTR01000000018M5H","properties":{"NF_ID":"WTR01000000018M5H","source_layer":"TN_RIVER_BNDRY","semantic":"zone","river_class":"지방하천","river_class_source":"중심선 공간조인","river_name":"농소천","river_code":"3021530","survey_method":"사진측량","admin_code":"44250"},"geometry":{"type":"Polygon","coordinates":[[[127.26015,36.27552],[127.25943,36.27438],[127.25808,36.27305],[127.25756,36.27195],[127.25783,36.27069],[127.25984,36.26726],[127.2596,36.26475],[127.25942,36.26452],[127.25851,36.26405],[127.25804,36.26265],[127.25778,36.26236],[127.25675,36.26175],[127.25524,36.26143],[127.25442,36.2605],[127.2543,36.26057],[127.25519,36.26157],[127.25661,36.26188],[127.2577,36.26247],[127.25832,36.264],[127.2586,36.2643],[127.25917,36.26453],[127.25947,36.2649],[127.25958,36.26743],[127.25761,36.27062],[127.25735,36.2718],[127.25791,36.27316],[127.25928,36.27456],[127.25985,36.27562],[127.26015,36.27552]]]}},{"type":"Feature","id":"TN_RIVER_BNDRY:WTR01000000018MQ2","properties":{"NF_ID":"WTR01000000018MQ2","source_layer":"TN_RIVER_BNDRY","semantic":"zone","river_class":"지방하천","river_class_source":"중심선 공간조인","river_name":"왕대천","river_code":"3021540","survey_method":"사진측량","admin_code":"44250"},"geometry":{"type":"Polygon","coordinates":[[[127.28282,36.25636],[127.28256,36.25641],[127.28265,36.25657],[127.28282,36.25636]]]}},{"type":"Feature","id":"TN_RIVER_BNDRY:WTR01000000018MR3","properties":{"NF_ID":"WTR01000000018MR3","source_layer":"TN_RIVER_BNDRY","semantic":"zone","river_class":"지방하천","river_class_source":"중심선 공간조인","river_name":"왕대천","river_code":"3021540","survey_method":"사진측량","admin_code":"44250"},"geometry":{"type":"Polygon","coordinates":[[[127.2806,36.2538],[127.28029,36.25368],[127.28027,36.25378],[127.2806,36.2538]]]}},{"type":"Feature","id":"TN_RIVER_BNDRY:WTR01000000018MS4","properties":{"NF_ID":"WTR01000000018MS4","source_layer":"TN_RIVER_BNDRY","semantic":"zone","river_class":"지방하천","river_class_source":"중심선 공간조인","river_name":"두계천","river_code":"3021520","survey_method":"사진측량","admin_code":"44250"},"geometry":{"type":"Polygon","coordinates":[[[127.29057,36.26574],[127.29113,36.26541],[127.29175,36.26469],[127.29194,36.26424],[127.29188,36.26366],[127.29169,36.26342],[127.28977,36.2622],[127.28723,36.2612],[127.28665,36.26081],[127.28646,36.2605],[127.28547,36.26011],[127.2849,36.25972],[127.28477,36.25998],[127.28455,36.25989],[127.28334,36.25909],[127.28225,36.25797],[127.28219,36.25727],[127.28265,36.25657],[127.2825,36.25631],[127.28199,36.25668],[127.28166,36.25727],[127.2822,36.25879],[127.28369,36.26008],[127.2841,36.26002],[127.29062,36.26327],[127.29126,36.26416],[127.29098,36.2649],[127.29042,36.26535],[127.29057,36.26574]]]}},{"type":"Feature","id":"TN_RIVER_BNDRY:WTR01000000018MT5","properties":{"NF_ID":"WTR01000000018MT5","source_layer":"TN_RIVER_BNDRY","semantic":"zone","river_class":"지방하천","river_class_source":"중심선 공간조인","river_name":"왕대천","river_code":"3021540","survey_method":"사진측량","admin_code":"44250"},"geometry":{"type":"MultiPolygon","coordinates":[[[[127.28063,36.25382],[127.28061,36.25381],[127.28064,36.25389],[127.28074,36.25389],[127.28063,36.25382]]],[[[127.28245,36.256],[127.28243,36.25591],[127.2824,36.25579],[127.28239,36.25578],[127.28213,36.25545],[127.28203,36.25528],[127.28197,36.25519],[127.28186,36.25501],[127.28185,36.25499],[127.2819,36.25516],[127.28225,36.2558],[127.28248,36.25617],[127.28245,36.256]]],[[[127.28274,36.25621],[127.28265,36.25632],[127.2828,36.25633],[127.28274,36.25621]]]]}},{"type":"Feature","id":"TN_RIVER_BNDRY:WTR01000000018MU6","properties":{"NF_ID":"WTR01000000018MU6","source_layer":"TN_RIVER_BNDRY","semantic":"zone","river_class":"지방하천","river_class_source":"중심선 공간조인","river_name":"두계천","river_code":"3021520","survey_method":"사진측량","admin_code":"44250"},"geometry":{"type":"MultiPolygon","coordinates":[[[[127.28742,36.26534],[127.28921,36.26579],[127.29031,36.26585],[127.29004,36.26543],[127.28742,36.26534]]],[[[127.27334,36.26938],[127.27611,36.26786],[127.27812,36.26741],[127.27865,36.26706],[127.27964,36.26589],[127.28125,36.26519],[127.28209,36.26493],[127.28425,36.26477],[127.28265,36.26452],[127.28274,36.2646],[127.28036,36.26529],[127.27757,36.26686],[127.27681,36.26715],[127.27687,36.26731],[127.27489,36.26806],[127.27454,36.26798],[127.27279,36.26916],[127.27309,36.2695],[127.27334,36.26938]]]]}},{"type":"Feature","id":"TN_RIVER_BNDRY:WTR01000000018NYB","properties":{"NF_ID":"WTR01000000018NYB","source_layer":"TN_RIVER_BNDRY","semantic":"zone","river_class":"지방하천","river_class_source":"중심선 공간조인","river_name":"두계천","river_code":"3021520","survey_method":"사진측량","admin_code":"44250"},"geometry":{"type":"MultiPolygon","coordinates":[[[[127.26631,36.27373],[127.26645,36.27363],[127.26678,36.27342],[127.26681,36.2734],[127.26713,36.2731],[127.26738,36.27285],[127.26731,36.27291],[127.2672,36.273],[127.26712,36.27307],[127.26703,36.27314],[127.26696,36.2732],[127.26688,36.27326],[127.2668,36.27333],[127.26674,36.27339],[127.26667,36.27347],[127.26661,36.27352],[127.26651,36.27359],[127.26641,36.27365],[127.26631,36.27372],[127.26626,36.27376],[127.26631,36.27373]]],[[[127.26235,36.27538],[127.26484,36.27459],[127.26607,36.27389],[127.26213,36.27527],[127.26235,36.27538]]],[[[127.2719,36.27006],[127.27231,36.26987],[127.27195,36.26961],[127.2696,36.27083],[127.26879,36.27134],[127.26801,36.27227],[127.26981,36.27113],[127.2719,36.27006]]]]}},{"type":"Feature","id":"TN_RIVER_BNDRY:WTR01000000018O0E","properties":{"NF_ID":"WTR01000000018O0E","source_layer":"TN_RIVER_BNDRY","semantic":"zone","river_class":"지방하천","river_class_source":"중심선 공간조인","river_name":"두계천","river_code":"3021520","survey_method":"사진측량","admin_code":"44250"},"geometry":{"type":"Polygon","coordinates":[[[127.29041,36.26581],[127.29057,36.26575],[127.29042,36.26535],[127.29004,36.26543],[127.29041,36.26581]]]}},{"type":"Feature","id":"TN_RIVER_BNDRY:WTR01000000018O1F","properties":{"NF_ID":"WTR01000000018O1F","source_layer":"TN_RIVER_BNDRY","semantic":"zone","river_class":"지방하천","river_class_source":"중심선 공간조인","river_name":"두계천","river_code":"3021520","survey_method":"사진측량","admin_code":"44250"},"geometry":{"type":"Polygon","coordinates":[[[127.27249,36.26978],[127.27309,36.2695],[127.27279,36.26916],[127.27195,36.26961],[127.27231,36.26987],[127.27249,36.26978]]]}},{"type":"Feature","id":"TN_RIVER_BNDRY:WTR01000000018Q2I","properties":{"NF_ID":"WTR01000000018Q2I","source_layer":"TN_RIVER_BNDRY","semantic":"zone","river_class":"소하천","river_class_source":"중심선 공간조인","survey_method":"사진측량","admin_code":"44250"},"geometry":{"type":"MultiPolygon","coordinates":[[[[127.28017,36.2505],[127.2802,36.25044],[127.2802,36.25044],[127.2802,36.25044],[127.28026,36.25031],[127.28028,36.25026],[127.2803,36.25023],[127.28023,36.25029],[127.28018,36.25036],[127.28017,36.25038],[127.28016,36.25044],[127.28016,36.25052],[127.28016,36.25052],[127.28017,36.2505]]],[[[127.28034,36.25364],[127.28034,36.25365],[127.28033,36.25367],[127.28031,36.25368],[127.28029,36.25368],[127.28042,36.25369],[127.28034,36.25364]]]]}},{"type":"Feature","id":"TN_RIVER_BNDRY:WTR01000000018Q3J","properties":{"NF_ID":"WTR01000000018Q3J","source_layer":"TN_RIVER_BNDRY","semantic":"zone","river_class":"지방하천","river_class_source":"중심선 공간조인","river_name":"왕대천","river_code":"3021540","survey_method":"사진측량","admin_code":"44250"},"geometry":{"type":"Polygon","coordinates":[[[127.28029,36.25368],[127.27883,36.25304],[127.2781,36.25297],[127.27737,36.25303],[127.2767,36.25361],[127.27621,36.25361],[127.27492,36.25262],[127.27193,36.2512],[127.26984,36.25096],[127.2668,36.25085],[127.2646,36.25],[127.2648,36.25021],[127.26703,36.25103],[127.2718,36.25134],[127.27452,36.2526],[127.27616,36.2538],[127.27688,36.25374],[127.27732,36.25331],[127.27783,36.25319],[127.27883,36.2532],[127.27985,36.25365],[127.28027,36.25378],[127.28029,36.25368]]]}},{"type":"Feature","id":"TN_RIVER_BNDRY:WTR01000000018QCS","properties":{"NF_ID":"WTR01000000018QCS","source_layer":"TN_RIVER_BNDRY","semantic":"zone","river_class":"소하천","river_class_source":"중심선 공간조인","survey_method":"사진측량","admin_code":"44250"},"geometry":{"type":"Polygon","coordinates":[[[127.25353,36.25978],[127.25153,36.25878],[127.25064,36.25805],[127.25,36.25774],[127.25232,36.2593],[127.25353,36.25978]]]}},{"type":"Feature","id":"TN_RIVER_BNDRY:WTR01000000018QDT","properties":{"NF_ID":"WTR01000000018QDT","source_layer":"TN_RIVER_BNDRY","semantic":"zone","river_class":"지방하천","river_class_source":"중심선 공간조인","river_name":"농소천","river_code":"3021530","survey_method":"사진측량","admin_code":"44250"},"geometry":{"type":"Polygon","coordinates":[[[127.25424,36.26035],[127.25442,36.2605],[127.25452,36.26005],[127.25536,36.25869],[127.25486,36.25756],[127.2551,36.25707],[127.25504,36.2566],[127.25475,36.2562],[127.25414,36.25599],[127.25405,36.25574],[127.25439,36.25523],[127.25414,36.25483],[127.25322,36.25452],[127.25249,36.25375],[127.25256,36.25286],[127.25184,36.25212],[127.25161,36.25132],[127.25131,36.25118],[127.25069,36.2512],[127.25031,36.25087],[127.25,36.25081],[127.25064,36.25121],[127.25144,36.25127],[127.25165,36.2521],[127.25246,36.25298],[127.25235,36.25383],[127.25304,36.25453],[127.2539,36.25478],[127.25412,36.25498],[127.25427,36.25524],[127.25387,36.25586],[127.25409,36.25612],[127.25468,36.25627],[127.25494,36.25656],[127.25503,36.25707],[127.25479,36.25753],[127.25528,36.25877],[127.25424,36.26035]]]}},{"type":"Feature","id":"TN_RIVER_BNDRY:WTR01000000018QHX","properties":{"NF_ID":"WTR01000000018QHX","source_layer":"TN_RIVER_BNDRY","semantic":"zone","river_class":"지방하천","river_class_source":"중심선 공간조인","river_name":"두계천","river_code":"3021520","survey_method":"사진측량","admin_code":"44250"},"geometry":{"type":"Polygon","coordinates":[[[127.25415,36.28106],[127.25422,36.28047],[127.25482,36.28004],[127.25651,36.27803],[127.25628,36.2778],[127.25531,36.27853],[127.25394,36.28024],[127.25402,36.28049],[127.25386,36.28074],[127.25306,36.28102],[127.25227,36.28172],[127.25,36.28288],[127.25,36.28375],[127.2515,36.28279],[127.25261,36.2823],[127.25415,36.28106]]]}},{"type":"Feature","id":"TN_RIVER_BNDRY:WTR01000000018RHY","properties":{"NF_ID":"WTR01000000018RHY","source_layer":"TN_RIVER_BNDRY","semantic":"zone","river_class":"지방하천","river_class_source":"중심선 공간조인","river_name":"두계천","river_code":"3021520","survey_method":"사진측량","admin_code":"44250"},"geometry":{"type":"Polygon","coordinates":[[[127.24839,36.288],[127.24774,36.28805],[127.2479,36.28814],[127.24839,36.288]]]}},{"type":"Feature","id":"TN_RIVER_BNDRY:WTR01000000018RIZ","properties":{"NF_ID":"WTR01000000018RIZ","source_layer":"TN_RIVER_BNDRY","semantic":"zone","river_class":"소하천","river_class_source":"중심선 공간조인","survey_method":"사진측량","admin_code":"44250"},"geometry":{"type":"Polygon","coordinates":[[[127.2479,36.28814],[127.24774,36.28805],[127.24669,36.28834],[127.24525,36.28834],[127.24668,36.28839],[127.2479,36.28814]]]}},{"type":"Feature","id":"TN_RIVER_BNDRY:WTR01000000018RJ0","properties":{"NF_ID":"WTR01000000018RJ0","source_layer":"TN_RIVER_BNDRY","semantic":"zone","river_class":"소하천","river_class_source":"중심선 공간조인","river_name":"상원천","survey_method":"사진측량","admin_code":"44250"},"geometry":{"type":"Polygon","coordinates":[[[127.23973,36.30724],[127.23879,36.30845],[127.24028,36.30852],[127.24085,36.3083],[127.24086,36.30818],[127.24221,36.31051],[127.24253,36.31143],[127.24282,36.31333],[127.24345,36.31469],[127.2438,36.31751],[127.24363,36.31964],[127.24375,36.32038],[127.24411,36.32122],[127.2453,36.32251],[127.24549,36.32338],[127.24605,36.3235],[127.24683,36.32474],[127.24681,36.32424],[127.24629,36.32309],[127.24445,36.32116],[127.24416,36.32036],[127.24404,36.31974],[127.24411,36.31715],[127.24376,36.31482],[127.24309,36.31334],[127.2429,36.31184],[127.2425,36.3105],[127.24093,36.30777],[127.24026,36.30773],[127.23973,36.30724]]]}},{"type":"Feature","id":"TN_RIVER_BNDRY:WTR01000000018RK1","properties":{"NF_ID":"WTR01000000018RK1","source_layer":"TN_RIVER_BNDRY","semantic":"zone","river_class":"소하천","river_class_source":"중심선 공간조인","survey_method":"사진측량","admin_code":"44250"},"geometry":{"type":"Polygon","coordinates":[[[127.24592,36.30249],[127.24653,36.30317],[127.24681,36.30567],[127.24739,36.30658],[127.2473,36.3074],[127.24763,36.30758],[127.24737,36.30728],[127.24742,36.30658],[127.24686,36.30568],[127.24689,36.30491],[127.24661,36.30327],[127.24592,36.30249]]]}},{"type":"Feature","id":"TN_RIVER_BNDRY:WTR01000000018RL2","properties":{"NF_ID":"WTR01000000018RL2","source_layer":"TN_RIVER_BNDRY","semantic":"zone","river_class":"지방하천","river_class_source":"중심선 공간조인","river_name":"두계천","river_code":"3021520","survey_method":"사진측량","admin_code":"44250"},"geometry":{"type":"Polygon","coordinates":[[[127.23877,36.30887],[127.23808,36.30868],[127.23804,36.30907],[127.23857,36.30933],[127.23877,36.30887]]]}},{"type":"Feature","id":"TN_RIVER_BNDRY:WTR01000000018RM3","properties":{"NF_ID":"WTR01000000018RM3","source_layer":"TN_RIVER_BNDRY","semantic":"zone","river_class":"지방하천","river_class_source":"중심선 공간조인","river_name":"두계천","river_code":"3021520","survey_method":"사진측량","admin_code":"44250"},"geometry":{"type":"Polygon","coordinates":[[[127.23973,36.30724],[127.23875,36.30693],[127.2383,36.30801],[127.23879,36.30845],[127.23973,36.30724]]]}},{"type":"Feature","id":"TN_RIVER_BNDRY:WTR01000000018RN4","properties":{"NF_ID":"WTR01000000018RN4","source_layer":"TN_RIVER_BNDRY","semantic":"zone","river_class":"지방하천","river_class_source":"중심선 공간조인","river_name":"두계천","river_code":"3021520","survey_method":"사진측량","admin_code":"44250"},"geometry":{"type":"Polygon","coordinates":[[[127.23879,36.30845],[127.2383,36.30801],[127.23811,36.3082],[127.23808,36.30868],[127.23877,36.30887],[127.23879,36.30845]]]}},{"type":"Feature","id":"TN_RIVER_BNDRY:WTR01000000018RO5","properties":{"NF_ID":"WTR01000000018RO5","source_layer":"TN_RIVER_BNDRY","semantic":"zone","river_class":"소하천","river_class_source":"중심선 공간조인","survey_method":"사진측량","admin_code":"44250"},"geometry":{"type":"Polygon","coordinates":[[[127.24399,36.32169],[127.24397,36.32163],[127.24394,36.32166],[127.24394,36.32166],[127.2439,36.32168],[127.244,36.32184],[127.24411,36.32202],[127.24421,36.32218],[127.24432,36.32234],[127.24437,36.32242],[127.24444,36.32252],[127.24446,36.32252],[127.24446,36.32252],[127.24447,36.32252],[127.24447,36.32251],[127.24447,36.32249],[127.24441,36.32239],[127.24437,36.32234],[127.24432,36.32225],[127.24432,36.32225],[127.2442,36.32207],[127.2441,36.32191],[127.24403,36.32181],[127.24398,36.32172],[127.24399,36.32169]]]}},{"type":"Feature","id":"TN_RIVER_BNDRY:WTR01000000018SN5","properties":{"NF_ID":"WTR01000000018SN5","source_layer":"TN_RIVER_BNDRY","semantic":"zone","river_class":"지방하천","river_class_source":"중심선 공간조인","river_name":"두계천","river_code":"3021520","survey_method":"사진측량","admin_code":"44250"},"geometry":{"type":"Polygon","coordinates":[[[127.24772,36.28969],[127.24839,36.288],[127.2479,36.28814],[127.2476,36.28847],[127.24703,36.28978],[127.24472,36.29231],[127.24312,36.29366],[127.24281,36.29412],[127.24041,36.29587],[127.2389,36.29775],[127.23863,36.29854],[127.23863,36.30023],[127.23898,36.30127],[127.23968,36.30251],[127.23942,36.30262],[127.23951,36.30363],[127.23875,36.30693],[127.23973,36.30724],[127.23955,36.30672],[127.23955,36.30556],[127.24023,36.30396],[127.23977,36.30224],[127.23942,36.30144],[127.23912,36.30126],[127.23886,36.3],[127.23885,36.29963],[127.23909,36.29964],[127.23879,36.29945],[127.23881,36.29871],[127.23933,36.29744],[127.24042,36.2962],[127.24039,36.29643],[127.24053,36.29649],[127.24047,36.29615],[127.24073,36.29584],[127.24272,36.29445],[127.24277,36.29469],[127.24278,36.29441],[127.24323,36.29433],[127.24516,36.29263],[127.24626,36.29153],[127.24656,36.29095],[127.24772,36.28969]]]}},{"type":"Feature","id":"TN_RIVER_BNDRY:WTR010000000197PN","properties":{"NF_ID":"WTR010000000197PN","source_layer":"TN_RIVER_BNDRY","semantic":"zone","river_class":"지방하천","river_class_source":"중심선 공간조인","river_name":"연산천","river_code":"3024170","survey_method":"사진측량","admin_code":"44250"},"geometry":{"type":"Polygon","coordinates":[[[127.22421,36.27987],[127.22464,36.27903],[127.22472,36.27821],[127.22444,36.27595],[127.22458,36.27524],[127.22445,36.27497],[127.22471,36.27377],[127.22402,36.27001],[127.22421,36.26814],[127.22445,36.26745],[127.22527,36.26626],[127.22568,36.26494],[127.22694,36.26316],[127.22656,36.26313],[127.22553,36.26468],[127.22393,36.26807],[127.22381,36.26984],[127.22459,36.27388],[127.22424,36.27507],[127.22433,36.27627],[127.22415,36.27643],[127.22434,36.2764],[127.22457,36.27829],[127.22446,36.27908],[127.22403,36.27988],[127.22421,36.27987]]]}},{"type":"Feature","id":"TN_RIVER_BNDRY:WTR010000000197RP","properties":{"NF_ID":"WTR010000000197RP","source_layer":"TN_RIVER_BNDRY","semantic":"zone","river_class":"지방하천","river_class_source":"중심선 공간조인","river_name":"도곡천","river_code":"3024180","survey_method":"사진측량","admin_code":"44250"},"geometry":{"type":"Polygon","coordinates":[[[127.21321,36.27037],[127.21309,36.27052],[127.21321,36.27091],[127.21253,36.27241],[127.21254,36.27354],[127.21231,36.27387],[127.21241,36.27447],[127.21161,36.275],[127.21115,36.27504],[127.21091,36.27535],[127.21101,36.27542],[127.21135,36.27509],[127.21179,36.27502],[127.21248,36.27457],[127.21275,36.2727],[127.21261,36.27241],[127.21339,36.27079],[127.21321,36.27037]]]}},{"type":"Feature","id":"TN_RIVER_BNDRY:WTR010000000197US","properties":{"NF_ID":"WTR010000000197US","source_layer":"TN_RIVER_BNDRY","semantic":"zone","river_class":"지방하천","river_class_source":"중심선 공간조인","river_name":"도곡천","river_code":"3024180","survey_method":"사진측량","admin_code":"44250"},"geometry":{"type":"Polygon","coordinates":[[[127.22656,36.26313],[127.22653,36.26287],[127.22578,36.26295],[127.22434,36.26376],[127.22375,36.26393],[127.22007,36.26411],[127.21793,36.2654],[127.21836,36.26551],[127.2194,36.26463],[127.22021,36.26426],[127.22403,36.26404],[127.22578,36.26313],[127.22656,36.26313]]]}},{"type":"Feature","id":"TN_RIVER_BNDRY:WTR01000000019843","properties":{"NF_ID":"WTR01000000019843","source_layer":"TN_RIVER_BNDRY","semantic":"zone","river_class":"소하천","river_class_source":"중심선 공간조인","survey_method":"사진측량","admin_code":"44250"},"geometry":{"type":"Polygon","coordinates":[[[127.21797,36.26551],[127.2178,36.26548],[127.21713,36.26591],[127.21657,36.26596],[127.21589,36.26624],[127.21502,36.26622],[127.21404,36.26731],[127.21344,36.26768],[127.21277,36.26768],[127.21224,36.26751],[127.21071,36.26762],[127.21032,36.26731],[127.20939,36.26714],[127.20854,36.26644],[127.20782,36.26614],[127.20926,36.26712],[127.2101,36.26731],[127.21078,36.26772],[127.21219,36.26756],[127.21337,36.26775],[127.21387,36.26752],[127.21506,36.26632],[127.21589,36.26634],[127.21658,36.26605],[127.21709,36.26602],[127.21797,36.26551]]]}},{"type":"Feature","id":"TN_RIVER_BNDRY:WTR01000000019999","properties":{"NF_ID":"WTR01000000019999","source_layer":"TN_RIVER_BNDRY","semantic":"zone","river_class":"소하천","river_class_source":"중심선 공간조인","survey_method":"사진측량","admin_code":"44250"},"geometry":{"type":"Polygon","coordinates":[[[127.21789,36.2654],[127.21636,36.26463],[127.2163,36.26391],[127.21607,36.26371],[127.2155,36.26357],[127.21546,36.26274],[127.21516,36.2623],[127.21423,36.26192],[127.21302,36.2609],[127.2128,36.26067],[127.21295,36.26034],[127.21246,36.26022],[127.21073,36.25871],[127.2099,36.25852],[127.20955,36.25809],[127.20924,36.25797],[127.20856,36.25793],[127.2079,36.25704],[127.20767,36.2571],[127.20857,36.25798],[127.20919,36.258],[127.2099,36.2586],[127.21072,36.25878],[127.21238,36.26024],[127.21282,36.2604],[127.21272,36.26069],[127.21293,36.26093],[127.21414,36.26193],[127.21513,36.26236],[127.21535,36.2627],[127.21545,36.26359],[127.21607,36.26376],[127.21628,36.26396],[127.21631,36.26468],[127.21705,36.26493],[127.2178,36.26548],[127.21789,36.2654]]]}},{"type":"Feature","id":"TN_RIVER_BNDRY:WTR010000000199AA","properties":{"NF_ID":"WTR010000000199AA","source_layer":"TN_RIVER_BNDRY","semantic":"zone","river_class":"지방하천","river_class_source":"중심선 공간조인","river_name":"연산천","river_code":"3024170","survey_method":"사진측량","admin_code":"44250"},"geometry":{"type":"Polygon","coordinates":[[[127.22394,36.2801],[127.22403,36.27987],[127.22359,36.28013],[127.22106,36.28187],[127.22042,36.28276],[127.21851,36.28346],[127.21799,36.28389],[127.21763,36.28447],[127.21688,36.28506],[127.21579,36.28641],[127.21504,36.28775],[127.21498,36.28799],[127.21528,36.28853],[127.21516,36.2888],[127.21479,36.28941],[127.21391,36.28997],[127.21486,36.28944],[127.21534,36.28865],[127.2151,36.28795],[127.21558,36.28691],[127.21687,36.28521],[127.21764,36.28461],[127.21827,36.28376],[127.21971,36.28303],[127.22063,36.28276],[127.22115,36.28196],[127.22394,36.2801]]]}},{"type":"Feature","id":"TN_RIVER_BNDRY:WTR010000000199BB","properties":{"NF_ID":"WTR010000000199BB","source_layer":"TN_RIVER_BNDRY","semantic":"zone","river_class":"지방하천","river_class_source":"중심선 공간조인","river_name":"도곡천","river_code":"3024180","survey_method":"사진측량","admin_code":"44250"},"geometry":{"type":"Polygon","coordinates":[[[127.21038,36.27594],[127.21028,36.27577],[127.21026,36.27608],[127.21052,36.27634],[127.21038,36.27594]]]}},{"type":"Feature","id":"TN_RIVER_BNDRY:WTR010000000199CC","properties":{"NF_ID":"WTR010000000199CC","source_layer":"TN_RIVER_BNDRY","semantic":"zone","river_class":"소하천","river_class_source":"중심선 공간조인","survey_method":"사진측량","admin_code":"44250"},"geometry":{"type":"Polygon","coordinates":[[[127.21309,36.27052],[127.21297,36.27041],[127.21245,36.27062],[127.21065,36.27177],[127.20981,36.27141],[127.20921,36.27133],[127.2079,36.27138],[127.20723,36.27174],[127.20659,36.27135],[127.20644,36.27141],[127.20722,36.27188],[127.20789,36.27147],[127.20915,36.27139],[127.20982,36.2715],[127.21062,36.27185],[127.21106,36.2717],[127.21253,36.27069],[127.21309,36.27052]]]}},{"type":"Feature","id":"TN_RIVER_BNDRY:WTR010000000199DD","properties":{"NF_ID":"WTR010000000199DD","source_layer":"TN_RIVER_BNDRY","semantic":"zone","river_class":"지방하천","river_class_source":"중심선 공간조인","river_name":"도곡천","river_code":"3024180","survey_method":"사진측량","admin_code":"44250"},"geometry":{"type":"Polygon","coordinates":[[[127.21826,36.26562],[127.21797,36.26551],[127.21785,36.26622],[127.2161,36.26877],[127.21521,36.2694],[127.21338,36.27005],[127.21308,36.27029],[127.21321,36.27037],[127.2135,36.27014],[127.21514,36.26957],[127.21634,36.26874],[127.21801,36.26628],[127.21826,36.26562]]]}},{"type":"Feature","id":"TN_RIVER_BNDRY:WTR010000000199EE","properties":{"NF_ID":"WTR010000000199EE","source_layer":"TN_RIVER_BNDRY","semantic":"zone","river_class":"지방하천","river_class_source":"중심선 공간조인","river_name":"도곡천","river_code":"3024180","survey_method":"사진측량","admin_code":"44250"},"geometry":{"type":"Polygon","coordinates":[[[127.21321,36.27037],[127.21308,36.27029],[127.21297,36.27041],[127.21309,36.27052],[127.21321,36.27037]]]}},{"type":"Feature","id":"TN_RIVER_BNDRY:WTR010000000199FF","properties":{"NF_ID":"WTR010000000199FF","source_layer":"TN_RIVER_BNDRY","semantic":"zone","river_class":"지방하천","river_class_source":"중심선 공간조인","river_name":"연산천","river_code":"3024170","survey_method":"사진측량","admin_code":"44250"},"geometry":{"type":"Polygon","coordinates":[[[127.2283,36.25754],[127.22779,36.25754],[127.22778,36.2577],[127.2283,36.2578],[127.2283,36.25754]]]}},{"type":"Feature","id":"TN_RIVER_BNDRY:WTR010000000199GG","properties":{"NF_ID":"WTR010000000199GG","source_layer":"TN_RIVER_BNDRY","semantic":"zone","river_class":"지방하천","river_class_source":"중심선 공간조인","river_name":"도곡천","river_code":"3024180","survey_method":"사진측량","admin_code":"44250"},"geometry":{"type":"Polygon","coordinates":[[[127.21836,36.26551],[127.2178,36.26548],[127.21826,36.26562],[127.21836,36.26551]]]}},{"type":"Feature","id":"TN_RIVER_BNDRY:WTR010000000199HH","properties":{"NF_ID":"WTR010000000199HH","source_layer":"TN_RIVER_BNDRY","semantic":"zone","river_class":"소하천","river_class_source":"중심선 공간조인","survey_method":"사진측량","admin_code":"44250"},"geometry":{"type":"Polygon","coordinates":[[[127.23336,36.26872],[127.23338,36.26917],[127.23383,36.27003],[127.23336,36.26872]]]}},{"type":"Feature","id":"TN_RIVER_BNDRY:WTR010000000199II","properties":{"NF_ID":"WTR010000000199II","source_layer":"TN_RIVER_BNDRY","semantic":"zone","river_class":"소하천","river_class_source":"중심선 공간조인","survey_method":"사진측량","admin_code":"44250"},"geometry":{"type":"Polygon","coordinates":[[[127.23455,36.27197],[127.23501,36.27363],[127.23505,36.27319],[127.23455,36.27197]]]}},{"type":"Feature","id":"TN_RIVER_BNDRY:WTR010000000199JJ","properties":{"NF_ID":"WTR010000000199JJ","source_layer":"TN_RIVER_BNDRY","semantic":"zone","river_class":"지방하천","river_class_source":"중심선 공간조인","river_name":"연산천","river_code":"3024170","survey_method":"사진측량","admin_code":"44250"},"geometry":{"type":"Polygon","coordinates":[[[127.22421,36.27987],[127.22403,36.27988],[127.22394,36.2801],[127.22413,36.28013],[127.22421,36.27987]]]}},{"type":"Feature","id":"TN_RIVER_BNDRY:WTR010000000199KK","properties":{"NF_ID":"WTR010000000199KK","source_layer":"TN_RIVER_BNDRY","semantic":"zone","river_class":"소하천","river_class_source":"중심선 공간조인","survey_method":"사진측량","admin_code":"44250"},"geometry":{"type":"Polygon","coordinates":[[[127.22397,36.28122],[127.22387,36.28116],[127.22384,36.28123],[127.22393,36.28126],[127.22397,36.28122]]]}},{"type":"Feature","id":"TN_RIVER_BNDRY:WTR010000000199LL","properties":{"NF_ID":"WTR010000000199LL","source_layer":"TN_RIVER_BNDRY","semantic":"zone","river_class":"소하천","river_class_source":"중심선 공간조인","survey_method":"사진측량","admin_code":"44250"},"geometry":{"type":"Polygon","coordinates":[[[127.22413,36.28013],[127.22394,36.2801],[127.2239,36.28038],[127.22397,36.28122],[127.22413,36.28013]]]}},{"type":"Feature","id":"TN_RIVER_BNDRY:WTR010000000199MM","properties":{"NF_ID":"WTR010000000199MM","source_layer":"TN_RIVER_BNDRY","semantic":"zone","river_class":"소하천","river_class_source":"중심선 공간조인","survey_method":"사진측량","admin_code":"44250"},"geometry":{"type":"Polygon","coordinates":[[[127.21083,36.29584],[127.21106,36.29462],[127.21083,36.29505],[127.21072,36.29583],[127.21083,36.29584]]]}},{"type":"Feature","id":"TN_RIVER_BNDRY:WTR010000000199XX","properties":{"NF_ID":"WTR010000000199XX","source_layer":"TN_RIVER_BNDRY","semantic":"zone","river_class":"소하천","river_class_source":"중심선 공간조인","survey_method":"사진측량","admin_code":"44250"},"geometry":{"type":"Polygon","coordinates":[[[127.2224,36.31846],[127.22216,36.31827],[127.22165,36.3191],[127.22133,36.31931],[127.21959,36.31964],[127.21816,36.31928],[127.21702,36.32],[127.21814,36.31947],[127.21942,36.31977],[127.22138,36.31959],[127.22177,36.31935],[127.2224,36.31846]]]}},{"type":"Feature","id":"TN_RIVER_BNDRY:WTR010000000199YY","properties":{"NF_ID":"WTR010000000199YY","source_layer":"TN_RIVER_BNDRY","semantic":"zone","river_class":"소하천","river_class_source":"중심선 공간조인","survey_method":"사진측량","admin_code":"44250"},"geometry":{"type":"Polygon","coordinates":[[[127.22262,36.31818],[127.22237,36.31795],[127.22216,36.31827],[127.2224,36.31846],[127.22262,36.31818]]]}},{"type":"Feature","id":"TN_RIVER_BNDRY:WTR010000000199ZZ","properties":{"NF_ID":"WTR010000000199ZZ","source_layer":"TN_RIVER_BNDRY","semantic":"zone","river_class":"소하천","river_class_source":"중심선 공간조인","survey_method":"사진측량","admin_code":"44250"},"geometry":{"type":"Polygon","coordinates":[[[127.22262,36.31818],[127.2224,36.31846],[127.22252,36.31862],[127.22214,36.32051],[127.22099,36.32142],[127.22082,36.32198],[127.22048,36.32241],[127.21922,36.32339],[127.21912,36.32376],[127.21933,36.32425],[127.21956,36.32339],[127.2206,36.32279],[127.22109,36.32215],[127.22128,36.32141],[127.22238,36.32057],[127.22274,36.31884],[127.22262,36.31818]]]}},{"type":"Feature","id":"TN_RIVER_BNDRY:WTR01000000019A23","properties":{"NF_ID":"WTR01000000019A23","source_layer":"TN_RIVER_BNDRY","semantic":"zone","river_class":"지방하천","river_class_source":"중심선 공간조인","river_name":"연산천","river_code":"3024170","survey_method":"사진측량","admin_code":"44250"},"geometry":{"type":"Polygon","coordinates":[[[127.22689,36.26273],[127.22653,36.26287],[127.22656,36.26313],[127.22694,36.26316],[127.22689,36.26273]]]}},{"type":"Feature","id":"TN_RIVER_BNDRY:WTR01000000019A34","properties":{"NF_ID":"WTR01000000019A34","source_layer":"TN_RIVER_BNDRY","semantic":"zone","river_class":"지방하천","river_class_source":"중심선 공간조인","river_name":"연산천","river_code":"3024170","survey_method":"사진측량","admin_code":"44250"},"geometry":{"type":"Polygon","coordinates":[[[127.22778,36.2577],[127.22749,36.25986],[127.2277,36.26163],[127.22745,36.26224],[127.22689,36.26273],[127.22694,36.26316],[127.22757,36.2629],[127.2279,36.26254],[127.22827,36.26147],[127.22829,36.26102],[127.2282,36.2611],[127.22783,36.25996],[127.2283,36.2578],[127.22778,36.2577]]]}},{"type":"Feature","id":"TN_RIVER_BNDRY:WTR01000000019AHI","properties":{"NF_ID":"WTR01000000019AHI","source_layer":"TN_RIVER_BNDRY","semantic":"zone","river_class":"소하천","river_class_source":"중심선 공간조인","river_name":"검배천","survey_method":"사진측량","admin_code":"44250"},"geometry":{"type":"Polygon","coordinates":[[[127.22397,36.28122],[127.22498,36.28218],[127.2268,36.28326],[127.22735,36.28322],[127.22821,36.28281],[127.22828,36.28258],[127.22803,36.28291],[127.22733,36.28316],[127.22675,36.28318],[127.22506,36.28217],[127.22397,36.28122]]]}},{"type":"Feature","id":"TN_RIVER_BNDRY:WTR01000000019AJK","properties":{"NF_ID":"WTR01000000019AJK","source_layer":"TN_RIVER_BNDRY","semantic":"zone","river_class":"소하천","river_class_source":"중심선 공간조인","survey_method":"사진측량","admin_code":"44250"},"geometry":{"type":"Polygon","coordinates":[[[127.22393,36.28126],[127.22372,36.28187],[127.22304,36.28272],[127.22344,36.28317],[127.22408,36.28481],[127.22649,36.28591],[127.22667,36.2866],[127.22716,36.28727],[127.22677,36.28792],[127.22716,36.28849],[127.22803,36.28889],[127.22834,36.28981],[127.22811,36.28888],[127.22732,36.28852],[127.22687,36.28793],[127.22746,36.28721],[127.22679,36.28668],[127.2265,36.28586],[127.22412,36.28473],[127.22352,36.28311],[127.22312,36.28269],[127.22378,36.28191],[127.22393,36.28126]]]}},{"type":"Feature","id":"TN_RIVER_BNDRY:WTR01000000019AMN","properties":{"NF_ID":"WTR01000000019AMN","source_layer":"TN_RIVER_BNDRY","semantic":"zone","river_class":"소하천","river_class_source":"중심선 공간조인","survey_method":"사진측량","admin_code":"44250"},"geometry":{"type":"Polygon","coordinates":[[[127.23804,36.30907],[127.23808,36.30868],[127.23194,36.3087],[127.2303,36.30935],[127.22789,36.30912],[127.227,36.30922],[127.22642,36.30974],[127.22482,36.31056],[127.22366,36.31252],[127.22197,36.31357],[127.22195,36.31429],[127.22265,36.31583],[127.22237,36.31795],[127.22262,36.31818],[127.2228,36.31783],[127.22292,36.31624],[127.22221,36.31404],[127.22223,36.31368],[127.22239,36.31347],[127.22349,36.31303],[127.22512,36.31058],[127.22614,36.3103],[127.22794,36.30947],[127.23049,36.30949],[127.23219,36.30893],[127.23607,36.30904],[127.23787,36.30897],[127.23793,36.30878],[127.23804,36.30907]]]}},{"type":"Feature","id":"TN_RIVER_BNDRY:WTR01000000019AOP","properties":{"NF_ID":"WTR01000000019AOP","source_layer":"TN_RIVER_BNDRY","semantic":"zone","river_class":"지방하천","river_class_source":"중심선 공간조인","river_name":"두계천","river_code":"3021520","survey_method":"사진측량","admin_code":"44250"},"geometry":{"type":"Polygon","coordinates":[[[127.23857,36.30933],[127.23804,36.30907],[127.23714,36.31301],[127.23635,36.31784],[127.23446,36.32122],[127.23215,36.32366],[127.23213,36.32386],[127.2324,36.32395],[127.23229,36.32425],[127.23174,36.32454],[127.23129,36.3245],[127.2318,36.32483],[127.23191,36.32616],[127.23245,36.32737],[127.23311,36.32969],[127.23314,36.33042],[127.23381,36.33035],[127.2335,36.32954],[127.23361,36.32902],[127.23386,36.32873],[127.23373,36.32837],[127.23423,36.32798],[127.23444,36.3274],[127.23434,36.32715],[127.23458,36.32695],[127.23483,36.32612],[127.23536,36.32557],[127.23584,36.32466],[127.23632,36.32438],[127.23618,36.32411],[127.23649,36.32309],[127.23627,36.32286],[127.23593,36.32286],[127.23258,36.32362],[127.23244,36.32352],[127.23218,36.32378],[127.23419,36.32186],[127.23527,36.32051],[127.23653,36.31813],[127.23759,36.31282],[127.23857,36.30933]]]}},{"type":"Feature","id":"TN_RIVER_BNDRY:WTR01000000019BXZ","properties":{"NF_ID":"WTR01000000019BXZ","source_layer":"TN_RIVER_BNDRY","semantic":"zone","river_class":"지방하천","river_class_source":"중심선 공간조인","river_name":"연산천","river_code":"3024170","survey_method":"사진측량","admin_code":"44250"},"geometry":{"type":"Polygon","coordinates":[[[127.22823,36.25448],[127.22771,36.25448],[127.22804,36.25459],[127.22816,36.25514],[127.2279,36.25572],[127.22779,36.25754],[127.2283,36.25754],[127.22823,36.25448]]]}},{"type":"Feature","id":"TN_RIVER_BNDRY:WTR01000000019BZ1","properties":{"NF_ID":"WTR01000000019BZ1","source_layer":"TN_RIVER_BNDRY","semantic":"zone","river_class":"소하천","river_class_source":"중심선 공간조인","survey_method":"사진측량","admin_code":"44250"},"geometry":{"type":"MultiPolygon","coordinates":[[[[127.22641,36.25836],[127.22566,36.25869],[127.22475,36.25881],[127.22551,36.25878],[127.22641,36.25836]]],[[[127.22697,36.25809],[127.22778,36.2577],[127.22779,36.25754],[127.22697,36.25809]]]]}},{"type":"Feature","id":"TN_RIVER_BNDRY:WTR01000000019C03","properties":{"NF_ID":"WTR01000000019C03","source_layer":"TN_RIVER_BNDRY","semantic":"zone","river_class":"소하천","river_class_source":"중심선 공간조인","survey_method":"사진측량","admin_code":"44250"},"geometry":{"type":"Polygon","coordinates":[[[127.24988,36.2577],[127.24861,36.2575],[127.24821,36.25762],[127.24988,36.2577]]]}},{"type":"Feature","id":"TN_RIVER_BNDRY:WTR01000000019C14","properties":{"NF_ID":"WTR01000000019C14","source_layer":"TN_RIVER_BNDRY","semantic":"zone","river_class":"지방하천","river_class_source":"중심선 공간조인","river_name":"농소천","river_code":"3021530","survey_method":"사진측량","admin_code":"44250"},"geometry":{"type":"Polygon","coordinates":[[[127.24998,36.25081],[127.24819,36.2504],[127.24772,36.25],[127.24696,36.25011],[127.24647,36.25],[127.24694,36.25019],[127.24762,36.25003],[127.24821,36.25048],[127.24965,36.25084],[127.24998,36.25081]]]}},{"type":"Feature","id":"TN_RIVER_BNDRY:WTR01000000019C9C","properties":{"NF_ID":"WTR01000000019C9C","source_layer":"TN_RIVER_BNDRY","semantic":"zone","river_class":"지방하천","river_class_source":"중심선 공간조인","river_name":"두계천","river_code":"3021520","survey_method":"사진측량","admin_code":"44250"},"geometry":{"type":"Polygon","coordinates":[[[127.2485,36.28764],[127.24931,36.28473],[127.25,36.28375],[127.25,36.28288],[127.24904,36.28363],[127.24861,36.28427],[127.2483,36.28621],[127.24774,36.28805],[127.24842,36.28793],[127.2485,36.28764]]]}}]}