{"type":"FeatureCollection","features":[{"type":"Feature","id":"TN_RIVER_BT:WTR02000000002G11","properties":{"NF_ID":"WTR02000000002G11","admin_code":"41110","source_layer":"TN_RIVER_BT","semantic":"channel","river_class":"지방하천","river_class_source":"중심선 공간조인","river_name":"영화천","river_code":"1120710","survey_method":"사진측량"},"geometry":{"type":"Polygon","coordinates":[[[127.00118,37.29758],[127.0,37.29772],[127.00094,37.29756],[127.00127,37.29778],[127.00118,37.29758]]]}},{"type":"Feature","id":"TN_RIVER_BT:WTR02000000002GBB","properties":{"NF_ID":"WTR02000000002GBB","admin_code":"41110","source_layer":"TN_RIVER_BT","semantic":"channel","river_class":"소하천","river_class_source":"중심선 공간조인","survey_method":"사진측량"},"geometry":{"type":"Polygon","coordinates":[[[127.01882,37.30527],[127.01879,37.30526],[127.01877,37.30526],[127.01875,37.30526],[127.01873,37.30526],[127.0187,37.30526],[127.01868,37.30526],[127.01864,37.30527],[127.01862,37.30527],[127.0186,37.30527],[127.01859,37.30527],[127.01858,37.30527],[127.01856,37.30527],[127.01855,37.30527],[127.01855,37.30527],[127.01853,37.30527],[127.01852,37.30526],[127.0185,37.30526],[127.01846,37.30524],[127.01843,37.30523],[127.01841,37.30522],[127.01838,37.30522],[127.01835,37.30521],[127.01833,37.30521],[127.01827,37.30521],[127.01823,37.3052],[127.0182,37.3052],[127.01818,37.30519],[127.01817,37.30519],[127.01816,37.30519],[127.01815,37.30518],[127.01812,37.30517],[127.01811,37.30517],[127.0181,37.30516],[127.01806,37.30514],[127.01806,37.30514],[127.01803,37.30512],[127.01801,37.30511],[127.01799,37.30511],[127.01797,37.3051],[127.01796,37.30509],[127.01795,37.30509],[127.01793,37.30508],[127.0179,37.30507],[127.01788,37.30507],[127.01787,37.30506],[127.01786,37.30505],[127.01785,37.30505],[127.01784,37.30504],[127.01781,37.30502],[127.0178,37.30501],[127.01779,37.305],[127.01778,37.305],[127.01777,37.30499],[127.01776,37.30499],[127.01775,37.30498],[127.01773,37.30498],[127.01771,37.30497],[127.0177,37.30497],[127.01769,37.30497],[127.01769,37.30497],[127.01768,37.30497],[127.0177,37.30498],[127.01772,37.30499],[127.01773,37.30499],[127.01775,37.305],[127.01776,37.305],[127.01777,37.30501],[127.01779,37.30501],[127.01781,37.30503],[127.01782,37.30504],[127.01785,37.30506],[127.01787,37.30507],[127.01789,37.30508],[127.01791,37.30509],[127.01795,37.3051],[127.01797,37.30511],[127.01801,37.30512],[127.01804,37.30514],[127.01808,37.30516],[127.01811,37.30518],[127.01813,37.30519],[127.01815,37.3052],[127.01817,37.3052],[127.01819,37.30521],[127.01821,37.30521],[127.01824,37.30521],[127.01828,37.30521],[127.01832,37.30522],[127.01835,37.30522],[127.0184,37.30523],[127.01843,37.30523],[127.01848,37.30526],[127.01852,37.30527],[127.01854,37.30528],[127.01856,37.30528],[127.01859,37.30528],[127.01862,37.30528],[127.01864,37.30528],[127.01869,37.30527],[127.01871,37.30527],[127.01875,37.30527],[127.01877,37.30527],[127.0188,37.30527],[127.01882,37.30528],[127.01886,37.30529],[127.01889,37.30529],[127.01892,37.3053],[127.01896,37.3053],[127.019,37.30531],[127.01905,37.30531],[127.01901,37.3053],[127.01897,37.30529],[127.01893,37.30529],[127.01891,37.30529],[127.01889,37.30528],[127.01884,37.30527],[127.01882,37.30527]]]}},{"type":"Feature","id":"TN_RIVER_BT:WTR02000000002GDD","properties":{"NF_ID":"WTR02000000002GDD","admin_code":"41110","source_layer":"TN_RIVER_BT","semantic":"channel","river_class":"등급미확인","survey_method":"사진측량"},"geometry":{"type":"Polygon","coordinates":[[[127.01941,37.30786],[127.01941,37.30785],[127.01931,37.30786],[127.01922,37.30787],[127.01918,37.30787],[127.01911,37.30788],[127.01905,37.30789],[127.01898,37.3079],[127.01887,37.30793],[127.01887,37.30794],[127.01899,37.30792],[127.01906,37.3079],[127.01911,37.30789],[127.01918,37.30788],[127.01922,37.30788],[127.01932,37.30787],[127.01941,37.30786]]]}},{"type":"Feature","id":"TN_RIVER_BT:WTR02000000002GGG","properties":{"NF_ID":"WTR02000000002GGG","admin_code":"41110","source_layer":"TN_RIVER_BT","semantic":"channel","river_class":"등급미확인","survey_method":"사진측량"},"geometry":{"type":"Polygon","coordinates":[[[127.01864,37.30838],[127.01845,37.30881],[127.01897,37.30953],[127.01847,37.3088],[127.01864,37.30838]]]}},{"type":"Feature","id":"TN_RIVER_BT:WTR02000000002GHH","properties":{"NF_ID":"WTR02000000002GHH","admin_code":"41110","source_layer":"TN_RIVER_BT","semantic":"channel","river_class":"소하천","river_class_source":"중심선 공간조인","survey_method":"사진측량"},"geometry":{"type":"Polygon","coordinates":[[[127.00387,37.30875],[127.00381,37.30917],[127.00437,37.30984],[127.00385,37.30913],[127.00387,37.30875]]]}},{"type":"Feature","id":"TN_RIVER_BT:WTR02000000002GII","properties":{"NF_ID":"WTR02000000002GII","admin_code":"41110","source_layer":"TN_RIVER_BT","semantic":"channel","river_class":"등급미확인","survey_method":"사진측량"},"geometry":{"type":"Polygon","coordinates":[[[127.01458,37.31028],[127.01455,37.31027],[127.01448,37.31023],[127.01441,37.3102],[127.01435,37.31017],[127.0143,37.31015],[127.01425,37.31013],[127.0142,37.3101],[127.01419,37.31009],[127.01418,37.31008],[127.01417,37.31007],[127.01417,37.31007],[127.01416,37.31007],[127.01415,37.31007],[127.01414,37.31006],[127.01412,37.31006],[127.01405,37.31003],[127.01399,37.31001],[127.01397,37.31],[127.01393,37.30999],[127.01391,37.30998],[127.01389,37.30998],[127.01385,37.30997],[127.01381,37.30996],[127.01376,37.30995],[127.01375,37.30994],[127.01375,37.30994],[127.01375,37.30993],[127.01375,37.30992],[127.01374,37.30991],[127.01374,37.30991],[127.01373,37.30991],[127.01373,37.30991],[127.01372,37.30991],[127.01371,37.30991],[127.01371,37.30992],[127.01371,37.30992],[127.0137,37.30992],[127.01368,37.3099],[127.01366,37.30988],[127.01365,37.30987],[127.01365,37.30987],[127.01365,37.30986],[127.01365,37.30985],[127.01365,37.30985],[127.01365,37.30984],[127.01365,37.30984],[127.01365,37.30983],[127.01364,37.30983],[127.01364,37.30983],[127.01363,37.30983],[127.01362,37.30983],[127.0136,37.30982],[127.01359,37.30982],[127.01359,37.30982],[127.01359,37.30982],[127.01359,37.30983],[127.01362,37.30986],[127.01366,37.30989],[127.01369,37.30992],[127.0137,37.30993],[127.01371,37.30994],[127.01372,37.30995],[127.01373,37.30995],[127.01373,37.30995],[127.01375,37.30996],[127.01377,37.30996],[127.01381,37.30997],[127.01387,37.30999],[127.01389,37.30999],[127.0139,37.30999],[127.01394,37.31],[127.01394,37.31],[127.01399,37.31002],[127.01406,37.31005],[127.01412,37.31007],[127.01414,37.31008],[127.01416,37.31009],[127.01419,37.31011],[127.01423,37.31013],[127.0143,37.31016],[127.01438,37.3102],[127.01447,37.31024],[127.0145,37.31026],[127.01451,37.31027],[127.01451,37.31027],[127.01451,37.31028],[127.01452,37.31028],[127.01452,37.31029],[127.01453,37.31029],[127.01454,37.31028],[127.01455,37.31028],[127.01457,37.31029],[127.01458,37.31029],[127.01458,37.31029],[127.01459,37.31029],[127.01458,37.31028]]]}},{"type":"Feature","id":"TN_RIVER_BT:WTR02000000002GJJ","properties":{"NF_ID":"WTR02000000002GJJ","admin_code":"41110","source_layer":"TN_RIVER_BT","semantic":"channel","river_class":"소하천","river_class_source":"중심선 공간조인","survey_method":"사진측량"},"geometry":{"type":"Polygon","coordinates":[[[127.0139,37.31035],[127.01338,37.30941],[127.01401,37.30886],[127.01458,37.30948],[127.01492,37.31044],[127.0136,37.30783],[127.01367,37.30672],[127.01357,37.30783],[127.01397,37.30883],[127.01337,37.30943],[127.01392,37.31022],[127.01332,37.31029],[127.0139,37.31035]]]}},{"type":"Feature","id":"TN_RIVER_BT:WTR02000000002GLL","properties":{"NF_ID":"WTR02000000002GLL","admin_code":"41110","source_layer":"TN_RIVER_BT","semantic":"channel","river_class":"소하천","river_class_source":"중심선 공간조인","survey_method":"사진측량"},"geometry":{"type":"Polygon","coordinates":[[[127.02961,37.31062],[127.02857,37.31015],[127.02785,37.30909],[127.02749,37.30896],[127.02851,37.31016],[127.02965,37.3107],[127.02977,37.31159],[127.0299,37.31107],[127.02961,37.31062]]]}},{"type":"Feature","id":"TN_RIVER_BT:WTR02000000002GMM","properties":{"NF_ID":"WTR02000000002GMM","admin_code":"41110","source_layer":"TN_RIVER_BT","semantic":"channel","river_class":"소하천","river_class_source":"중심선 공간조인","survey_method":"사진측량"},"geometry":{"type":"Polygon","coordinates":[[[127.01577,37.31152],[127.01567,37.31149],[127.01565,37.31148],[127.01565,37.31148],[127.01565,37.3115],[127.01567,37.3115],[127.01577,37.31153],[127.0159,37.31158],[127.01591,37.31157],[127.01577,37.31152]]]}},{"type":"Feature","id":"TN_RIVER_BT:WTR02000000002GNN","properties":{"NF_ID":"WTR02000000002GNN","admin_code":"41110","source_layer":"TN_RIVER_BT","semantic":"channel","river_class":"등급미확인","survey_method":"사진측량"},"geometry":{"type":"Polygon","coordinates":[[[127.00622,37.31179],[127.00622,37.31178],[127.00601,37.31187],[127.0059,37.31191],[127.00585,37.31194],[127.00584,37.31195],[127.00583,37.31198],[127.00585,37.31196],[127.00586,37.31195],[127.00591,37.31192],[127.00602,37.31187],[127.00618,37.3118],[127.00622,37.31179]]]}},{"type":"Feature","id":"TN_RIVER_BT:WTR02000000002GOO","properties":{"NF_ID":"WTR02000000002GOO","admin_code":"41110","source_layer":"TN_RIVER_BT","semantic":"channel","river_class":"등급미확인","survey_method":"사진측량"},"geometry":{"type":"Polygon","coordinates":[[[127.02207,37.31203],[127.02208,37.31201],[127.02198,37.31201],[127.02198,37.31204],[127.02199,37.31207],[127.02201,37.3121],[127.02203,37.31212],[127.02204,37.31213],[127.02206,37.31213],[127.02207,37.31212],[127.02207,37.31211],[127.02207,37.31209],[127.02207,37.31205],[127.02207,37.31203]]]}},{"type":"Feature","id":"TN_RIVER_BT:WTR02000000002GPP","properties":{"NF_ID":"WTR02000000002GPP","admin_code":"41110","source_layer":"TN_RIVER_BT","semantic":"channel","river_class":"소하천","river_class_source":"중심선 공간조인","survey_method":"사진측량"},"geometry":{"type":"Polygon","coordinates":[[[127.01525,37.31158],[127.01536,37.31209],[127.01479,37.31253],[127.01538,37.31209],[127.01525,37.31158]]]}},{"type":"Feature","id":"TN_RIVER_BT:WTR02000000002GRR","properties":{"NF_ID":"WTR02000000002GRR","admin_code":"41110","source_layer":"TN_RIVER_BT","semantic":"channel","river_class":"등급미확인","survey_method":"사진측량"},"geometry":{"type":"Polygon","coordinates":[[[127.02364,37.31287],[127.02204,37.31239],[127.02342,37.31287],[127.02514,37.31305],[127.02364,37.31287]]]}},{"type":"Feature","id":"TN_RIVER_BT:WTR02000000002GSS","properties":{"NF_ID":"WTR02000000002GSS","admin_code":"41110","source_layer":"TN_RIVER_BT","semantic":"channel","river_class":"등급미확인","survey_method":"사진측량"},"geometry":{"type":"Polygon","coordinates":[[[127.02465,37.31112],[127.02502,37.31248],[127.02545,37.31311],[127.02465,37.31112]]]}},{"type":"Feature","id":"TN_RIVER_BT:WTR02000000002GTT","properties":{"NF_ID":"WTR02000000002GTT","admin_code":"41110","source_layer":"TN_RIVER_BT","semantic":"channel","river_class":"소하천","river_class_source":"중심선 공간조인","survey_method":"사진측량"},"geometry":{"type":"Polygon","coordinates":[[[127.00003,37.3126],[127.0,37.31258],[127.0,37.31261],[127.00003,37.31262],[127.00003,37.31262],[127.00004,37.31263],[127.00008,37.31265],[127.00008,37.31265],[127.00011,37.31268],[127.00014,37.31272],[127.00016,37.31275],[127.00018,37.31278],[127.00019,37.3128],[127.0002,37.31283],[127.00021,37.31283],[127.00021,37.31284],[127.00022,37.31288],[127.00024,37.31291],[127.00024,37.31292],[127.00024,37.31293],[127.00024,37.31294],[127.00025,37.31295],[127.00026,37.31295],[127.00026,37.31296],[127.00027,37.31297],[127.0003,37.31298],[127.00032,37.313],[127.00033,37.31301],[127.00035,37.31304],[127.00037,37.31309],[127.00038,37.31317],[127.00038,37.31322],[127.00037,37.31325],[127.00037,37.31326],[127.00037,37.31327],[127.00041,37.31331],[127.00047,37.31338],[127.00054,37.31344],[127.00062,37.3135],[127.00065,37.31353],[127.00067,37.31356],[127.00069,37.31355],[127.00071,37.31353],[127.0007,37.31352],[127.00068,37.3135],[127.00063,37.31348],[127.00058,37.31345],[127.00053,37.31341],[127.00051,37.31339],[127.00045,37.31334],[127.0004,37.31328],[127.00039,37.31324],[127.00039,37.31321],[127.00039,37.31316],[127.00039,37.31308],[127.00039,37.31305],[127.00038,37.31303],[127.00037,37.31301],[127.00035,37.313],[127.00032,37.31297],[127.00031,37.31297],[127.00031,37.31297],[127.00029,37.31294],[127.00029,37.31293],[127.00027,37.31289],[127.00027,37.31289],[127.00025,37.31285],[127.00025,37.31283],[127.00024,37.31282],[127.00022,37.31278],[127.00022,37.31278],[127.0002,37.31273],[127.00018,37.3127],[127.00017,37.31269],[127.00016,37.31267],[127.00015,37.31267],[127.00015,37.31266],[127.00012,37.31264],[127.00008,37.31262],[127.00007,37.31262],[127.00003,37.3126]]]}},{"type":"Feature","id":"TN_RIVER_BT:WTR02000000002GUU","properties":{"NF_ID":"WTR02000000002GUU","admin_code":"41110","source_layer":"TN_RIVER_BT","semantic":"channel","river_class":"소하천","river_class_source":"중심선 공간조인","survey_method":"사진측량"},"geometry":{"type":"Polygon","coordinates":[[[127.00828,37.31297],[127.00761,37.31287],[127.00503,37.31002],[127.00449,37.30987],[127.00499,37.31003],[127.0076,37.31288],[127.0087,37.31318],[127.00877,37.3145],[127.00884,37.31336],[127.00828,37.31297]]]}},{"type":"Feature","id":"TN_RIVER_BT:WTR02000000002GVV","properties":{"NF_ID":"WTR02000000002GVV","admin_code":"41110","source_layer":"TN_RIVER_BT","semantic":"channel","river_class":"등급미확인","survey_method":"사진측량"},"geometry":{"type":"Polygon","coordinates":[[[127.02424,37.31431],[127.02422,37.31431],[127.02421,37.31433],[127.0242,37.31435],[127.0242,37.31437],[127.02419,37.31439],[127.02419,37.3144],[127.02418,37.31444],[127.02418,37.31446],[127.02418,37.3145],[127.02419,37.31451],[127.0242,37.31453],[127.02421,37.31456],[127.02422,37.31458],[127.02423,37.3146],[127.02424,37.31463],[127.02426,37.31466],[127.02428,37.31472],[127.02429,37.31475],[127.0243,37.31478],[127.02431,37.31483],[127.02432,37.3149],[127.02434,37.31494],[127.02436,37.31497],[127.02438,37.315],[127.02439,37.31502],[127.02442,37.31507],[127.02444,37.31512],[127.02445,37.31515],[127.02446,37.31515],[127.02446,37.31515],[127.02446,37.31515],[127.02446,37.31515],[127.02447,37.31515],[127.02447,37.31515],[127.02447,37.31515],[127.02447,37.31514],[127.02447,37.31513],[127.02447,37.31511],[127.02444,37.31506],[127.02441,37.31501],[127.02441,37.315],[127.02438,37.31497],[127.02436,37.31494],[127.02435,37.31491],[127.02434,37.31487],[127.02432,37.31481],[127.02431,37.31476],[127.0243,37.31472],[127.02429,37.31468],[127.02427,37.31463],[127.02425,37.31459],[127.02423,37.31454],[127.02421,37.31451],[127.0242,37.31449],[127.0242,37.31447],[127.0242,37.31444],[127.02421,37.31441],[127.02421,37.31438],[127.02423,37.31436],[127.02423,37.31434],[127.02423,37.31432],[127.02424,37.31431]]]}},{"type":"Feature","id":"TN_RIVER_BT:WTR02000000002GWW","properties":{"NF_ID":"WTR02000000002GWW","admin_code":"41110","source_layer":"TN_RIVER_BT","semantic":"channel","river_class":"소하천","river_class_source":"중심선 공간조인","survey_method":"사진측량"},"geometry":{"type":"Polygon","coordinates":[[[127.0209,37.31367],[127.02211,37.31462],[127.02282,37.31621],[127.02213,37.31461],[127.0209,37.31367]]]}},{"type":"Feature","id":"TN_RIVER_BT:WTR02000000002GXX","properties":{"NF_ID":"WTR02000000002GXX","admin_code":"41110","source_layer":"TN_RIVER_BT","semantic":"channel","river_class":"소하천","river_class_source":"중심선 공간조인","survey_method":"사진측량"},"geometry":{"type":"Polygon","coordinates":[[[127.00336,37.31617],[127.0035,37.31606],[127.00273,37.31601],[127.00182,37.31435],[127.00123,37.31401],[127.00181,37.31437],[127.00267,37.31611],[127.00336,37.31617]]]}},{"type":"Feature","id":"TN_RIVER_BT:WTR02000000002GZZ","properties":{"NF_ID":"WTR02000000002GZZ","admin_code":"41110","source_layer":"TN_RIVER_BT","semantic":"channel","river_class":"소하천","river_class_source":"중심선 공간조인","survey_method":"사진측량"},"geometry":{"type":"Polygon","coordinates":[[[127.00266,37.31669],[127.00254,37.3169],[127.003,37.31727],[127.00258,37.31689],[127.00266,37.31669]]]}},{"type":"Feature","id":"TN_RIVER_BT:WTR02000000002H23","properties":{"NF_ID":"WTR02000000002H23","admin_code":"41110","source_layer":"TN_RIVER_BT","semantic":"channel","river_class":"소하천","river_class_source":"중심선 공간조인","survey_method":"사진측량"},"geometry":{"type":"Polygon","coordinates":[[[127.00877,37.32789],[127.00958,37.32736],[127.00837,37.32803],[127.00824,37.32854],[127.00773,37.32899],[127.00775,37.32937],[127.00839,37.32807],[127.00877,37.32789]]]}},{"type":"Feature","id":"TN_RIVER_BT:WTR02000000002H34","properties":{"NF_ID":"WTR02000000002H34","admin_code":"41110","source_layer":"TN_RIVER_BT","semantic":"channel","river_class":"소하천","river_class_source":"중심선 공간조인","survey_method":"사진측량"},"geometry":{"type":"Polygon","coordinates":[[[127.02826,37.32803],[127.02869,37.32815],[127.0282,37.32796],[127.02807,37.32753],[127.02774,37.3274],[127.02767,37.32643],[127.0275,37.32843],[127.02773,37.32879],[127.02817,37.32876],[127.02878,37.32936],[127.02822,37.32876],[127.02777,37.32879],[127.02754,37.32846],[127.02761,37.32768],[127.0279,37.32746],[127.02814,37.32827],[127.02987,37.32964],[127.02881,37.32859],[127.02818,37.32829],[127.02826,37.32803]]]}},{"type":"Feature","id":"TN_RIVER_BT:WTR02000000002H89","properties":{"NF_ID":"WTR02000000002H89","admin_code":"41110","source_layer":"TN_RIVER_BT","semantic":"channel","river_class":"지방하천","river_class_source":"중심선 공간조인","river_name":"수원천","river_code":"1120600","survey_method":"사진측량"},"geometry":{"type":"Polygon","coordinates":[[[127.02129,37.33775],[127.02123,37.33757],[127.02121,37.33761],[127.02118,37.33763],[127.02117,37.33764],[127.02115,37.33764],[127.02114,37.33763],[127.02113,37.33764],[127.02112,37.33765],[127.02112,37.33766],[127.02112,37.33766],[127.02121,37.33778],[127.02122,37.3378],[127.02122,37.33781],[127.0212,37.33786],[127.0212,37.33787],[127.02124,37.338],[127.02126,37.33802],[127.02127,37.33804],[127.02133,37.33812],[127.02139,37.33817],[127.02142,37.33819],[127.02143,37.33819],[127.02144,37.33819],[127.02145,37.33819],[127.02145,37.33817],[127.02144,37.33816],[127.02142,37.33815],[127.02135,37.33807],[127.02133,37.33803],[127.02131,37.33799],[127.02131,37.33797],[127.0213,37.33795],[127.0213,37.33791],[127.0213,37.33789],[127.0213,37.33781],[127.02129,37.33775]]]}},{"type":"Feature","id":"TN_RIVER_BT:WTR02000000002HAB","properties":{"NF_ID":"WTR02000000002HAB","admin_code":"41110","source_layer":"TN_RIVER_BT","semantic":"channel","river_class":"지방하천","river_class_source":"중심선 공간조인","river_name":"수원천","river_code":"1120600","survey_method":"사진측량"},"geometry":{"type":"Polygon","coordinates":[[[127.01539,37.34225],[127.01645,37.34274],[127.01663,37.34313],[127.01647,37.34271],[127.01519,37.34215],[127.01491,37.34179],[127.01508,37.34134],[127.01481,37.34002],[127.01517,37.33938],[127.01508,37.33877],[127.01552,37.33754],[127.01512,37.3359],[127.01567,37.33351],[127.01818,37.33459],[127.01919,37.33552],[127.01982,37.33659],[127.02063,37.33716],[127.02083,37.33708],[127.02004,37.33676],[127.01926,37.3355],[127.01835,37.33464],[127.01569,37.3335],[127.01484,37.33282],[127.01463,37.32928],[127.01491,37.32577],[127.01599,37.32663],[127.01654,37.32641],[127.01597,37.32658],[127.01492,37.32573],[127.01545,37.32287],[127.0152,37.32003],[127.01535,37.31908],[127.01834,37.31545],[127.01891,37.31633],[127.02149,37.31898],[127.02266,37.3197],[127.02461,37.32048],[127.02604,37.32147],[127.02657,37.32222],[127.02741,37.32257],[127.02804,37.32405],[127.02739,37.32247],[127.02661,37.32218],[127.02608,37.32144],[127.02461,37.32041],[127.02261,37.31965],[127.02161,37.31898],[127.01838,37.31547],[127.01939,37.31295],[127.02036,37.31197],[127.0215,37.31141],[127.02033,37.31197],[127.01935,37.31289],[127.01863,37.31437],[127.0178,37.31451],[127.01708,37.31519],[127.018,37.31443],[127.01861,37.31449],[127.0182,37.31545],[127.0152,37.31931],[127.01541,37.32199],[127.01522,37.32358],[127.01405,37.32379],[127.01393,37.32501],[127.01322,37.3264],[127.01274,37.32668],[127.01161,37.32687],[127.01105,37.32667],[127.01163,37.32695],[127.01322,37.32642],[127.01396,37.32501],[127.01409,37.32379],[127.01516,37.32368],[127.01449,37.32698],[127.01453,37.32887],[127.01418,37.32933],[127.01447,37.32923],[127.01452,37.32938],[127.01477,37.3329],[127.01561,37.33356],[127.01506,37.33591],[127.01543,37.33751],[127.01476,37.34003],[127.01488,37.34189],[127.01532,37.34233],[127.01535,37.34337],[127.01509,37.34379],[127.01539,37.34331],[127.01539,37.34225]]]}},{"type":"Feature","id":"TN_RIVER_BT:WTR02000000003WL2","properties":{"NF_ID":"WTR02000000003WL2","admin_code":"41110","source_layer":"TN_RIVER_BT","semantic":"channel","river_class":"소하천","river_class_source":"중심선 공간조인","survey_method":"사진측량"},"geometry":{"type":"Polygon","coordinates":[[[126.97372,37.29007],[126.97372,37.29005],[126.9737,37.29006],[126.97368,37.29007],[126.97366,37.29007],[126.97367,37.29008],[126.97369,37.2901],[126.9737,37.29013],[126.97373,37.29016],[126.97379,37.29018],[126.97387,37.29019],[126.97388,37.2902],[126.9739,37.29021],[126.97391,37.29022],[126.97392,37.29024],[126.97393,37.29027],[126.97394,37.29028],[126.97394,37.29031],[126.97395,37.29034],[126.97396,37.29035],[126.97396,37.29036],[126.97396,37.29036],[126.97397,37.29037],[126.97398,37.29038],[126.97398,37.2904],[126.974,37.29043],[126.97402,37.29043],[126.97403,37.2904],[126.97403,37.29039],[126.97402,37.29036],[126.97401,37.29034],[126.97401,37.29033],[126.97397,37.29031],[126.97397,37.2903],[126.97396,37.29027],[126.97396,37.29026],[126.97396,37.29023],[126.97395,37.2902],[126.97395,37.29019],[126.97395,37.29018],[126.97394,37.29017],[126.97392,37.29017],[126.97384,37.29015],[126.97377,37.29014],[126.97376,37.29013],[126.97375,37.29013],[126.97374,37.2901],[126.97373,37.29009],[126.97372,37.29007]]]}},{"type":"Feature","id":"TN_RIVER_BT:WTR02000000003WQ7","properties":{"NF_ID":"WTR02000000003WQ7","admin_code":"41110","source_layer":"TN_RIVER_BT","semantic":"channel","river_class":"등급미확인","survey_method":"사진측량"},"geometry":{"type":"Polygon","coordinates":[[[126.99853,37.29804],[126.99856,37.29804],[126.99858,37.29804],[126.9986,37.29804],[126.99865,37.29805],[126.99865,37.29805],[126.99866,37.29805],[126.99883,37.29802],[126.99884,37.29802],[126.99884,37.29802],[126.99884,37.29801],[126.99885,37.29801],[126.99899,37.29794],[126.9991,37.29789],[126.99912,37.29789],[126.99914,37.29788],[126.99917,37.29787],[126.99924,37.29783],[126.99926,37.29782],[126.99929,37.29781],[126.9993,37.2978],[126.99932,37.2978],[126.99933,37.29779],[126.99943,37.29777],[126.99947,37.29777],[126.99948,37.29776],[126.99957,37.29774],[126.99968,37.29772],[126.99975,37.2977],[126.99977,37.2977],[126.99979,37.29769],[126.99981,37.29768],[126.99982,37.29768],[126.99984,37.29768],[126.99985,37.29768],[126.99986,37.29768],[126.9999,37.29769],[126.99999,37.29772],[127.0,37.29772],[127.0,37.29772],[127.0,37.2977],[126.99996,37.2977],[126.99994,37.29769],[126.99992,37.29769],[126.9999,37.29767],[126.99988,37.29767],[126.99987,37.29766],[126.99985,37.29766],[126.99984,37.29766],[126.99961,37.2977],[126.99941,37.29775],[126.99926,37.29778],[126.99925,37.29778],[126.99925,37.2978],[126.99925,37.2978],[126.99925,37.29781],[126.99924,37.29782],[126.9992,37.29783],[126.99916,37.29784],[126.99914,37.29784],[126.99912,37.29785],[126.99901,37.2979],[126.99888,37.29796],[126.99883,37.29798],[126.99875,37.29802],[126.99875,37.29802],[126.99873,37.29802],[126.99871,37.29803],[126.99869,37.29803],[126.99868,37.29803],[126.99867,37.29803],[126.99865,37.29802],[126.99863,37.29802],[126.99859,37.29801],[126.99856,37.298],[126.99854,37.298],[126.99851,37.298],[126.99849,37.298],[126.99846,37.29801],[126.99841,37.29801],[126.99838,37.29801],[126.99831,37.29801],[126.99828,37.29801],[126.99826,37.29808],[126.99832,37.29807],[126.99834,37.29807],[126.99837,37.29806],[126.9984,37.29806],[126.99842,37.29805],[126.99844,37.29805],[126.99845,37.29804],[126.99848,37.29804],[126.99853,37.29804]]]}},{"type":"Feature","id":"TN_RIVER_BT:WTR02000000003WWD","properties":{"NF_ID":"WTR02000000003WWD","admin_code":"41110","source_layer":"TN_RIVER_BT","semantic":"channel","river_class":"지방하천","river_class_source":"중심선 공간조인","river_name":"영화천","river_code":"1120710","survey_method":"사진측량"},"geometry":{"type":"Polygon","coordinates":[[[126.99831,37.30056],[126.9984,37.30056],[126.99847,37.30056],[126.99847,37.30054],[126.99843,37.30054],[126.99839,37.30056],[126.99831,37.30055],[126.99831,37.30055],[126.99831,37.30055],[126.99831,37.30055],[126.9983,37.30055],[126.9983,37.30055],[126.9983,37.30055],[126.9983,37.30055],[126.9983,37.30057],[126.9983,37.30062],[126.9983,37.30063],[126.9983,37.30064],[126.9983,37.30065],[126.99828,37.30066],[126.99828,37.30067],[126.99828,37.30068],[126.99828,37.30069],[126.99828,37.3007],[126.99829,37.30074],[126.9983,37.30076],[126.99831,37.30081],[126.99831,37.30082],[126.99831,37.30082],[126.99831,37.30084],[126.99831,37.30085],[126.9983,37.30086],[126.9983,37.30088],[126.9983,37.30089],[126.99831,37.3009],[126.99831,37.30091],[126.99833,37.30094],[126.99833,37.30094],[126.99834,37.30094],[126.99834,37.30093],[126.99832,37.3009],[126.99831,37.30089],[126.99831,37.30089],[126.99831,37.30087],[126.99832,37.30086],[126.99832,37.30083],[126.99832,37.30081],[126.99832,37.30081],[126.99831,37.30079],[126.9983,37.30076],[126.99829,37.30072],[126.99828,37.30069],[126.99828,37.30068],[126.99829,37.30068],[126.99829,37.30067],[126.9983,37.30065],[126.99831,37.30064],[126.99831,37.30064],[126.99831,37.30063],[126.99831,37.30059],[126.99831,37.30057],[126.99831,37.30056],[126.99831,37.30056],[126.99831,37.30056]]]}},{"type":"Feature","id":"TN_RIVER_BT:WTR02000000003X3L","properties":{"NF_ID":"WTR02000000003X3L","admin_code":"41110","source_layer":"TN_RIVER_BT","semantic":"channel","river_class":"등급미확인","survey_method":"사진측량"},"geometry":{"type":"Polygon","coordinates":[[[126.99616,37.31239],[126.99615,37.31239],[126.99615,37.3124],[126.99615,37.31241],[126.99616,37.31251],[126.99616,37.31252],[126.99618,37.31254],[126.99621,37.31257],[126.99622,37.31258],[126.99626,37.31264],[126.99628,37.31267],[126.99629,37.31268],[126.99639,37.31275],[126.9964,37.31276],[126.99641,37.31277],[126.99641,37.31278],[126.99639,37.31285],[126.99639,37.31286],[126.99639,37.31287],[126.99641,37.31292],[126.99644,37.31301],[126.99646,37.31302],[126.99651,37.31308],[126.99657,37.31315],[126.99659,37.31317],[126.9966,37.31318],[126.9966,37.31318],[126.9966,37.31318],[126.9966,37.31318],[126.9966,37.31318],[126.99658,37.31315],[126.99652,37.31307],[126.99647,37.31302],[126.99645,37.313],[126.99642,37.31292],[126.9964,37.31287],[126.9964,37.31286],[126.9964,37.31285],[126.99642,37.31278],[126.99642,37.31277],[126.99641,37.31275],[126.9964,37.31275],[126.9963,37.31267],[126.99629,37.31266],[126.99627,37.31264],[126.99623,37.31257],[126.99622,37.31256],[126.99619,37.31254],[126.99617,37.31252],[126.99617,37.31251],[126.99616,37.31241],[126.99616,37.31241],[126.99616,37.31239]]]}},{"type":"Feature","id":"TN_RIVER_BT:WTR02000000003X4M","properties":{"NF_ID":"WTR02000000003X4M","admin_code":"41110","source_layer":"TN_RIVER_BT","semantic":"channel","river_class":"소하천","river_class_source":"중심선 공간조인","survey_method":"사진측량"},"geometry":{"type":"Polygon","coordinates":[[[126.99975,37.31254],[126.999,37.31232],[126.99971,37.31252],[126.99998,37.3131],[126.99979,37.31333],[127.0,37.3131],[126.99975,37.31254]]]}},{"type":"Feature","id":"TN_RIVER_BT:WTR02000000003X9R","properties":{"NF_ID":"WTR02000000003X9R","admin_code":"41110","source_layer":"TN_RIVER_BT","semantic":"channel","river_class":"지방하천","river_class_source":"중심선 공간조인","river_name":"서호천","river_code":"1120700","survey_method":"사진측량"},"geometry":{"type":"Polygon","coordinates":[[[126.98695,37.3177],[126.98215,37.31189],[126.9817,37.31063],[126.98246,37.30447],[126.98485,37.30136],[126.98496,37.2988],[126.98532,37.2983],[126.98549,37.29841],[126.98542,37.29815],[126.98804,37.2941],[126.98893,37.29217],[126.9942,37.29425],[126.99661,37.29681],[126.99678,37.29671],[126.99428,37.29421],[126.98848,37.29192],[126.98773,37.28986],[126.98419,37.28746],[126.98395,37.28443],[126.98454,37.28346],[126.98676,37.28276],[126.98731,37.28235],[126.98738,37.2818],[126.98691,37.28079],[126.98732,37.2801],[126.98708,37.27976],[126.98665,37.28052],[126.98716,37.2817],[126.9871,37.28226],[126.98673,37.28262],[126.98523,37.28289],[126.98427,37.28346],[126.98359,37.28429],[126.98358,37.2862],[126.98419,37.28771],[126.98746,37.29012],[126.98847,37.29283],[126.98555,37.29784],[126.98512,37.29822],[126.98482,37.29911],[126.98488,37.30086],[126.98229,37.30438],[126.9824,37.3051],[126.98157,37.31044],[126.98217,37.31201],[126.9817,37.31385],[126.98232,37.31524],[126.98207,37.3158],[126.98239,37.31528],[126.98178,37.31386],[126.98224,37.31212],[126.98631,37.31678],[126.98719,37.31838],[126.98695,37.3177]],[[126.98175,37.30958],[126.98176,37.30958],[126.98177,37.30959],[126.98177,37.30959],[126.98178,37.30961],[126.98178,37.30965],[126.98178,37.30968],[126.98177,37.30972],[126.98175,37.30978],[126.98173,37.30979],[126.98172,37.3098],[126.98171,37.3098],[126.9817,37.30979],[126.98169,37.30977],[126.98169,37.30974],[126.98169,37.30973],[126.98169,37.3097],[126.98169,37.30967],[126.98169,37.30964],[126.9817,37.30962],[126.98171,37.3096],[126.98172,37.30959],[126.98173,37.30958],[126.98175,37.30958]],[[126.98826,37.2919],[126.98827,37.2919],[126.98827,37.2919],[126.98828,37.2919],[126.98828,37.29191],[126.9883,37.29192],[126.9883,37.29193],[126.98831,37.29195],[126.98833,37.29198],[126.98834,37.29199],[126.98829,37.29199],[126.98829,37.29199],[126.98828,37.29198],[126.98826,37.29194],[126.98826,37.29192],[126.98826,37.29192],[126.98826,37.29191],[126.98826,37.2919],[126.98826,37.2919]],[[126.98824,37.29181],[126.98824,37.2918],[126.98824,37.29179],[126.98825,37.29179],[126.98825,37.29179],[126.98825,37.29179],[126.98826,37.29179],[126.98828,37.29179],[126.98828,37.29179],[126.98829,37.29179],[126.98829,37.29179],[126.98829,37.2918],[126.98829,37.29181],[126.98829,37.29182],[126.98829,37.29182],[126.98828,37.29183],[126.98827,37.29183],[126.98827,37.29183],[126.98826,37.29183],[126.98826,37.29183],[126.98825,37.29183],[126.98825,37.29183],[126.98824,37.29182],[126.98824,37.29182],[126.98824,37.29181]],[[126.98823,37.29181],[126.98822,37.29181],[126.98822,37.29181],[126.98821,37.29181],[126.98821,37.2918],[126.98821,37.2918],[126.9882,37.2918],[126.9882,37.29179],[126.9882,37.29178],[126.9882,37.29178],[126.9882,37.29178],[126.9882,37.29177],[126.98821,37.29176],[126.98821,37.29176],[126.98821,37.29176],[126.98821,37.29176],[126.98822,37.29176],[126.98822,37.29176],[126.98822,37.29177],[126.98822,37.29177],[126.98823,37.29177],[126.98823,37.29178],[126.98823,37.29178],[126.98824,37.29179],[126.98824,37.29179],[126.98824,37.2918],[126.98824,37.2918],[126.98823,37.2918],[126.98823,37.29181]]]}},{"type":"Feature","id":"TN_RIVER_BT:WTR02000000003XCU","properties":{"NF_ID":"WTR02000000003XCU","admin_code":"41110","source_layer":"TN_RIVER_BT","semantic":"channel","river_class":"소하천","river_class_source":"중심선 공간조인","survey_method":"사진측량"},"geometry":{"type":"Polygon","coordinates":[[[126.9803,37.31741],[126.98105,37.31744],[126.98148,37.31724],[126.98176,37.31607],[126.98136,37.31724],[126.9802,37.31735],[126.97817,37.31882],[126.9769,37.3194],[126.97825,37.31883],[126.9803,37.31741]]]}},{"type":"Feature","id":"TN_RIVER_BT:WTR02000000003XDV","properties":{"NF_ID":"WTR02000000003XDV","admin_code":"41110","source_layer":"TN_RIVER_BT","semantic":"channel","river_class":"등급미확인","survey_method":"사진측량"},"geometry":{"type":"Polygon","coordinates":[[[126.98684,37.31998],[126.98684,37.31998],[126.98683,37.31998],[126.98682,37.31998],[126.98686,37.31999],[126.98688,37.32],[126.98689,37.32],[126.98708,37.32008],[126.98714,37.32011],[126.98714,37.3201],[126.98715,37.3201],[126.98708,37.32007],[126.98691,37.32],[126.9869,37.32],[126.98687,37.31999],[126.98684,37.31998]]]}},{"type":"Feature","id":"TN_RIVER_BT:WTR02000000003XFX","properties":{"NF_ID":"WTR02000000003XFX","admin_code":"41110","source_layer":"TN_RIVER_BT","semantic":"channel","river_class":"소하천","river_class_source":"중심선 공간조인","survey_method":"사진측량"},"geometry":{"type":"Polygon","coordinates":[[[126.97295,37.32075],[126.97331,37.32082],[126.9738,37.32055],[126.97448,37.32068],[126.9738,37.32054],[126.97331,37.3208],[126.97277,37.32074],[126.97259,37.32092],[126.97295,37.32075]]]}},{"type":"Feature","id":"TN_RIVER_BT:WTR02000000003XHZ","properties":{"NF_ID":"WTR02000000003XHZ","admin_code":"41110","source_layer":"TN_RIVER_BT","semantic":"channel","river_class":"소하천","river_class_source":"중심선 공간조인","survey_method":"사진측량"},"geometry":{"type":"Polygon","coordinates":[[[126.97663,37.32092],[126.97618,37.32299],[126.97694,37.32357],[126.97624,37.32299],[126.97663,37.32092]]]}},{"type":"Feature","id":"TN_RIVER_BT:WTR02000000003XK2","properties":{"NF_ID":"WTR02000000003XK2","admin_code":"41110","source_layer":"TN_RIVER_BT","semantic":"channel","river_class":"지방하천","river_class_source":"중심선 공간조인","river_name":"서호천","river_code":"1120700","survey_method":"사진측량"},"geometry":{"type":"Polygon","coordinates":[[[126.99471,37.32562],[126.99527,37.32557],[126.9945,37.32545],[126.99342,37.32381],[126.99192,37.32329],[126.99131,37.32339],[126.9883,37.32165],[126.98812,37.32022],[126.98818,37.32157],[126.98892,37.322],[126.98812,37.32455],[126.9877,37.325],[126.98814,37.32456],[126.98893,37.32202],[126.99055,37.32316],[126.99132,37.3234],[126.99192,37.3233],[126.99278,37.32378],[126.99331,37.32383],[126.99459,37.32572],[126.99547,37.32618],[126.99592,37.32674],[126.99585,37.32699],[126.99596,37.32675],[126.99471,37.32562]]]}},{"type":"Feature","id":"TN_RIVER_BT:WTR0200000000219U","properties":{"NF_ID":"WTR0200000000219U","admin_code":"41110","source_layer":"TN_RIVER_BT","semantic":"channel","river_class":"소하천","river_class_source":"중심선 공간조인","survey_method":"사진측량"},"geometry":{"type":"Polygon","coordinates":[[[127.0253,37.23687],[127.02554,37.23821],[127.02692,37.24092],[127.02716,37.24393],[127.0285,37.24719],[127.02719,37.24392],[127.02693,37.2408],[127.02555,37.23819],[127.0253,37.23687]]]}},{"type":"Feature","id":"TN_RIVER_BT:WTR02000000002F65","properties":{"NF_ID":"WTR02000000002F65","admin_code":"41110","source_layer":"TN_RIVER_BT","semantic":"channel","river_class":"소하천","river_class_source":"중심선 공간조인","survey_method":"사진측량"},"geometry":{"type":"Polygon","coordinates":[[[127.00012,37.26307],[127.0,37.26298],[127.0,37.26308],[127.00006,37.26312],[127.00012,37.26307]]]}},{"type":"Feature","id":"TN_RIVER_BT:WTR02000000003QR2","properties":{"NF_ID":"WTR02000000003QR2","admin_code":"41110","source_layer":"TN_RIVER_BT","semantic":"channel","river_class":"소하천","river_class_source":"중심선 공간조인","survey_method":"사진측량"},"geometry":{"type":"Polygon","coordinates":[[[126.97081,37.23243],[126.97079,37.23242],[126.97078,37.23243],[126.97079,37.23244],[126.9708,37.23245],[126.97082,37.23247],[126.97084,37.23255],[126.97085,37.23267],[126.97086,37.23271],[126.97091,37.23285],[126.971,37.23298],[126.97109,37.23314],[126.97117,37.23327],[126.97121,37.23337],[126.97123,37.23341],[126.97128,37.23354],[126.97131,37.23362],[126.97132,37.23366],[126.97134,37.23369],[126.97136,37.23374],[126.97144,37.23382],[126.9715,37.23393],[126.97152,37.23396],[126.97152,37.23398],[126.97151,37.234],[126.9715,37.23402],[126.9715,37.23404],[126.97151,37.23405],[126.97152,37.23406],[126.97155,37.23408],[126.97157,37.23409],[126.97158,37.23411],[126.97159,37.23413],[126.9716,37.23416],[126.97161,37.23416],[126.97161,37.23417],[126.97164,37.23416],[126.97164,37.23415],[126.97163,37.23413],[126.97161,37.2341],[126.97161,37.23408],[126.97161,37.23406],[126.97161,37.23404],[126.9716,37.23401],[126.97158,37.23399],[126.97157,37.23398],[126.97154,37.23395],[126.97153,37.23394],[126.97151,37.23392],[126.97144,37.2338],[126.97137,37.2337],[126.97131,37.23354],[126.97121,37.2333],[126.97117,37.23324],[126.97108,37.23308],[126.971,37.23294],[126.97092,37.23284],[126.97091,37.2328],[126.97088,37.23272],[126.97088,37.23267],[126.97087,37.23258],[126.97085,37.23247],[126.97084,37.23245],[126.97081,37.23243]]]}},{"type":"Feature","id":"TN_RIVER_BT:WTR02000000003QV6","properties":{"NF_ID":"WTR02000000003QV6","admin_code":"41110","source_layer":"TN_RIVER_BT","semantic":"channel","river_class":"소하천","river_class_source":"중심선 공간조인","survey_method":"사진측량"},"geometry":{"type":"Polygon","coordinates":[[[126.97093,37.23475],[126.9709,37.23474],[126.97095,37.23479],[126.97098,37.23482],[126.971,37.23485],[126.97101,37.23487],[126.97101,37.23489],[126.97101,37.23491],[126.97101,37.23492],[126.97102,37.23493],[126.97102,37.23494],[126.97102,37.23497],[126.97103,37.235],[126.97103,37.235],[126.97103,37.23501],[126.97103,37.23502],[126.97103,37.23502],[126.97103,37.23503],[126.97104,37.23505],[126.97105,37.23505],[126.97106,37.23507],[126.97107,37.23508],[126.97107,37.23508],[126.9711,37.23511],[126.97111,37.23513],[126.97114,37.23515],[126.97114,37.23516],[126.97115,37.23516],[126.97116,37.23517],[126.97116,37.23517],[126.97116,37.23518],[126.97117,37.23519],[126.97118,37.2352],[126.97118,37.23522],[126.97119,37.23522],[126.97119,37.23523],[126.9712,37.23526],[126.97121,37.23526],[126.97121,37.23527],[126.97122,37.23528],[126.97123,37.23529],[126.97123,37.23529],[126.97124,37.2353],[126.97125,37.23531],[126.97126,37.23531],[126.97126,37.23532],[126.97127,37.23532],[126.97128,37.23532],[126.97129,37.23533],[126.97131,37.23534],[126.97132,37.23534],[126.97132,37.23534],[126.97132,37.23534],[126.97132,37.23534],[126.97132,37.23535],[126.97132,37.23535],[126.97132,37.23535],[126.97132,37.23536],[126.97131,37.23536],[126.97131,37.23537],[126.97131,37.23537],[126.97131,37.23538],[126.97131,37.23538],[126.97132,37.2354],[126.97132,37.2354],[126.97133,37.23541],[126.97135,37.23545],[126.97135,37.23545],[126.97136,37.23546],[126.97136,37.23547],[126.9714,37.23549],[126.9714,37.23549],[126.9714,37.2355],[126.97141,37.2355],[126.97142,37.2355],[126.97143,37.2355],[126.97145,37.23551],[126.97145,37.23552],[126.97146,37.23552],[126.97147,37.23553],[126.97148,37.23553],[126.97151,37.23556],[126.97151,37.23556],[126.97152,37.23557],[126.97153,37.23557],[126.97154,37.23558],[126.97154,37.23559],[126.97158,37.23563],[126.9716,37.23565],[126.97165,37.23569],[126.97167,37.23573],[126.97169,37.23577],[126.9717,37.23578],[126.97171,37.23579],[126.97174,37.23582],[126.97177,37.23584],[126.9718,37.23587],[126.97184,37.23589],[126.97186,37.23591],[126.97189,37.23593],[126.97192,37.23596],[126.97199,37.23604],[126.97203,37.23615],[126.97205,37.23618],[126.97206,37.23619],[126.97206,37.2362],[126.97207,37.23621],[126.97207,37.23622],[126.97206,37.23624],[126.97206,37.23625],[126.97205,37.23626],[126.97206,37.23627],[126.97207,37.23628],[126.97207,37.23628],[126.97208,37.23629],[126.97208,37.2363],[126.97208,37.23631],[126.97209,37.23631],[126.97209,37.23632],[126.9721,37.23632],[126.9721,37.23632],[126.9721,37.23631],[126.97209,37.23631],[126.97209,37.2363],[126.97209,37.23629],[126.97209,37.23629],[126.97208,37.23628],[126.97208,37.23628],[126.97208,37.23627],[126.97207,37.23627],[126.97207,37.23626],[126.97206,37.23626],[126.97206,37.23625],[126.97207,37.23625],[126.97207,37.23623],[126.97208,37.23621],[126.97208,37.2362],[126.97208,37.2362],[126.97208,37.23619],[126.97207,37.23618],[126.97206,37.23617],[126.97206,37.23616],[126.972,37.23604],[126.97199,37.23603],[126.97199,37.23602],[126.97199,37.23601],[126.97198,37.23601],[126.97197,37.236],[126.97196,37.23599],[126.97195,37.23598],[126.97194,37.23597],[126.97192,37.23594],[126.97191,37.23594],[126.9719,37.23592],[126.9719,37.23592],[126.97188,37.2359],[126.97188,37.2359],[126.97186,37.23589],[126.97185,37.23588],[126.97182,37.23586],[126.9718,37.23585],[126.97179,37.23585],[126.97178,37.23584],[126.97178,37.23584],[126.97177,37.23583],[126.97176,37.23582],[126.97176,37.23582],[126.97175,37.23581],[126.97174,37.23579],[126.97173,37.23579],[126.97172,37.23578],[126.97172,37.23578],[126.97171,37.23578],[126.97171,37.23578],[126.9717,37.23576],[126.9717,37.23576],[126.97168,37.23572],[126.97167,37.23571],[126.97167,37.23569],[126.97167,37.23569],[126.97166,37.23568],[126.97166,37.23568],[126.97166,37.23568],[126.97163,37.23566],[126.97162,37.23566],[126.9716,37.23564],[126.97159,37.23563],[126.97158,37.23562],[126.97158,37.23561],[126.97157,37.23561],[126.97156,37.23559],[126.97154,37.23557],[126.97153,37.23556],[126.97152,37.23555],[126.97152,37.23554],[126.97151,37.23553],[126.9715,37.23553],[126.97149,37.23552],[126.97148,37.23551],[126.97147,37.2355],[126.97146,37.2355],[126.97143,37.23548],[126.97142,37.23548],[126.97142,37.23548],[126.97141,37.23548],[126.9714,37.23547],[126.97139,37.23547],[126.97139,37.23546],[126.97137,37.23544],[126.97136,37.23543],[126.97135,37.23542],[126.97135,37.23541],[126.97134,37.2354],[126.97134,37.23539],[126.97133,37.23538],[126.97133,37.23538],[126.97133,37.23538],[126.97133,37.23537],[126.97133,37.23537],[126.97134,37.23536],[126.97134,37.23536],[126.97134,37.23535],[126.97134,37.23535],[126.97134,37.23534],[126.97134,37.23534],[126.97134,37.23534],[126.97134,37.23533],[126.97134,37.23533],[126.97133,37.23533],[126.97131,37.23532],[126.97129,37.23531],[126.97129,37.23531],[126.97126,37.2353],[126.97126,37.2353],[126.97125,37.23529],[126.97124,37.23529],[126.97124,37.23528],[126.97123,37.23528],[126.97123,37.23527],[126.97122,37.23526],[126.97121,37.23524],[126.97121,37.23524],[126.9712,37.23523],[126.9712,37.23522],[126.97119,37.23518],[126.97118,37.23518],[126.97118,37.23517],[126.97118,37.23517],[126.97116,37.23515],[126.97116,37.23515],[126.97115,37.23514],[126.97114,37.23514],[126.97113,37.23513],[126.97112,37.23512],[126.97112,37.23512],[126.97111,37.23511],[126.9711,37.2351],[126.97109,37.23509],[126.97108,37.23508],[126.97108,37.23507],[126.97106,37.23505],[126.97106,37.23505],[126.97106,37.23504],[126.97105,37.23503],[126.97105,37.23503],[126.97105,37.23501],[126.97104,37.235],[126.97104,37.23499],[126.97104,37.23496],[126.97104,37.23495],[126.97104,37.23493],[126.97104,37.23493],[126.97104,37.23491],[126.97103,37.23491],[126.97103,37.23489],[126.97102,37.23485],[126.971,37.23482],[126.97097,37.23478],[126.97093,37.23475]]]}},{"type":"Feature","id":"TN_RIVER_BT:WTR02000000003QW7","properties":{"NF_ID":"WTR02000000003QW7","admin_code":"41110","source_layer":"TN_RIVER_BT","semantic":"channel","river_class":"등급미확인","survey_method":"사진측량"},"geometry":{"type":"Polygon","coordinates":[[[126.97276,37.23667],[126.97271,37.23663],[126.9727,37.23663],[126.97275,37.23667],[126.97301,37.23675],[126.97323,37.23678],[126.97325,37.23679],[126.97327,37.23679],[126.97328,37.2368],[126.9733,37.23681],[126.97332,37.23683],[126.97333,37.23685],[126.97334,37.23687],[126.97335,37.23687],[126.97335,37.23689],[126.97335,37.2369],[126.97336,37.23692],[126.97337,37.23698],[126.97338,37.23699],[126.97339,37.237],[126.97339,37.237],[126.97339,37.23698],[126.97338,37.23695],[126.97336,37.2369],[126.97336,37.23689],[126.97336,37.23687],[126.97335,37.23686],[126.97335,37.23685],[126.97333,37.23682],[126.9733,37.2368],[126.97328,37.23679],[126.97327,37.23678],[126.97325,37.23678],[126.97311,37.23676],[126.97301,37.23674],[126.97276,37.23667]]]}},{"type":"Feature","id":"TN_RIVER_BT:WTR02000000003R1D","properties":{"NF_ID":"WTR02000000003R1D","admin_code":"41110","source_layer":"TN_RIVER_BT","semantic":"channel","river_class":"소하천","river_class_source":"중심선 공간조인","survey_method":"사진측량"},"geometry":{"type":"Polygon","coordinates":[[[126.96663,37.23914],[126.96468,37.23836],[126.96363,37.2382],[126.96568,37.23871],[126.96645,37.23909],[126.96615,37.23912],[126.96759,37.23925],[126.96663,37.23914]]]}},{"type":"Feature","id":"TN_RIVER_BT:WTR02000000003R9L","properties":{"NF_ID":"WTR02000000003R9L","admin_code":"41110","source_layer":"TN_RIVER_BT","semantic":"channel","river_class":"소하천","river_class_source":"중심선 공간조인","survey_method":"사진측량"},"geometry":{"type":"Polygon","coordinates":[[[126.96169,37.24784],[126.96198,37.24773],[126.9616,37.24779],[126.96123,37.2475],[126.96145,37.24779],[126.96061,37.2476],[126.96169,37.24784]]]}},{"type":"Feature","id":"TN_RIVER_BT:WTR02000000003RBN","properties":{"NF_ID":"WTR02000000003RBN","admin_code":"41110","source_layer":"TN_RIVER_BT","semantic":"channel","river_class":"소하천","river_class_source":"중심선 공간조인","survey_method":"사진측량"},"geometry":{"type":"Polygon","coordinates":[[[126.96386,37.24874],[126.96148,37.24895],[126.96369,37.24873],[126.96539,37.24906],[126.96386,37.24874]]]}},{"type":"Feature","id":"TN_RIVER_BT:WTR02000000003RDP","properties":{"NF_ID":"WTR02000000003RDP","admin_code":"41110","source_layer":"TN_RIVER_BT","semantic":"channel","river_class":"소하천","river_class_source":"중심선 공간조인","survey_method":"사진측량"},"geometry":{"type":"Polygon","coordinates":[[[126.95841,37.24909],[126.95851,37.24907],[126.95854,37.24906],[126.95866,37.249],[126.95869,37.24898],[126.95878,37.24894],[126.95899,37.24888],[126.95903,37.24887],[126.95916,37.24885],[126.95924,37.24883],[126.95935,37.2488],[126.95938,37.24879],[126.95938,37.24878],[126.95949,37.24876],[126.95951,37.24876],[126.95953,37.24879],[126.95954,37.2488],[126.95955,37.24881],[126.95966,37.24876],[126.95969,37.24876],[126.9597,37.24876],[126.95977,37.24876],[126.9598,37.24876],[126.9599,37.24873],[126.95994,37.24871],[126.9601,37.24862],[126.96023,37.24854],[126.96041,37.24841],[126.96052,37.24834],[126.96055,37.24833],[126.96058,37.24832],[126.96061,37.24832],[126.96069,37.24831],[126.96077,37.2483],[126.96085,37.2483],[126.96098,37.24825],[126.9611,37.24818],[126.96116,37.24817],[126.96119,37.24816],[126.96121,37.24815],[126.96123,37.24814],[126.96127,37.24813],[126.96132,37.24811],[126.96133,37.24811],[126.96134,37.24811],[126.96137,37.24815],[126.96137,37.24815],[126.96138,37.24815],[126.96138,37.24814],[126.96141,37.24811],[126.96142,37.24809],[126.96155,37.24803],[126.96176,37.24795],[126.96184,37.24795],[126.96188,37.24797],[126.96193,37.24799],[126.96197,37.24802],[126.96198,37.248],[126.96193,37.24797],[126.96186,37.24792],[126.96184,37.24792],[126.96175,37.24792],[126.96173,37.24793],[126.96158,37.24798],[126.96145,37.24804],[126.96134,37.24809],[126.96128,37.24811],[126.96127,37.24812],[126.96115,37.24814],[126.96112,37.24815],[126.96097,37.24823],[126.96085,37.24827],[126.96082,37.24828],[126.96079,37.24828],[126.96071,37.2483],[126.9607,37.2483],[126.96069,37.24831],[126.96067,37.24831],[126.96066,37.24831],[126.96056,37.24832],[126.96054,37.24832],[126.96044,37.24836],[126.96036,37.24842],[126.96024,37.24851],[126.96007,37.24863],[126.95988,37.24872],[126.95981,37.24874],[126.95979,37.24875],[126.95977,37.24875],[126.95974,37.24874],[126.95968,37.24874],[126.95966,37.24874],[126.95957,37.24878],[126.95956,37.24879],[126.95955,37.24878],[126.95953,37.24878],[126.95951,37.24875],[126.95949,37.24875],[126.95943,37.24876],[126.95934,37.24879],[126.9593,37.2488],[126.95908,37.24885],[126.95904,37.24886],[126.95889,37.2489],[126.95871,37.24895],[126.95869,37.24896],[126.95857,37.24902],[126.95849,37.24906],[126.95837,37.24907],[126.95833,37.24907],[126.9583,37.24906],[126.95829,37.24907],[126.95829,37.24907],[126.95829,37.24908],[126.9583,37.24912],[126.9583,37.24912],[126.95831,37.24912],[126.95831,37.24911],[126.95831,37.2491],[126.95833,37.24909],[126.95834,37.24909],[126.95836,37.24909],[126.95841,37.24909]]]}},{"type":"Feature","id":"TN_RIVER_BT:WTR02000000003RO0","properties":{"NF_ID":"WTR02000000003RO0","admin_code":"41110","source_layer":"TN_RIVER_BT","semantic":"channel","river_class":"국가하천","river_class_source":"중심선 공간조인","river_name":"황구지천","river_code":"1100690","survey_method":"사진측량"},"geometry":{"type":"Polygon","coordinates":[[[126.9703,37.24898],[126.96956,37.24792],[126.96946,37.24734],[126.97002,37.24437],[126.97122,37.24255],[126.97344,37.24014],[126.97324,37.23976],[126.97359,37.23996],[126.97401,37.23913],[126.98522,37.23431],[126.98766,37.23429],[126.98911,37.23391],[126.98938,37.23416],[126.98912,37.23513],[126.98919,37.2387],[126.98957,37.24015],[126.99074,37.24208],[126.99306,37.24419],[126.99343,37.24481],[126.99236,37.24878],[126.99254,37.24987],[126.99282,37.25],[126.99255,37.24897],[126.9937,37.24514],[126.99334,37.24426],[126.9908,37.24175],[126.98983,37.24034],[126.98937,37.23843],[126.98945,37.23465],[126.99015,37.23353],[126.99352,37.23092],[126.99976,37.23029],[126.99984,37.23043],[127.0,37.22993],[126.99321,37.23057],[126.99181,37.2296],[126.99109,37.22848],[126.99044,37.22825],[126.99,37.22763],[126.98908,37.2274],[126.98905,37.22654],[126.98607,37.22587],[126.98496,37.22484],[126.98603,37.22593],[126.98894,37.22657],[126.98896,37.22742],[126.9899,37.22767],[126.99037,37.22828],[126.99108,37.22854],[126.99162,37.22953],[126.99304,37.23074],[126.99124,37.23231],[126.98836,37.23387],[126.98479,37.23416],[126.97928,37.23671],[126.97825,37.23517],[126.97921,37.23675],[126.9751,37.23857],[126.97454,37.23778],[126.97506,37.23859],[126.97392,37.23904],[126.97305,37.23974],[126.9697,37.2443],[126.96918,37.24595],[126.96909,37.24759],[126.97048,37.25],[126.97085,37.25],[126.9703,37.24898]],[[126.97653,37.23797],[126.97654,37.23797],[126.97655,37.23797],[126.97655,37.23797],[126.97655,37.23797],[126.97656,37.23798],[126.97656,37.23798],[126.97656,37.23798],[126.97657,37.23798],[126.97657,37.23799],[126.97657,37.23799],[126.97656,37.23799],[126.97656,37.238],[126.97652,37.23803],[126.9765,37.23805],[126.97649,37.23805],[126.97649,37.23806],[126.97646,37.23808],[126.97645,37.23808],[126.97643,37.2381],[126.97641,37.2381],[126.9764,37.23811],[126.97637,37.23812],[126.97636,37.23813],[126.97635,37.23813],[126.97634,37.23813],[126.97632,37.23814],[126.97631,37.23815],[126.9763,37.23816],[126.97629,37.23816],[126.97628,37.23816],[126.97626,37.23817],[126.97625,37.23817],[126.97623,37.23818],[126.97619,37.23819],[126.97614,37.2382],[126.97613,37.2382],[126.97613,37.2382],[126.97613,37.2382],[126.97612,37.2382],[126.97612,37.2382],[126.97612,37.2382],[126.97612,37.2382],[126.97612,37.23819],[126.97612,37.23819],[126.97612,37.23818],[126.97612,37.23818],[126.97612,37.23818],[126.97613,37.23817],[126.97613,37.23817],[126.97614,37.23816],[126.97615,37.23816],[126.97615,37.23815],[126.97617,37.23814],[126.97617,37.23814],[126.97618,37.23814],[126.97622,37.23811],[126.97625,37.2381],[126.97625,37.23809],[126.97628,37.23808],[126.97628,37.23808],[126.9763,37.23806],[126.97633,37.23805],[126.97638,37.23803],[126.97641,37.23801],[126.97642,37.23801],[126.97645,37.238],[126.97646,37.23799],[126.97647,37.23798],[126.97648,37.23798],[126.97648,37.23798],[126.97653,37.23797]]]}},{"type":"Feature","id":"TN_RIVER_BT:WTR02000000003VP5","properties":{"NF_ID":"WTR02000000003VP5","admin_code":"41110","source_layer":"TN_RIVER_BT","semantic":"channel","river_class":"소하천","river_class_source":"중심선 공간조인","survey_method":"사진측량"},"geometry":{"type":"Polygon","coordinates":[[[126.98851,37.26094],[126.98877,37.26057],[126.98847,37.26093],[126.98673,37.26078],[126.98851,37.26094]]]}},{"type":"Feature","id":"TN_RIVER_BT:WTR02000000003VQ6","properties":{"NF_ID":"WTR02000000003VQ6","admin_code":"41110","source_layer":"TN_RIVER_BT","semantic":"channel","river_class":"소하천","river_class_source":"중심선 공간조인","survey_method":"사진측량"},"geometry":{"type":"Polygon","coordinates":[[[126.94653,37.26209],[126.94906,37.26199],[126.94665,37.26205],[126.94468,37.26238],[126.94653,37.26209]]]}},{"type":"Feature","id":"TN_RIVER_BT:WTR02000000003W5M","properties":{"NF_ID":"WTR02000000003W5M","admin_code":"41110","source_layer":"TN_RIVER_BT","semantic":"channel","river_class":"지방하천","river_class_source":"중심선 공간조인","river_name":"서호천","river_code":"1120700","survey_method":"사진측량"},"geometry":{"type":"Polygon","coordinates":[[[126.98695,37.27482],[126.98716,37.27416],[126.98665,37.2731],[126.98667,37.27107],[126.98808,37.26915],[126.98906,37.26717],[126.98911,37.26403],[126.99035,37.26094],[126.99122,37.25986],[126.99156,37.25685],[126.99279,37.25617],[126.99343,37.25521],[126.99409,37.25475],[126.99599,37.25953],[126.99822,37.26179],[127.0,37.26308],[126.99837,37.26182],[126.99608,37.25953],[126.99442,37.25568],[126.99431,37.25478],[126.99472,37.25256],[126.99412,37.25125],[126.99282,37.25],[126.99438,37.25225],[126.99442,37.25396],[126.99273,37.25604],[126.9913,37.25675],[126.99085,37.25962],[126.98999,37.26091],[126.9894,37.26077],[126.98998,37.26093],[126.98967,37.26168],[126.98983,37.26209],[126.98896,37.26399],[126.98899,37.26707],[126.98797,37.26912],[126.98654,37.2711],[126.98641,37.27309],[126.9868,37.27447],[126.98633,37.27478],[126.98695,37.27482]],[[126.98995,37.26104],[126.99032,37.26075],[126.98983,37.2619],[126.98995,37.26104]]]}},{"type":"Feature","id":"TN_RIVER_BT:WTR02000000003W8P","properties":{"NF_ID":"WTR02000000003W8P","admin_code":"41110","source_layer":"TN_RIVER_BT","semantic":"channel","river_class":"소하천","river_class_source":"중심선 공간조인","survey_method":"사진측량"},"geometry":{"type":"Polygon","coordinates":[[[126.98923,37.27547],[126.98908,37.2754],[126.98906,37.27541],[126.98907,37.27542],[126.98922,37.27549],[126.98938,37.27555],[126.98957,37.27563],[126.98973,37.2757],[126.98996,37.2758],[126.99019,37.2759],[126.99049,37.27602],[126.99072,37.27613],[126.99092,37.27621],[126.99114,37.2763],[126.9914,37.27641],[126.9917,37.27654],[126.99201,37.27667],[126.99221,37.27676],[126.99246,37.27687],[126.99255,37.27691],[126.99301,37.27713],[126.99303,37.27711],[126.99259,37.27689],[126.99247,37.27684],[126.99188,37.27659],[126.99145,37.27641],[126.99118,37.27629],[126.99092,37.27618],[126.99063,37.27606],[126.99011,37.27584],[126.98986,37.27573],[126.98962,37.27563],[126.98942,37.27554],[126.98935,37.27551],[126.98923,37.27547]]]}},{"type":"Feature","id":"TN_RIVER_BT:WTR02000000003W9Q","properties":{"NF_ID":"WTR02000000003W9Q","admin_code":"41110","source_layer":"TN_RIVER_BT","semantic":"channel","river_class":"소하천","river_class_source":"중심선 공간조인","survey_method":"사진측량"},"geometry":{"type":"Polygon","coordinates":[[[126.99321,37.27718],[126.99336,37.27692],[126.99347,37.27672],[126.99356,37.27657],[126.99373,37.27627],[126.99388,37.276],[126.99388,37.276],[126.99375,37.27622],[126.99361,37.27646],[126.99349,37.27667],[126.9932,37.27716],[126.9932,37.27716],[126.99319,37.27717],[126.99321,37.27718]]]}},{"type":"Feature","id":"TN_RIVER_BT:WTR02000000003WCT","properties":{"NF_ID":"WTR02000000003WCT","admin_code":"41110","source_layer":"TN_RIVER_BT","semantic":"channel","river_class":"소하천","river_class_source":"중심선 공간조인","survey_method":"사진측량"},"geometry":{"type":"Polygon","coordinates":[[[126.94222,37.2796],[126.94138,37.27954],[126.94126,37.27901],[126.9413,37.27966],[126.94216,37.27961],[126.94225,37.27981],[126.94222,37.2796]]]}},{"type":"Feature","id":"TN_RIVER_BT:WTR02000000003WJ0","properties":{"NF_ID":"WTR02000000003WJ0","admin_code":"41110","source_layer":"TN_RIVER_BT","semantic":"channel","river_class":"소하천","river_class_source":"중심선 공간조인","survey_method":"사진측량"},"geometry":{"type":"Polygon","coordinates":[[[126.97193,37.28573],[126.97332,37.28519],[126.97303,37.28378],[126.97147,37.28197],[126.96934,37.28136],[126.97166,37.2822],[126.97298,37.2838],[126.9733,37.28508],[126.97183,37.28572],[126.97178,37.28625],[126.97193,37.28573]]]}},{"type":"Feature","id":"TN_RIVER_BT:WTR02000000003WO5","properties":{"NF_ID":"WTR02000000003WO5","admin_code":"41110","source_layer":"TN_RIVER_BT","semantic":"channel","river_class":"소하천","river_class_source":"중심선 공간조인","survey_method":"사진측량"},"geometry":{"type":"Polygon","coordinates":[[[126.95473,37.29198],[126.9561,37.29175],[126.95764,37.29197],[126.9561,37.29171],[126.95465,37.29197],[126.95341,37.29422],[126.95131,37.29515],[126.95343,37.29426],[126.95473,37.29198]]]}},{"type":"Feature","id":"TN_RIVER_BT:WTR02000000003WR8","properties":{"NF_ID":"WTR02000000003WR8","admin_code":"41110","source_layer":"TN_RIVER_BT","semantic":"channel","river_class":"소하천","river_class_source":"중심선 공간조인","survey_method":"사진측량"},"geometry":{"type":"Polygon","coordinates":[[[126.95214,37.29519],[126.95167,37.29514],[126.9523,37.29533],[126.95589,37.29841],[126.95214,37.29519]]]}},{"type":"Feature","id":"TN_RIVER_BT:WTR02000000003WS9","properties":{"NF_ID":"WTR02000000003WS9","admin_code":"41110","source_layer":"TN_RIVER_BT","semantic":"channel","river_class":"소하천","river_class_source":"중심선 공간조인","survey_method":"사진측량"},"geometry":{"type":"Polygon","coordinates":[[[126.95632,37.29882],[126.95612,37.29864],[126.95611,37.29865],[126.95628,37.29881],[126.95646,37.29898],[126.95667,37.29916],[126.95687,37.29933],[126.95696,37.29938],[126.95724,37.29963],[126.95726,37.29964],[126.95726,37.29963],[126.95726,37.29963],[126.95697,37.29937],[126.95688,37.29933],[126.95665,37.29913],[126.95632,37.29882]]]}},{"type":"Feature","id":"TN_RIVER_BT:WTR02000000003WUB","properties":{"NF_ID":"WTR02000000003WUB","admin_code":"41110","source_layer":"TN_RIVER_BT","semantic":"channel","river_class":"소하천","river_class_source":"중심선 공간조인","survey_method":"사진측량"},"geometry":{"type":"Polygon","coordinates":[[[126.95102,37.29955],[126.95101,37.29955],[126.95101,37.29963],[126.95101,37.29965],[126.951,37.29971],[126.951,37.29975],[126.95099,37.29988],[126.95099,37.29996],[126.95099,37.3],[126.95097,37.30026],[126.95097,37.3004],[126.95098,37.3004],[126.95098,37.30026],[126.95099,37.3],[126.951,37.29996],[126.951,37.29988],[126.95101,37.29975],[126.95101,37.29971],[126.95101,37.29965],[126.95101,37.29963],[126.95102,37.29955]]]}},{"type":"Feature","id":"TN_RIVER_BT:WTR02000000003WVC","properties":{"NF_ID":"WTR02000000003WVC","admin_code":"41110","source_layer":"TN_RIVER_BT","semantic":"channel","river_class":"소하천","river_class_source":"중심선 공간조인","survey_method":"사진측량"},"geometry":{"type":"Polygon","coordinates":[[[126.951,37.30053],[126.95099,37.30046],[126.95097,37.30046],[126.95097,37.30053],[126.951,37.30053]]]}},{"type":"Feature","id":"TN_RIVER_BT:WTR02000000003WXE","properties":{"NF_ID":"WTR02000000003WXE","admin_code":"41110","source_layer":"TN_RIVER_BT","semantic":"channel","river_class":"지방하천","river_class_source":"중심선 공간조인","river_name":"황구지천","river_code":"1120690","survey_method":"사진측량"},"geometry":{"type":"Polygon","coordinates":[[[126.94374,37.30151],[126.94392,37.3008],[126.94428,37.30067],[126.94417,37.30041],[126.94447,37.30035],[126.94484,37.30065],[126.94467,37.3003],[126.9471,37.29862],[126.94756,37.29657],[126.94938,37.29494],[126.94954,37.29426],[126.95122,37.29483],[126.94946,37.294],[126.94917,37.29333],[126.94936,37.29232],[126.94877,37.29133],[126.94957,37.29015],[126.95023,37.28775],[126.95294,37.28535],[126.95355,37.28274],[126.95399,37.28208],[126.95476,37.28185],[126.95643,37.28183],[126.95863,37.28041],[126.96005,37.28],[126.96085,37.27955],[126.96367,37.27707],[126.96385,37.27723],[126.96208,37.27976],[126.96191,37.28046],[126.96209,37.2798],[126.96387,37.27723],[126.96633,37.27978],[126.96677,37.28089],[126.96825,37.2811],[126.9667,37.2807],[126.96642,37.27978],[126.96379,37.27694],[126.96376,37.27614],[126.96266,37.27451],[126.96172,37.27391],[126.96164,37.27351],[126.96209,37.27289],[126.96238,37.27273],[126.96243,37.27292],[126.96252,37.27264],[126.96463,37.27155],[126.96902,37.26632],[126.97158,37.26671],[126.96905,37.26626],[126.97046,37.264],[126.97084,37.26278],[126.97083,37.26156],[126.97052,37.26095],[126.96914,37.26057],[126.96815,37.26004],[126.96716,37.25821],[126.96714,37.2566],[126.96785,37.25516],[126.9689,37.25455],[126.96946,37.25327],[126.9715,37.2522],[126.97085,37.25],[126.97048,37.25],[126.97112,37.25136],[126.97117,37.25204],[126.96928,37.25315],[126.96849,37.25431],[126.96719,37.25546],[126.96614,37.2583],[126.96627,37.25979],[126.96574,37.2603],[126.96628,37.26234],[126.9659,37.2628],[126.96481,37.26308],[126.96444,37.26401],[126.96301,37.26443],[126.96184,37.2645],[126.95969,37.26366],[126.95552,37.26397],[126.95164,37.26296],[126.95016,37.26218],[126.95165,37.26299],[126.95452,37.26374],[126.95443,37.26415],[126.95459,37.26376],[126.95573,37.264],[126.95967,37.2637],[126.96159,37.26452],[126.96304,37.26445],[126.96447,37.26402],[126.9649,37.26306],[126.96622,37.26261],[126.96632,37.26221],[126.96576,37.26032],[126.96629,37.25984],[126.96618,37.25833],[126.96676,37.25755],[126.96705,37.2591],[126.96777,37.26011],[126.9683,37.2605],[126.97033,37.26124],[126.97055,37.26293],[126.9683,37.26704],[126.96627,37.26962],[126.96516,37.27058],[126.96476,37.27134],[126.96394,37.27195],[126.96209,37.27276],[126.96172,37.27271],[126.95857,37.27383],[126.9575,37.27352],[126.9572,37.2729],[126.95681,37.27267],[126.95554,37.27286],[126.95207,37.2722],[126.95053,37.2724],[126.94957,37.27206],[126.94623,37.27179],[126.94421,37.27119],[126.94292,37.27119],[126.94178,37.27045],[126.94001,37.2675],[126.93959,37.2674],[126.93846,37.26634],[126.93994,37.26755],[126.9418,37.27056],[126.94102,37.27075],[126.93895,37.27041],[126.93991,37.2707],[126.94189,37.27072],[126.94288,37.27123],[126.94446,37.27128],[126.94622,37.27184],[126.94817,37.2721],[126.94971,37.2721],[126.95048,37.27244],[126.95212,37.27225],[126.95556,37.27294],[126.95683,37.2727],[126.95751,37.27358],[126.95866,37.2739],[126.96044,37.27328],[126.95844,37.27607],[126.95751,37.27567],[126.95841,37.27612],[126.96039,37.27341],[126.9613,37.27306],[126.96166,37.27398],[126.96251,37.27452],[126.9637,37.27644],[126.96353,37.27709],[126.96087,37.27945],[126.95869,37.2803],[126.95623,37.28179],[126.95394,37.28198],[126.95336,37.28244],[126.95326,37.28299],[126.95229,37.28249],[126.94903,37.28247],[126.94873,37.28194],[126.94815,37.2817],[126.94699,37.28181],[126.94476,37.28162],[126.94364,37.28131],[126.94221,37.28157],[126.94131,37.28145],[126.9424,37.2816],[126.94371,37.28135],[126.9467,37.28186],[126.9482,37.28176],[126.94877,37.28204],[126.9491,37.28254],[126.95233,37.28253],[126.95275,37.28292],[126.95326,37.28303],[126.95286,37.28506],[126.95003,37.28782],[126.94955,37.28982],[126.94477,37.28941],[126.94568,37.28964],[126.94952,37.28986],[126.94863,37.29139],[126.94916,37.29226],[126.94905,37.29331],[126.94941,37.29453],[126.94824,37.29602],[126.94744,37.29655],[126.94696,37.29859],[126.94459,37.3004],[126.94441,37.30023],[126.94404,37.30045],[126.94368,37.30092],[126.94374,37.30151]],[[126.96366,37.27204],[126.96369,37.27203],[126.96373,37.27203],[126.96376,37.27203],[126.96378,37.27203],[126.9638,37.27203],[126.96381,37.27203],[126.9638,37.27204],[126.9638,37.27205],[126.96375,37.27207],[126.96372,37.27208],[126.96369,37.27209],[126.96352,37.27218],[126.96349,37.27219],[126.96346,37.27222],[126.96342,37.27224],[126.96339,37.27225],[126.96336,37.27225],[126.96332,37.27224],[126.96331,37.27222],[126.96331,37.27221],[126.96333,37.27219],[126.96334,37.27219],[126.96334,37.27217],[126.96334,37.27215],[126.96335,37.27215],[126.96337,37.27214],[126.9634,37.27212],[126.96344,37.27211],[126.96347,37.2721],[126.96349,37.27209],[126.96353,37.27207],[126.96358,37.27205],[126.96363,37.27204],[126.96366,37.27204]],[[126.96645,37.26935],[126.96646,37.26934],[126.96647,37.26931],[126.96647,37.26929],[126.9665,37.26923],[126.96653,37.2692],[126.96655,37.26917],[126.96655,37.26917],[126.96655,37.26918],[126.96656,37.26919],[126.96656,37.2692],[126.96657,37.26921],[126.96659,37.26922],[126.9666,37.26924],[126.9666,37.26925],[126.96658,37.26928],[126.96657,37.26929],[126.96656,37.26931],[126.96653,37.26934],[126.96651,37.2694],[126.96649,37.26941],[126.96647,37.26943],[126.96646,37.26943],[126.96645,37.26943],[126.96645,37.26942],[126.96645,37.2694],[126.96645,37.26938],[126.96645,37.26937],[126.96645,37.26935]],[[126.96758,37.25941],[126.96759,37.2594],[126.96761,37.2594],[126.96766,37.25945],[126.96772,37.25954],[126.96776,37.25959],[126.96776,37.25961],[126.96775,37.25962],[126.96773,37.25961],[126.9677,37.25961],[126.96768,37.2596],[126.96766,37.25958],[126.96757,37.25944],[126.96757,37.25942],[126.96758,37.25941]]]}},{"type":"Feature","id":"TN_RIVER_BT:WTR02000000002G77","properties":{"NF_ID":"WTR02000000002G77","admin_code":"41110","source_layer":"TN_RIVER_BT","semantic":"channel","river_class":"지방하천","river_class_source":"중심선 공간조인","river_name":"수원천","river_code":"1120600","survey_method":"사진측량"},"geometry":{"type":"Polygon","coordinates":[[[127.02819,37.30281],[127.02862,37.30262],[127.02921,37.30142],[127.02959,37.3015],[127.02968,37.30071],[127.0293,37.30013],[127.02758,37.29886],[127.02617,37.29644],[127.02388,37.29438],[127.02201,37.29172],[127.01964,37.29002],[127.01773,37.28823],[127.01776,37.28608],[127.01867,37.27919],[127.01982,37.27481],[127.01729,37.2711],[127.01467,37.26617],[127.01284,37.2642],[127.00908,37.25703],[127.00899,37.25591],[127.00961,37.25305],[127.00902,37.25127],[127.00943,37.25],[127.00893,37.25125],[127.00949,37.25295],[127.00944,37.25393],[127.00891,37.25556],[127.00901,37.25702],[127.01284,37.26436],[127.01454,37.26621],[127.01728,37.27125],[127.01975,37.27492],[127.01972,37.27556],[127.01863,37.27822],[127.01872,37.27888],[127.01818,37.28136],[127.01748,37.28731],[127.01769,37.28831],[127.01938,37.28998],[127.02209,37.292],[127.02368,37.29431],[127.02592,37.29626],[127.02745,37.29881],[127.02892,37.29979],[127.02928,37.30065],[127.02819,37.30281]],[[127.02606,37.29643],[127.02607,37.29643],[127.02608,37.29643],[127.02609,37.29643],[127.0261,37.29644],[127.0261,37.29646],[127.0261,37.29647],[127.02608,37.29648],[127.02607,37.29648],[127.02606,37.29648],[127.02605,37.29647],[127.02604,37.29645],[127.02605,37.29644],[127.02606,37.29643],[127.02606,37.29643]]]}},{"type":"Feature","id":"TN_RIVER_BT:WTR020000000020O8","properties":{"NF_ID":"WTR020000000020O8","admin_code":"41110","source_layer":"TN_RIVER_BT","semantic":"channel","river_class":"소하천","river_class_source":"중심선 공간조인","survey_method":"사진측량"},"geometry":{"type":"Polygon","coordinates":[[[127.04628,37.23456],[127.04627,37.23453],[127.04624,37.23453],[127.04623,37.23458],[127.04623,37.23458],[127.04623,37.2348],[127.04623,37.23481],[127.04625,37.23481],[127.04629,37.23481],[127.04629,37.23481],[127.04629,37.2348],[127.04629,37.23457],[127.04628,37.23456]]]}},{"type":"Feature","id":"TN_RIVER_BT:WTR020000000020RB","properties":{"NF_ID":"WTR020000000020RB","admin_code":"41110","source_layer":"TN_RIVER_BT","semantic":"channel","river_class":"소하천","river_class_source":"중심선 공간조인","survey_method":"사진측량"},"geometry":{"type":"Polygon","coordinates":[[[127.05892,37.23468],[127.05822,37.23403],[127.05569,37.23253],[127.05822,37.23406],[127.05927,37.23497],[127.05998,37.23621],[127.05992,37.23571],[127.05892,37.23468]],[[127.05839,37.23419],[127.05837,37.23418],[127.05835,37.23418],[127.05835,37.23418],[127.05835,37.23419],[127.05835,37.23419],[127.05834,37.23419],[127.05834,37.23418],[127.05833,37.23417],[127.0583,37.23413],[127.05826,37.23409],[127.05826,37.23408],[127.05826,37.23408],[127.05827,37.23409],[127.0583,37.23411],[127.05832,37.23413],[127.05833,37.23414],[127.05835,37.23415],[127.05836,37.23416],[127.05839,37.23418],[127.05839,37.23418],[127.05839,37.23418],[127.05839,37.23419],[127.05839,37.23419],[127.05839,37.23419]]]}},{"type":"Feature","id":"TN_RIVER_BT:WTR0200000000214P","properties":{"NF_ID":"WTR0200000000214P","admin_code":"41110","source_layer":"TN_RIVER_BT","semantic":"channel","river_class":"등급미확인","survey_method":"사진측량"},"geometry":{"type":"Polygon","coordinates":[[[127.05631,37.24227],[127.05627,37.24226],[127.05627,37.24227],[127.05627,37.24227],[127.05627,37.24227],[127.05627,37.24228],[127.05636,37.24229],[127.0564,37.24231],[127.05641,37.24231],[127.05641,37.24231],[127.05641,37.24232],[127.05641,37.24234],[127.05643,37.24235],[127.05644,37.24234],[127.05644,37.24233],[127.05644,37.24232],[127.05644,37.24232],[127.05644,37.24231],[127.05644,37.24231],[127.05643,37.2423],[127.05642,37.2423],[127.0564,37.24229],[127.05636,37.24228],[127.05634,37.24227],[127.05631,37.24227]]]}},{"type":"Feature","id":"TN_RIVER_BT:WTR0200000000216R","properties":{"NF_ID":"WTR0200000000216R","admin_code":"41110","source_layer":"TN_RIVER_BT","semantic":"channel","river_class":"등급미확인","survey_method":"사진측량"},"geometry":{"type":"Polygon","coordinates":[[[127.05978,37.24263],[127.0598,37.24263],[127.05981,37.24263],[127.05983,37.24263],[127.05985,37.24264],[127.05988,37.24264],[127.05991,37.24266],[127.05994,37.24267],[127.05996,37.24269],[127.05996,37.2427],[127.05997,37.2427],[127.05998,37.24269],[127.05998,37.24269],[127.05995,37.24266],[127.05992,37.24264],[127.0599,37.24263],[127.05986,37.24262],[127.05982,37.24262],[127.05979,37.24262],[127.05977,37.24262],[127.05973,37.24263],[127.05968,37.24264],[127.05968,37.24265],[127.05964,37.24267],[127.05962,37.24269],[127.05962,37.24269],[127.05963,37.2427],[127.05963,37.2427],[127.05967,37.24267],[127.0597,37.24265],[127.05973,37.24264],[127.05977,37.24263],[127.05978,37.24263]]]}},{"type":"Feature","id":"TN_RIVER_BT:WTR02000000002F98","properties":{"NF_ID":"WTR02000000002F98","admin_code":"41110","source_layer":"TN_RIVER_BT","semantic":"channel","river_class":"소하천","river_class_source":"중심선 공간조인","survey_method":"사진측량"},"geometry":{"type":"Polygon","coordinates":[[[127.06264,37.27261],[127.06264,37.27259],[127.06264,37.27258],[127.06266,37.27256],[127.06268,37.27254],[127.0627,37.27253],[127.06271,37.27251],[127.06272,37.27249],[127.06272,37.27247],[127.06272,37.27246],[127.06259,37.2725],[127.0626,37.27254],[127.0626,37.27256],[127.0626,37.27257],[127.06259,37.27259],[127.06258,37.27259],[127.06257,37.2726],[127.06259,37.2726],[127.06263,37.2726],[127.06264,37.27261]]]}},{"type":"Feature","id":"TN_RIVER_BT:WTR02000000002FA9","properties":{"NF_ID":"WTR02000000002FA9","admin_code":"41110","source_layer":"TN_RIVER_BT","semantic":"channel","river_class":"소하천","river_class_source":"중심선 공간조인","survey_method":"사진측량"},"geometry":{"type":"Polygon","coordinates":[[[127.06104,37.27345],[127.06102,37.27345],[127.06102,37.27346],[127.06101,37.27347],[127.06098,37.2735],[127.06095,37.27353],[127.06094,37.27356],[127.06094,37.27357],[127.06096,37.2736],[127.06098,37.27363],[127.06102,37.27365],[127.06107,37.27366],[127.06107,37.27364],[127.06104,37.27364],[127.06102,37.27364],[127.06099,37.27363],[127.06097,37.27361],[127.06097,37.27358],[127.06097,37.27355],[127.06099,37.27352],[127.06102,37.27349],[127.06105,37.27346],[127.06104,37.27345]]]}},{"type":"Feature","id":"TN_RIVER_BT:WTR02000000002FDC","properties":{"NF_ID":"WTR02000000002FDC","admin_code":"41110","source_layer":"TN_RIVER_BT","semantic":"channel","river_class":"소하천","river_class_source":"중심선 공간조인","survey_method":"사진측량"},"geometry":{"type":"Polygon","coordinates":[[[127.03785,37.27453],[127.03785,37.27453],[127.03784,37.27454],[127.03784,37.27454],[127.03783,37.27456],[127.03782,37.27457],[127.03781,37.2746],[127.03779,37.27463],[127.03778,37.27465],[127.03778,37.27466],[127.03778,37.27466],[127.03779,37.27467],[127.03779,37.27467],[127.03779,37.27466],[127.0378,37.27464],[127.03782,37.2746],[127.03783,37.27457],[127.03785,37.27455],[127.03786,37.27454],[127.03785,37.27453],[127.03785,37.27453]]]}},{"type":"Feature","id":"TN_RIVER_BT:WTR02000000002FON","properties":{"NF_ID":"WTR02000000002FON","admin_code":"41110","source_layer":"TN_RIVER_BT","semantic":"channel","river_class":"소하천","river_class_source":"중심선 공간조인","survey_method":"사진측량"},"geometry":{"type":"Polygon","coordinates":[[[127.03899,37.28442],[127.03942,37.28417],[127.03884,37.28368],[127.03899,37.28442]],[[127.03888,37.28375],[127.03919,37.28403],[127.03897,37.2842],[127.03922,37.28422],[127.03896,37.28438],[127.03888,37.28375]],[[127.03929,37.2842],[127.03927,37.28419],[127.03926,37.28418],[127.03925,37.28418],[127.03923,37.28417],[127.03923,37.28416],[127.03922,37.28415],[127.03923,37.28413],[127.03924,37.28412],[127.03925,37.28411],[127.03926,37.28411],[127.03928,37.28412],[127.03932,37.28413],[127.03935,37.28415],[127.03935,37.28416],[127.03936,37.28417],[127.03936,37.28417],[127.03936,37.28418],[127.03936,37.28418],[127.03936,37.28419],[127.03935,37.28419],[127.03933,37.2842],[127.03932,37.2842],[127.0393,37.2842],[127.03929,37.2842]]]}},{"type":"Feature","id":"TN_RIVER_BT:WTR02000000002FPO","properties":{"NF_ID":"WTR02000000002FPO","admin_code":"41110","source_layer":"TN_RIVER_BT","semantic":"channel","river_class":"지방하천","river_class_source":"중심선 공간조인","river_name":"원천리천","river_code":"1120740","survey_method":"사진측량"},"geometry":{"type":"Polygon","coordinates":[[[127.0711,37.28475],[127.07042,37.28375],[127.06838,37.28285],[127.06725,37.28186],[127.06791,37.28023],[127.06871,37.27953],[127.06898,37.2787],[127.07158,37.27965],[127.07441,37.27866],[127.07564,37.27866],[127.07679,37.27924],[127.07785,37.27887],[127.07894,37.2793],[127.07998,37.27904],[127.08206,37.28009],[127.08329,37.28045],[127.0845,37.28039],[127.08336,37.28043],[127.08208,37.28006],[127.08,37.27903],[127.07887,37.27928],[127.07785,37.27884],[127.07674,37.27919],[127.07566,37.27865],[127.07431,37.27864],[127.07156,37.27964],[127.06903,37.27866],[127.06936,37.2772],[127.06829,37.27583],[127.06812,37.27441],[127.06674,37.27376],[127.06474,37.27135],[127.05469,37.26628],[127.05207,37.26611],[127.05145,37.2659],[127.05058,37.26279],[127.04987,37.26128],[127.04988,37.25953],[127.04951,37.25874],[127.04476,37.2537],[127.04355,37.25293],[127.04294,37.25128],[127.04134,37.25],[127.04268,37.25137],[127.04305,37.25264],[127.04456,37.25382],[127.04586,37.25521],[127.04579,37.25539],[127.04935,37.25898],[127.04961,37.25989],[127.04947,37.26065],[127.05146,37.26606],[127.0518,37.26627],[127.05483,37.26646],[127.05533,37.2669],[127.05558,37.26687],[127.06186,37.27025],[127.0649,37.27164],[127.06664,37.2741],[127.06574,37.27586],[127.06569,37.27735],[127.06536,37.2775],[127.06531,37.27785],[127.06582,37.27745],[127.06575,37.27602],[127.06671,37.27425],[127.0671,37.27407],[127.06798,37.2744],[127.0682,37.27587],[127.06907,37.27678],[127.06928,37.27739],[127.06868,37.2795],[127.06795,37.2801],[127.0672,37.28184],[127.06835,37.28285],[127.06998,37.28368],[127.0711,37.28475]]]}},{"type":"Feature","id":"TN_RIVER_BT:WTR02000000002FSR","properties":{"NF_ID":"WTR02000000002FSR","admin_code":"41110","source_layer":"TN_RIVER_BT","semantic":"channel","river_class":"소하천","river_class_source":"중심선 공간조인","survey_method":"사진측량"},"geometry":{"type":"Polygon","coordinates":[[[127.05024,37.28772],[127.05026,37.28772],[127.05027,37.28772],[127.0503,37.28771],[127.05031,37.28771],[127.05033,37.28772],[127.05038,37.28773],[127.05039,37.28772],[127.05034,37.2877],[127.05032,37.2877],[127.0503,37.2877],[127.05029,37.2877],[127.05027,37.2877],[127.05026,37.28771],[127.05025,37.28771],[127.05023,37.28772],[127.05022,37.28772],[127.0502,37.28772],[127.0502,37.28772],[127.05019,37.28772],[127.05017,37.28772],[127.05016,37.28772],[127.0501,37.28768],[127.05009,37.28767],[127.05006,37.2876],[127.05005,37.2876],[127.05006,37.28763],[127.05008,37.28768],[127.0501,37.2877],[127.05014,37.28772],[127.05016,37.28773],[127.05017,37.28773],[127.05019,37.28774],[127.0502,37.28774],[127.05022,37.28773],[127.05023,37.28773],[127.05024,37.28772]]]}},{"type":"Feature","id":"TN_RIVER_BT:WTR02000000002G44","properties":{"NF_ID":"WTR02000000002G44","admin_code":"41110","source_layer":"TN_RIVER_BT","semantic":"channel","river_class":"등급미확인","survey_method":"사진측량"},"geometry":{"type":"Polygon","coordinates":[[[127.05814,37.29859],[127.05801,37.2985],[127.05799,37.29852],[127.05807,37.29859],[127.0581,37.29862],[127.05836,37.29872],[127.05827,37.29867],[127.05814,37.29859]]]}},{"type":"Feature","id":"TN_RIVER_BT:WTR02000000002G55","properties":{"NF_ID":"WTR02000000002G55","admin_code":"41110","source_layer":"TN_RIVER_BT","semantic":"channel","river_class":"지방하천","river_class_source":"중심선 공간조인","river_name":"여천","river_code":"1120760","survey_method":"사진측량"},"geometry":{"type":"Polygon","coordinates":[[[127.0433,37.30115],[127.04616,37.29978],[127.04804,37.29998],[127.04817,37.30037],[127.04939,37.29911],[127.05064,37.2973],[127.0504,37.29447],[127.05094,37.29401],[127.05261,37.29341],[127.05413,37.29343],[127.0562,37.29391],[127.05626,37.29556],[127.05674,37.29587],[127.05694,37.29639],[127.05678,37.29694],[127.05694,37.2963],[127.05626,37.29549],[127.05634,37.29384],[127.05723,37.29285],[127.05755,37.29162],[127.05805,37.29087],[127.05996,37.29022],[127.06177,37.2891],[127.0614,37.28678],[127.06172,37.2855],[127.06152,37.28541],[127.06135,37.28583],[127.06124,37.28673],[127.06176,37.28858],[127.06161,37.28925],[127.05997,37.29017],[127.0579,37.29093],[127.0572,37.29284],[127.05661,37.29357],[127.05597,37.29373],[127.0527,37.29334],[127.0509,37.29397],[127.05014,37.29462],[127.04805,37.29472],[127.04678,37.2953],[127.04454,37.29563],[127.04391,37.2952],[127.04331,37.29513],[127.04245,37.29543],[127.04165,37.29636],[127.04098,37.29657],[127.04166,37.29636],[127.04248,37.29543],[127.04331,37.29515],[127.04385,37.29519],[127.04465,37.29567],[127.04685,37.29532],[127.04804,37.29475],[127.05021,37.29469],[127.05061,37.29724],[127.04853,37.29981],[127.0482,37.29999],[127.04596,37.29979],[127.04338,37.30112],[127.0413,37.30102],[127.0433,37.30115]]]}},{"type":"Feature","id":"TN_RIVER_BT:WTR02000000002G66","properties":{"NF_ID":"WTR02000000002G66","admin_code":"41110","source_layer":"TN_RIVER_BT","semantic":"channel","river_class":"소하천","river_class_source":"중심선 공간조인","survey_method":"사진측량"},"geometry":{"type":"Polygon","coordinates":[[[127.03892,37.30175],[127.03891,37.30175],[127.03889,37.30175],[127.03869,37.30185],[127.03853,37.30191],[127.03842,37.30195],[127.03832,37.30197],[127.03823,37.30199],[127.03805,37.30209],[127.03782,37.30221],[127.03762,37.3023],[127.03747,37.30238],[127.03737,37.30243],[127.03726,37.30248],[127.0372,37.30254],[127.03714,37.30261],[127.03723,37.30263],[127.03726,37.30255],[127.0373,37.30251],[127.03738,37.30247],[127.03751,37.3024],[127.03768,37.3023],[127.03793,37.30218],[127.03813,37.30208],[127.03823,37.30202],[127.0383,37.30199],[127.03838,37.30197],[127.03843,37.30196],[127.03848,37.30195],[127.0386,37.30191],[127.03873,37.30185],[127.0389,37.30178],[127.03891,37.30176],[127.03892,37.30176],[127.03892,37.30176],[127.03892,37.30175]]]}},{"type":"Feature","id":"TN_RIVER_BT:WTR02000000002GCC","properties":{"NF_ID":"WTR02000000002GCC","admin_code":"41110","source_layer":"TN_RIVER_BT","semantic":"channel","river_class":"등급미확인","survey_method":"사진측량"},"geometry":{"type":"Polygon","coordinates":[[[127.04279,37.30656],[127.04317,37.30649],[127.04341,37.30605],[127.0432,37.30613],[127.04316,37.30648],[127.04274,37.30657],[127.04153,37.30788],[127.04279,37.30656]]]}},{"type":"Feature","id":"TN_RIVER_BT:WTR02000000002GQQ","properties":{"NF_ID":"WTR02000000002GQQ","admin_code":"41110","source_layer":"TN_RIVER_BT","semantic":"channel","river_class":"지방하천","river_class_source":"중심선 공간조인","river_name":"여천","river_code":"1120760","survey_method":"사진측량"},"geometry":{"type":"Polygon","coordinates":[[[127.04549,37.305],[127.04577,37.3045],[127.04753,37.30352],[127.04778,37.30523],[127.04769,37.30329],[127.04808,37.30288],[127.04859,37.30389],[127.04989,37.30453],[127.05102,37.30575],[127.05205,37.30644],[127.05291,37.30926],[127.05277,37.31069],[127.05188,37.31266],[127.05286,37.31041],[127.05295,37.30928],[127.0524,37.30712],[127.05204,37.30639],[127.05096,37.30566],[127.04993,37.30454],[127.04861,37.30382],[127.04782,37.30252],[127.04778,37.30168],[127.04776,37.30252],[127.0465,37.30283],[127.04348,37.30438],[127.03803,37.30787],[127.03669,37.30914],[127.03683,37.30981],[127.0365,37.31001],[127.03685,37.30979],[127.03668,37.30918],[127.03823,37.30775],[127.03881,37.31003],[127.03833,37.30768],[127.04349,37.30439],[127.04639,37.30292],[127.04783,37.30257],[127.04799,37.30286],[127.04755,37.30339],[127.0455,37.3048],[127.04545,37.30772],[127.04482,37.3083],[127.04364,37.31089],[127.0437,37.31286],[127.04367,37.31093],[127.04486,37.30829],[127.0455,37.30765],[127.04549,37.305]]]}}]}