{"type":"FeatureCollection","features":[{"type":"Feature","id":"TN_RIVER_BT:WTR0200000000AQYG","properties":{"NF_ID":"WTR0200000000AQYG","source_layer":"TN_RIVER_BT","semantic":"channel","river_class":"소하천","river_class_source":"중심선 공간조인","survey_method":"사진측량","admin_code":"26110"},"geometry":{"type":"MultiPolygon","coordinates":[[[[129.04177,35.10614],[129.04184,35.10598],[129.04193,35.10579],[129.04189,35.10585],[129.04185,35.10593],[129.04181,35.10603],[129.04177,35.10614],[129.04177,35.10614]]],[[[129.04277,35.10808],[129.04216,35.10662],[129.04259,35.10567],[129.04174,35.10639],[129.0425,35.10818],[129.04277,35.10808]]]]}}]}