{"type":"FeatureCollection","features":[{"type":"Feature","id":"TN_RIVER_BNDRY:WTR0100000002AU9W","properties":{"NF_ID":"WTR0100000002AU9W","admin_code":"52111","source_layer":"TN_RIVER_BNDRY","semantic":"zone","river_class":"소하천","river_class_source":"중심선 공간조인","survey_method":"사진측량"},"geometry":{"type":"Polygon","coordinates":[[[127.08026,35.74898],[127.08003,35.74944],[127.08034,35.74976],[127.08091,35.75],[127.08017,35.74957],[127.08026,35.74898]]]}},{"type":"Feature","id":"TN_RIVER_BNDRY:WTR0100000002D1C9","properties":{"NF_ID":"WTR0100000002D1C9","admin_code":"52111","source_layer":"TN_RIVER_BNDRY","semantic":"zone","river_class":"지방하천","river_class_source":"중심선 공간조인","river_name":"중복천","river_code":"3220520","survey_method":"사진측량"},"geometry":{"type":"Polygon","coordinates":[[[127.10492,35.80501],[127.10439,35.8042],[127.10462,35.80322],[127.1045,35.80277],[127.10426,35.80257],[127.10338,35.80236],[127.10233,35.80126],[127.10157,35.80106],[127.09986,35.80124],[127.09883,35.801],[127.09733,35.80119],[127.09644,35.8009],[127.09498,35.80006],[127.09252,35.79951],[127.09154,35.79844],[127.08963,35.79746],[127.08744,35.79511],[127.08682,35.79471],[127.08506,35.7945],[127.08227,35.79361],[127.08133,35.7935],[127.07797,35.79397],[127.07777,35.79448],[127.07691,35.79535],[127.07611,35.79727],[127.07594,35.79919],[127.07632,35.797],[127.07691,35.79555],[127.07791,35.79446],[127.07799,35.79401],[127.08118,35.7936],[127.08192,35.79362],[127.08514,35.79462],[127.08686,35.79482],[127.08952,35.79753],[127.09143,35.7985],[127.09208,35.79937],[127.09273,35.79973],[127.09479,35.80012],[127.09646,35.80104],[127.0973,35.80131],[127.09875,35.80114],[127.10013,35.80136],[127.10158,35.8012],[127.10219,35.80135],[127.10321,35.80243],[127.10431,35.80279],[127.10445,35.80307],[127.10426,35.80424],[127.10481,35.80506],[127.10492,35.80501]]]}},{"type":"Feature","id":"TN_RIVER_BNDRY:WTR0100000002D1EB","properties":{"NF_ID":"WTR0100000002D1EB","admin_code":"52111","source_layer":"TN_RIVER_BNDRY","semantic":"zone","river_class":"국가하천","river_class_source":"중심선 공간조인","river_name":"전주천","river_code":"3210330","survey_method":"사진측량"},"geometry":{"type":"Polygon","coordinates":[[[127.19431,35.79385],[127.19333,35.7938],[127.19208,35.79596],[127.19134,35.79685],[127.19041,35.7976],[127.18833,35.79843],[127.18888,35.79909],[127.18886,35.79887],[127.19085,35.79808],[127.191,35.79815],[127.19201,35.79742],[127.193,35.79624],[127.19431,35.79385]]]}},{"type":"Feature","id":"TN_RIVER_BNDRY:WTR0100000002D20Y","properties":{"NF_ID":"WTR0100000002D20Y","admin_code":"52111","source_layer":"TN_RIVER_BNDRY","semantic":"zone","river_class":"소하천","river_class_source":"중심선 공간조인","survey_method":"사진측량"},"geometry":{"type":"Polygon","coordinates":[[[127.18119,35.78563],[127.18133,35.78568],[127.18135,35.78557],[127.18119,35.78563]]]}},{"type":"Feature","id":"TN_RIVER_BNDRY:WTR0100000002D21Z","properties":{"NF_ID":"WTR0100000002D21Z","admin_code":"52111","source_layer":"TN_RIVER_BNDRY","semantic":"zone","river_class":"소하천","river_class_source":"중심선 공간조인","survey_method":"사진측량"},"geometry":{"type":"Polygon","coordinates":[[[127.10286,35.77506],[127.10177,35.77218],[127.10074,35.77092],[127.09995,35.77046],[127.09991,35.77063],[127.10077,35.77118],[127.10163,35.77237],[127.10256,35.775],[127.10286,35.77506]]]}},{"type":"Feature","id":"TN_RIVER_BNDRY:WTR0100000002D220","properties":{"NF_ID":"WTR0100000002D220","admin_code":"52111","source_layer":"TN_RIVER_BNDRY","semantic":"zone","river_class":"지방하천","river_class_source":"중심선 공간조인","river_name":"독배천","river_code":"3220470","survey_method":"사진측량"},"geometry":{"type":"Polygon","coordinates":[[[127.10265,35.77511],[127.09851,35.77443],[127.09642,35.77372],[127.09436,35.77396],[127.09077,35.77317],[127.09086,35.77343],[127.09043,35.77338],[127.09432,35.7742],[127.09636,35.77393],[127.09812,35.77459],[127.10207,35.7752],[127.10264,35.77549],[127.10265,35.77511]]]}},{"type":"Feature","id":"TN_RIVER_BNDRY:WTR0100000002D231","properties":{"NF_ID":"WTR0100000002D231","admin_code":"52111","source_layer":"TN_RIVER_BNDRY","semantic":"zone","river_class":"소하천","river_class_source":"중심선 공간조인","survey_method":"사진측량"},"geometry":{"type":"Polygon","coordinates":[[[127.08794,35.75902],[127.08774,35.75897],[127.0877,35.7594],[127.08944,35.76093],[127.08929,35.76101],[127.08968,35.7618],[127.09322,35.76322],[127.09528,35.76647],[127.09576,35.76682],[127.09584,35.76671],[127.09545,35.76642],[127.09327,35.76306],[127.093,35.76286],[127.08979,35.76176],[127.08957,35.76089],[127.08794,35.75937],[127.08794,35.75902]]]}},{"type":"Feature","id":"TN_RIVER_BNDRY:WTR0100000002D242","properties":{"NF_ID":"WTR0100000002D242","admin_code":"52111","source_layer":"TN_RIVER_BNDRY","semantic":"zone","river_class":"지방하천","river_class_source":"중심선 공간조인","river_name":"독배천","river_code":"3220470","survey_method":"사진측량"},"geometry":{"type":"Polygon","coordinates":[[[127.0848,35.77131],[127.08484,35.77149],[127.08532,35.77146],[127.08608,35.77166],[127.08703,35.7723],[127.0884,35.77295],[127.08988,35.77341],[127.09036,35.77335],[127.09046,35.77314],[127.08837,35.7727],[127.086,35.77143],[127.08542,35.77127],[127.0848,35.77131]]]}},{"type":"Feature","id":"TN_RIVER_BNDRY:WTR0100000002D253","properties":{"NF_ID":"WTR0100000002D253","admin_code":"52111","source_layer":"TN_RIVER_BNDRY","semantic":"zone","river_class":"소하천","river_class_source":"중심선 공간조인","survey_method":"사진측량"},"geometry":{"type":"Polygon","coordinates":[[[127.0848,35.77131],[127.08479,35.7712],[127.08474,35.77103],[127.08471,35.7709],[127.08467,35.77081],[127.08463,35.77073],[127.0846,35.77072],[127.08458,35.77073],[127.08458,35.77075],[127.08461,35.77081],[127.08466,35.77088],[127.08469,35.77095],[127.08471,35.77105],[127.08476,35.77124],[127.08476,35.77127],[127.08477,35.77132],[127.0848,35.77131]]]}},{"type":"Feature","id":"TN_RIVER_BNDRY:WTR0100000002D264","properties":{"NF_ID":"WTR0100000002D264","admin_code":"52111","source_layer":"TN_RIVER_BNDRY","semantic":"zone","river_class":"지방하천","river_class_source":"중심선 공간조인","river_name":"독배천","river_code":"3220470","survey_method":"사진측량"},"geometry":{"type":"Polygon","coordinates":[[[127.08484,35.77149],[127.0848,35.77131],[127.08477,35.77132],[127.08481,35.7715],[127.08484,35.77149]]]}},{"type":"Feature","id":"TN_RIVER_BNDRY:WTR0100000002D275","properties":{"NF_ID":"WTR0100000002D275","admin_code":"52111","source_layer":"TN_RIVER_BNDRY","semantic":"zone","river_class":"소하천","river_class_source":"중심선 공간조인","survey_method":"사진측량"},"geometry":{"type":"Polygon","coordinates":[[[127.08605,35.75794],[127.08524,35.75717],[127.08473,35.7572],[127.08445,35.75706],[127.08443,35.75657],[127.08431,35.75689],[127.08445,35.75717],[127.08519,35.75723],[127.08578,35.7579],[127.08606,35.75806],[127.08605,35.75794]]]}},{"type":"Feature","id":"TN_RIVER_BNDRY:WTR0100000002D286","properties":{"NF_ID":"WTR0100000002D286","admin_code":"52111","source_layer":"TN_RIVER_BNDRY","semantic":"zone","river_class":"소하천","river_class_source":"중심선 공간조인","survey_method":"사진측량"},"geometry":{"type":"Polygon","coordinates":[[[127.0863,35.75807],[127.08605,35.75794],[127.08628,35.75824],[127.0863,35.75807]]]}},{"type":"Feature","id":"TN_RIVER_BNDRY:WTR0100000002D297","properties":{"NF_ID":"WTR0100000002D297","admin_code":"52111","source_layer":"TN_RIVER_BNDRY","semantic":"zone","river_class":"소하천","river_class_source":"중심선 공간조인","survey_method":"사진측량"},"geometry":{"type":"Polygon","coordinates":[[[127.08605,35.75794],[127.0863,35.75807],[127.08604,35.75668],[127.08561,35.75622],[127.08554,35.75591],[127.08637,35.75498],[127.08564,35.75409],[127.08562,35.75425],[127.0863,35.75503],[127.08564,35.75553],[127.08542,35.75592],[127.08552,35.75625],[127.08593,35.75666],[127.08605,35.75794]]]}},{"type":"Feature","id":"TN_RIVER_BNDRY:WTR0100000002D2A8","properties":{"NF_ID":"WTR0100000002D2A8","admin_code":"52111","source_layer":"TN_RIVER_BNDRY","semantic":"zone","river_class":"소하천","river_class_source":"중심선 공간조인","survey_method":"사진측량"},"geometry":{"type":"Polygon","coordinates":[[[127.08795,35.7587],[127.08739,35.75829],[127.0863,35.75807],[127.08628,35.75824],[127.08745,35.75848],[127.08779,35.7588],[127.08795,35.7587]]]}},{"type":"Feature","id":"TN_RIVER_BNDRY:WTR0100000002D2B9","properties":{"NF_ID":"WTR0100000002D2B9","admin_code":"52111","source_layer":"TN_RIVER_BNDRY","semantic":"zone","river_class":"소하천","river_class_source":"중심선 공간조인","survey_method":"사진측량"},"geometry":{"type":"Polygon","coordinates":[[[127.08795,35.7587],[127.08794,35.75902],[127.0882,35.75849],[127.08804,35.75798],[127.08837,35.75723],[127.08793,35.75642],[127.08826,35.75726],[127.08795,35.75797],[127.08809,35.75841],[127.08795,35.7587]]]}},{"type":"Feature","id":"TN_RIVER_BNDRY:WTR0100000002D2CA","properties":{"NF_ID":"WTR0100000002D2CA","admin_code":"52111","source_layer":"TN_RIVER_BNDRY","semantic":"zone","river_class":"소하천","river_class_source":"중심선 공간조인","survey_method":"사진측량"},"geometry":{"type":"Polygon","coordinates":[[[127.08795,35.7587],[127.08774,35.75897],[127.08794,35.75902],[127.08795,35.7587]]]}},{"type":"Feature","id":"TN_RIVER_BNDRY:WTR0100000002D2DB","properties":{"NF_ID":"WTR0100000002D2DB","admin_code":"52111","source_layer":"TN_RIVER_BNDRY","semantic":"zone","river_class":"지방하천","river_class_source":"중심선 공간조인","river_name":"가동천","river_code":"3220450","survey_method":"사진측량"},"geometry":{"type":"Polygon","coordinates":[[[127.11832,35.77262],[127.1198,35.77294],[127.12565,35.7717],[127.12724,35.77202],[127.12739,35.77249],[127.12784,35.77295],[127.13002,35.77236],[127.13117,35.77245],[127.13247,35.77189],[127.13128,35.77237],[127.12999,35.77228],[127.12795,35.77286],[127.12745,35.7724],[127.12733,35.77197],[127.12561,35.77164],[127.11979,35.77289],[127.11832,35.77262]]]}},{"type":"Feature","id":"TN_RIVER_BNDRY:WTR0100000002D2EC","properties":{"NF_ID":"WTR0100000002D2EC","admin_code":"52111","source_layer":"TN_RIVER_BNDRY","semantic":"zone","river_class":"지방하천","river_class_source":"중심선 공간조인","river_name":"덕적천","river_code":"3220500","survey_method":"사진측량"},"geometry":{"type":"Polygon","coordinates":[[[127.11241,35.79041],[127.11245,35.79064],[127.11287,35.79046],[127.11569,35.79009],[127.1172,35.7905],[127.12166,35.79049],[127.12325,35.79112],[127.12537,35.79149],[127.12687,35.79204],[127.12893,35.79161],[127.12845,35.79149],[127.12691,35.79189],[127.12547,35.79135],[127.12326,35.79096],[127.12165,35.79034],[127.11748,35.79034],[127.1157,35.78992],[127.11241,35.79041]]]}},{"type":"Feature","id":"TN_RIVER_BNDRY:WTR0100000002D2FD","properties":{"NF_ID":"WTR0100000002D2FD","admin_code":"52111","source_layer":"TN_RIVER_BNDRY","semantic":"zone","river_class":"지방하천","river_class_source":"중심선 공간조인","river_name":"삼천","river_code":"3210410","survey_method":"사진측량"},"geometry":{"type":"Polygon","coordinates":[[[127.11829,35.77268],[127.117,35.77245],[127.11524,35.7749],[127.11109,35.77987],[127.10966,35.78213],[127.11063,35.78266],[127.11773,35.77382],[127.11829,35.77268]]]}},{"type":"Feature","id":"TN_RIVER_BNDRY:WTR0100000002D2GE","properties":{"NF_ID":"WTR0100000002D2GE","admin_code":"52111","source_layer":"TN_RIVER_BNDRY","semantic":"zone","river_class":"소하천","river_class_source":"중심선 공간조인","survey_method":"사진측량"},"geometry":{"type":"Polygon","coordinates":[[[127.11253,35.77123],[127.1123,35.77111],[127.11228,35.77111],[127.11227,35.77111],[127.11227,35.77112],[127.1124,35.7712],[127.11302,35.77153],[127.11333,35.77168],[127.11377,35.77193],[127.11399,35.77205],[127.11437,35.77223],[127.11476,35.7724],[127.11483,35.77244],[127.11504,35.77256],[127.11524,35.77265],[127.11561,35.77282],[127.11582,35.77294],[127.11602,35.77304],[127.11632,35.77318],[127.11634,35.77317],[127.11634,35.77317],[127.11634,35.77315],[127.11627,35.7731],[127.11599,35.77297],[127.11565,35.77278],[127.11512,35.77253],[127.1148,35.77237],[127.11436,35.77217],[127.11401,35.77201],[127.11372,35.77185],[127.11358,35.77177],[127.11343,35.77168],[127.11317,35.77156],[127.11253,35.77123]]]}},{"type":"Feature","id":"TN_RIVER_BNDRY:WTR0100000002D2HF","properties":{"NF_ID":"WTR0100000002D2HF","admin_code":"52111","source_layer":"TN_RIVER_BNDRY","semantic":"zone","river_class":"소하천","river_class_source":"중심선 공간조인","survey_method":"사진측량"},"geometry":{"type":"Polygon","coordinates":[[[127.0788,35.80228],[127.07897,35.80232],[127.07876,35.8022],[127.07882,35.80243],[127.0788,35.80228]]]}},{"type":"Feature","id":"TN_RIVER_BNDRY:WTR0100000002D2IG","properties":{"NF_ID":"WTR0100000002D2IG","admin_code":"52111","source_layer":"TN_RIVER_BNDRY","semantic":"zone","river_class":"지방하천","river_class_source":"중심선 공간조인","river_name":"삼천","river_code":"3210410","survey_method":"사진측량"},"geometry":{"type":"Polygon","coordinates":[[[127.11241,35.79041],[127.1126,35.78962],[127.11249,35.78927],[127.1103,35.78452],[127.1104,35.78315],[127.1092,35.78252],[127.10884,35.78378],[127.10907,35.78525],[127.11085,35.78849],[127.11154,35.79055],[127.11241,35.79041]]]}},{"type":"Feature","id":"TN_RIVER_BNDRY:WTR0100000002D2JH","properties":{"NF_ID":"WTR0100000002D2JH","admin_code":"52111","source_layer":"TN_RIVER_BNDRY","semantic":"zone","river_class":"지방하천","river_class_source":"중심선 공간조인","river_name":"덕적천","river_code":"3220500","survey_method":"사진측량"},"geometry":{"type":"Polygon","coordinates":[[[127.11245,35.79064],[127.11241,35.79041],[127.11154,35.79055],[127.11157,35.79066],[127.11245,35.79064]]]}},{"type":"Feature","id":"TN_RIVER_BNDRY:WTR0100000002D2KI","properties":{"NF_ID":"WTR0100000002D2KI","admin_code":"52111","source_layer":"TN_RIVER_BNDRY","semantic":"zone","river_class":"지방하천","river_class_source":"중심선 공간조인","river_name":"독배천","river_code":"3220470","survey_method":"사진측량"},"geometry":{"type":"Polygon","coordinates":[[[127.10966,35.78213],[127.10903,35.78182],[127.10773,35.78068],[127.10736,35.77999],[127.10696,35.77807],[127.1058,35.77715],[127.1054,35.77746],[127.10625,35.77799],[127.10667,35.77854],[127.10687,35.78006],[127.10731,35.78085],[127.1092,35.78252],[127.10966,35.78213]]]}},{"type":"Feature","id":"TN_RIVER_BNDRY:WTR0100000002D2LJ","properties":{"NF_ID":"WTR0100000002D2LJ","admin_code":"52111","source_layer":"TN_RIVER_BNDRY","semantic":"zone","river_class":"지방하천","river_class_source":"중심선 공간조인","river_name":"삼천","river_code":"3210410","survey_method":"사진측량"},"geometry":{"type":"Polygon","coordinates":[[[127.11063,35.78266],[127.10966,35.78213],[127.1092,35.78252],[127.1104,35.78315],[127.11063,35.78266]]]}},{"type":"Feature","id":"TN_RIVER_BNDRY:WTR0100000002D2MK","properties":{"NF_ID":"WTR0100000002D2MK","admin_code":"52111","source_layer":"TN_RIVER_BNDRY","semantic":"zone","river_class":"지방하천","river_class_source":"중심선 공간조인","river_name":"독배천","river_code":"3220470","survey_method":"사진측량"},"geometry":{"type":"Polygon","coordinates":[[[127.10321,35.77542],[127.10286,35.77506],[127.10265,35.77511],[127.10264,35.77549],[127.10321,35.77542]]]}},{"type":"Feature","id":"TN_RIVER_BNDRY:WTR0100000002D2NL","properties":{"NF_ID":"WTR0100000002D2NL","admin_code":"52111","source_layer":"TN_RIVER_BNDRY","semantic":"zone","river_class":"지방하천","river_class_source":"중심선 공간조인","river_name":"독배천","river_code":"3220470","survey_method":"사진측량"},"geometry":{"type":"Polygon","coordinates":[[[127.10561,35.77706],[127.10409,35.77626],[127.10321,35.77542],[127.10264,35.77549],[127.10382,35.77657],[127.10527,35.77738],[127.10561,35.77706]]]}},{"type":"Feature","id":"TN_RIVER_BNDRY:WTR0100000002D2OM","properties":{"NF_ID":"WTR0100000002D2OM","admin_code":"52111","source_layer":"TN_RIVER_BNDRY","semantic":"zone","river_class":"지방하천","river_class_source":"중심선 공간조인","river_name":"중복천","river_code":"3220520","survey_method":"사진측량"},"geometry":{"type":"Polygon","coordinates":[[[127.11,35.80683],[127.10916,35.80665],[127.10919,35.80707],[127.11005,35.80713],[127.11,35.80683]]]}},{"type":"Feature","id":"TN_RIVER_BNDRY:WTR0100000002D2PN","properties":{"NF_ID":"WTR0100000002D2PN","admin_code":"52111","source_layer":"TN_RIVER_BNDRY","semantic":"zone","river_class":"지방하천","river_class_source":"중심선 공간조인","river_name":"중복천","river_code":"3220520","survey_method":"사진측량"},"geometry":{"type":"Polygon","coordinates":[[[127.10496,35.80504],[127.10495,35.80504],[127.10492,35.80501],[127.10481,35.80506],[127.10485,35.80512],[127.10496,35.80504]]]}},{"type":"Feature","id":"TN_RIVER_BNDRY:WTR0100000002D2QO","properties":{"NF_ID":"WTR0100000002D2QO","admin_code":"52111","source_layer":"TN_RIVER_BNDRY","semantic":"zone","river_class":"지방하천","river_class_source":"중심선 공간조인","river_name":"중복천","river_code":"3220520","survey_method":"사진측량"},"geometry":{"type":"Polygon","coordinates":[[[127.10916,35.80665],[127.10895,35.80673],[127.10619,35.80578],[127.10496,35.80504],[127.10485,35.80512],[127.10585,35.8058],[127.10919,35.80707],[127.10916,35.80665]]]}},{"type":"Feature","id":"TN_RIVER_BNDRY:WTR0100000002D2RP","properties":{"NF_ID":"WTR0100000002D2RP","admin_code":"52111","source_layer":"TN_RIVER_BNDRY","semantic":"zone","river_class":"소하천","river_class_source":"중심선 공간조인","survey_method":"사진측량"},"geometry":{"type":"Polygon","coordinates":[[[127.10485,35.80512],[127.1045,35.80524],[127.10408,35.80462],[127.10385,35.80533],[127.10418,35.80554],[127.10445,35.80601],[127.10516,35.80643],[127.10503,35.80567],[127.10457,35.8053],[127.10485,35.80512]]]}},{"type":"Feature","id":"TN_RIVER_BNDRY:WTR0100000002D2SQ","properties":{"NF_ID":"WTR0100000002D2SQ","admin_code":"52111","source_layer":"TN_RIVER_BNDRY","semantic":"zone","river_class":"지방하천","river_class_source":"중심선 공간조인","river_name":"삼천","river_code":"3210410","survey_method":"사진측량"},"geometry":{"type":"Polygon","coordinates":[[[127.11245,35.79064],[127.11157,35.79066],[127.11162,35.79149],[127.11128,35.79253],[127.1108,35.79329],[127.1096,35.79439],[127.10909,35.79507],[127.10844,35.79822],[127.10846,35.79882],[127.10904,35.80013],[127.1094,35.8005],[127.11062,35.80123],[127.11128,35.80217],[127.11114,35.80299],[127.11028,35.80416],[127.1097,35.80469],[127.10928,35.80588],[127.10916,35.80665],[127.11,35.80683],[127.10987,35.80617],[127.11011,35.80533],[127.11068,35.80451],[127.11189,35.80354],[127.11221,35.80302],[127.11234,35.80228],[127.11206,35.80139],[127.10983,35.79891],[127.10962,35.79801],[127.11035,35.79536],[127.11184,35.79404],[127.11304,35.79256],[127.11309,35.79146],[127.11245,35.79064]]]}},{"type":"Feature","id":"TN_RIVER_BNDRY:WTR0100000002D2TR","properties":{"NF_ID":"WTR0100000002D2TR","admin_code":"52111","source_layer":"TN_RIVER_BNDRY","semantic":"zone","river_class":"지방하천","river_class_source":"중심선 공간조인","river_name":"삼천","river_code":"3210410","survey_method":"사진측량"},"geometry":{"type":"Polygon","coordinates":[[[127.11832,35.77262],[127.11701,35.7724],[127.117,35.77245],[127.11829,35.77268],[127.11832,35.77262]]]}},{"type":"Feature","id":"TN_RIVER_BNDRY:WTR0100000002D2US","properties":{"NF_ID":"WTR0100000002D2US","admin_code":"52111","source_layer":"TN_RIVER_BNDRY","semantic":"zone","river_class":"지방하천","river_class_source":"중심선 공간조인","river_name":"독배천","river_code":"3220470","survey_method":"사진측량"},"geometry":{"type":"Polygon","coordinates":[[[127.1058,35.77715],[127.10561,35.77706],[127.10527,35.77738],[127.1054,35.77746],[127.1058,35.77715]]]}},{"type":"Feature","id":"TN_RIVER_BNDRY:WTR0100000002D2VT","properties":{"NF_ID":"WTR0100000002D2VT","admin_code":"52111","source_layer":"TN_RIVER_BNDRY","semantic":"zone","river_class":"소하천","river_class_source":"중심선 공간조인","survey_method":"사진측량"},"geometry":{"type":"Polygon","coordinates":[[[127.1054,35.77746],[127.10527,35.77738],[127.10464,35.77773],[127.10412,35.77767],[127.10357,35.77784],[127.10319,35.77841],[127.10266,35.77854],[127.10181,35.77846],[127.10266,35.77859],[127.10325,35.77845],[127.10365,35.7779],[127.1041,35.77773],[127.10478,35.77776],[127.1054,35.77746]]]}},{"type":"Feature","id":"TN_RIVER_BNDRY:WTR0100000002D2WU","properties":{"NF_ID":"WTR0100000002D2WU","admin_code":"52111","source_layer":"TN_RIVER_BNDRY","semantic":"zone","river_class":"국가하천","river_class_source":"중심선 공간조인","river_name":"전주천","river_code":"3210330","survey_method":"사진측량"},"geometry":{"type":"Polygon","coordinates":[[[127.18886,35.79912],[127.18809,35.7985],[127.17912,35.80026],[127.17944,35.80114],[127.18201,35.80048],[127.18222,35.80058],[127.18203,35.80047],[127.18224,35.80042],[127.18693,35.79959],[127.18837,35.79903],[127.18886,35.79912]]]}},{"type":"Feature","id":"TN_RIVER_BNDRY:WTR0100000002D2YW","properties":{"NF_ID":"WTR0100000002D2YW","admin_code":"52111","source_layer":"TN_RIVER_BNDRY","semantic":"zone","river_class":"국가하천","river_class_source":"중심선 공간조인","river_name":"전주천","river_code":"3210330","survey_method":"사진측량"},"geometry":{"type":"Polygon","coordinates":[[[127.17912,35.80124],[127.17884,35.80034],[127.17404,35.80149],[127.17054,35.80163],[127.16981,35.80231],[127.17162,35.80232],[127.17217,35.80247],[127.17391,35.80229],[127.17701,35.80165],[127.17818,35.80159],[127.17912,35.80124]]]}},{"type":"Feature","id":"TN_RIVER_BNDRY:WTR0100000002D376","properties":{"NF_ID":"WTR0100000002D376","admin_code":"52111","source_layer":"TN_RIVER_BNDRY","semantic":"zone","river_class":"소하천","river_class_source":"중심선 공간조인","survey_method":"사진측량"},"geometry":{"type":"Polygon","coordinates":[[[127.14819,35.7979],[127.14854,35.79968],[127.14938,35.80008],[127.14863,35.79965],[127.14851,35.79855],[127.14819,35.7979]]]}},{"type":"Feature","id":"TN_RIVER_BNDRY:WTR0100000002D387","properties":{"NF_ID":"WTR0100000002D387","admin_code":"52111","source_layer":"TN_RIVER_BNDRY","semantic":"zone","river_class":"소하천","river_class_source":"중심선 공간조인","survey_method":"사진측량"},"geometry":{"type":"Polygon","coordinates":[[[127.14817,35.79782],[127.14934,35.79749],[127.15065,35.79618],[127.14923,35.79747],[127.14817,35.79782]]]}},{"type":"Feature","id":"TN_RIVER_BNDRY:WTR0100000002D398","properties":{"NF_ID":"WTR0100000002D398","admin_code":"52111","source_layer":"TN_RIVER_BNDRY","semantic":"zone","river_class":"소하천","river_class_source":"중심선 공간조인","survey_method":"사진측량"},"geometry":{"type":"Polygon","coordinates":[[[127.14817,35.79782],[127.14814,35.79781],[127.14812,35.79784],[127.14811,35.79789],[127.14819,35.7979],[127.14817,35.79782]]]}},{"type":"Feature","id":"TN_RIVER_BNDRY:WTR0100000002D3A9","properties":{"NF_ID":"WTR0100000002D3A9","admin_code":"52111","source_layer":"TN_RIVER_BNDRY","semantic":"zone","river_class":"국가하천","river_class_source":"중심선 공간조인","river_name":"전주천","river_code":"3210330","survey_method":"사진측량"},"geometry":{"type":"Polygon","coordinates":[[[127.16981,35.80231],[127.17039,35.80167],[127.16973,35.80156],[127.16943,35.80232],[127.16981,35.80231]]]}},{"type":"Feature","id":"TN_RIVER_BNDRY:WTR0100000002D3BA","properties":{"NF_ID":"WTR0100000002D3BA","admin_code":"52111","source_layer":"TN_RIVER_BNDRY","semantic":"zone","river_class":"지방하천","river_class_source":"중심선 공간조인","river_name":"원당천","river_code":"3220360","survey_method":"사진측량"},"geometry":{"type":"Polygon","coordinates":[[[127.16973,35.80156],[127.17039,35.80167],[127.17066,35.80155],[127.17063,35.80101],[127.17058,35.80153],[127.16973,35.80156]]]}},{"type":"Feature","id":"TN_RIVER_BNDRY:WTR0100000002D3CB","properties":{"NF_ID":"WTR0100000002D3CB","admin_code":"52111","source_layer":"TN_RIVER_BNDRY","semantic":"zone","river_class":"국가하천","river_class_source":"중심선 공간조인","river_name":"전주천","river_code":"3210330","survey_method":"사진측량"},"geometry":{"type":"Polygon","coordinates":[[[127.15846,35.81086],[127.15836,35.81094],[127.15821,35.81148],[127.1583,35.81151],[127.15846,35.81086]]]}},{"type":"Feature","id":"TN_RIVER_BNDRY:WTR0100000002D3DC","properties":{"NF_ID":"WTR0100000002D3DC","admin_code":"52111","source_layer":"TN_RIVER_BNDRY","semantic":"zone","river_class":"국가하천","river_class_source":"중심선 공간조인","river_name":"전주천","river_code":"3210330","survey_method":"사진측량"},"geometry":{"type":"Polygon","coordinates":[[[127.16943,35.80232],[127.16973,35.80156],[127.1686,35.80153],[127.16603,35.80209],[127.16498,35.80273],[127.16435,35.80348],[127.16297,35.80601],[127.16297,35.80725],[127.1626,35.80907],[127.16192,35.81052],[127.16118,35.8112],[127.16082,35.81118],[127.16073,35.81105],[127.15846,35.81086],[127.1583,35.81151],[127.16112,35.81189],[127.16218,35.81144],[127.16271,35.81087],[127.16311,35.80999],[127.16298,35.80979],[127.16317,35.80982],[127.1634,35.80927],[127.16322,35.80899],[127.16348,35.80851],[127.16375,35.80715],[127.16544,35.80346],[127.16645,35.80288],[127.16828,35.80242],[127.16943,35.80232]]]}},{"type":"Feature","id":"TN_RIVER_BNDRY:WTR0100000002D3ED","properties":{"NF_ID":"WTR0100000002D3ED","admin_code":"52111","source_layer":"TN_RIVER_BNDRY","semantic":"zone","river_class":"지방하천","river_class_source":"중심선 공간조인","river_name":"산성천","river_code":"3220370","survey_method":"사진측량"},"geometry":{"type":"Polygon","coordinates":[[[127.15846,35.81086],[127.15836,35.8091],[127.15868,35.80768],[127.15743,35.80607],[127.15667,35.80548],[127.15592,35.80444],[127.15517,35.80265],[127.15467,35.80221],[127.15445,35.80171],[127.15431,35.80096],[127.15452,35.8007],[127.15422,35.80015],[127.15413,35.8005],[127.15447,35.80069],[127.15426,35.80098],[127.15449,35.80204],[127.15508,35.80271],[127.15592,35.80461],[127.15857,35.80774],[127.15822,35.80942],[127.15836,35.81094],[127.15846,35.81086]]]}},{"type":"Feature","id":"TN_RIVER_BNDRY:WTR0100000002D3FE","properties":{"NF_ID":"WTR0100000002D3FE","admin_code":"52111","source_layer":"TN_RIVER_BNDRY","semantic":"zone","river_class":"지방하천","river_class_source":"중심선 공간조인","river_name":"원당천","river_code":"3220360","survey_method":"사진측량"},"geometry":{"type":"Polygon","coordinates":[[[127.1707,35.79927],[127.1708,35.79836],[127.1715,35.79696],[127.17152,35.79662],[127.17103,35.79619],[127.1709,35.79573],[127.17137,35.79377],[127.17083,35.79291],[127.17078,35.79252],[127.16966,35.79123],[127.16951,35.79076],[127.16962,35.79122],[127.17035,35.79198],[127.17131,35.79371],[127.1708,35.79589],[127.17095,35.79626],[127.17139,35.7966],[127.17144,35.79703],[127.17075,35.79832],[127.1707,35.79927]]]}},{"type":"Feature","id":"TN_RIVER_BNDRY:WTR0100000002D3IH","properties":{"NF_ID":"WTR0100000002D3IH","admin_code":"52111","source_layer":"TN_RIVER_BNDRY","semantic":"zone","river_class":"소하천","river_class_source":"중심선 공간조인","survey_method":"사진측량"},"geometry":{"type":"Polygon","coordinates":[[[127.19796,35.78691],[127.19648,35.78567],[127.19605,35.78562],[127.19651,35.78576],[127.19796,35.78691]]]}},{"type":"Feature","id":"TN_RIVER_BNDRY:WTR0100000002D3JI","properties":{"NF_ID":"WTR0100000002D3JI","admin_code":"52111","source_layer":"TN_RIVER_BNDRY","semantic":"zone","river_class":"국가하천","river_class_source":"중심선 공간조인","river_name":"전주천","river_code":"3210330","survey_method":"사진측량"},"geometry":{"type":"Polygon","coordinates":[[[127.19862,35.78774],[127.19796,35.78691],[127.19716,35.78771],[127.19347,35.79343],[127.19426,35.79375],[127.19725,35.78883],[127.19794,35.78811],[127.19862,35.78774]]]}},{"type":"Feature","id":"TN_RIVER_BNDRY:WTR0100000002D3KJ","properties":{"NF_ID":"WTR0100000002D3KJ","admin_code":"52111","source_layer":"TN_RIVER_BNDRY","semantic":"zone","river_class":"소하천","river_class_source":"중심선 공간조인","survey_method":"사진측량"},"geometry":{"type":"Polygon","coordinates":[[[127.1955,35.79384],[127.19574,35.79388],[127.19721,35.79334],[127.1955,35.79384]]]}},{"type":"Feature","id":"TN_RIVER_BNDRY:WTR0100000002D3LK","properties":{"NF_ID":"WTR0100000002D3LK","admin_code":"52111","source_layer":"TN_RIVER_BNDRY","semantic":"zone","river_class":"국가하천","river_class_source":"중심선 공간조인","river_name":"전주천","river_code":"3210330","survey_method":"사진측량"},"geometry":{"type":"Polygon","coordinates":[[[127.19422,35.79377],[127.19347,35.79343],[127.19333,35.7938],[127.19422,35.79377]]]}},{"type":"Feature","id":"TN_RIVER_BNDRY:WTR0100000002D3ML","properties":{"NF_ID":"WTR0100000002D3ML","admin_code":"52111","source_layer":"TN_RIVER_BNDRY","semantic":"zone","river_class":"소하천","river_class_source":"중심선 공간조인","survey_method":"사진측량"},"geometry":{"type":"Polygon","coordinates":[[[127.1955,35.79384],[127.19538,35.79382],[127.19531,35.79381],[127.19511,35.7938],[127.19486,35.79379],[127.19461,35.79377],[127.19437,35.79377],[127.19434,35.79377],[127.19434,35.79377],[127.1943,35.79378],[127.19429,35.79377],[127.19422,35.79377],[127.19431,35.79385],[127.19435,35.79384],[127.19448,35.79384],[127.19452,35.79384],[127.19462,35.79385],[127.19479,35.79386],[127.19494,35.79386],[127.1951,35.79387],[127.19526,35.79388],[127.19531,35.79388],[127.19536,35.79389],[127.19548,35.79391],[127.19555,35.79392],[127.1955,35.79384]]]}},{"type":"Feature","id":"TN_RIVER_BNDRY:WTR0100000002D3NM","properties":{"NF_ID":"WTR0100000002D3NM","admin_code":"52111","source_layer":"TN_RIVER_BNDRY","semantic":"zone","river_class":"소하천","river_class_source":"중심선 공간조인","survey_method":"사진측량"},"geometry":{"type":"Polygon","coordinates":[[[127.19571,35.79392],[127.19571,35.79391],[127.19571,35.7939],[127.19572,35.79389],[127.19574,35.79388],[127.1955,35.79384],[127.19555,35.79392],[127.19571,35.79392]]]}},{"type":"Feature","id":"TN_RIVER_BNDRY:WTR0100000002D3ON","properties":{"NF_ID":"WTR0100000002D3ON","admin_code":"52111","source_layer":"TN_RIVER_BNDRY","semantic":"zone","river_class":"국가하천","river_class_source":"중심선 공간조인","river_name":"전주천","river_code":"3210330","survey_method":"사진측량"},"geometry":{"type":"Polygon","coordinates":[[[127.17944,35.80114],[127.17912,35.80026],[127.17884,35.80034],[127.17912,35.80124],[127.17944,35.80114]]]}},{"type":"Feature","id":"TN_RIVER_BNDRY:WTR0100000002D3PO","properties":{"NF_ID":"WTR0100000002D3PO","admin_code":"52111","source_layer":"TN_RIVER_BNDRY","semantic":"zone","river_class":"소하천","river_class_source":"중심선 공간조인","survey_method":"사진측량"},"geometry":{"type":"Polygon","coordinates":[[[127.18888,35.79909],[127.19012,35.80019],[127.19062,35.80043],[127.1909,35.80149],[127.19241,35.80227],[127.19221,35.803],[127.19285,35.8035],[127.19293,35.80405],[127.19368,35.80448],[127.19423,35.80515],[127.19377,35.8045],[127.19305,35.80406],[127.19284,35.8034],[127.19229,35.80301],[127.19238,35.80217],[127.19172,35.80197],[127.19093,35.80146],[127.19065,35.80041],[127.19016,35.80017],[127.18888,35.79909]]]}},{"type":"Feature","id":"TN_RIVER_BNDRY:WTR0100000002D3QP","properties":{"NF_ID":"WTR0100000002D3QP","admin_code":"52111","source_layer":"TN_RIVER_BNDRY","semantic":"zone","river_class":"소하천","river_class_source":"중심선 공간조인","survey_method":"사진측량"},"geometry":{"type":"Polygon","coordinates":[[[127.1812,35.78566],[127.18032,35.78607],[127.17977,35.78609],[127.18034,35.78609],[127.1812,35.78566]]]}},{"type":"Feature","id":"TN_RIVER_BNDRY:WTR0100000002D3RQ","properties":{"NF_ID":"WTR0100000002D3RQ","admin_code":"52111","source_layer":"TN_RIVER_BNDRY","semantic":"zone","river_class":"소하천","river_class_source":"중심선 공간조인","survey_method":"사진측량"},"geometry":{"type":"Polygon","coordinates":[[[127.17912,35.80026],[127.17857,35.79929],[127.17878,35.7985],[127.17832,35.7948],[127.17842,35.79405],[127.17754,35.79183],[127.17843,35.7903],[127.17842,35.78906],[127.17939,35.78747],[127.17939,35.78635],[127.17975,35.78593],[127.17965,35.78566],[127.17911,35.78522],[127.17919,35.78448],[127.17871,35.78381],[127.17876,35.78417],[127.17913,35.78454],[127.17907,35.78524],[127.17968,35.78593],[127.17933,35.7864],[127.17927,35.78756],[127.17894,35.78785],[127.17885,35.7884],[127.17832,35.78908],[127.17837,35.79021],[127.17747,35.79184],[127.17831,35.79404],[127.1782,35.79474],[127.17865,35.79855],[127.17848,35.7993],[127.17884,35.80034],[127.17912,35.80026]]]}},{"type":"Feature","id":"TN_RIVER_BNDRY:WTR0100000002D3SR","properties":{"NF_ID":"WTR0100000002D3SR","admin_code":"52111","source_layer":"TN_RIVER_BNDRY","semantic":"zone","river_class":"국가하천","river_class_source":"중심선 공간조인","river_name":"전주천","river_code":"3210330","survey_method":"사진측량"},"geometry":{"type":"Polygon","coordinates":[[[127.18888,35.79909],[127.18833,35.79843],[127.18809,35.7985],[127.18888,35.79909]]]}},{"type":"Feature","id":"TN_RIVER_BNDRY:WTR0100000002D3XW","properties":{"NF_ID":"WTR0100000002D3XW","admin_code":"52111","source_layer":"TN_RIVER_BNDRY","semantic":"zone","river_class":"소하천","river_class_source":"중심선 공간조인","survey_method":"사진측량"},"geometry":{"type":"Polygon","coordinates":[[[127.14814,35.79781],[127.14838,35.7974],[127.14839,35.79685],[127.14888,35.7965],[127.1489,35.79573],[127.14867,35.79513],[127.14899,35.79437],[127.14867,35.79373],[127.14874,35.79301],[127.14918,35.79258],[127.14927,35.79228],[127.14926,35.79193],[127.14908,35.79181],[127.14912,35.79255],[127.1486,35.79324],[127.1486,35.79383],[127.1489,35.79442],[127.14857,35.79502],[127.14883,35.79574],[127.14871,35.79616],[127.14884,35.79649],[127.14838,35.7968],[127.14814,35.79781]]]}},{"type":"Feature","id":"TN_RIVER_BNDRY:WTR0100000002D3ZY","properties":{"NF_ID":"WTR0100000002D3ZY","admin_code":"52111","source_layer":"TN_RIVER_BNDRY","semantic":"zone","river_class":"소하천","river_class_source":"중심선 공간조인","survey_method":"사진측량"},"geometry":{"type":"Polygon","coordinates":[[[127.19571,35.79392],[127.19698,35.79476],[127.19902,35.79562],[127.20075,35.79608],[127.20048,35.79683],[127.20088,35.79696],[127.20136,35.7975],[127.2019,35.79742],[127.20199,35.79729],[127.20174,35.79671],[127.20116,35.79608],[127.19895,35.79551],[127.19698,35.7947],[127.19571,35.79392]]]}},{"type":"Feature","id":"TN_RIVER_BNDRY:WTR0100000002D400","properties":{"NF_ID":"WTR0100000002D400","admin_code":"52111","source_layer":"TN_RIVER_BNDRY","semantic":"zone","river_class":"국가하천","river_class_source":"중심선 공간조인","river_name":"전주천","river_code":"3210330","survey_method":"사진측량"},"geometry":{"type":"Polygon","coordinates":[[[127.19872,35.78756],[127.19796,35.78691],[127.19862,35.78774],[127.19872,35.78756]]]}},{"type":"Feature","id":"TN_RIVER_BNDRY:WTR0100000002D411","properties":{"NF_ID":"WTR0100000002D411","admin_code":"52111","source_layer":"TN_RIVER_BNDRY","semantic":"zone","river_class":"소하천","river_class_source":"중심선 공간조인","survey_method":"사진측량"},"geometry":{"type":"Polygon","coordinates":[[[127.19732,35.77991],[127.19826,35.77969],[127.1987,35.77978],[127.19872,35.77968],[127.19819,35.77965],[127.19717,35.77989],[127.19655,35.77967],[127.19555,35.77967],[127.19557,35.77979],[127.19654,35.77973],[127.19732,35.77991]]]}},{"type":"Feature","id":"TN_RIVER_BNDRY:WTR0100000002D433","properties":{"NF_ID":"WTR0100000002D433","admin_code":"52111","source_layer":"TN_RIVER_BNDRY","semantic":"zone","river_class":"지방하천","river_class_source":"중심선 공간조인","river_name":"삼천","river_code":"3210410","survey_method":"사진측량"},"geometry":{"type":"Polygon","coordinates":[[[127.12281,35.75282],[127.12193,35.75362],[127.12257,35.75558],[127.1225,35.75659],[127.12222,35.75739],[127.11789,35.76392],[127.11743,35.76495],[127.11705,35.76811],[127.11715,35.77154],[127.11701,35.7724],[127.11832,35.77262],[127.11838,35.77239],[127.11831,35.76678],[127.1186,35.76552],[127.12062,35.76233],[127.12277,35.75934],[127.12362,35.75738],[127.12377,35.75642],[127.12371,35.75482],[127.1231,35.75308],[127.12281,35.75282]]]}},{"type":"Feature","id":"TN_RIVER_BNDRY:WTR0100000002D455","properties":{"NF_ID":"WTR0100000002D455","admin_code":"52111","source_layer":"TN_RIVER_BNDRY","semantic":"zone","river_class":"지방하천","river_class_source":"중심선 공간조인","river_name":"삼천","river_code":"3210410","survey_method":"사진측량"},"geometry":{"type":"Polygon","coordinates":[[[127.12249,35.75269],[127.12206,35.75239],[127.12148,35.75293],[127.12175,35.75334],[127.12249,35.75269]]]}},{"type":"Feature","id":"TN_RIVER_BNDRY:WTR0100000002D534","properties":{"NF_ID":"WTR0100000002D534","admin_code":"52111","source_layer":"TN_RIVER_BNDRY","semantic":"zone","river_class":"소하천","river_class_source":"중심선 공간조인","survey_method":"사진측량"},"geometry":{"type":"Polygon","coordinates":[[[127.06663,35.7643],[127.06626,35.76412],[127.06533,35.76411],[127.06448,35.76338],[127.06333,35.76274],[127.06291,35.76201],[127.06236,35.76162],[127.06177,35.76072],[127.06126,35.76065],[127.06014,35.75998],[127.05983,35.75911],[127.06008,35.75998],[127.06199,35.76109],[127.06229,35.76163],[127.06289,35.76207],[127.06326,35.76272],[127.06439,35.76337],[127.06521,35.76412],[127.06663,35.7643]]]}},{"type":"Feature","id":"TN_RIVER_BNDRY:WTR0100000002D545","properties":{"NF_ID":"WTR0100000002D545","admin_code":"52111","source_layer":"TN_RIVER_BNDRY","semantic":"zone","river_class":"소하천","river_class_source":"중심선 공간조인","survey_method":"사진측량"},"geometry":{"type":"Polygon","coordinates":[[[127.06832,35.76568],[127.0685,35.76575],[127.06857,35.76546],[127.06832,35.76568]]]}},{"type":"Feature","id":"TN_RIVER_BNDRY:WTR0100000002D556","properties":{"NF_ID":"WTR0100000002D556","admin_code":"52111","source_layer":"TN_RIVER_BNDRY","semantic":"zone","river_class":"지방하천","river_class_source":"중심선 공간조인","river_name":"독배천","river_code":"3220470","survey_method":"사진측량"},"geometry":{"type":"Polygon","coordinates":[[[127.06832,35.76568],[127.0672,35.76526],[127.06679,35.76483],[127.06662,35.76437],[127.0667,35.7649],[127.06709,35.7653],[127.06825,35.76578],[127.06832,35.76568]]]}},{"type":"Feature","id":"TN_RIVER_BNDRY:WTR0100000002D567","properties":{"NF_ID":"WTR0100000002D567","admin_code":"52111","source_layer":"TN_RIVER_BNDRY","semantic":"zone","river_class":"지방하천","river_class_source":"중심선 공간조인","river_name":"독배천","river_code":"3220470","survey_method":"사진측량"},"geometry":{"type":"Polygon","coordinates":[[[127.0685,35.76575],[127.06825,35.76578],[127.0684,35.76589],[127.0685,35.76575]]]}},{"type":"Feature","id":"TN_RIVER_BNDRY:WTR0100000002D578","properties":{"NF_ID":"WTR0100000002D578","admin_code":"52111","source_layer":"TN_RIVER_BNDRY","semantic":"zone","river_class":"소하천","river_class_source":"중심선 공간조인","survey_method":"사진측량"},"geometry":{"type":"Polygon","coordinates":[[[127.06898,35.78918],[127.06856,35.78998],[127.06664,35.79011],[127.06609,35.79048],[127.06663,35.79017],[127.06859,35.79005],[127.06898,35.78918]]]}},{"type":"Feature","id":"TN_RIVER_BNDRY:WTR0100000002D589","properties":{"NF_ID":"WTR0100000002D589","admin_code":"52111","source_layer":"TN_RIVER_BNDRY","semantic":"zone","river_class":"지방하천","river_class_source":"중심선 공간조인","river_name":"독배천","river_code":"3220470","survey_method":"사진측량"},"geometry":{"type":"Polygon","coordinates":[[[127.06663,35.7643],[127.06687,35.76371],[127.06645,35.76325],[127.06609,35.76235],[127.06607,35.76153],[127.06583,35.76134],[127.06603,35.76176],[127.06604,35.76249],[127.06642,35.76337],[127.06677,35.76368],[127.06663,35.7643]]]}},{"type":"Feature","id":"TN_RIVER_BNDRY:WTR0100000002D59A","properties":{"NF_ID":"WTR0100000002D59A","admin_code":"52111","source_layer":"TN_RIVER_BNDRY","semantic":"zone","river_class":"소하천","river_class_source":"중심선 공간조인","survey_method":"사진측량"},"geometry":{"type":"Polygon","coordinates":[[[127.06064,35.75793],[127.06047,35.75796],[127.0605,35.75831],[127.05984,35.75903],[127.06029,35.75848],[127.06057,35.75836],[127.06064,35.75793]]]}},{"type":"Feature","id":"TN_RIVER_BNDRY:WTR0100000002D5AB","properties":{"NF_ID":"WTR0100000002D5AB","admin_code":"52111","source_layer":"TN_RIVER_BNDRY","semantic":"zone","river_class":"소하천","river_class_source":"중심선 공간조인","survey_method":"사진측량"},"geometry":{"type":"Polygon","coordinates":[[[127.06072,35.75791],[127.06073,35.75781],[127.06061,35.75784],[127.06064,35.75793],[127.06067,35.75792],[127.06072,35.75791]]]}},{"type":"Feature","id":"TN_RIVER_BNDRY:WTR0100000002D5BC","properties":{"NF_ID":"WTR0100000002D5BC","admin_code":"52111","source_layer":"TN_RIVER_BNDRY","semantic":"zone","river_class":"소하천","river_class_source":"중심선 공간조인","survey_method":"사진측량"},"geometry":{"type":"Polygon","coordinates":[[[127.06073,35.75781],[127.06072,35.75791],[127.06095,35.75785],[127.06073,35.75781]]]}},{"type":"Feature","id":"TN_RIVER_BNDRY:WTR0100000002D5CD","properties":{"NF_ID":"WTR0100000002D5CD","admin_code":"52111","source_layer":"TN_RIVER_BNDRY","semantic":"zone","river_class":"소하천","river_class_source":"중심선 공간조인","survey_method":"사진측량"},"geometry":{"type":"Polygon","coordinates":[[[127.05983,35.75911],[127.05916,35.75879],[127.05877,35.75918],[127.05766,35.75922],[127.0588,35.75926],[127.05912,35.75895],[127.05983,35.75911]]]}},{"type":"Feature","id":"TN_RIVER_BNDRY:WTR0100000002D5DE","properties":{"NF_ID":"WTR0100000002D5DE","admin_code":"52111","source_layer":"TN_RIVER_BNDRY","semantic":"zone","river_class":"소하천","river_class_source":"중심선 공간조인","survey_method":"사진측량"},"geometry":{"type":"Polygon","coordinates":[[[127.06073,35.75781],[127.06071,35.7578],[127.06071,35.75778],[127.06071,35.75777],[127.06071,35.75774],[127.06073,35.75772],[127.06075,35.75766],[127.06081,35.7576],[127.06082,35.75757],[127.06082,35.75756],[127.06082,35.75755],[127.06081,35.75755],[127.0608,35.75756],[127.06077,35.75759],[127.0607,35.75766],[127.06065,35.75772],[127.06064,35.75777],[127.06063,35.75779],[127.06062,35.75782],[127.06061,35.75784],[127.06073,35.75781]]]}},{"type":"Feature","id":"TN_RIVER_BNDRY:WTR0100000002D5EF","properties":{"NF_ID":"WTR0100000002D5EF","admin_code":"52111","source_layer":"TN_RIVER_BNDRY","semantic":"zone","river_class":"소하천","river_class_source":"중심선 공간조인","survey_method":"사진측량"},"geometry":{"type":"Polygon","coordinates":[[[127.05993,35.75905],[127.05984,35.75903],[127.05983,35.75911],[127.0599,35.75913],[127.05992,35.75908],[127.05993,35.75905]]]}},{"type":"Feature","id":"TN_RIVER_BNDRY:WTR0100000002D5FG","properties":{"NF_ID":"WTR0100000002D5FG","admin_code":"52111","source_layer":"TN_RIVER_BNDRY","semantic":"zone","river_class":"소하천","river_class_source":"중심선 공간조인","survey_method":"사진측량"},"geometry":{"type":"Polygon","coordinates":[[[127.06163,35.75713],[127.06177,35.75693],[127.06158,35.75711],[127.06129,35.75686],[127.06097,35.75688],[127.06163,35.75713]]]}},{"type":"Feature","id":"TN_RIVER_BNDRY:WTR0100000002D5LM","properties":{"NF_ID":"WTR0100000002D5LM","admin_code":"52111","source_layer":"TN_RIVER_BNDRY","semantic":"zone","river_class":"지방하천","river_class_source":"중심선 공간조인","river_name":"독배천","river_code":"3220470","survey_method":"사진측량"},"geometry":{"type":"Polygon","coordinates":[[[127.06671,35.76433],[127.06663,35.7643],[127.06662,35.76437],[127.06669,35.76439],[127.06669,35.76438],[127.06671,35.76433]]]}},{"type":"Feature","id":"TN_RIVER_BNDRY:WTR0100000002D5NO","properties":{"NF_ID":"WTR0100000002D5NO","admin_code":"52111","source_layer":"TN_RIVER_BNDRY","semantic":"zone","river_class":"소하천","river_class_source":"중심선 공간조인","survey_method":"사진측량"},"geometry":{"type":"Polygon","coordinates":[[[127.07239,35.76534],[127.07258,35.76644],[127.07226,35.7671],[127.07263,35.76644],[127.07239,35.76534]]]}},{"type":"Feature","id":"TN_RIVER_BNDRY:WTR0100000002D5PQ","properties":{"NF_ID":"WTR0100000002D5PQ","admin_code":"52111","source_layer":"TN_RIVER_BNDRY","semantic":"zone","river_class":"소하천","river_class_source":"중심선 공간조인","survey_method":"사진측량"},"geometry":{"type":"Polygon","coordinates":[[[127.06899,35.78911],[127.06898,35.78918],[127.06898,35.78918],[127.069,35.78918],[127.06922,35.78921],[127.06936,35.78921],[127.06943,35.78921],[127.06947,35.78918],[127.06949,35.78914],[127.06946,35.78916],[127.06943,35.78917],[127.0694,35.78917],[127.06926,35.78917],[127.06918,35.78916],[127.06902,35.78913],[127.06901,35.78913],[127.069,35.78912],[127.06899,35.78911]]]}},{"type":"Feature","id":"TN_RIVER_BNDRY:WTR0100000002D5RS","properties":{"NF_ID":"WTR0100000002D5RS","admin_code":"52111","source_layer":"TN_RIVER_BNDRY","semantic":"zone","river_class":"소하천","river_class_source":"중심선 공간조인","survey_method":"사진측량"},"geometry":{"type":"Polygon","coordinates":[[[127.06899,35.78911],[127.06891,35.7891],[127.06889,35.78917],[127.06898,35.78918],[127.06899,35.78911]]]}},{"type":"Feature","id":"TN_RIVER_BNDRY:WTR0100000002D5UV","properties":{"NF_ID":"WTR0100000002D5UV","admin_code":"52111","source_layer":"TN_RIVER_BNDRY","semantic":"zone","river_class":"지방하천","river_class_source":"중심선 공간조인","river_name":"독배천","river_code":"3220470","survey_method":"사진측량"},"geometry":{"type":"Polygon","coordinates":[[[127.08481,35.7715],[127.08477,35.77132],[127.08412,35.77138],[127.08239,35.77101],[127.08152,35.77025],[127.07915,35.7695],[127.07797,35.76943],[127.07722,35.76969],[127.07637,35.76973],[127.07608,35.76953],[127.07531,35.76807],[127.07524,35.76822],[127.07418,35.76762],[127.07306,35.7673],[127.07134,35.76712],[127.06892,35.76623],[127.0685,35.76575],[127.0684,35.76589],[127.06871,35.76633],[127.07119,35.76724],[127.07298,35.76742],[127.07454,35.76799],[127.07545,35.76862],[127.07622,35.76982],[127.07715,35.76984],[127.07798,35.76955],[127.07921,35.76966],[127.08137,35.77035],[127.08227,35.77117],[127.08397,35.77155],[127.08481,35.7715]]]}},{"type":"Feature","id":"TN_RIVER_BNDRY:WTR0100000002D5XY","properties":{"NF_ID":"WTR0100000002D5XY","admin_code":"52111","source_layer":"TN_RIVER_BNDRY","semantic":"zone","river_class":"소하천","river_class_source":"중심선 공간조인","survey_method":"사진측량"},"geometry":{"type":"Polygon","coordinates":[[[127.06891,35.7891],[127.07015,35.78808],[127.07004,35.78739],[127.07078,35.78631],[127.07139,35.78483],[127.07349,35.78381],[127.07375,35.78347],[127.07364,35.78307],[127.07377,35.78292],[127.07451,35.78291],[127.0752,35.78268],[127.07544,35.78296],[127.07523,35.78262],[127.07447,35.78287],[127.07354,35.78288],[127.07373,35.78338],[127.07355,35.7837],[127.07131,35.78482],[127.07073,35.78628],[127.06997,35.78737],[127.07009,35.78804],[127.06891,35.7891]]]}},{"type":"Feature","id":"TN_RIVER_BNDRY:WTR0100000002DCNV","properties":{"NF_ID":"WTR0100000002DCNV","admin_code":"52111","source_layer":"TN_RIVER_BNDRY","semantic":"zone","river_class":"국가하천","river_class_source":"중심선 공간조인","river_name":"전주천","river_code":"3210330","survey_method":"사진측량"},"geometry":{"type":"Polygon","coordinates":[[[127.12455,35.83432],[127.12708,35.83239],[127.12804,35.83092],[127.12825,35.83014],[127.12924,35.82864],[127.12992,35.82716],[127.13225,35.82388],[127.13194,35.82381],[127.12981,35.82676],[127.12881,35.82873],[127.12602,35.83275],[127.12514,35.83334],[127.12513,35.83354],[127.12369,35.83436],[127.12455,35.83432]]]}},{"type":"Feature","id":"TN_RIVER_BNDRY:WTR0100000002DCPX","properties":{"NF_ID":"WTR0100000002DCPX","admin_code":"52111","source_layer":"TN_RIVER_BNDRY","semantic":"zone","river_class":"국가하천","river_class_source":"중심선 공간조인","river_name":"전주천","river_code":"3210330","survey_method":"사진측량"},"geometry":{"type":"Polygon","coordinates":[[[127.13227,35.82386],[127.13199,35.82375],[127.13198,35.82376],[127.13194,35.82381],[127.13225,35.82388],[127.13227,35.82386]]]}},{"type":"Feature","id":"TN_RIVER_BNDRY:WTR0100000002DCQY","properties":{"NF_ID":"WTR0100000002DCQY","admin_code":"52111","source_layer":"TN_RIVER_BNDRY","semantic":"zone","river_class":"소하천","river_class_source":"중심선 공간조인","survey_method":"사진측량"},"geometry":{"type":"Polygon","coordinates":[[[127.13227,35.82386],[127.13253,35.8238],[127.13309,35.82309],[127.13227,35.82386]]]}},{"type":"Feature","id":"TN_RIVER_BNDRY:WTR0100000002DCRZ","properties":{"NF_ID":"WTR0100000002DCRZ","admin_code":"52111","source_layer":"TN_RIVER_BNDRY","semantic":"zone","river_class":"소하천","river_class_source":"중심선 공간조인","survey_method":"사진측량"},"geometry":{"type":"Polygon","coordinates":[[[127.14403,35.82518],[127.14399,35.82513],[127.14398,35.82513],[127.14357,35.82532],[127.14333,35.82543],[127.14331,35.82544],[127.14334,35.82549],[127.14336,35.82549],[127.1436,35.82538],[127.14402,35.82518],[127.14403,35.82518]]]}},{"type":"Feature","id":"TN_RIVER_BNDRY:WTR0100000002DCS0","properties":{"NF_ID":"WTR0100000002DCS0","admin_code":"52111","source_layer":"TN_RIVER_BNDRY","semantic":"zone","river_class":"소하천","river_class_source":"중심선 공간조인","survey_method":"사진측량"},"geometry":{"type":"Polygon","coordinates":[[[127.14317,35.82566],[127.14309,35.82562],[127.14303,35.82567],[127.14298,35.82573],[127.14291,35.82583],[127.1429,35.82586],[127.14276,35.82603],[127.14255,35.82629],[127.14263,35.82634],[127.14299,35.82591],[127.143,35.82588],[127.14313,35.82572],[127.14317,35.82566]]]}},{"type":"Feature","id":"TN_RIVER_BNDRY:WTR0100000002DCT1","properties":{"NF_ID":"WTR0100000002DCT1","admin_code":"52111","source_layer":"TN_RIVER_BNDRY","semantic":"zone","river_class":"소하천","river_class_source":"중심선 공간조인","survey_method":"사진측량"},"geometry":{"type":"Polygon","coordinates":[[[127.14238,35.82662],[127.14231,35.82657],[127.1423,35.82659],[127.14209,35.82685],[127.14187,35.82712],[127.14185,35.82715],[127.14142,35.82768],[127.14141,35.8277],[127.14148,35.82774],[127.14192,35.82719],[127.14194,35.82716],[127.14212,35.82693],[127.14237,35.82664],[127.14238,35.82662]]]}},{"type":"Feature","id":"TN_RIVER_BNDRY:WTR0100000002DCU2","properties":{"NF_ID":"WTR0100000002DCU2","admin_code":"52111","source_layer":"TN_RIVER_BNDRY","semantic":"zone","river_class":"국가하천","river_class_source":"중심선 공간조인","river_name":"전주천","river_code":"3210330","survey_method":"사진측량"},"geometry":{"type":"Polygon","coordinates":[[[127.10583,35.84291],[127.10559,35.8416],[127.10309,35.84212],[127.10309,35.84284],[127.10354,35.84332],[127.10583,35.84291]]]}},{"type":"Feature","id":"TN_RIVER_BNDRY:WTR0100000002DR2P","properties":{"NF_ID":"WTR0100000002DR2P","admin_code":"52111","source_layer":"TN_RIVER_BNDRY","semantic":"zone","river_class":"지방하천","river_class_source":"중심선 공간조인","river_name":"삼천","river_code":"3210410","survey_method":"사진측량"},"geometry":{"type":"Polygon","coordinates":[[[127.10559,35.8416],[127.10523,35.84138],[127.10521,35.84109],[127.10644,35.83695],[127.10671,35.83688],[127.10646,35.83688],[127.10649,35.83535],[127.10618,35.83247],[127.10639,35.83211],[127.10725,35.83159],[127.10865,35.83098],[127.10887,35.83123],[127.10871,35.83095],[127.10993,35.83039],[127.11102,35.82944],[127.1132,35.825],[127.11354,35.82399],[127.11358,35.82243],[127.11292,35.81534],[127.11205,35.81274],[127.1115,35.80995],[127.11168,35.80962],[127.11005,35.80713],[127.10919,35.80707],[127.10953,35.80798],[127.11088,35.81004],[127.11162,35.81377],[127.11223,35.81536],[127.1123,35.81587],[127.11211,35.81586],[127.11231,35.81594],[127.11263,35.81948],[127.11242,35.81933],[127.11241,35.81943],[127.11265,35.81962],[127.11291,35.8237],[127.11267,35.82467],[127.11026,35.82943],[127.10896,35.83041],[127.10707,35.83107],[127.10567,35.83189],[127.10531,35.83148],[127.10514,35.83155],[127.10544,35.83206],[127.10491,35.83383],[127.10535,35.83487],[127.10547,35.83669],[127.10493,35.83874],[127.10442,35.83885],[127.10414,35.83929],[127.1045,35.83996],[127.10322,35.84147],[127.10309,35.8419],[127.10314,35.84212],[127.10559,35.8416]]]}},{"type":"Feature","id":"TN_RIVER_BNDRY:WTR0100000002DR3Q","properties":{"NF_ID":"WTR0100000002DR3Q","admin_code":"52111","source_layer":"TN_RIVER_BNDRY","semantic":"zone","river_class":"국가하천","river_class_source":"중심선 공간조인","river_name":"전주천","river_code":"3210330","survey_method":"사진측량"},"geometry":{"type":"Polygon","coordinates":[[[127.15821,35.81148],[127.15836,35.81094],[127.15814,35.81115],[127.15677,35.81087],[127.15467,35.81077],[127.15171,35.81035],[127.14915,35.8106],[127.14907,35.81046],[127.14885,35.8107],[127.14476,35.81207],[127.14147,35.81245],[127.13971,35.81291],[127.13875,35.81373],[127.13885,35.81608],[127.13859,35.81689],[127.13773,35.81843],[127.13709,35.81918],[127.13295,35.8227],[127.13199,35.82375],[127.13227,35.82386],[127.13787,35.81878],[127.13903,35.81667],[127.13921,35.81583],[127.13918,35.81395],[127.13944,35.81343],[127.13985,35.81316],[127.14143,35.81273],[127.14477,35.81235],[127.14918,35.81088],[127.15107,35.81059],[127.15221,35.81064],[127.1548,35.81107],[127.15668,35.81109],[127.15821,35.81148]]]}},{"type":"Feature","id":"TN_RIVER_BNDRY:WTR0100000002DR7U","properties":{"NF_ID":"WTR0100000002DR7U","admin_code":"52111","source_layer":"TN_RIVER_BNDRY","semantic":"zone","river_class":"소하천","river_class_source":"중심선 공간조인","survey_method":"사진측량"},"geometry":{"type":"Polygon","coordinates":[[[127.08091,35.75],[127.08078,35.75],[127.08125,35.75052],[127.08091,35.75]]]}},{"type":"Feature","id":"TN_RIVER_BNDRY:WTR0100000002DRF2","properties":{"NF_ID":"WTR0100000002DRF2","admin_code":"52111","source_layer":"TN_RIVER_BNDRY","semantic":"zone","river_class":"지방하천","river_class_source":"중심선 공간조인","river_name":"삼천","river_code":"3210410","survey_method":"사진측량"},"geometry":{"type":"Polygon","coordinates":[[[127.12206,35.75239],[127.12128,35.75106],[127.12121,35.75],[127.12058,35.75],[127.12051,35.75129],[127.12134,35.75271],[127.12148,35.75293],[127.12206,35.75239]]]}}]}