{"type":"FeatureCollection","features":[{"type":"Feature","id":"TN_RIVER_BNDRY:WTR0100000001LPVN","properties":{"NF_ID":"WTR0100000001LPVN","admin_code":"26530","source_layer":"TN_RIVER_BNDRY","semantic":"zone","river_class":"소하천","river_class_source":"중심선 공간조인","survey_method":"사진측량"},"geometry":{"type":"Polygon","coordinates":[[[129.01332,35.14208],[129.0133,35.14206],[129.01323,35.14209],[129.01318,35.14211],[129.01312,35.14213],[129.01305,35.14216],[129.01302,35.14218],[129.013,35.14219],[129.01299,35.1422],[129.01298,35.14222],[129.01298,35.14222],[129.01297,35.14223],[129.01296,35.14224],[129.01287,35.14232],[129.01293,35.14227],[129.01297,35.14225],[129.01301,35.14225],[129.01305,35.14223],[129.01307,35.14222],[129.01308,35.14221],[129.01309,35.1422],[129.01313,35.14216],[129.01317,35.14214],[129.01327,35.1421],[129.01329,35.1421],[129.0133,35.14209],[129.01332,35.14208]]]}},{"type":"Feature","id":"TN_RIVER_BNDRY:WTR0100000001LQE7","properties":{"NF_ID":"WTR0100000001LQE7","admin_code":"26530","source_layer":"TN_RIVER_BNDRY","semantic":"zone","river_class":"소하천","river_class_source":"중심선 공간조인","survey_method":"사진측량"},"geometry":{"type":"Polygon","coordinates":[[[129.00862,35.15144],[129.00907,35.15125],[129.00842,35.15143],[129.00626,35.15105],[129.00862,35.15144]]]}},{"type":"Feature","id":"TN_RIVER_BNDRY:WTR0100000001LQF8","properties":{"NF_ID":"WTR0100000001LQF8","admin_code":"26530","source_layer":"TN_RIVER_BNDRY","semantic":"zone","river_class":"소하천","river_class_source":"중심선 공간조인","survey_method":"사진측량"},"geometry":{"type":"Polygon","coordinates":[[[129.00671,35.15185],[129.0076,35.15218],[129.00767,35.15235],[129.00762,35.15216],[129.00671,35.15185]]]}},{"type":"Feature","id":"TN_RIVER_BNDRY:WTR0100000001LQG9","properties":{"NF_ID":"WTR0100000001LQG9","admin_code":"26530","source_layer":"TN_RIVER_BNDRY","semantic":"zone","river_class":"소하천","river_class_source":"중심선 공간조인","survey_method":"사진측량"},"geometry":{"type":"Polygon","coordinates":[[[129.00488,35.18154],[129.00476,35.18147],[129.00455,35.18171],[129.004,35.18174],[129.00325,35.18217],[129.00279,35.18216],[129.0026,35.1823],[129.00332,35.18221],[129.00408,35.18181],[129.00454,35.1818],[129.00488,35.18154]]]}},{"type":"Feature","id":"TN_RIVER_BNDRY:WTR0100000001LQHA","properties":{"NF_ID":"WTR0100000001LQHA","admin_code":"26530","source_layer":"TN_RIVER_BNDRY","semantic":"zone","river_class":"소하천","river_class_source":"중심선 공간조인","survey_method":"사진측량"},"geometry":{"type":"Polygon","coordinates":[[[129.00412,35.18452],[129.00412,35.18452],[129.00412,35.18452],[129.00411,35.18452],[129.00409,35.18454],[129.00406,35.18456],[129.00405,35.18457],[129.00401,35.1846],[129.00402,35.18463],[129.00408,35.1846],[129.00409,35.1846],[129.00411,35.18457],[129.00412,35.18455],[129.00412,35.18454],[129.00413,35.18453],[129.00412,35.18452],[129.00412,35.18452]]]}},{"type":"Feature","id":"TN_RIVER_BNDRY:WTR0100000001LQIB","properties":{"NF_ID":"WTR0100000001LQIB","admin_code":"26530","source_layer":"TN_RIVER_BNDRY","semantic":"zone","river_class":"소하천","river_class_source":"중심선 공간조인","survey_method":"사진측량"},"geometry":{"type":"Polygon","coordinates":[[[129.00491,35.18149],[129.00488,35.18154],[129.00489,35.18154],[129.0049,35.18154],[129.00492,35.18154],[129.00495,35.18152],[129.00496,35.18152],[129.00499,35.18151],[129.00499,35.1815],[129.00499,35.1815],[129.00499,35.1815],[129.00499,35.1815],[129.00499,35.1815],[129.00497,35.18149],[129.00495,35.18149],[129.00492,35.18149],[129.00491,35.18149]]]}},{"type":"Feature","id":"TN_RIVER_BNDRY:WTR0100000001LQJC","properties":{"NF_ID":"WTR0100000001LQJC","admin_code":"26530","source_layer":"TN_RIVER_BNDRY","semantic":"zone","river_class":"소하천","river_class_source":"중심선 공간조인","survey_method":"사진측량"},"geometry":{"type":"Polygon","coordinates":[[[129.00491,35.18149],[129.0049,35.18149],[129.00488,35.18149],[129.00487,35.18148],[129.00486,35.18148],[129.00485,35.18146],[129.00484,35.18145],[129.00483,35.18144],[129.00476,35.18147],[129.00488,35.18154],[129.00491,35.18149]]]}},{"type":"Feature","id":"TN_RIVER_BNDRY:WTR0100000001LQKD","properties":{"NF_ID":"WTR0100000001LQKD","admin_code":"26530","source_layer":"TN_RIVER_BNDRY","semantic":"zone","river_class":"소하천","river_class_source":"중심선 공간조인","survey_method":"사진측량"},"geometry":{"type":"Polygon","coordinates":[[[129.00483,35.18144],[129.00483,35.18143],[129.00482,35.18141],[129.00482,35.1814],[129.00481,35.18137],[129.00481,35.18136],[129.00481,35.18135],[129.00481,35.18134],[129.00481,35.18132],[129.00482,35.18132],[129.00481,35.1813],[129.00481,35.1813],[129.0048,35.18129],[129.0048,35.18129],[129.00479,35.18129],[129.00478,35.1813],[129.00477,35.1813],[129.00475,35.18131],[129.00475,35.18133],[129.00475,35.18135],[129.00475,35.18137],[129.00475,35.18139],[129.00476,35.18142],[129.00476,35.18145],[129.00476,35.18146],[129.00476,35.18147],[129.00483,35.18144]]]}},{"type":"Feature","id":"TN_RIVER_BNDRY:WTR0100000001LQLE","properties":{"NF_ID":"WTR0100000001LQLE","admin_code":"26530","source_layer":"TN_RIVER_BNDRY","semantic":"zone","river_class":"소하천","river_class_source":"중심선 공간조인","survey_method":"사진측량"},"geometry":{"type":"Polygon","coordinates":[[[129.00178,35.16441],[129.00226,35.16422],[129.00158,35.16436],[129.00164,35.1645],[129.00178,35.16441]]]}},{"type":"Feature","id":"TN_RIVER_BNDRY:WTR0100000001LQNG","properties":{"NF_ID":"WTR0100000001LQNG","admin_code":"26530","source_layer":"TN_RIVER_BNDRY","semantic":"zone","river_class":"소하천","river_class_source":"중심선 공간조인","survey_method":"사진측량"},"geometry":{"type":"Polygon","coordinates":[[[129.01404,35.15192],[129.01363,35.15164],[129.01279,35.15174],[129.0136,35.15169],[129.01399,35.15195],[129.01506,35.15201],[129.01404,35.15192]]]}},{"type":"Feature","id":"TN_RIVER_BNDRY:WTR0100000001LQOH","properties":{"NF_ID":"WTR0100000001LQOH","admin_code":"26530","source_layer":"TN_RIVER_BNDRY","semantic":"zone","river_class":"소하천","river_class_source":"중심선 공간조인","survey_method":"사진측량"},"geometry":{"type":"Polygon","coordinates":[[[129.01057,35.15153],[129.01099,35.15149],[129.011,35.15139],[129.01025,35.1515],[129.00982,35.15132],[129.01018,35.15157],[129.01057,35.15153]]]}},{"type":"Feature","id":"TN_RIVER_BNDRY:WTR0100000001LQPI","properties":{"NF_ID":"WTR0100000001LQPI","admin_code":"26530","source_layer":"TN_RIVER_BNDRY","semantic":"zone","river_class":"소하천","river_class_source":"중심선 공간조인","survey_method":"사진측량"},"geometry":{"type":"Polygon","coordinates":[[[129.00671,35.18594],[129.00752,35.18587],[129.0075,35.18577],[129.0082,35.18563],[129.00914,35.18485],[129.00817,35.18549],[129.00682,35.18583],[129.00585,35.18592],[129.00416,35.18573],[129.00451,35.18598],[129.00588,35.18605],[129.00671,35.18594]]]}},{"type":"Feature","id":"TN_RIVER_BNDRY:WTR0100000001LQZS","properties":{"NF_ID":"WTR0100000001LQZS","admin_code":"26530","source_layer":"TN_RIVER_BNDRY","semantic":"zone","river_class":"소하천","river_class_source":"중심선 공간조인","survey_method":"사진측량"},"geometry":{"type":"Polygon","coordinates":[[[129.00129,35.1697],[129.0,35.16952],[129.0,35.16965],[129.0007,35.16975],[129.00129,35.1697]]]}},{"type":"Feature","id":"TN_RIVER_BNDRY:WTR0100000001Q71G","properties":{"NF_ID":"WTR0100000001Q71G","admin_code":"26530","source_layer":"TN_RIVER_BNDRY","semantic":"zone","river_class":"지방하천","river_class_source":"중심선 공간조인","river_name":"학장천","river_code":"2027680","survey_method":"사진측량"},"geometry":{"type":"Polygon","coordinates":[[[128.98908,35.14362],[128.98901,35.14372],[128.99007,35.14431],[128.99397,35.1458],[128.99737,35.14778],[128.99965,35.14836],[128.9997,35.14817],[128.99755,35.14752],[128.99349,35.14536],[128.98908,35.14362]]]}},{"type":"Feature","id":"TN_RIVER_BNDRY:WTR0100000001Q72H","properties":{"NF_ID":"WTR0100000001Q72H","admin_code":"26530","source_layer":"TN_RIVER_BNDRY","semantic":"zone","river_class":"소하천","river_class_source":"중심선 공간조인","survey_method":"사진측량"},"geometry":{"type":"Polygon","coordinates":[[[128.99891,35.13388],[128.99965,35.13372],[128.9988,35.13385],[128.99815,35.13418],[128.99891,35.13388]]]}},{"type":"Feature","id":"TN_RIVER_BNDRY:WTR0100000001Q73I","properties":{"NF_ID":"WTR0100000001Q73I","admin_code":"26530","source_layer":"TN_RIVER_BNDRY","semantic":"zone","river_class":"소하천","river_class_source":"중심선 공간조인","survey_method":"사진측량"},"geometry":{"type":"Polygon","coordinates":[[[128.99934,35.16889],[128.99869,35.16852],[128.99786,35.16829],[128.99897,35.16871],[128.99941,35.16909],[128.99934,35.16889]]]}},{"type":"Feature","id":"TN_RIVER_BNDRY:WTR0100000001Q74J","properties":{"NF_ID":"WTR0100000001Q74J","admin_code":"26530","source_layer":"TN_RIVER_BNDRY","semantic":"zone","river_class":"소하천","river_class_source":"중심선 공간조인","survey_method":"사진측량"},"geometry":{"type":"Polygon","coordinates":[[[128.99711,35.17014],[128.99699,35.16995],[128.99678,35.17009],[128.99704,35.1702],[128.99684,35.1706],[128.99816,35.17234],[128.99779,35.17167],[128.9974,35.17138],[128.99724,35.17083],[128.99691,35.17058],[128.99711,35.17014]]]}},{"type":"Feature","id":"TN_RIVER_BNDRY:WTR0100000001Q75K","properties":{"NF_ID":"WTR0100000001Q75K","admin_code":"26530","source_layer":"TN_RIVER_BNDRY","semantic":"zone","river_class":"소하천","river_class_source":"중심선 공간조인","survey_method":"사진측량"},"geometry":{"type":"Polygon","coordinates":[[[128.99267,35.1653],[128.99305,35.16503],[128.99358,35.16506],[128.99377,35.16489],[128.99434,35.16489],[128.99466,35.16507],[128.99517,35.16482],[128.99667,35.16487],[128.99704,35.16474],[128.99734,35.1649],[128.99781,35.1649],[128.99842,35.16465],[128.99778,35.16485],[128.99705,35.16471],[128.99662,35.16485],[128.9952,35.16476],[128.99465,35.16504],[128.99435,35.16487],[128.99376,35.16488],[128.99357,35.16504],[128.99309,35.16499],[128.99259,35.1653],[128.99141,35.16523],[128.99099,35.16496],[128.99138,35.1653],[128.99267,35.1653]]]}},{"type":"Feature","id":"TN_RIVER_BNDRY:WTR0100000001QBO7","properties":{"NF_ID":"WTR0100000001QBO7","admin_code":"26530","source_layer":"TN_RIVER_BNDRY","semantic":"zone","river_class":"소하천","river_class_source":"중심선 공간조인","survey_method":"사진측량"},"geometry":{"type":"Polygon","coordinates":[[[128.98896,35.14357],[128.98908,35.14362],[128.98931,35.1432],[128.98949,35.14127],[128.99056,35.14064],[128.99075,35.14009],[128.98934,35.14133],[128.98925,35.14309],[128.98896,35.14357]]]}},{"type":"Feature","id":"TN_RIVER_BNDRY:WTR0100000001QBP8","properties":{"NF_ID":"WTR0100000001QBP8","admin_code":"26530","source_layer":"TN_RIVER_BNDRY","semantic":"zone","river_class":"소하천","river_class_source":"중심선 공간조인","survey_method":"사진측량"},"geometry":{"type":"Polygon","coordinates":[[[128.99588,35.13083],[128.9965,35.13193],[128.99667,35.13281],[128.99657,35.13304],[128.99694,35.13383],[128.99614,35.13539],[128.997,35.13385],[128.99671,35.13325],[128.99651,35.13184],[128.99588,35.13083]]]}},{"type":"Feature","id":"TN_RIVER_BNDRY:WTR0100000001QGWK","properties":{"NF_ID":"WTR0100000001QGWK","admin_code":"26530","source_layer":"TN_RIVER_BNDRY","semantic":"zone","river_class":"소하천","river_class_source":"중심선 공간조인","survey_method":"사진측량"},"geometry":{"type":"Polygon","coordinates":[[[128.99538,35.13748],[128.99565,35.13701],[128.99644,35.13631],[128.99637,35.13616],[128.99554,35.13706],[128.99521,35.13753],[128.99538,35.13748]]]}},{"type":"Feature","id":"TN_RIVER_BNDRY:WTR0100000001QGXL","properties":{"NF_ID":"WTR0100000001QGXL","admin_code":"26530","source_layer":"TN_RIVER_BNDRY","semantic":"zone","river_class":"지방하천","river_class_source":"중심선 공간조인","river_name":"학장천","river_code":"2027680","survey_method":"사진측량"},"geometry":{"type":"Polygon","coordinates":[[[128.98896,35.14357],[128.98871,35.14357],[128.98844,35.14334],[128.98837,35.14344],[128.98886,35.14368],[128.98896,35.14357]]]}},{"type":"Feature","id":"TN_RIVER_BNDRY:WTR0100000001QGYM","properties":{"NF_ID":"WTR0100000001QGYM","admin_code":"26530","source_layer":"TN_RIVER_BNDRY","semantic":"zone","river_class":"지방하천","river_class_source":"중심선 공간조인","river_name":"학장천","river_code":"2027680","survey_method":"사진측량"},"geometry":{"type":"Polygon","coordinates":[[[128.98908,35.14362],[128.98896,35.14357],[128.98886,35.14368],[128.9889,35.14369],[128.98897,35.14371],[128.98901,35.14372],[128.98908,35.14362]]]}},{"type":"Feature","id":"TN_RIVER_BNDRY:WTR0100000001QGZN","properties":{"NF_ID":"WTR0100000001QGZN","admin_code":"26530","source_layer":"TN_RIVER_BNDRY","semantic":"zone","river_class":"소하천","river_class_source":"중심선 공간조인","survey_method":"사진측량"},"geometry":{"type":"Polygon","coordinates":[[[128.99239,35.13824],[128.99253,35.13848],[128.99234,35.13885],[128.99265,35.13853],[128.99239,35.13824]]]}},{"type":"Feature","id":"TN_RIVER_BNDRY:WTR0100000001QH0P","properties":{"NF_ID":"WTR0100000001QH0P","admin_code":"26530","source_layer":"TN_RIVER_BNDRY","semantic":"zone","river_class":"소하천","river_class_source":"중심선 공간조인","survey_method":"사진측량"},"geometry":{"type":"Polygon","coordinates":[[[128.96953,35.13146],[128.96878,35.13191],[128.96827,35.13254],[128.96888,35.13253],[128.96897,35.13279],[128.96929,35.13284],[128.96884,35.13239],[128.96858,35.13253],[128.96846,35.13241],[128.9688,35.13225],[128.96877,35.13194],[128.96953,35.13146]]]}},{"type":"Feature","id":"TN_RIVER_BNDRY:WTR0100000001QH1Q","properties":{"NF_ID":"WTR0100000001QH1Q","admin_code":"26530","source_layer":"TN_RIVER_BNDRY","semantic":"zone","river_class":"지방하천","river_class_source":"중심선 공간조인","river_name":"감전천","survey_method":"사진측량"},"geometry":{"type":"Polygon","coordinates":[[[128.96984,35.13136],[128.96953,35.13112],[128.96938,35.13122],[128.96951,35.13145],[128.96984,35.13136]]]}},{"type":"Feature","id":"TN_RIVER_BNDRY:WTR0100000001QH2R","properties":{"NF_ID":"WTR0100000001QH2R","admin_code":"26530","source_layer":"TN_RIVER_BNDRY","semantic":"zone","river_class":"지방하천","river_class_source":"중심선 공간조인","river_name":"감전천","survey_method":"사진측량"},"geometry":{"type":"Polygon","coordinates":[[[128.96984,35.13136],[128.96951,35.13145],[128.96994,35.13147],[128.96984,35.13136]]]}},{"type":"Feature","id":"TN_RIVER_BNDRY:WTR0100000001QH3S","properties":{"NF_ID":"WTR0100000001QH3S","admin_code":"26530","source_layer":"TN_RIVER_BNDRY","semantic":"zone","river_class":"소하천","river_class_source":"중심선 공간조인","survey_method":"사진측량"},"geometry":{"type":"Polygon","coordinates":[[[128.97019,35.13114],[128.97019,35.13114],[128.97017,35.13109],[128.97016,35.13107],[128.97014,35.13103],[128.97013,35.13103],[128.97008,35.13094],[128.97006,35.1309],[128.97004,35.13088],[128.97002,35.13088],[128.97002,35.13089],[128.97004,35.13092],[128.97011,35.13104],[128.97011,35.13104],[128.97014,35.13109],[128.97015,35.1311],[128.97016,35.13116],[128.97019,35.13114]]]}},{"type":"Feature","id":"TN_RIVER_BNDRY:WTR0100000001QH4T","properties":{"NF_ID":"WTR0100000001QH4T","admin_code":"26530","source_layer":"TN_RIVER_BNDRY","semantic":"zone","river_class":"소하천","river_class_source":"중심선 공간조인","survey_method":"사진측량"},"geometry":{"type":"Polygon","coordinates":[[[128.97019,35.13114],[128.9702,35.13119],[128.97044,35.13104],[128.97045,35.13104],[128.97042,35.131],[128.97041,35.13101],[128.97019,35.13114]]]}},{"type":"Feature","id":"TN_RIVER_BNDRY:WTR0100000001QH5U","properties":{"NF_ID":"WTR0100000001QH5U","admin_code":"26530","source_layer":"TN_RIVER_BNDRY","semantic":"zone","river_class":"소하천","river_class_source":"중심선 공간조인","survey_method":"사진측량"},"geometry":{"type":"Polygon","coordinates":[[[128.9702,35.13119],[128.97019,35.13114],[128.97016,35.13116],[128.97018,35.1312],[128.97019,35.1312],[128.9702,35.13119]]]}},{"type":"Feature","id":"TN_RIVER_BNDRY:WTR0100000001QH6V","properties":{"NF_ID":"WTR0100000001QH6V","admin_code":"26530","source_layer":"TN_RIVER_BNDRY","semantic":"zone","river_class":"소하천","river_class_source":"중심선 공간조인","survey_method":"사진측량"},"geometry":{"type":"Polygon","coordinates":[[[128.96711,35.12915],[128.96705,35.12904],[128.96707,35.12919],[128.96737,35.12921],[128.96711,35.12915]]]}},{"type":"Feature","id":"TN_RIVER_BNDRY:WTR0100000001QH7W","properties":{"NF_ID":"WTR0100000001QH7W","admin_code":"26530","source_layer":"TN_RIVER_BNDRY","semantic":"zone","river_class":"소하천","river_class_source":"중심선 공간조인","survey_method":"사진측량"},"geometry":{"type":"Polygon","coordinates":[[[128.96856,35.12915],[128.96853,35.12903],[128.96833,35.12907],[128.96839,35.12923],[128.96856,35.12915]]]}},{"type":"Feature","id":"TN_RIVER_BNDRY:WTR0100000001QH8X","properties":{"NF_ID":"WTR0100000001QH8X","admin_code":"26530","source_layer":"TN_RIVER_BNDRY","semantic":"zone","river_class":"지방하천","river_class_source":"중심선 공간조인","river_name":"학장천","river_code":"2027680","survey_method":"사진측량"},"geometry":{"type":"Polygon","coordinates":[[[128.96921,35.1296],[128.96909,35.12958],[128.96899,35.12977],[128.96903,35.12977],[128.9691,35.12978],[128.96921,35.1296]]]}},{"type":"Feature","id":"TN_RIVER_BNDRY:WTR0100000001QH9Y","properties":{"NF_ID":"WTR0100000001QH9Y","admin_code":"26530","source_layer":"TN_RIVER_BNDRY","semantic":"zone","river_class":"지방하천","river_class_source":"중심선 공간조인","river_name":"학장천","river_code":"2027680","survey_method":"사진측량"},"geometry":{"type":"Polygon","coordinates":[[[128.96909,35.12958],[128.9683,35.12943],[128.96824,35.12976],[128.96899,35.12977],[128.96909,35.12958]]]}},{"type":"Feature","id":"TN_RIVER_BNDRY:WTR0100000001QHAZ","properties":{"NF_ID":"WTR0100000001QHAZ","admin_code":"26530","source_layer":"TN_RIVER_BNDRY","semantic":"zone","river_class":"소하천","river_class_source":"중심선 공간조인","survey_method":"사진측량"},"geometry":{"type":"Polygon","coordinates":[[[128.97018,35.1312],[128.96984,35.13136],[128.96994,35.13147],[128.97018,35.1312]]]}},{"type":"Feature","id":"TN_RIVER_BNDRY:WTR0100000001QHB0","properties":{"NF_ID":"WTR0100000001QHB0","admin_code":"26530","source_layer":"TN_RIVER_BNDRY","semantic":"zone","river_class":"소하천","river_class_source":"중심선 공간조인","survey_method":"사진측량"},"geometry":{"type":"Polygon","coordinates":[[[128.96909,35.12958],[128.97011,35.12901],[128.96949,35.12918],[128.96909,35.12958]]]}},{"type":"Feature","id":"TN_RIVER_BNDRY:WTR0100000001QHC1","properties":{"NF_ID":"WTR0100000001QHC1","admin_code":"26530","source_layer":"TN_RIVER_BNDRY","semantic":"zone","river_class":"지방하천","river_class_source":"중심선 공간조인","river_name":"학장천","river_code":"2027680","survey_method":"사진측량"},"geometry":{"type":"Polygon","coordinates":[[[128.96921,35.1296],[128.9691,35.12978],[128.96974,35.13004],[128.96969,35.1304],[128.97036,35.13012],[128.97076,35.1304],[128.9718,35.13163],[128.97226,35.13273],[128.97354,35.13493],[128.97589,35.13712],[128.97873,35.14038],[128.97954,35.14088],[128.9803,35.14114],[128.98598,35.14236],[128.9872,35.14282],[128.98732,35.14266],[128.98673,35.14243],[128.98025,35.14099],[128.97935,35.1406],[128.97588,35.13675],[128.97377,35.13473],[128.97216,35.13185],[128.97085,35.13025],[128.97049,35.12991],[128.96921,35.1296]]]}},{"type":"Feature","id":"TN_RIVER_BNDRY:WTR0100000001QID3","properties":{"NF_ID":"WTR0100000001QID3","admin_code":"26530","source_layer":"TN_RIVER_BNDRY","semantic":"zone","river_class":"소하천","river_class_source":"중심선 공간조인","survey_method":"사진측량"},"geometry":{"type":"Polygon","coordinates":[[[128.97044,35.16361],[128.97024,35.16359],[128.97028,35.16424],[128.97009,35.16474],[128.9707,35.16739],[128.97073,35.1696],[128.97053,35.1707],[128.9699,35.1722],[128.97028,35.17472],[128.96995,35.17216],[128.97063,35.17054],[128.97078,35.16908],[128.97074,35.16738],[128.97014,35.16482],[128.97044,35.16361]]]}},{"type":"Feature","id":"TN_RIVER_BNDRY:WTR0100000001QIE4","properties":{"NF_ID":"WTR0100000001QIE4","admin_code":"26530","source_layer":"TN_RIVER_BNDRY","semantic":"zone","river_class":"소하천","river_class_source":"중심선 공간조인","survey_method":"사진측량"},"geometry":{"type":"Polygon","coordinates":[[[128.96829,35.15443],[128.96813,35.15446],[128.96809,35.15492],[128.96778,35.15549],[128.96774,35.15611],[128.96909,35.15764],[128.96949,35.15917],[128.97048,35.15953],[128.97074,35.15984],[128.97082,35.16083],[128.97026,35.16305],[128.97025,35.16331],[128.97044,35.16335],[128.97038,35.163],[128.97104,35.16001],[128.97062,35.15945],[128.96958,35.15909],[128.96923,35.15758],[128.96792,35.15606],[128.96829,35.15443]]]}},{"type":"Feature","id":"TN_RIVER_BNDRY:WTR0100000001QIF5","properties":{"NF_ID":"WTR0100000001QIF5","admin_code":"26530","source_layer":"TN_RIVER_BNDRY","semantic":"zone","river_class":"소하천","river_class_source":"중심선 공간조인","survey_method":"사진측량"},"geometry":{"type":"Polygon","coordinates":[[[128.97417,35.16311],[128.97399,35.16268],[128.97325,35.16303],[128.97065,35.16334],[128.97069,35.16358],[128.97417,35.16311]]]}},{"type":"Feature","id":"TN_RIVER_BNDRY:WTR0100000001QIG6","properties":{"NF_ID":"WTR0100000001QIG6","admin_code":"26530","source_layer":"TN_RIVER_BNDRY","semantic":"zone","river_class":"소하천","river_class_source":"중심선 공간조인","survey_method":"사진측량"},"geometry":{"type":"Polygon","coordinates":[[[128.96486,35.15468],[128.96454,35.15475],[128.96504,35.15622],[128.96541,35.15839],[128.96639,35.16228],[128.96651,35.16305],[128.96626,35.16322],[128.96653,35.16325],[128.96663,35.16347],[128.96686,35.16332],[128.96617,35.15995],[128.9661,35.15868],[128.96541,35.15591],[128.96486,35.15468]]]}},{"type":"Feature","id":"TN_RIVER_BNDRY:WTR0100000001QIH7","properties":{"NF_ID":"WTR0100000001QIH7","admin_code":"26530","source_layer":"TN_RIVER_BNDRY","semantic":"zone","river_class":"소하천","river_class_source":"중심선 공간조인","survey_method":"사진측량"},"geometry":{"type":"Polygon","coordinates":[[[128.96454,35.15475],[128.96445,35.15459],[128.96392,35.15469],[128.96454,35.15475]]]}},{"type":"Feature","id":"TN_RIVER_BNDRY:WTR0100000001QII8","properties":{"NF_ID":"WTR0100000001QII8","admin_code":"26530","source_layer":"TN_RIVER_BNDRY","semantic":"zone","river_class":"소하천","river_class_source":"중심선 공간조인","survey_method":"사진측량"},"geometry":{"type":"Polygon","coordinates":[[[128.97024,35.16359],[128.97025,35.16331],[128.96903,35.16329],[128.96921,35.16074],[128.96853,35.15948],[128.96801,35.15782],[128.96675,35.15612],[128.96631,35.15412],[128.96607,35.15399],[128.96457,35.15429],[128.96445,35.15459],[128.96569,35.15446],[128.96609,35.15467],[128.96646,35.15648],[128.9678,35.1584],[128.9681,35.15936],[128.9689,35.16074],[128.9687,35.16338],[128.96887,35.16354],[128.97024,35.16359]]]}},{"type":"Feature","id":"TN_RIVER_BNDRY:WTR0100000001QIJ9","properties":{"NF_ID":"WTR0100000001QIJ9","admin_code":"26530","source_layer":"TN_RIVER_BNDRY","semantic":"zone","river_class":"소하천","river_class_source":"중심선 공간조인","survey_method":"사진측량"},"geometry":{"type":"Polygon","coordinates":[[[128.96486,35.15468],[128.96482,35.15455],[128.96445,35.15459],[128.96454,35.15475],[128.96486,35.15468]]]}},{"type":"Feature","id":"TN_RIVER_BNDRY:WTR0100000001QIKA","properties":{"NF_ID":"WTR0100000001QIKA","admin_code":"26530","source_layer":"TN_RIVER_BNDRY","semantic":"zone","river_class":"소하천","river_class_source":"중심선 공간조인","survey_method":"사진측량"},"geometry":{"type":"Polygon","coordinates":[[[128.97069,35.16358],[128.97065,35.16334],[128.97054,35.16336],[128.97057,35.1636],[128.97069,35.16358]]]}},{"type":"Feature","id":"TN_RIVER_BNDRY:WTR0100000001QILB","properties":{"NF_ID":"WTR0100000001QILB","admin_code":"26530","source_layer":"TN_RIVER_BNDRY","semantic":"zone","river_class":"소하천","river_class_source":"중심선 공간조인","survey_method":"사진측량"},"geometry":{"type":"Polygon","coordinates":[[[128.97057,35.1636],[128.97044,35.16335],[128.97044,35.16361],[128.97057,35.1636]]]}},{"type":"Feature","id":"TN_RIVER_BNDRY:WTR0100000001QIND","properties":{"NF_ID":"WTR0100000001QIND","admin_code":"26530","source_layer":"TN_RIVER_BNDRY","semantic":"zone","river_class":"국가하천","river_class_source":"중심선 공간조인","river_name":"낙동강","river_code":"2000010","survey_method":"사진측량"},"geometry":{"type":"Polygon","coordinates":[[[128.96626,35.16322],[128.95934,35.16354],[128.95938,35.16366],[128.96626,35.16322]]]}},{"type":"Feature","id":"TN_RIVER_BNDRY:WTR0100000001QIOE","properties":{"NF_ID":"WTR0100000001QIOE","admin_code":"26530","source_layer":"TN_RIVER_BNDRY","semantic":"zone","river_class":"소하천","river_class_source":"중심선 공간조인","survey_method":"사진측량"},"geometry":{"type":"Polygon","coordinates":[[[128.97044,35.16335],[128.97025,35.16331],[128.97024,35.16359],[128.97044,35.16361],[128.97044,35.16335]]]}},{"type":"Feature","id":"TN_RIVER_BNDRY:WTR0100000001QIQG","properties":{"NF_ID":"WTR0100000001QIQG","admin_code":"26530","source_layer":"TN_RIVER_BNDRY","semantic":"zone","river_class":"소하천","river_class_source":"중심선 공간조인","survey_method":"사진측량"},"geometry":{"type":"Polygon","coordinates":[[[128.97438,35.16226],[128.97451,35.16259],[128.97475,35.1625],[128.97467,35.16221],[128.97438,35.16226]]]}},{"type":"Feature","id":"TN_RIVER_BNDRY:WTR0100000001QIRH","properties":{"NF_ID":"WTR0100000001QIRH","admin_code":"26530","source_layer":"TN_RIVER_BNDRY","semantic":"zone","river_class":"소하천","river_class_source":"중심선 공간조인","survey_method":"사진측량"},"geometry":{"type":"Polygon","coordinates":[[[128.97451,35.16259],[128.97438,35.16226],[128.97399,35.16268],[128.97417,35.16311],[128.97451,35.16259]]]}},{"type":"Feature","id":"TN_RIVER_BNDRY:WTR0100000001QISI","properties":{"NF_ID":"WTR0100000001QISI","admin_code":"26530","source_layer":"TN_RIVER_BNDRY","semantic":"zone","river_class":"소하천","river_class_source":"중심선 공간조인","survey_method":"사진측량"},"geometry":{"type":"Polygon","coordinates":[[[128.96829,35.15443],[128.96826,35.15435],[128.96811,35.1544],[128.96813,35.15443],[128.96813,35.15446],[128.96829,35.15443]]]}},{"type":"Feature","id":"TN_RIVER_BNDRY:WTR0100000001QITJ","properties":{"NF_ID":"WTR0100000001QITJ","admin_code":"26530","source_layer":"TN_RIVER_BNDRY","semantic":"zone","river_class":"소하천","river_class_source":"중심선 공간조인","survey_method":"사진측량"},"geometry":{"type":"Polygon","coordinates":[[[128.96826,35.15435],[128.96829,35.15443],[128.96829,35.15442],[128.9683,35.15441],[128.96831,35.1544],[128.96832,35.1544],[128.96833,35.15439],[128.96892,35.15428],[128.96891,35.15425],[128.96881,35.15427],[128.9683,35.15436],[128.96828,35.15436],[128.96828,35.15436],[128.96827,35.15436],[128.96826,35.15435]]]}},{"type":"Feature","id":"TN_RIVER_BNDRY:WTR0100000001QIUK","properties":{"NF_ID":"WTR0100000001QIUK","admin_code":"26530","source_layer":"TN_RIVER_BNDRY","semantic":"zone","river_class":"소하천","river_class_source":"중심선 공간조인","survey_method":"사진측량"},"geometry":{"type":"Polygon","coordinates":[[[128.96826,35.15435],[128.96714,35.15315],[128.96811,35.1544],[128.96826,35.15435]]]}},{"type":"Feature","id":"TN_RIVER_BNDRY:WTR0100000001QIVL","properties":{"NF_ID":"WTR0100000001QIVL","admin_code":"26530","source_layer":"TN_RIVER_BNDRY","semantic":"zone","river_class":"소하천","river_class_source":"중심선 공간조인","survey_method":"사진측량"},"geometry":{"type":"Polygon","coordinates":[[[128.97398,35.16365],[128.97066,35.16407],[128.97069,35.16358],[128.97057,35.1636],[128.9706,35.16407],[128.97398,35.16365]]]}},{"type":"Feature","id":"TN_RIVER_BNDRY:WTR0100000001QIWM","properties":{"NF_ID":"WTR0100000001QIWM","admin_code":"26530","source_layer":"TN_RIVER_BNDRY","semantic":"zone","river_class":"소하천","river_class_source":"중심선 공간조인","survey_method":"사진측량"},"geometry":{"type":"Polygon","coordinates":[[[128.97396,35.16357],[128.97389,35.16352],[128.97387,35.16352],[128.97386,35.16353],[128.97386,35.16353],[128.9739,35.16358],[128.97391,35.16359],[128.97396,35.16357]]]}},{"type":"Feature","id":"TN_RIVER_BNDRY:WTR0100000001QIXN","properties":{"NF_ID":"WTR0100000001QIXN","admin_code":"26530","source_layer":"TN_RIVER_BNDRY","semantic":"zone","river_class":"소하천","river_class_source":"중심선 공간조인","survey_method":"사진측량"},"geometry":{"type":"Polygon","coordinates":[[[128.97403,35.16363],[128.97396,35.16357],[128.97391,35.16359],[128.97398,35.16365],[128.97403,35.16363]]]}},{"type":"Feature","id":"TN_RIVER_BNDRY:WTR0100000001QIYO","properties":{"NF_ID":"WTR0100000001QIYO","admin_code":"26530","source_layer":"TN_RIVER_BNDRY","semantic":"zone","river_class":"소하천","river_class_source":"중심선 공간조인","survey_method":"사진측량"},"geometry":{"type":"Polygon","coordinates":[[[128.97403,35.16363],[128.97398,35.16365],[128.97401,35.16367],[128.97421,35.16386],[128.97422,35.16386],[128.97424,35.16386],[128.97425,35.16385],[128.97426,35.16384],[128.97424,35.16382],[128.97408,35.16366],[128.97403,35.16363]]]}},{"type":"Feature","id":"TN_RIVER_BNDRY:WTR0100000001QIZP","properties":{"NF_ID":"WTR0100000001QIZP","admin_code":"26530","source_layer":"TN_RIVER_BNDRY","semantic":"zone","river_class":"소하천","river_class_source":"중심선 공간조인","survey_method":"사진측량"},"geometry":{"type":"Polygon","coordinates":[[[128.97154,35.15322],[128.97304,35.15787],[128.97241,35.15531],[128.97154,35.15322]]]}},{"type":"Feature","id":"TN_RIVER_BNDRY:WTR0100000001QJ0R","properties":{"NF_ID":"WTR0100000001QJ0R","admin_code":"26530","source_layer":"TN_RIVER_BNDRY","semantic":"zone","river_class":"등급미확인","survey_method":"사진측량"},"geometry":{"type":"Polygon","coordinates":[[[128.97695,35.15564],[128.97658,35.15443],[128.9765,35.1533],[128.9763,35.1533],[128.97675,35.15567],[128.97695,35.15564]]]}},{"type":"Feature","id":"TN_RIVER_BNDRY:WTR0100000001QJ1S","properties":{"NF_ID":"WTR0100000001QJ1S","admin_code":"26530","source_layer":"TN_RIVER_BNDRY","semantic":"zone","river_class":"등급미확인","survey_method":"사진측량"},"geometry":{"type":"Polygon","coordinates":[[[128.99359,35.17114],[128.99364,35.17104],[128.99336,35.17098],[128.9923,35.17113],[128.99134,35.17103],[128.99228,35.17115],[128.9933,35.17103],[128.99359,35.17114]]]}},{"type":"Feature","id":"TN_RIVER_BNDRY:WTR0100000001QJ2T","properties":{"NF_ID":"WTR0100000001QJ2T","admin_code":"26530","source_layer":"TN_RIVER_BNDRY","semantic":"zone","river_class":"국가하천","river_class_source":"중심선 공간조인","river_name":"낙동강","river_code":"2000010","survey_method":"사진측량"},"geometry":{"type":"Polygon","coordinates":[[[128.96392,35.15469],[128.96384,35.15359],[128.96949,35.15254],[128.95825,35.15255],[128.95824,35.15275],[128.95779,35.15301],[128.95576,35.15366],[128.95586,35.15386],[128.95763,35.15328],[128.95803,35.15434],[128.95808,35.15468],[128.95646,35.15571],[128.96392,35.15469]]]}},{"type":"Feature","id":"TN_RIVER_BNDRY:WTR0100000001QJ3U","properties":{"NF_ID":"WTR0100000001QJ3U","admin_code":"26530","source_layer":"TN_RIVER_BNDRY","semantic":"zone","river_class":"소하천","river_class_source":"중심선 공간조인","survey_method":"사진측량"},"geometry":{"type":"Polygon","coordinates":[[[128.97438,35.16226],[128.97426,35.16174],[128.97363,35.1608],[128.9739,35.16073],[128.97392,35.16057],[128.97326,35.16032],[128.9735,35.15933],[128.97313,35.15846],[128.9724,35.15822],[128.97202,35.15685],[128.97072,35.15445],[128.9704,35.15321],[128.97064,35.15232],[128.97101,35.15228],[128.97119,35.15212],[128.97105,35.15149],[128.96949,35.15254],[128.96975,35.15327],[128.9692,35.15338],[128.9702,35.15583],[128.97122,35.15779],[128.97187,35.15856],[128.97256,35.15915],[128.97224,35.15866],[128.97311,35.15943],[128.97314,35.1596],[128.97249,35.15993],[128.97247,35.16024],[128.97272,35.16024],[128.97262,35.16004],[128.97278,35.1599],[128.97295,35.16004],[128.97361,35.16141],[128.97354,35.16174],[128.97382,35.16162],[128.97399,35.16268],[128.97438,35.16226]]]}},{"type":"Feature","id":"TN_RIVER_BNDRY:WTR0100000001QJ4V","properties":{"NF_ID":"WTR0100000001QJ4V","admin_code":"26530","source_layer":"TN_RIVER_BNDRY","semantic":"zone","river_class":"소하천","river_class_source":"중심선 공간조인","river_name":"운산천","survey_method":"사진측량"},"geometry":{"type":"Polygon","coordinates":[[[128.99,35.16673],[128.99049,35.16665],[128.98942,35.16666],[128.99,35.16673]]]}},{"type":"Feature","id":"TN_RIVER_BNDRY:WTR0100000001QJ5W","properties":{"NF_ID":"WTR0100000001QJ5W","admin_code":"26530","source_layer":"TN_RIVER_BNDRY","semantic":"zone","river_class":"국가하천","river_class_source":"중심선 공간조인","river_name":"낙동강","river_code":"2000010","survey_method":"사진측량"},"geometry":{"type":"Polygon","coordinates":[[[128.97105,35.15149],[128.95822,35.15237],[128.95825,35.15255],[128.96949,35.15254],[128.97105,35.15149]]]}},{"type":"Feature","id":"TN_RIVER_BNDRY:WTR0100000001QJ6X","properties":{"NF_ID":"WTR0100000001QJ6X","admin_code":"26530","source_layer":"TN_RIVER_BNDRY","semantic":"zone","river_class":"등급미확인","survey_method":"사진측량"},"geometry":{"type":"Polygon","coordinates":[[[128.99167,35.17879],[128.99359,35.17844],[128.99166,35.17877],[128.99128,35.17903],[128.99167,35.17879]]]}},{"type":"Feature","id":"TN_RIVER_BNDRY:WTR0100000001QJ7Y","properties":{"NF_ID":"WTR0100000001QJ7Y","admin_code":"26530","source_layer":"TN_RIVER_BNDRY","semantic":"zone","river_class":"지방하천","river_class_source":"중심선 공간조인","river_name":"삼락천","river_code":"2027671","survey_method":"사진측량"},"geometry":{"type":"Polygon","coordinates":[[[128.97757,35.16775],[128.97698,35.16546],[128.97697,35.1648],[128.97667,35.16427],[128.97636,35.16291],[128.97655,35.16292],[128.97634,35.16285],[128.97503,35.15826],[128.97538,35.15816],[128.97519,35.15812],[128.97537,35.15814],[128.97536,35.15804],[128.97489,35.15812],[128.97657,35.16429],[128.97689,35.16482],[128.97686,35.16537],[128.97735,35.16728],[128.97735,35.16789],[128.97838,35.16938],[128.97854,35.16994],[128.98348,35.19045],[128.98591,35.19296],[128.98752,35.19381],[128.98812,35.19672],[128.98756,35.1937],[128.986,35.19288],[128.98361,35.19039],[128.97881,35.17032],[128.97847,35.16931],[128.97766,35.16812],[128.97757,35.16775]]]}},{"type":"Feature","id":"TN_RIVER_BNDRY:WTR0100000001QJ8Z","properties":{"NF_ID":"WTR0100000001QJ8Z","admin_code":"26530","source_layer":"TN_RIVER_BNDRY","semantic":"zone","river_class":"소하천","river_class_source":"중심선 공간조인","survey_method":"사진측량"},"geometry":{"type":"Polygon","coordinates":[[[128.97631,35.15039],[128.97701,35.15027],[128.9777,35.15015],[128.97781,35.15013],[128.97798,35.1501],[128.9786,35.15],[128.97873,35.14998],[128.97941,35.14986],[128.97954,35.14984],[128.97955,35.14984],[128.97958,35.14983],[128.98,35.14975],[128.9802,35.14972],[128.98072,35.14963],[128.98138,35.14952],[128.98151,35.14949],[128.98175,35.14946],[128.98186,35.14944],[128.98253,35.14932],[128.9833,35.14919],[128.98362,35.14913],[128.98367,35.14911],[128.98377,35.1491],[128.98382,35.14909],[128.98384,35.14908],[128.98383,35.14904],[128.98382,35.14903],[128.98379,35.14903],[128.98376,35.14905],[128.98366,35.14907],[128.98361,35.14906],[128.98302,35.14916],[128.98252,35.14925],[128.98184,35.14937],[128.98173,35.14939],[128.98151,35.14943],[128.98137,35.14945],[128.98102,35.1495],[128.98044,35.1496],[128.98,35.14968],[128.97995,35.14969],[128.97956,35.14976],[128.97952,35.14976],[128.97939,35.14978],[128.97874,35.14989],[128.97812,35.15],[128.97769,35.15008],[128.97699,35.1502],[128.97646,35.15029],[128.9763,35.15032],[128.9763,35.15036],[128.9763,35.15039],[128.97631,35.15039],[128.97631,35.15039],[128.97631,35.15039]]]}},{"type":"Feature","id":"TN_RIVER_BNDRY:WTR0100000001QJ90","properties":{"NF_ID":"WTR0100000001QJ90","admin_code":"26530","source_layer":"TN_RIVER_BNDRY","semantic":"zone","river_class":"지방하천","river_class_source":"중심선 공간조인","river_name":"감전천","survey_method":"사진측량"},"geometry":{"type":"Polygon","coordinates":[[[128.96994,35.13147],[128.96953,35.13146],[128.97068,35.13277],[128.97136,35.13342],[128.97189,35.13338],[128.97207,35.13359],[128.97191,35.13365],[128.97272,35.1356],[128.97233,35.13778],[128.97313,35.13966],[128.97531,35.14296],[128.97584,35.14955],[128.97595,35.15033],[128.97618,35.15042],[128.9754,35.1426],[128.97479,35.14138],[128.97349,35.13959],[128.97268,35.1377],[128.97303,35.13557],[128.97216,35.13324],[128.97133,35.13299],[128.96994,35.13147]]]}},{"type":"Feature","id":"TN_RIVER_BNDRY:WTR0100000001QN72","properties":{"NF_ID":"WTR0100000001QN72","admin_code":"26530","source_layer":"TN_RIVER_BNDRY","semantic":"zone","river_class":"소하천","river_class_source":"중심선 공간조인","survey_method":"사진측량"},"geometry":{"type":"Polygon","coordinates":[[[128.97451,35.16259],[128.97417,35.16311],[128.9744,35.16358],[128.97476,35.16379],[128.9751,35.165],[128.97542,35.16708],[128.9756,35.16993],[128.97548,35.17329],[128.97474,35.17958],[128.97482,35.18216],[128.97546,35.18478],[128.97605,35.18624],[128.97713,35.18811],[128.9795,35.19138],[128.97889,35.19208],[128.97911,35.19219],[128.9799,35.19153],[128.97912,35.19017],[128.97775,35.18844],[128.97666,35.18674],[128.97571,35.18458],[128.97516,35.18234],[128.97505,35.17982],[128.97583,35.17285],[128.97587,35.16864],[128.97533,35.16465],[128.97481,35.16273],[128.97451,35.16259]]]}},{"type":"Feature","id":"TN_RIVER_BNDRY:WTR0100000001QN83","properties":{"NF_ID":"WTR0100000001QN83","admin_code":"26530","source_layer":"TN_RIVER_BNDRY","semantic":"zone","river_class":"국가하천","river_class_source":"중심선 공간조인","river_name":"낙동강","river_code":"2000010","survey_method":"사진측량"},"geometry":{"type":"Polygon","coordinates":[[[128.97889,35.19208],[128.9782,35.19154],[128.97759,35.19139],[128.97627,35.19062],[128.97554,35.19048],[128.97428,35.18994],[128.97349,35.18939],[128.97456,35.18863],[128.97297,35.18795],[128.97154,35.18693],[128.96842,35.18288],[128.96742,35.18102],[128.96647,35.17815],[128.96615,35.17616],[128.96575,35.17601],[128.96623,35.17284],[128.96669,35.17123],[128.96676,35.16869],[128.96708,35.16857],[128.96754,35.16923],[128.96824,35.16949],[128.96825,35.16925],[128.96805,35.16917],[128.96825,35.16922],[128.96814,35.16851],[128.9684,35.16851],[128.96829,35.16867],[128.9684,35.16907],[128.96828,35.16908],[128.96829,35.16922],[128.96848,35.16917],[128.96829,35.16926],[128.9684,35.16948],[128.96909,35.16915],[128.96928,35.16861],[128.96913,35.16821],[128.96876,35.16792],[128.96758,35.16783],[128.96722,35.16759],[128.96659,35.16562],[128.96667,35.16513],[128.9663,35.16328],[128.95938,35.16366],[128.96049,35.16768],[128.96075,35.17141],[128.96035,35.17357],[128.95866,35.17847],[128.95851,35.17961],[128.95859,35.18093],[128.96122,35.18917],[128.96239,35.19178],[128.96395,35.19443],[128.96588,35.19664],[128.9694,35.19981],[128.97889,35.19208]]]}},{"type":"Feature","id":"TN_RIVER_BNDRY:WTR0100000001QNID","properties":{"NF_ID":"WTR0100000001QNID","admin_code":"26530","source_layer":"TN_RIVER_BNDRY","semantic":"zone","river_class":"소하천","river_class_source":"중심선 공간조인","survey_method":"사진측량"},"geometry":{"type":"Polygon","coordinates":[[[129.0,35.16952],[128.99996,35.16951],[128.99996,35.16951],[128.99994,35.16951],[128.99988,35.16953],[128.99987,35.16955],[128.9999,35.16962],[128.99993,35.16964],[128.99995,35.16965],[129.0,35.16965],[129.0,35.16952]]]}}]}