{"type":"FeatureCollection","features":[{"type":"Feature","id":"TN_RIVER_BNDRY:WTR0100000000JZPO","properties":{"NF_ID":"WTR0100000000JZPO","source_layer":"TN_RIVER_BNDRY","semantic":"zone","river_class":"등급미확인","survey_method":"사진측량","admin_code":"11260"},"geometry":{"type":"Polygon","coordinates":[[[127.11011,37.60584],[127.11009,37.60597],[127.11032,37.60596],[127.11011,37.60584]]]}},{"type":"Feature","id":"TN_RIVER_BNDRY:WTR0100000000K168","properties":{"NF_ID":"WTR0100000000K168","source_layer":"TN_RIVER_BNDRY","semantic":"zone","river_class":"지방하천","river_class_source":"중심선 공간조인","river_name":"중랑천","river_code":"1025090","survey_method":"사진측량","admin_code":"11260"},"geometry":{"type":"Polygon","coordinates":[[[127.07104,37.61589],[127.07118,37.61631],[127.0716,37.61646],[127.07188,37.61574],[127.07099,37.61565],[127.07104,37.61589]]]}},{"type":"Feature","id":"TN_RIVER_BNDRY:WTR0100000000K1CE","properties":{"NF_ID":"WTR0100000000K1CE","source_layer":"TN_RIVER_BNDRY","semantic":"zone","river_class":"지방하천","river_class_source":"중심선 공간조인","river_name":"중랑천","river_code":"1025090","survey_method":"사진측량","admin_code":"11260"},"geometry":{"type":"Polygon","coordinates":[[[127.07859,37.57182],[127.07808,37.572],[127.07811,37.57333],[127.07774,37.57659],[127.07839,37.57664],[127.07879,37.57319],[127.07875,37.57205],[127.07859,37.57182]]]}},{"type":"Feature","id":"TN_RIVER_BNDRY:WTR0100000000K1IK","properties":{"NF_ID":"WTR0100000000K1IK","source_layer":"TN_RIVER_BNDRY","semantic":"zone","river_class":"지방하천","river_class_source":"중심선 공간조인","river_name":"중랑천","river_code":"1025090","survey_method":"사진측량","admin_code":"11260"},"geometry":{"type":"Polygon","coordinates":[[[127.07251,37.58608],[127.07264,37.58651],[127.07238,37.58667],[127.07135,37.58853],[127.07104,37.58896],[127.07058,37.58918],[127.07047,37.58953],[127.07035,37.59031],[127.07072,37.59189],[127.07044,37.59291],[127.06943,37.59512],[127.06946,37.59627],[127.06974,37.59622],[127.06988,37.5952],[127.07084,37.59216],[127.0714,37.5891],[127.0717,37.5884],[127.07735,37.58149],[127.07803,37.58013],[127.07843,37.57712],[127.07767,37.57696],[127.07726,37.57973],[127.0769,37.58076],[127.07251,37.58608]]]}},{"type":"Feature","id":"TN_RIVER_BNDRY:WTR0100000000K1JL","properties":{"NF_ID":"WTR0100000000K1JL","source_layer":"TN_RIVER_BNDRY","semantic":"zone","river_class":"지방하천","river_class_source":"중심선 공간조인","river_name":"중랑천","river_code":"1025090","survey_method":"사진측량","admin_code":"11260"},"geometry":{"type":"MultiPolygon","coordinates":[[[[127.07287,37.60126],[127.07213,37.6034],[127.07126,37.60748],[127.07207,37.60749],[127.07307,37.60303],[127.07307,37.60192],[127.07287,37.60126]]],[[[127.07093,37.5987],[127.07098,37.59872],[127.07106,37.59876],[127.07114,37.59881],[127.07115,37.59881],[127.07121,37.59885],[127.07108,37.5987],[127.07102,37.59864],[127.07092,37.59869],[127.07093,37.5987]]]]}},{"type":"Feature","id":"TN_RIVER_BNDRY:WTR0100000000K1KM","properties":{"NF_ID":"WTR0100000000K1KM","source_layer":"TN_RIVER_BNDRY","semantic":"zone","river_class":"지방하천","river_class_source":"중심선 공간조인","river_name":"묵동천","river_code":"1025210","survey_method":"사진측량","admin_code":"11260"},"geometry":{"type":"MultiPolygon","coordinates":[[[[127.08379,37.61978],[127.08607,37.62029],[127.08696,37.62023],[127.08815,37.61989],[127.08613,37.62024],[127.08565,37.62022],[127.08383,37.61968],[127.08379,37.61978]]],[[[127.08092,37.61881],[127.08143,37.61916],[127.08275,37.61934],[127.08119,37.61895],[127.08076,37.61862],[127.08092,37.61881]]],[[[127.07757,37.61774],[127.08007,37.61854],[127.08007,37.61842],[127.07431,37.61652],[127.0726,37.6158],[127.07189,37.61517],[127.07188,37.61574],[127.07757,37.61774]]]]}},{"type":"Feature","id":"TN_RIVER_BNDRY:WTR0100000000K2Z2","properties":{"NF_ID":"WTR0100000000K2Z2","source_layer":"TN_RIVER_BNDRY","semantic":"zone","river_class":"소하천","river_class_source":"중심선 공간조인","survey_method":"사진측량","admin_code":"11260"},"geometry":{"type":"Polygon","coordinates":[[[127.07839,37.57664],[127.07843,37.57712],[127.0786,37.57701],[127.07954,37.57743],[127.07955,37.57726],[127.07839,37.57664]]]}},{"type":"Feature","id":"TN_RIVER_BNDRY:WTR0100000000K304","properties":{"NF_ID":"WTR0100000000K304","source_layer":"TN_RIVER_BNDRY","semantic":"zone","river_class":"지방하천","river_class_source":"중심선 공간조인","river_name":"중랑천","river_code":"1025090","survey_method":"사진측량","admin_code":"11260"},"geometry":{"type":"Polygon","coordinates":[[[127.07839,37.57664],[127.07774,37.57659],[127.07767,37.57696],[127.07843,37.57712],[127.07839,37.57664]]]}},{"type":"Feature","id":"TN_RIVER_BNDRY:WTR0100000000K315","properties":{"NF_ID":"WTR0100000000K315","source_layer":"TN_RIVER_BNDRY","semantic":"zone","river_class":"지방하천","river_class_source":"중심선 공간조인","river_name":"중랑천","river_code":"1025090","survey_method":"사진측량","admin_code":"11260"},"geometry":{"type":"Polygon","coordinates":[[[127.07118,37.60881],[127.07168,37.6136],[127.07194,37.61364],[127.07203,37.60773],[127.07124,37.60757],[127.07118,37.60881]]]}},{"type":"Feature","id":"TN_RIVER_BNDRY:WTR0100000000K326","properties":{"NF_ID":"WTR0100000000K326","source_layer":"TN_RIVER_BNDRY","semantic":"zone","river_class":"소하천","river_class_source":"중심선 공간조인","survey_method":"사진측량","admin_code":"11260"},"geometry":{"type":"Polygon","coordinates":[[[127.07106,37.60762],[127.07106,37.60762],[127.07119,37.60758],[127.07124,37.60757],[127.07126,37.60748],[127.07106,37.60755],[127.07106,37.60762]]]}},{"type":"Feature","id":"TN_RIVER_BNDRY:WTR0100000000K337","properties":{"NF_ID":"WTR0100000000K337","source_layer":"TN_RIVER_BNDRY","semantic":"zone","river_class":"지방하천","river_class_source":"중심선 공간조인","river_name":"우이천","river_code":"1025220","survey_method":"사진측량","admin_code":"11260"},"geometry":{"type":"Polygon","coordinates":[[[127.07166,37.61367],[127.07138,37.61428],[127.07192,37.61429],[127.07194,37.61364],[127.07166,37.61367]]]}},{"type":"Feature","id":"TN_RIVER_BNDRY:WTR0100000000K348","properties":{"NF_ID":"WTR0100000000K348","source_layer":"TN_RIVER_BNDRY","semantic":"zone","river_class":"등급미확인","survey_method":"사진측량","admin_code":"11260"},"geometry":{"type":"Polygon","coordinates":[[[127.07135,37.61434],[127.07102,37.61515],[127.07189,37.61517],[127.07192,37.61429],[127.07135,37.61434]]]}},{"type":"Feature","id":"TN_RIVER_BNDRY:WTR0100000000K359","properties":{"NF_ID":"WTR0100000000K359","source_layer":"TN_RIVER_BNDRY","semantic":"zone","river_class":"지방하천","river_class_source":"중심선 공간조인","river_name":"묵동천","river_code":"1025210","survey_method":"사진측량","admin_code":"11260"},"geometry":{"type":"Polygon","coordinates":[[[127.07189,37.61517],[127.07102,37.61515],[127.07099,37.61565],[127.07188,37.61574],[127.07189,37.61517]]]}},{"type":"Feature","id":"TN_RIVER_BNDRY:WTR0100000000K36A","properties":{"NF_ID":"WTR0100000000K36A","source_layer":"TN_RIVER_BNDRY","semantic":"zone","river_class":"지방하천","river_class_source":"중심선 공간조인","river_name":"중랑천","river_code":"1025090","survey_method":"사진측량","admin_code":"11260"},"geometry":{"type":"Polygon","coordinates":[[[127.07207,37.60749],[127.07126,37.60748],[127.07124,37.60757],[127.07203,37.60773],[127.07207,37.60749]]]}},{"type":"Feature","id":"TN_RIVER_BNDRY:WTR0100000000K4HM","properties":{"NF_ID":"WTR0100000000K4HM","source_layer":"TN_RIVER_BNDRY","semantic":"zone","river_class":"소하천","river_class_source":"중심선 공간조인","survey_method":"사진측량","admin_code":"11260"},"geometry":{"type":"Polygon","coordinates":[[[127.10316,37.58714],[127.10268,37.58722],[127.10217,37.58753],[127.10316,37.58714]]]}},{"type":"Feature","id":"TN_RIVER_BNDRY:WTR0100000000K4IN","properties":{"NF_ID":"WTR0100000000K4IN","source_layer":"TN_RIVER_BNDRY","semantic":"zone","river_class":"소하천","river_class_source":"중심선 공간조인","survey_method":"사진측량","admin_code":"11260"},"geometry":{"type":"Polygon","coordinates":[[[127.10267,37.58836],[127.1025,37.58845],[127.10253,37.58865],[127.10267,37.58836]]]}},{"type":"Feature","id":"TN_RIVER_BNDRY:WTR0100000000K4JO","properties":{"NF_ID":"WTR0100000000K4JO","source_layer":"TN_RIVER_BNDRY","semantic":"zone","river_class":"소하천","river_class_source":"중심선 공간조인","survey_method":"사진측량","admin_code":"11260"},"geometry":{"type":"Polygon","coordinates":[[[127.10178,37.58677],[127.10174,37.58672],[127.10168,37.58667],[127.10156,37.58653],[127.10155,37.58654],[127.10154,37.58655],[127.1016,37.58662],[127.10167,37.5867],[127.10172,37.58675],[127.10173,37.58676],[127.10176,37.5868],[127.10178,37.58677]]]}},{"type":"Feature","id":"TN_RIVER_BNDRY:WTR0100000000K4KP","properties":{"NF_ID":"WTR0100000000K4KP","source_layer":"TN_RIVER_BNDRY","semantic":"zone","river_class":"소하천","river_class_source":"중심선 공간조인","survey_method":"사진측량","admin_code":"11260"},"geometry":{"type":"Polygon","coordinates":[[[127.10183,37.58682],[127.10178,37.58677],[127.10176,37.5868],[127.10176,37.58685],[127.10183,37.58682]]]}},{"type":"Feature","id":"TN_RIVER_BNDRY:WTR0100000000K4LQ","properties":{"NF_ID":"WTR0100000000K4LQ","source_layer":"TN_RIVER_BNDRY","semantic":"zone","river_class":"소하천","river_class_source":"중심선 공간조인","survey_method":"사진측량","admin_code":"11260"},"geometry":{"type":"Polygon","coordinates":[[[127.10183,37.58682],[127.10169,37.58715],[127.10203,37.58707],[127.1025,37.58663],[127.10204,37.58704],[127.10185,37.58705],[127.10183,37.58682]]]}},{"type":"Feature","id":"TN_RIVER_BNDRY:WTR0100000000K4MR","properties":{"NF_ID":"WTR0100000000K4MR","source_layer":"TN_RIVER_BNDRY","semantic":"zone","river_class":"소하천","river_class_source":"중심선 공간조인","survey_method":"사진측량","admin_code":"11260"},"geometry":{"type":"Polygon","coordinates":[[[127.10178,37.58677],[127.10183,37.58682],[127.10184,37.58681],[127.10184,37.5868],[127.10185,37.58679],[127.10188,37.58677],[127.10196,37.58675],[127.10203,37.58672],[127.10217,37.58667],[127.10224,37.58665],[127.1023,37.58663],[127.10233,37.58663],[127.10235,37.58662],[127.10237,37.58661],[127.10241,37.58659],[127.10243,37.58657],[127.10246,37.58655],[127.10249,37.58652],[127.10251,37.5865],[127.1025,37.5865],[127.1025,37.5865],[127.1025,37.5865],[127.1025,37.5865],[127.10248,37.58649],[127.10245,37.58653],[127.10242,37.58655],[127.1024,37.58656],[127.10238,37.58658],[127.10236,37.58659],[127.10233,37.5866],[127.1023,37.58661],[127.10227,37.58662],[127.10225,37.58662],[127.10224,37.58662],[127.10223,37.58662],[127.10222,37.58662],[127.10222,37.58661],[127.10222,37.58661],[127.10222,37.5866],[127.10222,37.58659],[127.10223,37.58658],[127.10223,37.58658],[127.10223,37.58658],[127.10223,37.58657],[127.10223,37.58657],[127.10222,37.58657],[127.10222,37.58657],[127.10222,37.58657],[127.10222,37.58658],[127.10221,37.58658],[127.1022,37.58659],[127.10218,37.58659],[127.10215,37.58662],[127.10213,37.58663],[127.10208,37.58665],[127.10201,37.58669],[127.10191,37.58672],[127.10184,37.58675],[127.10178,37.58677]]]}},{"type":"Feature","id":"TN_RIVER_BNDRY:WTR0100000000K4OT","properties":{"NF_ID":"WTR0100000000K4OT","source_layer":"TN_RIVER_BNDRY","semantic":"zone","river_class":"소하천","river_class_source":"중심선 공간조인","survey_method":"사진측량","admin_code":"11260"},"geometry":{"type":"Polygon","coordinates":[[[127.10457,37.59063],[127.10453,37.59062],[127.10446,37.59064],[127.10439,37.59065],[127.10433,37.59065],[127.10427,37.59066],[127.10415,37.59069],[127.10401,37.59073],[127.10394,37.59075],[127.10381,37.59078],[127.10368,37.5908],[127.1035,37.59083],[127.10348,37.59084],[127.10349,37.59086],[127.1035,37.59086],[127.10366,37.59083],[127.10376,37.59081],[127.10387,37.59079],[127.10401,37.59078],[127.10413,37.59075],[127.10423,37.59073],[127.10432,37.59071],[127.1044,37.59069],[127.10449,37.59068],[127.10458,37.59066],[127.10458,37.59064],[127.10458,37.59064],[127.10457,37.59063]]]}},{"type":"Feature","id":"TN_RIVER_BNDRY:WTR0100000000K4W1","properties":{"NF_ID":"WTR0100000000K4W1","source_layer":"TN_RIVER_BNDRY","semantic":"zone","river_class":"지방하천","river_class_source":"중심선 공간조인","river_name":"묵동천","river_code":"1025210","survey_method":"사진측량","admin_code":"11260"},"geometry":{"type":"Polygon","coordinates":[[[127.09977,37.61355],[127.0999,37.61362],[127.10035,37.61328],[127.10115,37.61329],[127.10116,37.61315],[127.10029,37.61316],[127.09977,37.61355]]]}},{"type":"Feature","id":"TN_RIVER_BNDRY:WTR0100000000K506","properties":{"NF_ID":"WTR0100000000K506","source_layer":"TN_RIVER_BNDRY","semantic":"zone","river_class":"등급미확인","survey_method":"사진측량","admin_code":"11260"},"geometry":{"type":"Polygon","coordinates":[[[127.11017,37.60442],[127.11016,37.60442],[127.11015,37.60442],[127.11014,37.60443],[127.11013,37.60444],[127.11013,37.60445],[127.11013,37.60449],[127.11013,37.60449],[127.11014,37.60451],[127.11014,37.60451],[127.11015,37.60452],[127.11015,37.60452],[127.11016,37.60452],[127.11016,37.60452],[127.11017,37.60452],[127.11017,37.60452],[127.11018,37.60452],[127.11018,37.60451],[127.11019,37.60451],[127.11019,37.6045],[127.11019,37.60444],[127.11019,37.60443],[127.11018,37.60442],[127.11018,37.60442],[127.11017,37.60442]]]}},{"type":"Feature","id":"TN_RIVER_BNDRY:WTR0100000000K539","properties":{"NF_ID":"WTR0100000000K539","source_layer":"TN_RIVER_BNDRY","semantic":"zone","river_class":"지방하천","river_class_source":"중심선 공간조인","river_name":"묵동천","river_code":"1025210","survey_method":"사진측량","admin_code":"11260"},"geometry":{"type":"Polygon","coordinates":[[[127.08817,37.61988],[127.0886,37.61984],[127.08842,37.61966],[127.08817,37.61988]]]}},{"type":"Feature","id":"TN_RIVER_BNDRY:WTR0100000000K54A","properties":{"NF_ID":"WTR0100000000K54A","source_layer":"TN_RIVER_BNDRY","semantic":"zone","river_class":"소하천","river_class_source":"중심선 공간조인","survey_method":"사진측량","admin_code":"11260"},"geometry":{"type":"Polygon","coordinates":[[[127.08845,37.62002],[127.08878,37.62019],[127.08851,37.62],[127.0886,37.61984],[127.08845,37.62002]]]}},{"type":"Feature","id":"TN_RIVER_BNDRY:WTR0100000000K55B","properties":{"NF_ID":"WTR0100000000K55B","source_layer":"TN_RIVER_BNDRY","semantic":"zone","river_class":"지방하천","river_class_source":"중심선 공간조인","river_name":"묵동천","river_code":"1025210","survey_method":"사진측량","admin_code":"11260"},"geometry":{"type":"Polygon","coordinates":[[[127.09907,37.61392],[127.09877,37.61428],[127.09851,37.61523],[127.09765,37.6154],[127.09667,37.61531],[127.09604,37.61558],[127.09527,37.61634],[127.09432,37.61695],[127.09231,37.61799],[127.08842,37.61966],[127.0886,37.61984],[127.0937,37.61749],[127.09515,37.61666],[127.09646,37.6155],[127.09741,37.61555],[127.09863,37.61533],[127.09881,37.61498],[127.09883,37.61425],[127.09917,37.61403],[127.09907,37.61392]]]}},{"type":"Feature","id":"TN_RIVER_BNDRY:WTR0100000000K56C","properties":{"NF_ID":"WTR0100000000K56C","source_layer":"TN_RIVER_BNDRY","semantic":"zone","river_class":"소하천","river_class_source":"중심선 공간조인","survey_method":"사진측량","admin_code":"11260"},"geometry":{"type":"Polygon","coordinates":[[[127.09977,37.61355],[127.09975,37.61354],[127.09973,37.61352],[127.09971,37.6135],[127.09969,37.61349],[127.09968,37.61349],[127.09967,37.61349],[127.09968,37.6135],[127.0997,37.61353],[127.09973,37.61355],[127.09974,37.61357],[127.09977,37.61355]]]}},{"type":"Feature","id":"TN_RIVER_BNDRY:WTR0100000000K57D","properties":{"NF_ID":"WTR0100000000K57D","source_layer":"TN_RIVER_BNDRY","semantic":"zone","river_class":"지방하천","river_class_source":"중심선 공간조인","river_name":"묵동천","river_code":"1025210","survey_method":"사진측량","admin_code":"11260"},"geometry":{"type":"Polygon","coordinates":[[[127.09986,37.61366],[127.09974,37.61357],[127.09909,37.61391],[127.09924,37.61397],[127.09986,37.61366]]]}},{"type":"Feature","id":"TN_RIVER_BNDRY:WTR0100000000K58E","properties":{"NF_ID":"WTR0100000000K58E","source_layer":"TN_RIVER_BNDRY","semantic":"zone","river_class":"소하천","river_class_source":"중심선 공간조인","survey_method":"사진측량","admin_code":"11260"},"geometry":{"type":"Polygon","coordinates":[[[127.09909,37.61391],[127.09907,37.6139],[127.09905,37.61388],[127.09902,37.61387],[127.09901,37.61386],[127.09901,37.61387],[127.09902,37.61388],[127.09904,37.6139],[127.09906,37.61392],[127.09907,37.61392],[127.09909,37.61391]]]}},{"type":"Feature","id":"TN_RIVER_BNDRY:WTR0100000000K59F","properties":{"NF_ID":"WTR0100000000K59F","source_layer":"TN_RIVER_BNDRY","semantic":"zone","river_class":"지방하천","river_class_source":"중심선 공간조인","river_name":"묵동천","river_code":"1025210","survey_method":"사진측량","admin_code":"11260"},"geometry":{"type":"Polygon","coordinates":[[[127.09924,37.61397],[127.09909,37.61391],[127.09907,37.61392],[127.09917,37.61403],[127.09924,37.61397]]]}},{"type":"Feature","id":"TN_RIVER_BNDRY:WTR0100000000K5AG","properties":{"NF_ID":"WTR0100000000K5AG","source_layer":"TN_RIVER_BNDRY","semantic":"zone","river_class":"지방하천","river_class_source":"중심선 공간조인","river_name":"묵동천","river_code":"1025210","survey_method":"사진측량","admin_code":"11260"},"geometry":{"type":"Polygon","coordinates":[[[127.0999,37.61362],[127.09977,37.61355],[127.09974,37.61357],[127.09986,37.61366],[127.0999,37.61362]]]}},{"type":"Feature","id":"TN_RIVER_BNDRY:WTR0100000000K5NT","properties":{"NF_ID":"WTR0100000000K5NT","source_layer":"TN_RIVER_BNDRY","semantic":"zone","river_class":"지방하천","river_class_source":"중심선 공간조인","river_name":"중랑천","river_code":"1025090","survey_method":"사진측량","admin_code":"11260"},"geometry":{"type":"Polygon","coordinates":[[[127.06946,37.5966],[127.06958,37.59743],[127.07075,37.5986],[127.07094,37.59853],[127.07017,37.59749],[127.06974,37.5964],[127.06946,37.59644],[127.06946,37.5966]]]}},{"type":"Feature","id":"TN_RIVER_BNDRY:WTR0100000000K5OU","properties":{"NF_ID":"WTR0100000000K5OU","source_layer":"TN_RIVER_BNDRY","semantic":"zone","river_class":"지방하천","river_class_source":"중심선 공간조인","river_name":"중랑천","river_code":"1025090","survey_method":"사진측량","admin_code":"11260"},"geometry":{"type":"Polygon","coordinates":[[[127.07079,37.59863],[127.07102,37.59864],[127.07094,37.59853],[127.07079,37.59863]]]}},{"type":"Feature","id":"TN_RIVER_BNDRY:WTR0100000000K5QW","properties":{"NF_ID":"WTR0100000000K5QW","source_layer":"TN_RIVER_BNDRY","semantic":"zone","river_class":"지방하천","river_class_source":"중심선 공간조인","river_name":"중랑천","river_code":"1025090","survey_method":"사진측량","admin_code":"11260"},"geometry":{"type":"Polygon","coordinates":[[[127.06947,37.59631],[127.06946,37.59644],[127.06974,37.5964],[127.06974,37.59622],[127.06947,37.59631]]]}},{"type":"Feature","id":"TN_RIVER_BNDRY:WTR0100000000K5RX","properties":{"NF_ID":"WTR0100000000K5RX","source_layer":"TN_RIVER_BNDRY","semantic":"zone","river_class":"소하천","river_class_source":"중심선 공간조인","survey_method":"사진측량","admin_code":"11260"},"geometry":{"type":"Polygon","coordinates":[[[127.07094,37.59853],[127.07102,37.59864],[127.0714,37.59856],[127.07094,37.59853]]]}}]}