{"type":"FeatureCollection","features":[{"type":"Feature","id":"TN_RIVER_BNDRY:WTR0100000000HO6S","properties":{"NF_ID":"WTR0100000000HO6S","admin_code":"41111","source_layer":"TN_RIVER_BNDRY","semantic":"zone","river_class":"소하천","river_class_source":"중심선 공간조인","survey_method":"사진측량"},"geometry":{"type":"Polygon","coordinates":[[[127.00388,37.30869],[127.0038,37.3092],[127.00437,37.30984],[127.00385,37.30913],[127.00388,37.30869]]]}},{"type":"Feature","id":"TN_RIVER_BNDRY:WTR0100000000HO7T","properties":{"NF_ID":"WTR0100000000HO7T","admin_code":"41111","source_layer":"TN_RIVER_BNDRY","semantic":"zone","river_class":"등급미확인","survey_method":"사진측량"},"geometry":{"type":"Polygon","coordinates":[[[127.02463,37.31109],[127.02501,37.31248],[127.02545,37.31311],[127.02535,37.31275],[127.02504,37.31249],[127.02463,37.31109]]]}},{"type":"Feature","id":"TN_RIVER_BNDRY:WTR0100000000HO8U","properties":{"NF_ID":"WTR0100000000HO8U","admin_code":"41111","source_layer":"TN_RIVER_BNDRY","semantic":"zone","river_class":"지방하천","river_class_source":"중심선 공간조인","river_name":"광교천","river_code":"1120730","survey_method":"사진측량"},"geometry":{"type":"Polygon","coordinates":[[[127.01849,37.31545],[127.01828,37.31557],[127.01885,37.31628],[127.02146,37.31899],[127.02259,37.3197],[127.02456,37.32046],[127.02536,37.32117],[127.02603,37.32146],[127.02654,37.32222],[127.0274,37.32258],[127.02789,37.32406],[127.02696,37.32401],[127.02694,37.32434],[127.02758,37.32599],[127.02804,37.32603],[127.02792,37.32568],[127.02817,37.32507],[127.02799,37.32456],[127.02805,37.32397],[127.02764,37.32336],[127.02743,37.32249],[127.02663,37.32217],[127.02608,37.32141],[127.02542,37.32111],[127.02461,37.3204],[127.02283,37.31972],[127.02153,37.31886],[127.0213,37.31847],[127.01899,37.31618],[127.01849,37.31545]]]}},{"type":"Feature","id":"TN_RIVER_BNDRY:WTR0100000000HO9V","properties":{"NF_ID":"WTR0100000000HO9V","admin_code":"41111","source_layer":"TN_RIVER_BNDRY","semantic":"zone","river_class":"등급미확인","survey_method":"사진측량"},"geometry":{"type":"Polygon","coordinates":[[[127.02364,37.31287],[127.02253,37.31259],[127.02219,37.31232],[127.02203,37.31239],[127.02342,37.31287],[127.02514,37.31305],[127.02364,37.31287]]]}},{"type":"Feature","id":"TN_RIVER_BNDRY:WTR0100000000HOYK","properties":{"NF_ID":"WTR0100000000HOYK","admin_code":"41111","source_layer":"TN_RIVER_BNDRY","semantic":"zone","river_class":"소하천","river_class_source":"중심선 공간조인","survey_method":"사진측량"},"geometry":{"type":"Polygon","coordinates":[[[127.02828,37.328],[127.02826,37.32799],[127.02825,37.32798],[127.02823,37.32802],[127.02826,37.32803],[127.02828,37.328]]]}},{"type":"Feature","id":"TN_RIVER_BNDRY:WTR0100000000HOZL","properties":{"NF_ID":"WTR0100000000HOZL","admin_code":"41111","source_layer":"TN_RIVER_BNDRY","semantic":"zone","river_class":"소하천","river_class_source":"중심선 공간조인","survey_method":"사진측량"},"geometry":{"type":"Polygon","coordinates":[[[127.02828,37.328],[127.02826,37.32803],[127.02828,37.32804],[127.02831,37.32804],[127.02832,37.32805],[127.02835,37.32806],[127.02844,37.32808],[127.02845,37.32809],[127.02845,37.32809],[127.02852,37.32812],[127.02854,37.32813],[127.02858,37.32815],[127.02861,37.32817],[127.02866,37.3282],[127.02869,37.32815],[127.02862,37.32813],[127.0286,37.32812],[127.02856,37.3281],[127.02854,37.32809],[127.0285,37.32807],[127.02847,37.32806],[127.02846,37.32805],[127.02841,37.32804],[127.02835,37.32802],[127.02833,37.32801],[127.02829,37.328],[127.02828,37.328]]]}},{"type":"Feature","id":"TN_RIVER_BNDRY:WTR0100000000HP0N","properties":{"NF_ID":"WTR0100000000HP0N","admin_code":"41111","source_layer":"TN_RIVER_BNDRY","semantic":"zone","river_class":"소하천","river_class_source":"중심선 공간조인","survey_method":"사진측량"},"geometry":{"type":"Polygon","coordinates":[[[127.02826,37.32803],[127.02814,37.32827],[127.02876,37.32858],[127.02891,37.3289],[127.02987,37.32964],[127.02893,37.32887],[127.02882,37.32859],[127.02819,37.32828],[127.02826,37.32803]]]}},{"type":"Feature","id":"TN_RIVER_BNDRY:WTR0100000000HP1O","properties":{"NF_ID":"WTR0100000000HP1O","admin_code":"41111","source_layer":"TN_RIVER_BNDRY","semantic":"zone","river_class":"소하천","river_class_source":"중심선 공간조인","survey_method":"사진측량"},"geometry":{"type":"Polygon","coordinates":[[[127.02825,37.32798],[127.02805,37.32751],[127.02774,37.3274],[127.02804,37.32756],[127.02825,37.32798]]]}},{"type":"Feature","id":"TN_RIVER_BNDRY:WTR0100000000HP2P","properties":{"NF_ID":"WTR0100000000HP2P","admin_code":"41111","source_layer":"TN_RIVER_BNDRY","semantic":"zone","river_class":"소하천","river_class_source":"중심선 공간조인","survey_method":"사진측량"},"geometry":{"type":"Polygon","coordinates":[[[127.02765,37.32739],[127.02774,37.3274],[127.02773,37.32738],[127.02772,37.32734],[127.02772,37.32732],[127.02772,37.32729],[127.02773,37.32725],[127.02774,37.3272],[127.02776,37.32716],[127.02776,37.32713],[127.02777,37.32708],[127.02777,37.32703],[127.02776,37.32697],[127.02775,37.32693],[127.02773,37.32689],[127.02771,37.32684],[127.02769,37.32679],[127.02768,37.32673],[127.02765,37.32664],[127.02765,37.3266],[127.02766,37.32658],[127.02767,37.32653],[127.02769,37.32648],[127.0277,37.32645],[127.0277,37.32644],[127.0277,37.32642],[127.0277,37.32641],[127.02769,37.3264],[127.02768,37.32641],[127.02768,37.32642],[127.02767,37.32643],[127.02766,37.32645],[127.02765,37.32648],[127.02764,37.32652],[127.02763,37.32657],[127.02762,37.32661],[127.02761,37.32663],[127.02762,37.32667],[127.02763,37.3267],[127.02764,37.32674],[127.02766,37.32679],[127.02767,37.32683],[127.02768,37.32686],[127.0277,37.32689],[127.02772,37.32693],[127.02773,37.32696],[127.02773,37.327],[127.02773,37.32703],[127.02773,37.32706],[127.02773,37.32709],[127.02771,37.32713],[127.02769,37.32717],[127.02768,37.3272],[127.02766,37.32723],[127.02765,37.32726],[127.02764,37.3273],[127.02764,37.32733],[127.02764,37.32735],[127.02764,37.32736],[127.02764,37.32737],[127.02765,37.32739]]]}},{"type":"Feature","id":"TN_RIVER_BNDRY:WTR0100000000HP3Q","properties":{"NF_ID":"WTR0100000000HP3Q","admin_code":"41111","source_layer":"TN_RIVER_BNDRY","semantic":"zone","river_class":"소하천","river_class_source":"중심선 공간조인","survey_method":"사진측량"},"geometry":{"type":"Polygon","coordinates":[[[127.02774,37.3274],[127.02765,37.32739],[127.02765,37.32741],[127.02765,37.32743],[127.02766,37.32745],[127.02772,37.32746],[127.02774,37.3274]]]}},{"type":"Feature","id":"TN_RIVER_BNDRY:WTR0100000000HP4R","properties":{"NF_ID":"WTR0100000000HP4R","admin_code":"41111","source_layer":"TN_RIVER_BNDRY","semantic":"zone","river_class":"소하천","river_class_source":"중심선 공간조인","survey_method":"사진측량"},"geometry":{"type":"Polygon","coordinates":[[[127.02772,37.32746],[127.0275,37.32845],[127.02775,37.3288],[127.02819,37.32877],[127.02872,37.32939],[127.02822,37.32876],[127.02777,37.32879],[127.02754,37.32846],[127.02772,37.32746]]]}},{"type":"Feature","id":"TN_RIVER_BNDRY:WTR0100000000HRB0","properties":{"NF_ID":"WTR0100000000HRB0","admin_code":"41111","source_layer":"TN_RIVER_BNDRY","semantic":"zone","river_class":"소하천","river_class_source":"중심선 공간조인","survey_method":"사진측량"},"geometry":{"type":"Polygon","coordinates":[[[127.00344,37.31616],[127.0035,37.31606],[127.00313,37.31613],[127.00274,37.31599],[127.00261,37.31544],[127.00206,37.3149],[127.00183,37.31432],[127.00123,37.31401],[127.0018,37.31443],[127.00263,37.31608],[127.00313,37.31623],[127.00344,37.31616]]]}},{"type":"Feature","id":"TN_RIVER_BNDRY:WTR0100000000HRC1","properties":{"NF_ID":"WTR0100000000HRC1","admin_code":"41111","source_layer":"TN_RIVER_BNDRY","semantic":"zone","river_class":"지방하천","river_class_source":"중심선 공간조인","river_name":"수원천","river_code":"1120600","survey_method":"사진측량"},"geometry":{"type":"Polygon","coordinates":[[[127.01537,37.32369],[127.0151,37.32367],[127.01479,37.32516],[127.01469,37.32569],[127.01497,37.32574],[127.01537,37.32369]]]}},{"type":"Feature","id":"TN_RIVER_BNDRY:WTR0100000000HRD2","properties":{"NF_ID":"WTR0100000000HRD2","admin_code":"41111","source_layer":"TN_RIVER_BNDRY","semantic":"zone","river_class":"소하천","river_class_source":"중심선 공간조인","survey_method":"사진측량"},"geometry":{"type":"Polygon","coordinates":[[[127.0151,37.32367],[127.01404,37.32379],[127.01392,37.32502],[127.01321,37.32639],[127.01273,37.32668],[127.01165,37.32691],[127.01277,37.32672],[127.0133,37.32636],[127.01397,37.32502],[127.0139,37.32452],[127.01409,37.32379],[127.0151,37.32367]]]}},{"type":"Feature","id":"TN_RIVER_BNDRY:WTR0100000000HRH6","properties":{"NF_ID":"WTR0100000000HRH6","admin_code":"41111","source_layer":"TN_RIVER_BNDRY","semantic":"zone","river_class":"지방하천","river_class_source":"중심선 공간조인","river_name":"광교천","river_code":"1120730","survey_method":"사진측량"},"geometry":{"type":"Polygon","coordinates":[[[127.01849,37.31545],[127.01824,37.31509],[127.01806,37.31536],[127.01828,37.31557],[127.01849,37.31545]]]}},{"type":"Feature","id":"TN_RIVER_BNDRY:WTR0100000000HRI7","properties":{"NF_ID":"WTR0100000000HRI7","admin_code":"41111","source_layer":"TN_RIVER_BNDRY","semantic":"zone","river_class":"지방하천","river_class_source":"중심선 공간조인","river_name":"수원천","river_code":"1120600","survey_method":"사진측량"},"geometry":{"type":"Polygon","coordinates":[[[127.01876,37.3144],[127.01845,37.31433],[127.01844,37.31437],[127.01875,37.31443],[127.01876,37.3144]]]}},{"type":"Feature","id":"TN_RIVER_BNDRY:WTR0100000000HRJ8","properties":{"NF_ID":"WTR0100000000HRJ8","admin_code":"41111","source_layer":"TN_RIVER_BNDRY","semantic":"zone","river_class":"등급미확인","survey_method":"사진측량"},"geometry":{"type":"Polygon","coordinates":[[[127.01864,37.30839],[127.01844,37.3088],[127.01877,37.30949],[127.01897,37.30953],[127.01878,37.30946],[127.01847,37.3088],[127.01864,37.30839]]]}},{"type":"Feature","id":"TN_RIVER_BNDRY:WTR0100000000HRK9","properties":{"NF_ID":"WTR0100000000HRK9","admin_code":"41111","source_layer":"TN_RIVER_BNDRY","semantic":"zone","river_class":"등급미확인","survey_method":"사진측량"},"geometry":{"type":"Polygon","coordinates":[[[127.01941,37.30786],[127.01941,37.30785],[127.0194,37.30785],[127.01931,37.30786],[127.01922,37.30787],[127.01918,37.30787],[127.01911,37.30788],[127.01905,37.30789],[127.01898,37.3079],[127.01887,37.30793],[127.01887,37.30793],[127.01887,37.30794],[127.01887,37.30794],[127.01888,37.30794],[127.01899,37.30792],[127.01906,37.3079],[127.01911,37.3079],[127.01918,37.30788],[127.01922,37.30788],[127.01932,37.30787],[127.0194,37.30787],[127.01941,37.30786],[127.01941,37.30786]]]}},{"type":"Feature","id":"TN_RIVER_BNDRY:WTR0100000000HRLA","properties":{"NF_ID":"WTR0100000000HRLA","admin_code":"41111","source_layer":"TN_RIVER_BNDRY","semantic":"zone","river_class":"소하천","river_class_source":"중심선 공간조인","survey_method":"사진측량"},"geometry":{"type":"Polygon","coordinates":[[[127.02078,37.31361],[127.02211,37.31462],[127.02269,37.31584],[127.02266,37.31613],[127.02282,37.31621],[127.02214,37.3146],[127.02078,37.31361]]]}},{"type":"Feature","id":"TN_RIVER_BNDRY:WTR0100000000HRMB","properties":{"NF_ID":"WTR0100000000HRMB","admin_code":"41111","source_layer":"TN_RIVER_BNDRY","semantic":"zone","river_class":"등급미확인","survey_method":"사진측량"},"geometry":{"type":"Polygon","coordinates":[[[127.02422,37.31431],[127.02422,37.31431],[127.0242,37.31435],[127.02419,37.31439],[127.02418,37.31444],[127.02418,37.31448],[127.02418,37.3145],[127.02419,37.31453],[127.02422,37.31458],[127.02424,37.31463],[127.02425,37.31466],[127.02428,37.31472],[127.0243,37.3148],[127.02432,37.31491],[127.02433,37.31494],[127.02435,37.31497],[127.02437,37.31499],[127.02437,37.315],[127.02439,37.31503],[127.02442,37.31508],[127.02444,37.31512],[127.02445,37.31515],[127.02446,37.31515],[127.02446,37.31515],[127.02446,37.31515],[127.02446,37.31515],[127.02447,37.31515],[127.02447,37.31515],[127.02447,37.31515],[127.02447,37.31514],[127.02447,37.31513],[127.02447,37.31511],[127.02444,37.31506],[127.02441,37.315],[127.02437,37.31494],[127.02436,37.31493],[127.02435,37.31491],[127.02434,37.31485],[127.02433,37.31481],[127.02431,37.31474],[127.02431,37.31473],[127.0243,37.3147],[127.02429,37.31464],[127.02426,37.3146],[127.02425,37.31457],[127.02423,37.31453],[127.02422,37.31451],[127.02421,37.31449],[127.02421,37.31445],[127.02422,37.31439],[127.02424,37.31434],[127.02424,37.31432],[127.02424,37.31431],[127.02423,37.31431],[127.02422,37.31431]]]}},{"type":"Feature","id":"TN_RIVER_BNDRY:WTR0100000000HRNC","properties":{"NF_ID":"WTR0100000000HRNC","admin_code":"41111","source_layer":"TN_RIVER_BNDRY","semantic":"zone","river_class":"지방하천","river_class_source":"중심선 공간조인","river_name":"수원천","river_code":"1120600","survey_method":"사진측량"},"geometry":{"type":"Polygon","coordinates":[[[127.01875,37.31443],[127.01844,37.31437],[127.01827,37.3149],[127.01849,37.31545],[127.01875,37.31443]]]}},{"type":"Feature","id":"TN_RIVER_BNDRY:WTR0100000000HROD","properties":{"NF_ID":"WTR0100000000HROD","admin_code":"41111","source_layer":"TN_RIVER_BNDRY","semantic":"zone","river_class":"소하천","river_class_source":"중심선 공간조인","survey_method":"사진측량"},"geometry":{"type":"Polygon","coordinates":[[[127.01405,37.30885],[127.01427,37.30933],[127.01455,37.30946],[127.01494,37.31043],[127.01462,37.30947],[127.01432,37.30932],[127.01405,37.30885]]]}},{"type":"Feature","id":"TN_RIVER_BNDRY:WTR0100000000HRPE","properties":{"NF_ID":"WTR0100000000HRPE","admin_code":"41111","source_layer":"TN_RIVER_BNDRY","semantic":"zone","river_class":"소하천","river_class_source":"중심선 공간조인","survey_method":"사진측량"},"geometry":{"type":"Polygon","coordinates":[[[127.0027,37.3167],[127.00252,37.31689],[127.003,37.31727],[127.00263,37.31692],[127.0027,37.3167]]]}},{"type":"Feature","id":"TN_RIVER_BNDRY:WTR0100000000HRQF","properties":{"NF_ID":"WTR0100000000HRQF","admin_code":"41111","source_layer":"TN_RIVER_BNDRY","semantic":"zone","river_class":"지방하천","river_class_source":"중심선 공간조인","river_name":"수원천","river_code":"1120600","survey_method":"사진측량"},"geometry":{"type":"Polygon","coordinates":[[[127.01828,37.31557],[127.01806,37.31536],[127.01525,37.31903],[127.01506,37.31973],[127.01527,37.32161],[127.01511,37.32362],[127.01539,37.32355],[127.01555,37.32266],[127.01538,37.31952],[127.01653,37.31763],[127.01828,37.31557]]]}},{"type":"Feature","id":"TN_RIVER_BNDRY:WTR0100000000HRRG","properties":{"NF_ID":"WTR0100000000HRRG","admin_code":"41111","source_layer":"TN_RIVER_BNDRY","semantic":"zone","river_class":"지방하천","river_class_source":"중심선 공간조인","river_name":"수원천","river_code":"1120600","survey_method":"사진측량"},"geometry":{"type":"Polygon","coordinates":[[[127.01533,37.32363],[127.01511,37.32362],[127.0151,37.32367],[127.01537,37.32369],[127.01537,37.32368],[127.01537,37.32367],[127.01537,37.32366],[127.01532,37.32365],[127.01533,37.32363]]]}},{"type":"Feature","id":"TN_RIVER_BNDRY:WTR0100000000HRSH","properties":{"NF_ID":"WTR0100000000HRSH","admin_code":"41111","source_layer":"TN_RIVER_BNDRY","semantic":"zone","river_class":"등급미확인","survey_method":"사진측량"},"geometry":{"type":"Polygon","coordinates":[[[127.00622,37.31179],[127.00621,37.31178],[127.00617,37.31179],[127.00611,37.31182],[127.00597,37.31188],[127.00592,37.3119],[127.0059,37.31191],[127.00585,37.31194],[127.00584,37.31195],[127.00583,37.31197],[127.00583,37.31198],[127.00584,37.31197],[127.00585,37.31196],[127.00587,37.31195],[127.0059,37.31193],[127.00596,37.3119],[127.00609,37.31185],[127.00618,37.31182],[127.00622,37.31179],[127.00622,37.31179]]]}},{"type":"Feature","id":"TN_RIVER_BNDRY:WTR0100000000HRTI","properties":{"NF_ID":"WTR0100000000HRTI","admin_code":"41111","source_layer":"TN_RIVER_BNDRY","semantic":"zone","river_class":"소하천","river_class_source":"중심선 공간조인","survey_method":"사진측량"},"geometry":{"type":"Polygon","coordinates":[[[127.01388,37.31034],[127.01388,37.31033],[127.01387,37.31034],[127.01386,37.31034],[127.01383,37.31033],[127.01373,37.31032],[127.01356,37.31031],[127.01341,37.31029],[127.01333,37.31029],[127.01332,37.31028],[127.01332,37.31029],[127.01332,37.31029],[127.01341,37.3103],[127.01356,37.31031],[127.01373,37.31033],[127.01383,37.31034],[127.01386,37.31034],[127.01387,37.31034],[127.01388,37.31034],[127.01388,37.31034]]]}},{"type":"Feature","id":"TN_RIVER_BNDRY:WTR0100000000HRUJ","properties":{"NF_ID":"WTR0100000000HRUJ","admin_code":"41111","source_layer":"TN_RIVER_BNDRY","semantic":"zone","river_class":"소하천","river_class_source":"중심선 공간조인","survey_method":"사진측량"},"geometry":{"type":"Polygon","coordinates":[[[127.0139,37.31034],[127.01388,37.31034],[127.01388,37.31036],[127.0139,37.3104],[127.01393,37.31044],[127.01394,37.31045],[127.01395,37.31045],[127.01395,37.31044],[127.01392,37.31039],[127.0139,37.31035],[127.0139,37.31034]]]}},{"type":"Feature","id":"TN_RIVER_BNDRY:WTR0100000000HRVK","properties":{"NF_ID":"WTR0100000000HRVK","admin_code":"41111","source_layer":"TN_RIVER_BNDRY","semantic":"zone","river_class":"소하천","river_class_source":"중심선 공간조인","survey_method":"사진측량"},"geometry":{"type":"Polygon","coordinates":[[[127.0139,37.31034],[127.0139,37.31033],[127.0139,37.31033],[127.01388,37.31033],[127.01388,37.31034],[127.0139,37.31034]]]}},{"type":"Feature","id":"TN_RIVER_BNDRY:WTR0100000000HRWL","properties":{"NF_ID":"WTR0100000000HRWL","admin_code":"41111","source_layer":"TN_RIVER_BNDRY","semantic":"zone","river_class":"소하천","river_class_source":"중심선 공간조인","survey_method":"사진측량"},"geometry":{"type":"Polygon","coordinates":[[[127.01577,37.31152],[127.01567,37.31149],[127.01566,37.31148],[127.01565,37.31148],[127.01565,37.31148],[127.01565,37.31148],[127.01565,37.31149],[127.01565,37.3115],[127.01565,37.3115],[127.01566,37.3115],[127.01567,37.3115],[127.01568,37.3115],[127.01569,37.3115],[127.01577,37.31153],[127.01587,37.31157],[127.01588,37.31157],[127.01588,37.31157],[127.0159,37.31158],[127.0159,37.31158],[127.0159,37.31158],[127.01591,37.31158],[127.01591,37.31157],[127.01591,37.31157],[127.0159,37.31157],[127.01589,37.31156],[127.01577,37.31152]]]}},{"type":"Feature","id":"TN_RIVER_BNDRY:WTR0100000000HRXM","properties":{"NF_ID":"WTR0100000000HRXM","admin_code":"41111","source_layer":"TN_RIVER_BNDRY","semantic":"zone","river_class":"소하천","river_class_source":"중심선 공간조인","survey_method":"사진측량"},"geometry":{"type":"Polygon","coordinates":[[[127.01405,37.30885],[127.01405,37.30885],[127.01402,37.30881],[127.01401,37.3088],[127.01395,37.30884],[127.01398,37.30889],[127.01405,37.30885]]]}},{"type":"Feature","id":"TN_RIVER_BNDRY:WTR0100000000HRYN","properties":{"NF_ID":"WTR0100000000HRYN","admin_code":"41111","source_layer":"TN_RIVER_BNDRY","semantic":"zone","river_class":"소하천","river_class_source":"중심선 공간조인","survey_method":"사진측량"},"geometry":{"type":"Polygon","coordinates":[[[127.01525,37.31158],[127.01536,37.31209],[127.01479,37.31253],[127.01538,37.31209],[127.01525,37.31158]]]}},{"type":"Feature","id":"TN_RIVER_BNDRY:WTR0100000000HRZO","properties":{"NF_ID":"WTR0100000000HRZO","admin_code":"41111","source_layer":"TN_RIVER_BNDRY","semantic":"zone","river_class":"등급미확인","survey_method":"사진측량"},"geometry":{"type":"Polygon","coordinates":[[[127.01454,37.31029],[127.01455,37.31029],[127.01456,37.31029],[127.01458,37.31029],[127.01458,37.31029],[127.01459,37.31029],[127.01458,37.31028],[127.01455,37.31026],[127.01448,37.31023],[127.01441,37.31019],[127.01436,37.31017],[127.0143,37.31015],[127.01426,37.31013],[127.0142,37.31009],[127.01419,37.31009],[127.01419,37.31008],[127.01418,37.31007],[127.01417,37.31007],[127.01416,37.31006],[127.01415,37.31006],[127.01414,37.31006],[127.01412,37.31005],[127.01406,37.31003],[127.01399,37.31],[127.01398,37.31],[127.01397,37.31],[127.01394,37.30999],[127.01391,37.30998],[127.01389,37.30998],[127.01385,37.30997],[127.01381,37.30995],[127.01376,37.30994],[127.01376,37.30994],[127.01376,37.30994],[127.01375,37.30993],[127.01375,37.30992],[127.01375,37.30991],[127.01374,37.30991],[127.01373,37.3099],[127.01372,37.3099],[127.01371,37.30991],[127.01371,37.30991],[127.01371,37.30991],[127.01371,37.30991],[127.01371,37.30991],[127.01368,37.3099],[127.01366,37.30988],[127.01365,37.30987],[127.01365,37.30987],[127.01365,37.30986],[127.01365,37.30985],[127.01366,37.30985],[127.01366,37.30984],[127.01366,37.30983],[127.01365,37.30983],[127.01364,37.30983],[127.01364,37.30982],[127.01363,37.30982],[127.01362,37.30982],[127.0136,37.30982],[127.01359,37.30982],[127.01359,37.30982],[127.01359,37.30982],[127.01359,37.30983],[127.01362,37.30987],[127.01366,37.3099],[127.01368,37.30992],[127.0137,37.30993],[127.01371,37.30994],[127.01372,37.30995],[127.01372,37.30996],[127.01373,37.30996],[127.01374,37.30996],[127.01376,37.30996],[127.01381,37.30997],[127.01387,37.30999],[127.01389,37.30999],[127.01389,37.30999],[127.01392,37.31],[127.01393,37.31],[127.01394,37.31001],[127.01399,37.31002],[127.01406,37.31005],[127.01412,37.31007],[127.01414,37.31008],[127.01416,37.3101],[127.01419,37.31011],[127.01423,37.31013],[127.0143,37.31017],[127.01437,37.3102],[127.01447,37.31024],[127.01449,37.31026],[127.0145,37.31027],[127.0145,37.31027],[127.0145,37.31028],[127.01451,37.31028],[127.01452,37.31029],[127.01453,37.31029],[127.01454,37.31029]]]}},{"type":"Feature","id":"TN_RIVER_BNDRY:WTR0100000000HS0Q","properties":{"NF_ID":"WTR0100000000HS0Q","admin_code":"41111","source_layer":"TN_RIVER_BNDRY","semantic":"zone","river_class":"소하천","river_class_source":"중심선 공간조인","survey_method":"사진측량"},"geometry":{"type":"Polygon","coordinates":[[[127.0139,37.31033],[127.01339,37.3094],[127.01395,37.30884],[127.01336,37.30943],[127.0139,37.31033]]]}},{"type":"Feature","id":"TN_RIVER_BNDRY:WTR0100000000HS1R","properties":{"NF_ID":"WTR0100000000HS1R","admin_code":"41111","source_layer":"TN_RIVER_BNDRY","semantic":"zone","river_class":"소하천","river_class_source":"중심선 공간조인","survey_method":"사진측량"},"geometry":{"type":"Polygon","coordinates":[[[127.01401,37.3088],[127.01384,37.30807],[127.01362,37.30784],[127.0138,37.30729],[127.01366,37.30672],[127.01373,37.30727],[127.01356,37.30784],[127.01401,37.3088]]]}},{"type":"Feature","id":"TN_RIVER_BNDRY:WTR0100000000HS2S","properties":{"NF_ID":"WTR0100000000HS2S","admin_code":"41111","source_layer":"TN_RIVER_BNDRY","semantic":"zone","river_class":"소하천","river_class_source":"중심선 공간조인","survey_method":"사진측량"},"geometry":{"type":"Polygon","coordinates":[[[127.0083,37.31298],[127.0082,37.31287],[127.00761,37.31286],[127.00676,37.31179],[127.00582,37.31109],[127.00505,37.30998],[127.00449,37.30987],[127.00496,37.31003],[127.0057,37.31106],[127.0067,37.3118],[127.00767,37.31296],[127.0087,37.31319],[127.00877,37.3145],[127.00884,37.31334],[127.0083,37.31298]]]}},{"type":"Feature","id":"TN_RIVER_BNDRY:WTR0100000000HS3T","properties":{"NF_ID":"WTR0100000000HS3T","admin_code":"41111","source_layer":"TN_RIVER_BNDRY","semantic":"zone","river_class":"소하천","river_class_source":"중심선 공간조인","survey_method":"사진측량"},"geometry":{"type":"Polygon","coordinates":[[[127.01844,37.31437],[127.01768,37.31457],[127.01708,37.31519],[127.01762,37.31464],[127.01844,37.31437]]]}},{"type":"Feature","id":"TN_RIVER_BNDRY:WTR0100000000HS4U","properties":{"NF_ID":"WTR0100000000HS4U","admin_code":"41111","source_layer":"TN_RIVER_BNDRY","semantic":"zone","river_class":"소하천","river_class_source":"중심선 공간조인","survey_method":"사진측량"},"geometry":{"type":"Polygon","coordinates":[[[127.0189,37.30528],[127.01768,37.30497],[127.01818,37.30521],[127.0189,37.30528]]]}},{"type":"Feature","id":"TN_RIVER_BNDRY:WTR0100000000HS5V","properties":{"NF_ID":"WTR0100000000HS5V","admin_code":"41111","source_layer":"TN_RIVER_BNDRY","semantic":"zone","river_class":"지방하천","river_class_source":"중심선 공간조인","river_name":"수원천","river_code":"1120600","survey_method":"사진측량"},"geometry":{"type":"Polygon","coordinates":[[[127.01561,37.3334],[127.01497,37.33299],[127.01483,37.33245],[127.0147,37.3292],[127.01444,37.32925],[127.01469,37.33264],[127.01497,37.33319],[127.01561,37.3334]]]}},{"type":"Feature","id":"TN_RIVER_BNDRY:WTR0100000000HS6W","properties":{"NF_ID":"WTR0100000000HS6W","admin_code":"41111","source_layer":"TN_RIVER_BNDRY","semantic":"zone","river_class":"소하천","river_class_source":"중심선 공간조인","survey_method":"사진측량"},"geometry":{"type":"Polygon","coordinates":[[[127.01158,37.32689],[127.01158,37.32689],[127.01158,37.32689],[127.01157,37.32689],[127.01155,37.32689],[127.01154,37.32689],[127.01151,37.3269],[127.01146,37.3269],[127.01143,37.3269],[127.01143,37.32691],[127.01143,37.32691],[127.01143,37.32692],[127.01145,37.32692],[127.01151,37.32692],[127.01155,37.32692],[127.01156,37.32693],[127.01157,37.32693],[127.01158,37.32693],[127.0116,37.32694],[127.01158,37.32689]]]}},{"type":"Feature","id":"TN_RIVER_BNDRY:WTR0100000000HS7X","properties":{"NF_ID":"WTR0100000000HS7X","admin_code":"41111","source_layer":"TN_RIVER_BNDRY","semantic":"zone","river_class":"소하천","river_class_source":"중심선 공간조인","survey_method":"사진측량"},"geometry":{"type":"Polygon","coordinates":[[[127.01165,37.32691],[127.01162,37.32686],[127.01158,37.32689],[127.0116,37.32694],[127.01162,37.32695],[127.01163,37.32695],[127.01164,37.32695],[127.01164,37.32694],[127.01165,37.32693],[127.01165,37.32692],[127.01165,37.32691]]]}},{"type":"Feature","id":"TN_RIVER_BNDRY:WTR0100000000HS8Y","properties":{"NF_ID":"WTR0100000000HS8Y","admin_code":"41111","source_layer":"TN_RIVER_BNDRY","semantic":"zone","river_class":"소하천","river_class_source":"중심선 공간조인","survey_method":"사진측량"},"geometry":{"type":"Polygon","coordinates":[[[127.01162,37.32686],[127.01155,37.32681],[127.01149,37.32676],[127.01142,37.32672],[127.01134,37.32669],[127.01122,37.32666],[127.01119,37.32666],[127.01114,37.32666],[127.01108,37.32666],[127.01106,37.32666],[127.01105,37.32667],[127.01105,37.32667],[127.01105,37.32668],[127.01105,37.32668],[127.01105,37.32668],[127.01106,37.32669],[127.01112,37.3267],[127.01119,37.3267],[127.01128,37.32672],[127.01135,37.32674],[127.01138,37.32675],[127.01143,37.32677],[127.0115,37.32683],[127.01152,37.32684],[127.01158,37.32689],[127.01162,37.32686]]]}},{"type":"Feature","id":"TN_RIVER_BNDRY:WTR0100000000HS9Z","properties":{"NF_ID":"WTR0100000000HS9Z","admin_code":"41111","source_layer":"TN_RIVER_BNDRY","semantic":"zone","river_class":"지방하천","river_class_source":"중심선 공간조인","river_name":"수원천","river_code":"1120600","survey_method":"사진측량"},"geometry":{"type":"Polygon","coordinates":[[[127.0147,37.3292],[127.01471,37.32907],[127.01445,37.32911],[127.01444,37.32925],[127.0147,37.3292]]]}},{"type":"Feature","id":"TN_RIVER_BNDRY:WTR0100000000HSA0","properties":{"NF_ID":"WTR0100000000HSA0","admin_code":"41111","source_layer":"TN_RIVER_BNDRY","semantic":"zone","river_class":"지방하천","river_class_source":"중심선 공간조인","river_name":"수원천","river_code":"1120600","survey_method":"사진측량"},"geometry":{"type":"Polygon","coordinates":[[[127.01497,37.32574],[127.01469,37.32569],[127.01468,37.32575],[127.01491,37.32577],[127.01496,37.32578],[127.01497,37.32574]]]}},{"type":"Feature","id":"TN_RIVER_BNDRY:WTR0100000000HSB1","properties":{"NF_ID":"WTR0100000000HSB1","admin_code":"41111","source_layer":"TN_RIVER_BNDRY","semantic":"zone","river_class":"소하천","river_class_source":"중심선 공간조인","survey_method":"사진측량"},"geometry":{"type":"Polygon","coordinates":[[[127.01497,37.32574],[127.01534,37.32623],[127.01592,37.32662],[127.01623,37.32665],[127.01654,37.32641],[127.01597,37.32658],[127.01497,37.32574]]]}},{"type":"Feature","id":"TN_RIVER_BNDRY:WTR0100000000HSC2","properties":{"NF_ID":"WTR0100000000HSC2","admin_code":"41111","source_layer":"TN_RIVER_BNDRY","semantic":"zone","river_class":"지방하천","river_class_source":"중심선 공간조인","river_name":"수원천","river_code":"1120600","survey_method":"사진측량"},"geometry":{"type":"Polygon","coordinates":[[[127.01471,37.32907],[127.01475,37.32686],[127.01496,37.32578],[127.01468,37.32575],[127.01446,37.32698],[127.01444,37.32902],[127.01471,37.32907]]]}},{"type":"Feature","id":"TN_RIVER_BNDRY:WTR0100000000HSD3","properties":{"NF_ID":"WTR0100000000HSD3","admin_code":"41111","source_layer":"TN_RIVER_BNDRY","semantic":"zone","river_class":"소하천","river_class_source":"중심선 공간조인","survey_method":"사진측량"},"geometry":{"type":"Polygon","coordinates":[[[127.01444,37.32925],[127.01445,37.32911],[127.01429,37.32919],[127.0142,37.32939],[127.01444,37.32925]]]}},{"type":"Feature","id":"TN_RIVER_BNDRY:WTR0100000000HSE4","properties":{"NF_ID":"WTR0100000000HSE4","admin_code":"41111","source_layer":"TN_RIVER_BNDRY","semantic":"zone","river_class":"소하천","river_class_source":"중심선 공간조인","survey_method":"사진측량"},"geometry":{"type":"Polygon","coordinates":[[[127.01539,37.34222],[127.01571,37.34252],[127.01645,37.34274],[127.01662,37.34314],[127.01647,37.34271],[127.01539,37.34222]]]}},{"type":"Feature","id":"TN_RIVER_BNDRY:WTR0100000000HSF5","properties":{"NF_ID":"WTR0100000000HSF5","admin_code":"41111","source_layer":"TN_RIVER_BNDRY","semantic":"zone","river_class":"소하천","river_class_source":"중심선 공간조인","survey_method":"사진측량"},"geometry":{"type":"Polygon","coordinates":[[[127.01539,37.34222],[127.01536,37.34221],[127.01531,37.34219],[127.01529,37.34222],[127.01539,37.34225],[127.01539,37.34222]]]}},{"type":"Feature","id":"TN_RIVER_BNDRY:WTR0100000000HSG6","properties":{"NF_ID":"WTR0100000000HSG6","admin_code":"41111","source_layer":"TN_RIVER_BNDRY","semantic":"zone","river_class":"소하천","river_class_source":"중심선 공간조인","survey_method":"사진측량"},"geometry":{"type":"Polygon","coordinates":[[[127.01539,37.34225],[127.01535,37.34337],[127.01512,37.34379],[127.01539,37.34331],[127.01539,37.34225]]]}},{"type":"Feature","id":"TN_RIVER_BNDRY:WTR0100000000HSH7","properties":{"NF_ID":"WTR0100000000HSH7","admin_code":"41111","source_layer":"TN_RIVER_BNDRY","semantic":"zone","river_class":"지방하천","river_class_source":"중심선 공간조인","river_name":"수원천","river_code":"1120600","survey_method":"사진측량"},"geometry":{"type":"Polygon","coordinates":[[[127.0157,37.33344],[127.01561,37.3334],[127.01558,37.33348],[127.01567,37.33352],[127.0157,37.33344]]]}},{"type":"Feature","id":"TN_RIVER_BNDRY:WTR0100000000HSI8","properties":{"NF_ID":"WTR0100000000HSI8","admin_code":"41111","source_layer":"TN_RIVER_BNDRY","semantic":"zone","river_class":"소하천","river_class_source":"중심선 공간조인","survey_method":"사진측량"},"geometry":{"type":"Polygon","coordinates":[[[127.01531,37.34219],[127.01493,37.34188],[127.01508,37.34134],[127.01481,37.34008],[127.01517,37.33938],[127.01508,37.33877],[127.01552,37.33754],[127.01512,37.3359],[127.01558,37.33348],[127.01506,37.33591],[127.01543,37.33751],[127.01498,37.33877],[127.01506,37.33946],[127.01476,37.34003],[127.01499,37.34118],[127.01488,37.34189],[127.01531,37.34219]]]}},{"type":"Feature","id":"TN_RIVER_BNDRY:WTR0100000000HSJ9","properties":{"NF_ID":"WTR0100000000HSJ9","admin_code":"41111","source_layer":"TN_RIVER_BNDRY","semantic":"zone","river_class":"소하천","river_class_source":"중심선 공간조인","survey_method":"사진측량"},"geometry":{"type":"Polygon","coordinates":[[[127.00876,37.3279],[127.00957,37.32738],[127.00836,37.32803],[127.00822,37.32854],[127.00774,37.32896],[127.00775,37.32937],[127.00777,37.32898],[127.00827,37.32855],[127.00841,37.32805],[127.00876,37.3279]]]}},{"type":"Feature","id":"TN_RIVER_BNDRY:WTR0100000000HSKA","properties":{"NF_ID":"WTR0100000000HSKA","admin_code":"41111","source_layer":"TN_RIVER_BNDRY","semantic":"zone","river_class":"지방하천","river_class_source":"중심선 공간조인","river_name":"수원천","river_code":"1120600","survey_method":"사진측량"},"geometry":{"type":"Polygon","coordinates":[[[127.0157,37.33344],[127.01615,37.33383],[127.0181,37.33459],[127.01915,37.33554],[127.01972,37.33651],[127.02073,37.3372],[127.02065,37.33729],[127.02153,37.33818],[127.02106,37.33716],[127.01991,37.3366],[127.01927,37.3355],[127.01836,37.33463],[127.0157,37.33344]]]}},{"type":"Feature","id":"TN_RIVER_BNDRY:WTR0100000000IAEN","properties":{"NF_ID":"WTR0100000000IAEN","admin_code":"41111","source_layer":"TN_RIVER_BNDRY","semantic":"zone","river_class":"지방하천","river_class_source":"중심선 공간조인","river_name":"영화천","river_code":"1120710","survey_method":"사진측량"},"geometry":{"type":"Polygon","coordinates":[[[127.00127,37.30091],[127.00175,37.30055],[127.00272,37.30034],[127.00333,37.29983],[127.00403,37.29993],[127.00408,37.29971],[127.00395,37.29958],[127.0034,37.29958],[127.00285,37.299],[127.00146,37.29814],[127.00119,37.29757],[127.0,37.29761],[127.0,37.29777],[127.00095,37.29756],[127.00115,37.29771],[127.0,37.29877],[127.0,37.30149],[127.00127,37.30091]]]}},{"type":"Feature","id":"TN_RIVER_BNDRY:WTR0100000000IAGP","properties":{"NF_ID":"WTR0100000000IAGP","admin_code":"41111","source_layer":"TN_RIVER_BNDRY","semantic":"zone","river_class":"등급미확인","survey_method":"사진측량"},"geometry":{"type":"Polygon","coordinates":[[[127.0,37.31309],[127.0,37.31309],[127.0,37.31313],[127.0,37.31312],[127.00001,37.31311],[127.00001,37.31311],[127.00001,37.3131],[127.0,37.31309]]]}},{"type":"Feature","id":"TN_RIVER_BNDRY:WTR0100000000IAHQ","properties":{"NF_ID":"WTR0100000000IAHQ","admin_code":"41111","source_layer":"TN_RIVER_BNDRY","semantic":"zone","river_class":"소하천","river_class_source":"중심선 공간조인","survey_method":"사진측량"},"geometry":{"type":"Polygon","coordinates":[[[127.00003,37.31258],[127.0,37.31258],[127.0,37.31262],[127.00001,37.31262],[127.00003,37.31264],[127.00008,37.31267],[127.00012,37.31271],[127.00016,37.31277],[127.0002,37.31283],[127.00023,37.31291],[127.00024,37.31295],[127.00027,37.31298],[127.0003,37.31299],[127.00031,37.313],[127.00032,37.31302],[127.00034,37.31304],[127.00034,37.31308],[127.00034,37.31309],[127.00034,37.3131],[127.00034,37.31312],[127.00035,37.31312],[127.00033,37.31318],[127.00035,37.31325],[127.00034,37.31325],[127.00035,37.31326],[127.00037,37.31329],[127.00045,37.31337],[127.00051,37.31342],[127.0006,37.31349],[127.0006,37.3135],[127.0006,37.31351],[127.0006,37.31353],[127.00064,37.31355],[127.00066,37.31356],[127.00067,37.31356],[127.00069,37.31355],[127.00071,37.31353],[127.00072,37.31353],[127.00072,37.31351],[127.0007,37.3135],[127.00065,37.31348],[127.00061,37.31346],[127.00059,37.31345],[127.00055,37.31343],[127.00052,37.31339],[127.00049,37.31336],[127.00046,37.31334],[127.00043,37.3133],[127.00041,37.31327],[127.0004,37.31324],[127.0004,37.31322],[127.0004,37.31314],[127.0004,37.31306],[127.0004,37.31304],[127.00038,37.31302],[127.00037,37.313],[127.00033,37.31297],[127.00031,37.31295],[127.00028,37.31291],[127.00027,37.31286],[127.00025,37.31279],[127.0002,37.31271],[127.00015,37.31266],[127.00011,37.31263],[127.00003,37.31258]]]}},{"type":"Feature","id":"TN_RIVER_BNDRY:WTR0100000000OX79","properties":{"NF_ID":"WTR0100000000OX79","admin_code":"41111","source_layer":"TN_RIVER_BNDRY","semantic":"zone","river_class":"소하천","river_class_source":"중심선 공간조인","survey_method":"사진측량"},"geometry":{"type":"Polygon","coordinates":[[[126.97661,37.32089],[126.97667,37.3213],[126.97633,37.32173],[126.97618,37.32299],[126.97632,37.32326],[126.97694,37.32357],[126.97636,37.32324],[126.97625,37.32299],[126.97637,37.32175],[126.97671,37.32128],[126.97661,37.32089]]]}},{"type":"Feature","id":"TN_RIVER_BNDRY:WTR0100000000OY03","properties":{"NF_ID":"WTR0100000000OY03","admin_code":"41111","source_layer":"TN_RIVER_BNDRY","semantic":"zone","river_class":"소하천","river_class_source":"중심선 공간조인","survey_method":"사진측량"},"geometry":{"type":"Polygon","coordinates":[[[126.99978,37.31251],[126.99973,37.31249],[126.99971,37.31253],[126.99975,37.31255],[126.99978,37.31251]]]}},{"type":"Feature","id":"TN_RIVER_BNDRY:WTR0100000000OY14","properties":{"NF_ID":"WTR0100000000OY14","admin_code":"41111","source_layer":"TN_RIVER_BNDRY","semantic":"zone","river_class":"소하천","river_class_source":"중심선 공간조인","survey_method":"사진측량"},"geometry":{"type":"Polygon","coordinates":[[[126.99973,37.31249],[126.99969,37.31248],[126.99955,37.31242],[126.99945,37.31238],[126.99937,37.31235],[126.9993,37.31232],[126.99921,37.3123],[126.99914,37.31229],[126.99912,37.3123],[126.99902,37.31229],[126.999,37.31229],[126.999,37.31229],[126.999,37.31231],[126.999,37.31232],[126.999,37.31233],[126.99902,37.31233],[126.99902,37.31233],[126.99906,37.31233],[126.99906,37.31234],[126.99912,37.31235],[126.99918,37.31235],[126.99923,37.31236],[126.99934,37.31239],[126.99943,37.31242],[126.99955,37.31246],[126.99966,37.31251],[126.9997,37.31252],[126.99971,37.31253],[126.99973,37.31249]]]}},{"type":"Feature","id":"TN_RIVER_BNDRY:WTR0100000000P07D","properties":{"NF_ID":"WTR0100000000P07D","admin_code":"41111","source_layer":"TN_RIVER_BNDRY","semantic":"zone","river_class":"지방하천","river_class_source":"중심선 공간조인","river_name":"서호천","river_code":"1120700","survey_method":"사진측량"},"geometry":{"type":"Polygon","coordinates":[[[126.9881,37.32031],[126.98758,37.31948],[126.98736,37.31841],[126.98708,37.3184],[126.98753,37.31975],[126.9881,37.32031]]]}},{"type":"Feature","id":"TN_RIVER_BNDRY:WTR0100000000P08E","properties":{"NF_ID":"WTR0100000000P08E","admin_code":"41111","source_layer":"TN_RIVER_BNDRY","semantic":"zone","river_class":"소하천","river_class_source":"중심선 공간조인","survey_method":"사진측량"},"geometry":{"type":"Polygon","coordinates":[[[126.97659,37.32091],[126.97696,37.32014],[126.97657,37.31959],[126.97688,37.31936],[126.97647,37.31956],[126.9769,37.32015],[126.97659,37.32091]]]}},{"type":"Feature","id":"TN_RIVER_BNDRY:WTR0100000000P09F","properties":{"NF_ID":"WTR0100000000P09F","admin_code":"41111","source_layer":"TN_RIVER_BNDRY","semantic":"zone","river_class":"소하천","river_class_source":"중심선 공간조인","survey_method":"사진측량"},"geometry":{"type":"Polygon","coordinates":[[[126.98207,37.3158],[126.982,37.31572],[126.98174,37.31605],[126.98181,37.31614],[126.98207,37.3158]]]}},{"type":"Feature","id":"TN_RIVER_BNDRY:WTR0100000000P0AG","properties":{"NF_ID":"WTR0100000000P0AG","admin_code":"41111","source_layer":"TN_RIVER_BNDRY","semantic":"zone","river_class":"지방하천","river_class_source":"중심선 공간조인","river_name":"서호천","river_code":"1120700","survey_method":"사진측량"},"geometry":{"type":"Polygon","coordinates":[[[126.9945,37.32545],[126.99341,37.3238],[126.99281,37.32369],[126.99204,37.32328],[126.99138,37.32336],[126.989,37.322],[126.98888,37.32208],[126.99055,37.32316],[126.99132,37.3234],[126.99197,37.32334],[126.99278,37.3238],[126.99331,37.32383],[126.9945,37.32545]]]}},{"type":"Feature","id":"TN_RIVER_BNDRY:WTR0100000000P0BH","properties":{"NF_ID":"WTR0100000000P0BH","admin_code":"41111","source_layer":"TN_RIVER_BNDRY","semantic":"zone","river_class":"등급미확인","survey_method":"사진측량"},"geometry":{"type":"Polygon","coordinates":[[[126.98888,37.32208],[126.98812,37.32455],[126.98769,37.325],[126.98815,37.32456],[126.98888,37.32208]]]}},{"type":"Feature","id":"TN_RIVER_BNDRY:WTR0100000000P0CI","properties":{"NF_ID":"WTR0100000000P0CI","admin_code":"41111","source_layer":"TN_RIVER_BNDRY","semantic":"zone","river_class":"지방하천","river_class_source":"중심선 공간조인","river_name":"서호천","river_code":"1120700","survey_method":"사진측량"},"geometry":{"type":"Polygon","coordinates":[[[126.98233,37.31186],[126.98218,37.31157],[126.98207,37.31202],[126.98226,37.31226],[126.98233,37.31186]]]}},{"type":"Feature","id":"TN_RIVER_BNDRY:WTR0100000000P0DJ","properties":{"NF_ID":"WTR0100000000P0DJ","admin_code":"41111","source_layer":"TN_RIVER_BNDRY","semantic":"zone","river_class":"소하천","river_class_source":"중심선 공간조인","survey_method":"사진측량"},"geometry":{"type":"Polygon","coordinates":[[[126.98226,37.31226],[126.98207,37.31202],[126.9817,37.31379],[126.98232,37.31524],[126.98207,37.3158],[126.98239,37.31528],[126.98179,37.31378],[126.98226,37.31226]]]}},{"type":"Feature","id":"TN_RIVER_BNDRY:WTR0100000000P0EK","properties":{"NF_ID":"WTR0100000000P0EK","admin_code":"41111","source_layer":"TN_RIVER_BNDRY","semantic":"zone","river_class":"소하천","river_class_source":"중심선 공간조인","survey_method":"사진측량"},"geometry":{"type":"Polygon","coordinates":[[[126.9818,37.31613],[126.98141,37.3172],[126.98101,37.31738],[126.98019,37.31735],[126.97985,37.31773],[126.97818,37.31881],[126.9769,37.3194],[126.97824,37.31884],[126.97993,37.31775],[126.98018,37.31745],[126.98104,37.31746],[126.98141,37.31729],[126.9818,37.31613]]]}},{"type":"Feature","id":"TN_RIVER_BNDRY:WTR0100000000P0FL","properties":{"NF_ID":"WTR0100000000P0FL","admin_code":"41111","source_layer":"TN_RIVER_BNDRY","semantic":"zone","river_class":"지방하천","river_class_source":"중심선 공간조인","river_name":"서호천","river_code":"1120700","survey_method":"사진측량"},"geometry":{"type":"Polygon","coordinates":[[[126.989,37.322],[126.98897,37.32197],[126.98883,37.32205],[126.98888,37.32208],[126.989,37.322]]]}},{"type":"Feature","id":"TN_RIVER_BNDRY:WTR0100000000P0GM","properties":{"NF_ID":"WTR0100000000P0GM","admin_code":"41111","source_layer":"TN_RIVER_BNDRY","semantic":"zone","river_class":"지방하천","river_class_source":"중심선 공간조인","river_name":"서호천","river_code":"1120700","survey_method":"사진측량"},"geometry":{"type":"Polygon","coordinates":[[[126.98897,37.32197],[126.98824,37.32151],[126.98832,37.32074],[126.98813,37.32021],[126.98811,37.32148],[126.98841,37.32182],[126.98883,37.32205],[126.98897,37.32197]]]}},{"type":"Feature","id":"TN_RIVER_BNDRY:WTR0100000000P0HN","properties":{"NF_ID":"WTR0100000000P0HN","admin_code":"41111","source_layer":"TN_RIVER_BNDRY","semantic":"zone","river_class":"등급미확인","survey_method":"사진측량"},"geometry":{"type":"Polygon","coordinates":[[[126.98684,37.31998],[126.98684,37.31998],[126.98684,37.31998],[126.98683,37.31998],[126.98682,37.31998],[126.98682,37.31998],[126.98683,37.31998],[126.98687,37.32],[126.98688,37.32],[126.98707,37.32008],[126.98713,37.32011],[126.98714,37.32011],[126.98714,37.32011],[126.98714,37.3201],[126.98715,37.3201],[126.98715,37.32009],[126.98714,37.32009],[126.98708,37.32006],[126.98692,37.32],[126.9869,37.31999],[126.98687,37.31999],[126.98684,37.31998]]]}},{"type":"Feature","id":"TN_RIVER_BNDRY:WTR0100000000P0IO","properties":{"NF_ID":"WTR0100000000P0IO","admin_code":"41111","source_layer":"TN_RIVER_BNDRY","semantic":"zone","river_class":"지방하천","river_class_source":"중심선 공간조인","river_name":"서호천","river_code":"1120700","survey_method":"사진측량"},"geometry":{"type":"Polygon","coordinates":[[[126.98233,37.31186],[126.98226,37.31226],[126.98629,37.3169],[126.98721,37.31838],[126.98718,37.31805],[126.98647,37.31678],[126.98294,37.31275],[126.98233,37.31186]]]}},{"type":"Feature","id":"TN_RIVER_BNDRY:WTR0100000000P0PV","properties":{"NF_ID":"WTR0100000000P0PV","admin_code":"41111","source_layer":"TN_RIVER_BNDRY","semantic":"zone","river_class":"소하천","river_class_source":"중심선 공간조인","survey_method":"사진측량"},"geometry":{"type":"Polygon","coordinates":[[[126.97295,37.32075],[126.97331,37.32082],[126.9738,37.32055],[126.97448,37.32068],[126.9738,37.32053],[126.97331,37.3208],[126.97277,37.32074],[126.97259,37.32092],[126.97295,37.32075]]]}},{"type":"Feature","id":"TN_RIVER_BNDRY:WTR0100000000P0RX","properties":{"NF_ID":"WTR0100000000P0RX","admin_code":"41111","source_layer":"TN_RIVER_BNDRY","semantic":"zone","river_class":"소하천","river_class_source":"중심선 공간조인","survey_method":"사진측량"},"geometry":{"type":"Polygon","coordinates":[[[126.9945,37.32545],[126.99465,37.32563],[126.99527,37.32558],[126.9945,37.32545]]]}},{"type":"Feature","id":"TN_RIVER_BNDRY:WTR0100000000P0SY","properties":{"NF_ID":"WTR0100000000P0SY","admin_code":"41111","source_layer":"TN_RIVER_BNDRY","semantic":"zone","river_class":"지방하천","river_class_source":"중심선 공간조인","river_name":"서호천","river_code":"1120700","survey_method":"사진측량"},"geometry":{"type":"Polygon","coordinates":[[[126.99465,37.32563],[126.9945,37.32545],[126.99442,37.32549],[126.99453,37.32565],[126.99455,37.32567],[126.99465,37.32563]]]}},{"type":"Feature","id":"TN_RIVER_BNDRY:WTR0100000000P129","properties":{"NF_ID":"WTR0100000000P129","admin_code":"41111","source_layer":"TN_RIVER_BNDRY","semantic":"zone","river_class":"등급미확인","survey_method":"사진측량"},"geometry":{"type":"Polygon","coordinates":[[[126.99617,37.31239],[126.99615,37.31239],[126.99615,37.31239],[126.99614,37.3124],[126.99614,37.31242],[126.99615,37.31251],[126.99616,37.31253],[126.99616,37.31253],[126.99618,37.31256],[126.99623,37.31263],[126.99624,37.31265],[126.99626,37.31267],[126.99629,37.31269],[126.99635,37.31273],[126.99639,37.31276],[126.9964,37.31277],[126.9964,37.31277],[126.9964,37.31278],[126.9964,37.31278],[126.9964,37.31279],[126.99639,37.31282],[126.99638,37.31285],[126.99638,37.31287],[126.99638,37.31288],[126.99641,37.31295],[126.99643,37.313],[126.99647,37.31305],[126.99653,37.3131],[126.99656,37.31314],[126.99659,37.31318],[126.9966,37.31318],[126.9966,37.31318],[126.99661,37.31318],[126.9966,37.31316],[126.99658,37.31313],[126.99654,37.31307],[126.99651,37.31304],[126.99647,37.31301],[126.99645,37.31298],[126.9964,37.31287],[126.9964,37.31286],[126.99641,37.31283],[126.99643,37.31279],[126.99643,37.31278],[126.99643,37.31278],[126.99642,37.31276],[126.99642,37.31275],[126.99641,37.31274],[126.99631,37.31267],[126.9963,37.31266],[126.9963,37.31266],[126.99627,37.31262],[126.99625,37.31259],[126.99623,37.31256],[126.99619,37.31253],[126.99618,37.31252],[126.99618,37.3125],[126.99617,37.31241],[126.99617,37.3124],[126.99617,37.31239]]]}},{"type":"Feature","id":"TN_RIVER_BNDRY:WTR0100000000P13A","properties":{"NF_ID":"WTR0100000000P13A","admin_code":"41111","source_layer":"TN_RIVER_BNDRY","semantic":"zone","river_class":"지방하천","river_class_source":"중심선 공간조인","river_name":"서호천","river_code":"1120700","survey_method":"사진측량"},"geometry":{"type":"Polygon","coordinates":[[[126.99465,37.32563],[126.99455,37.32567],[126.99484,37.32597],[126.99547,37.32619],[126.99594,37.32685],[126.99583,37.32697],[126.99473,37.32699],[126.99474,37.32732],[126.9947,37.32699],[126.9941,37.32703],[126.99392,37.32859],[126.99364,37.32903],[126.99359,37.32964],[126.99374,37.32988],[126.99465,37.32969],[126.99649,37.33085],[126.99617,37.33058],[126.99632,37.33027],[126.99607,37.32975],[126.99538,37.32908],[126.99545,37.32866],[126.99576,37.32842],[126.99554,37.32776],[126.99591,37.32741],[126.99596,37.32675],[126.99547,37.32615],[126.99486,37.32593],[126.99465,37.32563]]]}},{"type":"Feature","id":"TN_RIVER_BNDRY:WTR0100000000P15C","properties":{"NF_ID":"WTR0100000000P15C","admin_code":"41111","source_layer":"TN_RIVER_BNDRY","semantic":"zone","river_class":"지방하천","river_class_source":"중심선 공간조인","river_name":"서호천","river_code":"1120700","survey_method":"사진측량"},"geometry":{"type":"Polygon","coordinates":[[[126.98218,37.31157],[126.98194,37.31099],[126.98184,37.30967],[126.98252,37.30437],[126.98459,37.30161],[126.9849,37.30144],[126.98519,37.30059],[126.98512,37.29928],[126.98533,37.29875],[126.98507,37.29897],[126.98816,37.29401],[126.98867,37.29307],[126.98881,37.29258],[126.98865,37.29252],[126.98888,37.29225],[126.98825,37.29233],[126.98824,37.29288],[126.9876,37.29406],[126.98474,37.29872],[126.98476,37.30038],[126.98435,37.30174],[126.98225,37.30441],[126.9823,37.30549],[126.98144,37.31019],[126.9815,37.31096],[126.98195,37.31185],[126.98207,37.31202],[126.98218,37.31157]]]}},{"type":"Feature","id":"TN_RIVER_BNDRY:WTR0100000000P17E","properties":{"NF_ID":"WTR0100000000P17E","admin_code":"41111","source_layer":"TN_RIVER_BNDRY","semantic":"zone","river_class":"지방하천","river_class_source":"중심선 공간조인","river_name":"영화천","river_code":"1120710","survey_method":"사진측량"},"geometry":{"type":"Polygon","coordinates":[[[126.99825,37.29812],[126.99825,37.29791],[126.99798,37.29784],[126.99685,37.29666],[126.99658,37.29682],[126.99783,37.29799],[126.99781,37.29814],[126.99825,37.29812]]]}},{"type":"Feature","id":"TN_RIVER_BNDRY:WTR0100000000P1BI","properties":{"NF_ID":"WTR0100000000P1BI","admin_code":"41111","source_layer":"TN_RIVER_BNDRY","semantic":"zone","river_class":"지방하천","river_class_source":"중심선 공간조인","river_name":"영화천","river_code":"1120710","survey_method":"사진측량"},"geometry":{"type":"Polygon","coordinates":[[[126.98888,37.29225],[126.98901,37.29204],[126.98865,37.29192],[126.98825,37.29233],[126.98888,37.29225]]]}},{"type":"Feature","id":"TN_RIVER_BNDRY:WTR0100000000P1KR","properties":{"NF_ID":"WTR0100000000P1KR","admin_code":"41111","source_layer":"TN_RIVER_BNDRY","semantic":"zone","river_class":"지방하천","river_class_source":"중심선 공간조인","river_name":"영화천","river_code":"1120710","survey_method":"사진측량"},"geometry":{"type":"Polygon","coordinates":[[[126.99678,37.29671],[126.9943,37.29416],[126.98901,37.29204],[126.98888,37.29225],[126.9942,37.29439],[126.99657,37.29682],[126.99678,37.29671]]]}},{"type":"Feature","id":"TN_RIVER_BNDRY:WTR0100000000POPJ","properties":{"NF_ID":"WTR0100000000POPJ","admin_code":"41111","source_layer":"TN_RIVER_BNDRY","semantic":"zone","river_class":"지방하천","river_class_source":"중심선 공간조인","river_name":"영화천","river_code":"1120710","survey_method":"사진측량"},"geometry":{"type":"Polygon","coordinates":[[[126.99866,37.29808],[127.0,37.29777],[127.0,37.29761],[126.99829,37.29799],[126.99827,37.29813],[126.99866,37.29808]]]}},{"type":"Feature","id":"TN_RIVER_BNDRY:WTR0100000000POQK","properties":{"NF_ID":"WTR0100000000POQK","admin_code":"41111","source_layer":"TN_RIVER_BNDRY","semantic":"zone","river_class":"지방하천","river_class_source":"중심선 공간조인","river_name":"영화천","river_code":"1120710","survey_method":"사진측량"},"geometry":{"type":"Polygon","coordinates":[[[127.0,37.30149],[127.0,37.29877],[126.99857,37.29999],[126.99847,37.30054],[126.99829,37.30055],[126.99827,37.3007],[126.99834,37.30094],[126.99831,37.30056],[126.99847,37.30056],[126.99854,37.30101],[126.99901,37.30143],[127.0,37.30149]]]}},{"type":"Feature","id":"TN_RIVER_BNDRY:WTR0100000000POTN","properties":{"NF_ID":"WTR0100000000POTN","admin_code":"41111","source_layer":"TN_RIVER_BNDRY","semantic":"zone","river_class":"소하천","river_class_source":"중심선 공간조인","survey_method":"사진측량"},"geometry":{"type":"Polygon","coordinates":[[[126.99975,37.31255],[126.99997,37.31311],[126.9998,37.31333],[127.0,37.31309],[126.99975,37.31255]]]}},{"type":"Feature","id":"TN_RIVER_BNDRY:WTR0100000000POUO","properties":{"NF_ID":"WTR0100000000POUO","admin_code":"41111","source_layer":"TN_RIVER_BNDRY","semantic":"zone","river_class":"소하천","river_class_source":"중심선 공간조인","survey_method":"사진측량"},"geometry":{"type":"Polygon","coordinates":[[[126.99978,37.31251],[126.99975,37.31255],[126.99994,37.3126],[126.99997,37.31261],[127.0,37.31262],[127.0,37.31258],[126.99992,37.31255],[126.99991,37.31255],[126.99978,37.31251]]]}}]}