{"type":"FeatureCollection","features":[{"type":"Feature","id":"TN_RIVER_BT:WTR0200000000G7PU","properties":{"NF_ID":"WTR0200000000G7PU","admin_code":"52111","source_layer":"TN_RIVER_BT","semantic":"channel","river_class":"소하천","river_class_source":"중심선 공간조인","survey_method":"사진측량"},"geometry":{"type":"Polygon","coordinates":[[[127.08025,35.74899],[127.08012,35.74956],[127.08088,35.75],[127.08016,35.74957],[127.08025,35.74899]]]}},{"type":"Feature","id":"TN_RIVER_BT:WTR0200000000GLEX","properties":{"NF_ID":"WTR0200000000GLEX","admin_code":"52111","source_layer":"TN_RIVER_BT","semantic":"channel","river_class":"소하천","river_class_source":"중심선 공간조인","survey_method":"사진측량"},"geometry":{"type":"Polygon","coordinates":[[[127.08088,35.75],[127.08088,35.75],[127.08079,35.75],[127.08079,35.75],[127.08085,35.75004],[127.08095,35.75014],[127.08102,35.75022],[127.08109,35.75032],[127.08115,35.7504],[127.08123,35.75051],[127.08125,35.75052],[127.08127,35.75048],[127.08122,35.75042],[127.08107,35.75023],[127.08102,35.75017],[127.08097,35.75009],[127.08093,35.75005],[127.08088,35.75]]]}},{"type":"Feature","id":"TN_RIVER_BT:WTR0200000000GLM5","properties":{"NF_ID":"WTR0200000000GLM5","admin_code":"52111","source_layer":"TN_RIVER_BT","semantic":"channel","river_class":"소하천","river_class_source":"중심선 공간조인","survey_method":"사진측량"},"geometry":{"type":"Polygon","coordinates":[[[127.06163,35.75713],[127.06177,35.75694],[127.06158,35.75712],[127.06097,35.75688],[127.06163,35.75713]]]}},{"type":"Feature","id":"TN_RIVER_BT:WTR0200000000GLUD","properties":{"NF_ID":"WTR0200000000GLUD","admin_code":"52111","source_layer":"TN_RIVER_BT","semantic":"channel","river_class":"소하천","river_class_source":"중심선 공간조인","survey_method":"사진측량"},"geometry":{"type":"Polygon","coordinates":[[[127.088,35.75878],[127.08835,35.75724],[127.08793,35.75642],[127.08828,35.75727],[127.08796,35.75796],[127.08797,35.75873],[127.08739,35.75832],[127.08628,35.7581],[127.086,35.75664],[127.08552,35.75593],[127.08634,35.75496],[127.08564,35.75409],[127.0863,35.75497],[127.08544,35.75588],[127.08594,35.75666],[127.08613,35.75793],[127.08523,35.75718],[127.0845,35.75712],[127.08446,35.75658],[127.08439,35.75708],[127.08518,35.7572],[127.08631,35.75824],[127.08777,35.75865],[127.08777,35.7595],[127.08947,35.76087],[127.08981,35.76186],[127.09314,35.76309],[127.09576,35.76682],[127.09321,35.76306],[127.08968,35.76171],[127.0895,35.76085],[127.08783,35.75937],[127.088,35.75878]]]}},{"type":"Feature","id":"TN_RIVER_BT:WTR0200000000GLVE","properties":{"NF_ID":"WTR0200000000GLVE","admin_code":"52111","source_layer":"TN_RIVER_BT","semantic":"channel","river_class":"소하천","river_class_source":"중심선 공간조인","survey_method":"사진측량"},"geometry":{"type":"Polygon","coordinates":[[[127.07239,35.76534],[127.07259,35.76644],[127.07226,35.7671],[127.07263,35.76644],[127.07239,35.76534]]]}},{"type":"Feature","id":"TN_RIVER_BT:WTR0200000000GLZI","properties":{"NF_ID":"WTR0200000000GLZI","admin_code":"52111","source_layer":"TN_RIVER_BT","semantic":"channel","river_class":"소하천","river_class_source":"중심선 공간조인","survey_method":"사진측량"},"geometry":{"type":"Polygon","coordinates":[[[127.1123,35.77111],[127.11228,35.77111],[127.11227,35.77111],[127.11227,35.77112],[127.11229,35.77113],[127.11242,35.7712],[127.11266,35.77133],[127.11282,35.77141],[127.11308,35.77155],[127.11331,35.77166],[127.1135,35.77176],[127.11365,35.77185],[127.11376,35.77192],[127.11389,35.77198],[127.11401,35.77205],[127.11421,35.77214],[127.11439,35.77223],[127.11461,35.77232],[127.11477,35.77239],[127.11484,35.77244],[127.115,35.77253],[127.1151,35.77258],[127.11524,35.77264],[127.1154,35.77272],[127.11562,35.77281],[127.11583,35.77294],[127.11603,35.77304],[127.11624,35.77314],[127.11633,35.77317],[127.11634,35.77317],[127.11634,35.77317],[127.11634,35.77316],[127.11634,35.77315],[127.11631,35.77313],[127.11618,35.77307],[127.11596,35.77296],[127.1158,35.77288],[127.11565,35.77279],[127.11545,35.7727],[127.1153,35.77264],[127.11515,35.77256],[127.11498,35.77248],[127.11487,35.77242],[127.11477,35.77236],[127.11459,35.77229],[127.11443,35.77222],[127.11425,35.77213],[127.11412,35.77207],[127.11399,35.77201],[127.11391,35.77196],[127.11378,35.77189],[127.11371,35.77186],[127.11362,35.7718],[127.11354,35.77175],[127.11344,35.77169],[127.11338,35.77167],[127.1133,35.77163],[127.11315,35.77156],[127.11304,35.77151],[127.11287,35.77142],[127.11271,35.77133],[127.11255,35.77124],[127.11237,35.77115],[127.1123,35.77111]]]}},{"type":"Feature","id":"TN_RIVER_BT:WTR0200000000GM0K","properties":{"NF_ID":"WTR0200000000GM0K","admin_code":"52111","source_layer":"TN_RIVER_BT","semantic":"channel","river_class":"지방하천","river_class_source":"중심선 공간조인","river_name":"독배천","river_code":"3220470","survey_method":"사진측량"},"geometry":{"type":"Polygon","coordinates":[[[127.09041,35.77321],[127.08849,35.7728],[127.08578,35.77141],[127.0848,35.77134],[127.0846,35.77072],[127.08478,35.77135],[127.08402,35.7714],[127.0823,35.77104],[127.08139,35.77028],[127.07909,35.76953],[127.07803,35.76945],[127.07696,35.7698],[127.07632,35.76978],[127.07536,35.76835],[127.07441,35.76777],[127.07297,35.7673],[127.07156,35.76721],[127.06883,35.76627],[127.06846,35.76575],[127.06857,35.76546],[127.06833,35.76572],[127.06758,35.76551],[127.06675,35.76483],[127.06684,35.76369],[127.06611,35.76246],[127.06599,35.76144],[127.06579,35.76136],[127.06601,35.76237],[127.06677,35.76366],[127.06672,35.76403],[127.06663,35.7643],[127.06533,35.76411],[127.06333,35.76274],[127.06173,35.76077],[127.06016,35.76001],[127.05992,35.75902],[127.06056,35.75836],[127.06055,35.75797],[127.06095,35.75784],[127.0607,35.75779],[127.06082,35.75755],[127.05985,35.75904],[127.05916,35.75879],[127.05877,35.75918],[127.05766,35.75923],[127.0588,35.75925],[127.05918,35.75893],[127.05981,35.75908],[127.06023,35.76012],[127.06196,35.76104],[127.06327,35.76272],[127.06519,35.76411],[127.06648,35.76424],[127.06704,35.76524],[127.06842,35.76584],[127.06881,35.7663],[127.07126,35.76724],[127.07305,35.76741],[127.07416,35.76776],[127.07532,35.76846],[127.07626,35.76982],[127.07728,35.7698],[127.07797,35.76952],[127.07916,35.76961],[127.08144,35.77035],[127.08222,35.77109],[127.08402,35.77147],[127.08582,35.77151],[127.08876,35.77303],[127.09002,35.77335],[127.09041,35.77321]]]}},{"type":"Feature","id":"TN_RIVER_BT:WTR0200000000GM4O","properties":{"NF_ID":"WTR0200000000GM4O","admin_code":"52111","source_layer":"TN_RIVER_BT","semantic":"channel","river_class":"소하천","river_class_source":"중심선 공간조인","survey_method":"사진측량"},"geometry":{"type":"Polygon","coordinates":[[[127.19731,35.7799],[127.19872,35.77968],[127.19719,35.7799],[127.19555,35.77967],[127.19731,35.7799]]]}},{"type":"Feature","id":"TN_RIVER_BT:WTR0200000000GM5P","properties":{"NF_ID":"WTR0200000000GM5P","admin_code":"52111","source_layer":"TN_RIVER_BT","semantic":"channel","river_class":"소하천","river_class_source":"중심선 공간조인","survey_method":"사진측량"},"geometry":{"type":"Polygon","coordinates":[[[127.18015,35.7861],[127.18119,35.78563],[127.18033,35.78607],[127.17977,35.78608],[127.18015,35.7861]]]}},{"type":"Feature","id":"TN_RIVER_BT:WTR0200000000GM9T","properties":{"NF_ID":"WTR0200000000GM9T","admin_code":"52111","source_layer":"TN_RIVER_BT","semantic":"channel","river_class":"등급미확인","survey_method":"사진측량"},"geometry":{"type":"Polygon","coordinates":[[[127.11095,35.78641],[127.11094,35.78641],[127.11092,35.78641],[127.11091,35.78642],[127.1109,35.78642],[127.1109,35.78643],[127.11091,35.78646],[127.11102,35.78665],[127.11114,35.78687],[127.11128,35.78712],[127.11141,35.78737],[127.11148,35.78752],[127.11155,35.78764],[127.11169,35.78792],[127.11186,35.78821],[127.11193,35.78831],[127.11194,35.78832],[127.11194,35.78834],[127.11194,35.7884],[127.11194,35.78842],[127.11195,35.78845],[127.11199,35.78859],[127.11212,35.78891],[127.11219,35.78912],[127.11228,35.7894],[127.11232,35.78954],[127.11232,35.78956],[127.11232,35.78957],[127.11233,35.78958],[127.11234,35.78957],[127.11234,35.78957],[127.11235,35.78957],[127.11235,35.78956],[127.11227,35.78918],[127.11223,35.78904],[127.11215,35.78882],[127.11206,35.78857],[127.11198,35.78839],[127.11188,35.78815],[127.11178,35.78793],[127.11147,35.78729],[127.11141,35.78715],[127.11131,35.78704],[127.11126,35.78698],[127.11123,35.78689],[127.11119,35.78678],[127.11112,35.78663],[127.11106,35.78655],[127.11095,35.78641]]]}},{"type":"Feature","id":"TN_RIVER_BT:WTR0200000000GMAU","properties":{"NF_ID":"WTR0200000000GMAU","admin_code":"52111","source_layer":"TN_RIVER_BT","semantic":"channel","river_class":"소하천","river_class_source":"중심선 공간조인","survey_method":"사진측량"},"geometry":{"type":"Polygon","coordinates":[[[127.06668,35.79016],[127.06866,35.78998],[127.06895,35.78919],[127.06949,35.78914],[127.069,35.78914],[127.06902,35.78899],[127.07014,35.78805],[127.07003,35.78737],[127.07078,35.78629],[127.07134,35.78488],[127.07348,35.78381],[127.07377,35.78292],[127.0752,35.78268],[127.07544,35.78296],[127.07525,35.78263],[127.07354,35.78288],[127.07373,35.78338],[127.07355,35.78371],[127.07132,35.78482],[127.07077,35.78624],[127.07,35.78737],[127.07011,35.78802],[127.06901,35.78894],[127.0686,35.78998],[127.06667,35.79012],[127.06611,35.79049],[127.06668,35.79016]]]}},{"type":"Feature","id":"TN_RIVER_BT:WTR0200000000GMBV","properties":{"NF_ID":"WTR0200000000GMBV","admin_code":"52111","source_layer":"TN_RIVER_BT","semantic":"channel","river_class":"국가하천","river_class_source":"중심선 공간조인","river_name":"전주천","river_code":"3210330","survey_method":"사진측량"},"geometry":{"type":"Polygon","coordinates":[[[127.19744,35.78823],[127.19808,35.78751],[127.19846,35.78729],[127.19852,35.78744],[127.19856,35.78719],[127.19875,35.78731],[127.19922,35.78682],[127.19889,35.78704],[127.19919,35.78612],[127.20001,35.78468],[127.19976,35.78271],[127.20018,35.78132],[127.19986,35.78033],[127.2003,35.78025],[127.20036,35.7786],[127.19997,35.77677],[127.19984,35.7783],[127.2001,35.77868],[127.19998,35.77909],[127.19979,35.77883],[127.19973,35.77998],[127.19942,35.78005],[127.19979,35.78025],[127.20008,35.78127],[127.19969,35.78289],[127.19997,35.78411],[127.19979,35.78497],[127.19933,35.78543],[127.19872,35.78692],[127.19827,35.78721],[127.19647,35.78568],[127.19605,35.78562],[127.19653,35.78576],[127.19823,35.78723],[127.19624,35.78926],[127.19583,35.79066],[127.19491,35.7921],[127.19593,35.79068],[127.1963,35.78937],[127.19744,35.78823]],[[127.19738,35.7881],[127.19739,35.7881],[127.19741,35.7881],[127.19742,35.78811],[127.19742,35.78812],[127.19743,35.78813],[127.19744,35.78814],[127.19744,35.78816],[127.19742,35.78817],[127.1974,35.78817],[127.19739,35.78816],[127.19738,35.78814],[127.19737,35.78812],[127.19738,35.7881]],[[127.19743,35.7881],[127.19742,35.78809],[127.19742,35.78805],[127.19743,35.78801],[127.19747,35.78794],[127.19751,35.78789],[127.19757,35.78782],[127.19763,35.78775],[127.19766,35.78771],[127.19773,35.78766],[127.19777,35.78762],[127.19781,35.7876],[127.19787,35.78758],[127.19791,35.78757],[127.19794,35.78756],[127.19797,35.78756],[127.19798,35.78757],[127.19798,35.78759],[127.19797,35.78761],[127.19795,35.78768],[127.19794,35.7877],[127.19793,35.78775],[127.19792,35.78776],[127.19789,35.7878],[127.19787,35.78783],[127.19786,35.78785],[127.19782,35.78789],[127.1978,35.78791],[127.19778,35.78792],[127.19774,35.78793],[127.19769,35.78795],[127.19762,35.78798],[127.19757,35.78801],[127.19752,35.78805],[127.19749,35.78807],[127.19747,35.78809],[127.19745,35.7881],[127.19743,35.7881]],[[127.20012,35.77882],[127.20012,35.7788],[127.20013,35.7788],[127.20014,35.77881],[127.20015,35.77884],[127.20015,35.77887],[127.20015,35.77891],[127.20014,35.77896],[127.20014,35.779],[127.20013,35.77904],[127.20013,35.77907],[127.20012,35.77909],[127.20011,35.77909],[127.2001,35.77908],[127.2001,35.77906],[127.2001,35.77903],[127.2001,35.77901],[127.2001,35.77898],[127.20011,35.77893],[127.20012,35.7789],[127.20012,35.77888],[127.20012,35.77885],[127.20012,35.77882]]]}},{"type":"Feature","id":"TN_RIVER_BT:WTR0200000000GMK4","properties":{"NF_ID":"WTR0200000000GMK4","admin_code":"52111","source_layer":"TN_RIVER_BT","semantic":"channel","river_class":"지방하천","river_class_source":"중심선 공간조인","river_name":"원당천","river_code":"3220360","survey_method":"사진측량"},"geometry":{"type":"Polygon","coordinates":[[[127.16952,35.79077],[127.17133,35.79376],[127.17083,35.79582],[127.17145,35.79703],[127.17072,35.79844],[127.17066,35.79961],[127.17079,35.79838],[127.17148,35.79695],[127.17149,35.79662],[127.17105,35.7963],[127.17085,35.79577],[127.17137,35.79377],[127.16952,35.79077]]]}},{"type":"Feature","id":"TN_RIVER_BT:WTR0200000000GML5","properties":{"NF_ID":"WTR0200000000GML5","admin_code":"52111","source_layer":"TN_RIVER_BT","semantic":"channel","river_class":"소하천","river_class_source":"중심선 공간조인","survey_method":"사진측량"},"geometry":{"type":"Polygon","coordinates":[[[127.14827,35.79785],[127.14931,35.79747],[127.15065,35.79618],[127.14912,35.79756],[127.14817,35.79783],[127.14839,35.79685],[127.14887,35.79649],[127.14866,35.79508],[127.14897,35.79443],[127.14868,35.79316],[127.14917,35.79255],[127.14921,35.79191],[127.14913,35.79255],[127.14863,35.79321],[127.14892,35.79442],[127.14858,35.79506],[127.14885,35.79647],[127.14836,35.79686],[127.14811,35.79789],[127.14857,35.7997],[127.1494,35.80005],[127.14858,35.79963],[127.14827,35.79785]]]}},{"type":"Feature","id":"TN_RIVER_BT:WTR0200000000GMN7","properties":{"NF_ID":"WTR0200000000GMN7","admin_code":"52111","source_layer":"TN_RIVER_BT","semantic":"channel","river_class":"소하천","river_class_source":"중심선 공간조인","survey_method":"사진측량"},"geometry":{"type":"Polygon","coordinates":[[[127.17893,35.78412],[127.1787,35.78382],[127.17915,35.78453],[127.17907,35.78524],[127.17969,35.78593],[127.17933,35.7864],[127.17932,35.78746],[127.17834,35.7891],[127.17837,35.79022],[127.17749,35.79183],[127.17833,35.79403],[127.17821,35.7947],[127.17869,35.79853],[127.17849,35.7993],[127.17901,35.80038],[127.17856,35.79929],[127.17874,35.79828],[127.17842,35.79409],[127.17754,35.79183],[127.17843,35.79026],[127.17839,35.78907],[127.17938,35.78744],[127.17939,35.78635],[127.17972,35.78594],[127.17911,35.78526],[127.17919,35.78456],[127.17893,35.78412]]]}},{"type":"Feature","id":"TN_RIVER_BT:WTR0200000000GMRB","properties":{"NF_ID":"WTR0200000000GMRB","admin_code":"52111","source_layer":"TN_RIVER_BT","semantic":"channel","river_class":"소하천","river_class_source":"중심선 공간조인","survey_method":"사진측량"},"geometry":{"type":"Polygon","coordinates":[[[127.0788,35.80228],[127.07882,35.80227],[127.07883,35.80227],[127.07895,35.80234],[127.07897,35.80232],[127.07882,35.80223],[127.07878,35.80219],[127.07878,35.80219],[127.07876,35.8022],[127.07875,35.80221],[127.07875,35.80225],[127.07876,35.80237],[127.07876,35.80238],[127.07877,35.8024],[127.07883,35.80242],[127.07883,35.80241],[127.07882,35.80237],[127.07881,35.80235],[127.0788,35.80232],[127.0788,35.8023],[127.0788,35.80228]]]}},{"type":"Feature","id":"TN_RIVER_BT:WTR0200000000GMXH","properties":{"NF_ID":"WTR0200000000GMXH","admin_code":"52111","source_layer":"TN_RIVER_BT","semantic":"channel","river_class":"소하천","river_class_source":"중심선 공간조인","survey_method":"사진측량"},"geometry":{"type":"Polygon","coordinates":[[[127.14403,35.82518],[127.14399,35.82513],[127.14331,35.82544],[127.14334,35.82549],[127.14352,35.82541],[127.14403,35.82518]]]}},{"type":"Feature","id":"TN_RIVER_BT:WTR0200000000GMYI","properties":{"NF_ID":"WTR0200000000GMYI","admin_code":"52111","source_layer":"TN_RIVER_BT","semantic":"channel","river_class":"소하천","river_class_source":"중심선 공간조인","survey_method":"사진측량"},"geometry":{"type":"Polygon","coordinates":[[[127.14317,35.82566],[127.14309,35.82562],[127.14309,35.82563],[127.14308,35.82565],[127.14307,35.82566],[127.14307,35.82567],[127.14303,35.82571],[127.14291,35.82588],[127.14274,35.82609],[127.14264,35.82622],[127.14261,35.82625],[127.1426,35.82627],[127.14258,35.82627],[127.14257,35.82628],[127.14255,35.82629],[127.14263,35.82634],[127.14265,35.82631],[127.14265,35.82631],[127.14265,35.8263],[127.14264,35.82629],[127.14265,35.82627],[127.14284,35.82603],[127.14298,35.82586],[127.14306,35.82573],[127.14307,35.82571],[127.14309,35.8257],[127.1431,35.82569],[127.14313,35.82569],[127.14314,35.82568],[127.14315,35.82568],[127.14317,35.82566]]]}},{"type":"Feature","id":"TN_RIVER_BT:WTR0200000000GMZJ","properties":{"NF_ID":"WTR0200000000GMZJ","admin_code":"52111","source_layer":"TN_RIVER_BT","semantic":"channel","river_class":"소하천","river_class_source":"중심선 공간조인","survey_method":"사진측량"},"geometry":{"type":"Polygon","coordinates":[[[127.14238,35.82662],[127.14231,35.82657],[127.14229,35.82662],[127.14224,35.82671],[127.14212,35.82685],[127.14201,35.827],[127.1419,35.82713],[127.14185,35.8272],[127.14179,35.82727],[127.14168,35.8274],[127.14162,35.82748],[127.1415,35.82763],[127.14144,35.82768],[127.14141,35.8277],[127.14148,35.82774],[127.14149,35.82774],[127.14155,35.82762],[127.14162,35.82752],[127.14176,35.82735],[127.14188,35.82722],[127.142,35.82706],[127.14221,35.8268],[127.14236,35.82663],[127.14238,35.82662]]]}}]}