{"type":"FeatureCollection","features":[{"type":"Feature","id":"TN_RIVER_BNDRY:WTR0100000000HFBO","properties":{"NF_ID":"WTR0100000000HFBO","admin_code":"11680","source_layer":"TN_RIVER_BNDRY","semantic":"zone","river_class":"지방하천","river_class_source":"중심선 공간조인","river_name":"세곡천","river_code":"1023990","survey_method":"사진측량"},"geometry":{"type":"Polygon","coordinates":[[[127.11392,37.46146],[127.11409,37.46106],[127.11337,37.4609],[127.11194,37.46151],[127.10827,37.46202],[127.10553,37.46267],[127.10254,37.46255],[127.10226,37.46276],[127.10092,37.46488],[127.10006,37.46568],[127.0978,37.4658],[127.09628,37.46554],[127.09003,37.46353],[127.08973,37.46374],[127.0868,37.46446],[127.08685,37.46462],[127.09018,37.46381],[127.09309,37.4647],[127.09374,37.46509],[127.0951,37.46538],[127.09604,37.46581],[127.09751,37.46605],[127.09872,37.46608],[127.09905,37.46622],[127.09933,37.466],[127.10058,37.46582],[127.10126,37.46448],[127.10253,37.46264],[127.10531,37.46287],[127.10738,37.46258],[127.1092,37.46214],[127.11219,37.46179],[127.11345,37.46133],[127.11392,37.46146]]]}},{"type":"Feature","id":"TN_RIVER_BNDRY:WTR0100000000HFO1","properties":{"NF_ID":"WTR0100000000HFO1","admin_code":"11680","source_layer":"TN_RIVER_BNDRY","semantic":"zone","river_class":"지방하천","river_class_source":"중심선 공간조인","river_name":"탄천","river_code":"1024930","survey_method":"사진측량"},"geometry":{"type":"Polygon","coordinates":[[[127.12378,37.46719],[127.12195,37.46726],[127.12153,37.46854],[127.12117,37.46897],[127.1231,37.46931],[127.12378,37.46719]]]}},{"type":"Feature","id":"TN_RIVER_BNDRY:WTR0100000000HFP2","properties":{"NF_ID":"WTR0100000000HFP2","admin_code":"11680","source_layer":"TN_RIVER_BNDRY","semantic":"zone","river_class":"지방하천","river_class_source":"중심선 공간조인","river_name":"세곡천","river_code":"1023990","survey_method":"사진측량"},"geometry":{"type":"Polygon","coordinates":[[[127.11949,37.46353],[127.11856,37.46341],[127.11603,37.46273],[127.11553,37.46244],[127.11424,37.46121],[127.11395,37.46148],[127.11522,37.4627],[127.11564,37.46291],[127.11677,37.46315],[127.11954,37.46415],[127.1199,37.46441],[127.11949,37.46353]]]}},{"type":"Feature","id":"TN_RIVER_BNDRY:WTR0100000000HFQ3","properties":{"NF_ID":"WTR0100000000HFQ3","admin_code":"11680","source_layer":"TN_RIVER_BNDRY","semantic":"zone","river_class":"지방하천","river_class_source":"중심선 공간조인","river_name":"탄천","river_code":"1024930","survey_method":"사진측량"},"geometry":{"type":"Polygon","coordinates":[[[127.12196,37.46537],[127.12182,37.46531],[127.12124,37.46577],[127.12135,37.46591],[127.12196,37.46537]]]}},{"type":"Feature","id":"TN_RIVER_BNDRY:WTR0100000000HFR4","properties":{"NF_ID":"WTR0100000000HFR4","admin_code":"11680","source_layer":"TN_RIVER_BNDRY","semantic":"zone","river_class":"지방하천","river_class_source":"중심선 공간조인","river_name":"탄천","river_code":"1024930","survey_method":"사진측량"},"geometry":{"type":"Polygon","coordinates":[[[127.12378,37.46704],[127.12369,37.46684],[127.12275,37.46628],[127.12193,37.46666],[127.12191,37.46702],[127.1225,37.4672],[127.12378,37.46704]]]}},{"type":"Feature","id":"TN_RIVER_BNDRY:WTR0100000000HFS5","properties":{"NF_ID":"WTR0100000000HFS5","admin_code":"11680","source_layer":"TN_RIVER_BNDRY","semantic":"zone","river_class":"소하천","river_class_source":"중심선 공간조인","survey_method":"사진측량"},"geometry":{"type":"Polygon","coordinates":[[[127.1225,37.4672],[127.12244,37.4672],[127.12232,37.46719],[127.12207,37.46716],[127.12206,37.46716],[127.12199,37.46715],[127.12199,37.46715],[127.12199,37.46717],[127.12199,37.46717],[127.12204,37.46718],[127.12206,37.46718],[127.12221,37.46719],[127.12243,37.46722],[127.12249,37.46724],[127.1225,37.4672]]]}},{"type":"Feature","id":"TN_RIVER_BNDRY:WTR0100000000HFU7","properties":{"NF_ID":"WTR0100000000HFU7","admin_code":"11680","source_layer":"TN_RIVER_BNDRY","semantic":"zone","river_class":"소하천","river_class_source":"중심선 공간조인","survey_method":"사진측량"},"geometry":{"type":"Polygon","coordinates":[[[127.12261,37.46612],[127.12275,37.46628],[127.12298,37.46555],[127.12276,37.46523],[127.12292,37.46555],[127.12272,37.46569],[127.12261,37.46612]]]}},{"type":"Feature","id":"TN_RIVER_BNDRY:WTR0100000000HFV8","properties":{"NF_ID":"WTR0100000000HFV8","admin_code":"11680","source_layer":"TN_RIVER_BNDRY","semantic":"zone","river_class":"지방하천","river_class_source":"중심선 공간조인","river_name":"탄천","river_code":"1024930","survey_method":"사진측량"},"geometry":{"type":"Polygon","coordinates":[[[127.12261,37.46612],[127.12196,37.46537],[127.12135,37.46591],[127.12184,37.46639],[127.12261,37.46612]]]}},{"type":"Feature","id":"TN_RIVER_BNDRY:WTR0100000000HFW9","properties":{"NF_ID":"WTR0100000000HFW9","admin_code":"11680","source_layer":"TN_RIVER_BNDRY","semantic":"zone","river_class":"지방하천","river_class_source":"중심선 공간조인","river_name":"탄천","river_code":"1024930","survey_method":"사진측량"},"geometry":{"type":"Polygon","coordinates":[[[127.12275,37.46628],[127.12261,37.46612],[127.12184,37.46639],[127.12193,37.46666],[127.12275,37.46628]]]}},{"type":"Feature","id":"TN_RIVER_BNDRY:WTR0100000000HFXA","properties":{"NF_ID":"WTR0100000000HFXA","admin_code":"11680","source_layer":"TN_RIVER_BNDRY","semantic":"zone","river_class":"소하천","river_class_source":"중심선 공간조인","survey_method":"사진측량"},"geometry":{"type":"Polygon","coordinates":[[[127.11872,37.4733],[127.11771,37.47288],[127.11732,37.47291],[127.11728,37.47301],[127.11771,37.47297],[127.11865,37.4734],[127.11872,37.4733]]]}},{"type":"Feature","id":"TN_RIVER_BNDRY:WTR0100000000HFYB","properties":{"NF_ID":"WTR0100000000HFYB","admin_code":"11680","source_layer":"TN_RIVER_BNDRY","semantic":"zone","river_class":"소하천","river_class_source":"중심선 공간조인","survey_method":"사진측량"},"geometry":{"type":"Polygon","coordinates":[[[127.11732,37.47291],[127.11699,37.47265],[127.11686,37.47284],[127.11728,37.47301],[127.11732,37.47291]]]}},{"type":"Feature","id":"TN_RIVER_BNDRY:WTR0100000000HFZC","properties":{"NF_ID":"WTR0100000000HFZC","admin_code":"11680","source_layer":"TN_RIVER_BNDRY","semantic":"zone","river_class":"소하천","river_class_source":"중심선 공간조인","survey_method":"사진측량"},"geometry":{"type":"Polygon","coordinates":[[[127.11728,37.47301],[127.11686,37.47284],[127.11698,37.47341],[127.11673,37.47354],[127.11698,37.47352],[127.11728,37.47301]]]}},{"type":"Feature","id":"TN_RIVER_BNDRY:WTR0100000000HG0E","properties":{"NF_ID":"WTR0100000000HG0E","admin_code":"11680","source_layer":"TN_RIVER_BNDRY","semantic":"zone","river_class":"소하천","river_class_source":"중심선 공간조인","survey_method":"사진측량"},"geometry":{"type":"Polygon","coordinates":[[[127.11699,37.47265],[127.11673,37.47222],[127.11613,37.472],[127.11579,37.4716],[127.11493,37.47144],[127.11438,37.47107],[127.11419,37.47108],[127.11495,37.47148],[127.11567,37.4716],[127.11612,37.47204],[127.11676,37.47233],[127.11686,37.47284],[127.11699,37.47265]]]}},{"type":"Feature","id":"TN_RIVER_BNDRY:WTR0100000000HG1F","properties":{"NF_ID":"WTR0100000000HG1F","admin_code":"11680","source_layer":"TN_RIVER_BNDRY","semantic":"zone","river_class":"소하천","river_class_source":"중심선 공간조인","survey_method":"사진측량"},"geometry":{"type":"Polygon","coordinates":[[[127.11389,37.46158],[127.11386,37.46157],[127.11383,37.46163],[127.11383,37.46165],[127.11384,37.46167],[127.11384,37.46168],[127.11385,37.46168],[127.11385,37.46168],[127.11386,37.46168],[127.11388,37.46165],[127.11388,37.46164],[127.11387,37.46163],[127.1139,37.46158],[127.11389,37.46158]]]}},{"type":"Feature","id":"TN_RIVER_BNDRY:WTR0100000000HG2G","properties":{"NF_ID":"WTR0100000000HG2G","admin_code":"11680","source_layer":"TN_RIVER_BNDRY","semantic":"zone","river_class":"소하천","river_class_source":"중심선 공간조인","survey_method":"사진측량"},"geometry":{"type":"Polygon","coordinates":[[[127.11395,37.46148],[127.11392,37.46146],[127.11388,37.46152],[127.11392,37.46154],[127.11395,37.46148]]]}},{"type":"Feature","id":"TN_RIVER_BNDRY:WTR0100000000HG3H","properties":{"NF_ID":"WTR0100000000HG3H","admin_code":"11680","source_layer":"TN_RIVER_BNDRY","semantic":"zone","river_class":"지방하천","river_class_source":"중심선 공간조인","river_name":"세곡천","river_code":"1023990","survey_method":"사진측량"},"geometry":{"type":"Polygon","coordinates":[[[127.11424,37.46121],[127.11409,37.46106],[127.11395,37.46148],[127.11424,37.46121]]]}},{"type":"Feature","id":"TN_RIVER_BNDRY:WTR0100000000HG5J","properties":{"NF_ID":"WTR0100000000HG5J","admin_code":"11680","source_layer":"TN_RIVER_BNDRY","semantic":"zone","river_class":"지방하천","river_class_source":"중심선 공간조인","river_name":"탄천","river_code":"1024930","survey_method":"사진측량"},"geometry":{"type":"Polygon","coordinates":[[[127.12182,37.46531],[127.12081,37.46419],[127.1199,37.46441],[127.12124,37.46577],[127.12182,37.46531]]]}},{"type":"Feature","id":"TN_RIVER_BNDRY:WTR0100000000HG7L","properties":{"NF_ID":"WTR0100000000HG7L","admin_code":"11680","source_layer":"TN_RIVER_BNDRY","semantic":"zone","river_class":"지방하천","river_class_source":"중심선 공간조인","river_name":"탄천","river_code":"1024930","survey_method":"사진측량"},"geometry":{"type":"Polygon","coordinates":[[[127.1231,37.46931],[127.12117,37.46897],[127.12038,37.47004],[127.12274,37.47041],[127.1231,37.46931]]]}},{"type":"Feature","id":"TN_RIVER_BNDRY:WTR0100000000HG8M","properties":{"NF_ID":"WTR0100000000HG8M","admin_code":"11680","source_layer":"TN_RIVER_BNDRY","semantic":"zone","river_class":"지방하천","river_class_source":"중심선 공간조인","river_name":"세곡천","river_code":"1023990","survey_method":"사진측량"},"geometry":{"type":"Polygon","coordinates":[[[127.12081,37.46419],[127.12039,37.4636],[127.11949,37.46353],[127.1199,37.46441],[127.12081,37.46419]]]}},{"type":"Feature","id":"TN_RIVER_BNDRY:WTR0100000000HG9N","properties":{"NF_ID":"WTR0100000000HG9N","admin_code":"11680","source_layer":"TN_RIVER_BNDRY","semantic":"zone","river_class":"지방하천","river_class_source":"중심선 공간조인","river_name":"탄천","river_code":"1024930","survey_method":"사진측량"},"geometry":{"type":"Polygon","coordinates":[[[127.12378,37.46719],[127.12378,37.46704],[127.12249,37.46724],[127.12378,37.46719]]]}},{"type":"Feature","id":"TN_RIVER_BNDRY:WTR0100000000HHBQ","properties":{"NF_ID":"WTR0100000000HHBQ","admin_code":"11680","source_layer":"TN_RIVER_BNDRY","semantic":"zone","river_class":"소하천","river_class_source":"중심선 공간조인","survey_method":"사진측량"},"geometry":{"type":"Polygon","coordinates":[[[127.10537,37.4773],[127.10507,37.47671],[127.10533,37.47731],[127.10519,37.47896],[127.10537,37.4773]]]}},{"type":"Feature","id":"TN_RIVER_BNDRY:WTR0100000000HHVA","properties":{"NF_ID":"WTR0100000000HHVA","admin_code":"11680","source_layer":"TN_RIVER_BNDRY","semantic":"zone","river_class":"소하천","river_class_source":"중심선 공간조인","survey_method":"사진측량"},"geometry":{"type":"Polygon","coordinates":[[[127.06735,37.47633],[127.06795,37.47626],[127.06839,37.47583],[127.06918,37.47545],[127.06968,37.47486],[127.06924,37.47535],[127.06834,37.47581],[127.06794,37.47625],[127.06735,37.47633]]]}},{"type":"Feature","id":"TN_RIVER_BNDRY:WTR0100000000HHWB","properties":{"NF_ID":"WTR0100000000HHWB","admin_code":"11680","source_layer":"TN_RIVER_BNDRY","semantic":"zone","river_class":"소하천","river_class_source":"중심선 공간조인","survey_method":"사진측량"},"geometry":{"type":"Polygon","coordinates":[[[127.06427,37.47604],[127.06463,37.47485],[127.06511,37.47396],[127.06563,37.47357],[127.06508,37.47395],[127.0646,37.47485],[127.06427,37.47604]]]}},{"type":"Feature","id":"TN_RIVER_BNDRY:WTR0100000000HKCU","properties":{"NF_ID":"WTR0100000000HKCU","admin_code":"11680","source_layer":"TN_RIVER_BNDRY","semantic":"zone","river_class":"소하천","river_class_source":"중심선 공간조인","survey_method":"사진측량"},"geometry":{"type":"Polygon","coordinates":[[[127.09196,37.48674],[127.09179,37.48575],[127.09164,37.48578],[127.09195,37.48662],[127.09164,37.48711],[127.0919,37.48673],[127.09208,37.48738],[127.09196,37.48674]]]}},{"type":"Feature","id":"TN_RIVER_BNDRY:WTR0100000000HKDV","properties":{"NF_ID":"WTR0100000000HKDV","admin_code":"11680","source_layer":"TN_RIVER_BNDRY","semantic":"zone","river_class":"소하천","river_class_source":"중심선 공간조인","survey_method":"사진측량"},"geometry":{"type":"Polygon","coordinates":[[[127.09243,37.48641],[127.09241,37.4864],[127.0924,37.48642],[127.09241,37.48643],[127.09245,37.48645],[127.09251,37.48648],[127.09253,37.48649],[127.09254,37.48651],[127.09256,37.48652],[127.09257,37.48654],[127.09258,37.48655],[127.09258,37.48658],[127.09258,37.48662],[127.09259,37.48664],[127.09259,37.48665],[127.09259,37.48666],[127.09263,37.48672],[127.09265,37.48676],[127.09273,37.48686],[127.0928,37.48697],[127.09281,37.48698],[127.09281,37.48699],[127.09282,37.48701],[127.09284,37.48703],[127.09285,37.48706],[127.09287,37.48708],[127.09289,37.4871],[127.09291,37.48712],[127.09293,37.48712],[127.09298,37.48716],[127.09299,37.48716],[127.09299,37.48716],[127.09299,37.48716],[127.09299,37.48716],[127.09296,37.48713],[127.09293,37.48711],[127.09293,37.4871],[127.0929,37.48708],[127.09289,37.48707],[127.09287,37.48705],[127.09286,37.48704],[127.09286,37.48702],[127.09284,37.48699],[127.09284,37.48698],[127.09284,37.48697],[127.09283,37.48695],[127.09282,37.48694],[127.09276,37.48685],[127.09271,37.48679],[127.09269,37.48675],[127.09266,37.48671],[127.09263,37.48666],[127.09262,37.48664],[127.09262,37.48662],[127.09261,37.4866],[127.09261,37.48658],[127.09261,37.48654],[127.0926,37.48653],[127.09259,37.48651],[127.09258,37.4865],[127.09257,37.48649],[127.09255,37.48648],[127.09254,37.48647],[127.09253,37.48646],[127.09251,37.48645],[127.09243,37.48641]]]}},{"type":"Feature","id":"TN_RIVER_BNDRY:WTR0100000000HKEW","properties":{"NF_ID":"WTR0100000000HKEW","admin_code":"11680","source_layer":"TN_RIVER_BNDRY","semantic":"zone","river_class":"소하천","river_class_source":"중심선 공간조인","survey_method":"사진측량"},"geometry":{"type":"Polygon","coordinates":[[[127.09215,37.4805],[127.09097,37.47997],[127.09024,37.47981],[127.08978,37.47916],[127.08982,37.47889],[127.08972,37.47912],[127.09006,37.47979],[127.09215,37.4805]]]}},{"type":"Feature","id":"TN_RIVER_BNDRY:WTR0100000000HKFX","properties":{"NF_ID":"WTR0100000000HKFX","admin_code":"11680","source_layer":"TN_RIVER_BNDRY","semantic":"zone","river_class":"소하천","river_class_source":"중심선 공간조인","survey_method":"사진측량"},"geometry":{"type":"Polygon","coordinates":[[[127.0643,37.47632],[127.0643,37.47632],[127.06429,37.47632],[127.06429,37.47632],[127.06429,37.47633],[127.06432,37.47645],[127.06436,37.47653],[127.06436,37.47653],[127.0644,37.4766],[127.0644,37.47667],[127.0644,37.47671],[127.06439,37.47674],[127.06441,37.47673],[127.06441,37.47672],[127.06442,37.47667],[127.06442,37.4766],[127.06442,37.47659],[127.06438,37.47652],[127.06434,37.47644],[127.06431,37.47633],[127.0643,37.47632]]]}},{"type":"Feature","id":"TN_RIVER_BNDRY:WTR0100000000HKGY","properties":{"NF_ID":"WTR0100000000HKGY","admin_code":"11680","source_layer":"TN_RIVER_BNDRY","semantic":"zone","river_class":"소하천","river_class_source":"중심선 공간조인","survey_method":"사진측량"},"geometry":{"type":"Polygon","coordinates":[[[127.0641,37.47723],[127.06409,37.47722],[127.06408,37.47722],[127.06407,37.47724],[127.06395,37.47733],[127.06394,37.47734],[127.06382,37.47744],[127.06373,37.47751],[127.0637,37.47755],[127.0637,37.47756],[127.0637,37.47757],[127.06375,37.47751],[127.06383,37.47745],[127.06395,37.47735],[127.06397,37.47733],[127.0641,37.47724],[127.0641,37.47723]]]}},{"type":"Feature","id":"TN_RIVER_BNDRY:WTR0100000000HKHZ","properties":{"NF_ID":"WTR0100000000HKHZ","admin_code":"11680","source_layer":"TN_RIVER_BNDRY","semantic":"zone","river_class":"소하천","river_class_source":"중심선 공간조인","survey_method":"사진측량"},"geometry":{"type":"Polygon","coordinates":[[[127.06359,37.47788],[127.06358,37.47788],[127.06358,37.47789],[127.06357,37.47789],[127.06357,37.4779],[127.06355,37.47791],[127.06353,37.47792],[127.0635,37.47794],[127.06342,37.47798],[127.06331,37.47804],[127.0633,37.47804],[127.0633,37.47805],[127.0633,37.47805],[127.06329,37.47805],[127.06328,37.47813],[127.06329,37.47814],[127.0633,37.47814],[127.06331,37.47815],[127.06332,37.47806],[127.06332,37.47805],[127.06343,37.47799],[127.06351,37.47795],[127.06352,37.47795],[127.06356,37.47793],[127.06358,37.47792],[127.06359,37.47791],[127.0636,37.4779],[127.0636,37.47789],[127.0636,37.47789],[127.06359,37.47788]]]}},{"type":"Feature","id":"TN_RIVER_BNDRY:WTR0100000000HKI0","properties":{"NF_ID":"WTR0100000000HKI0","admin_code":"11680","source_layer":"TN_RIVER_BNDRY","semantic":"zone","river_class":"소하천","river_class_source":"중심선 공간조인","survey_method":"사진측량"},"geometry":{"type":"Polygon","coordinates":[[[127.06536,37.47766],[127.06499,37.47773],[127.06453,37.47755],[127.06416,37.47773],[127.06385,37.47771],[127.06362,37.47808],[127.06368,37.47834],[127.06386,37.47774],[127.06415,37.47777],[127.06458,37.47758],[127.06497,37.47775],[127.06536,37.47766]]]}},{"type":"Feature","id":"TN_RIVER_BNDRY:WTR0100000000HKJ1","properties":{"NF_ID":"WTR0100000000HKJ1","admin_code":"11680","source_layer":"TN_RIVER_BNDRY","semantic":"zone","river_class":"소하천","river_class_source":"중심선 공간조인","survey_method":"사진측량"},"geometry":{"type":"Polygon","coordinates":[[[127.0654,37.47761],[127.06537,37.47761],[127.06533,37.47765],[127.06536,37.47766],[127.0654,37.47761]]]}},{"type":"Feature","id":"TN_RIVER_BNDRY:WTR0100000000HKK2","properties":{"NF_ID":"WTR0100000000HKK2","admin_code":"11680","source_layer":"TN_RIVER_BNDRY","semantic":"zone","river_class":"소하천","river_class_source":"중심선 공간조인","survey_method":"사진측량"},"geometry":{"type":"Polygon","coordinates":[[[127.06621,37.47673],[127.06656,37.47672],[127.06589,37.47683],[127.06621,37.47673]]]}},{"type":"Feature","id":"TN_RIVER_BNDRY:WTR0100000000HKL3","properties":{"NF_ID":"WTR0100000000HKL3","admin_code":"11680","source_layer":"TN_RIVER_BNDRY","semantic":"zone","river_class":"소하천","river_class_source":"중심선 공간조인","survey_method":"사진측량"},"geometry":{"type":"Polygon","coordinates":[[[127.06743,37.47768],[127.06753,37.47767],[127.06755,37.47766],[127.06761,37.47764],[127.06763,37.47761],[127.06764,37.47761],[127.06768,37.47756],[127.0677,37.47753],[127.0677,37.47752],[127.06769,37.47752],[127.06768,37.47752],[127.06765,37.47757],[127.06761,37.47761],[127.06761,37.47761],[127.06757,37.47764],[127.06754,37.47765],[127.06751,37.47766],[127.06749,37.47766],[127.06744,37.47767],[127.06744,37.47767],[127.0674,37.47767],[127.06738,37.47768],[127.06733,37.47768],[127.06731,37.47769],[127.06731,37.4777],[127.06733,37.4777],[127.06736,37.4777],[127.06738,37.4777],[127.06741,37.47769],[127.06744,37.47769],[127.06743,37.47768]]]}},{"type":"Feature","id":"TN_RIVER_BNDRY:WTR0100000000HKM4","properties":{"NF_ID":"WTR0100000000HKM4","admin_code":"11680","source_layer":"TN_RIVER_BNDRY","semantic":"zone","river_class":"소하천","river_class_source":"중심선 공간조인","survey_method":"사진측량"},"geometry":{"type":"Polygon","coordinates":[[[127.06537,37.47761],[127.0654,37.47761],[127.06551,37.47743],[127.06556,37.47737],[127.06574,37.47716],[127.06577,37.47707],[127.06581,37.47693],[127.06581,37.47692],[127.0658,37.47692],[127.0658,37.47692],[127.0658,37.47692],[127.06577,37.47698],[127.06573,37.47714],[127.06571,37.47716],[127.06564,37.47726],[127.06559,37.47732],[127.0655,37.47742],[127.06545,37.4775],[127.06541,37.47755],[127.06537,37.47761]]]}},{"type":"Feature","id":"TN_RIVER_BNDRY:WTR0100000000HKN5","properties":{"NF_ID":"WTR0100000000HKN5","admin_code":"11680","source_layer":"TN_RIVER_BNDRY","semantic":"zone","river_class":"소하천","river_class_source":"중심선 공간조인","survey_method":"사진측량"},"geometry":{"type":"Polygon","coordinates":[[[127.0654,37.47761],[127.06536,37.47766],[127.06539,37.47764],[127.06543,37.47763],[127.06546,37.47763],[127.06549,37.47763],[127.06552,37.47762],[127.06567,37.4776],[127.06568,37.47759],[127.06567,37.47758],[127.06566,37.47758],[127.06551,37.47761],[127.0654,37.47761],[127.0654,37.47761]]]}},{"type":"Feature","id":"TN_RIVER_BNDRY:WTR0100000000IBEO","properties":{"NF_ID":"WTR0100000000IBEO","admin_code":"11680","source_layer":"TN_RIVER_BNDRY","semantic":"zone","river_class":"지방하천","river_class_source":"중심선 공간조인","river_name":"양재천","river_code":"1025060","survey_method":"사진측량"},"geometry":{"type":"Polygon","coordinates":[[[127.03773,37.47383],[127.03807,37.47477],[127.04002,37.47529],[127.04076,37.47625],[127.04137,37.47663],[127.04214,37.4776],[127.042,37.47773],[127.04222,37.47767],[127.04326,37.47885],[127.0431,37.47898],[127.04331,37.47887],[127.04353,37.47925],[127.04342,37.47936],[127.04354,37.47928],[127.04365,37.47956],[127.04512,37.481],[127.05702,37.48813],[127.05904,37.48901],[127.06656,37.49042],[127.06733,37.49066],[127.06928,37.49163],[127.07239,37.49442],[127.07312,37.49544],[127.07358,37.49729],[127.07338,37.49836],[127.07276,37.49943],[127.07277,37.49987],[127.0729,37.5],[127.07329,37.5],[127.07406,37.49724],[127.07366,37.49525],[127.07337,37.4952],[127.0731,37.49481],[127.07336,37.49457],[127.07319,37.49465],[127.07025,37.49185],[127.06916,37.49111],[127.06723,37.4903],[127.05983,37.48894],[127.05867,37.48862],[127.05745,37.48805],[127.05213,37.48492],[127.05227,37.48466],[127.05203,37.48487],[127.05031,37.48394],[127.04632,37.48151],[127.04651,37.48131],[127.04636,37.48122],[127.04625,37.48149],[127.04516,37.48082],[127.04388,37.47948],[127.04355,37.47901],[127.04366,37.47895],[127.04353,37.47899],[127.04199,37.47725],[127.04159,37.47651],[127.04009,37.475],[127.03773,37.47383]]]}},{"type":"Feature","id":"TN_RIVER_BNDRY:WTR0100000000IBGQ","properties":{"NF_ID":"WTR0100000000IBGQ","admin_code":"11680","source_layer":"TN_RIVER_BNDRY","semantic":"zone","river_class":"지방하천","river_class_source":"중심선 공간조인","river_name":"탄천","river_code":"1024930","survey_method":"사진측량"},"geometry":{"type":"Polygon","coordinates":[[[127.11674,37.47923],[127.11458,37.47832],[127.11439,37.47858],[127.11477,37.47892],[127.11371,37.47922],[127.11052,37.48378],[127.10969,37.48472],[127.1102,37.4852],[127.10971,37.48493],[127.10964,37.48504],[127.11012,37.4853],[127.10923,37.48531],[127.10694,37.48812],[127.1078,37.48856],[127.10765,37.48877],[127.10664,37.48872],[127.10651,37.48893],[127.10676,37.49005],[127.10588,37.48972],[127.1067,37.49013],[127.10504,37.49036],[127.10384,37.49157],[127.10349,37.49158],[127.10107,37.49272],[127.09952,37.49381],[127.09858,37.49387],[127.09301,37.49587],[127.09283,37.49652],[127.09257,37.4963],[127.09265,37.49662],[127.09063,37.4969],[127.08868,37.49754],[127.08838,37.49782],[127.08822,37.49766],[127.08826,37.49786],[127.08692,37.49793],[127.08554,37.4984],[127.08537,37.49901],[127.08519,37.49879],[127.08516,37.49906],[127.08422,37.49881],[127.08136,37.49967],[127.08149,37.49968],[127.08132,37.4999],[127.08096,37.5],[127.08526,37.5],[127.08647,37.49976],[127.09722,37.49623],[127.10075,37.49471],[127.10109,37.49511],[127.10131,37.4951],[127.10161,37.49494],[127.10128,37.49459],[127.10153,37.4945],[127.10193,37.49484],[127.10324,37.49402],[127.10485,37.49336],[127.10673,37.49201],[127.10806,37.49082],[127.10886,37.48942],[127.10843,37.48916],[127.10851,37.48904],[127.10948,37.48877],[127.10986,37.48845],[127.11228,37.48512],[127.11201,37.48461],[127.11289,37.48429],[127.11674,37.47923]]]}},{"type":"Feature","id":"TN_RIVER_BNDRY:WTR0100000000JZWV","properties":{"NF_ID":"WTR0100000000JZWV","admin_code":"11680","source_layer":"TN_RIVER_BNDRY","semantic":"zone","river_class":"국가하천","river_class_source":"중심선 공간조인","river_name":"한강","river_code":"1000010","survey_method":"사진측량"},"geometry":{"type":"Polygon","coordinates":[[[127.06543,37.52942],[127.06566,37.52036],[127.06354,37.52148],[127.06316,37.52206],[127.06243,37.52264],[127.05775,37.52503],[127.05666,37.52581],[127.0544,37.5279],[127.0533,37.52849],[127.05231,37.52881],[127.05226,37.52902],[127.05106,37.52931],[127.05099,37.52911],[127.04745,37.52996],[127.04244,37.53142],[127.03784,37.53254],[127.03521,37.53345],[127.03423,37.53427],[127.03143,37.53485],[127.02772,37.53467],[127.02808,37.5415],[127.03126,37.54112],[127.03521,37.54019],[127.03603,37.53984],[127.03592,37.53971],[127.03967,37.53855],[127.04181,37.53769],[127.04532,37.53696],[127.05,37.53564],[127.05232,37.53492],[127.05233,37.53466],[127.05277,37.53455],[127.05297,37.5347],[127.0534,37.53463],[127.0556,37.53396],[127.0557,37.53405],[127.05611,37.53393],[127.05964,37.53217],[127.05967,37.53202],[127.06113,37.53125],[127.06121,37.53135],[127.06358,37.53011],[127.06543,37.52942]]]}},{"type":"Feature","id":"TN_RIVER_BNDRY:WTR0100000000K124","properties":{"NF_ID":"WTR0100000000K124","admin_code":"11680","source_layer":"TN_RIVER_BNDRY","semantic":"zone","river_class":"지방하천","river_class_source":"중심선 공간조인","river_name":"양재천","river_code":"1025060","survey_method":"사진측량"},"geometry":{"type":"Polygon","coordinates":[[[127.07373,37.50284],[127.07345,37.50152],[127.07292,37.50167],[127.07339,37.50305],[127.07373,37.50284]]]}},{"type":"Feature","id":"TN_RIVER_BNDRY:WTR0100000000KM9W","properties":{"NF_ID":"WTR0100000000KM9W","admin_code":"11680","source_layer":"TN_RIVER_BNDRY","semantic":"zone","river_class":"지방하천","river_class_source":"중심선 공간조인","river_name":"양재천","river_code":"1025060","survey_method":"사진측량"},"geometry":{"type":"Polygon","coordinates":[[[127.07345,37.50152],[127.07335,37.50016],[127.07329,37.5],[127.0729,37.5],[127.07268,37.50035],[127.07279,37.50042],[127.073,37.5002],[127.07319,37.50078],[127.07316,37.50142],[127.07292,37.50167],[127.07345,37.50152]]]}},{"type":"Feature","id":"TN_RIVER_BNDRY:WTR0100000000KMG3","properties":{"NF_ID":"WTR0100000000KMG3","admin_code":"11680","source_layer":"TN_RIVER_BNDRY","semantic":"zone","river_class":"국가하천","river_class_source":"중심선 공간조인","river_name":"한강","river_code":"1000010","survey_method":"사진측량"},"geometry":{"type":"Polygon","coordinates":[[[127.02212,37.53097],[127.01517,37.52522],[127.01514,37.525],[127.01467,37.52482],[127.01247,37.52294],[127.00794,37.51892],[127.00806,37.51883],[127.00785,37.51884],[127.00647,37.51768],[127.00541,37.51752],[127.00493,37.51727],[127.0045,37.51549],[127.00355,37.51462],[127.00175,37.51366],[127.0,37.51314],[127.0,37.52134],[127.00123,37.52207],[127.00205,37.52292],[127.00329,37.525],[127.00391,37.5257],[127.00519,37.52648],[127.00682,37.52777],[127.01081,37.5299],[127.01211,37.531],[127.01727,37.53894],[127.01862,37.53994],[127.02212,37.53097]]]}}]}