{"type":"FeatureCollection","features":[{"type":"Feature","id":"TN_RIVER_BNDRY:WTR0100000000QEYJ","properties":{"NF_ID":"WTR0100000000QEYJ","source_layer":"TN_RIVER_BNDRY","semantic":"zone","river_class":"국가하천","river_class_source":"중심선 공간조인","river_name":"안양천","river_code":"1005380","survey_method":"사진측량","admin_code":"11470"},"geometry":{"type":"MultiPolygon","coordinates":[[[[126.87945,37.51776],[126.87955,37.51766],[126.87935,37.51752],[126.87945,37.51776]]],[[[126.87941,37.52083],[126.87942,37.52077],[126.87944,37.5206],[126.87943,37.52056],[126.87943,37.5205],[126.87943,37.52046],[126.87943,37.52046],[126.87941,37.52041],[126.8794,37.52036],[126.8794,37.52036],[126.87937,37.5207],[126.87938,37.52093],[126.87941,37.52083]]],[[[126.88093,37.52685],[126.88118,37.52635],[126.88094,37.52591],[126.88054,37.52574],[126.87977,37.52574],[126.88058,37.52693],[126.88077,37.52703],[126.88093,37.52685]]]]}},{"type":"Feature","id":"TN_RIVER_BNDRY:WTR0100000000QF4Q","properties":{"NF_ID":"WTR0100000000QF4Q","source_layer":"TN_RIVER_BNDRY","semantic":"zone","river_class":"소하천","river_class_source":"중심선 공간조인","survey_method":"사진측량","admin_code":"11470"},"geometry":{"type":"Polygon","coordinates":[[[126.83284,37.51438],[126.8339,37.51227],[126.83501,37.51248],[126.83531,37.51205],[126.83461,37.5119],[126.8338,37.51214],[126.83281,37.51413],[126.83218,37.51437],[126.83172,37.51435],[126.83203,37.51455],[126.83284,37.51438]]]}},{"type":"Feature","id":"TN_RIVER_BNDRY:WTR0100000000QG8V","properties":{"NF_ID":"WTR0100000000QG8V","source_layer":"TN_RIVER_BNDRY","semantic":"zone","river_class":"국가하천","river_class_source":"중심선 공간조인","river_name":"안양천","river_code":"1005380","survey_method":"사진측량","admin_code":"11470"},"geometry":{"type":"MultiPolygon","coordinates":[[[[126.88389,37.52791],[126.88374,37.52758],[126.88279,37.52723],[126.88176,37.52766],[126.88192,37.52787],[126.88224,37.52784],[126.88392,37.5284],[126.88389,37.52791]]],[[[126.8862,37.52955],[126.88617,37.52954],[126.88612,37.52951],[126.88621,37.52957],[126.88634,37.52965],[126.8862,37.52955]]],[[[126.88718,37.53019],[126.88718,37.53019],[126.88715,37.53018],[126.88706,37.53013],[126.88702,37.53011],[126.88678,37.52995],[126.88701,37.53012],[126.88722,37.53029],[126.88731,37.53024],[126.88718,37.53019]]]]}},{"type":"Feature","id":"TN_RIVER_BNDRY:WTR0100000000QG9W","properties":{"NF_ID":"WTR0100000000QG9W","source_layer":"TN_RIVER_BNDRY","semantic":"zone","river_class":"소하천","river_class_source":"중심선 공간조인","survey_method":"사진측량","admin_code":"11470"},"geometry":{"type":"Polygon","coordinates":[[[126.8806,37.5274],[126.8807,37.52711],[126.87982,37.52728],[126.88011,37.52762],[126.88066,37.52751],[126.8806,37.5274]]]}},{"type":"Feature","id":"TN_RIVER_BNDRY:WTR0100000000QGBY","properties":{"NF_ID":"WTR0100000000QGBY","source_layer":"TN_RIVER_BNDRY","semantic":"zone","river_class":"국가하천","river_class_source":"중심선 공간조인","river_name":"안양천","river_code":"1005380","survey_method":"사진측량","admin_code":"11470"},"geometry":{"type":"MultiPolygon","coordinates":[[[[126.88871,37.53201],[126.88956,37.5319],[126.88912,37.53113],[126.88853,37.53042],[126.88762,37.53035],[126.88744,37.53048],[126.88871,37.53201]]],[[[126.88882,37.53608],[126.88962,37.53527],[126.89013,37.53423],[126.8898,37.5334],[126.88915,37.53308],[126.88933,37.53466],[126.88882,37.53608]]],[[[126.88509,37.5433],[126.8851,37.54328],[126.88512,37.5432],[126.88513,37.54318],[126.88504,37.5433],[126.88509,37.5433]]],[[[126.88011,37.54816],[126.8806,37.54821],[126.8808,37.54808],[126.88213,37.54672],[126.88275,37.54575],[126.88409,37.54464],[126.88425,37.54424],[126.88011,37.54816]]]]}},{"type":"Feature","id":"TN_RIVER_BNDRY:WTR0100000000QHF3","properties":{"NF_ID":"WTR0100000000QHF3","source_layer":"TN_RIVER_BNDRY","semantic":"zone","river_class":"국가하천","river_class_source":"중심선 공간조인","river_name":"안양천","river_code":"1005380","survey_method":"사진측량","admin_code":"11470"},"geometry":{"type":"Polygon","coordinates":[[[126.88731,37.53024],[126.88744,37.53048],[126.88762,37.53035],[126.88731,37.53024]]]}},{"type":"Feature","id":"TN_RIVER_BNDRY:WTR0100000000R22C","properties":{"NF_ID":"WTR0100000000R22C","source_layer":"TN_RIVER_BNDRY","semantic":"zone","river_class":"국가하천","river_class_source":"중심선 공간조인","river_name":"안양천","river_code":"1005380","survey_method":"사진측량","admin_code":"11470"},"geometry":{"type":"MultiPolygon","coordinates":[[[[126.87569,37.51136],[126.87636,37.51119],[126.8762,37.511],[126.87576,37.51115],[126.87541,37.511],[126.87518,37.51053],[126.87539,37.51],[126.87483,37.50933],[126.87432,37.5095],[126.87391,37.50926],[126.87379,37.50882],[126.87419,37.50854],[126.87358,37.50774],[126.87223,37.5041],[126.87187,37.50413],[126.87153,37.50463],[126.87269,37.50791],[126.87251,37.5082],[126.87283,37.5087],[126.87313,37.50866],[126.8736,37.50915],[126.87355,37.50942],[126.87402,37.51053],[126.87425,37.51059],[126.87463,37.51042],[126.87569,37.51136]]],[[[126.87755,37.51453],[126.87766,37.51381],[126.87794,37.51338],[126.87781,37.51327],[126.87738,37.51366],[126.87699,37.51374],[126.87755,37.51453]]]]}}]}