{"type":"FeatureCollection","features":[{"type":"Feature","id":"TN_RIVER_BNDRY:WTR0100000000HEIU","properties":{"NF_ID":"WTR0100000000HEIU","admin_code":"41133","source_layer":"TN_RIVER_BNDRY","semantic":"zone","river_class":"소하천","river_class_source":"중심선 공간조인","survey_method":"사진측량"},"geometry":{"type":"Polygon","coordinates":[[[127.15429,37.42775],[127.15475,37.42746],[127.15475,37.42731],[127.1535,37.42802],[127.1534,37.42883],[127.15353,37.42802],[127.15429,37.42775]]]}},{"type":"Feature","id":"TN_RIVER_BNDRY:WTR0100000000HEJV","properties":{"NF_ID":"WTR0100000000HEJV","admin_code":"41133","source_layer":"TN_RIVER_BNDRY","semantic":"zone","river_class":"소하천","river_class_source":"중심선 공간조인","survey_method":"사진측량"},"geometry":{"type":"Polygon","coordinates":[[[127.17395,37.46546],[127.17371,37.46514],[127.1733,37.46519],[127.17205,37.46461],[127.17261,37.46496],[127.17371,37.46531],[127.17415,37.46582],[127.17395,37.46546]]]}},{"type":"Feature","id":"TN_RIVER_BNDRY:WTR0100000000HTF6","properties":{"NF_ID":"WTR0100000000HTF6","admin_code":"41133","source_layer":"TN_RIVER_BNDRY","semantic":"zone","river_class":"소하천","river_class_source":"중심선 공간조인","survey_method":"사진측량"},"geometry":{"type":"Polygon","coordinates":[[[127.17782,37.42959],[127.17781,37.42958],[127.1778,37.42959],[127.17779,37.42962],[127.17778,37.42963],[127.17776,37.42964],[127.17772,37.42965],[127.1777,37.42965],[127.17767,37.42966],[127.17764,37.42967],[127.1776,37.42969],[127.17759,37.4297],[127.17757,37.42971],[127.17756,37.42972],[127.17755,37.42973],[127.17754,37.42975],[127.17751,37.42978],[127.1775,37.42981],[127.17749,37.42983],[127.17747,37.42985],[127.17744,37.42988],[127.17743,37.42989],[127.1774,37.42991],[127.17737,37.42993],[127.17734,37.42995],[127.1773,37.42998],[127.17726,37.43],[127.17722,37.43002],[127.17719,37.43003],[127.17715,37.43006],[127.17712,37.43008],[127.17711,37.43009],[127.17708,37.43012],[127.17706,37.43013],[127.17704,37.43017],[127.177,37.43021],[127.17692,37.43027],[127.1769,37.43029],[127.17693,37.43031],[127.17695,37.4303],[127.17701,37.43024],[127.17705,37.4302],[127.17711,37.43015],[127.17714,37.43012],[127.17718,37.43009],[127.17723,37.43006],[127.1773,37.43001],[127.17744,37.42991],[127.17747,37.42988],[127.1775,37.42984],[127.17757,37.42975],[127.1776,37.42972],[127.17763,37.42971],[127.17766,37.4297],[127.17769,37.42969],[127.17774,37.42967],[127.17778,37.42965],[127.1778,37.42964],[127.17782,37.42962],[127.17782,37.4296],[127.17782,37.42959]]]}},{"type":"Feature","id":"TN_RIVER_BNDRY:WTR0100000000HTG7","properties":{"NF_ID":"WTR0100000000HTG7","admin_code":"41133","source_layer":"TN_RIVER_BNDRY","semantic":"zone","river_class":"소하천","river_class_source":"중심선 공간조인","survey_method":"사진측량"},"geometry":{"type":"Polygon","coordinates":[[[127.176,37.42876],[127.17554,37.42934],[127.17563,37.42994],[127.17557,37.42935],[127.176,37.42876]]]}},{"type":"Feature","id":"TN_RIVER_BNDRY:WTR0100000000HUH9","properties":{"NF_ID":"WTR0100000000HUH9","admin_code":"41133","source_layer":"TN_RIVER_BNDRY","semantic":"zone","river_class":"소하천","river_class_source":"중심선 공간조인","survey_method":"사진측량"},"geometry":{"type":"Polygon","coordinates":[[[127.18693,37.44835],[127.18654,37.44832],[127.18616,37.44807],[127.18524,37.44662],[127.18334,37.44564],[127.18211,37.4454],[127.18132,37.44464],[127.18036,37.4445],[127.17992,37.4448],[127.18043,37.44452],[127.18103,37.44459],[127.18197,37.44548],[127.18313,37.44565],[127.18391,37.44614],[127.18519,37.44662],[127.1862,37.44816],[127.18653,37.44837],[127.18693,37.44835]]]}},{"type":"Feature","id":"TN_RIVER_BNDRY:WTR0100000000HUIA","properties":{"NF_ID":"WTR0100000000HUIA","admin_code":"41133","source_layer":"TN_RIVER_BNDRY","semantic":"zone","river_class":"소하천","river_class_source":"중심선 공간조인","survey_method":"사진측량"},"geometry":{"type":"Polygon","coordinates":[[[127.1804,37.44605],[127.18097,37.44659],[127.18158,37.44823],[127.18199,37.44845],[127.18249,37.44907],[127.1821,37.44849],[127.18163,37.44819],[127.18102,37.44655],[127.1804,37.44605]]]}},{"type":"Feature","id":"TN_RIVER_BNDRY:WTR0100000000HWYS","properties":{"NF_ID":"WTR0100000000HWYS","admin_code":"41133","source_layer":"TN_RIVER_BNDRY","semantic":"zone","river_class":"소하천","river_class_source":"중심선 공간조인","survey_method":"사진측량"},"geometry":{"type":"Polygon","coordinates":[[[127.18041,37.4244],[127.18108,37.42465],[127.18205,37.4256],[127.183,37.42591],[127.18376,37.42706],[127.1851,37.42839],[127.18573,37.42843],[127.18598,37.4288],[127.18582,37.42843],[127.18508,37.42831],[127.18483,37.4279],[127.18375,37.42696],[127.18305,37.42588],[127.18213,37.42557],[127.1811,37.42462],[127.18041,37.4244]]]}},{"type":"Feature","id":"TN_RIVER_BNDRY:WTR0100000000HWZT","properties":{"NF_ID":"WTR0100000000HWZT","admin_code":"41133","source_layer":"TN_RIVER_BNDRY","semantic":"zone","river_class":"소하천","river_class_source":"중심선 공간조인","survey_method":"사진측량"},"geometry":{"type":"Polygon","coordinates":[[[127.18216,37.43494],[127.18236,37.43487],[127.18189,37.43493],[127.18128,37.43478],[127.18188,37.435],[127.18216,37.43494]]]}},{"type":"Feature","id":"TN_RIVER_BNDRY:WTR0100000000HX0V","properties":{"NF_ID":"WTR0100000000HX0V","admin_code":"41133","source_layer":"TN_RIVER_BNDRY","semantic":"zone","river_class":"소하천","river_class_source":"중심선 공간조인","survey_method":"사진측량"},"geometry":{"type":"Polygon","coordinates":[[[127.18037,37.42438],[127.18142,37.42347],[127.18201,37.42347],[127.18288,37.422],[127.18324,37.42172],[127.18334,37.42101],[127.18352,37.42082],[127.1833,37.4204],[127.18336,37.41994],[127.18317,37.42045],[127.18336,37.42078],[127.18324,37.42129],[127.18234,37.42292],[127.18196,37.42346],[127.18137,37.42345],[127.18037,37.42438]]]}},{"type":"Feature","id":"TN_RIVER_BNDRY:WTR0100000000HX1W","properties":{"NF_ID":"WTR0100000000HX1W","admin_code":"41133","source_layer":"TN_RIVER_BNDRY","semantic":"zone","river_class":"지방하천","river_class_source":"중심선 공간조인","river_name":"여수천","river_code":"1025030","survey_method":"사진측량"},"geometry":{"type":"Polygon","coordinates":[[[127.18041,37.4244],[127.18037,37.42438],[127.18032,37.42445],[127.18037,37.42447],[127.18041,37.4244]]]}},{"type":"Feature","id":"TN_RIVER_BNDRY:WTR0100000000I234","properties":{"NF_ID":"WTR0100000000I234","admin_code":"41133","source_layer":"TN_RIVER_BNDRY","semantic":"zone","river_class":"소하천","river_class_source":"중심선 공간조인","survey_method":"사진측량"},"geometry":{"type":"Polygon","coordinates":[[[127.16872,37.42183],[127.16908,37.42191],[127.16953,37.42171],[127.17092,37.4222],[127.17168,37.42224],[127.17098,37.42215],[127.16947,37.42164],[127.16907,37.42186],[127.16872,37.42183]]]}},{"type":"Feature","id":"TN_RIVER_BNDRY:WTR0100000000I627","properties":{"NF_ID":"WTR0100000000I627","admin_code":"41133","source_layer":"TN_RIVER_BNDRY","semantic":"zone","river_class":"소하천","river_class_source":"중심선 공간조인","survey_method":"사진측량"},"geometry":{"type":"Polygon","coordinates":[[[127.16016,37.42002],[127.16206,37.41942],[127.16274,37.41872],[127.16322,37.41846],[127.16407,37.41828],[127.16466,37.41768],[127.16492,37.41671],[127.16464,37.41765],[127.16401,37.41829],[127.16321,37.41843],[127.16271,37.41869],[127.16207,37.41938],[127.16067,37.41974],[127.16016,37.42002]]]}},{"type":"Feature","id":"TN_RIVER_BNDRY:WTR0100000000I638","properties":{"NF_ID":"WTR0100000000I638","admin_code":"41133","source_layer":"TN_RIVER_BNDRY","semantic":"zone","river_class":"지방하천","river_class_source":"중심선 공간조인","river_name":"여수천","river_code":"1025030","survey_method":"사진측량"},"geometry":{"type":"Polygon","coordinates":[[[127.169,37.42198],[127.16908,37.42191],[127.16872,37.42183],[127.16863,37.422],[127.169,37.42198]]]}},{"type":"Feature","id":"TN_RIVER_BNDRY:WTR0100000000I649","properties":{"NF_ID":"WTR0100000000I649","admin_code":"41133","source_layer":"TN_RIVER_BNDRY","semantic":"zone","river_class":"지방하천","river_class_source":"중심선 공간조인","river_name":"여수천","river_code":"1025030","survey_method":"사진측량"},"geometry":{"type":"Polygon","coordinates":[[[127.16025,37.42004],[127.16016,37.42002],[127.16008,37.42013],[127.16016,37.42014],[127.16025,37.42004]]]}},{"type":"Feature","id":"TN_RIVER_BNDRY:WTR0100000000I65A","properties":{"NF_ID":"WTR0100000000I65A","admin_code":"41133","source_layer":"TN_RIVER_BNDRY","semantic":"zone","river_class":"지방하천","river_class_source":"중심선 공간조인","river_name":"여수천","river_code":"1025030","survey_method":"사진측량"},"geometry":{"type":"Polygon","coordinates":[[[127.16863,37.422],[127.16872,37.42183],[127.16781,37.42193],[127.1645,37.42168],[127.16348,37.42136],[127.16204,37.42043],[127.16025,37.42004],[127.16016,37.42014],[127.16221,37.42061],[127.16361,37.42156],[127.16447,37.42187],[127.1668,37.42209],[127.16863,37.422]]]}},{"type":"Feature","id":"TN_RIVER_BNDRY:WTR0100000000I66B","properties":{"NF_ID":"WTR0100000000I66B","admin_code":"41133","source_layer":"TN_RIVER_BNDRY","semantic":"zone","river_class":"지방하천","river_class_source":"중심선 공간조인","river_name":"여수천","river_code":"1025030","survey_method":"사진측량"},"geometry":{"type":"Polygon","coordinates":[[[127.16016,37.42002],[127.15906,37.41981],[127.15904,37.41994],[127.16008,37.42013],[127.16016,37.42002]]]}},{"type":"Feature","id":"TN_RIVER_BNDRY:WTR0100000000I67C","properties":{"NF_ID":"WTR0100000000I67C","admin_code":"41133","source_layer":"TN_RIVER_BNDRY","semantic":"zone","river_class":"지방하천","river_class_source":"중심선 공간조인","river_name":"여수천","river_code":"1025030","survey_method":"사진측량"},"geometry":{"type":"Polygon","coordinates":[[[127.15906,37.41981],[127.15896,37.41979],[127.15894,37.41992],[127.15904,37.41994],[127.15906,37.41981]]]}},{"type":"Feature","id":"TN_RIVER_BNDRY:WTR0100000000I68D","properties":{"NF_ID":"WTR0100000000I68D","admin_code":"41133","source_layer":"TN_RIVER_BNDRY","semantic":"zone","river_class":"소하천","river_class_source":"중심선 공간조인","survey_method":"사진측량"},"geometry":{"type":"Polygon","coordinates":[[[127.15904,37.41994],[127.15946,37.42021],[127.15922,37.42054],[127.15937,37.42069],[127.15929,37.42048],[127.15951,37.42019],[127.15904,37.41994]]]}},{"type":"Feature","id":"TN_RIVER_BNDRY:WTR0100000000I8KR","properties":{"NF_ID":"WTR0100000000I8KR","admin_code":"41133","source_layer":"TN_RIVER_BNDRY","semantic":"zone","river_class":"지방하천","river_class_source":"중심선 공간조인","river_name":"여수천","river_code":"1025030","survey_method":"사진측량"},"geometry":{"type":"Polygon","coordinates":[[[127.14988,37.41644],[127.14974,37.41625],[127.14948,37.41635],[127.14966,37.41654],[127.14988,37.41644]]]}},{"type":"Feature","id":"TN_RIVER_BNDRY:WTR0100000000I92A","properties":{"NF_ID":"WTR0100000000I92A","admin_code":"41133","source_layer":"TN_RIVER_BNDRY","semantic":"zone","river_class":"소하천","river_class_source":"중심선 공간조인","survey_method":"사진측량"},"geometry":{"type":"Polygon","coordinates":[[[127.14974,37.41625],[127.14988,37.41644],[127.15107,37.41603],[127.15445,37.4161],[127.15541,37.416],[127.15718,37.41525],[127.15878,37.41495],[127.1599,37.41457],[127.16358,37.41232],[127.16453,37.41201],[127.16733,37.41156],[127.16804,37.4113],[127.16452,37.41196],[127.1636,37.41227],[127.15991,37.41451],[127.15913,37.41484],[127.15702,37.41527],[127.1554,37.41597],[127.15445,37.41607],[127.15127,37.41599],[127.14974,37.41625]]]}},{"type":"Feature","id":"TN_RIVER_BNDRY:WTR0100000000I93B","properties":{"NF_ID":"WTR0100000000I93B","admin_code":"41133","source_layer":"TN_RIVER_BNDRY","semantic":"zone","river_class":"지방하천","river_class_source":"중심선 공간조인","river_name":"여수천","river_code":"1025030","survey_method":"사진측량"},"geometry":{"type":"Polygon","coordinates":[[[127.15896,37.41979],[127.15624,37.41929],[127.15456,37.4194],[127.15324,37.41924],[127.15306,37.41899],[127.15277,37.41901],[127.15177,37.41845],[127.14988,37.41644],[127.14966,37.41654],[127.15146,37.41847],[127.15281,37.41922],[127.1544,37.41955],[127.15599,37.41937],[127.15894,37.41992],[127.15896,37.41979]]]}},{"type":"Feature","id":"TN_RIVER_BNDRY:WTR0100000000I9RZ","properties":{"NF_ID":"WTR0100000000I9RZ","admin_code":"41133","source_layer":"TN_RIVER_BNDRY","semantic":"zone","river_class":"지방하천","river_class_source":"중심선 공간조인","river_name":"여수천","river_code":"1025030","survey_method":"사진측량"},"geometry":{"type":"Polygon","coordinates":[[[127.18037,37.42438],[127.17658,37.42347],[127.1753,37.42352],[127.17417,37.4229],[127.17041,37.42278],[127.16959,37.42217],[127.16908,37.42191],[127.169,37.42198],[127.17037,37.42284],[127.17396,37.42296],[127.17523,37.42359],[127.17652,37.42355],[127.18037,37.42438]]]}},{"type":"Feature","id":"TN_RIVER_BNDRY:WTR0100000000I9S0","properties":{"NF_ID":"WTR0100000000I9S0","admin_code":"41133","source_layer":"TN_RIVER_BNDRY","semantic":"zone","river_class":"소하천","river_class_source":"중심선 공간조인","survey_method":"사진측량"},"geometry":{"type":"Polygon","coordinates":[[[127.12688,37.42525],[127.12713,37.42523],[127.12701,37.42509],[127.12752,37.42466],[127.12673,37.42525],[127.12524,37.42414],[127.12673,37.42531],[127.12688,37.42525]]]}},{"type":"Feature","id":"TN_RIVER_BNDRY:WTR0100000000I9W4","properties":{"NF_ID":"WTR0100000000I9W4","admin_code":"41133","source_layer":"TN_RIVER_BNDRY","semantic":"zone","river_class":"지방하천","river_class_source":"중심선 공간조인","river_name":"탄천","river_code":"1024930","survey_method":"사진측량"},"geometry":{"type":"Polygon","coordinates":[[[127.11761,37.42876],[127.11747,37.42761],[127.11791,37.42431],[127.11826,37.42408],[127.11793,37.424],[127.11799,37.42122],[127.11863,37.4192],[127.11899,37.4192],[127.11952,37.41793],[127.11979,37.41656],[127.12091,37.41502],[127.12161,37.41453],[127.12064,37.41428],[127.11889,37.41692],[127.11763,37.41994],[127.11737,37.42171],[127.11716,37.42188],[127.11743,37.42382],[127.11689,37.42829],[127.11696,37.42888],[127.11761,37.42876]]]}}]}