{"type":"FeatureCollection","features":[{"type":"Feature","id":"TN_RIVER_BT:WTR0200000000332Q","properties":{"NF_ID":"WTR0200000000332Q","source_layer":"TN_RIVER_BT","semantic":"channel","river_class":"국가하천","river_class_source":"중심선 공간조인","river_name":"한강","river_code":"1000010","survey_method":"사진측량","admin_code":"11230"},"geometry":{"type":"MultiPolygon","coordinates":[[[[127.07348,37.56292],[127.07239,37.55996],[127.07185,37.56015],[127.07348,37.56292]]],[[[127.07397,37.56425],[127.07367,37.56443],[127.07369,37.56446],[127.07395,37.5643],[127.07398,37.56428],[127.07397,37.56425]]],[[[127.07818,37.57189],[127.07688,37.56793],[127.07504,37.56571],[127.07715,37.56941],[127.07818,37.57189]]],[[[127.0706,37.58915],[127.07135,37.58853],[127.07264,37.58651],[127.07253,37.58616],[127.07109,37.58786],[127.0706,37.58915]]],[[[127.07226,37.60318],[127.07287,37.60133],[127.07275,37.60095],[127.07149,37.59913],[127.06948,37.59724],[127.06943,37.59512],[127.07072,37.59189],[127.07035,37.59031],[127.06906,37.59633],[127.06875,37.59659],[127.06905,37.5965],[127.06961,37.59803],[127.07153,37.60023],[127.0722,37.60169],[127.07226,37.60318]],[[127.07186,37.6007],[127.07185,37.6007],[127.07185,37.6007],[127.07184,37.60069],[127.07184,37.60068],[127.07185,37.60067],[127.07184,37.60066],[127.07183,37.60066],[127.07183,37.60065],[127.07182,37.60064],[127.0718,37.60063],[127.0718,37.60062],[127.07179,37.60061],[127.07178,37.60059],[127.07176,37.60055],[127.07172,37.6005],[127.0717,37.60046],[127.0717,37.60045],[127.0717,37.60044],[127.07171,37.60043],[127.07171,37.60042],[127.0717,37.6004],[127.07169,37.60038],[127.07168,37.60037],[127.07168,37.60037],[127.07168,37.60037],[127.07168,37.60036],[127.07169,37.60036],[127.0717,37.60036],[127.0717,37.60036],[127.07171,37.60036],[127.07171,37.60035],[127.07171,37.60034],[127.07172,37.60032],[127.07172,37.60032],[127.07174,37.60031],[127.07175,37.60031],[127.07175,37.60031],[127.07176,37.60032],[127.07176,37.60033],[127.07177,37.60034],[127.07178,37.60035],[127.07181,37.60037],[127.07182,37.60038],[127.07182,37.60039],[127.07182,37.60041],[127.07182,37.60042],[127.07183,37.60043],[127.07183,37.60044],[127.07183,37.60045],[127.07183,37.60045],[127.07183,37.60048],[127.07184,37.6005],[127.07185,37.60054],[127.07185,37.60056],[127.07185,37.60057],[127.07186,37.60059],[127.07187,37.60064],[127.07187,37.60066],[127.07187,37.60066],[127.07188,37.60067],[127.07189,37.60068],[127.07189,37.60069],[127.07188,37.6007],[127.07187,37.6007],[127.07186,37.6007]]],[[[127.07106,37.60762],[127.07106,37.60755],[127.07105,37.60756],[127.07096,37.60758],[127.07093,37.60758],[127.07092,37.60758],[127.07092,37.6076],[127.07106,37.60762]]],[[[127.02589,37.57101],[127.0258,37.57095],[127.02561,37.57101],[127.02562,37.57102],[127.02554,37.57104],[127.02548,37.57105],[127.0254,37.5711],[127.02533,37.57112],[127.02524,37.57113],[127.02521,37.57115],[127.02513,37.57119],[127.02506,37.5712],[127.02501,37.57121],[127.02501,37.57123],[127.025,37.57123],[127.02497,37.57124],[127.02496,37.57124],[127.02495,37.57123],[127.02493,37.57124],[127.02412,37.57147],[127.02408,37.57149],[127.02408,37.5715],[127.02407,37.57152],[127.02407,37.57153],[127.02404,37.57154],[127.02398,37.57156],[127.02397,37.57157],[127.0239,37.57161],[127.02365,37.57176],[127.02373,37.57174],[127.02376,37.57174],[127.02406,37.57165],[127.02407,37.57165],[127.02442,37.57154],[127.025,37.57136],[127.02516,37.57132],[127.02556,37.57121],[127.026,37.57109],[127.02589,37.57101]]],[[[127.03381,37.57111],[127.03254,37.57022],[127.03126,37.5698],[127.03029,37.56981],[127.02768,37.57041],[127.02747,37.57067],[127.02801,37.57371],[127.0275,37.57764],[127.02657,37.57852],[127.02437,37.57916],[127.02572,37.57898],[127.02652,37.57863],[127.02769,37.57746],[127.02813,37.57407],[127.02783,37.57056],[127.03009,37.56994],[127.03114,37.56989],[127.03231,37.57017],[127.03381,37.57111]]],[[[127.03813,37.57227],[127.03618,37.57215],[127.03439,37.57148],[127.03533,37.57207],[127.03441,37.57379],[127.03444,37.57803],[127.03583,37.58547],[127.03882,37.59139],[127.04063,37.59568],[127.04064,37.59514],[127.03924,37.59176],[127.03595,37.58516],[127.03452,37.57863],[127.03471,37.5786],[127.03483,37.57328],[127.03584,37.57224],[127.03744,37.5724],[127.03813,37.57227]]]]}}]}