{"type":"FeatureCollection","features":[{"type":"Feature","id":"TN_RIVER_BT:WTR0200000000EI4I","properties":{"NF_ID":"WTR0200000000EI4I","source_layer":"TN_RIVER_BT","semantic":"channel","river_class":"소하천","river_class_source":"중심선 공간조인","survey_method":"사진측량","admin_code":"27110"},"geometry":{"type":"Polygon","coordinates":[[[128.59815,35.85605],[128.59803,35.85596],[128.59802,35.85596],[128.59802,35.85597],[128.59804,35.85599],[128.59815,35.8561],[128.59817,35.85611],[128.59818,35.85614],[128.59831,35.85642],[128.59831,35.85645],[128.5983,35.85661],[128.59829,35.85688],[128.59828,35.8569],[128.59827,35.85698],[128.59826,35.85702],[128.59826,35.85704],[128.59827,35.85704],[128.59828,35.85704],[128.59829,35.857],[128.5983,35.85682],[128.59831,35.85666],[128.59833,35.85649],[128.59833,35.85644],[128.59833,35.85643],[128.59832,35.85641],[128.59821,35.85616],[128.59817,35.85607],[128.59815,35.85605]]]}},{"type":"Feature","id":"TN_RIVER_BT:WTR0200000000EM9R","properties":{"NF_ID":"WTR0200000000EM9R","source_layer":"TN_RIVER_BT","semantic":"channel","river_class":"국가하천","river_class_source":"중심선 공간조인","river_name":"금호강","river_code":"2001950","survey_method":"사진측량","admin_code":"27110"},"geometry":{"type":"MultiPolygon","coordinates":[[[[128.61413,35.86718],[128.61421,35.86673],[128.6133,35.86504],[128.61074,35.86293],[128.61048,35.86307],[128.61004,35.8627],[128.6094,35.86157],[128.60826,35.86034],[128.60799,35.85743],[128.60833,35.85491],[128.60798,35.85492],[128.60712,35.85841],[128.60796,35.8605],[128.60935,35.86239],[128.61278,35.86533],[128.61413,35.86718]],[[128.61388,35.86654],[128.6139,35.86654],[128.61391,35.86654],[128.61402,35.86657],[128.61403,35.86657],[128.61406,35.86657],[128.61408,35.86657],[128.61409,35.86658],[128.6141,35.86659],[128.61411,35.86659],[128.61413,35.86669],[128.61414,35.86676],[128.61414,35.86679],[128.61413,35.86683],[128.61413,35.86685],[128.61417,35.86697],[128.61417,35.86698],[128.61416,35.86698],[128.61416,35.86698],[128.61409,35.86691],[128.61409,35.8669],[128.6141,35.86689],[128.6141,35.86689],[128.61409,35.86688],[128.61398,35.86678],[128.61395,35.86674],[128.61393,35.86669],[128.61393,35.86667],[128.61392,35.86664],[128.61387,35.86655],[128.61387,35.86654],[128.61388,35.86654]],[[128.60796,35.85975],[128.60778,35.85891],[128.60808,35.85918],[128.60796,35.85975]],[[128.60784,35.85979],[128.60747,35.85898],[128.60771,35.85869],[128.60784,35.85979]]],[[[128.6097,35.87472],[128.6106,35.87442],[128.6099,35.87477],[128.61034,35.87489],[128.61171,35.87427],[128.61272,35.87292],[128.61348,35.8714],[128.61369,35.87],[128.61454,35.86807],[128.61392,35.8673],[128.61409,35.86795],[128.61205,35.87313],[128.61116,35.87425],[128.6097,35.87472]],[[128.61129,35.87435],[128.61129,35.87434],[128.6114,35.87423],[128.61148,35.87417],[128.61157,35.8741],[128.61162,35.87406],[128.61167,35.87401],[128.61172,35.87395],[128.61173,35.87395],[128.61175,35.87395],[128.61175,35.87396],[128.61175,35.87397],[128.61171,35.87405],[128.61167,35.87411],[128.61166,35.87413],[128.61164,35.87414],[128.6116,35.87419],[128.61156,35.87423],[128.6115,35.87427],[128.61146,35.87429],[128.61143,35.87431],[128.61142,35.87432],[128.61137,35.87433],[128.61134,35.87434],[128.61132,35.87435],[128.61131,35.87436],[128.61129,35.87436],[128.61129,35.87435]],[[128.61153,35.87404],[128.61153,35.87404],[128.61152,35.87403],[128.61153,35.87403],[128.61162,35.87392],[128.61164,35.8739],[128.61165,35.8739],[128.61166,35.87391],[128.61166,35.87392],[128.61165,35.87392],[128.61165,35.87393],[128.61161,35.87398],[128.61157,35.87402],[128.61153,35.87404]]]]}}]}