{"type":"FeatureCollection","features":[{"type":"Feature","id":"TN_RIVER_BT:WTR0200000000C7QR","properties":{"NF_ID":"WTR0200000000C7QR","admin_code":"48127","source_layer":"TN_RIVER_BT","semantic":"channel","river_class":"소하천","river_class_source":"중심선 공간조인","survey_method":"사진측량"},"geometry":{"type":"Polygon","coordinates":[[[128.52272,35.18826],[128.52318,35.18753],[128.52307,35.18721],[128.52367,35.18685],[128.52406,35.18612],[128.5244,35.18472],[128.52399,35.18616],[128.52362,35.18685],[128.52304,35.18718],[128.52299,35.18797],[128.52268,35.18824],[128.52265,35.18778],[128.52172,35.18759],[128.52106,35.18653],[128.52034,35.18682],[128.51989,35.18648],[128.52034,35.18686],[128.52095,35.18658],[128.52165,35.18761],[128.52251,35.18776],[128.52272,35.18865],[128.52347,35.18941],[128.52358,35.18925],[128.52282,35.18869],[128.52272,35.18826]]]}},{"type":"Feature","id":"TN_RIVER_BT:WTR0200000000C7TU","properties":{"NF_ID":"WTR0200000000C7TU","admin_code":"48127","source_layer":"TN_RIVER_BT","semantic":"channel","river_class":"소하천","river_class_source":"중심선 공간조인","survey_method":"사진측량"},"geometry":{"type":"Polygon","coordinates":[[[128.52488,35.19034],[128.52472,35.19026],[128.52491,35.19046],[128.52463,35.19102],[128.52519,35.19204],[128.52481,35.19335],[128.52521,35.19286],[128.52528,35.19192],[128.52478,35.19102],[128.52488,35.19034]]]}},{"type":"Feature","id":"TN_RIVER_BT:WTR0200000000C868","properties":{"NF_ID":"WTR0200000000C868","admin_code":"48127","source_layer":"TN_RIVER_BT","semantic":"channel","river_class":"소하천","river_class_source":"중심선 공간조인","survey_method":"사진측량"},"geometry":{"type":"Polygon","coordinates":[[[128.51208,35.18979],[128.51146,35.19071],[128.51189,35.19146],[128.51063,35.19196],[128.51043,35.1927],[128.51061,35.19387],[128.51,35.19422],[128.51023,35.19487],[128.50907,35.19572],[128.50874,35.19705],[128.50819,35.19768],[128.50834,35.19851],[128.50829,35.19762],[128.50881,35.19704],[128.50913,35.19576],[128.51028,35.19493],[128.51007,35.1942],[128.51068,35.19386],[128.51048,35.19271],[128.51072,35.19193],[128.51185,35.19164],[128.51197,35.1914],[128.51152,35.19074],[128.51208,35.18979]]]}},{"type":"Feature","id":"TN_RIVER_BT:WTR0200000000C8CE","properties":{"NF_ID":"WTR0200000000C8CE","admin_code":"48127","source_layer":"TN_RIVER_BT","semantic":"channel","river_class":"소하천","river_class_source":"중심선 공간조인","survey_method":"사진측량"},"geometry":{"type":"Polygon","coordinates":[[[128.51216,35.20967],[128.51221,35.20963],[128.51229,35.20955],[128.51228,35.20955],[128.5121,35.20964],[128.51207,35.20965],[128.51204,35.20965],[128.512,35.20962],[128.51199,35.20962],[128.51199,35.20966],[128.51203,35.20968],[128.51205,35.20969],[128.51211,35.20968],[128.51216,35.20967]]]}},{"type":"Feature","id":"TN_RIVER_BT:WTR0200000000C8IK","properties":{"NF_ID":"WTR0200000000C8IK","admin_code":"48127","source_layer":"TN_RIVER_BT","semantic":"channel","river_class":"지방하천","river_class_source":"중심선 공간조인","river_name":"회원천","river_code":"2720260","survey_method":"사진측량"},"geometry":{"type":"Polygon","coordinates":[[[128.57244,35.21582],[128.57456,35.21566],[128.57572,35.21528],[128.57452,35.21561],[128.57213,35.2158],[128.57118,35.21655],[128.57244,35.21582]]]}},{"type":"Feature","id":"TN_RIVER_BT:WTR0200000000C8LN","properties":{"NF_ID":"WTR0200000000C8LN","admin_code":"48127","source_layer":"TN_RIVER_BT","semantic":"channel","river_class":"소하천","river_class_source":"중심선 공간조인","survey_method":"사진측량"},"geometry":{"type":"Polygon","coordinates":[[[128.50106,35.21961],[128.50068,35.21964],[128.5,35.21901],[128.50067,35.21966],[128.50098,35.21961],[128.50117,35.21982],[128.50106,35.21961]]]}},{"type":"Feature","id":"TN_RIVER_BT:WTR0200000000C8NP","properties":{"NF_ID":"WTR0200000000C8NP","admin_code":"48127","source_layer":"TN_RIVER_BT","semantic":"channel","river_class":"소하천","river_class_source":"중심선 공간조인","survey_method":"사진측량"},"geometry":{"type":"Polygon","coordinates":[[[128.50049,35.22086],[128.50049,35.22085],[128.50039,35.22085],[128.50027,35.22087],[128.50018,35.22092],[128.50004,35.22096],[128.5,35.22097],[128.5,35.22099],[128.5002,35.22094],[128.50029,35.22088],[128.50049,35.22086]]]}},{"type":"Feature","id":"TN_RIVER_BT:WTR0200000000C8RT","properties":{"NF_ID":"WTR0200000000C8RT","admin_code":"48127","source_layer":"TN_RIVER_BT","semantic":"channel","river_class":"소하천","river_class_source":"중심선 공간조인","survey_method":"사진측량"},"geometry":{"type":"Polygon","coordinates":[[[128.5956,35.21302],[128.59544,35.21298],[128.59526,35.22072],[128.5956,35.21302]]]}},{"type":"Feature","id":"TN_RIVER_BT:WTR0200000000C8SU","properties":{"NF_ID":"WTR0200000000C8SU","admin_code":"48127","source_layer":"TN_RIVER_BT","semantic":"channel","river_class":"소하천","river_class_source":"중심선 공간조인","survey_method":"사진측량"},"geometry":{"type":"Polygon","coordinates":[[[128.60544,35.21572],[128.60552,35.21201],[128.60532,35.21195],[128.60546,35.2155],[128.60504,35.21995],[128.60544,35.22144],[128.60512,35.21994],[128.60544,35.21572]]]}},{"type":"Feature","id":"TN_RIVER_BT:WTR0200000000C8VX","properties":{"NF_ID":"WTR0200000000C8VX","admin_code":"48127","source_layer":"TN_RIVER_BT","semantic":"channel","river_class":"지방하천","river_class_source":"중심선 공간조인","river_name":"회원천","river_code":"2720260","survey_method":"사진측량"},"geometry":{"type":"Polygon","coordinates":[[[128.55218,35.22372],[128.5536,35.22313],[128.55546,35.22281],[128.55598,35.22229],[128.5574,35.22182],[128.55835,35.22177],[128.55945,35.22128],[128.56002,35.22048],[128.56171,35.22003],[128.5637,35.21837],[128.56488,35.21779],[128.56637,35.21663],[128.56847,35.21583],[128.57029,35.21624],[128.56844,35.21577],[128.56631,35.21658],[128.56478,35.21777],[128.56363,35.21834],[128.56167,35.22],[128.56002,35.22042],[128.55977,35.22067],[128.55908,35.22072],[128.55975,35.2207],[128.55948,35.22115],[128.55834,35.22169],[128.55733,35.22173],[128.55596,35.22219],[128.55548,35.22269],[128.55337,35.22313],[128.55211,35.22369],[128.54979,35.22362],[128.55218,35.22372]]]}},{"type":"Feature","id":"TN_RIVER_BT:WTR0200000000C8Z1","properties":{"NF_ID":"WTR0200000000C8Z1","admin_code":"48127","source_layer":"TN_RIVER_BT","semantic":"channel","river_class":"소하천","river_class_source":"중심선 공간조인","survey_method":"사진측량"},"geometry":{"type":"Polygon","coordinates":[[[128.50767,35.22731],[128.50846,35.22748],[128.50883,35.22709],[128.50961,35.22715],[128.51003,35.22647],[128.51087,35.22669],[128.51135,35.22613],[128.51194,35.22617],[128.5124,35.22582],[128.51189,35.22612],[128.51126,35.22614],[128.51085,35.22666],[128.50999,35.22643],[128.50953,35.22713],[128.50888,35.22706],[128.50851,35.22742],[128.50763,35.22727],[128.50598,35.22769],[128.50767,35.22731]]]}},{"type":"Feature","id":"TN_RIVER_BT:WTR0200000000C936","properties":{"NF_ID":"WTR0200000000C936","admin_code":"48127","source_layer":"TN_RIVER_BT","semantic":"channel","river_class":"소하천","river_class_source":"중심선 공간조인","survey_method":"사진측량"},"geometry":{"type":"Polygon","coordinates":[[[128.55466,35.23041],[128.55499,35.23138],[128.55555,35.23171],[128.55619,35.23258],[128.55558,35.2317],[128.55501,35.23136],[128.55466,35.23041]]]}},{"type":"Feature","id":"TN_RIVER_BT:WTR0200000000C97A","properties":{"NF_ID":"WTR0200000000C97A","admin_code":"48127","source_layer":"TN_RIVER_BT","semantic":"channel","river_class":"지방하천","river_class_source":"중심선 공간조인","river_name":"삼계천","river_code":"2026350","survey_method":"사진측량"},"geometry":{"type":"Polygon","coordinates":[[[128.50017,35.23421],[128.5,35.23419],[128.5,35.23427],[128.50013,35.23427],[128.50047,35.23429],[128.50083,35.23431],[128.50084,35.23424],[128.50049,35.23422],[128.50017,35.23421]]]}},{"type":"Feature","id":"TN_RIVER_BT:WTR0200000000C98B","properties":{"NF_ID":"WTR0200000000C98B","admin_code":"48127","source_layer":"TN_RIVER_BT","semantic":"channel","river_class":"지방하천","river_class_source":"중심선 공간조인","river_name":"양덕천","river_code":"2720240","survey_method":"사진측량"},"geometry":{"type":"Polygon","coordinates":[[[128.58654,35.23005],[128.58584,35.22969],[128.58677,35.23025],[128.58975,35.23441],[128.58988,35.235],[128.58985,35.23445],[128.58654,35.23005]]]}},{"type":"Feature","id":"TN_RIVER_BT:WTR0200000000C99C","properties":{"NF_ID":"WTR0200000000C99C","admin_code":"48127","source_layer":"TN_RIVER_BT","semantic":"channel","river_class":"소하천","river_class_source":"중심선 공간조인","survey_method":"사진측량"},"geometry":{"type":"Polygon","coordinates":[[[128.59178,35.23481],[128.59176,35.23481],[128.59175,35.23483],[128.59181,35.23487],[128.59188,35.235],[128.59189,35.23501],[128.59192,35.23508],[128.59197,35.23522],[128.59201,35.23533],[128.59202,35.23534],[128.59204,35.23534],[128.59204,35.23534],[128.59194,35.23506],[128.59191,35.23501],[128.59186,35.23491],[128.5918,35.23482],[128.59179,35.23481],[128.59179,35.23481],[128.59178,35.23481]]]}},{"type":"Feature","id":"TN_RIVER_BT:WTR0200000000C9BE","properties":{"NF_ID":"WTR0200000000C9BE","admin_code":"48127","source_layer":"TN_RIVER_BT","semantic":"channel","river_class":"소하천","river_class_source":"중심선 공간조인","survey_method":"사진측량"},"geometry":{"type":"Polygon","coordinates":[[[128.54949,35.23492],[128.5497,35.2353],[128.55071,35.23575],[128.55088,35.2363],[128.55073,35.23573],[128.54979,35.23532],[128.54949,35.23492]]]}},{"type":"Feature","id":"TN_RIVER_BT:WTR0200000000C9CF","properties":{"NF_ID":"WTR0200000000C9CF","admin_code":"48127","source_layer":"TN_RIVER_BT","semantic":"channel","river_class":"소하천","river_class_source":"중심선 공간조인","survey_method":"사진측량"},"geometry":{"type":"Polygon","coordinates":[[[128.51057,35.23725],[128.5109,35.23697],[128.51022,35.23721],[128.51057,35.23725]]]}},{"type":"Feature","id":"TN_RIVER_BT:WTR0200000000C9DG","properties":{"NF_ID":"WTR0200000000C9DG","admin_code":"48127","source_layer":"TN_RIVER_BT","semantic":"channel","river_class":"소하천","river_class_source":"중심선 공간조인","survey_method":"사진측량"},"geometry":{"type":"Polygon","coordinates":[[[128.51226,35.23726],[128.51228,35.23725],[128.5123,35.23724],[128.51231,35.23724],[128.5123,35.23724],[128.51229,35.23725],[128.51228,35.23725],[128.51227,35.23725],[128.51226,35.23725],[128.51225,35.23725],[128.51225,35.23725],[128.51224,35.23725],[128.51223,35.23725],[128.51223,35.23724],[128.51222,35.23724],[128.51222,35.23723],[128.51222,35.23723],[128.51221,35.23722],[128.51221,35.23723],[128.51219,35.23723],[128.51205,35.23722],[128.51202,35.23719],[128.51193,35.23713],[128.51175,35.23697],[128.51174,35.23696],[128.51172,35.23695],[128.51171,35.23694],[128.51166,35.23694],[128.51161,35.23694],[128.51173,35.23699],[128.51194,35.23717],[128.51199,35.23721],[128.51206,35.23725],[128.51213,35.23727],[128.5122,35.23727],[128.51222,35.23726],[128.51226,35.23726]]]}},{"type":"Feature","id":"TN_RIVER_BT:WTR0200000000C9GJ","properties":{"NF_ID":"WTR0200000000C9GJ","admin_code":"48127","source_layer":"TN_RIVER_BT","semantic":"channel","river_class":"소하천","river_class_source":"중심선 공간조인","survey_method":"사진측량"},"geometry":{"type":"Polygon","coordinates":[[[128.53197,35.23955],[128.53216,35.24069],[128.53255,35.2413],[128.53197,35.23955]]]}},{"type":"Feature","id":"TN_RIVER_BT:WTR0200000000C9HK","properties":{"NF_ID":"WTR0200000000C9HK","admin_code":"48127","source_layer":"TN_RIVER_BT","semantic":"channel","river_class":"지방하천","river_class_source":"중심선 공간조인","river_name":"산호천","river_code":"2720250","survey_method":"사진측량"},"geometry":{"type":"Polygon","coordinates":[[[128.56728,35.23782],[128.56614,35.23601],[128.56518,35.23563],[128.56515,35.23501],[128.56573,35.2343],[128.56579,35.23365],[128.56908,35.23169],[128.57555,35.22882],[128.57788,35.22657],[128.58101,35.2242],[128.5833,35.22386],[128.58399,35.22328],[128.58305,35.22381],[128.58084,35.22425],[128.57537,35.22863],[128.56935,35.23124],[128.5664,35.23326],[128.56276,35.2348],[128.56048,35.23647],[128.56018,35.23653],[128.55826,35.23554],[128.55373,35.23559],[128.55042,35.23686],[128.54907,35.23792],[128.54815,35.23834],[128.54707,35.23867],[128.5458,35.23868],[128.5443,35.23942],[128.54272,35.23842],[128.54216,35.23779],[128.54036,35.237],[128.53993,35.23647],[128.53948,35.23553],[128.53933,35.23424],[128.53826,35.23192],[128.53878,35.23084],[128.53856,35.22886],[128.53797,35.22724],[128.53682,35.22603],[128.53597,35.22431],[128.53643,35.22594],[128.53795,35.22748],[128.5387,35.23082],[128.53815,35.23192],[128.53922,35.23426],[128.53941,35.2357],[128.54045,35.23722],[128.54233,35.2381],[128.54407,35.23949],[128.54578,35.23879],[128.5472,35.23871],[128.54815,35.23841],[128.54933,35.23783],[128.55053,35.23688],[128.55351,35.23571],[128.55836,35.23559],[128.56018,35.23655],[128.55891,35.23681],[128.55825,35.23775],[128.55701,35.23873],[128.55528,35.23873],[128.55441,35.23994],[128.55337,35.23987],[128.55158,35.24079],[128.55069,35.24059],[128.5504,35.24099],[128.55071,35.24064],[128.55173,35.2408],[128.55333,35.23991],[128.55449,35.23995],[128.5555,35.23868],[128.55715,35.23881],[128.55919,35.2367],[128.56071,35.23643],[128.56323,35.23467],[128.56573,35.23367],[128.56571,35.23425],[128.56512,35.235],[128.56513,35.23561],[128.56529,35.23587],[128.5661,35.23605],[128.56724,35.2378],[128.56703,35.2394],[128.5656,35.24126],[128.56535,35.24201],[128.56565,35.24126],[128.56707,35.23941],[128.56728,35.23782]]]}},{"type":"Feature","id":"TN_RIVER_BT:WTR0200000000C9IL","properties":{"NF_ID":"WTR0200000000C9IL","admin_code":"48127","source_layer":"TN_RIVER_BT","semantic":"channel","river_class":"소하천","river_class_source":"중심선 공간조인","survey_method":"사진측량"},"geometry":{"type":"Polygon","coordinates":[[[128.52713,35.2437],[128.52713,35.24367],[128.5271,35.24375],[128.52709,35.24378],[128.5271,35.24382],[128.5271,35.24386],[128.52711,35.2439],[128.52711,35.24393],[128.52711,35.24401],[128.52712,35.24406],[128.5272,35.24419],[128.52723,35.24418],[128.52714,35.244],[128.52713,35.24398],[128.52713,35.24388],[128.52714,35.24384],[128.52714,35.24376],[128.52713,35.2437]]]}},{"type":"Feature","id":"TN_RIVER_BT:WTR0200000000C9OR","properties":{"NF_ID":"WTR0200000000C9OR","admin_code":"48127","source_layer":"TN_RIVER_BT","semantic":"channel","river_class":"소하천","river_class_source":"중심선 공간조인","survey_method":"사진측량"},"geometry":{"type":"Polygon","coordinates":[[[128.5258,35.24639],[128.5265,35.24631],[128.52675,35.2457],[128.52642,35.24634],[128.52572,35.24637],[128.5238,35.24751],[128.52263,35.24888],[128.52155,35.24916],[128.52264,35.24891],[128.52382,35.24754],[128.5258,35.24639]]]}},{"type":"Feature","id":"TN_RIVER_BT:WTR0200000000C9RU","properties":{"NF_ID":"WTR0200000000C9RU","admin_code":"48127","source_layer":"TN_RIVER_BT","semantic":"channel","river_class":"소하천","river_class_source":"중심선 공간조인","survey_method":"사진측량"},"geometry":{"type":"Polygon","coordinates":[[[128.5522,35.2479],[128.55117,35.24766],[128.55066,35.2461],[128.55002,35.24558],[128.55065,35.24616],[128.55117,35.24772],[128.55215,35.24791],[128.55286,35.24959],[128.55345,35.25],[128.55252,35.24902],[128.5522,35.2479]]]}},{"type":"Feature","id":"TN_RIVER_BT:WTR0200000000C9SV","properties":{"NF_ID":"WTR0200000000C9SV","admin_code":"48127","source_layer":"TN_RIVER_BT","semantic":"channel","river_class":"소하천","river_class_source":"중심선 공간조인","survey_method":"사진측량"},"geometry":{"type":"Polygon","coordinates":[[[128.52136,35.24926],[128.52136,35.24926],[128.52137,35.24926],[128.52142,35.24927],[128.52142,35.24925],[128.52127,35.24923],[128.52127,35.24923],[128.52127,35.24923],[128.52108,35.24943],[128.52089,35.24968],[128.52069,35.24997],[128.52068,35.25],[128.52072,35.25],[128.52073,35.24997],[128.5208,35.24986],[128.52105,35.24958],[128.52129,35.24929],[128.52132,35.24928],[128.52136,35.24926]]]}},{"type":"Feature","id":"TN_RIVER_BT:WTR0200000000C9UX","properties":{"NF_ID":"WTR0200000000C9UX","admin_code":"48127","source_layer":"TN_RIVER_BT","semantic":"channel","river_class":"소하천","river_class_source":"중심선 공간조인","survey_method":"사진측량"},"geometry":{"type":"Polygon","coordinates":[[[128.52073,35.24912],[128.52071,35.24911],[128.52064,35.24916],[128.52061,35.24918],[128.52035,35.24933],[128.52003,35.24952],[128.51975,35.2497],[128.51951,35.24984],[128.51925,35.25],[128.51931,35.25],[128.51955,35.24986],[128.51986,35.24966],[128.52018,35.24946],[128.52056,35.24923],[128.52063,35.2492],[128.52068,35.24917],[128.52073,35.24912]]]}},{"type":"Feature","id":"TN_RIVER_BT:WTR0200000000C9VY","properties":{"NF_ID":"WTR0200000000C9VY","admin_code":"48127","source_layer":"TN_RIVER_BT","semantic":"channel","river_class":"지방하천","river_class_source":"중심선 공간조인","river_name":"광려천","river_code":"2026340","survey_method":"사진측량"},"geometry":{"type":"Polygon","coordinates":[[[128.50943,35.24549],[128.5079,35.24324],[128.50761,35.24323],[128.50608,35.24206],[128.50552,35.24084],[128.50503,35.23774],[128.50479,35.23772],[128.505,35.23568],[128.50486,35.23449],[128.50582,35.23123],[128.50575,35.23039],[128.50814,35.23077],[128.5091,35.23054],[128.50962,35.23104],[128.51073,35.23088],[128.51134,35.23146],[128.51189,35.2315],[128.51246,35.23106],[128.51354,35.2314],[128.5144,35.23122],[128.51503,35.23134],[128.51447,35.23119],[128.51354,35.23135],[128.51253,35.23104],[128.51187,35.23149],[128.51128,35.23143],[128.51064,35.23084],[128.50964,35.23102],[128.50907,35.23048],[128.50797,35.23073],[128.50603,35.23021],[128.50576,35.22759],[128.50514,35.22485],[128.50519,35.22374],[128.50537,35.22383],[128.50524,35.22309],[128.50474,35.22237],[128.50329,35.22207],[128.50244,35.22143],[128.50219,35.22096],[128.50238,35.22089],[128.50201,35.22049],[128.50223,35.22007],[128.50208,35.21994],[128.50193,35.22014],[128.50198,35.21957],[128.50215,35.21921],[128.50381,35.21796],[128.50411,35.21799],[128.50637,35.21607],[128.50808,35.21416],[128.50871,35.2099],[128.50989,35.20952],[128.50901,35.20979],[128.50864,35.20939],[128.50989,35.20779],[128.51448,35.20808],[128.51628,35.2089],[128.51673,35.20933],[128.51801,35.20938],[128.5209,35.2108],[128.51802,35.20933],[128.51676,35.2093],[128.51556,35.2084],[128.51487,35.20835],[128.51455,35.20807],[128.50988,35.20775],[128.51036,35.20629],[128.51118,35.20597],[128.51599,35.20537],[128.51761,35.2032],[128.51839,35.20359],[128.51961,35.20344],[128.51842,35.20357],[128.51762,35.20316],[128.51774,35.20097],[128.51844,35.20126],[128.5202,35.20118],[128.52205,35.20201],[128.52222,35.20259],[128.52296,35.20291],[128.52227,35.20255],[128.52211,35.20195],[128.5203,35.2011],[128.5184,35.20122],[128.51773,35.20092],[128.5178,35.20043],[128.51846,35.20014],[128.51931,35.20056],[128.51978,35.20056],[128.52087,35.20006],[128.52168,35.19921],[128.52257,35.19925],[128.5235,35.19795],[128.52469,35.19759],[128.52524,35.19704],[128.52598,35.19676],[128.52604,35.19544],[128.52814,35.19498],[128.53027,35.19562],[128.53074,35.19595],[128.53114,35.19585],[128.52859,35.1952],[128.52822,35.19491],[128.52865,35.19481],[128.52744,35.19515],[128.52971,35.19262],[128.52739,35.19518],[128.52658,35.19529],[128.52662,35.19497],[128.52641,35.19531],[128.52591,35.19542],[128.52597,35.1967],[128.52524,35.19699],[128.52454,35.19759],[128.5236,35.19787],[128.52351,35.19742],[128.5242,35.19638],[128.52438,35.19522],[128.52484,35.19473],[128.52441,35.1945],[128.52476,35.19469],[128.52432,35.19524],[128.52415,35.19628],[128.52349,35.19718],[128.52342,35.19785],[128.52246,35.19912],[128.52165,35.19909],[128.52072,35.20001],[128.51979,35.20042],[128.51848,35.2],[128.51775,35.20025],[128.51739,35.20333],[128.51592,35.20525],[128.51392,35.2054],[128.51266,35.20583],[128.51048,35.20607],[128.51013,35.20371],[128.50898,35.20093],[128.50886,35.19938],[128.50779,35.19812],[128.50744,35.1973],[128.50658,35.19674],[128.50562,35.19652],[128.50456,35.19575],[128.50295,35.19528],[128.50234,35.19427],[128.50101,35.19446],[128.5,35.19431],[128.50124,35.19464],[128.5022,35.19444],[128.50262,35.19519],[128.50321,35.19564],[128.5047,35.19598],[128.50565,35.19675],[128.50657,35.19687],[128.5057,35.19788],[128.50661,35.19689],[128.50742,35.1974],[128.50872,35.19943],[128.50879,35.20136],[128.50998,35.20386],[128.51013,35.2063],[128.50969,35.20768],[128.50863,35.20925],[128.5082,35.21322],[128.50746,35.21489],[128.50656,35.21572],[128.50588,35.21522],[128.50391,35.21502],[128.50289,35.21464],[128.50167,35.21385],[128.50372,35.21502],[128.50577,35.21523],[128.50651,35.2157],[128.50405,35.2179],[128.50218,35.21905],[128.5017,35.22003],[128.50217,35.22137],[128.50313,35.22203],[128.50484,35.22266],[128.50503,35.22294],[128.50509,35.22526],[128.50583,35.2298],[128.50564,35.23148],[128.50525,35.23223],[128.5048,35.23444],[128.50457,35.23452],[128.50492,35.239],[128.50457,35.23913],[128.50498,35.2392],[128.50559,35.24156],[128.50532,35.24178],[128.5056,35.2417],[128.50832,35.24383],[128.50901,35.24488],[128.50892,35.24555],[128.50934,35.24547],[128.50952,35.24662],[128.51018,35.24762],[128.51223,35.24895],[128.51335,35.25],[128.51369,35.25],[128.51084,35.24764],[128.5099,35.24665],[128.50943,35.24549]]]}},{"type":"Feature","id":"TN_RIVER_BT:WTR0200000000C9WZ","properties":{"NF_ID":"WTR0200000000C9WZ","admin_code":"48127","source_layer":"TN_RIVER_BT","semantic":"channel","river_class":"지방하천","river_class_source":"중심선 공간조인","river_name":"삼호천","river_code":"2720230","survey_method":"사진측량"},"geometry":{"type":"Polygon","coordinates":[[[128.57875,35.24743],[128.57857,35.24472],[128.57999,35.2429],[128.58012,35.2406],[128.57977,35.23979],[128.58023,35.23765],[128.58133,35.23587],[128.58106,35.23064],[128.58171,35.2299],[128.58704,35.22684],[128.58712,35.22662],[128.58212,35.22948],[128.58094,35.23054],[128.5813,35.23582],[128.58013,35.23765],[128.57966,35.23976],[128.58002,35.24059],[128.57987,35.24283],[128.57848,35.24474],[128.5787,35.24733],[128.57669,35.24757],[128.57868,35.2474],[128.57774,35.24806],[128.57751,35.24891],[128.57771,35.25],[128.57757,35.24891],[128.57779,35.24805],[128.57875,35.24743]]]}},{"type":"Feature","id":"TN_RIVER_BT:WTR0200000000CJGT","properties":{"NF_ID":"WTR0200000000CJGT","admin_code":"48127","source_layer":"TN_RIVER_BT","semantic":"channel","river_class":"소하천","river_class_source":"중심선 공간조인","survey_method":"사진측량"},"geometry":{"type":"Polygon","coordinates":[[[128.49881,35.19315],[128.49841,35.19298],[128.497,35.19336],[128.49673,35.19322],[128.49716,35.19262],[128.49658,35.19167],[128.49671,35.19117],[128.49626,35.19102],[128.49558,35.18983],[128.49626,35.19113],[128.49665,35.1912],[128.49651,35.19169],[128.49707,35.19253],[128.49645,35.19368],[128.49599,35.19316],[128.4952,35.19304],[128.49459,35.19236],[128.49355,35.19235],[128.49237,35.1919],[128.49251,35.1914],[128.49204,35.19111],[128.49135,35.19],[128.49094,35.18826],[128.49132,35.19001],[128.49244,35.19159],[128.49226,35.19187],[128.49196,35.19172],[128.49046,35.19027],[128.4904,35.1899],[128.49017,35.1903],[128.49238,35.19196],[128.49206,35.19215],[128.49242,35.19201],[128.49351,35.1924],[128.49458,35.19241],[128.49511,35.19306],[128.49596,35.19325],[128.49635,35.19374],[128.49822,35.19308],[128.49867,35.19311],[128.49903,35.1942],[128.5,35.1944],[128.49898,35.19408],[128.49881,35.19315]]]}},{"type":"Feature","id":"TN_RIVER_BT:WTR0200000000CKHV","properties":{"NF_ID":"WTR0200000000CKHV","admin_code":"48127","source_layer":"TN_RIVER_BT","semantic":"channel","river_class":"소하천","river_class_source":"중심선 공간조인","survey_method":"사진측량"},"geometry":{"type":"Polygon","coordinates":[[[128.49847,35.21806],[128.49843,35.21803],[128.49842,35.21803],[128.49851,35.21815],[128.49871,35.21828],[128.49881,35.21834],[128.49896,35.21841],[128.49903,35.21845],[128.49907,35.21855],[128.4991,35.21858],[128.49915,35.21862],[128.49924,35.21867],[128.49932,35.21871],[128.49939,35.21873],[128.49954,35.21878],[128.49973,35.21894],[128.49982,35.21897],[128.49996,35.21902],[128.5,35.21906],[128.5,35.21901],[128.49993,35.21898],[128.49975,35.21893],[128.49973,35.21892],[128.49971,35.21891],[128.49961,35.2188],[128.49954,35.21875],[128.49952,35.21874],[128.49937,35.21867],[128.49934,35.21867],[128.49932,35.21866],[128.49925,35.21863],[128.49923,35.21863],[128.49911,35.21854],[128.49906,35.21845],[128.49904,35.21843],[128.49899,35.21839],[128.49885,35.21832],[128.49872,35.21824],[128.49857,35.21815],[128.49854,35.21813],[128.49847,35.21806]]]}},{"type":"Feature","id":"TN_RIVER_BT:WTR0200000000CKJX","properties":{"NF_ID":"WTR0200000000CKJX","admin_code":"48127","source_layer":"TN_RIVER_BT","semantic":"channel","river_class":"소하천","river_class_source":"중심선 공간조인","survey_method":"사진측량"},"geometry":{"type":"Polygon","coordinates":[[[128.5,35.22099],[128.5,35.22097],[128.49989,35.221],[128.49988,35.22101],[128.49988,35.22101],[128.49986,35.22104],[128.49986,35.22105],[128.49984,35.22106],[128.49983,35.22107],[128.49983,35.22108],[128.49984,35.22108],[128.49985,35.22107],[128.49986,35.22107],[128.49986,35.22106],[128.49989,35.22102],[128.5,35.22099]]]}},{"type":"Feature","id":"TN_RIVER_BT:WTR0200000000CKLZ","properties":{"NF_ID":"WTR0200000000CKLZ","admin_code":"48127","source_layer":"TN_RIVER_BT","semantic":"channel","river_class":"소하천","river_class_source":"중심선 공간조인","survey_method":"사진측량"},"geometry":{"type":"Polygon","coordinates":[[[128.48627,35.2223],[128.48707,35.22193],[128.48614,35.22229],[128.48516,35.22218],[128.48506,35.22067],[128.48502,35.22166],[128.48455,35.22208],[128.4823,35.22154],[128.48421,35.22212],[128.48494,35.22195],[128.4854,35.22227],[128.48627,35.2223]]]}},{"type":"Feature","id":"TN_RIVER_BT:WTR0200000000CKV9","properties":{"NF_ID":"WTR0200000000CKV9","admin_code":"48127","source_layer":"TN_RIVER_BT","semantic":"channel","river_class":"소하천","river_class_source":"중심선 공간조인","survey_method":"사진측량"},"geometry":{"type":"Polygon","coordinates":[[[128.49019,35.2305],[128.49018,35.2305],[128.49018,35.2305],[128.49017,35.2305],[128.49017,35.2305],[128.49018,35.23051],[128.49027,35.2306],[128.49033,35.23065],[128.49038,35.23069],[128.49039,35.23072],[128.49041,35.23082],[128.49043,35.23088],[128.49045,35.23093],[128.49045,35.23093],[128.49046,35.23094],[128.49063,35.23108],[128.49072,35.23114],[128.49081,35.2312],[128.49091,35.23126],[128.491,35.23132],[128.49113,35.23142],[128.49126,35.23153],[128.49138,35.23162],[128.49141,35.2316],[128.49141,35.23159],[128.49141,35.23159],[128.49121,35.23142],[128.49104,35.23129],[128.49095,35.23122],[128.49086,35.23118],[128.49076,35.23114],[128.49067,35.23108],[128.4906,35.23103],[128.49054,35.23098],[128.49048,35.23093],[128.49045,35.23089],[128.49043,35.23082],[128.49041,35.23075],[128.49039,35.23069],[128.49039,35.23068],[128.49039,35.23067],[128.49038,35.23067],[128.49038,35.23066],[128.4903,35.23061],[128.49022,35.23053],[128.49019,35.2305]]]}},{"type":"Feature","id":"TN_RIVER_BT:WTR0200000000CKXB","properties":{"NF_ID":"WTR0200000000CKXB","admin_code":"48127","source_layer":"TN_RIVER_BT","semantic":"channel","river_class":"소하천","river_class_source":"중심선 공간조인","survey_method":"사진측량"},"geometry":{"type":"Polygon","coordinates":[[[128.47997,35.23271],[128.47955,35.23329],[128.47985,35.23363],[128.47958,35.2333],[128.47997,35.23271]]]}},{"type":"Feature","id":"TN_RIVER_BT:WTR0200000000CL2H","properties":{"NF_ID":"WTR0200000000CL2H","admin_code":"48127","source_layer":"TN_RIVER_BT","semantic":"channel","river_class":"소하천","river_class_source":"중심선 공간조인","survey_method":"사진측량"},"geometry":{"type":"Polygon","coordinates":[[[128.48378,35.236],[128.48298,35.23562],[128.48156,35.23556],[128.48103,35.23516],[128.48119,35.23477],[128.48059,35.2341],[128.48119,35.23478],[128.48103,35.23516],[128.48155,35.23557],[128.48295,35.23563],[128.48378,35.236]]]}},{"type":"Feature","id":"TN_RIVER_BT:WTR0200000000CL5K","properties":{"NF_ID":"WTR0200000000CL5K","admin_code":"48127","source_layer":"TN_RIVER_BT","semantic":"channel","river_class":"지방하천","river_class_source":"중심선 공간조인","river_name":"삼계천","river_code":"2026350","survey_method":"사진측량"},"geometry":{"type":"Polygon","coordinates":[[[128.48614,35.23842],[128.4869,35.23841],[128.48747,35.23737],[128.48925,35.23622],[128.4901,35.23486],[128.49089,35.23441],[128.49212,35.2329],[128.49294,35.23238],[128.49419,35.23211],[128.49559,35.2322],[128.49623,35.23255],[128.49715,35.23354],[128.5,35.23427],[128.49712,35.23345],[128.49565,35.23209],[128.49537,35.22981],[128.49602,35.22772],[128.49594,35.22716],[128.49465,35.22629],[128.49464,35.22492],[128.494,35.22435],[128.4927,35.22221],[128.49116,35.22171],[128.49049,35.22175],[128.48983,35.22225],[128.4894,35.22203],[128.48912,35.22138],[128.48923,35.2206],[128.48965,35.22026],[128.4897,35.21978],[128.48946,35.2204],[128.4892,35.22055],[128.489,35.22035],[128.48934,35.22194],[128.48803,35.2217],[128.4891,35.22186],[128.48976,35.22231],[128.49045,35.22186],[128.4911,35.22179],[128.49272,35.22234],[128.49396,35.22438],[128.49453,35.22489],[128.49461,35.22636],[128.49535,35.22673],[128.49588,35.22731],[128.49528,35.23009],[128.49559,35.23212],[128.49394,35.23212],[128.49233,35.23267],[128.49142,35.23387],[128.49004,35.23487],[128.48897,35.2364],[128.48742,35.23738],[128.48685,35.2384],[128.48596,35.23842],[128.48519,35.23915],[128.48459,35.24009],[128.48458,35.24063],[128.4851,35.23928],[128.48614,35.23842]]]}},{"type":"Feature","id":"TN_RIVER_BT:WTR0200000000D285","properties":{"NF_ID":"WTR0200000000D285","admin_code":"48127","source_layer":"TN_RIVER_BT","semantic":"channel","river_class":"소하천","river_class_source":"중심선 공간조인","survey_method":"사진측량"},"geometry":{"type":"Polygon","coordinates":[[[128.55345,35.25],[128.55339,35.25],[128.55339,35.25],[128.5534,35.25001],[128.55348,35.25006],[128.55369,35.25013],[128.55352,35.25005],[128.55345,35.25],[128.55345,35.25]]]}},{"type":"Feature","id":"TN_RIVER_BT:WTR0200000000D2A7","properties":{"NF_ID":"WTR0200000000D2A7","admin_code":"48127","source_layer":"TN_RIVER_BT","semantic":"channel","river_class":"소하천","river_class_source":"중심선 공간조인","survey_method":"사진측량"},"geometry":{"type":"Polygon","coordinates":[[[128.52072,35.25],[128.52068,35.25],[128.52068,35.25],[128.52068,35.25005],[128.52069,35.25022],[128.52069,35.25044],[128.52069,35.25048],[128.52069,35.25051],[128.52068,35.25053],[128.52066,35.25056],[128.52059,35.25064],[128.52057,35.25067],[128.52056,35.2507],[128.52055,35.25073],[128.52055,35.25076],[128.52055,35.25085],[128.52055,35.25092],[128.52056,35.25096],[128.52057,35.251],[128.52063,35.25108],[128.52066,35.25113],[128.52067,35.25115],[128.52068,35.25117],[128.52068,35.2512],[128.52072,35.2512],[128.52072,35.25117],[128.52071,35.25115],[128.52069,35.25112],[128.52067,35.25108],[128.52063,35.25102],[128.5206,35.25098],[128.52059,35.25095],[128.52058,35.25093],[128.52057,35.2509],[128.52057,35.25086],[128.52057,35.25081],[128.52057,35.25077],[128.52057,35.25073],[128.52058,35.25069],[128.5206,35.25066],[128.52064,35.25061],[128.5207,35.25054],[128.52071,35.25052],[128.52072,35.2505],[128.52072,35.25048],[128.52073,35.2504],[128.52072,35.25021],[128.52072,35.25008],[128.52071,35.25007],[128.52072,35.25],[128.52072,35.25]]]}},{"type":"Feature","id":"TN_RIVER_BT:WTR0200000000D2B8","properties":{"NF_ID":"WTR0200000000D2B8","admin_code":"48127","source_layer":"TN_RIVER_BT","semantic":"channel","river_class":"소하천","river_class_source":"중심선 공간조인","survey_method":"사진측량"},"geometry":{"type":"Polygon","coordinates":[[[128.51722,35.25146],[128.51931,35.25],[128.51774,35.25089],[128.5172,35.25144],[128.51625,35.25099],[128.51722,35.25146]]]}},{"type":"Feature","id":"TN_RIVER_BT:WTR0200000000D2DA","properties":{"NF_ID":"WTR0200000000D2DA","admin_code":"48127","source_layer":"TN_RIVER_BT","semantic":"channel","river_class":"지방하천","river_class_source":"중심선 공간조인","river_name":"삼호천","river_code":"2720230","survey_method":"사진측량"},"geometry":{"type":"Polygon","coordinates":[[[128.578,35.25074],[128.57842,35.25136],[128.58002,35.25197],[128.57845,35.25134],[128.57804,35.25095],[128.57829,35.25053],[128.57814,35.25022],[128.57765,35.25],[128.57821,35.25054],[128.57784,35.25081],[128.57747,35.25232],[128.57713,35.25257],[128.57727,35.25348],[128.57722,35.2526],[128.57752,35.25231],[128.578,35.25074]]]}},{"type":"Feature","id":"TN_RIVER_BT:WTR0200000000D2EB","properties":{"NF_ID":"WTR0200000000D2EB","admin_code":"48127","source_layer":"TN_RIVER_BT","semantic":"channel","river_class":"소하천","river_class_source":"중심선 공간조인","survey_method":"사진측량"},"geometry":{"type":"Polygon","coordinates":[[[128.51943,35.25371],[128.52016,35.25295],[128.52067,35.25156],[128.52009,35.253],[128.51868,35.25432],[128.51869,35.2546],[128.51943,35.25371]]]}},{"type":"Feature","id":"TN_RIVER_BT:WTR0200000000D2KH","properties":{"NF_ID":"WTR0200000000D2KH","admin_code":"48127","source_layer":"TN_RIVER_BT","semantic":"channel","river_class":"소하천","river_class_source":"중심선 공간조인","survey_method":"사진측량"},"geometry":{"type":"Polygon","coordinates":[[[128.53179,35.25842],[128.53312,35.25477],[128.53331,35.2534],[128.53403,35.2519],[128.53324,35.25343],[128.53339,35.25366],[128.53308,35.25478],[128.5321,35.25701],[128.53179,35.25842]]]}},{"type":"Feature","id":"TN_RIVER_BT:WTR0200000000D2TQ","properties":{"NF_ID":"WTR0200000000D2TQ","admin_code":"48127","source_layer":"TN_RIVER_BT","semantic":"channel","river_class":"소하천","river_class_source":"중심선 공간조인","survey_method":"사진측량"},"geometry":{"type":"Polygon","coordinates":[[[128.50925,35.2621],[128.50936,35.26262],[128.50948,35.26203],[128.51085,35.26175],[128.51128,35.26133],[128.51254,35.26087],[128.51333,35.26101],[128.51497,35.26018],[128.51642,35.2591],[128.51834,35.25877],[128.51829,35.25864],[128.51642,35.25899],[128.51374,35.26076],[128.51256,35.26079],[128.51074,35.26176],[128.50918,35.2621],[128.50825,35.26299],[128.50629,35.26351],[128.50824,35.26303],[128.50925,35.2621]],[[128.51264,35.26083],[128.51265,35.26083],[128.51345,35.26083],[128.51348,35.26083],[128.51347,35.26084],[128.51332,35.26095],[128.51321,35.26094],[128.51263,35.26085],[128.51263,35.26084],[128.51264,35.26083]]]}},{"type":"Feature","id":"TN_RIVER_BT:WTR0200000000D2WT","properties":{"NF_ID":"WTR0200000000D2WT","admin_code":"48127","source_layer":"TN_RIVER_BT","semantic":"channel","river_class":"소하천","river_class_source":"중심선 공간조인","survey_method":"사진측량"},"geometry":{"type":"Polygon","coordinates":[[[128.50059,35.26482],[128.50197,35.26455],[128.50348,35.26455],[128.50198,35.26454],[128.50059,35.26482]]]}},{"type":"Feature","id":"TN_RIVER_BT:WTR0200000000D31Z","properties":{"NF_ID":"WTR0200000000D31Z","admin_code":"48127","source_layer":"TN_RIVER_BT","semantic":"channel","river_class":"소하천","river_class_source":"중심선 공간조인","survey_method":"사진측량"},"geometry":{"type":"Polygon","coordinates":[[[128.50469,35.26699],[128.50466,35.26696],[128.50465,35.26697],[128.50468,35.26701],[128.5047,35.26703],[128.50472,35.26705],[128.50476,35.26709],[128.50479,35.26711],[128.50484,35.26715],[128.50489,35.26719],[128.50491,35.2672],[128.50493,35.26719],[128.50488,35.26716],[128.50484,35.26713],[128.5048,35.2671],[128.50478,35.26708],[128.50474,35.26704],[128.50472,35.26702],[128.50469,35.26699]]]}},{"type":"Feature","id":"TN_RIVER_BT:WTR0200000000D320","properties":{"NF_ID":"WTR0200000000D320","admin_code":"48127","source_layer":"TN_RIVER_BT","semantic":"channel","river_class":"소하천","river_class_source":"중심선 공간조인","survey_method":"사진측량"},"geometry":{"type":"Polygon","coordinates":[[[128.50444,35.26681],[128.50462,35.26688],[128.50469,35.26642],[128.50513,35.26604],[128.50616,35.26591],[128.50647,35.26549],[128.50808,35.26495],[128.50831,35.26444],[128.50919,35.26381],[128.50933,35.26312],[128.50912,35.26385],[128.50827,35.26445],[128.50811,35.2649],[128.50653,35.26544],[128.50617,35.26589],[128.50492,35.26607],[128.50422,35.26712],[128.50356,35.26737],[128.50419,35.2672],[128.50444,35.26681]]]}},{"type":"Feature","id":"TN_RIVER_BT:WTR0200000000D331","properties":{"NF_ID":"WTR0200000000D331","admin_code":"48127","source_layer":"TN_RIVER_BT","semantic":"channel","river_class":"소하천","river_class_source":"중심선 공간조인","survey_method":"사진측량"},"geometry":{"type":"Polygon","coordinates":[[[128.50406,35.26728],[128.50404,35.26727],[128.50402,35.26737],[128.50398,35.26753],[128.50396,35.26761],[128.50394,35.26768],[128.50392,35.26773],[128.50392,35.26773],[128.50392,35.26773],[128.50394,35.26775],[128.50398,35.26774],[128.50397,35.26773],[128.50397,35.26772],[128.50397,35.2677],[128.50398,35.26768],[128.50398,35.26765],[128.50398,35.26761],[128.504,35.26754],[128.50403,35.26739],[128.50406,35.26728]]]}},{"type":"Feature","id":"TN_RIVER_BT:WTR0200000000D342","properties":{"NF_ID":"WTR0200000000D342","admin_code":"48127","source_layer":"TN_RIVER_BT","semantic":"channel","river_class":"소하천","river_class_source":"중심선 공간조인","survey_method":"사진측량"},"geometry":{"type":"Polygon","coordinates":[[[128.56343,35.26766],[128.56251,35.2675],[128.56232,35.26729],[128.55842,35.26686],[128.56224,35.26731],[128.56247,35.26753],[128.56343,35.26766]]]}},{"type":"Feature","id":"TN_RIVER_BT:WTR0200000000D353","properties":{"NF_ID":"WTR0200000000D353","admin_code":"48127","source_layer":"TN_RIVER_BT","semantic":"channel","river_class":"소하천","river_class_source":"중심선 공간조인","survey_method":"사진측량"},"geometry":{"type":"Polygon","coordinates":[[[128.50301,35.2678],[128.50298,35.26778],[128.50291,35.26784],[128.50286,35.26788],[128.50284,35.26791],[128.50278,35.26797],[128.50274,35.26803],[128.50269,35.26808],[128.50267,35.26812],[128.50266,35.26815],[128.50265,35.26818],[128.50264,35.26823],[128.50264,35.2683],[128.50266,35.2683],[128.50268,35.26824],[128.5027,35.26817],[128.50272,35.26811],[128.50275,35.26806],[128.50277,35.26802],[128.5028,35.26798],[128.50284,35.26794],[128.50288,35.2679],[128.50294,35.26785],[128.50301,35.2678]]]}},{"type":"Feature","id":"TN_RIVER_BT:WTR0200000000D3A8","properties":{"NF_ID":"WTR0200000000D3A8","admin_code":"48127","source_layer":"TN_RIVER_BT","semantic":"channel","river_class":"소하천","river_class_source":"중심선 공간조인","survey_method":"사진측량"},"geometry":{"type":"Polygon","coordinates":[[[128.5564,35.26783],[128.55652,35.26808],[128.55608,35.26864],[128.55619,35.26915],[128.55611,35.2686],[128.55657,35.26801],[128.5564,35.26783]]]}},{"type":"Feature","id":"TN_RIVER_BT:WTR0200000000D3CA","properties":{"NF_ID":"WTR0200000000D3CA","admin_code":"48127","source_layer":"TN_RIVER_BT","semantic":"channel","river_class":"소하천","river_class_source":"중심선 공간조인","survey_method":"사진측량"},"geometry":{"type":"Polygon","coordinates":[[[128.50243,35.26857],[128.50241,35.26855],[128.50222,35.26868],[128.50208,35.26879],[128.50199,35.26885],[128.50192,35.2689],[128.50186,35.26896],[128.5018,35.26902],[128.50174,35.26908],[128.50153,35.26933],[128.50153,35.26934],[128.50152,35.26936],[128.50144,35.26952],[128.50143,35.26953],[128.50142,35.26955],[128.50139,35.26957],[128.50135,35.2696],[128.5013,35.26965],[128.50122,35.26974],[128.50115,35.26982],[128.50106,35.2699],[128.50103,35.26994],[128.50102,35.26997],[128.50103,35.26998],[128.5011,35.26992],[128.50118,35.26983],[128.50125,35.26976],[128.50137,35.26964],[128.50145,35.26956],[128.50147,35.26954],[128.5015,35.2695],[128.50155,35.26943],[128.50159,35.26937],[128.50179,35.26909],[128.50183,35.26905],[128.50187,35.269],[128.50192,35.26896],[128.50197,35.26891],[128.50206,35.26885],[128.50216,35.26877],[128.50233,35.26865],[128.50243,35.26857]]]}},{"type":"Feature","id":"TN_RIVER_BT:WTR0200000000DDOW","properties":{"NF_ID":"WTR0200000000DDOW","admin_code":"48127","source_layer":"TN_RIVER_BT","semantic":"channel","river_class":"소하천","river_class_source":"중심선 공간조인","survey_method":"사진측량"},"geometry":{"type":"Polygon","coordinates":[[[128.49064,35.25091],[128.49068,35.25089],[128.49076,35.25086],[128.49079,35.25084],[128.49077,35.25083],[128.49072,35.25085],[128.49063,35.25088],[128.49058,35.25091],[128.49056,35.25091],[128.49053,35.25092],[128.49049,35.25097],[128.49044,35.251],[128.4904,35.25104],[128.49033,35.25108],[128.4903,35.25113],[128.49026,35.25118],[128.49023,35.25126],[128.4902,35.25131],[128.49018,35.25136],[128.49017,35.2514],[128.49016,35.25146],[128.49019,35.25143],[128.4902,35.25141],[128.49021,35.25136],[128.49024,35.25131],[128.49028,35.25125],[128.4903,35.25118],[128.49031,35.25117],[128.49037,35.25111],[128.49044,35.25105],[128.49049,35.25099],[128.49056,35.25096],[128.49064,35.25091]]]}}]}