{"type":"FeatureCollection","features":[{"type":"Feature","id":"TN_RIVER_BT:WTR02000000004BHE","properties":{"NF_ID":"WTR02000000004BHE","admin_code":"11500","source_layer":"TN_RIVER_BT","semantic":"channel","river_class":"소하천","river_class_source":"중심선 공간조인","survey_method":"사진측량"},"geometry":{"type":"Polygon","coordinates":[[[126.85244,37.56761],[126.85241,37.56758],[126.85239,37.5676],[126.85226,37.56766],[126.8522,37.56771],[126.85213,37.56783],[126.8521,37.56792],[126.85208,37.56797],[126.8521,37.56802],[126.85216,37.56801],[126.85217,37.56801],[126.85217,37.568],[126.85216,37.5679],[126.85219,37.56786],[126.85224,37.5678],[126.85224,37.56779],[126.85224,37.56772],[126.85228,37.56769],[126.85236,37.56764],[126.85244,37.56761]]]}},{"type":"Feature","id":"TN_RIVER_BT:WTR02000000004BOL","properties":{"NF_ID":"WTR02000000004BOL","admin_code":"11500","source_layer":"TN_RIVER_BT","semantic":"channel","river_class":"소하천","river_class_source":"중심선 공간조인","survey_method":"사진측량"},"geometry":{"type":"Polygon","coordinates":[[[126.78904,37.56589],[126.78903,37.56583],[126.78868,37.56611],[126.7883,37.56641],[126.7877,37.56688],[126.78728,37.56723],[126.78667,37.5677],[126.78621,37.56807],[126.78544,37.56867],[126.78483,37.56916],[126.78429,37.56962],[126.78393,37.56988],[126.78374,37.57004],[126.78335,37.57033],[126.78178,37.57156],[126.78177,37.57158],[126.78176,37.5716],[126.7817,37.57165],[126.78168,37.57165],[126.7812,37.57199],[126.77981,37.57306],[126.77893,37.57377],[126.77743,37.57496],[126.77738,37.575],[126.77676,37.57553],[126.77675,37.57554],[126.77676,37.57556],[126.77679,37.57557],[126.77683,37.57555],[126.77749,37.575],[126.77775,37.57479],[126.77892,37.57386],[126.78057,37.57256],[126.78139,37.57193],[126.78197,37.57149],[126.78308,37.57061],[126.78376,37.5701],[126.78408,37.56982],[126.78439,37.56959],[126.78481,37.56927],[126.78531,37.56884],[126.78567,37.56856],[126.78601,37.56828],[126.78634,37.56802],[126.78668,37.56775],[126.78698,37.56752],[126.78726,37.56728],[126.78783,37.56685],[126.78813,37.5666],[126.78843,37.56637],[126.78887,37.56602],[126.78904,37.56589]]]}},{"type":"Feature","id":"TN_RIVER_BT:WTR02000000004BRO","properties":{"NF_ID":"WTR02000000004BRO","admin_code":"11500","source_layer":"TN_RIVER_BT","semantic":"channel","river_class":"소하천","river_class_source":"중심선 공간조인","survey_method":"사진측량"},"geometry":{"type":"Polygon","coordinates":[[[126.79649,37.57149],[126.79643,37.57143],[126.79613,37.57161],[126.79588,37.57176],[126.79585,37.57179],[126.79562,37.57193],[126.7951,37.57226],[126.7946,37.57255],[126.79414,37.57282],[126.79367,37.57311],[126.79326,37.57336],[126.79283,37.57362],[126.79254,37.5738],[126.79218,37.57401],[126.79189,37.57419],[126.79154,37.57441],[126.79128,37.57458],[126.79086,37.57483],[126.79057,37.575],[126.79034,37.57514],[126.78991,37.57541],[126.78947,37.57568],[126.78905,37.57593],[126.7889,37.57602],[126.78859,37.5762],[126.7884,37.57628],[126.78856,37.5763],[126.78866,37.57622],[126.7889,37.57607],[126.78963,37.57562],[126.79017,37.57529],[126.79066,37.575],[126.79087,37.57487],[126.79188,37.57424],[126.79279,37.57369],[126.79345,37.5733],[126.79433,37.57275],[126.79548,37.57207],[126.79586,37.57184],[126.7959,37.57183],[126.79593,37.57181],[126.79649,37.57149]]]}},{"type":"Feature","id":"TN_RIVER_BT:WTR02000000004BZW","properties":{"NF_ID":"WTR02000000004BZW","admin_code":"11500","source_layer":"TN_RIVER_BT","semantic":"channel","river_class":"소하천","river_class_source":"중심선 공간조인","survey_method":"사진측량"},"geometry":{"type":"Polygon","coordinates":[[[126.81361,37.58513],[126.81359,37.58508],[126.81356,37.58509],[126.81359,37.58514],[126.81361,37.58513]]]}},{"type":"Feature","id":"TN_RIVER_BT:WTR02000000004C0Y","properties":{"NF_ID":"WTR02000000004C0Y","admin_code":"11500","source_layer":"TN_RIVER_BT","semantic":"channel","river_class":"등급미확인","survey_method":"사진측량"},"geometry":{"type":"Polygon","coordinates":[[[126.81281,37.58532],[126.81281,37.5853],[126.81263,37.58532],[126.81262,37.58532],[126.81262,37.58533],[126.81263,37.58534],[126.81264,37.58534],[126.81281,37.58532]]]}},{"type":"Feature","id":"TN_RIVER_BT:WTR02000000004CKI","properties":{"NF_ID":"WTR02000000004CKI","admin_code":"11500","source_layer":"TN_RIVER_BT","semantic":"channel","river_class":"소하천","river_class_source":"중심선 공간조인","survey_method":"사진측량"},"geometry":{"type":"Polygon","coordinates":[[[126.80059,37.5921],[126.80114,37.5922],[126.80146,37.59202],[126.80163,37.59066],[126.80337,37.59057],[126.8041,37.59078],[126.8055,37.5903],[126.8041,37.59075],[126.80338,37.59054],[126.80155,37.59061],[126.80131,37.59024],[126.80151,37.59117],[126.80133,37.59195],[126.80033,37.59203],[126.79876,37.59355],[126.80059,37.5921]]]}},{"type":"Feature","id":"TN_RIVER_BT:WTR02000000004CTR","properties":{"NF_ID":"WTR02000000004CTR","admin_code":"11500","source_layer":"TN_RIVER_BT","semantic":"channel","river_class":"소하천","river_class_source":"중심선 공간조인","survey_method":"사진측량"},"geometry":{"type":"Polygon","coordinates":[[[126.79853,37.59406],[126.79816,37.59455],[126.79803,37.59535],[126.79853,37.59406]]]}}]}