{"type":"FeatureCollection","features":[{"type":"Feature","id":"TN_RIVER_BT:WTR0200000000AS1L","properties":{"NF_ID":"WTR0200000000AS1L","admin_code":"26470","source_layer":"TN_RIVER_BT","semantic":"channel","river_class":"소하천","river_class_source":"중심선 공간조인","survey_method":"사진측량"},"geometry":{"type":"Polygon","coordinates":[[[129.08767,35.16711],[129.08858,35.16559],[129.08867,35.16484],[129.08852,35.16561],[129.08766,35.16707],[129.08731,35.16673],[129.08753,35.16704],[129.08744,35.16792],[129.08767,35.16711]]]}},{"type":"Feature","id":"TN_RIVER_BT:WTR0200000000AS5P","properties":{"NF_ID":"WTR0200000000AS5P","admin_code":"26470","source_layer":"TN_RIVER_BT","semantic":"channel","river_class":"소하천","river_class_source":"중심선 공간조인","survey_method":"사진측량"},"geometry":{"type":"Polygon","coordinates":[[[129.08375,35.17135],[129.08371,35.17133],[129.08371,35.17136],[129.08375,35.17138],[129.08377,35.17141],[129.08378,35.17144],[129.08378,35.17148],[129.08378,35.17152],[129.08376,35.17157],[129.08374,35.17164],[129.08373,35.1717],[129.08372,35.17186],[129.0837,35.17194],[129.0837,35.17202],[129.08369,35.17207],[129.08369,35.17207],[129.08371,35.17208],[129.08372,35.17208],[129.08373,35.17206],[129.08373,35.17203],[129.08374,35.17201],[129.08374,35.17198],[129.08374,35.17195],[129.08374,35.17193],[129.08375,35.1719],[129.08376,35.17187],[129.08376,35.1718],[129.08377,35.17174],[129.08378,35.17166],[129.0838,35.1716],[129.08382,35.17156],[129.08383,35.17151],[129.08382,35.17147],[129.08382,35.17144],[129.08381,35.17141],[129.08379,35.17138],[129.08378,35.17136],[129.08375,35.17135]]]}}]}