{"type":"FeatureCollection","features":[{"type":"Feature","id":"TN_RIVER_BNDRY:WTR0100000000OT53","properties":{"NF_ID":"WTR0100000000OT53","admin_code":"41210","source_layer":"TN_RIVER_BNDRY","semantic":"zone","river_class":"국가하천","river_class_source":"중심선 공간조인","river_name":"안양천","river_code":"1005380","survey_method":"사진측량"},"geometry":{"type":"Polygon","coordinates":[[[126.89809,37.42709],[126.89695,37.42683],[126.89682,37.42837],[126.89698,37.43],[126.8974,37.43139],[126.8981,37.43131],[126.89983,37.4345],[126.90031,37.43643],[126.90022,37.43661],[126.90009,37.43623],[126.90001,37.43866],[126.89988,37.43887],[126.89954,37.43884],[126.89984,37.43901],[126.89882,37.44103],[126.89878,37.44154],[126.89833,37.44245],[126.89898,37.44268],[126.90013,37.44011],[126.90061,37.43983],[126.90036,37.43968],[126.90066,37.43795],[126.90066,37.4361],[126.90097,37.43599],[126.90072,37.43596],[126.90089,37.43556],[126.90064,37.43594],[126.90018,37.43414],[126.89804,37.42998],[126.89794,37.42824],[126.89823,37.42808],[126.89847,37.42739],[126.89829,37.42728],[126.89838,37.42765],[126.89803,37.42811],[126.89809,37.42709]]]}},{"type":"Feature","id":"TN_RIVER_BNDRY:WTR0100000000OU21","properties":{"NF_ID":"WTR0100000000OU21","admin_code":"41210","source_layer":"TN_RIVER_BNDRY","semantic":"zone","river_class":"지방하천","river_class_source":"중심선 공간조인","river_name":"목감천","river_code":"1025500","survey_method":"사진측량"},"geometry":{"type":"Polygon","coordinates":[[[126.86782,37.49375],[126.86741,37.49299],[126.86692,37.49288],[126.86606,37.49193],[126.86491,37.49112],[126.86427,37.4908],[126.86282,37.49056],[126.86187,37.49004],[126.85798,37.48579],[126.85747,37.48553],[126.8564,37.48542],[126.85543,37.48504],[126.85408,37.48267],[126.85254,37.48157],[126.85169,37.48135],[126.85042,37.48134],[126.84805,37.48191],[126.84741,37.48178],[126.84689,37.48144],[126.84673,37.4815],[126.84641,37.48123],[126.84608,37.48044],[126.84614,37.47834],[126.84517,37.47071],[126.84462,37.46946],[126.84232,37.467],[126.84211,37.46588],[126.84154,37.46581],[126.84161,37.46702],[126.84405,37.46963],[126.84486,37.47184],[126.84479,37.4724],[126.84548,37.478],[126.84563,37.47818],[126.84574,37.48056],[126.8459,37.48122],[126.84619,37.48157],[126.84635,37.48149],[126.84697,37.48194],[126.84791,37.48218],[126.84873,37.48211],[126.8506,37.4816],[126.8519,37.48166],[126.85253,37.48194],[126.8538,37.48293],[126.85512,37.48531],[126.85644,37.48592],[126.85768,37.48617],[126.86149,37.49051],[126.86258,37.49106],[126.8646,37.49133],[126.86651,37.49284],[126.86716,37.49352],[126.86716,37.49376],[126.86782,37.49375]]]}},{"type":"Feature","id":"TN_RIVER_BNDRY:WTR0100000000OU54","properties":{"NF_ID":"WTR0100000000OU54","admin_code":"41210","source_layer":"TN_RIVER_BNDRY","semantic":"zone","river_class":"소하천","river_class_source":"중심선 공간조인","survey_method":"사진측량"},"geometry":{"type":"Polygon","coordinates":[[[126.88619,37.44224],[126.88761,37.44488],[126.88735,37.44536],[126.88636,37.44615],[126.88607,37.44668],[126.88619,37.44858],[126.88586,37.45184],[126.88411,37.45472],[126.88436,37.45482],[126.88605,37.45169],[126.88634,37.44884],[126.88625,37.4467],[126.88764,37.44526],[126.88777,37.44484],[126.88619,37.44224]]]}},{"type":"Feature","id":"TN_RIVER_BNDRY:WTR0100000000OUML","properties":{"NF_ID":"WTR0100000000OUML","admin_code":"41210","source_layer":"TN_RIVER_BNDRY","semantic":"zone","river_class":"소하천","river_class_source":"중심선 공간조인","survey_method":"사진측량"},"geometry":{"type":"Polygon","coordinates":[[[126.87585,37.43041],[126.87568,37.43039],[126.87621,37.43086],[126.87686,37.4312],[126.87585,37.43041]]]}},{"type":"Feature","id":"TN_RIVER_BNDRY:WTR0100000000OUNM","properties":{"NF_ID":"WTR0100000000OUNM","admin_code":"41210","source_layer":"TN_RIVER_BNDRY","semantic":"zone","river_class":"소하천","river_class_source":"중심선 공간조인","survey_method":"사진측량"},"geometry":{"type":"Polygon","coordinates":[[[126.87841,37.4316],[126.87838,37.43159],[126.87833,37.43158],[126.87829,37.43156],[126.87825,37.43153],[126.8782,37.43151],[126.87814,37.4315],[126.87799,37.43147],[126.87784,37.43145],[126.87778,37.43144],[126.87772,37.43145],[126.87767,37.43145],[126.87765,37.43146],[126.87763,37.43148],[126.87764,37.43151],[126.87767,37.43152],[126.8777,37.43151],[126.87774,37.43151],[126.87779,37.43152],[126.87784,37.43152],[126.8779,37.43154],[126.87796,37.43156],[126.87801,37.43158],[126.87805,37.4316],[126.87809,37.4316],[126.87812,37.43161],[126.87815,37.43161],[126.87818,37.4316],[126.8782,37.4316],[126.87822,37.43161],[126.87828,37.43162],[126.87833,37.43164],[126.87837,37.43165],[126.87841,37.43165],[126.87842,37.43163],[126.87842,37.43161],[126.87841,37.4316]]]}},{"type":"Feature","id":"TN_RIVER_BNDRY:WTR0100000000OUON","properties":{"NF_ID":"WTR0100000000OUON","admin_code":"41210","source_layer":"TN_RIVER_BNDRY","semantic":"zone","river_class":"소하천","river_class_source":"중심선 공간조인","survey_method":"사진측량"},"geometry":{"type":"Polygon","coordinates":[[[126.88609,37.44225],[126.88603,37.44213],[126.88502,37.4422],[126.88609,37.44225]]]}},{"type":"Feature","id":"TN_RIVER_BNDRY:WTR0100000000OUPO","properties":{"NF_ID":"WTR0100000000OUPO","admin_code":"41210","source_layer":"TN_RIVER_BNDRY","semantic":"zone","river_class":"소하천","river_class_source":"중심선 공간조인","survey_method":"사진측량"},"geometry":{"type":"Polygon","coordinates":[[[126.88619,37.44224],[126.88613,37.44213],[126.88603,37.44213],[126.88609,37.44225],[126.88619,37.44224]]]}},{"type":"Feature","id":"TN_RIVER_BNDRY:WTR0100000000OUQP","properties":{"NF_ID":"WTR0100000000OUQP","admin_code":"41210","source_layer":"TN_RIVER_BNDRY","semantic":"zone","river_class":"소하천","river_class_source":"중심선 공간조인","survey_method":"사진측량"},"geometry":{"type":"Polygon","coordinates":[[[126.88514,37.44278],[126.88543,37.44347],[126.88465,37.44479],[126.88475,37.44538],[126.8847,37.44482],[126.88547,37.44349],[126.88514,37.44278]]]}},{"type":"Feature","id":"TN_RIVER_BNDRY:WTR0100000000OURQ","properties":{"NF_ID":"WTR0100000000OURQ","admin_code":"41210","source_layer":"TN_RIVER_BNDRY","semantic":"zone","river_class":"소하천","river_class_source":"중심선 공간조인","survey_method":"사진측량"},"geometry":{"type":"Polygon","coordinates":[[[126.88425,37.44286],[126.88502,37.44276],[126.88376,37.44282],[126.88156,37.44137],[126.88371,37.44283],[126.88425,37.44286]]]}},{"type":"Feature","id":"TN_RIVER_BNDRY:WTR0100000000OUSR","properties":{"NF_ID":"WTR0100000000OUSR","admin_code":"41210","source_layer":"TN_RIVER_BNDRY","semantic":"zone","river_class":"소하천","river_class_source":"중심선 공간조인","survey_method":"사진측량"},"geometry":{"type":"Polygon","coordinates":[[[126.89499,37.44171],[126.89487,37.44155],[126.89458,37.4417],[126.88613,37.44213],[126.88619,37.44224],[126.89499,37.44171]]]}},{"type":"Feature","id":"TN_RIVER_BNDRY:WTR0100000000OUTS","properties":{"NF_ID":"WTR0100000000OUTS","admin_code":"41210","source_layer":"TN_RIVER_BNDRY","semantic":"zone","river_class":"소하천","river_class_source":"중심선 공간조인","survey_method":"사진측량"},"geometry":{"type":"Polygon","coordinates":[[[126.89833,37.44245],[126.89676,37.44189],[126.895,37.44151],[126.89515,37.44173],[126.89665,37.44204],[126.89811,37.44266],[126.89817,37.44282],[126.89833,37.44245]]]}},{"type":"Feature","id":"TN_RIVER_BNDRY:WTR0100000000OUVU","properties":{"NF_ID":"WTR0100000000OUVU","admin_code":"41210","source_layer":"TN_RIVER_BNDRY","semantic":"zone","river_class":"소하천","river_class_source":"중심선 공간조인","survey_method":"사진측량"},"geometry":{"type":"Polygon","coordinates":[[[126.895,37.44151],[126.89487,37.44155],[126.89515,37.44173],[126.895,37.44151]]]}},{"type":"Feature","id":"TN_RIVER_BNDRY:WTR0100000000OUWV","properties":{"NF_ID":"WTR0100000000OUWV","admin_code":"41210","source_layer":"TN_RIVER_BNDRY","semantic":"zone","river_class":"소하천","river_class_source":"중심선 공간조인","survey_method":"사진측량"},"geometry":{"type":"Polygon","coordinates":[[[126.895,37.44151],[126.89484,37.44099],[126.89487,37.44155],[126.895,37.44151]]]}},{"type":"Feature","id":"TN_RIVER_BNDRY:WTR0100000000OVDD","properties":{"NF_ID":"WTR0100000000OVDD","admin_code":"41210","source_layer":"TN_RIVER_BNDRY","semantic":"zone","river_class":"지방하천","river_class_source":"중심선 공간조인","river_name":"목감천","river_code":"1025500","survey_method":"사진측량"},"geometry":{"type":"Polygon","coordinates":[[[126.8385,37.45077],[126.8381,37.45056],[126.83807,37.45077],[126.83849,37.45087],[126.8385,37.45077]]]}},{"type":"Feature","id":"TN_RIVER_BNDRY:WTR0100000000OVHH","properties":{"NF_ID":"WTR0100000000OVHH","admin_code":"41210","source_layer":"TN_RIVER_BNDRY","semantic":"zone","river_class":"소하천","river_class_source":"중심선 공간조인","survey_method":"사진측량"},"geometry":{"type":"Polygon","coordinates":[[[126.84105,37.46577],[126.84116,37.46551],[126.83469,37.46488],[126.83304,37.46557],[126.83099,37.46594],[126.82815,37.4676],[126.82817,37.46786],[126.82873,37.46766],[126.82918,37.4672],[126.83118,37.46615],[126.83311,37.46583],[126.83469,37.46508],[126.84105,37.46577]]]}},{"type":"Feature","id":"TN_RIVER_BNDRY:WTR0100000000OVSS","properties":{"NF_ID":"WTR0100000000OVSS","admin_code":"41210","source_layer":"TN_RIVER_BNDRY","semantic":"zone","river_class":"지방하천","river_class_source":"중심선 공간조인","river_name":"목감천","river_code":"1025500","survey_method":"사진측량"},"geometry":{"type":"Polygon","coordinates":[[[126.86949,37.49548],[126.86866,37.49519],[126.86857,37.49496],[126.86782,37.49458],[126.86784,37.49394],[126.86713,37.49385],[126.86702,37.49446],[126.8672,37.49489],[126.86945,37.4959],[126.86949,37.49548]]]}},{"type":"Feature","id":"TN_RIVER_BNDRY:WTR0100000000OVTT","properties":{"NF_ID":"WTR0100000000OVTT","admin_code":"41210","source_layer":"TN_RIVER_BNDRY","semantic":"zone","river_class":"지방하천","river_class_source":"중심선 공간조인","river_name":"목감천","river_code":"1025500","survey_method":"사진측량"},"geometry":{"type":"Polygon","coordinates":[[[126.84072,37.45796],[126.83982,37.45738],[126.83945,37.45672],[126.8382,37.45296],[126.83849,37.45087],[126.83807,37.45077],[126.83768,37.45292],[126.83898,37.45696],[126.83942,37.45758],[126.84036,37.45826],[126.84072,37.45796]]]}},{"type":"Feature","id":"TN_RIVER_BNDRY:WTR0100000000OVUU","properties":{"NF_ID":"WTR0100000000OVUU","admin_code":"41210","source_layer":"TN_RIVER_BNDRY","semantic":"zone","river_class":"소하천","river_class_source":"중심선 공간조인","survey_method":"사진측량"},"geometry":{"type":"Polygon","coordinates":[[[126.84072,37.45796],[126.84157,37.45771],[126.84201,37.45775],[126.84214,37.45741],[126.84335,37.45675],[126.8441,37.45593],[126.84467,37.4557],[126.84537,37.45566],[126.84712,37.4543],[126.84533,37.45562],[126.8446,37.45568],[126.84409,37.45588],[126.84339,37.45666],[126.84225,37.45726],[126.84197,37.4577],[126.84155,37.45767],[126.84072,37.45796]]]}},{"type":"Feature","id":"TN_RIVER_BNDRY:WTR0100000000OVVV","properties":{"NF_ID":"WTR0100000000OVVV","admin_code":"41210","source_layer":"TN_RIVER_BNDRY","semantic":"zone","river_class":"소하천","river_class_source":"중심선 공간조인","survey_method":"사진측량"},"geometry":{"type":"Polygon","coordinates":[[[126.8414,37.46448],[126.8414,37.46447],[126.84126,37.46446],[126.84101,37.46443],[126.84069,37.4644],[126.83979,37.46431],[126.83939,37.46427],[126.83887,37.46422],[126.83885,37.46421],[126.83885,37.46421],[126.83883,37.46421],[126.83868,37.4642],[126.83836,37.46416],[126.83814,37.46414],[126.83791,37.46413],[126.83759,37.46409],[126.83713,37.46405],[126.83711,37.46405],[126.8371,37.46405],[126.8371,37.46406],[126.8371,37.46407],[126.83713,37.46407],[126.83741,37.4641],[126.83812,37.46418],[126.83848,37.46421],[126.83887,37.46425],[126.83893,37.46426],[126.83903,37.46427],[126.83942,37.46431],[126.83987,37.46435],[126.84028,37.46439],[126.84077,37.46444],[126.84111,37.46448],[126.84131,37.46449],[126.84135,37.46448],[126.84138,37.46448],[126.8414,37.46448]]]}},{"type":"Feature","id":"TN_RIVER_BNDRY:WTR0100000000OVWW","properties":{"NF_ID":"WTR0100000000OVWW","admin_code":"41210","source_layer":"TN_RIVER_BNDRY","semantic":"zone","river_class":"소하천","river_class_source":"중심선 공간조인","survey_method":"사진측량"},"geometry":{"type":"Polygon","coordinates":[[[126.8414,37.46447],[126.84142,37.46447],[126.84142,37.46445],[126.84146,37.46424],[126.84146,37.46423],[126.84146,37.46423],[126.84147,37.46419],[126.84148,37.46416],[126.84159,37.46357],[126.84158,37.46357],[126.84148,37.46407],[126.84144,37.46424],[126.84144,37.46426],[126.84144,37.46426],[126.8414,37.46447]]]}},{"type":"Feature","id":"TN_RIVER_BNDRY:WTR0100000000OVXX","properties":{"NF_ID":"WTR0100000000OVXX","admin_code":"41210","source_layer":"TN_RIVER_BNDRY","semantic":"zone","river_class":"소하천","river_class_source":"중심선 공간조인","survey_method":"사진측량"},"geometry":{"type":"Polygon","coordinates":[[[126.84142,37.46449],[126.8414,37.46448],[126.84133,37.46485],[126.84124,37.46526],[126.84119,37.46545],[126.84116,37.46551],[126.84122,37.46551],[126.84122,37.46545],[126.84123,37.46539],[126.84132,37.46498],[126.84142,37.46449]]]}},{"type":"Feature","id":"TN_RIVER_BNDRY:WTR0100000000OVYY","properties":{"NF_ID":"WTR0100000000OVYY","admin_code":"41210","source_layer":"TN_RIVER_BNDRY","semantic":"zone","river_class":"소하천","river_class_source":"중심선 공간조인","survey_method":"사진측량"},"geometry":{"type":"Polygon","coordinates":[[[126.84142,37.46447],[126.8414,37.46447],[126.8414,37.46448],[126.84142,37.46449],[126.84142,37.46447]]]}},{"type":"Feature","id":"TN_RIVER_BNDRY:WTR0100000000OVZZ","properties":{"NF_ID":"WTR0100000000OVZZ","admin_code":"41210","source_layer":"TN_RIVER_BNDRY","semantic":"zone","river_class":"지방하천","river_class_source":"중심선 공간조인","river_name":"목감천","river_code":"1025500","survey_method":"사진측량"},"geometry":{"type":"Polygon","coordinates":[[[126.84075,37.45798],[126.84046,37.45833],[126.84096,37.45876],[126.84137,37.45942],[126.84237,37.46211],[126.84241,37.4631],[126.84169,37.46557],[126.84214,37.46564],[126.84284,37.46313],[126.84287,37.46197],[126.84161,37.45879],[126.84075,37.45798]]]}},{"type":"Feature","id":"TN_RIVER_BNDRY:WTR0100000000OW01","properties":{"NF_ID":"WTR0100000000OW01","admin_code":"41210","source_layer":"TN_RIVER_BNDRY","semantic":"zone","river_class":"지방하천","river_class_source":"중심선 공간조인","river_name":"목감천","river_code":"1025500","survey_method":"사진측량"},"geometry":{"type":"Polygon","coordinates":[[[126.84075,37.45798],[126.84036,37.45826],[126.84046,37.45833],[126.84075,37.45798]]]}},{"type":"Feature","id":"TN_RIVER_BNDRY:WTR0100000000OW12","properties":{"NF_ID":"WTR0100000000OW12","admin_code":"41210","source_layer":"TN_RIVER_BNDRY","semantic":"zone","river_class":"지방하천","river_class_source":"중심선 공간조인","river_name":"목감천","river_code":"1025500","survey_method":"사진측량"},"geometry":{"type":"Polygon","coordinates":[[[126.84214,37.46564],[126.84169,37.46557],[126.84154,37.46581],[126.84211,37.46588],[126.84214,37.46564]]]}},{"type":"Feature","id":"TN_RIVER_BNDRY:WTR0100000000OW23","properties":{"NF_ID":"WTR0100000000OW23","admin_code":"41210","source_layer":"TN_RIVER_BNDRY","semantic":"zone","river_class":"소하천","river_class_source":"중심선 공간조인","survey_method":"사진측량"},"geometry":{"type":"Polygon","coordinates":[[[126.84169,37.46557],[126.84122,37.46551],[126.84118,37.46576],[126.84154,37.46581],[126.84169,37.46557]]]}},{"type":"Feature","id":"TN_RIVER_BNDRY:WTR0100000000OW34","properties":{"NF_ID":"WTR0100000000OW34","admin_code":"41210","source_layer":"TN_RIVER_BNDRY","semantic":"zone","river_class":"소하천","river_class_source":"중심선 공간조인","survey_method":"사진측량"},"geometry":{"type":"Polygon","coordinates":[[[126.84118,37.46576],[126.84116,37.46551],[126.84105,37.46577],[126.84118,37.46576]]]}},{"type":"Feature","id":"TN_RIVER_BNDRY:WTR0100000000OWUV","properties":{"NF_ID":"WTR0100000000OWUV","admin_code":"41210","source_layer":"TN_RIVER_BNDRY","semantic":"zone","river_class":"소하천","river_class_source":"중심선 공간조인","survey_method":"사진측량"},"geometry":{"type":"Polygon","coordinates":[[[126.84618,37.46506],[126.84615,37.46506],[126.84612,37.46506],[126.8461,37.46507],[126.84608,37.46508],[126.84607,37.46509],[126.84606,37.46511],[126.84605,37.46515],[126.84605,37.46517],[126.84605,37.46519],[126.84605,37.46521],[126.84605,37.46523],[126.84606,37.46524],[126.84607,37.46524],[126.84607,37.46526],[126.84608,37.46528],[126.8461,37.4653],[126.84611,37.46532],[126.84612,37.46534],[126.84612,37.46535],[126.84612,37.46537],[126.84612,37.46539],[126.8461,37.46541],[126.84609,37.46542],[126.84607,37.46543],[126.84607,37.46544],[126.84607,37.46545],[126.8461,37.46552],[126.84612,37.46551],[126.8461,37.46546],[126.84611,37.46544],[126.84611,37.46543],[126.84612,37.46542],[126.84614,37.46541],[126.84615,37.46539],[126.84615,37.46538],[126.84615,37.46536],[126.84614,37.46533],[126.84613,37.46531],[126.84612,37.46529],[126.84611,37.46527],[126.84611,37.46526],[126.8461,37.46525],[126.8461,37.46525],[126.84611,37.46523],[126.84612,37.46522],[126.84613,37.4652],[126.84614,37.46517],[126.84616,37.46514],[126.84618,37.46511],[126.84619,37.46509],[126.84619,37.46507],[126.84618,37.46506]]]}},{"type":"Feature","id":"TN_RIVER_BNDRY:WTR0100000000OXKM","properties":{"NF_ID":"WTR0100000000OXKM","admin_code":"41210","source_layer":"TN_RIVER_BNDRY","semantic":"zone","river_class":"지방하천","river_class_source":"중심선 공간조인","river_name":"목감천","river_code":"1025500","survey_method":"사진측량"},"geometry":{"type":"Polygon","coordinates":[[[126.84919,37.41087],[126.84896,37.41071],[126.84886,37.41087],[126.84919,37.41087]]]}},{"type":"Feature","id":"TN_RIVER_BNDRY:WTR0100000000OXNP","properties":{"NF_ID":"WTR0100000000OXNP","admin_code":"41210","source_layer":"TN_RIVER_BNDRY","semantic":"zone","river_class":"소하천","river_class_source":"중심선 공간조인","survey_method":"사진측량"},"geometry":{"type":"Polygon","coordinates":[[[126.84588,37.44828],[126.84602,37.44825],[126.84603,37.44824],[126.84615,37.44822],[126.84626,37.44821],[126.84629,37.44821],[126.84631,37.44821],[126.84634,37.4482],[126.84636,37.4482],[126.84638,37.4482],[126.84646,37.44819],[126.8465,37.44818],[126.84654,37.44818],[126.84658,37.44817],[126.84662,37.44817],[126.84666,37.44816],[126.8467,37.44815],[126.84672,37.44815],[126.84675,37.44814],[126.84679,37.44813],[126.84684,37.44811],[126.84688,37.44809],[126.84693,37.44807],[126.84697,37.44805],[126.84702,37.44803],[126.84706,37.44801],[126.84708,37.448],[126.84712,37.44799],[126.84717,37.44797],[126.84721,37.44795],[126.84726,37.44793],[126.84732,37.44791],[126.84739,37.44788],[126.84743,37.44787],[126.84743,37.44786],[126.84742,37.44785],[126.8474,37.44786],[126.84736,37.44787],[126.84728,37.4479],[126.8472,37.44793],[126.84718,37.44794],[126.8471,37.44797],[126.84699,37.44802],[126.84691,37.44806],[126.84683,37.44809],[126.84681,37.4481],[126.84676,37.44812],[126.84673,37.44813],[126.8467,37.44814],[126.84666,37.44815],[126.84664,37.44815],[126.8466,37.44816],[126.84653,37.44816],[126.8464,37.44818],[126.84634,37.44819],[126.84632,37.44819],[126.8463,37.44819],[126.84626,37.44819],[126.84619,37.4482],[126.84608,37.44823],[126.84602,37.44823],[126.84602,37.44823],[126.84593,37.44825],[126.84587,37.44824],[126.84588,37.44828]]]}},{"type":"Feature","id":"TN_RIVER_BNDRY:WTR0100000000OXOQ","properties":{"NF_ID":"WTR0100000000OXOQ","admin_code":"41210","source_layer":"TN_RIVER_BNDRY","semantic":"zone","river_class":"지방하천","river_class_source":"중심선 공간조인","river_name":"목감천","river_code":"1025500","survey_method":"사진측량"},"geometry":{"type":"Polygon","coordinates":[[[126.84913,37.41095],[126.84886,37.41087],[126.84656,37.41402],[126.84634,37.41397],[126.84654,37.41408],[126.84553,37.41572],[126.84454,37.42052],[126.84437,37.42057],[126.84455,37.42067],[126.84488,37.42331],[126.84463,37.42395],[126.84415,37.42445],[126.8444,37.42464],[126.84498,37.42398],[126.84522,37.42331],[126.84487,37.42059],[126.84584,37.41569],[126.84706,37.41371],[126.84913,37.41095]]]}},{"type":"Feature","id":"TN_RIVER_BNDRY:WTR0100000000P4MW","properties":{"NF_ID":"WTR0100000000P4MW","admin_code":"41210","source_layer":"TN_RIVER_BNDRY","semantic":"zone","river_class":"지방하천","river_class_source":"중심선 공간조인","river_name":"목감천","river_code":"1025500","survey_method":"사진측량"},"geometry":{"type":"Polygon","coordinates":[[[126.84051,37.43215],[126.8405,37.43212],[126.84023,37.43219],[126.84024,37.43221],[126.84051,37.43215]]]}},{"type":"Feature","id":"TN_RIVER_BNDRY:WTR0100000000P52D","properties":{"NF_ID":"WTR0100000000P52D","admin_code":"41210","source_layer":"TN_RIVER_BNDRY","semantic":"zone","river_class":"소하천","river_class_source":"중심선 공간조인","survey_method":"사진측량"},"geometry":{"type":"Polygon","coordinates":[[[126.84242,37.44971],[126.84235,37.4497],[126.84229,37.44974],[126.84222,37.44978],[126.84232,37.4498],[126.84242,37.44971]]]}},{"type":"Feature","id":"TN_RIVER_BNDRY:WTR0100000000P53E","properties":{"NF_ID":"WTR0100000000P53E","admin_code":"41210","source_layer":"TN_RIVER_BNDRY","semantic":"zone","river_class":"소하천","river_class_source":"중심선 공간조인","survey_method":"사진측량"},"geometry":{"type":"Polygon","coordinates":[[[126.84235,37.4497],[126.84419,37.44861],[126.84553,37.44834],[126.84414,37.44861],[126.84235,37.4497]]]}},{"type":"Feature","id":"TN_RIVER_BNDRY:WTR0100000000P54F","properties":{"NF_ID":"WTR0100000000P54F","admin_code":"41210","source_layer":"TN_RIVER_BNDRY","semantic":"zone","river_class":"소하천","river_class_source":"중심선 공간조인","survey_method":"사진측량"},"geometry":{"type":"Polygon","coordinates":[[[126.84136,37.44006],[126.84211,37.44002],[126.84306,37.43956],[126.84588,37.44002],[126.84303,37.4395],[126.84192,37.44],[126.84136,37.44006]]]}},{"type":"Feature","id":"TN_RIVER_BNDRY:WTR0100000000P55G","properties":{"NF_ID":"WTR0100000000P55G","admin_code":"41210","source_layer":"TN_RIVER_BNDRY","semantic":"zone","river_class":"지방하천","river_class_source":"중심선 공간조인","river_name":"목감천","river_code":"1025500","survey_method":"사진측량"},"geometry":{"type":"Polygon","coordinates":[[[126.83825,37.44373],[126.83792,37.44373],[126.83792,37.44378],[126.83825,37.44381],[126.83825,37.44373]]]}},{"type":"Feature","id":"TN_RIVER_BNDRY:WTR0100000000P57I","properties":{"NF_ID":"WTR0100000000P57I","admin_code":"41210","source_layer":"TN_RIVER_BNDRY","semantic":"zone","river_class":"지방하천","river_class_source":"중심선 공간조인","river_name":"목감천","river_code":"1025500","survey_method":"사진측량"},"geometry":{"type":"Polygon","coordinates":[[[126.8405,37.43212],[126.84037,37.43168],[126.84049,37.43131],[126.84198,37.42987],[126.84164,37.42979],[126.84022,37.43123],[126.84009,37.43159],[126.84022,37.43215],[126.8405,37.43212]]]}},{"type":"Feature","id":"TN_RIVER_BNDRY:WTR0100000000P58J","properties":{"NF_ID":"WTR0100000000P58J","admin_code":"41210","source_layer":"TN_RIVER_BNDRY","semantic":"zone","river_class":"소하천","river_class_source":"중심선 공간조인","survey_method":"사진측량"},"geometry":{"type":"Polygon","coordinates":[[[126.84134,37.43476],[126.84136,37.43481],[126.84145,37.43478],[126.84147,37.43477],[126.84151,37.43475],[126.84153,37.43474],[126.8416,37.43467],[126.84164,37.43462],[126.84165,37.4346],[126.84165,37.43459],[126.84165,37.43456],[126.84165,37.43456],[126.84163,37.43455],[126.84162,37.43455],[126.8416,37.43457],[126.84157,37.43459],[126.84157,37.4346],[126.84154,37.43464],[126.84151,37.43467],[126.84149,37.43469],[126.84146,37.43471],[126.84143,37.43472],[126.84134,37.43476]]]}},{"type":"Feature","id":"TN_RIVER_BNDRY:WTR0100000000P59K","properties":{"NF_ID":"WTR0100000000P59K","admin_code":"41210","source_layer":"TN_RIVER_BNDRY","semantic":"zone","river_class":"지방하천","river_class_source":"중심선 공간조인","river_name":"목감천","river_code":"1025500","survey_method":"사진측량"},"geometry":{"type":"Polygon","coordinates":[[[126.83811,37.43764],[126.83782,37.43749],[126.8378,37.43753],[126.83808,37.43768],[126.8381,37.43766],[126.83811,37.43764]]]}},{"type":"Feature","id":"TN_RIVER_BNDRY:WTR0100000000P5BM","properties":{"NF_ID":"WTR0100000000P5BM","admin_code":"41210","source_layer":"TN_RIVER_BNDRY","semantic":"zone","river_class":"지방하천","river_class_source":"중심선 공간조인","river_name":"목감천","river_code":"1025500","survey_method":"사진측량"},"geometry":{"type":"Polygon","coordinates":[[[126.83804,37.44059],[126.83804,37.44056],[126.83771,37.44055],[126.83771,37.44059],[126.83804,37.44059]]]}},{"type":"Feature","id":"TN_RIVER_BNDRY:WTR0100000000P5EP","properties":{"NF_ID":"WTR0100000000P5EP","admin_code":"41210","source_layer":"TN_RIVER_BNDRY","semantic":"zone","river_class":"지방하천","river_class_source":"중심선 공간조인","river_name":"목감천","river_code":"1025500","survey_method":"사진측량"},"geometry":{"type":"Polygon","coordinates":[[[126.83825,37.44373],[126.83804,37.44059],[126.83771,37.44059],[126.83792,37.44373],[126.83825,37.44373]]]}},{"type":"Feature","id":"TN_RIVER_BNDRY:WTR0100000000P5FQ","properties":{"NF_ID":"WTR0100000000P5FQ","admin_code":"41210","source_layer":"TN_RIVER_BNDRY","semantic":"zone","river_class":"소하천","river_class_source":"중심선 공간조인","survey_method":"사진측량"},"geometry":{"type":"Polygon","coordinates":[[[126.83804,37.44056],[126.84043,37.44068],[126.84013,37.44072],[126.8397,37.4414],[126.83946,37.44246],[126.83884,37.4437],[126.83825,37.44373],[126.83846,37.44385],[126.83889,37.44376],[126.83951,37.44251],[126.83972,37.44145],[126.84017,37.44075],[126.84057,37.44064],[126.83804,37.44056]]]}},{"type":"Feature","id":"TN_RIVER_BNDRY:WTR0100000000P5GR","properties":{"NF_ID":"WTR0100000000P5GR","admin_code":"41210","source_layer":"TN_RIVER_BNDRY","semantic":"zone","river_class":"지방하천","river_class_source":"중심선 공간조인","river_name":"목감천","river_code":"1025500","survey_method":"사진측량"},"geometry":{"type":"Polygon","coordinates":[[[126.8444,37.42464],[126.84415,37.42445],[126.84404,37.42454],[126.8444,37.42464]]]}},{"type":"Feature","id":"TN_RIVER_BNDRY:WTR0100000000P5HS","properties":{"NF_ID":"WTR0100000000P5HS","admin_code":"41210","source_layer":"TN_RIVER_BNDRY","semantic":"zone","river_class":"지방하천","river_class_source":"중심선 공간조인","river_name":"목감천","river_code":"1025500","survey_method":"사진측량"},"geometry":{"type":"Polygon","coordinates":[[[126.84434,37.42468],[126.84404,37.42454],[126.84216,37.42603],[126.84184,37.42645],[126.84163,37.42733],[126.84178,37.42924],[126.84165,37.42976],[126.842,37.42984],[126.84207,37.42958],[126.84195,37.42719],[126.84216,37.42646],[126.84434,37.42468]]]}},{"type":"Feature","id":"TN_RIVER_BNDRY:WTR0100000000P5IT","properties":{"NF_ID":"WTR0100000000P5IT","admin_code":"41210","source_layer":"TN_RIVER_BNDRY","semantic":"zone","river_class":"소하천","river_class_source":"중심선 공간조인","survey_method":"사진측량"},"geometry":{"type":"Polygon","coordinates":[[[126.8444,37.42464],[126.84492,37.42515],[126.84477,37.42484],[126.8444,37.42464]]]}},{"type":"Feature","id":"TN_RIVER_BNDRY:WTR0100000000P9O3","properties":{"NF_ID":"WTR0100000000P9O3","admin_code":"41210","source_layer":"TN_RIVER_BNDRY","semantic":"zone","river_class":"소하천","river_class_source":"중심선 공간조인","survey_method":"사진측량"},"geometry":{"type":"Polygon","coordinates":[[[126.87648,37.41511],[126.8771,37.41512],[126.87558,37.41523],[126.87648,37.41511]]]}},{"type":"Feature","id":"TN_RIVER_BNDRY:WTR0100000000P9P4","properties":{"NF_ID":"WTR0100000000P9P4","admin_code":"41210","source_layer":"TN_RIVER_BNDRY","semantic":"zone","river_class":"소하천","river_class_source":"중심선 공간조인","survey_method":"사진측량"},"geometry":{"type":"Polygon","coordinates":[[[126.86711,37.45445],[126.8666,37.45351],[126.8659,37.45277],[126.86709,37.45466],[126.86734,37.45485],[126.86711,37.45445]]]}},{"type":"Feature","id":"TN_RIVER_BNDRY:WTR0100000000PAIY","properties":{"NF_ID":"WTR0100000000PAIY","admin_code":"41210","source_layer":"TN_RIVER_BNDRY","semantic":"zone","river_class":"소하천","river_class_source":"중심선 공간조인","survey_method":"사진측량"},"geometry":{"type":"Polygon","coordinates":[[[126.8699,37.45768],[126.86992,37.4573],[126.86966,37.45689],[126.86986,37.45774],[126.86938,37.45839],[126.86928,37.45895],[126.86943,37.4584],[126.8699,37.45768]]]}},{"type":"Feature","id":"TN_RIVER_BNDRY:WTR0100000000PAJZ","properties":{"NF_ID":"WTR0100000000PAJZ","admin_code":"41210","source_layer":"TN_RIVER_BNDRY","semantic":"zone","river_class":"소하천","river_class_source":"중심선 공간조인","survey_method":"사진측량"},"geometry":{"type":"Polygon","coordinates":[[[126.85762,37.4701],[126.85786,37.47004],[126.85836,37.46952],[126.85754,37.47007],[126.85706,37.47006],[126.85762,37.4701]]]}},{"type":"Feature","id":"TN_RIVER_BNDRY:WTR0100000000PBEV","properties":{"NF_ID":"WTR0100000000PBEV","admin_code":"41210","source_layer":"TN_RIVER_BNDRY","semantic":"zone","river_class":"소하천","river_class_source":"중심선 공간조인","survey_method":"사진측량"},"geometry":{"type":"Polygon","coordinates":[[[126.88081,37.42127],[126.88088,37.42124],[126.88086,37.42122],[126.8808,37.42125],[126.88079,37.42124],[126.88074,37.42126],[126.8807,37.42128],[126.88066,37.4213],[126.88061,37.42132],[126.88058,37.42134],[126.88054,37.42136],[126.8805,37.42138],[126.88048,37.4214],[126.88045,37.42143],[126.88043,37.42144],[126.88042,37.42145],[126.88041,37.42147],[126.8804,37.42148],[126.88034,37.42151],[126.8803,37.42153],[126.88028,37.42157],[126.88025,37.42161],[126.88019,37.42164],[126.88012,37.42168],[126.88003,37.42172],[126.88,37.42172],[126.87997,37.42173],[126.87996,37.42174],[126.87996,37.42175],[126.87996,37.42175],[126.87996,37.42176],[126.87996,37.42177],[126.87996,37.42177],[126.87997,37.42178],[126.87999,37.42178],[126.88,37.42178],[126.88003,37.42178],[126.88007,37.42177],[126.88012,37.42175],[126.88018,37.42171],[126.88024,37.42169],[126.88028,37.42165],[126.88031,37.4216],[126.88033,37.42156],[126.88038,37.42154],[126.88042,37.42151],[126.88046,37.42149],[126.88048,37.42147],[126.8805,37.42145],[126.88053,37.42143],[126.88056,37.4214],[126.88059,37.42138],[126.88065,37.42136],[126.8807,37.42134],[126.88076,37.42131],[126.88081,37.42127],[126.88081,37.42127]]]}},{"type":"Feature","id":"TN_RIVER_BNDRY:WTR0100000000PBGX","properties":{"NF_ID":"WTR0100000000PBGX","admin_code":"41210","source_layer":"TN_RIVER_BNDRY","semantic":"zone","river_class":"소하천","river_class_source":"중심선 공간조인","survey_method":"사진측량"},"geometry":{"type":"Polygon","coordinates":[[[126.88007,37.4133],[126.87951,37.41389],[126.87921,37.4146],[126.88007,37.4133]]]}},{"type":"Feature","id":"TN_RIVER_BNDRY:WTR0100000000PBJ0","properties":{"NF_ID":"WTR0100000000PBJ0","admin_code":"41210","source_layer":"TN_RIVER_BNDRY","semantic":"zone","river_class":"소하천","river_class_source":"중심선 공간조인","survey_method":"사진측량"},"geometry":{"type":"Polygon","coordinates":[[[126.8782,37.41479],[126.87808,37.41476],[126.878,37.41475],[126.87795,37.41475],[126.8779,37.41475],[126.87786,37.41475],[126.87782,37.41477],[126.87779,37.41478],[126.87781,37.41479],[126.87785,37.41477],[126.87788,37.41477],[126.87791,37.41476],[126.87796,37.41476],[126.87801,37.41477],[126.87808,37.41478],[126.87823,37.41481],[126.87829,37.41482],[126.87834,37.41482],[126.87834,37.4148],[126.87828,37.4148],[126.8782,37.41479]]]}},{"type":"Feature","id":"TN_RIVER_BNDRY:WTR0100000000PBK1","properties":{"NF_ID":"WTR0100000000PBK1","admin_code":"41210","source_layer":"TN_RIVER_BNDRY","semantic":"zone","river_class":"소하천","river_class_source":"중심선 공간조인","survey_method":"사진측량"},"geometry":{"type":"Polygon","coordinates":[[[126.87902,37.41979],[126.87906,37.41976],[126.87907,37.41972],[126.87907,37.4197],[126.87908,37.41967],[126.8791,37.41961],[126.87912,37.41955],[126.87916,37.41951],[126.87921,37.41947],[126.87924,37.41943],[126.87926,37.41941],[126.87927,37.41935],[126.87929,37.41926],[126.87931,37.4192],[126.87931,37.4192],[126.87928,37.41919],[126.87927,37.41919],[126.87927,37.41922],[126.87925,37.41928],[126.87922,37.41938],[126.87921,37.41941],[126.87917,37.41945],[126.87913,37.41948],[126.8791,37.41953],[126.87907,37.41957],[126.87904,37.41963],[126.87903,37.41968],[126.87902,37.41973],[126.87899,37.41978],[126.87899,37.41978],[126.879,37.41978],[126.87902,37.41979]]]}},{"type":"Feature","id":"TN_RIVER_BNDRY:WTR0100000000PCI0","properties":{"NF_ID":"WTR0100000000PCI0","admin_code":"41210","source_layer":"TN_RIVER_BNDRY","semantic":"zone","river_class":"소하천","river_class_source":"중심선 공간조인","survey_method":"사진측량"},"geometry":{"type":"Polygon","coordinates":[[[126.85631,37.41126],[126.8535,37.41051],[126.8504,37.40906],[126.85023,37.40923],[126.85349,37.41067],[126.8549,37.41114],[126.85609,37.41134],[126.85631,37.41126]]]}},{"type":"Feature","id":"TN_RIVER_BNDRY:WTR0100000000PLXO","properties":{"NF_ID":"WTR0100000000PLXO","admin_code":"41210","source_layer":"TN_RIVER_BNDRY","semantic":"zone","river_class":"소하천","river_class_source":"중심선 공간조인","survey_method":"사진측량"},"geometry":{"type":"Polygon","coordinates":[[[126.85505,37.44015],[126.85553,37.44028],[126.8562,37.44074],[126.85712,37.44234],[126.85767,37.44297],[126.85921,37.44377],[126.85993,37.44362],[126.85928,37.44376],[126.85769,37.44295],[126.85618,37.44066],[126.85551,37.44024],[126.85505,37.44015]]]}},{"type":"Feature","id":"TN_RIVER_BNDRY:WTR0100000000PLYP","properties":{"NF_ID":"WTR0100000000PLYP","admin_code":"41210","source_layer":"TN_RIVER_BNDRY","semantic":"zone","river_class":"소하천","river_class_source":"중심선 공간조인","survey_method":"사진측량"},"geometry":{"type":"Polygon","coordinates":[[[126.85712,37.43147],[126.85708,37.43126],[126.85674,37.43108],[126.85617,37.43138],[126.85605,37.43128],[126.85673,37.43196],[126.85714,37.43176],[126.85712,37.43147]]]}},{"type":"Feature","id":"TN_RIVER_BNDRY:WTR0100000000PLZQ","properties":{"NF_ID":"WTR0100000000PLZQ","admin_code":"41210","source_layer":"TN_RIVER_BNDRY","semantic":"zone","river_class":"소하천","river_class_source":"중심선 공간조인","survey_method":"사진측량"},"geometry":{"type":"Polygon","coordinates":[[[126.85505,37.44021],[126.85401,37.44107],[126.85406,37.44187],[126.853,37.44189],[126.8541,37.4419],[126.85404,37.44127],[126.85424,37.441],[126.85469,37.442],[126.8552,37.44198],[126.85561,37.44213],[126.8564,37.44288],[126.8567,37.44236],[126.85607,37.44146],[126.85617,37.44127],[126.85598,37.4407],[126.85559,37.4404],[126.85509,37.4403],[126.85427,37.44092],[126.85505,37.44021]]]}},{"type":"Feature","id":"TN_RIVER_BNDRY:WTR0100000000PM0S","properties":{"NF_ID":"WTR0100000000PM0S","admin_code":"41210","source_layer":"TN_RIVER_BNDRY","semantic":"zone","river_class":"소하천","river_class_source":"중심선 공간조인","survey_method":"사진측량"},"geometry":{"type":"Polygon","coordinates":[[[126.85498,37.44015],[126.85505,37.44015],[126.85505,37.44015],[126.85513,37.44005],[126.8552,37.43998],[126.85532,37.43987],[126.85534,37.43985],[126.85536,37.43983],[126.85538,37.43982],[126.8554,37.4398],[126.85551,37.43969],[126.85553,37.43967],[126.8555,37.43964],[126.85549,37.43965],[126.85532,37.43981],[126.85524,37.43987],[126.85521,37.4399],[126.85515,37.43995],[126.85513,37.43998],[126.85509,37.44001],[126.85506,37.44005],[126.85504,37.44007],[126.85502,37.4401],[126.85499,37.44013],[126.85498,37.44015]]]}},{"type":"Feature","id":"TN_RIVER_BNDRY:WTR0100000000PM1T","properties":{"NF_ID":"WTR0100000000PM1T","admin_code":"41210","source_layer":"TN_RIVER_BNDRY","semantic":"zone","river_class":"소하천","river_class_source":"중심선 공간조인","survey_method":"사진측량"},"geometry":{"type":"Polygon","coordinates":[[[126.85505,37.44015],[126.85498,37.44015],[126.85497,37.44016],[126.85494,37.4402],[126.85505,37.44021],[126.85505,37.44015]]]}},{"type":"Feature","id":"TN_RIVER_BNDRY:WTR0100000000PMG8","properties":{"NF_ID":"WTR0100000000PMG8","admin_code":"41210","source_layer":"TN_RIVER_BNDRY","semantic":"zone","river_class":"소하천","river_class_source":"중심선 공간조인","survey_method":"사진측량"},"geometry":{"type":"Polygon","coordinates":[[[126.85631,37.41126],[126.85644,37.41139],[126.85673,37.41132],[126.85631,37.41126]]]}},{"type":"Feature","id":"TN_RIVER_BNDRY:WTR0100000000PMH9","properties":{"NF_ID":"WTR0100000000PMH9","admin_code":"41210","source_layer":"TN_RIVER_BNDRY","semantic":"zone","river_class":"소하천","river_class_source":"중심선 공간조인","survey_method":"사진측량"},"geometry":{"type":"Polygon","coordinates":[[[126.85644,37.41139],[126.85631,37.41126],[126.85609,37.41134],[126.85626,37.41147],[126.85644,37.41139]]]}},{"type":"Feature","id":"TN_RIVER_BNDRY:WTR0100000000PMME","properties":{"NF_ID":"WTR0100000000PMME","admin_code":"41210","source_layer":"TN_RIVER_BNDRY","semantic":"zone","river_class":"소하천","river_class_source":"중심선 공간조인","survey_method":"사진측량"},"geometry":{"type":"Polygon","coordinates":[[[126.85644,37.41139],[126.85626,37.41147],[126.85639,37.41197],[126.85736,37.41328],[126.85691,37.41401],[126.85711,37.41497],[126.85751,37.41549],[126.8579,37.41662],[126.85825,37.41687],[126.85805,37.42002],[126.8583,37.42085],[126.8582,37.4215],[126.85948,37.42208],[126.85824,37.42148],[126.85833,37.42082],[126.85808,37.42002],[126.85828,37.41684],[126.85787,37.41649],[126.85779,37.41584],[126.85725,37.41492],[126.85708,37.41418],[126.85755,37.41323],[126.85658,37.41199],[126.85644,37.41139]]]}},{"type":"Feature","id":"TN_RIVER_BNDRY:WTR0100000000PMNF","properties":{"NF_ID":"WTR0100000000PMNF","admin_code":"41210","source_layer":"TN_RIVER_BNDRY","semantic":"zone","river_class":"소하천","river_class_source":"중심선 공간조인","survey_method":"사진측량"},"geometry":{"type":"Polygon","coordinates":[[[126.85979,37.42269],[126.85963,37.42221],[126.85971,37.42284],[126.85896,37.42359],[126.85947,37.42413],[126.85904,37.42363],[126.85968,37.42302],[126.85979,37.42269]]]}},{"type":"Feature","id":"TN_RIVER_BNDRY:WTR0100000000PNXQ","properties":{"NF_ID":"WTR0100000000PNXQ","admin_code":"41210","source_layer":"TN_RIVER_BNDRY","semantic":"zone","river_class":"소하천","river_class_source":"중심선 공간조인","survey_method":"사진측량"},"geometry":{"type":"Polygon","coordinates":[[[126.84922,37.4108],[126.84948,37.41119],[126.85016,37.41106],[126.85039,37.41117],[126.84967,37.41062],[126.8495,37.41061],[126.84931,37.41086],[126.84922,37.4108]]]}},{"type":"Feature","id":"TN_RIVER_BNDRY:WTR0100000000PNZS","properties":{"NF_ID":"WTR0100000000PNZS","admin_code":"41210","source_layer":"TN_RIVER_BNDRY","semantic":"zone","river_class":"소하천","river_class_source":"중심선 공간조인","survey_method":"사진측량"},"geometry":{"type":"Polygon","coordinates":[[[126.89743,37.42675],[126.89496,37.42538],[126.89454,37.42399],[126.89488,37.42542],[126.89707,37.42663],[126.89695,37.42683],[126.89743,37.42675]]]}},{"type":"Feature","id":"TN_RIVER_BNDRY:WTR0100000000PO4Y","properties":{"NF_ID":"WTR0100000000PO4Y","admin_code":"41210","source_layer":"TN_RIVER_BNDRY","semantic":"zone","river_class":"소하천","river_class_source":"중심선 공간조인","survey_method":"사진측량"},"geometry":{"type":"Polygon","coordinates":[[[126.8487,37.44074],[126.8479,37.44068],[126.84762,37.44046],[126.84668,37.44053],[126.8465,37.44036],[126.84663,37.44056],[126.8476,37.44053],[126.84788,37.44071],[126.8486,37.44074],[126.84941,37.44105],[126.85005,37.44195],[126.84953,37.44108],[126.8487,37.44074]]]}},{"type":"Feature","id":"TN_RIVER_BNDRY:WTR0100000000PO82","properties":{"NF_ID":"WTR0100000000PO82","admin_code":"41210","source_layer":"TN_RIVER_BNDRY","semantic":"zone","river_class":"소하천","river_class_source":"중심선 공간조인","survey_method":"사진측량"},"geometry":{"type":"Polygon","coordinates":[[[126.84232,37.4498],[126.84213,37.44987],[126.84203,37.45021],[126.8414,37.45046],[126.84046,37.45129],[126.83995,37.45131],[126.83931,37.45095],[126.8385,37.45077],[126.83849,37.45087],[126.83937,37.45102],[126.83991,37.45135],[126.84047,37.45133],[126.84148,37.45046],[126.84208,37.45027],[126.84232,37.4498]]]}},{"type":"Feature","id":"TN_RIVER_BNDRY:WTR0100000000PO93","properties":{"NF_ID":"WTR0100000000PO93","admin_code":"41210","source_layer":"TN_RIVER_BNDRY","semantic":"zone","river_class":"소하천","river_class_source":"중심선 공간조인","survey_method":"사진측량"},"geometry":{"type":"Polygon","coordinates":[[[126.84242,37.44971],[126.84232,37.4498],[126.84387,37.45005],[126.84421,37.45138],[126.84479,37.4515],[126.84426,37.45135],[126.8439,37.45001],[126.84242,37.44971]]]}},{"type":"Feature","id":"TN_RIVER_BNDRY:WTR0100000000POB5","properties":{"NF_ID":"WTR0100000000POB5","admin_code":"41210","source_layer":"TN_RIVER_BNDRY","semantic":"zone","river_class":"소하천","river_class_source":"중심선 공간조인","survey_method":"사진측량"},"geometry":{"type":"Polygon","coordinates":[[[126.84951,37.45451],[126.85089,37.45431],[126.8494,37.45447],[126.84809,37.4542],[126.84951,37.45451]]]}}]}