{"type":"FeatureCollection","features":[{"type":"Feature","id":"TN_RIVER_BNDRY:WTR0100000001QOWS","properties":{"NF_ID":"WTR0100000001QOWS","admin_code":"48123","source_layer":"TN_RIVER_BNDRY","semantic":"zone","river_class":"지방하천","river_class_source":"중심선 공간조인","river_name":"양곡천","river_code":"2720220","survey_method":"사진측량"},"geometry":{"type":"Polygon","coordinates":[[[128.63359,35.18986],[128.63356,35.18974],[128.63304,35.18976],[128.63253,35.18997],[128.63044,35.1919],[128.6302,35.19287],[128.63045,35.19407],[128.63029,35.19564],[128.62998,35.19598],[128.6286,35.19664],[128.62742,35.19838],[128.62725,35.20495],[128.62748,35.1985],[128.62866,35.1967],[128.63035,35.19589],[128.63058,35.19393],[128.63036,35.19273],[128.63071,35.19178],[128.63273,35.18997],[128.63359,35.18986]]]}},{"type":"Feature","id":"TN_RIVER_BNDRY:WTR0100000001QOZV","properties":{"NF_ID":"WTR0100000001QOZV","admin_code":"48123","source_layer":"TN_RIVER_BNDRY","semantic":"zone","river_class":"지방하천","river_class_source":"중심선 공간조인","river_name":"양곡천","river_code":"2720220","survey_method":"사진측량"},"geometry":{"type":"Polygon","coordinates":[[[128.63365,35.18974],[128.63356,35.18974],[128.63359,35.18986],[128.63371,35.18988],[128.63365,35.18974]]]}},{"type":"Feature","id":"TN_RIVER_BNDRY:WTR0100000001QP0X","properties":{"NF_ID":"WTR0100000001QP0X","admin_code":"48123","source_layer":"TN_RIVER_BNDRY","semantic":"zone","river_class":"지방하천","river_class_source":"중심선 공간조인","river_name":"양곡천","river_code":"2720220","survey_method":"사진측량"},"geometry":{"type":"Polygon","coordinates":[[[128.62846,35.21101],[128.62832,35.21059],[128.62817,35.21059],[128.62826,35.21115],[128.62846,35.21101]]]}},{"type":"Feature","id":"TN_RIVER_BNDRY:WTR0100000001QP1Y","properties":{"NF_ID":"WTR0100000001QP1Y","admin_code":"48123","source_layer":"TN_RIVER_BNDRY","semantic":"zone","river_class":"지방하천","river_class_source":"중심선 공간조인","river_name":"양곡천","river_code":"2720220","survey_method":"사진측량"},"geometry":{"type":"Polygon","coordinates":[[[128.62851,35.21117],[128.62846,35.21101],[128.62826,35.21115],[128.62851,35.21117]]]}},{"type":"Feature","id":"TN_RIVER_BNDRY:WTR0100000001QP2Z","properties":{"NF_ID":"WTR0100000001QP2Z","admin_code":"48123","source_layer":"TN_RIVER_BNDRY","semantic":"zone","river_class":"지방하천","river_class_source":"중심선 공간조인","river_name":"양곡천","river_code":"2720220","survey_method":"사진측량"},"geometry":{"type":"Polygon","coordinates":[[[128.62845,35.21124],[128.62824,35.2112],[128.62685,35.21443],[128.62714,35.21467],[128.62845,35.21124]]]}},{"type":"Feature","id":"TN_RIVER_BNDRY:WTR0100000001QP41","properties":{"NF_ID":"WTR0100000001QP41","admin_code":"48123","source_layer":"TN_RIVER_BNDRY","semantic":"zone","river_class":"소하천","river_class_source":"중심선 공간조인","survey_method":"사진측량"},"geometry":{"type":"Polygon","coordinates":[[[128.63324,35.21189],[128.62934,35.21087],[128.62846,35.21101],[128.62851,35.21117],[128.62923,35.21095],[128.6332,35.21198],[128.63324,35.21189]]]}},{"type":"Feature","id":"TN_RIVER_BNDRY:WTR0100000001QP52","properties":{"NF_ID":"WTR0100000001QP52","admin_code":"48123","source_layer":"TN_RIVER_BNDRY","semantic":"zone","river_class":"소하천","river_class_source":"중심선 공간조인","survey_method":"사진측량"},"geometry":{"type":"Polygon","coordinates":[[[128.63324,35.21189],[128.63331,35.2119],[128.63344,35.21154],[128.63362,35.21112],[128.63378,35.21072],[128.634,35.21019],[128.63424,35.20961],[128.63444,35.20914],[128.63459,35.20878],[128.63475,35.20838],[128.63486,35.20805],[128.63483,35.20804],[128.63479,35.20812],[128.63468,35.2084],[128.63452,35.20883],[128.63438,35.20917],[128.6342,35.20959],[128.63391,35.21027],[128.63373,35.21068],[128.63359,35.21103],[128.63324,35.21189]]]}},{"type":"Feature","id":"TN_RIVER_BNDRY:WTR0100000001QP63","properties":{"NF_ID":"WTR0100000001QP63","admin_code":"48123","source_layer":"TN_RIVER_BNDRY","semantic":"zone","river_class":"소하천","river_class_source":"중심선 공간조인","survey_method":"사진측량"},"geometry":{"type":"Polygon","coordinates":[[[128.63794,35.21344],[128.63331,35.2119],[128.63328,35.212],[128.6379,35.21355],[128.63794,35.21344]]]}},{"type":"Feature","id":"TN_RIVER_BNDRY:WTR0100000001QP74","properties":{"NF_ID":"WTR0100000001QP74","admin_code":"48123","source_layer":"TN_RIVER_BNDRY","semantic":"zone","river_class":"소하천","river_class_source":"중심선 공간조인","survey_method":"사진측량"},"geometry":{"type":"Polygon","coordinates":[[[128.63331,35.2119],[128.63324,35.21189],[128.6332,35.21198],[128.63328,35.212],[128.63331,35.2119]]]}},{"type":"Feature","id":"TN_RIVER_BNDRY:WTR0100000001QPA7","properties":{"NF_ID":"WTR0100000001QPA7","admin_code":"48123","source_layer":"TN_RIVER_BNDRY","semantic":"zone","river_class":"소하천","river_class_source":"중심선 공간조인","survey_method":"사진측량"},"geometry":{"type":"Polygon","coordinates":[[[128.68753,35.18635],[128.68752,35.18604],[128.6867,35.18527],[128.68599,35.18425],[128.68524,35.18414],[128.68594,35.18429],[128.68662,35.18528],[128.68699,35.18549],[128.68749,35.18611],[128.68735,35.18644],[128.68747,35.18651],[128.68753,35.18635]]]}},{"type":"Feature","id":"TN_RIVER_BNDRY:WTR0100000001QPC9","properties":{"NF_ID":"WTR0100000001QPC9","admin_code":"48123","source_layer":"TN_RIVER_BNDRY","semantic":"zone","river_class":"지방하천","river_class_source":"중심선 공간조인","river_name":"양곡천","river_code":"2720220","survey_method":"사진측량"},"geometry":{"type":"Polygon","coordinates":[[[128.63568,35.18905],[128.63554,35.18896],[128.63547,35.18901],[128.6356,35.18911],[128.63568,35.18905]]]}},{"type":"Feature","id":"TN_RIVER_BNDRY:WTR0100000001QPDA","properties":{"NF_ID":"WTR0100000001QPDA","admin_code":"48123","source_layer":"TN_RIVER_BNDRY","semantic":"zone","river_class":"지방하천","river_class_source":"중심선 공간조인","river_name":"양곡천","river_code":"2720220","survey_method":"사진측량"},"geometry":{"type":"Polygon","coordinates":[[[128.6356,35.18911],[128.63547,35.18901],[128.63442,35.1896],[128.63365,35.18974],[128.63371,35.18988],[128.63443,35.18974],[128.6356,35.18911]]]}},{"type":"Feature","id":"TN_RIVER_BNDRY:WTR0100000001QPEB","properties":{"NF_ID":"WTR0100000001QPEB","admin_code":"48123","source_layer":"TN_RIVER_BNDRY","semantic":"zone","river_class":"지방하천","river_class_source":"중심선 공간조인","river_name":"남천","river_code":"2720090","survey_method":"사진측량"},"geometry":{"type":"Polygon","coordinates":[[[128.69572,35.1884],[128.69525,35.18799],[128.6951,35.18816],[128.69524,35.18883],[128.69572,35.1884]]]}},{"type":"Feature","id":"TN_RIVER_BNDRY:WTR0100000001QPFC","properties":{"NF_ID":"WTR0100000001QPFC","admin_code":"48123","source_layer":"TN_RIVER_BNDRY","semantic":"zone","river_class":"지방하천","river_class_source":"중심선 공간조인","river_name":"양곡천","river_code":"2720220","survey_method":"사진측량"},"geometry":{"type":"Polygon","coordinates":[[[128.64338,35.18229],[128.64343,35.18217],[128.64323,35.18222],[128.64324,35.18236],[128.64338,35.18229]]]}},{"type":"Feature","id":"TN_RIVER_BNDRY:WTR0100000001QPGD","properties":{"NF_ID":"WTR0100000001QPGD","admin_code":"48123","source_layer":"TN_RIVER_BNDRY","semantic":"zone","river_class":"지방하천","river_class_source":"중심선 공간조인","river_name":"양곡천","river_code":"2720220","survey_method":"사진측량"},"geometry":{"type":"Polygon","coordinates":[[[128.64343,35.18217],[128.64338,35.18229],[128.64402,35.1822],[128.64516,35.18238],[128.64706,35.18327],[128.64686,35.18312],[128.64708,35.18306],[128.64514,35.18231],[128.64413,35.18213],[128.64343,35.18217]]]}},{"type":"Feature","id":"TN_RIVER_BNDRY:WTR0100000001QPKH","properties":{"NF_ID":"WTR0100000001QPKH","admin_code":"48123","source_layer":"TN_RIVER_BNDRY","semantic":"zone","river_class":"소하천","river_class_source":"중심선 공간조인","survey_method":"사진측량"},"geometry":{"type":"Polygon","coordinates":[[[128.63842,35.18779],[128.63925,35.18889],[128.64025,35.18969],[128.63842,35.18779]]]}},{"type":"Feature","id":"TN_RIVER_BNDRY:WTR0100000001QPLI","properties":{"NF_ID":"WTR0100000001QPLI","admin_code":"48123","source_layer":"TN_RIVER_BNDRY","semantic":"zone","river_class":"지방하천","river_class_source":"중심선 공간조인","river_name":"양곡천","river_code":"2720220","survey_method":"사진측량"},"geometry":{"type":"Polygon","coordinates":[[[128.63371,35.18988],[128.63461,35.19112],[128.63461,35.19085],[128.63371,35.18988]]]}},{"type":"Feature","id":"TN_RIVER_BNDRY:WTR0100000001QPUR","properties":{"NF_ID":"WTR0100000001QPUR","admin_code":"48123","source_layer":"TN_RIVER_BNDRY","semantic":"zone","river_class":"소하천","river_class_source":"중심선 공간조인","survey_method":"사진측량"},"geometry":{"type":"Polygon","coordinates":[[[128.64608,35.21637],[128.64596,35.21649],[128.64593,35.21982],[128.64608,35.21637]]]}},{"type":"Feature","id":"TN_RIVER_BNDRY:WTR0100000001QPVS","properties":{"NF_ID":"WTR0100000001QPVS","admin_code":"48123","source_layer":"TN_RIVER_BNDRY","semantic":"zone","river_class":"지방하천","river_class_source":"중심선 공간조인","river_name":"상복천","river_code":"2720150","survey_method":"사진측량"},"geometry":{"type":"Polygon","coordinates":[[[128.67121,35.21007],[128.67099,35.21004],[128.67049,35.2095],[128.67027,35.20962],[128.67077,35.2102],[128.67121,35.21007]]]}},{"type":"Feature","id":"TN_RIVER_BNDRY:WTR0100000001QPWT","properties":{"NF_ID":"WTR0100000001QPWT","admin_code":"48123","source_layer":"TN_RIVER_BNDRY","semantic":"zone","river_class":"소하천","river_class_source":"중심선 공간조인","survey_method":"사진측량"},"geometry":{"type":"Polygon","coordinates":[[[128.71441,35.2178],[128.7139,35.21767],[128.71298,35.21706],[128.71387,35.21771],[128.71369,35.2177],[128.71441,35.2178]]]}},{"type":"Feature","id":"TN_RIVER_BNDRY:WTR0100000001QPXU","properties":{"NF_ID":"WTR0100000001QPXU","admin_code":"48123","source_layer":"TN_RIVER_BNDRY","semantic":"zone","river_class":"소하천","river_class_source":"중심선 공간조인","survey_method":"사진측량"},"geometry":{"type":"Polygon","coordinates":[[[128.7117,35.21573],[128.71087,35.21538],[128.71012,35.21455],[128.70973,35.21434],[128.703,35.2131],[128.70306,35.21321],[128.70964,35.21446],[128.71079,35.21548],[128.7117,35.21573]]]}},{"type":"Feature","id":"TN_RIVER_BNDRY:WTR0100000001QPYV","properties":{"NF_ID":"WTR0100000001QPYV","admin_code":"48123","source_layer":"TN_RIVER_BNDRY","semantic":"zone","river_class":"소하천","river_class_source":"중심선 공간조인","survey_method":"사진측량"},"geometry":{"type":"Polygon","coordinates":[[[128.702,35.2129],[128.70147,35.21281],[128.70142,35.2129],[128.70198,35.21301],[128.702,35.2129]]]}},{"type":"Feature","id":"TN_RIVER_BNDRY:WTR0100000001QPZW","properties":{"NF_ID":"WTR0100000001QPZW","admin_code":"48123","source_layer":"TN_RIVER_BNDRY","semantic":"zone","river_class":"지방하천","river_class_source":"중심선 공간조인","river_name":"토월천","river_code":"2720130","survey_method":"사진측량"},"geometry":{"type":"Polygon","coordinates":[[[128.69091,35.2248],[128.69147,35.22493],[128.6873,35.22027],[128.68644,35.21979],[128.68551,35.21973],[128.68649,35.2199],[128.68727,35.22034],[128.69091,35.2248]]]}},{"type":"Feature","id":"TN_RIVER_BNDRY:WTR0100000001QQ0Y","properties":{"NF_ID":"WTR0100000001QQ0Y","admin_code":"48123","source_layer":"TN_RIVER_BNDRY","semantic":"zone","river_class":"지방하천","river_class_source":"중심선 공간조인","river_name":"가음정천","river_code":"2720110","survey_method":"사진측량"},"geometry":{"type":"Polygon","coordinates":[[[128.68799,35.20107],[128.68755,35.20115],[128.68786,35.20136],[128.68806,35.20125],[128.68799,35.20107]]]}},{"type":"Feature","id":"TN_RIVER_BNDRY:WTR0100000001QQ1Z","properties":{"NF_ID":"WTR0100000001QQ1Z","admin_code":"48123","source_layer":"TN_RIVER_BNDRY","semantic":"zone","river_class":"지방하천","river_class_source":"중심선 공간조인","river_name":"토월천","river_code":"2720130","survey_method":"사진측량"},"geometry":{"type":"Polygon","coordinates":[[[128.67181,35.2105],[128.67129,35.21081],[128.67188,35.21118],[128.67651,35.21657],[128.67665,35.21656],[128.67551,35.21514],[128.67532,35.2146],[128.67181,35.2105]]]}},{"type":"Feature","id":"TN_RIVER_BNDRY:WTR0100000001QQ20","properties":{"NF_ID":"WTR0100000001QQ20","admin_code":"48123","source_layer":"TN_RIVER_BNDRY","semantic":"zone","river_class":"소하천","river_class_source":"중심선 공간조인","survey_method":"사진측량"},"geometry":{"type":"Polygon","coordinates":[[[128.63794,35.21344],[128.63799,35.21346],[128.63809,35.21317],[128.63812,35.21309],[128.63815,35.21298],[128.63824,35.21273],[128.63834,35.21247],[128.63847,35.21214],[128.63862,35.21175],[128.63867,35.21161],[128.63876,35.21137],[128.63886,35.2111],[128.63886,35.21108],[128.63892,35.21094],[128.63893,35.21092],[128.63907,35.21054],[128.63909,35.21049],[128.63911,35.21044],[128.6392,35.2102],[128.6392,35.21018],[128.6392,35.21016],[128.6392,35.21014],[128.63932,35.20986],[128.63941,35.20966],[128.63951,35.20939],[128.63968,35.20901],[128.63977,35.20879],[128.64009,35.20803],[128.6401,35.20801],[128.64004,35.208],[128.64003,35.20801],[128.6397,35.20878],[128.63961,35.20898],[128.63954,35.20914],[128.63933,35.20963],[128.63925,35.20984],[128.63912,35.21018],[128.63904,35.21042],[128.63902,35.21047],[128.63901,35.21047],[128.63885,35.2109],[128.63885,35.21092],[128.6388,35.21107],[128.63879,35.21107],[128.63864,35.21145],[128.6386,35.21159],[128.63856,35.2117],[128.63855,35.21173],[128.63853,35.21177],[128.63827,35.21245],[128.63818,35.21271],[128.6381,35.21297],[128.63806,35.21308],[128.63803,35.21315],[128.63794,35.21344]]]}},{"type":"Feature","id":"TN_RIVER_BNDRY:WTR0100000001QQ42","properties":{"NF_ID":"WTR0100000001QQ42","admin_code":"48123","source_layer":"TN_RIVER_BNDRY","semantic":"zone","river_class":"소하천","river_class_source":"중심선 공간조인","survey_method":"사진측량"},"geometry":{"type":"Polygon","coordinates":[[[128.71296,35.18172],[128.71339,35.18124],[128.71372,35.17954],[128.71441,35.17858],[128.71478,35.17753],[128.7152,35.17685],[128.71587,35.17648],[128.71623,35.17587],[128.71713,35.1755],[128.71726,35.17502],[128.71717,35.17446],[128.71706,35.17539],[128.71602,35.17583],[128.71569,35.17643],[128.71498,35.17696],[128.71437,35.17817],[128.714,35.17848],[128.71363,35.17956],[128.71336,35.18113],[128.71294,35.1817],[128.71264,35.18169],[128.71296,35.18172]]]}},{"type":"Feature","id":"TN_RIVER_BNDRY:WTR0100000001QQ53","properties":{"NF_ID":"WTR0100000001QQ53","admin_code":"48123","source_layer":"TN_RIVER_BNDRY","semantic":"zone","river_class":"소하천","river_class_source":"중심선 공간조인","survey_method":"사진측량"},"geometry":{"type":"Polygon","coordinates":[[[128.71386,35.21467],[128.7137,35.21452],[128.71326,35.21451],[128.71306,35.2142],[128.71245,35.21412],[128.71192,35.21385],[128.71136,35.21412],[128.71193,35.21391],[128.71304,35.21426],[128.71318,35.21459],[128.71369,35.21459],[128.71411,35.21501],[128.71426,35.215],[128.71386,35.21467]]]}},{"type":"Feature","id":"TN_RIVER_BNDRY:WTR0100000001QQ64","properties":{"NF_ID":"WTR0100000001QQ64","admin_code":"48123","source_layer":"TN_RIVER_BNDRY","semantic":"zone","river_class":"소하천","river_class_source":"중심선 공간조인","survey_method":"사진측량"},"geometry":{"type":"Polygon","coordinates":[[[128.70617,35.22041],[128.70681,35.22048],[128.70768,35.22084],[128.70771,35.22183],[128.71087,35.22181],[128.71236,35.22213],[128.7122,35.22198],[128.71053,35.22168],[128.70904,35.22183],[128.70779,35.22175],[128.70773,35.22081],[128.70621,35.22031],[128.70556,35.22107],[128.70371,35.22395],[128.70559,35.22106],[128.70617,35.22041]]]}},{"type":"Feature","id":"TN_RIVER_BNDRY:WTR0100000001QQ75","properties":{"NF_ID":"WTR0100000001QQ75","admin_code":"48123","source_layer":"TN_RIVER_BNDRY","semantic":"zone","river_class":"지방하천","river_class_source":"중심선 공간조인","river_name":"토월천","river_code":"2720130","survey_method":"사진측량"},"geometry":{"type":"Polygon","coordinates":[[[128.67741,35.21649],[128.6771,35.21651],[128.67722,35.21674],[128.68105,35.21723],[128.68148,35.21739],[128.68208,35.21776],[128.6839,35.21939],[128.68412,35.21938],[128.68147,35.21709],[128.67741,35.21649]]]}},{"type":"Feature","id":"TN_RIVER_BNDRY:WTR0100000001QQ97","properties":{"NF_ID":"WTR0100000001QQ97","admin_code":"48123","source_layer":"TN_RIVER_BNDRY","semantic":"zone","river_class":"지방하천","river_class_source":"중심선 공간조인","river_name":"남천","river_code":"2720090","survey_method":"사진측량"},"geometry":{"type":"Polygon","coordinates":[[[128.69535,35.19028],[128.6949,35.18991],[128.69465,35.19013],[128.69524,35.19052],[128.69535,35.19028]]]}},{"type":"Feature","id":"TN_RIVER_BNDRY:WTR0100000001QQA8","properties":{"NF_ID":"WTR0100000001QQA8","admin_code":"48123","source_layer":"TN_RIVER_BNDRY","semantic":"zone","river_class":"지방하천","river_class_source":"중심선 공간조인","river_name":"남천","river_code":"2720090","survey_method":"사진측량"},"geometry":{"type":"Polygon","coordinates":[[[128.69572,35.1884],[128.69524,35.18883],[128.69536,35.18907],[128.69521,35.18977],[128.6949,35.18991],[128.69535,35.19028],[128.69572,35.1884]]]}},{"type":"Feature","id":"TN_RIVER_BNDRY:WTR0100000001QQDB","properties":{"NF_ID":"WTR0100000001QQDB","admin_code":"48123","source_layer":"TN_RIVER_BNDRY","semantic":"zone","river_class":"지방하천","river_class_source":"중심선 공간조인","river_name":"남천","river_code":"2720090","survey_method":"사진측량"},"geometry":{"type":"Polygon","coordinates":[[[128.6949,35.18991],[128.6947,35.18966],[128.69485,35.18898],[128.69524,35.18883],[128.6951,35.18816],[128.6946,35.18871],[128.69449,35.18946],[128.69465,35.19013],[128.6949,35.18991]]]}},{"type":"Feature","id":"TN_RIVER_BNDRY:WTR0100000001QQEC","properties":{"NF_ID":"WTR0100000001QQEC","admin_code":"48123","source_layer":"TN_RIVER_BNDRY","semantic":"zone","river_class":"소하천","river_class_source":"중심선 공간조인","survey_method":"사진측량"},"geometry":{"type":"Polygon","coordinates":[[[128.65134,35.22005],[128.65133,35.22004],[128.65128,35.22005],[128.65129,35.22006],[128.65142,35.22021],[128.65144,35.22024],[128.65173,35.22058],[128.6522,35.22113],[128.6527,35.2217],[128.65314,35.22221],[128.65348,35.2226],[128.6538,35.22297],[128.65394,35.22313],[128.65395,35.22313],[128.65422,35.22345],[128.65427,35.22351],[128.65469,35.224],[128.655,35.22437],[128.65501,35.22438],[128.65502,35.22441],[128.65503,35.22443],[128.65504,35.22445],[128.65505,35.22446],[128.65506,35.22447],[128.65508,35.22447],[128.65509,35.22447],[128.65512,35.22446],[128.65513,35.22444],[128.6551,35.22444],[128.65508,35.22444],[128.65508,35.22443],[128.65508,35.22443],[128.65507,35.22442],[128.65507,35.22441],[128.65506,35.22439],[128.65497,35.22427],[128.65446,35.22367],[128.65426,35.22344],[128.65425,35.22343],[128.65397,35.22312],[128.65395,35.2231],[128.6535,35.22255],[128.65288,35.22183],[128.65238,35.22126],[128.65193,35.22075],[128.65147,35.2202],[128.65146,35.22019],[128.65134,35.22005]]]}},{"type":"Feature","id":"TN_RIVER_BNDRY:WTR0100000001QQFD","properties":{"NF_ID":"WTR0100000001QQFD","admin_code":"48123","source_layer":"TN_RIVER_BNDRY","semantic":"zone","river_class":"지방하천","river_class_source":"중심선 공간조인","river_name":"남천","river_code":"2720090","survey_method":"사진측량"},"geometry":{"type":"Polygon","coordinates":[[[128.66242,35.21588],[128.66215,35.21511],[128.65611,35.21843],[128.65458,35.21883],[128.65075,35.21922],[128.65124,35.22001],[128.65445,35.21966],[128.656,35.21933],[128.65734,35.21878],[128.66242,35.21588]]]}},{"type":"Feature","id":"TN_RIVER_BNDRY:WTR0100000001QQGE","properties":{"NF_ID":"WTR0100000001QQGE","admin_code":"48123","source_layer":"TN_RIVER_BNDRY","semantic":"zone","river_class":"지방하천","river_class_source":"중심선 공간조인","river_name":"대방천","river_code":"2720120","survey_method":"사진측량"},"geometry":{"type":"Polygon","coordinates":[[[128.7041,35.20572],[128.70558,35.20565],[128.70706,35.20507],[128.70815,35.20494],[128.70891,35.20509],[128.71155,35.20605],[128.71365,35.20597],[128.71494,35.20604],[128.71558,35.20622],[128.71627,35.20591],[128.71715,35.2058],[128.71625,35.20586],[128.71569,35.20613],[128.71506,35.20595],[128.71344,35.20588],[128.71156,35.20597],[128.70882,35.20496],[128.70778,35.20485],[128.70533,35.2056],[128.70212,35.20581],[128.70141,35.20619],[128.70055,35.20696],[128.70199,35.20596],[128.7041,35.20572]]]}},{"type":"Feature","id":"TN_RIVER_BNDRY:WTR0100000001QQHF","properties":{"NF_ID":"WTR0100000001QQHF","admin_code":"48123","source_layer":"TN_RIVER_BNDRY","semantic":"zone","river_class":"지방하천","river_class_source":"중심선 공간조인","river_name":"토월천","river_code":"2720130","survey_method":"사진측량"},"geometry":{"type":"Polygon","coordinates":[[[128.69147,35.22493],[128.69091,35.2248],[128.69111,35.225],[128.69143,35.22503],[128.69147,35.22493]]]}},{"type":"Feature","id":"TN_RIVER_BNDRY:WTR0100000001QQIG","properties":{"NF_ID":"WTR0100000001QQIG","admin_code":"48123","source_layer":"TN_RIVER_BNDRY","semantic":"zone","river_class":"소하천","river_class_source":"중심선 공간조인","survey_method":"사진측량"},"geometry":{"type":"Polygon","coordinates":[[[128.69147,35.22493],[128.69143,35.22503],[128.69163,35.225],[128.69436,35.22344],[128.69696,35.2216],[128.70007,35.22289],[128.69699,35.2215],[128.69429,35.22337],[128.69147,35.22493]]]}},{"type":"Feature","id":"TN_RIVER_BNDRY:WTR0100000001QQJH","properties":{"NF_ID":"WTR0100000001QQJH","admin_code":"48123","source_layer":"TN_RIVER_BNDRY","semantic":"zone","river_class":"지방하천","river_class_source":"중심선 공간조인","river_name":"가음정천","river_code":"2720110","survey_method":"사진측량"},"geometry":{"type":"Polygon","coordinates":[[[128.69444,35.20535],[128.6939,35.20496],[128.69353,35.20499],[128.69379,35.20493],[128.69361,35.2049],[128.69186,35.2057],[128.69158,35.20533],[128.69135,35.20545],[128.69195,35.20599],[128.69351,35.20535],[128.69371,35.2054],[128.69828,35.21067],[128.69838,35.21059],[128.69707,35.20906],[128.69703,35.20881],[128.69452,35.20584],[128.69444,35.20535]]]}},{"type":"Feature","id":"TN_RIVER_BNDRY:WTR0100000001QQKI","properties":{"NF_ID":"WTR0100000001QQKI","admin_code":"48123","source_layer":"TN_RIVER_BNDRY","semantic":"zone","river_class":"지방하천","river_class_source":"중심선 공간조인","river_name":"남천","river_code":"2720090","survey_method":"사진측량"},"geometry":{"type":"Polygon","coordinates":[[[128.69016,35.19959],[128.69014,35.19933],[128.69289,35.19666],[128.69364,35.19559],[128.69515,35.19131],[128.69524,35.19052],[128.69465,35.19013],[128.69447,35.1918],[128.69306,35.19555],[128.69237,35.19648],[128.68908,35.19962],[128.69016,35.19959]]]}},{"type":"Feature","id":"TN_RIVER_BNDRY:WTR0100000001QQLJ","properties":{"NF_ID":"WTR0100000001QQLJ","admin_code":"48123","source_layer":"TN_RIVER_BNDRY","semantic":"zone","river_class":"지방하천","river_class_source":"중심선 공간조인","river_name":"남산천","river_code":"2720100","survey_method":"사진측량"},"geometry":{"type":"Polygon","coordinates":[[[128.69016,35.19959],[128.68899,35.20051],[128.69787,35.19919],[128.70317,35.19811],[128.70527,35.19745],[128.70774,35.19606],[128.70822,35.19565],[128.71024,35.19471],[128.71102,35.19443],[128.71212,35.19432],[128.71217,35.19419],[128.71478,35.19379],[128.7154,35.1933],[128.71616,35.19197],[128.72105,35.18913],[128.72132,35.18858],[128.72116,35.18776],[128.72126,35.18732],[128.72216,35.18582],[128.72285,35.18554],[128.72207,35.18576],[128.72108,35.18722],[128.72092,35.18775],[128.72109,35.18853],[128.7208,35.18907],[128.71598,35.19186],[128.71513,35.19321],[128.71472,35.1935],[128.71102,35.19418],[128.70984,35.19454],[128.70548,35.1969],[128.70135,35.19797],[128.70083,35.19833],[128.70018,35.19849],[128.69833,35.19892],[128.69328,35.19967],[128.69325,35.19956],[128.6903,35.19995],[128.6904,35.19974],[128.69016,35.19959]]]}},{"type":"Feature","id":"TN_RIVER_BNDRY:WTR0100000001QQNL","properties":{"NF_ID":"WTR0100000001QQNL","admin_code":"48123","source_layer":"TN_RIVER_BNDRY","semantic":"zone","river_class":"소하천","river_class_source":"중심선 공간조인","survey_method":"사진측량"},"geometry":{"type":"Polygon","coordinates":[[[128.7058,35.23144],[128.7065,35.23165],[128.70729,35.2315],[128.70832,35.23169],[128.709,35.23143],[128.70931,35.23152],[128.70986,35.23142],[128.71009,35.23155],[128.70984,35.23139],[128.70937,35.23149],[128.70868,35.23141],[128.7083,35.23165],[128.70735,35.23146],[128.7058,35.23144]]]}},{"type":"Feature","id":"TN_RIVER_BNDRY:WTR0100000001QQOM","properties":{"NF_ID":"WTR0100000001QQOM","admin_code":"48123","source_layer":"TN_RIVER_BNDRY","semantic":"zone","river_class":"지방하천","river_class_source":"중심선 공간조인","river_name":"안민천","survey_method":"사진측량"},"geometry":{"type":"Polygon","coordinates":[[[128.68156,35.19361],[128.68067,35.19255],[128.68032,35.19178],[128.67945,35.19147],[128.67887,35.191],[128.67872,35.19025],[128.67836,35.18969],[128.67857,35.19093],[128.67938,35.19154],[128.68018,35.19183],[128.68061,35.19267],[128.68145,35.19366],[128.68156,35.19361]]]}},{"type":"Feature","id":"TN_RIVER_BNDRY:WTR0100000001QQQO","properties":{"NF_ID":"WTR0100000001QQQO","admin_code":"48123","source_layer":"TN_RIVER_BNDRY","semantic":"zone","river_class":"소하천","river_class_source":"중심선 공간조인","survey_method":"사진측량"},"geometry":{"type":"Polygon","coordinates":[[[128.70183,35.17934],[128.70182,35.17933],[128.70182,35.17933],[128.70175,35.17938],[128.70172,35.17942],[128.7017,35.17946],[128.70168,35.17948],[128.70166,35.17952],[128.70165,35.17956],[128.70165,35.17958],[128.70165,35.17962],[128.70166,35.17966],[128.70166,35.17969],[128.70166,35.17971],[128.70166,35.17973],[128.70166,35.17974],[128.70165,35.17975],[128.70163,35.17976],[128.70159,35.1798],[128.70154,35.17984],[128.70152,35.17987],[128.7015,35.1799],[128.70149,35.17993],[128.70148,35.17997],[128.70147,35.18],[128.70146,35.18001],[128.70146,35.18005],[128.70146,35.18011],[128.70146,35.18016],[128.70147,35.18022],[128.70148,35.18022],[128.70149,35.18022],[128.7015,35.18022],[128.70149,35.18016],[128.70148,35.18012],[128.70149,35.18008],[128.70149,35.18004],[128.7015,35.18],[128.7015,35.18],[128.70152,35.17995],[128.70153,35.17991],[128.70155,35.17988],[128.70157,35.17986],[128.70159,35.17983],[128.70163,35.1798],[128.70167,35.17977],[128.70169,35.17975],[128.7017,35.17973],[128.7017,35.17971],[128.70169,35.17965],[128.70169,35.1796],[128.7017,35.17956],[128.70171,35.17951],[128.70173,35.17947],[128.70175,35.17944],[128.70178,35.17939],[128.70183,35.17935],[128.70184,35.17934],[128.70183,35.17934]]]}},{"type":"Feature","id":"TN_RIVER_BNDRY:WTR0100000001QQRP","properties":{"NF_ID":"WTR0100000001QQRP","admin_code":"48123","source_layer":"TN_RIVER_BNDRY","semantic":"zone","river_class":"소하천","river_class_source":"중심선 공간조인","survey_method":"사진측량"},"geometry":{"type":"Polygon","coordinates":[[[128.69873,35.18211],[128.69918,35.18188],[128.69985,35.18193],[128.70014,35.1818],[128.70084,35.18035],[128.70089,35.17988],[128.70061,35.17952],[128.70097,35.1791],[128.70098,35.17871],[128.70067,35.17825],[128.70065,35.17781],[128.70032,35.17756],[128.70043,35.17739],[128.70026,35.17586],[128.70019,35.17755],[128.70054,35.17789],[128.70093,35.17886],[128.70052,35.17953],[128.70079,35.17984],[128.70078,35.18031],[128.7,35.18176],[128.69913,35.18179],[128.69873,35.18211]]]}},{"type":"Feature","id":"TN_RIVER_BNDRY:WTR0100000001QQSQ","properties":{"NF_ID":"WTR0100000001QQSQ","admin_code":"48123","source_layer":"TN_RIVER_BNDRY","semantic":"zone","river_class":"소하천","river_class_source":"중심선 공간조인","survey_method":"사진측량"},"geometry":{"type":"Polygon","coordinates":[[[128.69513,35.18394],[128.69499,35.18357],[128.69491,35.18369],[128.69513,35.18394]]]}},{"type":"Feature","id":"TN_RIVER_BNDRY:WTR0100000001QQTR","properties":{"NF_ID":"WTR0100000001QQTR","admin_code":"48123","source_layer":"TN_RIVER_BNDRY","semantic":"zone","river_class":"소하천","river_class_source":"중심선 공간조인","survey_method":"사진측량"},"geometry":{"type":"Polygon","coordinates":[[[128.69514,35.18401],[128.69511,35.18395],[128.69511,35.18395],[128.69511,35.18396],[128.6951,35.18396],[128.6951,35.18396],[128.69509,35.18396],[128.69506,35.18397],[128.69504,35.18397],[128.69503,35.18398],[128.69501,35.18399],[128.695,35.184],[128.69499,35.18401],[128.69496,35.18404],[128.69495,35.18405],[128.69494,35.18406],[128.69492,35.18406],[128.6949,35.18406],[128.69489,35.18407],[128.69484,35.18407],[128.6948,35.18407],[128.69477,35.18407],[128.69475,35.18407],[128.69472,35.18407],[128.6947,35.18407],[128.69469,35.18408],[128.69466,35.18409],[128.69462,35.1841],[128.6946,35.18411],[128.69456,35.18412],[128.69453,35.18413],[128.69449,35.18413],[128.69446,35.18414],[128.69442,35.18414],[128.69438,35.18415],[128.69435,35.18415],[128.69433,35.18416],[128.69431,35.18417],[128.69428,35.18418],[128.69426,35.18419],[128.69424,35.1842],[128.69422,35.1842],[128.6942,35.1842],[128.69417,35.1842],[128.69416,35.1842],[128.69414,35.18419],[128.69411,35.18418],[128.69409,35.18417],[128.69408,35.18416],[128.69407,35.18416],[128.69405,35.18416],[128.69404,35.18416],[128.69404,35.18418],[128.69409,35.18421],[128.69412,35.18422],[128.69415,35.18423],[128.69419,35.18423],[128.69421,35.18423],[128.69424,35.18423],[128.69425,35.18423],[128.69426,35.18422],[128.69429,35.18421],[128.69433,35.18419],[128.69435,35.18418],[128.69438,35.18418],[128.69441,35.18417],[128.69445,35.18417],[128.69449,35.18416],[128.69453,35.18415],[128.69457,35.18415],[128.69461,35.18413],[128.69465,35.18412],[128.69469,35.1841],[128.69472,35.1841],[128.69474,35.18409],[128.69477,35.18409],[128.69481,35.18409],[128.69484,35.18409],[128.69488,35.18409],[128.6949,35.18409],[128.69494,35.18409],[128.69496,35.18408],[128.69497,35.18408],[128.69499,35.18406],[128.695,35.18405],[128.695,35.18404],[128.69502,35.18402],[128.69503,35.18402],[128.69505,35.184],[128.69507,35.18399],[128.69509,35.18399],[128.6951,35.18399],[128.69511,35.18399],[128.69512,35.18399],[128.69512,35.18399],[128.69514,35.18401]]]}},{"type":"Feature","id":"TN_RIVER_BNDRY:WTR0100000001QQUS","properties":{"NF_ID":"WTR0100000001QQUS","admin_code":"48123","source_layer":"TN_RIVER_BNDRY","semantic":"zone","river_class":"소하천","river_class_source":"중심선 공간조인","survey_method":"사진측량"},"geometry":{"type":"Polygon","coordinates":[[[128.69054,35.18483],[128.6903,35.1848],[128.69009,35.18453],[128.69017,35.18418],[128.68981,35.18351],[128.68903,35.18289],[128.68975,35.18352],[128.69012,35.1842],[128.69002,35.1845],[128.69021,35.18478],[128.69054,35.18483]]]}},{"type":"Feature","id":"TN_RIVER_BNDRY:WTR0100000001QQVT","properties":{"NF_ID":"WTR0100000001QQVT","admin_code":"48123","source_layer":"TN_RIVER_BNDRY","semantic":"zone","river_class":"소하천","river_class_source":"중심선 공간조인","survey_method":"사진측량"},"geometry":{"type":"Polygon","coordinates":[[[128.68576,35.18516],[128.68553,35.18494],[128.68502,35.18487],[128.68576,35.18516]]]}},{"type":"Feature","id":"TN_RIVER_BNDRY:WTR0100000001QQWU","properties":{"NF_ID":"WTR0100000001QQWU","admin_code":"48123","source_layer":"TN_RIVER_BNDRY","semantic":"zone","river_class":"소하천","river_class_source":"중심선 공간조인","survey_method":"사진측량"},"geometry":{"type":"Polygon","coordinates":[[[128.6879,35.18323],[128.68737,35.18296],[128.68694,35.18216],[128.68728,35.18297],[128.68782,35.18324],[128.68823,35.18399],[128.68907,35.18452],[128.68935,35.18504],[128.68987,35.18536],[128.68932,35.18496],[128.68914,35.18454],[128.68828,35.18396],[128.6879,35.18323]]]}},{"type":"Feature","id":"TN_RIVER_BNDRY:WTR0100000001QQXV","properties":{"NF_ID":"WTR0100000001QQXV","admin_code":"48123","source_layer":"TN_RIVER_BNDRY","semantic":"zone","river_class":"소하천","river_class_source":"중심선 공간조인","survey_method":"사진측량"},"geometry":{"type":"Polygon","coordinates":[[[128.67671,35.19472],[128.67692,35.19466],[128.67703,35.19463],[128.67709,35.19461],[128.67719,35.19458],[128.67725,35.19456],[128.67736,35.19453],[128.67741,35.19451],[128.67754,35.19448],[128.67764,35.19445],[128.67771,35.19443],[128.67781,35.19441],[128.67793,35.19438],[128.67804,35.19435],[128.67811,35.19433],[128.67821,35.19431],[128.67822,35.1943],[128.67824,35.1943],[128.67826,35.19429],[128.67827,35.19429],[128.67835,35.19427],[128.67842,35.19425],[128.67847,35.19424],[128.67852,35.19423],[128.67858,35.19422],[128.67862,35.1942],[128.67871,35.19418],[128.67889,35.19413],[128.67903,35.1941],[128.6791,35.19408],[128.67913,35.19407],[128.67928,35.19403],[128.6794,35.194],[128.67947,35.19399],[128.67961,35.19395],[128.67969,35.19393],[128.67978,35.19391],[128.67986,35.19388],[128.67995,35.19386],[128.68,35.19386],[128.68001,35.19386],[128.68007,35.19386],[128.68009,35.19386],[128.6801,35.19385],[128.68009,35.19385],[128.68,35.19385],[128.67996,35.19385],[128.67995,35.19385],[128.67993,35.19386],[128.67983,35.19388],[128.67967,35.19392],[128.67941,35.19399],[128.67924,35.19403],[128.6791,35.19407],[128.67908,35.19407],[128.67908,35.19407],[128.67903,35.19408],[128.67901,35.19409],[128.67899,35.1941],[128.67889,35.19412],[128.67876,35.19416],[128.67862,35.19419],[128.67857,35.19421],[128.67852,35.19422],[128.67844,35.19424],[128.67838,35.19426],[128.67835,35.19426],[128.67826,35.19429],[128.67822,35.1943],[128.67811,35.19432],[128.67805,35.19434],[128.67797,35.19436],[128.67792,35.19437],[128.67781,35.1944],[128.6777,35.19443],[128.67762,35.19445],[128.67761,35.19445],[128.67757,35.19446],[128.67756,35.19446],[128.67747,35.19449],[128.67738,35.19451],[128.67733,35.19453],[128.67721,35.19456],[128.67718,35.19458],[128.67703,35.19462],[128.67698,35.19464],[128.67695,35.19465],[128.67687,35.19467],[128.67674,35.1947],[128.67671,35.19471],[128.6767,35.1947],[128.6767,35.1947],[128.67664,35.19473],[128.67664,35.19473],[128.67664,35.19474],[128.67665,35.19474],[128.67671,35.19472]]]}},{"type":"Feature","id":"TN_RIVER_BNDRY:WTR0100000001QQYW","properties":{"NF_ID":"WTR0100000001QQYW","admin_code":"48123","source_layer":"TN_RIVER_BNDRY","semantic":"zone","river_class":"소하천","river_class_source":"중심선 공간조인","survey_method":"사진측량"},"geometry":{"type":"Polygon","coordinates":[[[128.67492,35.1936],[128.67565,35.1929],[128.67518,35.19319],[128.67492,35.1936]]]}},{"type":"Feature","id":"TN_RIVER_BNDRY:WTR0100000001QQZX","properties":{"NF_ID":"WTR0100000001QQZX","admin_code":"48123","source_layer":"TN_RIVER_BNDRY","semantic":"zone","river_class":"소하천","river_class_source":"중심선 공간조인","survey_method":"사진측량"},"geometry":{"type":"Polygon","coordinates":[[[128.67381,35.1955],[128.67362,35.19517],[128.67378,35.19491],[128.67359,35.19517],[128.67381,35.1955]]]}},{"type":"Feature","id":"TN_RIVER_BNDRY:WTR0100000001QR0Z","properties":{"NF_ID":"WTR0100000001QR0Z","admin_code":"48123","source_layer":"TN_RIVER_BNDRY","semantic":"zone","river_class":"소하천","river_class_source":"중심선 공간조인","survey_method":"사진측량"},"geometry":{"type":"Polygon","coordinates":[[[128.66135,35.19504],[128.66139,35.19428],[128.66064,35.19344],[128.66062,35.19306],[128.66045,35.19292],[128.66049,35.19342],[128.66032,35.19337],[128.66035,35.19346],[128.66116,35.19427],[128.6611,35.19504],[128.66117,35.19515],[128.66135,35.19504]]]}},{"type":"Feature","id":"TN_RIVER_BNDRY:WTR0100000001QR10","properties":{"NF_ID":"WTR0100000001QR10","admin_code":"48123","source_layer":"TN_RIVER_BNDRY","semantic":"zone","river_class":"지방하천","river_class_source":"중심선 공간조인","river_name":"안민천","river_code":"2720130","survey_method":"사진측량"},"geometry":{"type":"Polygon","coordinates":[[[128.67176,35.19644],[128.6718,35.19632],[128.67135,35.1964],[128.67027,35.19677],[128.66825,35.19766],[128.66737,35.19822],[128.67013,35.19686],[128.67127,35.19646],[128.67176,35.19644]]]}},{"type":"Feature","id":"TN_RIVER_BNDRY:WTR0100000001QR21","properties":{"NF_ID":"WTR0100000001QR21","admin_code":"48123","source_layer":"TN_RIVER_BNDRY","semantic":"zone","river_class":"소하천","river_class_source":"중심선 공간조인","survey_method":"사진측량"},"geometry":{"type":"Polygon","coordinates":[[[128.65171,35.20068],[128.64989,35.20058],[128.6496,35.20075],[128.64885,35.20044],[128.64869,35.20007],[128.64831,35.19999],[128.64866,35.2001],[128.64877,35.20042],[128.64957,35.20078],[128.64986,35.20063],[128.65171,35.20068]]]}},{"type":"Feature","id":"TN_RIVER_BNDRY:WTR0100000001QR32","properties":{"NF_ID":"WTR0100000001QR32","admin_code":"48123","source_layer":"TN_RIVER_BNDRY","semantic":"zone","river_class":"소하천","river_class_source":"중심선 공간조인","survey_method":"사진측량"},"geometry":{"type":"Polygon","coordinates":[[[128.70272,35.17875],[128.70272,35.17875],[128.70269,35.17876],[128.70268,35.17876],[128.7027,35.17884],[128.70271,35.17896],[128.70269,35.17903],[128.70272,35.17906],[128.70267,35.17912],[128.70269,35.17922],[128.7027,35.17922],[128.70274,35.17922],[128.70274,35.17922],[128.70274,35.17922],[128.70274,35.17912],[128.70279,35.17908],[128.70276,35.17904],[128.70276,35.17889],[128.70275,35.17883],[128.70274,35.17879],[128.70272,35.17875]]]}},{"type":"Feature","id":"TN_RIVER_BNDRY:WTR0100000001QR43","properties":{"NF_ID":"WTR0100000001QR43","admin_code":"48123","source_layer":"TN_RIVER_BNDRY","semantic":"zone","river_class":"소하천","river_class_source":"중심선 공간조인","survey_method":"사진측량"},"geometry":{"type":"Polygon","coordinates":[[[128.70413,35.17824],[128.7046,35.17817],[128.70494,35.17786],[128.70449,35.17818],[128.70376,35.17833],[128.70313,35.17896],[128.70375,35.17838],[128.70413,35.17824]]]}},{"type":"Feature","id":"TN_RIVER_BNDRY:WTR0100000001QR54","properties":{"NF_ID":"WTR0100000001QR54","admin_code":"48123","source_layer":"TN_RIVER_BNDRY","semantic":"zone","river_class":"소하천","river_class_source":"중심선 공간조인","survey_method":"사진측량"},"geometry":{"type":"Polygon","coordinates":[[[128.70157,35.18051],[128.70083,35.18112],[128.70142,35.18081],[128.70157,35.18051]]]}},{"type":"Feature","id":"TN_RIVER_BNDRY:WTR0100000001QR65","properties":{"NF_ID":"WTR0100000001QR65","admin_code":"48123","source_layer":"TN_RIVER_BNDRY","semantic":"zone","river_class":"소하천","river_class_source":"중심선 공간조인","survey_method":"사진측량"},"geometry":{"type":"Polygon","coordinates":[[[128.69585,35.18483],[128.69568,35.18457],[128.69589,35.18428],[128.69514,35.18401],[128.69568,35.18423],[128.69565,35.1847],[128.69585,35.18483]]]}},{"type":"Feature","id":"TN_RIVER_BNDRY:WTR0100000001QR76","properties":{"NF_ID":"WTR0100000001QR76","admin_code":"48123","source_layer":"TN_RIVER_BNDRY","semantic":"zone","river_class":"소하천","river_class_source":"중심선 공간조인","survey_method":"사진측량"},"geometry":{"type":"Polygon","coordinates":[[[128.69882,35.18227],[128.69868,35.18225],[128.69836,35.18279],[128.69742,35.1832],[128.69689,35.18395],[128.69621,35.18431],[128.69585,35.18483],[128.69601,35.18484],[128.69633,35.18436],[128.69694,35.18403],[128.69747,35.18328],[128.69864,35.18271],[128.69882,35.18227]]]}},{"type":"Feature","id":"TN_RIVER_BNDRY:WTR0100000001QR87","properties":{"NF_ID":"WTR0100000001QR87","admin_code":"48123","source_layer":"TN_RIVER_BNDRY","semantic":"zone","river_class":"소하천","river_class_source":"중심선 공간조인","survey_method":"사진측량"},"geometry":{"type":"Polygon","coordinates":[[[128.69517,35.184],[128.69517,35.18399],[128.69513,35.18394],[128.69513,35.18394],[128.69511,35.18395],[128.69514,35.18401],[128.69517,35.184]]]}},{"type":"Feature","id":"TN_RIVER_BNDRY:WTR0100000001QR98","properties":{"NF_ID":"WTR0100000001QR98","admin_code":"48123","source_layer":"TN_RIVER_BNDRY","semantic":"zone","river_class":"소하천","river_class_source":"중심선 공간조인","survey_method":"사진측량"},"geometry":{"type":"Polygon","coordinates":[[[128.69873,35.18211],[128.69823,35.18187],[128.69868,35.18225],[128.69873,35.18211]]]}},{"type":"Feature","id":"TN_RIVER_BNDRY:WTR0100000001QRA9","properties":{"NF_ID":"WTR0100000001QRA9","admin_code":"48123","source_layer":"TN_RIVER_BNDRY","semantic":"zone","river_class":"소하천","river_class_source":"중심선 공간조인","survey_method":"사진측량"},"geometry":{"type":"Polygon","coordinates":[[[128.69886,35.18213],[128.69873,35.18211],[128.69868,35.18225],[128.69882,35.18227],[128.69882,35.18226],[128.69883,35.18223],[128.69885,35.18218],[128.69885,35.18218],[128.69885,35.18215],[128.69886,35.18213]]]}},{"type":"Feature","id":"TN_RIVER_BNDRY:WTR0100000001QRBA","properties":{"NF_ID":"WTR0100000001QRBA","admin_code":"48123","source_layer":"TN_RIVER_BNDRY","semantic":"zone","river_class":"소하천","river_class_source":"중심선 공간조인","survey_method":"사진측량"},"geometry":{"type":"Polygon","coordinates":[[[128.69601,35.18484],[128.69585,35.18483],[128.69587,35.18489],[128.696,35.18491],[128.696,35.18489],[128.696,35.18487],[128.69601,35.18485],[128.69601,35.18484]]]}},{"type":"Feature","id":"TN_RIVER_BNDRY:WTR0100000001QRCB","properties":{"NF_ID":"WTR0100000001QRCB","admin_code":"48123","source_layer":"TN_RIVER_BNDRY","semantic":"zone","river_class":"소하천","river_class_source":"중심선 공간조인","survey_method":"사진측량"},"geometry":{"type":"Polygon","coordinates":[[[128.69828,35.18176],[128.69828,35.18186],[128.69832,35.18182],[128.6984,35.18176],[128.69846,35.18171],[128.69854,35.18164],[128.69857,35.18162],[128.6986,35.1816],[128.69862,35.18158],[128.69865,35.18154],[128.69866,35.18153],[128.69867,35.18151],[128.69871,35.18147],[128.69876,35.18146],[128.69876,35.18145],[128.69869,35.18142],[128.69867,35.18143],[128.69865,35.18145],[128.69864,35.18147],[128.69858,35.18154],[128.69857,35.18155],[128.69856,35.18157],[128.69855,35.18158],[128.69853,35.18161],[128.69849,35.18163],[128.69844,35.18168],[128.69838,35.18173],[128.69834,35.18177],[128.69833,35.18178],[128.69832,35.18178],[128.69832,35.18178],[128.69831,35.18178],[128.69829,35.18177],[128.69829,35.18177],[128.69828,35.18176]]]}},{"type":"Feature","id":"TN_RIVER_BNDRY:WTR0100000001QRDC","properties":{"NF_ID":"WTR0100000001QRDC","admin_code":"48123","source_layer":"TN_RIVER_BNDRY","semantic":"zone","river_class":"소하천","river_class_source":"중심선 공간조인","survey_method":"사진측량"},"geometry":{"type":"Polygon","coordinates":[[[128.69828,35.18186],[128.69828,35.18176],[128.6982,35.18177],[128.6982,35.1818],[128.6982,35.18182],[128.69821,35.18185],[128.69823,35.18187],[128.69828,35.18186]]]}},{"type":"Feature","id":"TN_RIVER_BNDRY:WTR0100000001QRED","properties":{"NF_ID":"WTR0100000001QRED","admin_code":"48123","source_layer":"TN_RIVER_BNDRY","semantic":"zone","river_class":"소하천","river_class_source":"중심선 공간조인","survey_method":"사진측량"},"geometry":{"type":"Polygon","coordinates":[[[128.69828,35.18176],[128.69827,35.18174],[128.69826,35.18171],[128.69826,35.18169],[128.69825,35.18167],[128.69825,35.18165],[128.69826,35.18163],[128.69826,35.18162],[128.69827,35.1816],[128.69827,35.18159],[128.69829,35.18157],[128.6983,35.18153],[128.69832,35.18151],[128.69833,35.18149],[128.69833,35.18146],[128.69831,35.18144],[128.69829,35.18144],[128.69824,35.18151],[128.69822,35.18154],[128.6982,35.18159],[128.69819,35.18162],[128.69819,35.18165],[128.6982,35.1817],[128.6982,35.18175],[128.6982,35.18177],[128.69828,35.18176]]]}},{"type":"Feature","id":"TN_RIVER_BNDRY:WTR0100000001QRFE","properties":{"NF_ID":"WTR0100000001QRFE","admin_code":"48123","source_layer":"TN_RIVER_BNDRY","semantic":"zone","river_class":"소하천","river_class_source":"중심선 공간조인","survey_method":"사진측량"},"geometry":{"type":"Polygon","coordinates":[[[128.69259,35.18339],[128.6922,35.18269],[128.69246,35.18333],[128.69283,35.18355],[128.69259,35.18339]]]}},{"type":"Feature","id":"TN_RIVER_BNDRY:WTR0100000001QRGF","properties":{"NF_ID":"WTR0100000001QRGF","admin_code":"48123","source_layer":"TN_RIVER_BNDRY","semantic":"zone","river_class":"소하천","river_class_source":"중심선 공간조인","survey_method":"사진측량"},"geometry":{"type":"Polygon","coordinates":[[[128.68801,35.18053],[128.688,35.18059],[128.68803,35.18062],[128.68807,35.18066],[128.68812,35.18072],[128.68815,35.18076],[128.68817,35.18081],[128.68821,35.18087],[128.68825,35.18093],[128.68828,35.18098],[128.6883,35.18102],[128.68832,35.18106],[128.68834,35.18111],[128.68836,35.18118],[128.68838,35.18122],[128.6884,35.18126],[128.68843,35.18136],[128.68843,35.1814],[128.68842,35.18142],[128.68841,35.18144],[128.68841,35.18146],[128.68841,35.18147],[128.68841,35.18148],[128.68842,35.18149],[128.68842,35.1815],[128.68847,35.18156],[128.68851,35.18162],[128.68855,35.18166],[128.68858,35.18169],[128.68862,35.18172],[128.68865,35.18174],[128.68868,35.18177],[128.68869,35.18181],[128.6887,35.18184],[128.68871,35.18192],[128.68876,35.18202],[128.6888,35.18215],[128.68885,35.18226],[128.68886,35.18227],[128.68888,35.18226],[128.68889,35.18225],[128.68887,35.18221],[128.68884,35.18213],[128.68881,35.18206],[128.68876,35.18194],[128.68875,35.18187],[128.68873,35.18179],[128.68871,35.18175],[128.68868,35.18171],[128.68864,35.18168],[128.6886,35.18166],[128.68851,35.18155],[128.68848,35.1815],[128.68846,35.18147],[128.68846,35.18145],[128.68846,35.18143],[128.68847,35.18141],[128.68848,35.18136],[128.68845,35.18126],[128.68844,35.1812],[128.68843,35.18115],[128.68841,35.18112],[128.68837,35.18108],[128.68834,35.181],[128.68832,35.18096],[128.68831,35.18093],[128.68827,35.18089],[128.68822,35.18082],[128.68816,35.18073],[128.68811,35.18066],[128.68807,35.18061],[128.68804,35.18057],[128.68802,35.18055],[128.68801,35.18053]]]}},{"type":"Feature","id":"TN_RIVER_BNDRY:WTR0100000001QRHG","properties":{"NF_ID":"WTR0100000001QRHG","admin_code":"48123","source_layer":"TN_RIVER_BNDRY","semantic":"zone","river_class":"소하천","river_class_source":"중심선 공간조인","survey_method":"사진측량"},"geometry":{"type":"Polygon","coordinates":[[[128.6865,35.18187],[128.68643,35.18173],[128.68631,35.18183],[128.68587,35.18128],[128.68628,35.18187],[128.68668,35.18207],[128.6865,35.18187]]]}},{"type":"Feature","id":"TN_RIVER_BNDRY:WTR0100000001QRIH","properties":{"NF_ID":"WTR0100000001QRIH","admin_code":"48123","source_layer":"TN_RIVER_BNDRY","semantic":"zone","river_class":"소하천","river_class_source":"중심선 공간조인","survey_method":"사진측량"},"geometry":{"type":"Polygon","coordinates":[[[128.68797,35.18053],[128.68801,35.18053],[128.688,35.18052],[128.68799,35.18049],[128.68798,35.18046],[128.68797,35.18044],[128.68796,35.18043],[128.68793,35.1804],[128.6879,35.18035],[128.68787,35.18031],[128.68784,35.18027],[128.68781,35.18023],[128.68777,35.18018],[128.68775,35.18014],[128.68771,35.18009],[128.68768,35.18006],[128.68768,35.18005],[128.68764,35.18008],[128.68764,35.18008],[128.68765,35.18009],[128.68766,35.1801],[128.6877,35.18014],[128.68772,35.18018],[128.68776,35.18022],[128.68779,35.18026],[128.68781,35.18029],[128.68784,35.18032],[128.68786,35.18035],[128.68789,35.18038],[128.68791,35.18041],[128.68793,35.18043],[128.68795,35.18045],[128.68796,35.18046],[128.68797,35.18048],[128.68797,35.1805],[128.68797,35.18051],[128.68797,35.18052],[128.68797,35.18053],[128.68797,35.18053]]]}},{"type":"Feature","id":"TN_RIVER_BNDRY:WTR0100000001QRJI","properties":{"NF_ID":"WTR0100000001QRJI","admin_code":"48123","source_layer":"TN_RIVER_BNDRY","semantic":"zone","river_class":"소하천","river_class_source":"중심선 공간조인","survey_method":"사진측량"},"geometry":{"type":"Polygon","coordinates":[[[128.68801,35.18053],[128.68797,35.18053],[128.68797,35.18057],[128.688,35.18059],[128.68801,35.18053]]]}},{"type":"Feature","id":"TN_RIVER_BNDRY:WTR0100000001QRKJ","properties":{"NF_ID":"WTR0100000001QRKJ","admin_code":"48123","source_layer":"TN_RIVER_BNDRY","semantic":"zone","river_class":"소하천","river_class_source":"중심선 공간조인","survey_method":"사진측량"},"geometry":{"type":"Polygon","coordinates":[[[128.68686,35.1821],[128.68683,35.18209],[128.68682,35.1821],[128.68685,35.18211],[128.68685,35.18211],[128.68686,35.18211],[128.68686,35.1821]]]}},{"type":"Feature","id":"TN_RIVER_BNDRY:WTR0100000001QRLK","properties":{"NF_ID":"WTR0100000001QRLK","admin_code":"48123","source_layer":"TN_RIVER_BNDRY","semantic":"zone","river_class":"소하천","river_class_source":"중심선 공간조인","survey_method":"사진측량"},"geometry":{"type":"Polygon","coordinates":[[[128.68401,35.18311],[128.68347,35.18302],[128.68396,35.18315],[128.68481,35.18372],[128.68401,35.18311]]]}},{"type":"Feature","id":"TN_RIVER_BNDRY:WTR0100000001QRML","properties":{"NF_ID":"WTR0100000001QRML","admin_code":"48123","source_layer":"TN_RIVER_BNDRY","semantic":"zone","river_class":"지방하천","river_class_source":"중심선 공간조인","river_name":"안민천","survey_method":"사진측량"},"geometry":{"type":"Polygon","coordinates":[[[128.6784,35.18964],[128.67873,35.18901],[128.67844,35.18845],[128.67869,35.1881],[128.67839,35.18839],[128.67868,35.189],[128.6784,35.18964]]]}},{"type":"Feature","id":"TN_RIVER_BNDRY:WTR0100000001QRNM","properties":{"NF_ID":"WTR0100000001QRNM","admin_code":"48123","source_layer":"TN_RIVER_BNDRY","semantic":"zone","river_class":"소하천","river_class_source":"중심선 공간조인","survey_method":"사진측량"},"geometry":{"type":"Polygon","coordinates":[[[128.6784,35.18964],[128.678,35.18882],[128.67796,35.18837],[128.67741,35.18802],[128.67669,35.18789],[128.67626,35.18679],[128.67597,35.18648],[128.67609,35.18667],[128.67547,35.18635],[128.67498,35.1863],[128.67552,35.1864],[128.67622,35.18678],[128.67665,35.18795],[128.67725,35.18801],[128.67789,35.18844],[128.67794,35.18884],[128.6784,35.18964]]]}},{"type":"Feature","id":"TN_RIVER_BNDRY:WTR0100000001QRON","properties":{"NF_ID":"WTR0100000001QRON","admin_code":"48123","source_layer":"TN_RIVER_BNDRY","semantic":"zone","river_class":"지방하천","river_class_source":"중심선 공간조인","river_name":"안민천","survey_method":"사진측량"},"geometry":{"type":"Polygon","coordinates":[[[128.6784,35.18964],[128.67835,35.18967],[128.67835,35.18968],[128.67836,35.18969],[128.67844,35.18969],[128.6784,35.18964]]]}},{"type":"Feature","id":"TN_RIVER_BNDRY:WTR0100000001QRPO","properties":{"NF_ID":"WTR0100000001QRPO","admin_code":"48123","source_layer":"TN_RIVER_BNDRY","semantic":"zone","river_class":"소하천","river_class_source":"중심선 공간조인","survey_method":"사진측량"},"geometry":{"type":"Polygon","coordinates":[[[128.68535,35.19083],[128.68531,35.19079],[128.68526,35.19083],[128.68525,35.19083],[128.6853,35.19086],[128.68535,35.19089],[128.68558,35.19106],[128.68563,35.1911],[128.68566,35.19113],[128.68569,35.19113],[128.68569,35.19113],[128.68572,35.19111],[128.68572,35.1911],[128.68572,35.19108],[128.68548,35.19092],[128.68537,35.19084],[128.68535,35.19083]]]}},{"type":"Feature","id":"TN_RIVER_BNDRY:WTR0100000001QRQP","properties":{"NF_ID":"WTR0100000001QRQP","admin_code":"48123","source_layer":"TN_RIVER_BNDRY","semantic":"zone","river_class":"지방하천","river_class_source":"중심선 공간조인","river_name":"안민천","survey_method":"사진측량"},"geometry":{"type":"Polygon","coordinates":[[[128.68163,35.19369],[128.68156,35.19361],[128.68144,35.19373],[128.68163,35.19369]]]}},{"type":"Feature","id":"TN_RIVER_BNDRY:WTR0100000001QRRQ","properties":{"NF_ID":"WTR0100000001QRRQ","admin_code":"48123","source_layer":"TN_RIVER_BNDRY","semantic":"zone","river_class":"소하천","river_class_source":"중심선 공간조인","survey_method":"사진측량"},"geometry":{"type":"Polygon","coordinates":[[[128.68065,35.19369],[128.68065,35.19369],[128.68064,35.19369],[128.68055,35.19374],[128.68051,35.19375],[128.68045,35.19378],[128.68034,35.19381],[128.68034,35.19382],[128.68035,35.19382],[128.68037,35.19381],[128.68041,35.1938],[128.68044,35.19379],[128.68045,35.19378],[128.68049,35.19377],[128.68058,35.19373],[128.68065,35.1937],[128.68065,35.19369]]]}},{"type":"Feature","id":"TN_RIVER_BNDRY:WTR0100000001QRSR","properties":{"NF_ID":"WTR0100000001QRSR","admin_code":"48123","source_layer":"TN_RIVER_BNDRY","semantic":"zone","river_class":"소하천","river_class_source":"중심선 공간조인","survey_method":"사진측량"},"geometry":{"type":"Polygon","coordinates":[[[128.68101,35.19349],[128.68101,35.19349],[128.68101,35.19349],[128.68101,35.19349],[128.68096,35.19351],[128.68086,35.19356],[128.68075,35.19361],[128.68072,35.19363],[128.68072,35.19363],[128.68073,35.19364],[128.68073,35.19364],[128.68074,35.19364],[128.6808,35.19361],[128.68086,35.19357],[128.6809,35.19355],[128.68096,35.19352],[128.68099,35.1935],[128.68101,35.19349],[128.68101,35.19349]]]}},{"type":"Feature","id":"TN_RIVER_BNDRY:WTR0100000001QRTS","properties":{"NF_ID":"WTR0100000001QRTS","admin_code":"48123","source_layer":"TN_RIVER_BNDRY","semantic":"zone","river_class":"소하천","river_class_source":"중심선 공간조인","survey_method":"사진측량"},"geometry":{"type":"Polygon","coordinates":[[[128.67631,35.19205],[128.67656,35.19185],[128.677,35.19094],[128.67631,35.19205]]]}},{"type":"Feature","id":"TN_RIVER_BNDRY:WTR0100000001QRUT","properties":{"NF_ID":"WTR0100000001QRUT","admin_code":"48123","source_layer":"TN_RIVER_BNDRY","semantic":"zone","river_class":"소하천","river_class_source":"중심선 공간조인","survey_method":"사진측량"},"geometry":{"type":"Polygon","coordinates":[[[128.67417,35.19375],[128.67416,35.19375],[128.67415,35.19375],[128.67414,35.19376],[128.67414,35.19377],[128.67414,35.19383],[128.67415,35.19387],[128.67414,35.19392],[128.67413,35.19399],[128.67412,35.19404],[128.67412,35.19406],[128.67412,35.19419],[128.67411,35.19437],[128.67413,35.19454],[128.67415,35.19473],[128.67415,35.19474],[128.67416,35.19474],[128.67418,35.19474],[128.67418,35.19474],[128.67418,35.19471],[128.67416,35.19456],[128.67415,35.19444],[128.67415,35.19443],[128.67416,35.19441],[128.67419,35.19429],[128.6742,35.19426],[128.6742,35.19426],[128.67421,35.19425],[128.67422,35.19425],[128.67423,35.19425],[128.67424,35.19425],[128.67424,35.19424],[128.67424,35.19424],[128.67418,35.19422],[128.67416,35.19421],[128.67416,35.1942],[128.67416,35.19418],[128.67417,35.19411],[128.67418,35.19406],[128.67419,35.19393],[128.6742,35.19387],[128.67419,35.1938],[128.67418,35.19376],[128.67417,35.19375],[128.67417,35.19375]]]}},{"type":"Feature","id":"TN_RIVER_BNDRY:WTR0100000001QRVU","properties":{"NF_ID":"WTR0100000001QRVU","admin_code":"48123","source_layer":"TN_RIVER_BNDRY","semantic":"zone","river_class":"지방하천","river_class_source":"중심선 공간조인","river_name":"안민천","river_code":"2720130","survey_method":"사진측량"},"geometry":{"type":"Polygon","coordinates":[[[128.67194,35.19649],[128.67186,35.19639],[128.67176,35.19644],[128.67185,35.19656],[128.67194,35.19649]]]}},{"type":"Feature","id":"TN_RIVER_BNDRY:WTR0100000001QRWV","properties":{"NF_ID":"WTR0100000001QRWV","admin_code":"48123","source_layer":"TN_RIVER_BNDRY","semantic":"zone","river_class":"소하천","river_class_source":"중심선 공간조인","survey_method":"사진측량"},"geometry":{"type":"Polygon","coordinates":[[[128.6739,35.19587],[128.67386,35.19575],[128.6723,35.19614],[128.67186,35.19639],[128.67194,35.19649],[128.67234,35.19624],[128.6739,35.19587]]]}},{"type":"Feature","id":"TN_RIVER_BNDRY:WTR0100000001QRXW","properties":{"NF_ID":"WTR0100000001QRXW","admin_code":"48123","source_layer":"TN_RIVER_BNDRY","semantic":"zone","river_class":"소하천","river_class_source":"중심선 공간조인","survey_method":"사진측량"},"geometry":{"type":"Polygon","coordinates":[[[128.67395,35.19586],[128.67392,35.19574],[128.67386,35.19575],[128.6739,35.19587],[128.67395,35.19586]]]}},{"type":"Feature","id":"TN_RIVER_BNDRY:WTR0100000001QRYX","properties":{"NF_ID":"WTR0100000001QRYX","admin_code":"48123","source_layer":"TN_RIVER_BNDRY","semantic":"zone","river_class":"소하천","river_class_source":"중심선 공간조인","survey_method":"사진측량"},"geometry":{"type":"Polygon","coordinates":[[[128.67392,35.19574],[128.67395,35.19586],[128.67505,35.19548],[128.67392,35.19574]]]}},{"type":"Feature","id":"TN_RIVER_BNDRY:WTR0100000001QRZY","properties":{"NF_ID":"WTR0100000001QRZY","admin_code":"48123","source_layer":"TN_RIVER_BNDRY","semantic":"zone","river_class":"소하천","river_class_source":"중심선 공간조인","survey_method":"사진측량"},"geometry":{"type":"Polygon","coordinates":[[[128.67392,35.19574],[128.67391,35.19573],[128.67391,35.19573],[128.67389,35.19568],[128.67386,35.19557],[128.67386,35.19554],[128.6738,35.19556],[128.67381,35.19557],[128.67386,35.19572],[128.67386,35.19574],[128.67386,35.19575],[128.67392,35.19574]]]}},{"type":"Feature","id":"TN_RIVER_BNDRY:WTR0100000001QS00","properties":{"NF_ID":"WTR0100000001QS00","admin_code":"48123","source_layer":"TN_RIVER_BNDRY","semantic":"zone","river_class":"소하천","river_class_source":"중심선 공간조인","survey_method":"사진측량"},"geometry":{"type":"Polygon","coordinates":[[[128.67386,35.19554],[128.67381,35.1955],[128.67377,35.19551],[128.6738,35.19556],[128.67386,35.19554]]]}},{"type":"Feature","id":"TN_RIVER_BNDRY:WTR0100000001QS11","properties":{"NF_ID":"WTR0100000001QS11","admin_code":"48123","source_layer":"TN_RIVER_BNDRY","semantic":"zone","river_class":"지방하천","river_class_source":"중심선 공간조인","river_name":"상복천","river_code":"2720150","survey_method":"사진측량"},"geometry":{"type":"Polygon","coordinates":[[[128.66167,35.19524],[128.66135,35.19504],[128.66117,35.19515],[128.66138,35.19543],[128.66167,35.19524]]]}},{"type":"Feature","id":"TN_RIVER_BNDRY:WTR0100000001QS22","properties":{"NF_ID":"WTR0100000001QS22","admin_code":"48123","source_layer":"TN_RIVER_BNDRY","semantic":"zone","river_class":"소하천","river_class_source":"중심선 공간조인","survey_method":"사진측량"},"geometry":{"type":"Polygon","coordinates":[[[128.65174,35.20065],[128.65186,35.20102],[128.65199,35.20095],[128.65174,35.20065]]]}},{"type":"Feature","id":"TN_RIVER_BNDRY:WTR0100000001QS33","properties":{"NF_ID":"WTR0100000001QS33","admin_code":"48123","source_layer":"TN_RIVER_BNDRY","semantic":"zone","river_class":"소하천","river_class_source":"중심선 공간조인","survey_method":"사진측량"},"geometry":{"type":"Polygon","coordinates":[[[128.65174,35.20065],[128.65171,35.20063],[128.65168,35.2006],[128.65165,35.20057],[128.65158,35.2006],[128.65171,35.20068],[128.65174,35.20065]]]}},{"type":"Feature","id":"TN_RIVER_BNDRY:WTR0100000001QS44","properties":{"NF_ID":"WTR0100000001QS44","admin_code":"48123","source_layer":"TN_RIVER_BNDRY","semantic":"zone","river_class":"소하천","river_class_source":"중심선 공간조인","survey_method":"사진측량"},"geometry":{"type":"Polygon","coordinates":[[[128.70518,35.23083],[128.70444,35.23083],[128.70405,35.23065],[128.70396,35.23031],[128.70403,35.23067],[128.70439,35.23086],[128.7053,35.23093],[128.70518,35.23083]]]}},{"type":"Feature","id":"TN_RIVER_BNDRY:WTR0100000001QS88","properties":{"NF_ID":"WTR0100000001QS88","admin_code":"48123","source_layer":"TN_RIVER_BNDRY","semantic":"zone","river_class":"소하천","river_class_source":"중심선 공간조인","survey_method":"사진측량"},"geometry":{"type":"Polygon","coordinates":[[[128.70698,35.23192],[128.70711,35.23237],[128.7072,35.23225],[128.70698,35.23192]]]}},{"type":"Feature","id":"TN_RIVER_BNDRY:WTR0100000001QS99","properties":{"NF_ID":"WTR0100000001QS99","admin_code":"48123","source_layer":"TN_RIVER_BNDRY","semantic":"zone","river_class":"소하천","river_class_source":"중심선 공간조인","survey_method":"사진측량"},"geometry":{"type":"Polygon","coordinates":[[[128.70637,35.23045],[128.70601,35.23028],[128.70492,35.23029],[128.70563,35.23027],[128.70637,35.23045]]]}},{"type":"Feature","id":"TN_RIVER_BNDRY:WTR0100000001QSAA","properties":{"NF_ID":"WTR0100000001QSAA","admin_code":"48123","source_layer":"TN_RIVER_BNDRY","semantic":"zone","river_class":"소하천","river_class_source":"중심선 공간조인","survey_method":"사진측량"},"geometry":{"type":"Polygon","coordinates":[[[128.7058,35.23144],[128.70579,35.23143],[128.70578,35.23142],[128.70573,35.23144],[128.7058,35.23147],[128.7058,35.23144]]]}},{"type":"Feature","id":"TN_RIVER_BNDRY:WTR0100000001QSBB","properties":{"NF_ID":"WTR0100000001QSBB","admin_code":"48123","source_layer":"TN_RIVER_BNDRY","semantic":"zone","river_class":"소하천","river_class_source":"중심선 공간조인","survey_method":"사진측량"},"geometry":{"type":"Polygon","coordinates":[[[128.70578,35.23142],[128.70568,35.23112],[128.7052,35.23109],[128.70521,35.23123],[128.70561,35.2312],[128.70578,35.23142]]]}},{"type":"Feature","id":"TN_RIVER_BNDRY:WTR0100000001QSCC","properties":{"NF_ID":"WTR0100000001QSCC","admin_code":"48123","source_layer":"TN_RIVER_BNDRY","semantic":"zone","river_class":"소하천","river_class_source":"중심선 공간조인","survey_method":"사진측량"},"geometry":{"type":"Polygon","coordinates":[[[128.7058,35.23147],[128.70573,35.23144],[128.70574,35.23147],[128.70574,35.23148],[128.70574,35.2315],[128.70574,35.23151],[128.70573,35.23154],[128.70573,35.23157],[128.70573,35.23161],[128.70573,35.23167],[128.70573,35.23167],[128.70574,35.23167],[128.70574,35.23167],[128.70575,35.23161],[128.70576,35.23152],[128.70577,35.23149],[128.70577,35.23148],[128.70577,35.23148],[128.70577,35.23147],[128.70577,35.23147],[128.7058,35.23147]]]}},{"type":"Feature","id":"TN_RIVER_BNDRY:WTR0100000001QSDD","properties":{"NF_ID":"WTR0100000001QSDD","admin_code":"48123","source_layer":"TN_RIVER_BNDRY","semantic":"zone","river_class":"소하천","river_class_source":"중심선 공간조인","survey_method":"사진측량"},"geometry":{"type":"Polygon","coordinates":[[[128.70421,35.23111],[128.70455,35.23139],[128.70465,35.23168],[128.70459,35.23139],[128.70421,35.23111]]]}},{"type":"Feature","id":"TN_RIVER_BNDRY:WTR0100000001QSMM","properties":{"NF_ID":"WTR0100000001QSMM","admin_code":"48123","source_layer":"TN_RIVER_BNDRY","semantic":"zone","river_class":"소하천","river_class_source":"중심선 공간조인","survey_method":"사진측량"},"geometry":{"type":"Polygon","coordinates":[[[128.69013,35.18939],[128.69008,35.18932],[128.69003,35.18935],[128.69008,35.18942],[128.6901,35.18941],[128.69013,35.18939]]]}},{"type":"Feature","id":"TN_RIVER_BNDRY:WTR0100000001QSNN","properties":{"NF_ID":"WTR0100000001QSNN","admin_code":"48123","source_layer":"TN_RIVER_BNDRY","semantic":"zone","river_class":"소하천","river_class_source":"중심선 공간조인","survey_method":"사진측량"},"geometry":{"type":"Polygon","coordinates":[[[128.69008,35.18932],[128.69013,35.18939],[128.69021,35.18934],[128.69018,35.1893],[128.69008,35.18932]]]}},{"type":"Feature","id":"TN_RIVER_BNDRY:WTR0100000001QSQQ","properties":{"NF_ID":"WTR0100000001QSQQ","admin_code":"48123","source_layer":"TN_RIVER_BNDRY","semantic":"zone","river_class":"지방하천","river_class_source":"중심선 공간조인","river_name":"토월천","river_code":"2720130","survey_method":"사진측량"},"geometry":{"type":"Polygon","coordinates":[[[128.69397,35.22753],[128.69383,35.22769],[128.69692,35.22729],[128.69397,35.22753]]]}},{"type":"Feature","id":"TN_RIVER_BNDRY:WTR0100000001QSRR","properties":{"NF_ID":"WTR0100000001QSRR","admin_code":"48123","source_layer":"TN_RIVER_BNDRY","semantic":"zone","river_class":"소하천","river_class_source":"중심선 공간조인","survey_method":"사진측량"},"geometry":{"type":"Polygon","coordinates":[[[128.69073,35.18503],[128.69069,35.18538],[128.69114,35.18583],[128.69074,35.18538],[128.69073,35.18503]]]}},{"type":"Feature","id":"TN_RIVER_BNDRY:WTR0100000001QSSS","properties":{"NF_ID":"WTR0100000001QSSS","admin_code":"48123","source_layer":"TN_RIVER_BNDRY","semantic":"zone","river_class":"지방하천","river_class_source":"중심선 공간조인","river_name":"창원천","river_code":"2720170","survey_method":"사진측량"},"geometry":{"type":"Polygon","coordinates":[[[128.64909,35.23798],[128.64751,35.2363],[128.64746,35.23596],[128.64502,35.23307],[128.6444,35.23225],[128.64439,35.23201],[128.63699,35.22397],[128.63637,35.2244],[128.63649,35.22464],[128.64423,35.23323],[128.64457,35.23333],[128.648,35.23747],[128.64811,35.23798],[128.64842,35.23836],[128.64909,35.23798]]]}},{"type":"Feature","id":"TN_RIVER_BNDRY:WTR0100000001QSTT","properties":{"NF_ID":"WTR0100000001QSTT","admin_code":"48123","source_layer":"TN_RIVER_BNDRY","semantic":"zone","river_class":"지방하천","river_class_source":"중심선 공간조인","river_name":"창원천","river_code":"2720170","survey_method":"사진측량"},"geometry":{"type":"Polygon","coordinates":[[[128.64914,35.23805],[128.64842,35.23836],[128.64852,35.2385],[128.64914,35.23805]]]}},{"type":"Feature","id":"TN_RIVER_BNDRY:WTR0100000001QSUU","properties":{"NF_ID":"WTR0100000001QSUU","admin_code":"48123","source_layer":"TN_RIVER_BNDRY","semantic":"zone","river_class":"지방하천","river_class_source":"중심선 공간조인","river_name":"창원천","river_code":"2720170","survey_method":"사진측량"},"geometry":{"type":"Polygon","coordinates":[[[128.6523,35.24177],[128.65264,35.24158],[128.65072,35.24019],[128.64914,35.23805],[128.64852,35.2385],[128.6488,35.23848],[128.65055,35.24058],[128.65185,35.24147],[128.65209,35.24181],[128.6523,35.24177]]]}},{"type":"Feature","id":"TN_RIVER_BNDRY:WTR0100000001QSVV","properties":{"NF_ID":"WTR0100000001QSVV","admin_code":"48123","source_layer":"TN_RIVER_BNDRY","semantic":"zone","river_class":"지방하천","river_class_source":"중심선 공간조인","river_name":"토월천","river_code":"2720130","survey_method":"사진측량"},"geometry":{"type":"Polygon","coordinates":[[[128.69393,35.2275],[128.69143,35.22503],[128.69111,35.225],[128.69376,35.22764],[128.69393,35.2275]]]}},{"type":"Feature","id":"TN_RIVER_BNDRY:WTR0100000001QSWW","properties":{"NF_ID":"WTR0100000001QSWW","admin_code":"48123","source_layer":"TN_RIVER_BNDRY","semantic":"zone","river_class":"지방하천","river_class_source":"중심선 공간조인","river_name":"내동천","river_code":"2720200","survey_method":"사진측량"},"geometry":{"type":"Polygon","coordinates":[[[128.65264,35.24158],[128.65292,35.24174],[128.65968,35.23891],[128.67314,35.23211],[128.67627,35.23557],[128.67312,35.232],[128.65973,35.23873],[128.65264,35.24158]]]}},{"type":"Feature","id":"TN_RIVER_BNDRY:WTR0100000001QSXX","properties":{"NF_ID":"WTR0100000001QSXX","admin_code":"48123","source_layer":"TN_RIVER_BNDRY","semantic":"zone","river_class":"지방하천","river_class_source":"중심선 공간조인","river_name":"창원천","river_code":"2720170","survey_method":"사진측량"},"geometry":{"type":"Polygon","coordinates":[[[128.65292,35.24174],[128.65264,35.24158],[128.6523,35.24177],[128.65292,35.24174]]]}},{"type":"Feature","id":"TN_RIVER_BNDRY:WTR0100000001QSYY","properties":{"NF_ID":"WTR0100000001QSYY","admin_code":"48123","source_layer":"TN_RIVER_BNDRY","semantic":"zone","river_class":"지방하천","river_class_source":"중심선 공간조인","river_name":"사림천","river_code":"2022280","survey_method":"사진측량"},"geometry":{"type":"Polygon","coordinates":[[[128.68145,35.2421],[128.68124,35.2418],[128.68117,35.24182],[128.68114,35.24183],[128.68136,35.24214],[128.68145,35.2421]]]}},{"type":"Feature","id":"TN_RIVER_BNDRY:WTR0100000001QSZZ","properties":{"NF_ID":"WTR0100000001QSZZ","admin_code":"48123","source_layer":"TN_RIVER_BNDRY","semantic":"zone","river_class":"지방하천","river_class_source":"중심선 공간조인","river_name":"토월천","river_code":"2720130","survey_method":"사진측량"},"geometry":{"type":"Polygon","coordinates":[[[128.69397,35.22753],[128.69393,35.2275],[128.69376,35.22764],[128.69383,35.22769],[128.69397,35.22753]]]}},{"type":"Feature","id":"TN_RIVER_BNDRY:WTR0100000001QT01","properties":{"NF_ID":"WTR0100000001QT01","admin_code":"48123","source_layer":"TN_RIVER_BNDRY","semantic":"zone","river_class":"소하천","river_class_source":"중심선 공간조인","survey_method":"사진측량"},"geometry":{"type":"Polygon","coordinates":[[[128.69383,35.22769],[128.69118,35.23028],[128.69117,35.2305],[128.69371,35.23337],[128.6928,35.23466],[128.69381,35.23335],[128.69125,35.23033],[128.69383,35.22769]]]}},{"type":"Feature","id":"TN_RIVER_BNDRY:WTR0100000001QT12","properties":{"NF_ID":"WTR0100000001QT12","admin_code":"48123","source_layer":"TN_RIVER_BNDRY","semantic":"zone","river_class":"지방하천","river_class_source":"중심선 공간조인","river_name":"남천","river_code":"2720090","survey_method":"사진측량"},"geometry":{"type":"Polygon","coordinates":[[[128.67129,35.21081],[128.67077,35.2102],[128.66707,35.21229],[128.6622,35.21509],[128.6625,35.21583],[128.66906,35.21196],[128.67129,35.21081]]]}},{"type":"Feature","id":"TN_RIVER_BNDRY:WTR0100000001QT23","properties":{"NF_ID":"WTR0100000001QT23","admin_code":"48123","source_layer":"TN_RIVER_BNDRY","semantic":"zone","river_class":"지방하천","river_class_source":"중심선 공간조인","river_name":"남천","river_code":"2720090","survey_method":"사진측량"},"geometry":{"type":"Polygon","coordinates":[[[128.6796,35.20573],[128.67936,35.20541],[128.67121,35.21007],[128.67181,35.2105],[128.6727,35.20997],[128.67264,35.20979],[128.6796,35.20573]]]}},{"type":"Feature","id":"TN_RIVER_BNDRY:WTR0100000001QT89","properties":{"NF_ID":"WTR0100000001QT89","admin_code":"48123","source_layer":"TN_RIVER_BNDRY","semantic":"zone","river_class":"소하천","river_class_source":"중심선 공간조인","survey_method":"사진측량"},"geometry":{"type":"Polygon","coordinates":[[[128.64343,35.18217],[128.64348,35.18155],[128.6442,35.18122],[128.64446,35.18044],[128.64424,35.18004],[128.6444,35.18048],[128.64416,35.18087],[128.6442,35.18116],[128.64347,35.18146],[128.64323,35.18222],[128.64343,35.18217]]]}},{"type":"Feature","id":"TN_RIVER_BNDRY:WTR0100000001QT9A","properties":{"NF_ID":"WTR0100000001QT9A","admin_code":"48123","source_layer":"TN_RIVER_BNDRY","semantic":"zone","river_class":"소하천","river_class_source":"중심선 공간조인","survey_method":"사진측량"},"geometry":{"type":"Polygon","coordinates":[[[128.63568,35.18905],[128.6377,35.1908],[128.63807,35.19087],[128.63776,35.19079],[128.63627,35.18939],[128.63568,35.18905]]]}},{"type":"Feature","id":"TN_RIVER_BNDRY:WTR0100000001QTAB","properties":{"NF_ID":"WTR0100000001QTAB","admin_code":"48123","source_layer":"TN_RIVER_BNDRY","semantic":"zone","river_class":"지방하천","river_class_source":"중심선 공간조인","river_name":"양곡천","river_code":"2720220","survey_method":"사진측량"},"geometry":{"type":"Polygon","coordinates":[[[128.64324,35.18236],[128.64323,35.18222],[128.64219,35.18308],[128.64141,35.18344],[128.64037,35.18447],[128.63949,35.18503],[128.63951,35.18591],[128.63883,35.18684],[128.63853,35.18696],[128.63689,35.18701],[128.63585,35.18776],[128.63555,35.18819],[128.63568,35.18873],[128.63554,35.18896],[128.63568,35.18905],[128.63584,35.18875],[128.63571,35.18813],[128.63681,35.18718],[128.63862,35.18704],[128.63901,35.18682],[128.6396,35.18602],[128.63964,35.18518],[128.6398,35.18495],[128.64055,35.18447],[128.64134,35.18362],[128.64237,35.18309],[128.64324,35.18236]]]}},{"type":"Feature","id":"TN_RIVER_BNDRY:WTR0100000001QTBC","properties":{"NF_ID":"WTR0100000001QTBC","admin_code":"48123","source_layer":"TN_RIVER_BNDRY","semantic":"zone","river_class":"지방하천","river_class_source":"중심선 공간조인","river_name":"남천","river_code":"2720090","survey_method":"사진측량"},"geometry":{"type":"Polygon","coordinates":[[[128.68755,35.20115],[128.68722,35.2009],[128.67946,35.20535],[128.67969,35.20567],[128.68755,35.20115]]]}},{"type":"Feature","id":"TN_RIVER_BNDRY:WTR0100000001QTCD","properties":{"NF_ID":"WTR0100000001QTCD","admin_code":"48123","source_layer":"TN_RIVER_BNDRY","semantic":"zone","river_class":"소하천","river_class_source":"중심선 공간조인","survey_method":"사진측량"},"geometry":{"type":"Polygon","coordinates":[[[128.64604,35.21635],[128.64691,35.2147],[128.64662,35.2143],[128.64706,35.21282],[128.64742,35.21238],[128.64763,35.21164],[128.64737,35.21237],[128.64702,35.21282],[128.64658,35.21432],[128.64685,35.21473],[128.64604,35.21635]]]}},{"type":"Feature","id":"TN_RIVER_BNDRY:WTR0100000001QTDE","properties":{"NF_ID":"WTR0100000001QTDE","admin_code":"48123","source_layer":"TN_RIVER_BNDRY","semantic":"zone","river_class":"소하천","river_class_source":"중심선 공간조인","survey_method":"사진측량"},"geometry":{"type":"Polygon","coordinates":[[[128.64604,35.21635],[128.63799,35.21346],[128.63796,35.21357],[128.64604,35.21635]]]}},{"type":"Feature","id":"TN_RIVER_BNDRY:WTR0100000001QTEF","properties":{"NF_ID":"WTR0100000001QTEF","admin_code":"48123","source_layer":"TN_RIVER_BNDRY","semantic":"zone","river_class":"소하천","river_class_source":"중심선 공간조인","survey_method":"사진측량"},"geometry":{"type":"Polygon","coordinates":[[[128.64608,35.21637],[128.64604,35.21635],[128.64596,35.21642],[128.64596,35.21649],[128.64608,35.21637]]]}},{"type":"Feature","id":"TN_RIVER_BNDRY:WTR0100000001QTFG","properties":{"NF_ID":"WTR0100000001QTFG","admin_code":"48123","source_layer":"TN_RIVER_BNDRY","semantic":"zone","river_class":"지방하천","river_class_source":"중심선 공간조인","river_name":"남천","river_code":"2720090","survey_method":"사진측량"},"geometry":{"type":"Polygon","coordinates":[[[128.6625,35.21583],[128.6622,35.21509],[128.66215,35.21511],[128.66242,35.21588],[128.6625,35.21583]]]}},{"type":"Feature","id":"TN_RIVER_BNDRY:WTR0100000001QTGH","properties":{"NF_ID":"WTR0100000001QTGH","admin_code":"48123","source_layer":"TN_RIVER_BNDRY","semantic":"zone","river_class":"소하천","river_class_source":"중심선 공간조인","survey_method":"사진측량"},"geometry":{"type":"Polygon","coordinates":[[[128.63799,35.21346],[128.63794,35.21344],[128.6379,35.21355],[128.63796,35.21357],[128.63799,35.21346]]]}},{"type":"Feature","id":"TN_RIVER_BNDRY:WTR0100000001QTHI","properties":{"NF_ID":"WTR0100000001QTHI","admin_code":"48123","source_layer":"TN_RIVER_BNDRY","semantic":"zone","river_class":"지방하천","river_class_source":"중심선 공간조인","river_name":"상복천","river_code":"2720150","survey_method":"사진측량"},"geometry":{"type":"Polygon","coordinates":[[[128.67181,35.2105],[128.67121,35.21007],[128.67077,35.2102],[128.67129,35.21081],[128.67181,35.2105]]]}},{"type":"Feature","id":"TN_RIVER_BNDRY:WTR0100000001QTIJ","properties":{"NF_ID":"WTR0100000001QTIJ","admin_code":"48123","source_layer":"TN_RIVER_BNDRY","semantic":"zone","river_class":"지방하천","river_class_source":"중심선 공간조인","river_name":"안민천","river_code":"2720130","survey_method":"사진측량"},"geometry":{"type":"Polygon","coordinates":[[[128.67969,35.20567],[128.67946,35.20535],[128.67936,35.20541],[128.6796,35.20573],[128.67969,35.20567]]]}},{"type":"Feature","id":"TN_RIVER_BNDRY:WTR0100000001QTJK","properties":{"NF_ID":"WTR0100000001QTJK","admin_code":"48123","source_layer":"TN_RIVER_BNDRY","semantic":"zone","river_class":"지방하천","river_class_source":"중심선 공간조인","river_name":"가음정천","river_code":"2720110","survey_method":"사진측량"},"geometry":{"type":"Polygon","coordinates":[[[128.68799,35.20107],[128.68738,35.20083],[128.68722,35.2009],[128.68755,35.20115],[128.68799,35.20107]]]}},{"type":"Feature","id":"TN_RIVER_BNDRY:WTR0100000001QTKL","properties":{"NF_ID":"WTR0100000001QTKL","admin_code":"48123","source_layer":"TN_RIVER_BNDRY","semantic":"zone","river_class":"지방하천","river_class_source":"중심선 공간조인","river_name":"남천","river_code":"2720090","survey_method":"사진측량"},"geometry":{"type":"Polygon","coordinates":[[[128.68899,35.20051],[128.6885,35.20007],[128.68738,35.20083],[128.68799,35.20107],[128.68899,35.20051]]]}},{"type":"Feature","id":"TN_RIVER_BNDRY:WTR0100000001QTLM","properties":{"NF_ID":"WTR0100000001QTLM","admin_code":"48123","source_layer":"TN_RIVER_BNDRY","semantic":"zone","river_class":"지방하천","river_class_source":"중심선 공간조인","river_name":"남산천","river_code":"2720100","survey_method":"사진측량"},"geometry":{"type":"Polygon","coordinates":[[[128.69016,35.19959],[128.68908,35.19962],[128.6885,35.20007],[128.68899,35.20051],[128.69016,35.19959]]]}},{"type":"Feature","id":"TN_RIVER_BNDRY:WTR0100000001QTMN","properties":{"NF_ID":"WTR0100000001QTMN","admin_code":"48123","source_layer":"TN_RIVER_BNDRY","semantic":"zone","river_class":"소하천","river_class_source":"중심선 공간조인","survey_method":"사진측량"},"geometry":{"type":"Polygon","coordinates":[[[128.72888,35.18607],[128.72873,35.18599],[128.72852,35.18606],[128.72861,35.18613],[128.72888,35.18607]]]}},{"type":"Feature","id":"TN_RIVER_BNDRY:WTR0100000001QTPQ","properties":{"NF_ID":"WTR0100000001QTPQ","admin_code":"48123","source_layer":"TN_RIVER_BNDRY","semantic":"zone","river_class":"소하천","river_class_source":"중심선 공간조인","survey_method":"사진측량"},"geometry":{"type":"Polygon","coordinates":[[[128.73285,35.18921],[128.73283,35.18916],[128.73265,35.18913],[128.73265,35.18918],[128.73265,35.18922],[128.73285,35.18921]]]}},{"type":"Feature","id":"TN_RIVER_BNDRY:WTR0100000001QTRS","properties":{"NF_ID":"WTR0100000001QTRS","admin_code":"48123","source_layer":"TN_RIVER_BNDRY","semantic":"zone","river_class":"소하천","river_class_source":"중심선 공간조인","survey_method":"사진측량"},"geometry":{"type":"Polygon","coordinates":[[[128.73648,35.18841],[128.73621,35.18824],[128.73556,35.18822],[128.73455,35.18889],[128.73283,35.18916],[128.73451,35.18894],[128.73555,35.18829],[128.73648,35.18841]]]}},{"type":"Feature","id":"TN_RIVER_BNDRY:WTR0100000001QTST","properties":{"NF_ID":"WTR0100000001QTST","admin_code":"48123","source_layer":"TN_RIVER_BNDRY","semantic":"zone","river_class":"소하천","river_class_source":"중심선 공간조인","survey_method":"사진측량"},"geometry":{"type":"Polygon","coordinates":[[[128.73285,35.18921],[128.73265,35.18922],[128.73263,35.18999],[128.73328,35.19043],[128.73379,35.1916],[128.73453,35.19193],[128.73511,35.19274],[128.73568,35.19283],[128.73668,35.19348],[128.73719,35.19421],[128.7377,35.19454],[128.73675,35.19342],[128.73569,35.19279],[128.73516,35.19271],[128.73488,35.19248],[128.73486,35.19214],[128.73467,35.19195],[128.73386,35.19158],[128.73346,35.19046],[128.73271,35.18994],[128.73285,35.18921]]]}},{"type":"Feature","id":"TN_RIVER_BNDRY:WTR0100000001QTUV","properties":{"NF_ID":"WTR0100000001QTUV","admin_code":"48123","source_layer":"TN_RIVER_BNDRY","semantic":"zone","river_class":"소하천","river_class_source":"중심선 공간조인","survey_method":"사진측량"},"geometry":{"type":"Polygon","coordinates":[[[128.73657,35.18837],[128.73665,35.18841],[128.73665,35.18841],[128.73666,35.18841],[128.73667,35.1884],[128.73668,35.1884],[128.73685,35.18838],[128.73696,35.18834],[128.73713,35.18831],[128.73729,35.1883],[128.73737,35.18825],[128.73737,35.18825],[128.73736,35.18824],[128.73731,35.18823],[128.73718,35.18825],[128.73691,35.18831],[128.7367,35.18834],[128.73663,35.18836],[128.73659,35.18837],[128.73657,35.18837]]]}},{"type":"Feature","id":"TN_RIVER_BNDRY:WTR0100000001QTXY","properties":{"NF_ID":"WTR0100000001QTXY","admin_code":"48123","source_layer":"TN_RIVER_BNDRY","semantic":"zone","river_class":"소하천","river_class_source":"중심선 공간조인","survey_method":"사진측량"},"geometry":{"type":"Polygon","coordinates":[[[128.73665,35.18841],[128.73657,35.18837],[128.73648,35.18841],[128.73658,35.18843],[128.73665,35.18841]]]}},{"type":"Feature","id":"TN_RIVER_BNDRY:WTR0100000001QTYZ","properties":{"NF_ID":"WTR0100000001QTYZ","admin_code":"48123","source_layer":"TN_RIVER_BNDRY","semantic":"zone","river_class":"소하천","river_class_source":"중심선 공간조인","survey_method":"사진측량"},"geometry":{"type":"Polygon","coordinates":[[[128.73665,35.18841],[128.73658,35.18843],[128.73672,35.18854],[128.73682,35.18862],[128.73684,35.18862],[128.73684,35.18861],[128.73685,35.1886],[128.73679,35.18855],[128.73671,35.18848],[128.73666,35.18844],[128.73665,35.18842],[128.73665,35.18841]]]}},{"type":"Feature","id":"TN_RIVER_BNDRY:WTR0100000001QU02","properties":{"NF_ID":"WTR0100000001QU02","admin_code":"48123","source_layer":"TN_RIVER_BNDRY","semantic":"zone","river_class":"소하천","river_class_source":"중심선 공간조인","survey_method":"사진측량"},"geometry":{"type":"Polygon","coordinates":[[[128.72851,35.1842],[128.72823,35.18474],[128.72783,35.18504],[128.72849,35.18454],[128.72851,35.1842]]]}},{"type":"Feature","id":"TN_RIVER_BNDRY:WTR0100000001QU68","properties":{"NF_ID":"WTR0100000001QU68","admin_code":"48123","source_layer":"TN_RIVER_BNDRY","semantic":"zone","river_class":"소하천","river_class_source":"중심선 공간조인","survey_method":"사진측량"},"geometry":{"type":"Polygon","coordinates":[[[128.72888,35.18607],[128.72861,35.18613],[128.72896,35.18626],[128.72989,35.18605],[128.73026,35.18621],[128.73162,35.18772],[128.73162,35.18834],[128.7318,35.18866],[128.73283,35.18916],[128.73188,35.18849],[128.73177,35.18762],[128.73021,35.18602],[128.72996,35.18592],[128.72935,35.18611],[128.72888,35.18607]]]}},{"type":"Feature","id":"TN_RIVER_BNDRY:WTR0100000001QU79","properties":{"NF_ID":"WTR0100000001QU79","admin_code":"48123","source_layer":"TN_RIVER_BNDRY","semantic":"zone","river_class":"소하천","river_class_source":"중심선 공간조인","survey_method":"사진측량"},"geometry":{"type":"Polygon","coordinates":[[[128.72873,35.18599],[128.72888,35.18607],[128.72931,35.18565],[128.72948,35.18488],[128.72931,35.18499],[128.72933,35.18553],[128.72873,35.18599]]]}},{"type":"Feature","id":"TN_RIVER_BNDRY:WTR0100000001QU8A","properties":{"NF_ID":"WTR0100000001QU8A","admin_code":"48123","source_layer":"TN_RIVER_BNDRY","semantic":"zone","river_class":"소하천","river_class_source":"중심선 공간조인","survey_method":"사진측량"},"geometry":{"type":"Polygon","coordinates":[[[128.72873,35.18599],[128.72733,35.18565],[128.72676,35.18575],[128.72666,35.18597],[128.7276,35.18585],[128.72852,35.18606],[128.72873,35.18599]]]}},{"type":"Feature","id":"TN_RIVER_BNDRY:WTR0100000001QU9B","properties":{"NF_ID":"WTR0100000001QU9B","admin_code":"48123","source_layer":"TN_RIVER_BNDRY","semantic":"zone","river_class":"소하천","river_class_source":"중심선 공간조인","survey_method":"사진측량"},"geometry":{"type":"Polygon","coordinates":[[[128.65165,35.20057],[128.65162,35.20054],[128.65156,35.20049],[128.65153,35.20045],[128.65148,35.20039],[128.65144,35.20032],[128.65139,35.20026],[128.65137,35.20022],[128.65136,35.2002],[128.65134,35.20016],[128.65132,35.20013],[128.65129,35.20009],[128.65124,35.20004],[128.65121,35.2],[128.65121,35.2],[128.65117,35.19998],[128.65112,35.19994],[128.65109,35.19991],[128.65104,35.19993],[128.65107,35.19996],[128.6511,35.19998],[128.65111,35.19999],[128.65112,35.2],[128.65114,35.20002],[128.65118,35.20006],[128.6512,35.20008],[128.65122,35.20011],[128.65125,35.20014],[128.65128,35.20018],[128.65131,35.20023],[128.65133,35.20028],[128.65137,35.20033],[128.6514,35.20038],[128.65144,35.20043],[128.65148,35.20048],[128.65153,35.20053],[128.65158,35.20057],[128.65157,35.20058],[128.65158,35.20059],[128.65158,35.2006],[128.65165,35.20057]]]}},{"type":"Feature","id":"TN_RIVER_BNDRY:WTR0100000001QUAC","properties":{"NF_ID":"WTR0100000001QUAC","admin_code":"48123","source_layer":"TN_RIVER_BNDRY","semantic":"zone","river_class":"지방하천","river_class_source":"중심선 공간조인","river_name":"상복천","river_code":"2720150","survey_method":"사진측량"},"geometry":{"type":"Polygon","coordinates":[[[128.66135,35.19504],[128.66167,35.19524],[128.66314,35.19345],[128.665,35.19255],[128.66518,35.19213],[128.66545,35.19205],[128.66528,35.1919],[128.66507,35.19193],[128.6648,35.19245],[128.6629,35.19342],[128.66135,35.19504]]]}},{"type":"Feature","id":"TN_RIVER_BNDRY:WTR0100000001QUBD","properties":{"NF_ID":"WTR0100000001QUBD","admin_code":"48123","source_layer":"TN_RIVER_BNDRY","semantic":"zone","river_class":"소하천","river_class_source":"중심선 공간조인","survey_method":"사진측량"},"geometry":{"type":"Polygon","coordinates":[[[128.68797,35.18053],[128.68693,35.18006],[128.68627,35.17999],[128.68797,35.18053]]]}},{"type":"Feature","id":"TN_RIVER_BNDRY:WTR0100000001QUCE","properties":{"NF_ID":"WTR0100000001QUCE","admin_code":"48123","source_layer":"TN_RIVER_BNDRY","semantic":"zone","river_class":"소하천","river_class_source":"중심선 공간조인","survey_method":"사진측량"},"geometry":{"type":"Polygon","coordinates":[[[128.69773,35.18054],[128.69718,35.18041],[128.69634,35.17983],[128.69558,35.17975],[128.69541,35.17951],[128.69496,35.17934],[128.69563,35.17983],[128.69623,35.17985],[128.69719,35.18049],[128.69809,35.18066],[128.69816,35.18082],[128.69813,35.18063],[128.69773,35.18054]]]}},{"type":"Feature","id":"TN_RIVER_BNDRY:WTR0100000001QUDF","properties":{"NF_ID":"WTR0100000001QUDF","admin_code":"48123","source_layer":"TN_RIVER_BNDRY","semantic":"zone","river_class":"지방하천","river_class_source":"중심선 공간조인","river_name":"남천","river_code":"2720090","survey_method":"사진측량"},"geometry":{"type":"Polygon","coordinates":[[[128.69525,35.18799],[128.69572,35.1884],[128.69594,35.1877],[128.69662,35.18678],[128.69775,35.18578],[128.70001,35.18537],[128.70345,35.18407],[128.70612,35.1839],[128.70667,35.18398],[128.70727,35.18436],[128.70784,35.1844],[128.70905,35.18357],[128.70947,35.18235],[128.71013,35.18174],[128.7096,35.18201],[128.70924,35.18248],[128.7089,35.18346],[128.70775,35.18423],[128.70642,35.18372],[128.70402,35.18376],[128.70293,35.18395],[128.7002,35.185],[128.69744,35.18555],[128.69683,35.18599],[128.69525,35.18799]]]}},{"type":"Feature","id":"TN_RIVER_BNDRY:WTR0100000001QUEG","properties":{"NF_ID":"WTR0100000001QUEG","admin_code":"48123","source_layer":"TN_RIVER_BNDRY","semantic":"zone","river_class":"소하천","river_class_source":"중심선 공간조인","survey_method":"사진측량"},"geometry":{"type":"Polygon","coordinates":[[[128.69525,35.18799],[128.69497,35.18738],[128.69516,35.18633],[128.69601,35.18521],[128.696,35.18491],[128.69587,35.18489],[128.69591,35.18514],[128.69535,35.18573],[128.69504,35.18636],[128.69484,35.18759],[128.6951,35.18816],[128.69525,35.18799]]]}},{"type":"Feature","id":"TN_RIVER_BNDRY:WTR0100000001QUFH","properties":{"NF_ID":"WTR0100000001QUFH","admin_code":"48123","source_layer":"TN_RIVER_BNDRY","semantic":"zone","river_class":"소하천","river_class_source":"중심선 공간조인","survey_method":"사진측량"},"geometry":{"type":"Polygon","coordinates":[[[128.69008,35.18932],[128.69,35.18923],[128.68994,35.18916],[128.68993,35.18915],[128.6899,35.18916],[128.68999,35.18928],[128.69,35.18929],[128.69001,35.18932],[128.69003,35.18935],[128.69008,35.18932]]]}},{"type":"Feature","id":"TN_RIVER_BNDRY:WTR0100000001QUGI","properties":{"NF_ID":"WTR0100000001QUGI","admin_code":"48123","source_layer":"TN_RIVER_BNDRY","semantic":"zone","river_class":"소하천","river_class_source":"중심선 공간조인","survey_method":"사진측량"},"geometry":{"type":"Polygon","coordinates":[[[128.69008,35.18942],[128.68585,35.19131],[128.68156,35.19361],[128.68163,35.19369],[128.69008,35.18942]]]}},{"type":"Feature","id":"TN_RIVER_BNDRY:WTR0100000001QUHJ","properties":{"NF_ID":"WTR0100000001QUHJ","admin_code":"48123","source_layer":"TN_RIVER_BNDRY","semantic":"zone","river_class":"소하천","river_class_source":"중심선 공간조인","survey_method":"사진측량"},"geometry":{"type":"Polygon","coordinates":[[[128.67381,35.1955],[128.67386,35.19554],[128.67386,35.19553],[128.67386,35.19553],[128.67386,35.19553],[128.67392,35.19552],[128.67392,35.19552],[128.67392,35.19552],[128.67392,35.19551],[128.67393,35.1955],[128.67393,35.1955],[128.67393,35.1955],[128.67393,35.1955],[128.67397,35.19549],[128.67418,35.19544],[128.67428,35.19542],[128.67443,35.19539],[128.67454,35.19536],[128.67474,35.19531],[128.67484,35.19529],[128.67497,35.19526],[128.675,35.19525],[128.67507,35.19524],[128.67508,35.19523],[128.67523,35.19524],[128.67616,35.195],[128.67632,35.19496],[128.67693,35.19481],[128.67742,35.19468],[128.67796,35.19454],[128.67843,35.19442],[128.67874,35.19433],[128.6791,35.19425],[128.67948,35.19415],[128.67964,35.1941],[128.67988,35.19404],[128.67997,35.19402],[128.67999,35.194],[128.67999,35.194],[128.67999,35.194],[128.67999,35.194],[128.67999,35.194],[128.67998,35.194],[128.67996,35.19399],[128.67996,35.19399],[128.67976,35.19405],[128.67935,35.19416],[128.67894,35.19427],[128.67874,35.19432],[128.67851,35.19437],[128.67818,35.19446],[128.67781,35.19455],[128.67738,35.19467],[128.67701,35.19476],[128.67671,35.19484],[128.67635,35.19493],[128.67608,35.195],[128.67523,35.19523],[128.6752,35.19523],[128.67505,35.19522],[128.675,35.19523],[128.67485,35.19527],[128.67465,35.19532],[128.67444,35.19536],[128.67421,35.19542],[128.67401,35.19547],[128.67385,35.1955],[128.67382,35.1955],[128.67381,35.1955]]]}},{"type":"Feature","id":"TN_RIVER_BNDRY:WTR0100000001QUIK","properties":{"NF_ID":"WTR0100000001QUIK","admin_code":"48123","source_layer":"TN_RIVER_BNDRY","semantic":"zone","river_class":"지방하천","river_class_source":"중심선 공간조인","river_name":"안민천","river_code":"2720130","survey_method":"사진측량"},"geometry":{"type":"Polygon","coordinates":[[[128.67946,35.20535],[128.67194,35.19649],[128.67185,35.19656],[128.67442,35.19961],[128.67936,35.20541],[128.67946,35.20535]]]}},{"type":"Feature","id":"TN_RIVER_BNDRY:WTR0100000001QUJL","properties":{"NF_ID":"WTR0100000001QUJL","admin_code":"48123","source_layer":"TN_RIVER_BNDRY","semantic":"zone","river_class":"지방하천","river_class_source":"중심선 공간조인","river_name":"상복천","river_code":"2720150","survey_method":"사진측량"},"geometry":{"type":"Polygon","coordinates":[[[128.66167,35.19524],[128.66138,35.19543],[128.66142,35.19593],[128.66105,35.1972],[128.66156,35.19949],[128.66323,35.20069],[128.66408,35.20225],[128.6696,35.20873],[128.66975,35.20864],[128.66957,35.20832],[128.66418,35.20209],[128.66375,35.20106],[128.66331,35.2005],[128.66178,35.19936],[128.6613,35.19722],[128.66171,35.19585],[128.66167,35.19524]]]}},{"type":"Feature","id":"TN_RIVER_BNDRY:WTR0100000001QUKM","properties":{"NF_ID":"WTR0100000001QUKM","admin_code":"48123","source_layer":"TN_RIVER_BNDRY","semantic":"zone","river_class":"지방하천","river_class_source":"중심선 공간조인","river_name":"완암천","river_code":"2720160","survey_method":"사진측량"},"geometry":{"type":"Polygon","coordinates":[[[128.6622,35.21509],[128.66205,35.21463],[128.65443,35.20568],[128.65472,35.2055],[128.65443,35.20566],[128.65363,35.20475],[128.6527,35.2042],[128.6525,35.20388],[128.65243,35.20315],[128.65286,35.20239],[128.65281,35.2022],[128.65277,35.20233],[128.65261,35.20225],[128.65275,35.20257],[128.65233,35.20308],[128.65251,35.20415],[128.65382,35.20513],[128.6622,35.21509]]]}},{"type":"Feature","id":"TN_RIVER_BNDRY:WTR0100000001QULN","properties":{"NF_ID":"WTR0100000001QULN","admin_code":"48123","source_layer":"TN_RIVER_BNDRY","semantic":"zone","river_class":"지방하천","river_class_source":"중심선 공간조인","river_name":"안민천","survey_method":"사진측량"},"geometry":{"type":"Polygon","coordinates":[[[128.68738,35.20083],[128.6873,35.20034],[128.68163,35.19369],[128.68148,35.19378],[128.68715,35.20042],[128.68722,35.2009],[128.68738,35.20083]]]}},{"type":"Feature","id":"TN_RIVER_BNDRY:WTR0100000001QUPR","properties":{"NF_ID":"WTR0100000001QUPR","admin_code":"48123","source_layer":"TN_RIVER_BNDRY","semantic":"zone","river_class":"지방하천","river_class_source":"중심선 공간조인","river_name":"창원천","river_code":"2720170","survey_method":"사진측량"},"geometry":{"type":"Polygon","coordinates":[[[128.66558,35.24566],[128.65669,35.24346],[128.65292,35.24174],[128.6524,35.24182],[128.65617,35.2435],[128.65619,35.24363],[128.6563,35.24354],[128.66504,35.24579],[128.66563,35.24591],[128.66558,35.24566]]]}},{"type":"Feature","id":"TN_RIVER_BNDRY:WTR0100000001QUQS","properties":{"NF_ID":"WTR0100000001QUQS","admin_code":"48123","source_layer":"TN_RIVER_BNDRY","semantic":"zone","river_class":"지방하천","river_class_source":"중심선 공간조인","river_name":"봉림천","river_code":"2720210","survey_method":"사진측량"},"geometry":{"type":"Polygon","coordinates":[[[128.66575,35.24588],[128.66558,35.24566],[128.66563,35.24591],[128.66575,35.24588]]]}},{"type":"Feature","id":"TN_RIVER_BNDRY:WTR0100000001QURT","properties":{"NF_ID":"WTR0100000001QURT","admin_code":"48123","source_layer":"TN_RIVER_BNDRY","semantic":"zone","river_class":"지방하천","river_class_source":"중심선 공간조인","river_name":"창원천","river_code":"2720170","survey_method":"사진측량"},"geometry":{"type":"Polygon","coordinates":[[[128.68136,35.24214],[128.68114,35.24183],[128.68056,35.24214],[128.66946,35.2457],[128.66568,35.24567],[128.66575,35.24588],[128.66648,35.24598],[128.66957,35.24596],[128.68074,35.24221],[128.68136,35.24214]]]}},{"type":"Feature","id":"TN_RIVER_BNDRY:WTR0100000001QV8B","properties":{"NF_ID":"WTR0100000001QV8B","admin_code":"48123","source_layer":"TN_RIVER_BNDRY","semantic":"zone","river_class":"소하천","river_class_source":"중심선 공간조인","survey_method":"사진측량"},"geometry":{"type":"Polygon","coordinates":[[[128.61065,35.15517],[128.60947,35.15508],[128.61001,35.15525],[128.6106,35.15515],[128.61078,35.1554],[128.61065,35.15517]]]}},{"type":"Feature","id":"TN_RIVER_BNDRY:WTR0100000001QXHM","properties":{"NF_ID":"WTR0100000001QXHM","admin_code":"48123","source_layer":"TN_RIVER_BNDRY","semantic":"zone","river_class":"등급미확인","survey_method":"사진측량"},"geometry":{"type":"Polygon","coordinates":[[[128.61421,35.19957],[128.61421,35.19962],[128.6143,35.19963],[128.61433,35.19962],[128.61433,35.19959],[128.61431,35.19958],[128.61421,35.19957]]]}},{"type":"Feature","id":"TN_RIVER_BNDRY:WTR0100000001QXIN","properties":{"NF_ID":"WTR0100000001QXIN","admin_code":"48123","source_layer":"TN_RIVER_BNDRY","semantic":"zone","river_class":"소하천","river_class_source":"중심선 공간조인","survey_method":"사진측량"},"geometry":{"type":"Polygon","coordinates":[[[128.6141,35.19956],[128.61406,35.19956],[128.61363,35.19952],[128.61339,35.19951],[128.61327,35.19951],[128.61311,35.19952],[128.6131,35.19952],[128.61306,35.19955],[128.61306,35.19957],[128.61309,35.19957],[128.6132,35.19956],[128.6134,35.19956],[128.6136,35.19957],[128.61393,35.1996],[128.6141,35.19961],[128.6141,35.19956]]]}},{"type":"Feature","id":"TN_RIVER_BNDRY:WTR0100000001QXJO","properties":{"NF_ID":"WTR0100000001QXJO","admin_code":"48123","source_layer":"TN_RIVER_BNDRY","semantic":"zone","river_class":"소하천","river_class_source":"중심선 공간조인","survey_method":"사진측량"},"geometry":{"type":"Polygon","coordinates":[[[128.61421,35.19962],[128.6141,35.19961],[128.6141,35.19987],[128.61411,35.19991],[128.61416,35.19991],[128.61417,35.19987],[128.61419,35.19965],[128.6142,35.19963],[128.61421,35.19962]]]}},{"type":"Feature","id":"TN_RIVER_BNDRY:WTR0100000001QXKP","properties":{"NF_ID":"WTR0100000001QXKP","admin_code":"48123","source_layer":"TN_RIVER_BNDRY","semantic":"zone","river_class":"소하천","river_class_source":"중심선 공간조인","survey_method":"사진측량"},"geometry":{"type":"Polygon","coordinates":[[[128.61421,35.19957],[128.6141,35.19956],[128.6141,35.19961],[128.61421,35.19962],[128.61421,35.19957]]]}},{"type":"Feature","id":"TN_RIVER_BNDRY:WTR0100000001QYBH","properties":{"NF_ID":"WTR0100000001QYBH","admin_code":"48123","source_layer":"TN_RIVER_BNDRY","semantic":"zone","river_class":"소하천","river_class_source":"중심선 공간조인","survey_method":"사진측량"},"geometry":{"type":"Polygon","coordinates":[[[128.6149,35.16884],[128.61535,35.16862],[128.61555,35.16878],[128.61637,35.16861],[128.61686,35.16799],[128.61681,35.16779],[128.61633,35.1686],[128.61562,35.16874],[128.61534,35.16858],[128.61464,35.16881],[128.61296,35.16785],[128.61328,35.16717],[128.61219,35.1661],[128.61324,35.16719],[128.61285,35.16769],[128.61295,35.16789],[128.61387,35.1685],[128.6149,35.16884]]]}},{"type":"Feature","id":"TN_RIVER_BNDRY:WTR0100000001QYCI","properties":{"NF_ID":"WTR0100000001QYCI","admin_code":"48123","source_layer":"TN_RIVER_BNDRY","semantic":"zone","river_class":"소하천","river_class_source":"중심선 공간조인","survey_method":"사진측량"},"geometry":{"type":"Polygon","coordinates":[[[128.61063,35.16404],[128.61069,35.16418],[128.6117,35.16451],[128.61189,35.16537],[128.61175,35.16451],[128.61063,35.16404]]]}},{"type":"Feature","id":"TN_RIVER_BNDRY:WTR0100000001QYDJ","properties":{"NF_ID":"WTR0100000001QYDJ","admin_code":"48123","source_layer":"TN_RIVER_BNDRY","semantic":"zone","river_class":"소하천","river_class_source":"중심선 공간조인","survey_method":"사진측량"},"geometry":{"type":"Polygon","coordinates":[[[128.61434,35.15651],[128.61454,35.15643],[128.61432,35.15636],[128.61251,35.15626],[128.61187,35.15577],[128.61138,35.15574],[128.61116,35.15553],[128.6113,35.15573],[128.61182,35.15581],[128.61251,35.15633],[128.61434,35.15651]]]}},{"type":"Feature","id":"TN_RIVER_BNDRY:WTR0100000001QYEK","properties":{"NF_ID":"WTR0100000001QYEK","admin_code":"48123","source_layer":"TN_RIVER_BNDRY","semantic":"zone","river_class":"소하천","river_class_source":"중심선 공간조인","survey_method":"사진측량"},"geometry":{"type":"Polygon","coordinates":[[[128.61048,35.16392],[128.61027,35.16379],[128.61025,35.16377],[128.61025,35.16377],[128.61009,35.1636],[128.61002,35.16362],[128.61016,35.16379],[128.61016,35.16379],[128.61027,35.16388],[128.6104,35.16398],[128.61048,35.16392]]]}},{"type":"Feature","id":"TN_RIVER_BNDRY:WTR0100000001QYFL","properties":{"NF_ID":"WTR0100000001QYFL","admin_code":"48123","source_layer":"TN_RIVER_BNDRY","semantic":"zone","river_class":"소하천","river_class_source":"중심선 공간조인","survey_method":"사진측량"},"geometry":{"type":"Polygon","coordinates":[[[128.61063,35.16404],[128.61048,35.16392],[128.6104,35.16398],[128.61049,35.16404],[128.61057,35.1641],[128.61063,35.16404]]]}},{"type":"Feature","id":"TN_RIVER_BNDRY:WTR0100000001QYGM","properties":{"NF_ID":"WTR0100000001QYGM","admin_code":"48123","source_layer":"TN_RIVER_BNDRY","semantic":"zone","river_class":"소하천","river_class_source":"중심선 공간조인","survey_method":"사진측량"},"geometry":{"type":"Polygon","coordinates":[[[128.61048,35.16392],[128.61063,35.16404],[128.61108,35.16373],[128.61048,35.16392]]]}},{"type":"Feature","id":"TN_RIVER_BNDRY:WTR0100000001R31D","properties":{"NF_ID":"WTR0100000001R31D","admin_code":"48123","source_layer":"TN_RIVER_BNDRY","semantic":"zone","river_class":"소하천","river_class_source":"중심선 공간조인","survey_method":"사진측량"},"geometry":{"type":"Polygon","coordinates":[[[128.6225,35.19535],[128.6236,35.19646],[128.62395,35.19654],[128.62362,35.19641],[128.62303,35.1957],[128.6225,35.19535]]]}},{"type":"Feature","id":"TN_RIVER_BNDRY:WTR0100000001R39L","properties":{"NF_ID":"WTR0100000001R39L","admin_code":"48123","source_layer":"TN_RIVER_BNDRY","semantic":"zone","river_class":"소하천","river_class_source":"중심선 공간조인","survey_method":"사진측량"},"geometry":{"type":"Polygon","coordinates":[[[128.61134,35.1634],[128.61152,35.16324],[128.61268,35.16299],[128.61178,35.16314],[128.61126,35.1634],[128.61078,35.16329],[128.61134,35.1634]]]}}]}