{"type":"FeatureCollection","features":[{"type":"Feature","id":"TN_RIVER_BNDRY:WTR0100000000HF8L","properties":{"NF_ID":"WTR0100000000HF8L","admin_code":"41450","source_layer":"TN_RIVER_BNDRY","semantic":"zone","river_class":"소하천","river_class_source":"중심선 공간조인","survey_method":"사진측량"},"geometry":{"type":"Polygon","coordinates":[[[127.15559,37.4755],[127.15557,37.47548],[127.15554,37.47548],[127.15553,37.47548],[127.15553,37.47548],[127.15552,37.47548],[127.15552,37.47548],[127.1554,37.47552],[127.15511,37.47563],[127.15474,37.47579],[127.15432,37.47596],[127.1539,37.47613],[127.15363,37.47624],[127.15358,37.47625],[127.15357,37.47626],[127.15357,37.47626],[127.15354,37.47628],[127.15357,37.47633],[127.15362,37.47632],[127.15364,37.47632],[127.15364,37.47631],[127.15365,37.47631],[127.1537,37.47629],[127.15405,37.47614],[127.1546,37.47592],[127.15533,37.47562],[127.15561,37.47554],[127.15561,37.47553],[127.15562,37.47553],[127.15562,37.47553],[127.1556,37.47552],[127.15559,37.4755]]]}},{"type":"Feature","id":"TN_RIVER_BNDRY:WTR0100000000HFGT","properties":{"NF_ID":"WTR0100000000HFGT","admin_code":"41450","source_layer":"TN_RIVER_BNDRY","semantic":"zone","river_class":"소하천","river_class_source":"중심선 공간조인","survey_method":"사진측량"},"geometry":{"type":"Polygon","coordinates":[[[127.15247,37.4776],[127.15305,37.47726],[127.15297,37.47678],[127.15299,37.47721],[127.1524,37.47755],[127.15121,37.4776],[127.14955,37.47791],[127.15247,37.4776]]]}},{"type":"Feature","id":"TN_RIVER_BNDRY:WTR0100000000HH5K","properties":{"NF_ID":"WTR0100000000HH5K","admin_code":"41450","source_layer":"TN_RIVER_BNDRY","semantic":"zone","river_class":"소하천","river_class_source":"중심선 공간조인","river_name":"학암천","survey_method":"사진측량"},"geometry":{"type":"Polygon","coordinates":[[[127.15967,37.48855],[127.15946,37.48893],[127.15847,37.48981],[127.15953,37.48894],[127.15967,37.48855]]]}},{"type":"Feature","id":"TN_RIVER_BNDRY:WTR0100000000HH6L","properties":{"NF_ID":"WTR0100000000HH6L","admin_code":"41450","source_layer":"TN_RIVER_BNDRY","semantic":"zone","river_class":"소하천","river_class_source":"중심선 공간조인","survey_method":"사진측량"},"geometry":{"type":"Polygon","coordinates":[[[127.16188,37.49723],[127.16241,37.49735],[127.16325,37.49712],[127.16371,37.49733],[127.16417,37.49735],[127.16322,37.49711],[127.16242,37.49732],[127.16182,37.49721],[127.16126,37.49743],[127.16188,37.49723]]]}},{"type":"Feature","id":"TN_RIVER_BNDRY:WTR0100000000HH7M","properties":{"NF_ID":"WTR0100000000HH7M","admin_code":"41450","source_layer":"TN_RIVER_BNDRY","semantic":"zone","river_class":"소하천","river_class_source":"중심선 공간조인","survey_method":"사진측량"},"geometry":{"type":"Polygon","coordinates":[[[127.16128,37.48776],[127.16182,37.48776],[127.16273,37.48722],[127.16385,37.48737],[127.16457,37.48686],[127.16541,37.48688],[127.16674,37.48657],[127.16853,37.48709],[127.16969,37.48778],[127.17037,37.48786],[127.17155,37.48775],[127.16971,37.48773],[127.16852,37.48704],[127.16673,37.48653],[127.16456,37.48682],[127.16386,37.48733],[127.16286,37.48711],[127.16202,37.48768],[127.16115,37.48776],[127.16088,37.48798],[127.16128,37.48776]]]}},{"type":"Feature","id":"TN_RIVER_BNDRY:WTR0100000000I2CD","properties":{"NF_ID":"WTR0100000000I2CD","admin_code":"41450","source_layer":"TN_RIVER_BNDRY","semantic":"zone","river_class":"소하천","river_class_source":"중심선 공간조인","survey_method":"사진측량"},"geometry":{"type":"Polygon","coordinates":[[[127.23629,37.4872],[127.23622,37.48717],[127.23619,37.48719],[127.23628,37.48723],[127.23629,37.4872]]]}},{"type":"Feature","id":"TN_RIVER_BNDRY:WTR0100000000I2DE","properties":{"NF_ID":"WTR0100000000I2DE","admin_code":"41450","source_layer":"TN_RIVER_BNDRY","semantic":"zone","river_class":"소하천","river_class_source":"중심선 공간조인","survey_method":"사진측량"},"geometry":{"type":"Polygon","coordinates":[[[127.23622,37.48717],[127.23535,37.48653],[127.23531,37.48588],[127.23494,37.48501],[127.23447,37.48456],[127.2334,37.48416],[127.23276,37.48357],[127.23259,37.48253],[127.23288,37.48234],[127.23241,37.48157],[127.23245,37.48098],[127.23237,37.48159],[127.23284,37.48232],[127.23252,37.48256],[127.23274,37.48361],[127.23342,37.48422],[127.23448,37.48463],[127.2351,37.48539],[127.23531,37.48657],[127.23622,37.48717]]]}},{"type":"Feature","id":"TN_RIVER_BNDRY:WTR0100000000I2EF","properties":{"NF_ID":"WTR0100000000I2EF","admin_code":"41450","source_layer":"TN_RIVER_BNDRY","semantic":"zone","river_class":"소하천","river_class_source":"중심선 공간조인","survey_method":"사진측량"},"geometry":{"type":"Polygon","coordinates":[[[127.23628,37.48723],[127.23606,37.48887],[127.23466,37.48938],[127.23417,37.49001],[127.23389,37.49086],[127.23246,37.49187],[127.2326,37.49191],[127.23391,37.49092],[127.23461,37.48955],[127.2347,37.48962],[127.23616,37.48896],[127.23628,37.48723]]]}},{"type":"Feature","id":"TN_RIVER_BNDRY:WTR0100000000I2FG","properties":{"NF_ID":"WTR0100000000I2FG","admin_code":"41450","source_layer":"TN_RIVER_BNDRY","semantic":"zone","river_class":"지방하천","river_class_source":"중심선 공간조인","river_name":"산곡천","river_code":"1024670","survey_method":"사진측량"},"geometry":{"type":"Polygon","coordinates":[[[127.23253,37.49204],[127.2326,37.49191],[127.23235,37.49193],[127.23233,37.49212],[127.23253,37.49204]]]}},{"type":"Feature","id":"TN_RIVER_BNDRY:WTR0100000000I2GH","properties":{"NF_ID":"WTR0100000000I2GH","admin_code":"41450","source_layer":"TN_RIVER_BNDRY","semantic":"zone","river_class":"소하천","river_class_source":"중심선 공간조인","survey_method":"사진측량"},"geometry":{"type":"Polygon","coordinates":[[[127.23054,37.49572],[127.22935,37.49535],[127.22903,37.49511],[127.22933,37.49537],[127.23054,37.49572]]]}},{"type":"Feature","id":"TN_RIVER_BNDRY:WTR0100000000I2HI","properties":{"NF_ID":"WTR0100000000I2HI","admin_code":"41450","source_layer":"TN_RIVER_BNDRY","semantic":"zone","river_class":"지방하천","river_class_source":"중심선 공간조인","river_name":"산곡천","river_code":"1024670","survey_method":"사진측량"},"geometry":{"type":"Polygon","coordinates":[[[127.23031,37.49646],[127.23006,37.4965],[127.23028,37.49657],[127.23031,37.49646]]]}},{"type":"Feature","id":"TN_RIVER_BNDRY:WTR0100000000I2IJ","properties":{"NF_ID":"WTR0100000000I2IJ","admin_code":"41450","source_layer":"TN_RIVER_BNDRY","semantic":"zone","river_class":"지방하천","river_class_source":"중심선 공간조인","river_name":"산곡천","river_code":"1024670","survey_method":"사진측량"},"geometry":{"type":"Polygon","coordinates":[[[127.23028,37.49657],[127.23006,37.4965],[127.22988,37.49704],[127.23004,37.4971],[127.23028,37.49657]]]}},{"type":"Feature","id":"TN_RIVER_BNDRY:WTR0100000000I2JK","properties":{"NF_ID":"WTR0100000000I2JK","admin_code":"41450","source_layer":"TN_RIVER_BNDRY","semantic":"zone","river_class":"지방하천","river_class_source":"중심선 공간조인","river_name":"산곡천","river_code":"1024670","survey_method":"사진측량"},"geometry":{"type":"Polygon","coordinates":[[[127.23004,37.4971],[127.22988,37.49704],[127.22987,37.49706],[127.23004,37.49712],[127.23004,37.4971]]]}},{"type":"Feature","id":"TN_RIVER_BNDRY:WTR0100000000I2LM","properties":{"NF_ID":"WTR0100000000I2LM","admin_code":"41450","source_layer":"TN_RIVER_BNDRY","semantic":"zone","river_class":"지방하천","river_class_source":"중심선 공간조인","river_name":"산곡천","river_code":"1024670","survey_method":"사진측량"},"geometry":{"type":"Polygon","coordinates":[[[127.23253,37.49204],[127.23231,37.49218],[127.23238,37.49302],[127.23054,37.49572],[127.23073,37.4958],[127.2324,37.4934],[127.23259,37.4927],[127.23253,37.49204]]]}},{"type":"Feature","id":"TN_RIVER_BNDRY:WTR0100000000I2MN","properties":{"NF_ID":"WTR0100000000I2MN","admin_code":"41450","source_layer":"TN_RIVER_BNDRY","semantic":"zone","river_class":"지방하천","river_class_source":"중심선 공간조인","river_name":"산곡천","river_code":"1024670","survey_method":"사진측량"},"geometry":{"type":"Polygon","coordinates":[[[127.23073,37.4958],[127.23054,37.49572],[127.23052,37.49574],[127.23071,37.49583],[127.23073,37.4958]]]}},{"type":"Feature","id":"TN_RIVER_BNDRY:WTR0100000000I2NO","properties":{"NF_ID":"WTR0100000000I2NO","admin_code":"41450","source_layer":"TN_RIVER_BNDRY","semantic":"zone","river_class":"지방하천","river_class_source":"중심선 공간조인","river_name":"산곡천","river_code":"1024670","survey_method":"사진측량"},"geometry":{"type":"Polygon","coordinates":[[[127.23071,37.49583],[127.23052,37.49574],[127.23009,37.49642],[127.23031,37.49646],[127.23071,37.49583]]]}},{"type":"Feature","id":"TN_RIVER_BNDRY:WTR0100000000I2OP","properties":{"NF_ID":"WTR0100000000I2OP","admin_code":"41450","source_layer":"TN_RIVER_BNDRY","semantic":"zone","river_class":"소하천","river_class_source":"중심선 공간조인","survey_method":"사진측량"},"geometry":{"type":"Polygon","coordinates":[[[127.23031,37.49646],[127.23028,37.49657],[127.23211,37.49663],[127.23031,37.49646]]]}},{"type":"Feature","id":"TN_RIVER_BNDRY:WTR0100000000I2PQ","properties":{"NF_ID":"WTR0100000000I2PQ","admin_code":"41450","source_layer":"TN_RIVER_BNDRY","semantic":"zone","river_class":"소하천","river_class_source":"중심선 공간조인","survey_method":"사진측량"},"geometry":{"type":"Polygon","coordinates":[[[127.23622,37.48717],[127.23711,37.48673],[127.23735,37.48611],[127.23794,37.48562],[127.23816,37.48425],[127.23858,37.4836],[127.23863,37.48297],[127.23905,37.48238],[127.23963,37.48211],[127.24052,37.48206],[127.24141,37.48141],[127.24052,37.48201],[127.23953,37.48206],[127.23909,37.48227],[127.23858,37.4829],[127.23843,37.48376],[127.23808,37.48427],[127.23788,37.48561],[127.23729,37.48608],[127.23704,37.48671],[127.23622,37.48717]]]}},{"type":"Feature","id":"TN_RIVER_BNDRY:WTR0100000000I2QR","properties":{"NF_ID":"WTR0100000000I2QR","admin_code":"41450","source_layer":"TN_RIVER_BNDRY","semantic":"zone","river_class":"소하천","river_class_source":"중심선 공간조인","survey_method":"사진측량"},"geometry":{"type":"Polygon","coordinates":[[[127.23315,37.49652],[127.23364,37.49643],[127.23387,37.49593],[127.23528,37.49508],[127.23725,37.4952],[127.23827,37.49544],[127.23909,37.49587],[127.23962,37.49593],[127.23991,37.49643],[127.23966,37.49591],[127.23863,37.49565],[127.23833,37.4954],[127.23724,37.49516],[127.23533,37.49501],[127.2338,37.49591],[127.23365,37.49638],[127.23315,37.49652]]]}},{"type":"Feature","id":"TN_RIVER_BNDRY:WTR0100000000I2RS","properties":{"NF_ID":"WTR0100000000I2RS","admin_code":"41450","source_layer":"TN_RIVER_BNDRY","semantic":"zone","river_class":"소하천","river_class_source":"중심선 공간조인","survey_method":"사진측량"},"geometry":{"type":"Polygon","coordinates":[[[127.2326,37.49191],[127.23253,37.49204],[127.23338,37.49184],[127.23441,37.49234],[127.23487,37.49222],[127.23797,37.49034],[127.23847,37.48976],[127.24004,37.48882],[127.241,37.4891],[127.24164,37.48908],[127.24235,37.48937],[127.24302,37.48995],[127.2437,37.4901],[127.24412,37.49047],[127.24467,37.49046],[127.24493,37.49075],[127.24504,37.4913],[127.24553,37.49174],[127.24502,37.49121],[127.24497,37.49077],[127.24472,37.49045],[127.24413,37.49044],[127.24368,37.49006],[127.24304,37.48995],[127.24199,37.48912],[127.2408,37.48901],[127.24005,37.48877],[127.23836,37.48976],[127.23799,37.49026],[127.23483,37.49211],[127.23414,37.4922],[127.2334,37.49177],[127.2326,37.49191]]]}},{"type":"Feature","id":"TN_RIVER_BNDRY:WTR0100000000I2ST","properties":{"NF_ID":"WTR0100000000I2ST","admin_code":"41450","source_layer":"TN_RIVER_BNDRY","semantic":"zone","river_class":"소하천","river_class_source":"중심선 공간조인","survey_method":"사진측량"},"geometry":{"type":"Polygon","coordinates":[[[127.21265,37.49714],[127.21254,37.49659],[127.21245,37.49685],[127.21265,37.49714]]]}},{"type":"Feature","id":"TN_RIVER_BNDRY:WTR0100000000I2TU","properties":{"NF_ID":"WTR0100000000I2TU","admin_code":"41450","source_layer":"TN_RIVER_BNDRY","semantic":"zone","river_class":"소하천","river_class_source":"중심선 공간조인","survey_method":"사진측량"},"geometry":{"type":"Polygon","coordinates":[[[127.21266,37.49719],[127.21265,37.49714],[127.21255,37.49715],[127.21255,37.4972],[127.21266,37.49719]]]}},{"type":"Feature","id":"TN_RIVER_BNDRY:WTR0100000000I2UV","properties":{"NF_ID":"WTR0100000000I2UV","admin_code":"41450","source_layer":"TN_RIVER_BNDRY","semantic":"zone","river_class":"소하천","river_class_source":"중심선 공간조인","survey_method":"사진측량"},"geometry":{"type":"Polygon","coordinates":[[[127.21255,37.4972],[127.21255,37.49715],[127.2123,37.49717],[127.21215,37.49714],[127.21202,37.4971],[127.21199,37.49712],[127.21199,37.49713],[127.21198,37.49714],[127.21199,37.49715],[127.212,37.49715],[127.21202,37.49717],[127.21227,37.49722],[127.21232,37.49722],[127.21255,37.4972]]]}},{"type":"Feature","id":"TN_RIVER_BNDRY:WTR0100000000I2VW","properties":{"NF_ID":"WTR0100000000I2VW","admin_code":"41450","source_layer":"TN_RIVER_BNDRY","semantic":"zone","river_class":"지방하천","river_class_source":"중심선 공간조인","river_name":"덕풍천","river_code":"1024680","survey_method":"사진측량"},"geometry":{"type":"Polygon","coordinates":[[[127.19167,37.49927],[127.19131,37.49884],[127.19089,37.49785],[127.19058,37.49631],[127.18972,37.49495],[127.18938,37.49382],[127.18946,37.49306],[127.18931,37.4933],[127.18933,37.49388],[127.18965,37.49494],[127.19049,37.49631],[127.19078,37.49788],[127.19114,37.49881],[127.19161,37.49943],[127.19167,37.49927]]]}},{"type":"Feature","id":"TN_RIVER_BNDRY:WTR0100000000I2WX","properties":{"NF_ID":"WTR0100000000I2WX","admin_code":"41450","source_layer":"TN_RIVER_BNDRY","semantic":"zone","river_class":"소하천","river_class_source":"중심선 공간조인","survey_method":"사진측량"},"geometry":{"type":"Polygon","coordinates":[[[127.19222,37.48786],[127.19211,37.48779],[127.19194,37.48807],[127.19207,37.48877],[127.19218,37.48848],[127.19205,37.48808],[127.19222,37.48786]]]}},{"type":"Feature","id":"TN_RIVER_BNDRY:WTR0100000000I2XY","properties":{"NF_ID":"WTR0100000000I2XY","admin_code":"41450","source_layer":"TN_RIVER_BNDRY","semantic":"zone","river_class":"소하천","river_class_source":"중심선 공간조인","survey_method":"사진측량"},"geometry":{"type":"Polygon","coordinates":[[[127.19222,37.48772],[127.19221,37.48771],[127.1922,37.48763],[127.1922,37.48754],[127.1922,37.48737],[127.19219,37.48736],[127.19218,37.48736],[127.19217,37.48736],[127.19215,37.48737],[127.19214,37.48739],[127.19213,37.48741],[127.19212,37.48743],[127.19212,37.48747],[127.19213,37.48756],[127.19214,37.48775],[127.19222,37.48772]]]}},{"type":"Feature","id":"TN_RIVER_BNDRY:WTR0100000000I2YZ","properties":{"NF_ID":"WTR0100000000I2YZ","admin_code":"41450","source_layer":"TN_RIVER_BNDRY","semantic":"zone","river_class":"소하천","river_class_source":"중심선 공간조인","survey_method":"사진측량"},"geometry":{"type":"Polygon","coordinates":[[[127.19223,37.48773],[127.19255,37.48774],[127.1929,37.48739],[127.19223,37.48773]]]}},{"type":"Feature","id":"TN_RIVER_BNDRY:WTR0100000000I2Z0","properties":{"NF_ID":"WTR0100000000I2Z0","admin_code":"41450","source_layer":"TN_RIVER_BNDRY","semantic":"zone","river_class":"소하천","river_class_source":"중심선 공간조인","survey_method":"사진측량"},"geometry":{"type":"Polygon","coordinates":[[[127.19231,37.48782],[127.19223,37.48773],[127.19222,37.48772],[127.19214,37.48775],[127.19214,37.48776],[127.19211,37.48779],[127.19222,37.48786],[127.19231,37.48782]]]}},{"type":"Feature","id":"TN_RIVER_BNDRY:WTR0100000000I302","properties":{"NF_ID":"WTR0100000000I302","admin_code":"41450","source_layer":"TN_RIVER_BNDRY","semantic":"zone","river_class":"지방하천","river_class_source":"중심선 공간조인","river_name":"덕풍천","river_code":"1024680","survey_method":"사진측량"},"geometry":{"type":"Polygon","coordinates":[[[127.18977,37.49299],[127.1896,37.49293],[127.18946,37.49306],[127.18977,37.49299]]]}},{"type":"Feature","id":"TN_RIVER_BNDRY:WTR0100000000I313","properties":{"NF_ID":"WTR0100000000I313","admin_code":"41450","source_layer":"TN_RIVER_BNDRY","semantic":"zone","river_class":"소하천","river_class_source":"중심선 공간조인","survey_method":"사진측량"},"geometry":{"type":"Polygon","coordinates":[[[127.19009,37.4916],[127.19177,37.491],[127.19231,37.49051],[127.19232,37.49019],[127.1923,37.4905],[127.19178,37.49096],[127.19009,37.4916]]]}},{"type":"Feature","id":"TN_RIVER_BNDRY:WTR0100000000I324","properties":{"NF_ID":"WTR0100000000I324","admin_code":"41450","source_layer":"TN_RIVER_BNDRY","semantic":"zone","river_class":"지방하천","river_class_source":"중심선 공간조인","river_name":"덕풍천","river_code":"1024680","survey_method":"사진측량"},"geometry":{"type":"Polygon","coordinates":[[[127.1901,37.49166],[127.18973,37.4922],[127.1896,37.49293],[127.18977,37.49299],[127.1901,37.49166]]]}},{"type":"Feature","id":"TN_RIVER_BNDRY:WTR0100000000I335","properties":{"NF_ID":"WTR0100000000I335","admin_code":"41450","source_layer":"TN_RIVER_BNDRY","semantic":"zone","river_class":"지방하천","river_class_source":"중심선 공간조인","river_name":"덕풍천","river_code":"1024680","survey_method":"사진측량"},"geometry":{"type":"Polygon","coordinates":[[[127.19009,37.4916],[127.19003,37.49161],[127.19,37.49164],[127.1901,37.49166],[127.19009,37.4916]]]}},{"type":"Feature","id":"TN_RIVER_BNDRY:WTR0100000000I346","properties":{"NF_ID":"WTR0100000000I346","admin_code":"41450","source_layer":"TN_RIVER_BNDRY","semantic":"zone","river_class":"지방하천","river_class_source":"중심선 공간조인","river_name":"덕풍천","river_code":"1024680","survey_method":"사진측량"},"geometry":{"type":"Polygon","coordinates":[[[127.19009,37.4916],[127.19008,37.4916],[127.19008,37.49158],[127.19007,37.49155],[127.19005,37.49154],[127.19005,37.49155],[127.19005,37.49155],[127.19004,37.49158],[127.19003,37.49161],[127.19009,37.4916]]]}},{"type":"Feature","id":"TN_RIVER_BNDRY:WTR0100000000I357","properties":{"NF_ID":"WTR0100000000I357","admin_code":"41450","source_layer":"TN_RIVER_BNDRY","semantic":"zone","river_class":"소하천","river_class_source":"중심선 공간조인","survey_method":"사진측량"},"geometry":{"type":"Polygon","coordinates":[[[127.18977,37.49299],[127.18956,37.49308],[127.19048,37.4931],[127.1909,37.49245],[127.19147,37.49239],[127.19182,37.49252],[127.19237,37.49229],[127.19178,37.49248],[127.1914,37.49236],[127.1909,37.49242],[127.19049,37.49302],[127.18977,37.49299]]]}},{"type":"Feature","id":"TN_RIVER_BNDRY:WTR0100000000I368","properties":{"NF_ID":"WTR0100000000I368","admin_code":"41450","source_layer":"TN_RIVER_BNDRY","semantic":"zone","river_class":"지방하천","river_class_source":"중심선 공간조인","river_name":"덕풍천","river_code":"1024680","survey_method":"사진측량"},"geometry":{"type":"Polygon","coordinates":[[[127.19178,37.49938],[127.19167,37.49927],[127.19161,37.49943],[127.19174,37.49954],[127.19178,37.49938]]]}},{"type":"Feature","id":"TN_RIVER_BNDRY:WTR0100000000I379","properties":{"NF_ID":"WTR0100000000I379","admin_code":"41450","source_layer":"TN_RIVER_BNDRY","semantic":"zone","river_class":"소하천","river_class_source":"중심선 공간조인","survey_method":"사진측량"},"geometry":{"type":"Polygon","coordinates":[[[127.19167,37.49927],[127.19178,37.49938],[127.19268,37.49778],[127.19245,37.49672],[127.19397,37.49554],[127.19243,37.49669],[127.1924,37.49711],[127.19265,37.49778],[127.19167,37.49927]]]}},{"type":"Feature","id":"TN_RIVER_BNDRY:WTR0100000000I3AC","properties":{"NF_ID":"WTR0100000000I3AC","admin_code":"41450","source_layer":"TN_RIVER_BNDRY","semantic":"zone","river_class":"소하천","river_class_source":"중심선 공간조인","river_name":"구든박골천","survey_method":"사진측량"},"geometry":{"type":"Polygon","coordinates":[[[127.22988,37.49704],[127.22926,37.49677],[127.22658,37.49683],[127.22373,37.4964],[127.22329,37.49641],[127.22263,37.49674],[127.22143,37.49664],[127.22043,37.49628],[127.22038,37.49595],[127.21931,37.49523],[127.21949,37.49548],[127.22001,37.49568],[127.22041,37.49632],[127.22143,37.49668],[127.22261,37.49678],[127.22334,37.49644],[127.22371,37.49643],[127.22661,37.49685],[127.2293,37.4968],[127.22988,37.49704]]]}},{"type":"Feature","id":"TN_RIVER_BNDRY:WTR0100000000I3BD","properties":{"NF_ID":"WTR0100000000I3BD","admin_code":"41450","source_layer":"TN_RIVER_BNDRY","semantic":"zone","river_class":"지방하천","river_class_source":"중심선 공간조인","river_name":"산곡천","river_code":"1024670","survey_method":"사진측량"},"geometry":{"type":"Polygon","coordinates":[[[127.23246,37.49187],[127.23215,37.49095],[127.23132,37.49009],[127.23125,37.48903],[127.23106,37.48863],[127.23041,37.48808],[127.23007,37.48753],[127.22942,37.48723],[127.22827,37.4862],[127.22712,37.48647],[127.22651,37.48642],[127.22537,37.48681],[127.2245,37.48654],[127.22292,37.48672],[127.22226,37.48715],[127.22158,37.48697],[127.22044,37.48695],[127.21978,37.48714],[127.21672,37.48721],[127.21641,37.48751],[127.21591,37.48765],[127.2158,37.48807],[127.21507,37.4881],[127.21584,37.48809],[127.21603,37.48761],[127.21638,37.48757],[127.21678,37.48723],[127.21971,37.4872],[127.22047,37.48699],[127.22162,37.48703],[127.22224,37.48722],[127.22291,37.48678],[127.22437,37.48659],[127.22522,37.48687],[127.22649,37.48647],[127.22721,37.48653],[127.22803,37.48638],[127.22873,37.48671],[127.22949,37.48735],[127.2299,37.48747],[127.23035,37.48812],[127.23101,37.48866],[127.23121,37.48913],[127.23122,37.49008],[127.23209,37.49107],[127.23235,37.49193],[127.23246,37.49187]]]}},{"type":"Feature","id":"TN_RIVER_BNDRY:WTR0100000000IBBL","properties":{"NF_ID":"WTR0100000000IBBL","admin_code":"41450","source_layer":"TN_RIVER_BNDRY","semantic":"zone","river_class":"소하천","river_class_source":"중심선 공간조인","survey_method":"사진측량"},"geometry":{"type":"Polygon","coordinates":[[[127.19385,37.49894],[127.19454,37.49856],[127.19389,37.49885],[127.19364,37.49948],[127.19316,37.5],[127.19367,37.49951],[127.19385,37.49894]]]}},{"type":"Feature","id":"TN_RIVER_BNDRY:WTR0100000000IBCM","properties":{"NF_ID":"WTR0100000000IBCM","admin_code":"41450","source_layer":"TN_RIVER_BNDRY","semantic":"zone","river_class":"지방하천","river_class_source":"중심선 공간조인","river_name":"덕풍천","river_code":"1024680","survey_method":"사진측량"},"geometry":{"type":"Polygon","coordinates":[[[127.19178,37.49938],[127.19179,37.49959],[127.19243,37.5],[127.19268,37.5],[127.19178,37.49938]]]}},{"type":"Feature","id":"TN_RIVER_BNDRY:WTR0100000000IBDN","properties":{"NF_ID":"WTR0100000000IBDN","admin_code":"41450","source_layer":"TN_RIVER_BNDRY","semantic":"zone","river_class":"지방하천","river_class_source":"중심선 공간조인","river_name":"산곡천","river_code":"1024670","survey_method":"사진측량"},"geometry":{"type":"Polygon","coordinates":[[[127.23004,37.49712],[127.22987,37.49706],[127.22984,37.49743],[127.23025,37.49859],[127.2313,37.5],[127.23157,37.5],[127.23056,37.49873],[127.23007,37.4977],[127.23004,37.49712]]]}},{"type":"Feature","id":"TN_RIVER_BNDRY:WTR0100000000IBFP","properties":{"NF_ID":"WTR0100000000IBFP","admin_code":"41450","source_layer":"TN_RIVER_BNDRY","semantic":"zone","river_class":"소하천","river_class_source":"중심선 공간조인","survey_method":"사진측량"},"geometry":{"type":"Polygon","coordinates":[[[127.21266,37.49719],[127.21242,37.49761],[127.21245,37.49825],[127.21282,37.49884],[127.21266,37.4997],[127.21276,37.5],[127.21294,37.49888],[127.21256,37.4982],[127.21266,37.49719]]]}},{"type":"Feature","id":"TN_RIVER_BNDRY:WTR0100000000IBHR","properties":{"NF_ID":"WTR0100000000IBHR","admin_code":"41450","source_layer":"TN_RIVER_BNDRY","semantic":"zone","river_class":"소하천","river_class_source":"중심선 공간조인","survey_method":"사진측량"},"geometry":{"type":"Polygon","coordinates":[[[127.18609,37.49961],[127.18545,37.49939],[127.18523,37.49912],[127.18639,37.49671],[127.18579,37.49545],[127.18591,37.49471],[127.18573,37.49395],[127.18592,37.49338],[127.18559,37.49264],[127.18589,37.49337],[127.1857,37.49397],[127.18589,37.49471],[127.18577,37.49543],[127.18593,37.49606],[127.18633,37.49667],[127.18595,37.49769],[127.18557,37.49805],[127.18519,37.49912],[127.18545,37.49945],[127.18623,37.49971],[127.18662,37.5],[127.18609,37.49961]]]}},{"type":"Feature","id":"TN_RIVER_BNDRY:WTR0100000000JV1W","properties":{"NF_ID":"WTR0100000000JV1W","admin_code":"41450","source_layer":"TN_RIVER_BNDRY","semantic":"zone","river_class":"소하천","river_class_source":"중심선 공간조인","survey_method":"사진측량"},"geometry":{"type":"Polygon","coordinates":[[[127.27253,37.51195],[127.27196,37.51152],[127.27064,37.51109],[127.27089,37.51132],[127.27193,37.51156],[127.2725,37.51216],[127.27282,37.51224],[127.27253,37.51195]]]}},{"type":"Feature","id":"TN_RIVER_BNDRY:WTR0100000000JV50","properties":{"NF_ID":"WTR0100000000JV50","admin_code":"41450","source_layer":"TN_RIVER_BNDRY","semantic":"zone","river_class":"소하천","river_class_source":"중심선 공간조인","survey_method":"사진측량"},"geometry":{"type":"Polygon","coordinates":[[[127.27699,37.51448],[127.27558,37.51397],[127.27633,37.51449],[127.27673,37.51446],[127.2771,37.51463],[127.27825,37.51562],[127.27919,37.51606],[127.27699,37.51448]]]}},{"type":"Feature","id":"TN_RIVER_BNDRY:WTR0100000000JW1X","properties":{"NF_ID":"WTR0100000000JW1X","admin_code":"41450","source_layer":"TN_RIVER_BNDRY","semantic":"zone","river_class":"소하천","river_class_source":"중심선 공간조인","survey_method":"사진측량"},"geometry":{"type":"Polygon","coordinates":[[[127.25257,37.5382],[127.25203,37.53805],[127.2517,37.53762],[127.25206,37.53809],[127.25257,37.5382]]]}},{"type":"Feature","id":"TN_RIVER_BNDRY:WTR0100000000JYUS","properties":{"NF_ID":"WTR0100000000JYUS","admin_code":"41450","source_layer":"TN_RIVER_BNDRY","semantic":"zone","river_class":"지방하천","river_class_source":"중심선 공간조인","river_name":"덕풍천","river_code":"1024680","survey_method":"사진측량"},"geometry":{"type":"Polygon","coordinates":[[[127.19756,37.51115],[127.1955,37.5083],[127.19538,37.5086],[127.19624,37.51007],[127.19725,37.51126],[127.19756,37.51115]]]}},{"type":"Feature","id":"TN_RIVER_BNDRY:WTR0100000000JYVT","properties":{"NF_ID":"WTR0100000000JYVT","admin_code":"41450","source_layer":"TN_RIVER_BNDRY","semantic":"zone","river_class":"소하천","river_class_source":"중심선 공간조인","survey_method":"사진측량"},"geometry":{"type":"Polygon","coordinates":[[[127.19543,37.50817],[127.19562,37.50767],[127.1962,37.50747],[127.19652,37.50712],[127.19674,37.50642],[127.19624,37.50614],[127.19637,37.50553],[127.19618,37.50524],[127.19673,37.50467],[127.19766,37.50296],[127.19698,37.5039],[127.19671,37.50464],[127.19615,37.50525],[127.19631,37.5055],[127.19618,37.50616],[127.19667,37.50644],[127.19649,37.50707],[127.19624,37.50739],[127.19558,37.50764],[127.19543,37.50817]]]}},{"type":"Feature","id":"TN_RIVER_BNDRY:WTR0100000000JYWU","properties":{"NF_ID":"WTR0100000000JYWU","admin_code":"41450","source_layer":"TN_RIVER_BNDRY","semantic":"zone","river_class":"소하천","river_class_source":"중심선 공간조인","survey_method":"사진측량"},"geometry":{"type":"Polygon","coordinates":[[[127.19428,37.52295],[127.19507,37.52271],[127.194,37.52295],[127.19378,37.52271],[127.19388,37.52296],[127.19428,37.52295]]]}},{"type":"Feature","id":"TN_RIVER_BNDRY:WTR0100000000JYXV","properties":{"NF_ID":"WTR0100000000JYXV","admin_code":"41450","source_layer":"TN_RIVER_BNDRY","semantic":"zone","river_class":"지방하천","river_class_source":"중심선 공간조인","river_name":"덕풍천","river_code":"1024680","survey_method":"사진측량"},"geometry":{"type":"Polygon","coordinates":[[[127.1955,37.5083],[127.19543,37.50817],[127.19527,37.50847],[127.19538,37.5086],[127.1955,37.5083]]]}},{"type":"Feature","id":"TN_RIVER_BNDRY:WTR0100000000JYYW","properties":{"NF_ID":"WTR0100000000JYYW","admin_code":"41450","source_layer":"TN_RIVER_BNDRY","semantic":"zone","river_class":"지방하천","river_class_source":"중심선 공간조인","river_name":"덕풍천","river_code":"1024680","survey_method":"사진측량"},"geometry":{"type":"Polygon","coordinates":[[[127.19543,37.50817],[127.19414,37.5072],[127.19341,37.50541],[127.19303,37.50536],[127.19395,37.50731],[127.19527,37.50847],[127.19543,37.50817]]]}},{"type":"Feature","id":"TN_RIVER_BNDRY:WTR0100000000JYZX","properties":{"NF_ID":"WTR0100000000JYZX","admin_code":"41450","source_layer":"TN_RIVER_BNDRY","semantic":"zone","river_class":"지방하천","river_class_source":"중심선 공간조인","river_name":"덕풍천","river_code":"1024680","survey_method":"사진측량"},"geometry":{"type":"Polygon","coordinates":[[[127.19342,37.50517],[127.19303,37.50507],[127.19303,37.50536],[127.19341,37.50541],[127.19342,37.50517]]]}},{"type":"Feature","id":"TN_RIVER_BNDRY:WTR0100000000JZ0Z","properties":{"NF_ID":"WTR0100000000JZ0Z","admin_code":"41450","source_layer":"TN_RIVER_BNDRY","semantic":"zone","river_class":"지방하천","river_class_source":"중심선 공간조인","river_name":"덕풍천","river_code":"1024680","survey_method":"사진측량"},"geometry":{"type":"Polygon","coordinates":[[[127.19295,37.50026],[127.19294,37.50024],[127.19281,37.50037],[127.19285,37.50041],[127.19295,37.50026]]]}},{"type":"Feature","id":"TN_RIVER_BNDRY:WTR0100000000JZ10","properties":{"NF_ID":"WTR0100000000JZ10","admin_code":"41450","source_layer":"TN_RIVER_BNDRY","semantic":"zone","river_class":"지방하천","river_class_source":"중심선 공간조인","river_name":"덕풍천","river_code":"1024680","survey_method":"사진측량"},"geometry":{"type":"Polygon","coordinates":[[[127.19295,37.50026],[127.19285,37.50041],[127.19318,37.50093],[127.1932,37.50265],[127.19405,37.50382],[127.19393,37.50414],[127.19303,37.50507],[127.19342,37.50517],[127.19425,37.50383],[127.19338,37.50251],[127.19338,37.50078],[127.19295,37.50026]]]}},{"type":"Feature","id":"TN_RIVER_BNDRY:WTR0100000000JZ21","properties":{"NF_ID":"WTR0100000000JZ21","admin_code":"41450","source_layer":"TN_RIVER_BNDRY","semantic":"zone","river_class":"소하천","river_class_source":"중심선 공간조인","survey_method":"사진측량"},"geometry":{"type":"Polygon","coordinates":[[[127.19049,37.51204],[127.1908,37.51297],[127.19184,37.51318],[127.19264,37.51404],[127.19311,37.51406],[127.19264,37.51401],[127.19185,37.51312],[127.19094,37.51295],[127.19049,37.51204]]]}},{"type":"Feature","id":"TN_RIVER_BNDRY:WTR0100000000JZ32","properties":{"NF_ID":"WTR0100000000JZ32","admin_code":"41450","source_layer":"TN_RIVER_BNDRY","semantic":"zone","river_class":"지방하천","river_class_source":"중심선 공간조인","river_name":"덕풍천","river_code":"1024680","survey_method":"사진측량"},"geometry":{"type":"Polygon","coordinates":[[[127.1976,37.5112],[127.19756,37.51115],[127.19725,37.51126],[127.19728,37.51135],[127.1976,37.5112]]]}},{"type":"Feature","id":"TN_RIVER_BNDRY:WTR0100000000JZ43","properties":{"NF_ID":"WTR0100000000JZ43","admin_code":"41450","source_layer":"TN_RIVER_BNDRY","semantic":"zone","river_class":"소하천","river_class_source":"중심선 공간조인","survey_method":"사진측량"},"geometry":{"type":"Polygon","coordinates":[[[127.18938,37.52087],[127.18834,37.52086],[127.18771,37.52067],[127.18689,37.51986],[127.1869,37.5197],[127.18611,37.51977],[127.18581,37.51992],[127.18662,37.52025],[127.18649,37.52059],[127.18601,37.52011],[127.18585,37.52053],[127.18605,37.52086],[127.18721,37.52122],[127.18755,37.52121],[127.18772,37.52069],[127.18834,37.52088],[127.18929,37.52087],[127.19024,37.52158],[127.18938,37.52087]]]}},{"type":"Feature","id":"TN_RIVER_BNDRY:WTR0100000000JZQP","properties":{"NF_ID":"WTR0100000000JZQP","admin_code":"41450","source_layer":"TN_RIVER_BNDRY","semantic":"zone","river_class":"소하천","river_class_source":"중심선 공간조인","survey_method":"사진측량"},"geometry":{"type":"Polygon","coordinates":[[[127.18186,37.54104],[127.18277,37.53982],[127.18305,37.53867],[127.1827,37.5398],[127.18186,37.54104]]]}},{"type":"Feature","id":"TN_RIVER_BNDRY:WTR0100000000JZTS","properties":{"NF_ID":"WTR0100000000JZTS","admin_code":"41450","source_layer":"TN_RIVER_BNDRY","semantic":"zone","river_class":"지방하천","river_class_source":"중심선 공간조인","river_name":"감이천","river_code":"1024920","survey_method":"사진측량"},"geometry":{"type":"Polygon","coordinates":[[[127.15556,37.51965],[127.15825,37.52328],[127.15939,37.52445],[127.15929,37.52553],[127.15942,37.52596],[127.15977,37.52622],[127.16038,37.52615],[127.16073,37.52593],[127.16003,37.52622],[127.15939,37.52589],[127.15945,37.52446],[127.15825,37.52322],[127.15673,37.52102],[127.15627,37.52071],[127.15556,37.51965]]]}},{"type":"Feature","id":"TN_RIVER_BNDRY:WTR0100000000K067","properties":{"NF_ID":"WTR0100000000K067","admin_code":"41450","source_layer":"TN_RIVER_BNDRY","semantic":"zone","river_class":"소하천","river_class_source":"중심선 공간조인","survey_method":"사진측량"},"geometry":{"type":"Polygon","coordinates":[[[127.14659,37.5132],[127.1469,37.51328],[127.1472,37.51246],[127.14825,37.51142],[127.14822,37.50996],[127.14844,37.50944],[127.14877,37.50914],[127.14949,37.50882],[127.15023,37.50877],[127.15088,37.50809],[127.15221,37.50753],[127.15361,37.50711],[127.15467,37.50713],[127.15652,37.50645],[127.15828,37.50611],[127.15913,37.50564],[127.15926,37.50543],[127.15831,37.50605],[127.15646,37.50642],[127.15464,37.5071],[127.15371,37.50706],[127.15295,37.50722],[127.15091,37.50802],[127.1503,37.50867],[127.14947,37.50877],[127.14867,37.50912],[127.14816,37.50986],[127.1482,37.51139],[127.14716,37.51243],[127.14689,37.51311],[127.14659,37.5132]]]}},{"type":"Feature","id":"TN_RIVER_BNDRY:WTR0100000000K078","properties":{"NF_ID":"WTR0100000000K078","admin_code":"41450","source_layer":"TN_RIVER_BNDRY","semantic":"zone","river_class":"지방하천","river_class_source":"중심선 공간조인","river_name":"감이천","river_code":"1024920","survey_method":"사진측량"},"geometry":{"type":"Polygon","coordinates":[[[127.15014,37.5146],[127.14686,37.51331],[127.14852,37.51409],[127.15014,37.5146]]]}},{"type":"Feature","id":"TN_RIVER_BNDRY:WTR0100000000K089","properties":{"NF_ID":"WTR0100000000K089","admin_code":"41450","source_layer":"TN_RIVER_BNDRY","semantic":"zone","river_class":"소하천","river_class_source":"중심선 공간조인","survey_method":"사진측량"},"geometry":{"type":"Polygon","coordinates":[[[127.15597,37.51362],[127.15599,37.51354],[127.15593,37.51354],[127.1554,37.5135],[127.15538,37.5135],[127.15541,37.51357],[127.15545,37.51359],[127.15552,37.51361],[127.15588,37.51364],[127.15597,37.51362]]]}},{"type":"Feature","id":"TN_RIVER_BNDRY:WTR0100000000K09A","properties":{"NF_ID":"WTR0100000000K09A","admin_code":"41450","source_layer":"TN_RIVER_BNDRY","semantic":"zone","river_class":"소하천","river_class_source":"중심선 공간조인","survey_method":"사진측량"},"geometry":{"type":"Polygon","coordinates":[[[127.15016,37.51636],[127.15009,37.51635],[127.15008,37.51636],[127.15007,37.5164],[127.15009,37.51641],[127.15013,37.51642],[127.15019,37.51643],[127.15025,37.51645],[127.15029,37.51647],[127.15031,37.51648],[127.15035,37.51644],[127.15033,37.51642],[127.15028,37.51639],[127.15023,37.51638],[127.15016,37.51636]]]}},{"type":"Feature","id":"TN_RIVER_BNDRY:WTR0100000000K0AB","properties":{"NF_ID":"WTR0100000000K0AB","admin_code":"41450","source_layer":"TN_RIVER_BNDRY","semantic":"zone","river_class":"소하천","river_class_source":"중심선 공간조인","survey_method":"사진측량"},"geometry":{"type":"Polygon","coordinates":[[[127.15848,37.51392],[127.15904,37.51243],[127.15898,37.51189],[127.15931,37.51109],[127.15967,37.51073],[127.16125,37.51021],[127.16207,37.51045],[127.16411,37.50969],[127.16453,37.50881],[127.16588,37.50789],[127.16741,37.50762],[127.16774,37.5074],[127.16588,37.50783],[127.16449,37.50879],[127.1641,37.50964],[127.16196,37.51041],[127.1612,37.51017],[127.15968,37.51067],[127.15927,37.51103],[127.1589,37.51189],[127.15886,37.51291],[127.15848,37.51392]]]}},{"type":"Feature","id":"TN_RIVER_BNDRY:WTR0100000000K0BC","properties":{"NF_ID":"WTR0100000000K0BC","admin_code":"41450","source_layer":"TN_RIVER_BNDRY","semantic":"zone","river_class":"소하천","river_class_source":"중심선 공간조인","survey_method":"사진측량"},"geometry":{"type":"Polygon","coordinates":[[[127.1586,37.51407],[127.15863,37.51452],[127.15885,37.51471],[127.16008,37.51511],[127.16084,37.51491],[127.16004,37.51504],[127.1589,37.51464],[127.1586,37.51407]]]}},{"type":"Feature","id":"TN_RIVER_BNDRY:WTR0100000000K0CD","properties":{"NF_ID":"WTR0100000000K0CD","admin_code":"41450","source_layer":"TN_RIVER_BNDRY","semantic":"zone","river_class":"소하천","river_class_source":"중심선 공간조인","survey_method":"사진측량"},"geometry":{"type":"Polygon","coordinates":[[[127.15855,37.51394],[127.15848,37.51392],[127.1585,37.51403],[127.1586,37.51407],[127.15856,37.51398],[127.15855,37.51396],[127.15855,37.51394]]]}},{"type":"Feature","id":"TN_RIVER_BNDRY:WTR0100000000K0DE","properties":{"NF_ID":"WTR0100000000K0DE","admin_code":"41450","source_layer":"TN_RIVER_BNDRY","semantic":"zone","river_class":"소하천","river_class_source":"중심선 공간조인","survey_method":"사진측량"},"geometry":{"type":"Polygon","coordinates":[[[127.15848,37.51392],[127.1573,37.51373],[127.15668,37.51381],[127.1585,37.51403],[127.15848,37.51392]]]}},{"type":"Feature","id":"TN_RIVER_BNDRY:WTR0100000000K0EF","properties":{"NF_ID":"WTR0100000000K0EF","admin_code":"41450","source_layer":"TN_RIVER_BNDRY","semantic":"zone","river_class":"소하천","river_class_source":"중심선 공간조인","survey_method":"사진측량"},"geometry":{"type":"Polygon","coordinates":[[[127.16629,37.5145],[127.16792,37.51483],[127.17292,37.51544],[127.16629,37.5145]]]}},{"type":"Feature","id":"TN_RIVER_BNDRY:WTR0100000000K0FG","properties":{"NF_ID":"WTR0100000000K0FG","admin_code":"41450","source_layer":"TN_RIVER_BNDRY","semantic":"zone","river_class":"소하천","river_class_source":"중심선 공간조인","survey_method":"사진측량"},"geometry":{"type":"Polygon","coordinates":[[[127.15552,37.51967],[127.15549,37.51964],[127.15538,37.51971],[127.15532,37.51975],[127.15516,37.51984],[127.15498,37.51995],[127.15488,37.52003],[127.15484,37.52006],[127.15475,37.52009],[127.15445,37.5202],[127.15444,37.52021],[127.15445,37.52023],[127.15448,37.52023],[127.15465,37.52016],[127.15485,37.52009],[127.15487,37.52008],[127.15493,37.52004],[127.15495,37.52003],[127.15511,37.51991],[127.15516,37.51988],[127.15525,37.51982],[127.15542,37.51973],[127.15552,37.51967]]]}},{"type":"Feature","id":"TN_RIVER_BNDRY:WTR0100000000K0GH","properties":{"NF_ID":"WTR0100000000K0GH","admin_code":"41450","source_layer":"TN_RIVER_BNDRY","semantic":"zone","river_class":"지방하천","river_class_source":"중심선 공간조인","river_name":"감이천","river_code":"1024920","survey_method":"사진측량"},"geometry":{"type":"Polygon","coordinates":[[[127.15553,37.51962],[127.15507,37.51915],[127.15501,37.51867],[127.15445,37.5179],[127.15377,37.51768],[127.15325,37.51719],[127.15238,37.51681],[127.15105,37.51511],[127.1502,37.51462],[127.1509,37.51506],[127.15238,37.51686],[127.15324,37.51724],[127.15378,37.51772],[127.15442,37.51794],[127.15497,37.5187],[127.15503,37.51915],[127.15553,37.51962]]]}},{"type":"Feature","id":"TN_RIVER_BNDRY:WTR0100000000K0HI","properties":{"NF_ID":"WTR0100000000K0HI","admin_code":"41450","source_layer":"TN_RIVER_BNDRY","semantic":"zone","river_class":"소하천","river_class_source":"중심선 공간조인","survey_method":"사진측량"},"geometry":{"type":"Polygon","coordinates":[[[127.15024,37.51453],[127.15026,37.51459],[127.15054,37.51455],[127.15077,37.51451],[127.15103,37.51448],[127.15126,37.51445],[127.15138,37.51443],[127.15142,37.51441],[127.15146,37.5144],[127.15149,37.51439],[127.15153,37.51436],[127.15156,37.51434],[127.15155,37.5143],[127.15153,37.51432],[127.15152,37.51433],[127.1515,37.51435],[127.15145,37.51436],[127.15138,37.51438],[127.1513,37.5144],[127.15113,37.51442],[127.15092,37.51446],[127.15073,37.51449],[127.15056,37.5145],[127.15042,37.51452],[127.15034,37.51452],[127.15024,37.51453]]]}},{"type":"Feature","id":"TN_RIVER_BNDRY:WTR0100000000K0IJ","properties":{"NF_ID":"WTR0100000000K0IJ","admin_code":"41450","source_layer":"TN_RIVER_BNDRY","semantic":"zone","river_class":"소하천","river_class_source":"중심선 공간조인","survey_method":"사진측량"},"geometry":{"type":"Polygon","coordinates":[[[127.15018,37.51453],[127.15024,37.51453],[127.15026,37.51447],[127.15023,37.51446],[127.1502,37.51451],[127.15018,37.51453]]]}},{"type":"Feature","id":"TN_RIVER_BNDRY:WTR0100000000K0JK","properties":{"NF_ID":"WTR0100000000K0JK","admin_code":"41450","source_layer":"TN_RIVER_BNDRY","semantic":"zone","river_class":"지방하천","river_class_source":"중심선 공간조인","river_name":"감이천","river_code":"1024920","survey_method":"사진측량"},"geometry":{"type":"Polygon","coordinates":[[[127.15026,37.51459],[127.15024,37.51453],[127.15018,37.51453],[127.15014,37.5146],[127.1502,37.51462],[127.15026,37.51459]]]}},{"type":"Feature","id":"TN_RIVER_BNDRY:WTR0100000000K0KL","properties":{"NF_ID":"WTR0100000000K0KL","admin_code":"41450","source_layer":"TN_RIVER_BNDRY","semantic":"zone","river_class":"소하천","river_class_source":"중심선 공간조인","survey_method":"사진측량"},"geometry":{"type":"Polygon","coordinates":[[[127.16614,37.51446],[127.16629,37.5145],[127.16633,37.51437],[127.16614,37.51446]]]}},{"type":"Feature","id":"TN_RIVER_BNDRY:WTR0100000000K0LM","properties":{"NF_ID":"WTR0100000000K0LM","admin_code":"41450","source_layer":"TN_RIVER_BNDRY","semantic":"zone","river_class":"소하천","river_class_source":"중심선 공간조인","survey_method":"사진측량"},"geometry":{"type":"Polygon","coordinates":[[[127.16629,37.5145],[127.16614,37.51446],[127.16612,37.5145],[127.16613,37.51451],[127.16624,37.51455],[127.16629,37.5145]]]}},{"type":"Feature","id":"TN_RIVER_BNDRY:WTR0100000000K0MN","properties":{"NF_ID":"WTR0100000000K0MN","admin_code":"41450","source_layer":"TN_RIVER_BNDRY","semantic":"zone","river_class":"지방하천","river_class_source":"중심선 공간조인","river_name":"감이천","river_code":"1024920","survey_method":"사진측량"},"geometry":{"type":"Polygon","coordinates":[[[127.15556,37.51965],[127.15553,37.51962],[127.15549,37.51964],[127.15552,37.51967],[127.15556,37.51965]]]}},{"type":"Feature","id":"TN_RIVER_BNDRY:WTR0100000000K0OP","properties":{"NF_ID":"WTR0100000000K0OP","admin_code":"41450","source_layer":"TN_RIVER_BNDRY","semantic":"zone","river_class":"소하천","river_class_source":"중심선 공간조인","survey_method":"사진측량"},"geometry":{"type":"Polygon","coordinates":[[[127.14533,37.51369],[127.14643,37.5149],[127.14755,37.51464],[127.14853,37.51463],[127.14952,37.51537],[127.14946,37.51567],[127.14958,37.51529],[127.14905,37.51507],[127.14859,37.51462],[127.14765,37.51459],[127.14642,37.51488],[127.14583,37.51408],[127.14533,37.51369]]]}},{"type":"Feature","id":"TN_RIVER_BNDRY:WTR0100000000K0RS","properties":{"NF_ID":"WTR0100000000K0RS","admin_code":"41450","source_layer":"TN_RIVER_BNDRY","semantic":"zone","river_class":"지방하천","river_class_source":"중심선 공간조인","river_name":"감이천","river_code":"1024920","survey_method":"사진측량"},"geometry":{"type":"Polygon","coordinates":[[[127.14533,37.51369],[127.14529,37.51363],[127.14525,37.51365],[127.14529,37.51371],[127.14533,37.51369]]]}},{"type":"Feature","id":"TN_RIVER_BNDRY:WTR0100000000K0ST","properties":{"NF_ID":"WTR0100000000K0ST","admin_code":"41450","source_layer":"TN_RIVER_BNDRY","semantic":"zone","river_class":"지방하천","river_class_source":"중심선 공간조인","river_name":"감이천","river_code":"1024920","survey_method":"사진측량"},"geometry":{"type":"Polygon","coordinates":[[[127.14662,37.51328],[127.14597,37.51327],[127.14529,37.51363],[127.14621,37.51328],[127.14662,37.51328]]]}},{"type":"Feature","id":"TN_RIVER_BNDRY:WTR0100000000K0TU","properties":{"NF_ID":"WTR0100000000K0TU","admin_code":"41450","source_layer":"TN_RIVER_BNDRY","semantic":"zone","river_class":"지방하천","river_class_source":"중심선 공간조인","river_name":"감이천","river_code":"1024920","survey_method":"사진측량"},"geometry":{"type":"Polygon","coordinates":[[[127.1469,37.51328],[127.14659,37.5132],[127.14662,37.51328],[127.14675,37.51329],[127.14686,37.51331],[127.1469,37.51328]]]}},{"type":"Feature","id":"TN_RIVER_BNDRY:WTR0100000000K179","properties":{"NF_ID":"WTR0100000000K179","admin_code":"41450","source_layer":"TN_RIVER_BNDRY","semantic":"zone","river_class":"지방하천","river_class_source":"중심선 공간조인","river_name":"초이천","river_code":"1024890","survey_method":"사진측량"},"geometry":{"type":"Polygon","coordinates":[[[127.17447,37.54513],[127.17424,37.54468],[127.1743,37.54409],[127.17481,37.54292],[127.17565,37.54194],[127.1757,37.54084],[127.17622,37.53883],[127.17641,37.53833],[127.17683,37.53791],[127.17675,37.53655],[127.17652,37.53609],[127.17533,37.5351],[127.17568,37.5344],[127.17566,37.53404],[127.17508,37.5337],[127.17392,37.53356],[127.17319,37.53315],[127.17169,37.53164],[127.17152,37.53072],[127.17158,37.53161],[127.17331,37.5333],[127.17395,37.53361],[127.17498,37.53372],[127.17563,37.53404],[127.17529,37.53514],[127.17647,37.53617],[127.17666,37.53657],[127.17674,37.53789],[127.17619,37.53878],[127.17567,37.54086],[127.17558,37.54192],[127.17477,37.54281],[127.17413,37.54433],[127.17414,37.54485],[127.17428,37.54513],[127.17447,37.54513]]]}},{"type":"Feature","id":"TN_RIVER_BNDRY:WTR0100000000K18A","properties":{"NF_ID":"WTR0100000000K18A","admin_code":"41450","source_layer":"TN_RIVER_BNDRY","semantic":"zone","river_class":"소하천","river_class_source":"중심선 공간조인","survey_method":"사진측량"},"geometry":{"type":"Polygon","coordinates":[[[127.18188,37.54114],[127.18095,37.5416],[127.18053,37.54199],[127.17951,37.54229],[127.17795,37.54218],[127.17721,37.54232],[127.17677,37.54288],[127.17634,37.543],[127.17592,37.54417],[127.17593,37.54504],[127.17569,37.54523],[127.17447,37.54513],[127.17441,37.54533],[127.17572,37.54525],[127.17591,37.54513],[127.17607,37.54482],[127.17595,37.54422],[127.17636,37.54304],[127.17682,37.54287],[127.17732,37.5423],[127.17787,37.54221],[127.17951,37.54235],[127.18056,37.54203],[127.18188,37.54114]]]}},{"type":"Feature","id":"TN_RIVER_BNDRY:WTR0100000000K1OQ","properties":{"NF_ID":"WTR0100000000K1OQ","admin_code":"41450","source_layer":"TN_RIVER_BNDRY","semantic":"zone","river_class":"지방하천","river_class_source":"중심선 공간조인","river_name":"초이천","river_code":"1024890","survey_method":"사진측량"},"geometry":{"type":"Polygon","coordinates":[[[127.17441,37.54533],[127.17447,37.54513],[127.17428,37.54513],[127.1742,37.54535],[127.17441,37.54533]]]}},{"type":"Feature","id":"TN_RIVER_BNDRY:WTR0100000000K1TV","properties":{"NF_ID":"WTR0100000000K1TV","admin_code":"41450","source_layer":"TN_RIVER_BNDRY","semantic":"zone","river_class":"소하천","river_class_source":"중심선 공간조인","survey_method":"사진측량"},"geometry":{"type":"Polygon","coordinates":[[[127.16984,37.54481],[127.16982,37.54476],[127.16976,37.54478],[127.16977,37.54482],[127.1698,37.54481],[127.16984,37.54481]]]}},{"type":"Feature","id":"TN_RIVER_BNDRY:WTR0100000000K1UW","properties":{"NF_ID":"WTR0100000000K1UW","admin_code":"41450","source_layer":"TN_RIVER_BNDRY","semantic":"zone","river_class":"소하천","river_class_source":"중심선 공간조인","survey_method":"사진측량"},"geometry":{"type":"Polygon","coordinates":[[[127.16982,37.54476],[127.16939,37.54326],[127.17001,37.54261],[127.16944,37.54302],[127.16934,37.54327],[127.16982,37.54476]]]}},{"type":"Feature","id":"TN_RIVER_BNDRY:WTR0100000000K1VX","properties":{"NF_ID":"WTR0100000000K1VX","admin_code":"41450","source_layer":"TN_RIVER_BNDRY","semantic":"zone","river_class":"소하천","river_class_source":"중심선 공간조인","survey_method":"사진측량"},"geometry":{"type":"Polygon","coordinates":[[[127.16977,37.54482],[127.16976,37.54478],[127.16976,37.54478],[127.16952,37.54483],[127.16947,37.54484],[127.16948,37.54485],[127.1696,37.54484],[127.16964,37.54483],[127.16977,37.54482]]]}},{"type":"Feature","id":"TN_RIVER_BNDRY:WTR0100000000K1WY","properties":{"NF_ID":"WTR0100000000K1WY","admin_code":"41450","source_layer":"TN_RIVER_BNDRY","semantic":"zone","river_class":"소하천","river_class_source":"중심선 공간조인","survey_method":"사진측량"},"geometry":{"type":"Polygon","coordinates":[[[127.16625,37.54434],[127.16459,37.54426],[127.16424,37.54403],[127.16361,37.54388],[127.16297,37.54297],[127.16356,37.54394],[127.1641,37.54403],[127.16458,37.54433],[127.16625,37.54434]]]}},{"type":"Feature","id":"TN_RIVER_BNDRY:WTR0100000000K1XZ","properties":{"NF_ID":"WTR0100000000K1XZ","admin_code":"41450","source_layer":"TN_RIVER_BNDRY","semantic":"zone","river_class":"소하천","river_class_source":"중심선 공간조인","survey_method":"사진측량"},"geometry":{"type":"Polygon","coordinates":[[[127.15875,37.53819],[127.15914,37.5394],[127.15962,37.53989],[127.16098,37.54061],[127.16215,37.54201],[127.16219,37.54188],[127.16099,37.54055],[127.15967,37.53986],[127.15922,37.5394],[127.15875,37.53819]]]}},{"type":"Feature","id":"TN_RIVER_BNDRY:WTR0100000000K225","properties":{"NF_ID":"WTR0100000000K225","admin_code":"41450","source_layer":"TN_RIVER_BNDRY","semantic":"zone","river_class":"소하천","river_class_source":"중심선 공간조인","survey_method":"사진측량"},"geometry":{"type":"Polygon","coordinates":[[[127.17413,37.54557],[127.17214,37.54553],[127.17043,37.54484],[127.16982,37.54476],[127.172,37.54555],[127.17414,37.54568],[127.17413,37.54557]]]}},{"type":"Feature","id":"TN_RIVER_BNDRY:WTR0100000000K236","properties":{"NF_ID":"WTR0100000000K236","admin_code":"41450","source_layer":"TN_RIVER_BNDRY","semantic":"zone","river_class":"소하천","river_class_source":"중심선 공간조인","survey_method":"사진측량"},"geometry":{"type":"Polygon","coordinates":[[[127.17157,37.53059],[127.17088,37.53015],[127.17085,37.52982],[127.17015,37.52964],[127.16961,37.52884],[127.16959,37.52838],[127.16955,37.52885],[127.17015,37.52973],[127.17076,37.52984],[127.17086,37.53018],[127.17152,37.53072],[127.17157,37.53059]]]}},{"type":"Feature","id":"TN_RIVER_BNDRY:WTR0100000000K247","properties":{"NF_ID":"WTR0100000000K247","admin_code":"41450","source_layer":"TN_RIVER_BNDRY","semantic":"zone","river_class":"지방하천","river_class_source":"중심선 공간조인","river_name":"초이천","river_code":"1024890","survey_method":"사진측량"},"geometry":{"type":"Polygon","coordinates":[[[127.17169,37.53068],[127.17157,37.53059],[127.17152,37.53072],[127.17169,37.53068]]]}},{"type":"Feature","id":"TN_RIVER_BNDRY:WTR0100000000K2AD","properties":{"NF_ID":"WTR0100000000K2AD","admin_code":"41450","source_layer":"TN_RIVER_BNDRY","semantic":"zone","river_class":"지방하천","river_class_source":"중심선 공간조인","river_name":"초이천","river_code":"1024890","survey_method":"사진측량"},"geometry":{"type":"Polygon","coordinates":[[[127.1737,37.52798],[127.17303,37.52937],[127.17252,37.52945],[127.1717,37.5299],[127.17169,37.53068],[127.17186,37.5304],[127.17176,37.52992],[127.1725,37.52951],[127.17308,37.52938],[127.1737,37.52798]]]}},{"type":"Feature","id":"TN_RIVER_BNDRY:WTR0100000000K2BE","properties":{"NF_ID":"WTR0100000000K2BE","admin_code":"41450","source_layer":"TN_RIVER_BNDRY","semantic":"zone","river_class":"등급미확인","survey_method":"사진측량"},"geometry":{"type":"Polygon","coordinates":[[[127.17373,37.52789],[127.1737,37.52798],[127.17384,37.52793],[127.17373,37.52789]]]}},{"type":"Feature","id":"TN_RIVER_BNDRY:WTR0100000000K2CF","properties":{"NF_ID":"WTR0100000000K2CF","admin_code":"41450","source_layer":"TN_RIVER_BNDRY","semantic":"zone","river_class":"지방하천","river_class_source":"중심선 공간조인","river_name":"초이천","river_code":"1024890","survey_method":"사진측량"},"geometry":{"type":"Polygon","coordinates":[[[127.17373,37.52789],[127.17351,37.52768],[127.1735,37.52734],[127.17229,37.527],[127.17158,37.52644],[127.17227,37.5271],[127.17343,37.52736],[127.17343,37.52769],[127.17373,37.52789]]]}},{"type":"Feature","id":"TN_RIVER_BNDRY:WTR0100000000K2DG","properties":{"NF_ID":"WTR0100000000K2DG","admin_code":"41450","source_layer":"TN_RIVER_BNDRY","semantic":"zone","river_class":"지방하천","river_class_source":"중심선 공간조인","river_name":"초이천","river_code":"1024890","survey_method":"사진측량"},"geometry":{"type":"Polygon","coordinates":[[[127.17373,37.52789],[127.17364,37.5279],[127.17364,37.52791],[127.17364,37.52793],[127.17363,37.52795],[127.1737,37.52798],[127.17373,37.52789]]]}},{"type":"Feature","id":"TN_RIVER_BNDRY:WTR0100000000K4FK","properties":{"NF_ID":"WTR0100000000K4FK","admin_code":"41450","source_layer":"TN_RIVER_BNDRY","semantic":"zone","river_class":"국가하천","river_class_source":"중심선 공간조인","river_name":"한강","river_code":"1000010","survey_method":"사진측량"},"geometry":{"type":"Polygon","coordinates":[[[127.18482,37.58209],[127.18345,37.58175],[127.18315,37.59199],[127.18393,37.59206],[127.18482,37.58209]]]}},{"type":"Feature","id":"TN_RIVER_BNDRY:WTR0100000000K66D","properties":{"NF_ID":"WTR0100000000K66D","admin_code":"41450","source_layer":"TN_RIVER_BNDRY","semantic":"zone","river_class":"소하천","river_class_source":"중심선 공간조인","survey_method":"사진측량"},"geometry":{"type":"Polygon","coordinates":[[[127.19646,37.52814],[127.1975,37.52792],[127.19797,37.52822],[127.19945,37.52818],[127.19908,37.52747],[127.19925,37.52812],[127.19797,37.52817],[127.19746,37.52787],[127.19646,37.52814]]]}},{"type":"Feature","id":"TN_RIVER_BNDRY:WTR0100000000K67E","properties":{"NF_ID":"WTR0100000000K67E","admin_code":"41450","source_layer":"TN_RIVER_BNDRY","semantic":"zone","river_class":"소하천","river_class_source":"중심선 공간조인","survey_method":"사진측량"},"geometry":{"type":"Polygon","coordinates":[[[127.19646,37.52814],[127.19643,37.52812],[127.19642,37.5281],[127.19636,37.5281],[127.19641,37.52817],[127.19646,37.52814]]]}},{"type":"Feature","id":"TN_RIVER_BNDRY:WTR0100000000K68F","properties":{"NF_ID":"WTR0100000000K68F","admin_code":"41450","source_layer":"TN_RIVER_BNDRY","semantic":"zone","river_class":"소하천","river_class_source":"중심선 공간조인","survey_method":"사진측량"},"geometry":{"type":"Polygon","coordinates":[[[127.18193,37.54108],[127.18188,37.54114],[127.18191,37.54113],[127.18196,37.54113],[127.18212,37.54114],[127.18215,37.54113],[127.18216,37.54112],[127.18214,37.54111],[127.18193,37.54108]]]}},{"type":"Feature","id":"TN_RIVER_BNDRY:WTR0100000000K69G","properties":{"NF_ID":"WTR0100000000K69G","admin_code":"41450","source_layer":"TN_RIVER_BNDRY","semantic":"zone","river_class":"소하천","river_class_source":"중심선 공간조인","survey_method":"사진측량"},"geometry":{"type":"Polygon","coordinates":[[[127.18193,37.54108],[127.18186,37.54104],[127.18179,37.54111],[127.18188,37.54114],[127.18193,37.54108]]]}},{"type":"Feature","id":"TN_RIVER_BNDRY:WTR0100000000K6AH","properties":{"NF_ID":"WTR0100000000K6AH","admin_code":"41450","source_layer":"TN_RIVER_BNDRY","semantic":"zone","river_class":"소하천","river_class_source":"중심선 공간조인","survey_method":"사진측량"},"geometry":{"type":"Polygon","coordinates":[[[127.19641,37.52817],[127.19636,37.5281],[127.19636,37.52812],[127.19636,37.52813],[127.19635,37.52814],[127.19626,37.52818],[127.19622,37.52819],[127.19614,37.5282],[127.19592,37.52821],[127.19583,37.52822],[127.19582,37.52823],[127.19582,37.52824],[127.19585,37.52824],[127.19604,37.52823],[127.19616,37.52821],[127.19619,37.52821],[127.19631,37.52818],[127.19636,37.52817],[127.1964,37.52817],[127.19641,37.52817]]]}},{"type":"Feature","id":"TN_RIVER_BNDRY:WTR0100000000K6BI","properties":{"NF_ID":"WTR0100000000K6BI","admin_code":"41450","source_layer":"TN_RIVER_BNDRY","semantic":"zone","river_class":"소하천","river_class_source":"중심선 공간조인","survey_method":"사진측량"},"geometry":{"type":"Polygon","coordinates":[[[127.19642,37.5281],[127.1964,37.52807],[127.19634,37.52791],[127.19627,37.52778],[127.19619,37.52759],[127.19615,37.52751],[127.19612,37.52748],[127.19608,37.52744],[127.19607,37.52742],[127.19606,37.52741],[127.19605,37.52738],[127.19599,37.52714],[127.19597,37.52712],[127.19594,37.52712],[127.19594,37.52715],[127.19596,37.52728],[127.19598,37.52737],[127.196,37.52741],[127.19601,37.52743],[127.19605,37.52749],[127.19609,37.52752],[127.1962,37.52778],[127.1963,37.52799],[127.19636,37.5281],[127.19642,37.5281]]]}},{"type":"Feature","id":"TN_RIVER_BNDRY:WTR0100000000KG8P","properties":{"NF_ID":"WTR0100000000KG8P","admin_code":"41450","source_layer":"TN_RIVER_BNDRY","semantic":"zone","river_class":"소하천","river_class_source":"중심선 공간조인","survey_method":"사진측량"},"geometry":{"type":"Polygon","coordinates":[[[127.22355,37.52969],[127.22416,37.52912],[127.22426,37.52755],[127.22454,37.52684],[127.2251,37.52619],[127.22512,37.52569],[127.22612,37.52455],[127.22635,37.52222],[127.22684,37.52152],[127.22725,37.52127],[127.22839,37.52001],[127.22864,37.51941],[127.22857,37.51884],[127.22893,37.51868],[127.22958,37.51783],[127.22997,37.51763],[127.23011,37.51721],[127.23095,37.51677],[127.2314,37.51592],[127.23087,37.51675],[127.23004,37.51721],[127.22994,37.5176],[127.22938,37.51791],[127.22887,37.51865],[127.22855,37.51881],[127.2286,37.51942],[127.22833,37.52002],[127.22646,37.52195],[127.22612,37.52255],[127.2262,37.52359],[127.226,37.52456],[127.22503,37.52565],[127.225,37.52616],[127.22443,37.52682],[127.22415,37.52769],[127.22401,37.52927],[127.22355,37.52969]]]}},{"type":"Feature","id":"TN_RIVER_BNDRY:WTR0100000000KGCT","properties":{"NF_ID":"WTR0100000000KGCT","admin_code":"41450","source_layer":"TN_RIVER_BNDRY","semantic":"zone","river_class":"국가하천","river_class_source":"중심선 공간조인","river_name":"한강","river_code":"1000010","survey_method":"사진측량"},"geometry":{"type":"Polygon","coordinates":[[[127.21733,37.5763],[127.20914,37.57195],[127.20673,37.57505],[127.20594,37.57581],[127.2116,37.58002],[127.21365,37.57803],[127.21595,37.57691],[127.21703,37.57683],[127.21733,37.5763]]]}},{"type":"Feature","id":"TN_RIVER_BNDRY:WTR0100000000KGDU","properties":{"NF_ID":"WTR0100000000KGDU","admin_code":"41450","source_layer":"TN_RIVER_BNDRY","semantic":"zone","river_class":"국가하천","river_class_source":"중심선 공간조인","river_name":"한강","river_code":"1000010","survey_method":"사진측량"},"geometry":{"type":"Polygon","coordinates":[[[127.2116,37.58002],[127.20594,37.57581],[127.2053,37.57641],[127.21133,37.58005],[127.2116,37.58002]]]}},{"type":"Feature","id":"TN_RIVER_BNDRY:WTR0100000000KGEV","properties":{"NF_ID":"WTR0100000000KGEV","admin_code":"41450","source_layer":"TN_RIVER_BNDRY","semantic":"zone","river_class":"국가하천","river_class_source":"중심선 공간조인","river_name":"한강","river_code":"1000010","survey_method":"사진측량"},"geometry":{"type":"Polygon","coordinates":[[[127.21773,37.57607],[127.21019,37.57048],[127.20914,37.57195],[127.21733,37.5763],[127.21773,37.57607]]]}},{"type":"Feature","id":"TN_RIVER_BNDRY:WTR0100000000KGFW","properties":{"NF_ID":"WTR0100000000KGFW","admin_code":"41450","source_layer":"TN_RIVER_BNDRY","semantic":"zone","river_class":"등급미확인","survey_method":"사진측량"},"geometry":{"type":"Polygon","coordinates":[[[127.22032,37.57432],[127.2106,37.56987],[127.21019,37.57048],[127.21773,37.57607],[127.21786,37.57597],[127.21823,37.57608],[127.21916,37.57581],[127.22032,37.57432]]]}},{"type":"Feature","id":"TN_RIVER_BNDRY:WTR0100000000KGGX","properties":{"NF_ID":"WTR0100000000KGGX","admin_code":"41450","source_layer":"TN_RIVER_BNDRY","semantic":"zone","river_class":"국가하천","river_class_source":"중심선 공간조인","river_name":"한강","river_code":"1000010","survey_method":"사진측량"},"geometry":{"type":"Polygon","coordinates":[[[127.22931,37.56501],[127.2215,37.55394],[127.211,37.56927],[127.22057,37.57365],[127.22295,37.57285],[127.22494,37.57118],[127.22495,37.57082],[127.22614,37.56862],[127.22616,37.56822],[127.22673,37.56809],[127.22684,37.56764],[127.22847,37.56607],[127.22931,37.56501]]]}},{"type":"Feature","id":"TN_RIVER_BNDRY:WTR0100000000KGHY","properties":{"NF_ID":"WTR0100000000KGHY","admin_code":"41450","source_layer":"TN_RIVER_BNDRY","semantic":"zone","river_class":"국가하천","river_class_source":"중심선 공간조인","river_name":"한강","river_code":"1000010","survey_method":"사진측량"},"geometry":{"type":"Polygon","coordinates":[[[127.23014,37.56394],[127.22242,37.55295],[127.2215,37.55394],[127.22931,37.56501],[127.23014,37.56394]]]}},{"type":"Feature","id":"TN_RIVER_BNDRY:WTR0100000000KGIZ","properties":{"NF_ID":"WTR0100000000KGIZ","admin_code":"41450","source_layer":"TN_RIVER_BNDRY","semantic":"zone","river_class":"국가하천","river_class_source":"중심선 공간조인","river_name":"한강","river_code":"1000010","survey_method":"사진측량"},"geometry":{"type":"Polygon","coordinates":[[[127.22057,37.57365],[127.211,37.56927],[127.2106,37.56987],[127.22032,37.57432],[127.22057,37.57365]]]}},{"type":"Feature","id":"TN_RIVER_BNDRY:WTR0100000000KGJ0","properties":{"NF_ID":"WTR0100000000KGJ0","admin_code":"41450","source_layer":"TN_RIVER_BNDRY","semantic":"zone","river_class":"지방하천","river_class_source":"중심선 공간조인","river_name":"산곡천","river_code":"1024670","survey_method":"사진측량"},"geometry":{"type":"Polygon","coordinates":[[[127.2236,37.52974],[127.22355,37.52969],[127.22316,37.53002],[127.22322,37.53007],[127.2236,37.52974]]]}},{"type":"Feature","id":"TN_RIVER_BNDRY:WTR0100000000KGK1","properties":{"NF_ID":"WTR0100000000KGK1","admin_code":"41450","source_layer":"TN_RIVER_BNDRY","semantic":"zone","river_class":"소하천","river_class_source":"중심선 공간조인","survey_method":"사진측량"},"geometry":{"type":"Polygon","coordinates":[[[127.22773,37.5027],[127.2277,37.5026],[127.2271,37.50292],[127.22694,37.50323],[127.2266,37.50339],[127.22493,37.50316],[127.22547,37.50337],[127.22653,37.50341],[127.22685,37.50334],[127.22716,37.50292],[127.22773,37.5027]]]}},{"type":"Feature","id":"TN_RIVER_BNDRY:WTR0100000000KGL2","properties":{"NF_ID":"WTR0100000000KGL2","admin_code":"41450","source_layer":"TN_RIVER_BNDRY","semantic":"zone","river_class":"소하천","river_class_source":"중심선 공간조인","survey_method":"사진측량"},"geometry":{"type":"Polygon","coordinates":[[[127.22502,37.50312],[127.22499,37.5031],[127.2249,37.503],[127.22485,37.50307],[127.22493,37.50316],[127.225,37.50313],[127.22502,37.50312]]]}},{"type":"Feature","id":"TN_RIVER_BNDRY:WTR0100000000KGM3","properties":{"NF_ID":"WTR0100000000KGM3","admin_code":"41450","source_layer":"TN_RIVER_BNDRY","semantic":"zone","river_class":"소하천","river_class_source":"중심선 공간조인","survey_method":"사진측량"},"geometry":{"type":"Polygon","coordinates":[[[127.22493,37.50316],[127.22485,37.50307],[127.22347,37.5036],[127.22493,37.50316]]]}},{"type":"Feature","id":"TN_RIVER_BNDRY:WTR0100000000KGN4","properties":{"NF_ID":"WTR0100000000KGN4","admin_code":"41450","source_layer":"TN_RIVER_BNDRY","semantic":"zone","river_class":"국가하천","river_class_source":"중심선 공간조인","river_name":"한강","river_code":"1000010","survey_method":"사진측량"},"geometry":{"type":"Polygon","coordinates":[[[127.23876,37.54839],[127.2337,37.54482],[127.23271,37.54526],[127.2384,37.54883],[127.23876,37.54839]]]}},{"type":"Feature","id":"TN_RIVER_BNDRY:WTR0100000000KGO5","properties":{"NF_ID":"WTR0100000000KGO5","admin_code":"41450","source_layer":"TN_RIVER_BNDRY","semantic":"zone","river_class":"소하천","river_class_source":"중심선 공간조인","survey_method":"사진측량"},"geometry":{"type":"Polygon","coordinates":[[[127.23818,37.50401],[127.23881,37.5039],[127.23915,37.50352],[127.24053,37.50376],[127.24016,37.50358],[127.23912,37.5035],[127.2388,37.50385],[127.23822,37.50397],[127.23703,37.5038],[127.23637,37.5039],[127.23491,37.50325],[127.2342,37.50313],[127.2335,37.5032],[127.23274,37.50278],[127.23349,37.50322],[127.23499,37.5033],[127.2362,37.5039],[127.23708,37.50383],[127.23818,37.50401]]]}},{"type":"Feature","id":"TN_RIVER_BNDRY:WTR0100000000KGP6","properties":{"NF_ID":"WTR0100000000KGP6","admin_code":"41450","source_layer":"TN_RIVER_BNDRY","semantic":"zone","river_class":"지방하천","river_class_source":"중심선 공간조인","river_name":"산곡천","river_code":"1024670","survey_method":"사진측량"},"geometry":{"type":"Polygon","coordinates":[[[127.22991,37.50563],[127.22987,37.50553],[127.22967,37.50559],[127.22991,37.50563]]]}},{"type":"Feature","id":"TN_RIVER_BNDRY:WTR0100000000KGQ7","properties":{"NF_ID":"WTR0100000000KGQ7","admin_code":"41450","source_layer":"TN_RIVER_BNDRY","semantic":"zone","river_class":"소하천","river_class_source":"중심선 공간조인","survey_method":"사진측량"},"geometry":{"type":"Polygon","coordinates":[[[127.22987,37.50553],[127.22991,37.50563],[127.23067,37.5052],[127.23156,37.50501],[127.23125,37.50496],[127.22987,37.50553]]]}},{"type":"Feature","id":"TN_RIVER_BNDRY:WTR0100000000KGR8","properties":{"NF_ID":"WTR0100000000KGR8","admin_code":"41450","source_layer":"TN_RIVER_BNDRY","semantic":"zone","river_class":"지방하천","river_class_source":"중심선 공간조인","river_name":"산곡천","river_code":"1024670","survey_method":"사진측량"},"geometry":{"type":"Polygon","coordinates":[[[127.22987,37.50553],[127.22959,37.50486],[127.22793,37.50261],[127.22773,37.5027],[127.22929,37.5046],[127.22967,37.50559],[127.22987,37.50553]]]}},{"type":"Feature","id":"TN_RIVER_BNDRY:WTR0100000000KGS9","properties":{"NF_ID":"WTR0100000000KGS9","admin_code":"41450","source_layer":"TN_RIVER_BNDRY","semantic":"zone","river_class":"소하천","river_class_source":"중심선 공간조인","survey_method":"사진측량"},"geometry":{"type":"Polygon","coordinates":[[[127.23152,37.50238],[127.23143,37.50236],[127.23143,37.50236],[127.23141,37.50238],[127.23143,37.5024],[127.2315,37.50242],[127.23153,37.50238],[127.23152,37.50238]]]}},{"type":"Feature","id":"TN_RIVER_BNDRY:WTR0100000000KGTA","properties":{"NF_ID":"WTR0100000000KGTA","admin_code":"41450","source_layer":"TN_RIVER_BNDRY","semantic":"zone","river_class":"지방하천","river_class_source":"중심선 공간조인","river_name":"산곡천","river_code":"1024670","survey_method":"사진측량"},"geometry":{"type":"Polygon","coordinates":[[[127.23074,37.5015],[127.23066,37.50134],[127.23056,37.50137],[127.23063,37.50151],[127.23074,37.5015]]]}},{"type":"Feature","id":"TN_RIVER_BNDRY:WTR0100000000KGUB","properties":{"NF_ID":"WTR0100000000KGUB","admin_code":"41450","source_layer":"TN_RIVER_BNDRY","semantic":"zone","river_class":"지방하천","river_class_source":"중심선 공간조인","river_name":"산곡천","river_code":"1024670","survey_method":"사진측량"},"geometry":{"type":"Polygon","coordinates":[[[127.22792,37.50255],[127.22818,37.50221],[127.23063,37.50151],[127.23056,37.50137],[127.22817,37.50209],[127.22773,37.50246],[127.2277,37.5026],[127.22792,37.50255]]]}},{"type":"Feature","id":"TN_RIVER_BNDRY:WTR0100000000KGVC","properties":{"NF_ID":"WTR0100000000KGVC","admin_code":"41450","source_layer":"TN_RIVER_BNDRY","semantic":"zone","river_class":"소하천","river_class_source":"중심선 공간조인","survey_method":"사진측량"},"geometry":{"type":"Polygon","coordinates":[[[127.23074,37.5015],[127.23063,37.50151],[127.23063,37.50151],[127.23064,37.50152],[127.23067,37.50155],[127.23072,37.50164],[127.23076,37.50175],[127.23079,37.50182],[127.23083,37.50192],[127.23083,37.50194],[127.23087,37.50198],[127.23088,37.50199],[127.23088,37.502],[127.23092,37.50195],[127.23091,37.50194],[127.23091,37.50193],[127.23088,37.50189],[127.23085,37.50181],[127.23082,37.50173],[127.2308,37.5017],[127.2308,37.50168],[127.23079,37.50165],[127.23077,37.50162],[127.23073,37.50156],[127.23072,37.50153],[127.23072,37.50152],[127.23072,37.50151],[127.23074,37.5015]]]}},{"type":"Feature","id":"TN_RIVER_BNDRY:WTR0100000000KGWD","properties":{"NF_ID":"WTR0100000000KGWD","admin_code":"41450","source_layer":"TN_RIVER_BNDRY","semantic":"zone","river_class":"지방하천","river_class_source":"중심선 공간조인","river_name":"산곡천","river_code":"1024670","survey_method":"사진측량"},"geometry":{"type":"Polygon","coordinates":[[[127.22793,37.50261],[127.2277,37.5026],[127.22773,37.5027],[127.22793,37.50261]]]}},{"type":"Feature","id":"TN_RIVER_BNDRY:WTR0100000000KI3M","properties":{"NF_ID":"WTR0100000000KI3M","admin_code":"41450","source_layer":"TN_RIVER_BNDRY","semantic":"zone","river_class":"지방하천","river_class_source":"중심선 공간조인","river_name":"산곡천","river_code":"1024670","survey_method":"사진측량"},"geometry":{"type":"Polygon","coordinates":[[[127.2337,37.54482],[127.23347,37.54475],[127.23324,37.54435],[127.23258,37.5438],[127.2309,37.5429],[127.23053,37.54253],[127.23009,37.54109],[127.22872,37.53861],[127.22867,37.53822],[127.22632,37.53462],[127.22508,37.53119],[127.2236,37.52974],[127.22322,37.53007],[127.22461,37.5313],[127.22582,37.53484],[127.22813,37.53843],[127.22849,37.53867],[127.22914,37.53966],[127.2299,37.54121],[127.23039,37.54272],[127.23094,37.54329],[127.23233,37.54406],[127.23239,37.54446],[127.23277,37.54498],[127.23271,37.54526],[127.2337,37.54482]]]}},{"type":"Feature","id":"TN_RIVER_BNDRY:WTR0100000000KI4N","properties":{"NF_ID":"WTR0100000000KI4N","admin_code":"41450","source_layer":"TN_RIVER_BNDRY","semantic":"zone","river_class":"지방하천","river_class_source":"중심선 공간조인","river_name":"산곡천","river_code":"1024670","survey_method":"사진측량"},"geometry":{"type":"Polygon","coordinates":[[[127.22355,37.52969],[127.22234,37.52867],[127.22257,37.52771],[127.22271,37.5252],[127.2224,37.52299],[127.22328,37.51995],[127.22286,37.51692],[127.22215,37.51455],[127.22291,37.51261],[127.22387,37.51196],[127.22506,37.5107],[127.22776,37.51064],[127.22856,37.51032],[127.22939,37.50961],[127.2301,37.50836],[127.22975,37.5064],[127.22991,37.50563],[127.22969,37.50566],[127.22954,37.50669],[127.22995,37.50779],[127.22995,37.5083],[127.22922,37.50961],[127.22858,37.51018],[127.22789,37.51051],[127.22494,37.51068],[127.22355,37.51202],[127.22278,37.51251],[127.22192,37.51417],[127.22182,37.51473],[127.22263,37.51809],[127.22282,37.51986],[127.22191,37.52323],[127.22223,37.52519],[127.22202,37.52894],[127.22316,37.53002],[127.22355,37.52969]]]}},{"type":"Feature","id":"TN_RIVER_BNDRY:WTR0100000000KI7Q","properties":{"NF_ID":"WTR0100000000KI7Q","admin_code":"41450","source_layer":"TN_RIVER_BNDRY","semantic":"zone","river_class":"국가하천","river_class_source":"중심선 공간조인","river_name":"한강","river_code":"1000010","survey_method":"사진측량"},"geometry":{"type":"Polygon","coordinates":[[[127.2384,37.54883],[127.23271,37.54526],[127.23083,37.54611],[127.22896,37.54725],[127.22242,37.55295],[127.23014,37.56394],[127.23076,37.56296],[127.23131,37.56172],[127.23119,37.56153],[127.23144,37.5612],[127.23176,37.56116],[127.23209,37.56075],[127.23253,37.56074],[127.23269,37.56042],[127.23328,37.5601],[127.23564,37.55416],[127.23782,37.54959],[127.2384,37.54883]]]}},{"type":"Feature","id":"TN_RIVER_BNDRY:WTR0100000000KLH3","properties":{"NF_ID":"WTR0100000000KLH3","admin_code":"41450","source_layer":"TN_RIVER_BNDRY","semantic":"zone","river_class":"소하천","river_class_source":"중심선 공간조인","survey_method":"사진측량"},"geometry":{"type":"Polygon","coordinates":[[[127.19756,37.51115],[127.19827,37.51097],[127.19866,37.5104],[127.19945,37.50979],[127.20345,37.5088],[127.20403,37.50825],[127.20341,37.50874],[127.19942,37.50975],[127.19862,37.51037],[127.19829,37.51089],[127.19756,37.51115]]]}},{"type":"Feature","id":"TN_RIVER_BNDRY:WTR0100000000KLI4","properties":{"NF_ID":"WTR0100000000KLI4","admin_code":"41450","source_layer":"TN_RIVER_BNDRY","semantic":"zone","river_class":"지방하천","river_class_source":"중심선 공간조인","river_name":"덕풍천","river_code":"1024680","survey_method":"사진측량"},"geometry":{"type":"Polygon","coordinates":[[[127.22242,37.55295],[127.22203,37.55303],[127.22171,37.55288],[127.21947,37.54929],[127.21901,37.54874],[127.21883,37.54878],[127.21737,37.54706],[127.21688,37.5442],[127.21696,37.53999],[127.21615,37.53866],[127.21485,37.53756],[127.21357,37.537],[127.21367,37.53684],[127.21351,37.537],[127.21063,37.53663],[127.20536,37.53521],[127.2047,37.5348],[127.20262,37.53267],[127.20154,37.53018],[127.20004,37.52782],[127.19894,37.52562],[127.19894,37.5252],[127.19982,37.52305],[127.19969,37.52022],[127.19993,37.5196],[127.20054,37.51891],[127.20029,37.51823],[127.1994,37.51707],[127.19774,37.51428],[127.1976,37.5112],[127.19728,37.51135],[127.19732,37.51416],[127.19852,37.51636],[127.20014,37.51877],[127.19934,37.52035],[127.19956,37.52258],[127.19947,37.52337],[127.19878,37.52516],[127.19856,37.52516],[127.1985,37.52539],[127.19978,37.52811],[127.20093,37.52971],[127.20157,37.53092],[127.20237,37.53297],[127.20464,37.53499],[127.20539,37.53543],[127.20857,37.53622],[127.2106,37.5369],[127.21378,37.5372],[127.21497,37.53785],[127.21626,37.5391],[127.21674,37.53977],[127.21684,37.54024],[127.21665,37.54166],[127.21668,37.5443],[127.21719,37.54712],[127.21911,37.54946],[127.21929,37.55006],[127.22138,37.55345],[127.2215,37.55394],[127.22242,37.55295]]]}},{"type":"Feature","id":"TN_RIVER_BNDRY:WTR0100000000KLOA","properties":{"NF_ID":"WTR0100000000KLOA","admin_code":"41450","source_layer":"TN_RIVER_BNDRY","semantic":"zone","river_class":"국가하천","river_class_source":"중심선 공간조인","river_name":"한강","river_code":"1000010","survey_method":"사진측량"},"geometry":{"type":"Polygon","coordinates":[[[127.21133,37.58005],[127.2053,37.57641],[127.20157,37.57995],[127.19895,37.58186],[127.19754,37.58261],[127.2031,37.58812],[127.2045,37.58723],[127.20531,37.58632],[127.20558,37.58576],[127.20618,37.58548],[127.21022,37.58176],[127.21085,37.58078],[127.21103,37.58072],[127.21133,37.58005]]]}},{"type":"Feature","id":"TN_RIVER_BNDRY:WTR0100000000KLPB","properties":{"NF_ID":"WTR0100000000KLPB","admin_code":"41450","source_layer":"TN_RIVER_BNDRY","semantic":"zone","river_class":"국가하천","river_class_source":"중심선 공간조인","river_name":"한강","river_code":"1000010","survey_method":"사진측량"},"geometry":{"type":"Polygon","coordinates":[[[127.2031,37.58812],[127.19754,37.58261],[127.1968,37.58286],[127.20269,37.5883],[127.2031,37.58812]]]}},{"type":"Feature","id":"TN_RIVER_BNDRY:WTR0100000000KLRD","properties":{"NF_ID":"WTR0100000000KLRD","admin_code":"41450","source_layer":"TN_RIVER_BNDRY","semantic":"zone","river_class":"국가하천","river_class_source":"중심선 공간조인","river_name":"한강","river_code":"1000010","survey_method":"사진측량"},"geometry":{"type":"Polygon","coordinates":[[[127.20269,37.5883],[127.1968,37.58286],[127.19496,37.58317],[127.19102,37.58329],[127.18916,37.58307],[127.18482,37.58209],[127.18393,37.59206],[127.18843,37.5921],[127.19581,37.59121],[127.19933,37.59016],[127.20226,37.58874],[127.20269,37.5883]]]}},{"type":"Feature","id":"TN_RIVER_BNDRY:WTR0100000000KM6T","properties":{"NF_ID":"WTR0100000000KM6T","admin_code":"41450","source_layer":"TN_RIVER_BNDRY","semantic":"zone","river_class":"소하천","river_class_source":"중심선 공간조인","survey_method":"사진측량"},"geometry":{"type":"Polygon","coordinates":[[[127.19294,37.50024],[127.19295,37.50026],[127.19299,37.5002],[127.19303,37.50014],[127.19316,37.5],[127.19317,37.5],[127.19316,37.5],[127.19316,37.5],[127.19307,37.5001],[127.19296,37.50021],[127.19294,37.50024]]]}},{"type":"Feature","id":"TN_RIVER_BNDRY:WTR0100000000KM7U","properties":{"NF_ID":"WTR0100000000KM7U","admin_code":"41450","source_layer":"TN_RIVER_BNDRY","semantic":"zone","river_class":"지방하천","river_class_source":"중심선 공간조인","river_name":"덕풍천","river_code":"1024680","survey_method":"사진측량"},"geometry":{"type":"Polygon","coordinates":[[[127.19294,37.50024],[127.19268,37.5],[127.19243,37.5],[127.19281,37.50037],[127.19294,37.50024]]]}},{"type":"Feature","id":"TN_RIVER_BNDRY:WTR0100000000KM8V","properties":{"NF_ID":"WTR0100000000KM8V","admin_code":"41450","source_layer":"TN_RIVER_BNDRY","semantic":"zone","river_class":"지방하천","river_class_source":"중심선 공간조인","river_name":"산곡천","river_code":"1024670","survey_method":"사진측량"},"geometry":{"type":"Polygon","coordinates":[[[127.23066,37.50134],[127.23074,37.5015],[127.23117,37.50137],[127.23172,37.50085],[127.23177,37.50047],[127.23157,37.5],[127.23127,37.5001],[127.23133,37.50084],[127.23111,37.50116],[127.23066,37.50134]]]}},{"type":"Feature","id":"TN_RIVER_BNDRY:WTR0100000000KMAX","properties":{"NF_ID":"WTR0100000000KMAX","admin_code":"41450","source_layer":"TN_RIVER_BNDRY","semantic":"zone","river_class":"소하천","river_class_source":"중심선 공간조인","survey_method":"사진측량"},"geometry":{"type":"Polygon","coordinates":[[[127.2249,37.503],[127.22312,37.50225],[127.2228,37.50178],[127.22237,37.50178],[127.22123,37.50136],[127.22007,37.50058],[127.219,37.50041],[127.21804,37.50086],[127.21675,37.50104],[127.21464,37.50043],[127.21292,37.50019],[127.21276,37.5],[127.21253,37.50026],[127.21427,37.50044],[127.21681,37.50111],[127.21805,37.50093],[127.21905,37.50049],[127.22002,37.50065],[127.22114,37.5014],[127.22237,37.5018],[127.22278,37.50181],[127.22311,37.50233],[127.2249,37.503]]]}},{"type":"Feature","id":"TN_RIVER_BNDRY:WTR0100000000KMCZ","properties":{"NF_ID":"WTR0100000000KMCZ","admin_code":"41450","source_layer":"TN_RIVER_BNDRY","semantic":"zone","river_class":"소하천","river_class_source":"중심선 공간조인","survey_method":"사진측량"},"geometry":{"type":"Polygon","coordinates":[[[127.19303,37.50507],[127.19186,37.50462],[127.19096,37.50327],[127.19031,37.50292],[127.18914,37.50273],[127.18887,37.50139],[127.18784,37.50077],[127.18741,37.50031],[127.18662,37.5],[127.18744,37.50044],[127.18793,37.50096],[127.18868,37.50132],[127.18894,37.50167],[127.189,37.50261],[127.18918,37.50279],[127.19064,37.50311],[127.19114,37.5035],[127.1918,37.50463],[127.19303,37.50536],[127.19303,37.50507]]]}}]}