{"type":"FeatureCollection","features":[{"type":"Feature","id":"TN_RIVER_BNDRY:WTR0100000000JZUT","properties":{"NF_ID":"WTR0100000000JZUT","source_layer":"TN_RIVER_BNDRY","semantic":"zone","river_class":"국가하천","river_class_source":"중심선 공간조인","river_name":"한강","river_code":"1000010","survey_method":"사진측량","admin_code":"41310"},"geometry":{"type":"Polygon","coordinates":[[[127.12646,37.56513],[127.12296,37.56349],[127.1201,37.5612],[127.11734,37.55946],[127.11565,37.5577],[127.11525,37.55676],[127.11365,37.55683],[127.11472,37.55924],[127.11512,37.56058],[127.1164,37.56225],[127.11922,37.56484],[127.12316,37.56778],[127.12312,37.56796],[127.12326,37.56785],[127.12349,37.56802],[127.12341,37.56816],[127.12354,37.56805],[127.12397,37.56834],[127.12671,37.56525],[127.12646,37.56513]]]}},{"type":"Feature","id":"TN_RIVER_BNDRY:WTR0100000000K1AC","properties":{"NF_ID":"WTR0100000000K1AC","source_layer":"TN_RIVER_BNDRY","semantic":"zone","river_class":"국가하천","river_class_source":"중심선 공간조인","river_name":"한강","river_code":"1000010","survey_method":"사진측량","admin_code":"41310"},"geometry":{"type":"Polygon","coordinates":[[[127.12671,37.56525],[127.12397,37.56834],[127.12401,37.56849],[127.12734,37.56555],[127.12671,37.56525]]]}},{"type":"Feature","id":"TN_RIVER_BNDRY:WTR0100000000K1BD","properties":{"NF_ID":"WTR0100000000K1BD","source_layer":"TN_RIVER_BNDRY","semantic":"zone","river_class":"소하천","river_class_source":"중심선 공간조인","survey_method":"사진측량","admin_code":"41310"},"geometry":{"type":"Polygon","coordinates":[[[127.12507,37.57485],[127.12458,37.57425],[127.12289,37.57044],[127.12242,37.57024],[127.12431,37.57442],[127.12483,37.57502],[127.12507,37.57485]]]}},{"type":"Feature","id":"TN_RIVER_BNDRY:WTR0100000000K1DF","properties":{"NF_ID":"WTR0100000000K1DF","source_layer":"TN_RIVER_BNDRY","semantic":"zone","river_class":"국가하천","river_class_source":"중심선 공간조인","river_name":"한강","river_code":"1000010","survey_method":"사진측량","admin_code":"41310"},"geometry":{"type":"Polygon","coordinates":[[[127.16256,37.57673],[127.1569,37.57295],[127.15613,37.57259],[127.15245,37.57683],[127.15341,37.57748],[127.158,37.5797],[127.1587,37.57986],[127.15871,37.58],[127.16146,37.5815],[127.16353,37.57725],[127.16256,37.57673]]]}},{"type":"Feature","id":"TN_RIVER_BNDRY:WTR0100000000K1EG","properties":{"NF_ID":"WTR0100000000K1EG","source_layer":"TN_RIVER_BNDRY","semantic":"zone","river_class":"국가하천","river_class_source":"중심선 공간조인","river_name":"한강","river_code":"1000010","survey_method":"사진측량","admin_code":"41310"},"geometry":{"type":"Polygon","coordinates":[[[127.15283,37.57075],[127.15174,37.57647],[127.15308,37.5709],[127.15283,37.57075]]]}},{"type":"Feature","id":"TN_RIVER_BNDRY:WTR0100000000K1FH","properties":{"NF_ID":"WTR0100000000K1FH","source_layer":"TN_RIVER_BNDRY","semantic":"zone","river_class":"국가하천","river_class_source":"중심선 공간조인","river_name":"한강","river_code":"1000010","survey_method":"사진측량","admin_code":"41310"},"geometry":{"type":"Polygon","coordinates":[[[127.15498,37.57204],[127.15308,37.5709],[127.15174,37.57647],[127.15195,37.57658],[127.15562,37.57235],[127.15498,37.57204]]]}},{"type":"Feature","id":"TN_RIVER_BNDRY:WTR0100000000K1GI","properties":{"NF_ID":"WTR0100000000K1GI","source_layer":"TN_RIVER_BNDRY","semantic":"zone","river_class":"국가하천","river_class_source":"중심선 공간조인","river_name":"한강","river_code":"1000010","survey_method":"사진측량","admin_code":"41310"},"geometry":{"type":"Polygon","coordinates":[[[127.1558,37.57243],[127.15562,37.57235],[127.15195,37.57658],[127.15245,37.57683],[127.15613,37.57259],[127.1558,37.57243]]]}},{"type":"Feature","id":"TN_RIVER_BNDRY:WTR0100000000K1HJ","properties":{"NF_ID":"WTR0100000000K1HJ","source_layer":"TN_RIVER_BNDRY","semantic":"zone","river_class":"국가하천","river_class_source":"중심선 공간조인","river_name":"한강","river_code":"1000010","survey_method":"사진측량","admin_code":"41310"},"geometry":{"type":"Polygon","coordinates":[[[127.16878,37.58216],[127.1706,37.58103],[127.16843,37.57977],[127.16865,37.579],[127.16675,37.57898],[127.16574,37.57843],[127.16362,37.58256],[127.16642,37.58364],[127.16878,37.58216]]]}},{"type":"Feature","id":"TN_RIVER_BNDRY:WTR0100000000K2UX","properties":{"NF_ID":"WTR0100000000K2UX","source_layer":"TN_RIVER_BNDRY","semantic":"zone","river_class":"국가하천","river_class_source":"중심선 공간조인","river_name":"한강","river_code":"1000010","survey_method":"사진측량","admin_code":"41310"},"geometry":{"type":"Polygon","coordinates":[[[127.16353,37.57725],[127.16146,37.5815],[127.16362,37.58256],[127.16574,37.57843],[127.16353,37.57725]]]}},{"type":"Feature","id":"TN_RIVER_BNDRY:WTR0100000000K2VY","properties":{"NF_ID":"WTR0100000000K2VY","source_layer":"TN_RIVER_BNDRY","semantic":"zone","river_class":"지방하천","river_class_source":"중심선 공간조인","river_name":"왕숙천","river_code":"1024740","survey_method":"사진측량","admin_code":"41310"},"geometry":{"type":"Polygon","coordinates":[[[127.15208,37.59877],[127.15366,37.59743],[127.15612,37.59629],[127.15793,37.59584],[127.1615,37.59525],[127.16288,37.5948],[127.16359,37.59439],[127.1645,37.59352],[127.16497,37.59251],[127.165,37.59131],[127.16472,37.5898],[127.16401,37.58991],[127.16437,37.59217],[127.16399,37.59312],[127.16322,37.59393],[127.16151,37.59467],[127.1572,37.59545],[127.15498,37.59626],[127.15347,37.59713],[127.1516,37.59895],[127.15208,37.59877]]]}},{"type":"Feature","id":"TN_RIVER_BNDRY:WTR0100000000K2WZ","properties":{"NF_ID":"WTR0100000000K2WZ","source_layer":"TN_RIVER_BNDRY","semantic":"zone","river_class":"지방하천","river_class_source":"중심선 공간조인","river_name":"왕숙천","river_code":"1024740","survey_method":"사진측량","admin_code":"41310"},"geometry":{"type":"Polygon","coordinates":[[[127.16434,37.58982],[127.164,37.58987],[127.16401,37.58991],[127.16472,37.5898],[127.16472,37.58976],[127.16464,37.58977],[127.16434,37.58982]]]}},{"type":"Feature","id":"TN_RIVER_BNDRY:WTR0100000000K2X0","properties":{"NF_ID":"WTR0100000000K2X0","source_layer":"TN_RIVER_BNDRY","semantic":"zone","river_class":"지방하천","river_class_source":"중심선 공간조인","river_name":"왕숙천","river_code":"1024740","survey_method":"사진측량","admin_code":"41310"},"geometry":{"type":"MultiPolygon","coordinates":[[[[127.16327,37.58437],[127.16366,37.58429],[127.16335,37.58305],[127.16335,37.5827],[127.16362,37.58256],[127.16146,37.5815],[127.16214,37.58239],[127.16286,37.58447],[127.16327,37.58437]]],[[[127.16464,37.58977],[127.16472,37.58976],[127.16472,37.58975],[127.16464,37.58977]]]]}},{"type":"Feature","id":"TN_RIVER_BNDRY:WTR0100000000K2Y1","properties":{"NF_ID":"WTR0100000000K2Y1","source_layer":"TN_RIVER_BNDRY","semantic":"zone","river_class":"소하천","river_class_source":"중심선 공간조인","survey_method":"사진측량","admin_code":"41310"},"geometry":{"type":"MultiPolygon","coordinates":[[[[127.16748,37.59422],[127.16751,37.5942],[127.16747,37.59419],[127.16742,37.59418],[127.1674,37.59418],[127.16738,37.59418],[127.16734,37.59419],[127.16733,37.59419],[127.16733,37.59421],[127.16733,37.59422],[127.16733,37.59423],[127.16735,37.59425],[127.1674,37.59429],[127.16748,37.59422]]],[[[127.16508,37.58973],[127.16472,37.58976],[127.16472,37.5898],[127.16529,37.58976],[127.16508,37.58973]]],[[[127.16766,37.59042],[127.16607,37.58986],[127.16631,37.59014],[127.16766,37.59042]]],[[[127.16863,37.59289],[127.16886,37.5925],[127.16895,37.59179],[127.16847,37.59083],[127.16805,37.59058],[127.16872,37.59178],[127.16839,37.59326],[127.16863,37.59289]]]]}},{"type":"Feature","id":"TN_RIVER_BNDRY:WTR0100000000K3UY","properties":{"NF_ID":"WTR0100000000K3UY","source_layer":"TN_RIVER_BNDRY","semantic":"zone","river_class":"소하천","river_class_source":"중심선 공간조인","survey_method":"사진측량","admin_code":"41310"},"geometry":{"type":"Polygon","coordinates":[[[127.11287,37.63043],[127.11314,37.63085],[127.1135,37.63105],[127.11429,37.63225],[127.11356,37.631],[127.11287,37.63043]]]}},{"type":"Feature","id":"TN_RIVER_BNDRY:WTR0100000000K3VZ","properties":{"NF_ID":"WTR0100000000K3VZ","source_layer":"TN_RIVER_BNDRY","semantic":"zone","river_class":"소하천","river_class_source":"중심선 공간조인","survey_method":"사진측량","admin_code":"41310"},"geometry":{"type":"Polygon","coordinates":[[[127.10956,37.62664],[127.10915,37.62657],[127.10984,37.62678],[127.11087,37.62787],[127.11155,37.62814],[127.11089,37.62783],[127.10988,37.62675],[127.10956,37.62664]]]}},{"type":"Feature","id":"TN_RIVER_BNDRY:WTR0100000000K405","properties":{"NF_ID":"WTR0100000000K405","source_layer":"TN_RIVER_BNDRY","semantic":"zone","river_class":"소하천","river_class_source":"중심선 공간조인","survey_method":"사진측량","admin_code":"41310"},"geometry":{"type":"Polygon","coordinates":[[[127.12498,37.57513],[127.12483,37.57502],[127.12428,37.57545],[127.12408,37.57545],[127.12317,37.57471],[127.12302,37.57404],[127.12241,37.5738],[127.12116,37.57369],[127.12004,37.57312],[127.12112,37.57375],[127.1225,37.57392],[127.12299,37.57414],[127.1231,37.57483],[127.12402,37.57555],[127.12437,37.57555],[127.12498,37.57513]]]}},{"type":"Feature","id":"TN_RIVER_BNDRY:WTR0100000000K416","properties":{"NF_ID":"WTR0100000000K416","source_layer":"TN_RIVER_BNDRY","semantic":"zone","river_class":"소하천","river_class_source":"중심선 공간조인","survey_method":"사진측량","admin_code":"41310"},"geometry":{"type":"Polygon","coordinates":[[[127.11228,37.57572],[127.11224,37.57581],[127.11268,37.57573],[127.11338,37.57543],[127.11411,37.57545],[127.11464,37.5751],[127.11524,37.57544],[127.11561,37.57548],[127.11687,37.57513],[127.11744,37.57452],[127.11809,37.57435],[127.11743,37.57443],[127.1169,37.57502],[127.11558,37.57539],[127.11524,37.57538],[127.11465,37.57503],[127.11409,37.57539],[127.11333,37.57538],[127.11228,37.57572]]]}},{"type":"Feature","id":"TN_RIVER_BNDRY:WTR0100000000K438","properties":{"NF_ID":"WTR0100000000K438","source_layer":"TN_RIVER_BNDRY","semantic":"zone","river_class":"소하천","river_class_source":"중심선 공간조인","survey_method":"사진측량","admin_code":"41310"},"geometry":{"type":"Polygon","coordinates":[[[127.12401,37.56849],[127.12397,37.56834],[127.12269,37.56955],[127.1228,37.56965],[127.12401,37.56849]]]}},{"type":"Feature","id":"TN_RIVER_BNDRY:WTR0100000000K45A","properties":{"NF_ID":"WTR0100000000K45A","source_layer":"TN_RIVER_BNDRY","semantic":"zone","river_class":"소하천","river_class_source":"중심선 공간조인","survey_method":"사진측량","admin_code":"41310"},"geometry":{"type":"Polygon","coordinates":[[[127.11803,37.56848],[127.11782,37.56875],[127.117,37.56916],[127.11705,37.5693],[127.11706,37.56913],[127.11784,37.56877],[127.11803,37.56848]]]}},{"type":"Feature","id":"TN_RIVER_BNDRY:WTR0100000000K46B","properties":{"NF_ID":"WTR0100000000K46B","source_layer":"TN_RIVER_BNDRY","semantic":"zone","river_class":"소하천","river_class_source":"중심선 공간조인","survey_method":"사진측량","admin_code":"41310"},"geometry":{"type":"Polygon","coordinates":[[[127.11567,37.56296],[127.11557,37.56293],[127.11547,37.56291],[127.11544,37.56299],[127.11565,37.56305],[127.11567,37.56296]]]}},{"type":"Feature","id":"TN_RIVER_BNDRY:WTR0100000000K47C","properties":{"NF_ID":"WTR0100000000K47C","source_layer":"TN_RIVER_BNDRY","semantic":"zone","river_class":"소하천","river_class_source":"중심선 공간조인","survey_method":"사진측량","admin_code":"41310"},"geometry":{"type":"Polygon","coordinates":[[[127.11565,37.56305],[127.11544,37.56299],[127.1155,37.56359],[127.11609,37.5645],[127.1156,37.56353],[127.11565,37.56305]]]}},{"type":"Feature","id":"TN_RIVER_BNDRY:WTR0100000000K48D","properties":{"NF_ID":"WTR0100000000K48D","source_layer":"TN_RIVER_BNDRY","semantic":"zone","river_class":"소하천","river_class_source":"중심선 공간조인","survey_method":"사진측량","admin_code":"41310"},"geometry":{"type":"Polygon","coordinates":[[[127.11567,37.56296],[127.11629,37.56315],[127.11643,37.56304],[127.11567,37.56296]]]}},{"type":"Feature","id":"TN_RIVER_BNDRY:WTR0100000000K49E","properties":{"NF_ID":"WTR0100000000K49E","source_layer":"TN_RIVER_BNDRY","semantic":"zone","river_class":"소하천","river_class_source":"중심선 공간조인","survey_method":"사진측량","admin_code":"41310"},"geometry":{"type":"Polygon","coordinates":[[[127.11547,37.56291],[127.11526,37.56287],[127.11523,37.56288],[127.11521,37.5629],[127.1152,37.56292],[127.11524,37.56294],[127.11528,37.56295],[127.1153,37.56295],[127.11534,37.56295],[127.11538,37.56296],[127.11541,37.56297],[127.11544,37.56299],[127.11547,37.56291]]]}},{"type":"Feature","id":"TN_RIVER_BNDRY:WTR0100000000K4AF","properties":{"NF_ID":"WTR0100000000K4AF","source_layer":"TN_RIVER_BNDRY","semantic":"zone","river_class":"소하천","river_class_source":"중심선 공간조인","survey_method":"사진측량","admin_code":"41310"},"geometry":{"type":"Polygon","coordinates":[[[127.11057,37.56066],[127.11211,37.56201],[127.11273,37.56211],[127.11204,37.56191],[127.11142,37.56123],[127.11057,37.56066]]]}},{"type":"Feature","id":"TN_RIVER_BNDRY:WTR0100000000K4BG","properties":{"NF_ID":"WTR0100000000K4BG","source_layer":"TN_RIVER_BNDRY","semantic":"zone","river_class":"소하천","river_class_source":"중심선 공간조인","survey_method":"사진측량","admin_code":"41310"},"geometry":{"type":"Polygon","coordinates":[[[127.1228,37.56965],[127.12269,37.56955],[127.12242,37.57024],[127.12289,37.57044],[127.1227,37.56997],[127.1228,37.56965]]]}},{"type":"Feature","id":"TN_RIVER_BNDRY:WTR0100000000K4GL","properties":{"NF_ID":"WTR0100000000K4GL","source_layer":"TN_RIVER_BNDRY","semantic":"zone","river_class":"소하천","river_class_source":"중심선 공간조인","survey_method":"사진측량","admin_code":"41310"},"geometry":{"type":"Polygon","coordinates":[[[127.11224,37.57581],[127.11228,37.57572],[127.11177,37.57556],[127.11087,37.57552],[127.11149,37.57554],[127.11212,37.57577],[127.11169,37.57631],[127.11176,37.57675],[127.11188,37.57672],[127.11182,37.57631],[127.11224,37.57581]]]}},{"type":"Feature","id":"TN_RIVER_BNDRY:WTR0100000000K4NS","properties":{"NF_ID":"WTR0100000000K4NS","source_layer":"TN_RIVER_BNDRY","semantic":"zone","river_class":"소하천","river_class_source":"중심선 공간조인","survey_method":"사진측량","admin_code":"41310"},"geometry":{"type":"Polygon","coordinates":[[[127.11816,37.59883],[127.11815,37.59881],[127.11815,37.59883],[127.11814,37.59884],[127.11814,37.59889],[127.11814,37.5989],[127.11815,37.59892],[127.11816,37.59894],[127.11816,37.59897],[127.11817,37.59898],[127.11818,37.59901],[127.1182,37.59913],[127.1182,37.59915],[127.11821,37.59916],[127.11822,37.59918],[127.11823,37.5992],[127.11824,37.59922],[127.11825,37.59923],[127.11828,37.59926],[127.11831,37.59927],[127.11833,37.59926],[127.11831,37.59924],[127.11828,37.59922],[127.11827,37.59921],[127.11823,37.59916],[127.11823,37.59915],[127.11821,37.5991],[127.11821,37.59907],[127.1182,37.59902],[127.11819,37.59897],[127.11818,37.59892],[127.11817,37.59888],[127.11817,37.59886],[127.11817,37.59884],[127.11816,37.59883]]]}},{"type":"Feature","id":"TN_RIVER_BNDRY:WTR0100000000K4PU","properties":{"NF_ID":"WTR0100000000K4PU","source_layer":"TN_RIVER_BNDRY","semantic":"zone","river_class":"소하천","river_class_source":"중심선 공간조인","survey_method":"사진측량","admin_code":"41310"},"geometry":{"type":"Polygon","coordinates":[[[127.11649,37.59948],[127.11598,37.59936],[127.11644,37.59948],[127.11656,37.59975],[127.11649,37.59948]]]}},{"type":"Feature","id":"TN_RIVER_BNDRY:WTR0100000000K74C","properties":{"NF_ID":"WTR0100000000K74C","source_layer":"TN_RIVER_BNDRY","semantic":"zone","river_class":"소하천","river_class_source":"중심선 공간조인","survey_method":"사진측량","admin_code":"41310"},"geometry":{"type":"Polygon","coordinates":[[[127.12269,37.56955],[127.12215,37.56938],[127.12045,37.568],[127.11926,37.56846],[127.11997,37.56921],[127.12242,37.57024],[127.12269,37.56955]],[[127.12251,37.56981],[127.12226,37.56986],[127.12051,37.56907],[127.12037,37.56864],[127.12064,37.5686],[127.12123,37.56883],[127.12224,37.56954],[127.12263,37.56964],[127.12251,37.56981]]]}},{"type":"Feature","id":"TN_RIVER_BNDRY:WTR0100000000K8EN","properties":{"NF_ID":"WTR0100000000K8EN","source_layer":"TN_RIVER_BNDRY","semantic":"zone","river_class":"지방하천","river_class_source":"중심선 공간조인","river_name":"왕숙천","river_code":"1024740","survey_method":"사진측량","admin_code":"41310"},"geometry":{"type":"Polygon","coordinates":[[[127.14939,37.63867],[127.1493,37.63507],[127.14882,37.63358],[127.14806,37.63253],[127.14665,37.63112],[127.14556,37.63059],[127.14525,37.63067],[127.14621,37.63148],[127.14779,37.63354],[127.1483,37.63471],[127.14903,37.63822],[127.14886,37.63835],[127.14884,37.6395],[127.1494,37.63916],[127.14939,37.63867]]]}},{"type":"Feature","id":"TN_RIVER_BNDRY:WTR0100000000K8GP","properties":{"NF_ID":"WTR0100000000K8GP","source_layer":"TN_RIVER_BNDRY","semantic":"zone","river_class":"지방하천","river_class_source":"중심선 공간조인","river_name":"왕숙천","river_code":"1024740","survey_method":"사진측량","admin_code":"41310"},"geometry":{"type":"Polygon","coordinates":[[[127.1494,37.63938],[127.1494,37.63916],[127.14884,37.6395],[127.14898,37.63975],[127.1494,37.63938]]]}},{"type":"Feature","id":"TN_RIVER_BNDRY:WTR0100000000K8IR","properties":{"NF_ID":"WTR0100000000K8IR","source_layer":"TN_RIVER_BNDRY","semantic":"zone","river_class":"지방하천","river_class_source":"중심선 공간조인","river_name":"용암천","river_code":"1022890","survey_method":"사진측량","admin_code":"41310"},"geometry":{"type":"Polygon","coordinates":[[[127.12875,37.64169],[127.12926,37.64179],[127.12849,37.64154],[127.12875,37.64169]]]}},{"type":"Feature","id":"TN_RIVER_BNDRY:WTR0100000000K9GQ","properties":{"NF_ID":"WTR0100000000K9GQ","source_layer":"TN_RIVER_BNDRY","semantic":"zone","river_class":"소하천","river_class_source":"중심선 공간조인","survey_method":"사진측량","admin_code":"41310"},"geometry":{"type":"Polygon","coordinates":[[[127.13603,37.61654],[127.13755,37.61621],[127.13637,37.61648],[127.13414,37.61661],[127.13404,37.61671],[127.13603,37.61654]]]}},{"type":"Feature","id":"TN_RIVER_BNDRY:WTR0100000000K9HR","properties":{"NF_ID":"WTR0100000000K9HR","source_layer":"TN_RIVER_BNDRY","semantic":"zone","river_class":"소하천","river_class_source":"중심선 공간조인","survey_method":"사진측량","admin_code":"41310"},"geometry":{"type":"Polygon","coordinates":[[[127.12805,37.61029],[127.12902,37.61025],[127.12969,37.6097],[127.12901,37.61016],[127.12805,37.61029]]]}},{"type":"Feature","id":"TN_RIVER_BNDRY:WTR0100000000K9IS","properties":{"NF_ID":"WTR0100000000K9IS","source_layer":"TN_RIVER_BNDRY","semantic":"zone","river_class":"소하천","river_class_source":"중심선 공간조인","survey_method":"사진측량","admin_code":"41310"},"geometry":{"type":"Polygon","coordinates":[[[127.145,37.60388],[127.14483,37.60384],[127.14481,37.60388],[127.145,37.60393],[127.14549,37.60404],[127.14617,37.60419],[127.14692,37.60437],[127.14739,37.60447],[127.1474,37.60443],[127.14674,37.60428],[127.14613,37.60414],[127.14509,37.6039],[127.145,37.60388]]]}},{"type":"Feature","id":"TN_RIVER_BNDRY:WTR0100000000K9JT","properties":{"NF_ID":"WTR0100000000K9JT","source_layer":"TN_RIVER_BNDRY","semantic":"zone","river_class":"소하천","river_class_source":"중심선 공간조인","survey_method":"사진측량","admin_code":"41310"},"geometry":{"type":"Polygon","coordinates":[[[127.1287,37.60044],[127.12823,37.60041],[127.12769,37.60016],[127.12829,37.60046],[127.1287,37.60044]]]}},{"type":"Feature","id":"TN_RIVER_BNDRY:WTR0100000000K9KU","properties":{"NF_ID":"WTR0100000000K9KU","source_layer":"TN_RIVER_BNDRY","semantic":"zone","river_class":"소하천","river_class_source":"중심선 공간조인","survey_method":"사진측량","admin_code":"41310"},"geometry":{"type":"Polygon","coordinates":[[[127.14078,37.61385],[127.14078,37.61385],[127.14077,37.61385],[127.14074,37.61388],[127.1407,37.6139],[127.14066,37.61393],[127.14066,37.61393],[127.14069,37.61392],[127.14074,37.6139],[127.14078,37.61387],[127.14079,37.61386],[127.14078,37.61385]]]}},{"type":"Feature","id":"TN_RIVER_BNDRY:WTR0100000000K9LV","properties":{"NF_ID":"WTR0100000000K9LV","source_layer":"TN_RIVER_BNDRY","semantic":"zone","river_class":"소하천","river_class_source":"중심선 공간조인","survey_method":"사진측량","admin_code":"41310"},"geometry":{"type":"Polygon","coordinates":[[[127.14221,37.61686],[127.1422,37.61686],[127.14217,37.61688],[127.14215,37.61689],[127.14213,37.6169],[127.1421,37.61693],[127.14205,37.61697],[127.14201,37.61702],[127.14198,37.61705],[127.14196,37.61707],[127.14194,37.61709],[127.14194,37.61709],[127.14194,37.6171],[127.14194,37.6171],[127.14194,37.6171],[127.14194,37.6171],[127.14194,37.6171],[127.14195,37.6171],[127.14195,37.6171],[127.14196,37.61709],[127.14199,37.61705],[127.14204,37.617],[127.1421,37.61695],[127.14213,37.61692],[127.14215,37.6169],[127.14217,37.61688],[127.14221,37.61686]]]}},{"type":"Feature","id":"TN_RIVER_BNDRY:WTR0100000000K9MW","properties":{"NF_ID":"WTR0100000000K9MW","source_layer":"TN_RIVER_BNDRY","semantic":"zone","river_class":"소하천","river_class_source":"중심선 공간조인","survey_method":"사진측량","admin_code":"41310"},"geometry":{"type":"Polygon","coordinates":[[[127.12805,37.61035],[127.12781,37.61045],[127.12768,37.61075],[127.12729,37.61082],[127.12742,37.61116],[127.12736,37.61087],[127.12777,37.61077],[127.12805,37.61035]]]}},{"type":"Feature","id":"TN_RIVER_BNDRY:WTR0100000000K9NX","properties":{"NF_ID":"WTR0100000000K9NX","source_layer":"TN_RIVER_BNDRY","semantic":"zone","river_class":"소하천","river_class_source":"중심선 공간조인","survey_method":"사진측량","admin_code":"41310"},"geometry":{"type":"Polygon","coordinates":[[[127.12805,37.61035],[127.12774,37.61036],[127.12781,37.61045],[127.12805,37.61035]]]}},{"type":"Feature","id":"TN_RIVER_BNDRY:WTR0100000000KAAL","properties":{"NF_ID":"WTR0100000000KAAL","source_layer":"TN_RIVER_BNDRY","semantic":"zone","river_class":"소하천","river_class_source":"중심선 공간조인","survey_method":"사진측량","admin_code":"41310"},"geometry":{"type":"Polygon","coordinates":[[[127.14064,37.63452],[127.14048,37.63447],[127.14051,37.63459],[127.13968,37.63527],[127.13962,37.63594],[127.13971,37.63531],[127.14064,37.63452]]]}},{"type":"Feature","id":"TN_RIVER_BNDRY:WTR0100000000KABM","properties":{"NF_ID":"WTR0100000000KABM","source_layer":"TN_RIVER_BNDRY","semantic":"zone","river_class":"지방하천","river_class_source":"중심선 공간조인","river_name":"갈매천","river_code":"1024860","survey_method":"사진측량","admin_code":"41310"},"geometry":{"type":"Polygon","coordinates":[[[127.12754,37.64129],[127.12779,37.64108],[127.12754,37.64098],[127.12729,37.64115],[127.12754,37.64129]]]}},{"type":"Feature","id":"TN_RIVER_BNDRY:WTR0100000000KACN","properties":{"NF_ID":"WTR0100000000KACN","source_layer":"TN_RIVER_BNDRY","semantic":"zone","river_class":"지방하천","river_class_source":"중심선 공간조인","river_name":"갈매천","river_code":"1024860","survey_method":"사진측량","admin_code":"41310"},"geometry":{"type":"Polygon","coordinates":[[[127.12918,37.64109],[127.12853,37.6412],[127.12849,37.64154],[127.12925,37.64176],[127.12943,37.641],[127.12918,37.64109]]]}},{"type":"Feature","id":"TN_RIVER_BNDRY:WTR0100000000KADO","properties":{"NF_ID":"WTR0100000000KADO","source_layer":"TN_RIVER_BNDRY","semantic":"zone","river_class":"지방하천","river_class_source":"중심선 공간조인","river_name":"갈매천","river_code":"1024860","survey_method":"사진측량","admin_code":"41310"},"geometry":{"type":"Polygon","coordinates":[[[127.12782,37.64137],[127.12849,37.64154],[127.12853,37.6412],[127.12779,37.64108],[127.12754,37.64129],[127.12782,37.64137]]]}},{"type":"Feature","id":"TN_RIVER_BNDRY:WTR0100000000KAEP","properties":{"NF_ID":"WTR0100000000KAEP","source_layer":"TN_RIVER_BNDRY","semantic":"zone","river_class":"소하천","river_class_source":"중심선 공간조인","survey_method":"사진측량","admin_code":"41310"},"geometry":{"type":"Polygon","coordinates":[[[127.14476,37.63345],[127.14593,37.63449],[127.14701,37.63596],[127.14699,37.63713],[127.14735,37.63818],[127.14706,37.63718],[127.14709,37.63599],[127.14598,37.63448],[127.14476,37.63345]]]}},{"type":"Feature","id":"TN_RIVER_BNDRY:WTR0100000000KAFQ","properties":{"NF_ID":"WTR0100000000KAFQ","source_layer":"TN_RIVER_BNDRY","semantic":"zone","river_class":"소하천","river_class_source":"중심선 공간조인","survey_method":"사진측량","admin_code":"41310"},"geometry":{"type":"Polygon","coordinates":[[[127.14525,37.63067],[127.14509,37.63052],[127.14475,37.63091],[127.14485,37.63154],[127.14453,37.63272],[127.14321,37.6337],[127.14217,37.63389],[127.14064,37.63452],[127.14214,37.63396],[127.14331,37.6337],[127.14463,37.63275],[127.14495,37.63157],[127.14483,37.63095],[127.14525,37.63067]]]}},{"type":"Feature","id":"TN_RIVER_BNDRY:WTR0100000000KAGR","properties":{"NF_ID":"WTR0100000000KAGR","source_layer":"TN_RIVER_BNDRY","semantic":"zone","river_class":"소하천","river_class_source":"중심선 공간조인","survey_method":"사진측량","admin_code":"41310"},"geometry":{"type":"Polygon","coordinates":[[[127.13857,37.62919],[127.13962,37.62956],[127.14054,37.62923],[127.14203,37.62897],[127.14288,37.62831],[127.14293,37.62786],[127.14279,37.62828],[127.1418,37.62892],[127.13963,37.6295],[127.13855,37.62916],[127.13718,37.63093],[127.13857,37.62919]]]}},{"type":"Feature","id":"TN_RIVER_BNDRY:WTR0100000000KAHS","properties":{"NF_ID":"WTR0100000000KAHS","source_layer":"TN_RIVER_BNDRY","semantic":"zone","river_class":"소하천","river_class_source":"중심선 공간조인","survey_method":"사진측량","admin_code":"41310"},"geometry":{"type":"Polygon","coordinates":[[[127.13962,37.63594],[127.13957,37.63587],[127.13956,37.63592],[127.13954,37.63594],[127.13957,37.63599],[127.13962,37.63594]]]}},{"type":"Feature","id":"TN_RIVER_BNDRY:WTR0100000000KAIT","properties":{"NF_ID":"WTR0100000000KAIT","source_layer":"TN_RIVER_BNDRY","semantic":"zone","river_class":"소하천","river_class_source":"중심선 공간조인","survey_method":"사진측량","admin_code":"41310"},"geometry":{"type":"Polygon","coordinates":[[[127.13962,37.63594],[127.13957,37.63599],[127.13957,37.63599],[127.1396,37.63605],[127.13961,37.63606],[127.13962,37.63606],[127.13965,37.63605],[127.13964,37.63602],[127.13962,37.63596],[127.13962,37.63594]]]}},{"type":"Feature","id":"TN_RIVER_BNDRY:WTR0100000000KAJU","properties":{"NF_ID":"WTR0100000000KAJU","source_layer":"TN_RIVER_BNDRY","semantic":"zone","river_class":"소하천","river_class_source":"중심선 공간조인","survey_method":"사진측량","admin_code":"41310"},"geometry":{"type":"Polygon","coordinates":[[[127.13957,37.63599],[127.13899,37.63616],[127.13844,37.63598],[127.13807,37.6363],[127.13763,37.63627],[127.13802,37.63636],[127.13842,37.63603],[127.13896,37.6362],[127.13957,37.63599]]]}},{"type":"Feature","id":"TN_RIVER_BNDRY:WTR0100000000KAKV","properties":{"NF_ID":"WTR0100000000KAKV","source_layer":"TN_RIVER_BNDRY","semantic":"zone","river_class":"소하천","river_class_source":"중심선 공간조인","survey_method":"사진측량","admin_code":"41310"},"geometry":{"type":"Polygon","coordinates":[[[127.13963,37.63396],[127.13958,37.63395],[127.13955,37.63393],[127.13952,37.63397],[127.13961,37.634],[127.13963,37.63396]]]}},{"type":"Feature","id":"TN_RIVER_BNDRY:WTR0100000000KALW","properties":{"NF_ID":"WTR0100000000KALW","source_layer":"TN_RIVER_BNDRY","semantic":"zone","river_class":"소하천","river_class_source":"중심선 공간조인","survey_method":"사진측량","admin_code":"41310"},"geometry":{"type":"Polygon","coordinates":[[[127.13778,37.63302],[127.13779,37.63301],[127.13774,37.63302],[127.13773,37.63302],[127.13743,37.633],[127.13723,37.63298],[127.13711,37.63297],[127.13698,37.63296],[127.13695,37.63296],[127.13685,37.63294],[127.13679,37.63295],[127.13662,37.63297],[127.13644,37.63299],[127.13624,37.633],[127.13622,37.633],[127.13621,37.633],[127.13614,37.63299],[127.13598,37.63294],[127.13593,37.63294],[127.13582,37.63293],[127.13554,37.63291],[127.13545,37.63292],[127.13543,37.63296],[127.13543,37.63297],[127.13554,37.63297],[127.13564,37.63298],[127.13571,37.63298],[127.13579,37.63298],[127.13589,37.63298],[127.136,37.633],[127.13618,37.63305],[127.13621,37.63305],[127.13624,37.63306],[127.13626,37.63305],[127.13637,37.63304],[127.1365,37.63303],[127.13666,37.63302],[127.1368,37.633],[127.13684,37.633],[127.13686,37.633],[127.13687,37.633],[127.13696,37.63302],[127.13698,37.63302],[127.137,37.63302],[127.13713,37.63303],[127.13727,37.63304],[127.1374,37.63305],[127.13754,37.63307],[127.13769,37.63307],[127.13773,37.63308],[127.13778,37.63302]]]}},{"type":"Feature","id":"TN_RIVER_BNDRY:WTR0100000000KAMX","properties":{"NF_ID":"WTR0100000000KAMX","source_layer":"TN_RIVER_BNDRY","semantic":"zone","river_class":"소하천","river_class_source":"중심선 공간조인","survey_method":"사진측량","admin_code":"41310"},"geometry":{"type":"Polygon","coordinates":[[[127.13955,37.63393],[127.1394,37.63361],[127.139,37.63336],[127.13955,37.63393]]]}},{"type":"Feature","id":"TN_RIVER_BNDRY:WTR0100000000KANY","properties":{"NF_ID":"WTR0100000000KANY","source_layer":"TN_RIVER_BNDRY","semantic":"zone","river_class":"소하천","river_class_source":"중심선 공간조인","survey_method":"사진측량","admin_code":"41310"},"geometry":{"type":"Polygon","coordinates":[[[127.13961,37.634],[127.13952,37.63397],[127.13952,37.63398],[127.13953,37.63398],[127.13952,37.63399],[127.1395,37.634],[127.13943,37.63404],[127.13938,37.63408],[127.13933,37.63414],[127.13928,37.6342],[127.13926,37.63422],[127.13927,37.63424],[127.13927,37.63424],[127.13927,37.63425],[127.13928,37.63425],[127.13928,37.63425],[127.13929,37.63425],[127.13931,37.63424],[127.13934,37.63419],[127.13939,37.63412],[127.13943,37.63408],[127.13947,37.63405],[127.13952,37.63402],[127.13956,37.63401],[127.1396,37.634],[127.13961,37.634]]]}},{"type":"Feature","id":"TN_RIVER_BNDRY:WTR0100000000KAOZ","properties":{"NF_ID":"WTR0100000000KAOZ","source_layer":"TN_RIVER_BNDRY","semantic":"zone","river_class":"소하천","river_class_source":"중심선 공간조인","survey_method":"사진측량","admin_code":"41310"},"geometry":{"type":"Polygon","coordinates":[[[127.14071,37.63445],[127.14049,37.63445],[127.14048,37.63447],[127.14064,37.63452],[127.14071,37.63445]]]}},{"type":"Feature","id":"TN_RIVER_BNDRY:WTR0100000000KAP0","properties":{"NF_ID":"WTR0100000000KAP0","source_layer":"TN_RIVER_BNDRY","semantic":"zone","river_class":"소하천","river_class_source":"중심선 공간조인","survey_method":"사진측량","admin_code":"41310"},"geometry":{"type":"Polygon","coordinates":[[[127.14049,37.63445],[127.1404,37.63439],[127.14034,37.63436],[127.14029,37.63434],[127.14026,37.6343],[127.14019,37.63424],[127.14014,37.63421],[127.14008,37.63417],[127.14005,37.63414],[127.14001,37.63411],[127.13997,37.63406],[127.13995,37.63404],[127.13992,37.63402],[127.13988,37.634],[127.1398,37.63399],[127.13968,37.63397],[127.13963,37.63396],[127.13961,37.634],[127.13983,37.63404],[127.1399,37.63406],[127.13992,37.63407],[127.13994,37.63409],[127.13996,37.63412],[127.13999,37.63415],[127.14002,37.63418],[127.14005,37.6342],[127.1401,37.63424],[127.14014,37.63426],[127.14021,37.63433],[127.14026,37.63438],[127.1403,37.63441],[127.14033,37.63442],[127.14037,37.63444],[127.14048,37.63447],[127.14049,37.63445]]]}},{"type":"Feature","id":"TN_RIVER_BNDRY:WTR0100000000KAQ1","properties":{"NF_ID":"WTR0100000000KAQ1","source_layer":"TN_RIVER_BNDRY","semantic":"zone","river_class":"지방하천","river_class_source":"중심선 공간조인","river_name":"왕숙천","river_code":"1024740","survey_method":"사진측량","admin_code":"41310"},"geometry":{"type":"Polygon","coordinates":[[[127.14537,37.6305],[127.14509,37.63052],[127.14525,37.63067],[127.14556,37.63059],[127.14537,37.6305]]]}},{"type":"Feature","id":"TN_RIVER_BNDRY:WTR0100000000KAT4","properties":{"NF_ID":"WTR0100000000KAT4","source_layer":"TN_RIVER_BNDRY","semantic":"zone","river_class":"지방하천","river_class_source":"중심선 공간조인","river_name":"용암천","river_code":"1022890","survey_method":"사진측량","admin_code":"41310"},"geometry":{"type":"MultiPolygon","coordinates":[[[[127.13629,37.64418],[127.13752,37.64454],[127.13915,37.64589],[127.14042,37.64608],[127.14185,37.64589],[127.14335,37.64492],[127.14453,37.64443],[127.14606,37.64425],[127.14652,37.64337],[127.14866,37.64082],[127.14898,37.63975],[127.14884,37.6395],[127.14836,37.64079],[127.1469,37.6424],[127.14589,37.644],[127.144,37.64436],[127.14184,37.64568],[127.14085,37.64582],[127.14043,37.64605],[127.13749,37.6445],[127.13629,37.64418]]],[[[127.13158,37.6419],[127.13326,37.64304],[127.1309,37.64076],[127.13,37.6408],[127.12943,37.641],[127.12925,37.64176],[127.13,37.64149],[127.13049,37.6415],[127.13158,37.6419]]]]}},{"type":"Feature","id":"TN_RIVER_BNDRY:WTR0100000000KIN6","properties":{"NF_ID":"WTR0100000000KIN6","source_layer":"TN_RIVER_BNDRY","semantic":"zone","river_class":"소하천","river_class_source":"중심선 공간조인","survey_method":"사진측량","admin_code":"41310"},"geometry":{"type":"Polygon","coordinates":[[[127.13904,37.58216],[127.1383,37.58182],[127.13735,37.58086],[127.13613,37.58047],[127.13515,37.58035],[127.13413,37.57976],[127.13348,37.57957],[127.13338,37.57967],[127.13343,37.57956],[127.1329,37.57935],[127.13253,37.57941],[127.13244,37.57963],[127.1333,37.57982],[127.13425,37.58057],[127.13416,37.58131],[127.13383,37.58164],[127.13418,37.58134],[127.13429,37.58071],[127.13444,37.58072],[127.13764,37.58184],[127.13815,37.58217],[127.13868,37.58214],[127.13961,37.58282],[127.13996,37.58343],[127.14073,37.58389],[127.14117,37.58463],[127.14109,37.58537],[127.14067,37.58648],[127.14119,37.58663],[127.14154,37.58651],[127.14158,37.58423],[127.14103,37.58347],[127.14001,37.58297],[127.13904,37.58216]]]}},{"type":"Feature","id":"TN_RIVER_BNDRY:WTR0100000000KIO7","properties":{"NF_ID":"WTR0100000000KIO7","source_layer":"TN_RIVER_BNDRY","semantic":"zone","river_class":"소하천","river_class_source":"중심선 공간조인","survey_method":"사진측량","admin_code":"41310"},"geometry":{"type":"Polygon","coordinates":[[[127.13101,37.57929],[127.13073,37.57948],[127.1305,37.58014],[127.1292,37.58128],[127.13061,37.58017],[127.13101,37.57929]]]}},{"type":"Feature","id":"TN_RIVER_BNDRY:WTR0100000000KIP8","properties":{"NF_ID":"WTR0100000000KIP8","source_layer":"TN_RIVER_BNDRY","semantic":"zone","river_class":"소하천","river_class_source":"중심선 공간조인","survey_method":"사진측량","admin_code":"41310"},"geometry":{"type":"Polygon","coordinates":[[[127.12688,37.59953],[127.12653,37.59952],[127.12629,37.59926],[127.12648,37.59952],[127.12714,37.59965],[127.12688,37.59953]]]}},{"type":"Feature","id":"TN_RIVER_BNDRY:WTR0100000000KLJ5","properties":{"NF_ID":"WTR0100000000KLJ5","source_layer":"TN_RIVER_BNDRY","semantic":"zone","river_class":"소하천","river_class_source":"중심선 공간조인","survey_method":"사진측량","admin_code":"41310"},"geometry":{"type":"Polygon","coordinates":[[[127.12515,37.57491],[127.12483,37.57502],[127.12498,37.57513],[127.12515,37.57491]]]}},{"type":"Feature","id":"TN_RIVER_BNDRY:WTR0100000000KLK6","properties":{"NF_ID":"WTR0100000000KLK6","source_layer":"TN_RIVER_BNDRY","semantic":"zone","river_class":"국가하천","river_class_source":"중심선 공간조인","river_name":"한강","river_code":"1000010","survey_method":"사진측량","admin_code":"41310"},"geometry":{"type":"Polygon","coordinates":[[[127.15124,37.5698],[127.14895,37.56843],[127.13767,37.56842],[127.13427,37.56795],[127.12861,37.56616],[127.12734,37.56555],[127.12401,37.56849],[127.12528,37.56928],[127.12627,37.56975],[127.12634,37.5696],[127.12764,37.57029],[127.12755,37.5704],[127.12867,37.57094],[127.13587,37.57387],[127.13709,37.57421],[127.13968,37.57462],[127.14455,37.5747],[127.14707,37.57499],[127.14945,37.57551],[127.15164,37.57642],[127.15283,37.57075],[127.15124,37.5698]]]}},{"type":"Feature","id":"TN_RIVER_BNDRY:WTR0100000000KLL7","properties":{"NF_ID":"WTR0100000000KLL7","source_layer":"TN_RIVER_BNDRY","semantic":"zone","river_class":"소하천","river_class_source":"중심선 공간조인","survey_method":"사진측량","admin_code":"41310"},"geometry":{"type":"Polygon","coordinates":[[[127.12515,37.57491],[127.12498,37.57513],[127.13063,37.57814],[127.13079,37.57795],[127.12515,37.57491]]]}},{"type":"Feature","id":"TN_RIVER_BNDRY:WTR0100000000KLM8","properties":{"NF_ID":"WTR0100000000KLM8","source_layer":"TN_RIVER_BNDRY","semantic":"zone","river_class":"소하천","river_class_source":"중심선 공간조인","survey_method":"사진측량","admin_code":"41310"},"geometry":{"type":"Polygon","coordinates":[[[127.12529,37.58272],[127.12579,37.58269],[127.12582,37.58269],[127.12595,37.58269],[127.12598,37.58268],[127.12605,37.58267],[127.12614,37.58266],[127.12615,37.58265],[127.12617,37.58263],[127.1262,37.5826],[127.1262,37.5826],[127.12605,37.58262],[127.126,37.58263],[127.12594,37.58264],[127.12581,37.58264],[127.12578,37.58264],[127.12536,37.58265],[127.12529,37.58265],[127.125,37.58268],[127.12486,37.5827],[127.12469,37.58273],[127.12467,37.58276],[127.12467,37.58278],[127.125,37.58275],[127.12529,37.58272],[127.12529,37.58272]]]}},{"type":"Feature","id":"TN_RIVER_BNDRY:WTR0100000000KLN9","properties":{"NF_ID":"WTR0100000000KLN9","source_layer":"TN_RIVER_BNDRY","semantic":"zone","river_class":"소하천","river_class_source":"중심선 공간조인","survey_method":"사진측량","admin_code":"41310"},"geometry":{"type":"Polygon","coordinates":[[[127.15595,37.5858],[127.15564,37.58571],[127.15558,37.58554],[127.15499,37.58549],[127.15345,37.58498],[127.14911,37.58276],[127.1474,37.58155],[127.14656,37.58065],[127.14734,37.58166],[127.1489,37.58273],[127.1533,37.58495],[127.15526,37.58574],[127.15595,37.5858]]]}},{"type":"Feature","id":"TN_RIVER_BNDRY:WTR0100000000KLSE","properties":{"NF_ID":"WTR0100000000KLSE","source_layer":"TN_RIVER_BNDRY","semantic":"zone","river_class":"소하천","river_class_source":"중심선 공간조인","survey_method":"사진측량","admin_code":"41310"},"geometry":{"type":"Polygon","coordinates":[[[127.15077,37.59976],[127.15001,37.59951],[127.14743,37.59948],[127.14774,37.59962],[127.15077,37.59976]]]}},{"type":"Feature","id":"TN_RIVER_BNDRY:WTR0100000000KLTF","properties":{"NF_ID":"WTR0100000000KLTF","source_layer":"TN_RIVER_BNDRY","semantic":"zone","river_class":"소하천","river_class_source":"중심선 공간조인","survey_method":"사진측량","admin_code":"41310"},"geometry":{"type":"Polygon","coordinates":[[[127.12649,37.60181],[127.12713,37.60147],[127.12761,37.60147],[127.12874,37.60105],[127.12747,37.60145],[127.12705,37.60145],[127.12634,37.6018],[127.12589,37.60149],[127.12567,37.60148],[127.12541,37.60173],[127.125,37.60161],[127.12547,37.6018],[127.12575,37.60151],[127.12626,37.60183],[127.12649,37.60181]]]}},{"type":"Feature","id":"TN_RIVER_BNDRY:WTR0100000000KLWI","properties":{"NF_ID":"WTR0100000000KLWI","source_layer":"TN_RIVER_BNDRY","semantic":"zone","river_class":"소하천","river_class_source":"중심선 공간조인","survey_method":"사진측량","admin_code":"41310"},"geometry":{"type":"Polygon","coordinates":[[[127.12781,37.61045],[127.12728,37.61043],[127.12688,37.61082],[127.1259,37.61098],[127.1244,37.61097],[127.1248,37.61106],[127.12691,37.61092],[127.12732,37.61053],[127.12781,37.61045]]]}},{"type":"Feature","id":"TN_RIVER_BNDRY:WTR0100000000KLXJ","properties":{"NF_ID":"WTR0100000000KLXJ","source_layer":"TN_RIVER_BNDRY","semantic":"zone","river_class":"지방하천","river_class_source":"중심선 공간조인","river_name":"왕숙천","river_code":"1024740","survey_method":"사진측량","admin_code":"41310"},"geometry":{"type":"MultiPolygon","coordinates":[[[[127.14658,37.61174],[127.1479,37.60996],[127.14782,37.60742],[127.14801,37.60623],[127.14931,37.60263],[127.15042,37.60094],[127.15059,37.60003],[127.15002,37.60013],[127.14859,37.60259],[127.14855,37.60356],[127.14742,37.60756],[127.14658,37.61174]]],[[[127.14466,37.62975],[127.14314,37.62521],[127.14283,37.62322],[127.14333,37.62096],[127.14396,37.6212],[127.14409,37.62066],[127.14349,37.62066],[127.14595,37.61815],[127.14648,37.61568],[127.1458,37.61446],[127.1452,37.61554],[127.14504,37.61613],[127.14519,37.6162],[127.14488,37.61695],[127.14287,37.62001],[127.14257,37.62091],[127.1426,37.6259],[127.14466,37.62975]]],[[[127.145,37.63034],[127.14509,37.63052],[127.1453,37.63047],[127.145,37.63034]]]]}},{"type":"Feature","id":"TN_RIVER_BNDRY:WTR0100000000KLYK","properties":{"NF_ID":"WTR0100000000KLYK","source_layer":"TN_RIVER_BNDRY","semantic":"zone","river_class":"지방하천","river_class_source":"중심선 공간조인","river_name":"갈매천","river_code":"1024860","survey_method":"사진측량","admin_code":"41310"},"geometry":{"type":"Polygon","coordinates":[[[127.12754,37.64098],[127.12606,37.63996],[127.1259,37.64003],[127.12526,37.63962],[127.12322,37.63929],[127.11994,37.63795],[127.1189,37.63738],[127.11813,37.63673],[127.11789,37.63624],[127.11792,37.63558],[127.1191,37.6335],[127.11909,37.63254],[127.1169,37.62884],[127.11663,37.62757],[127.11708,37.62554],[127.11506,37.62398],[127.11419,37.62284],[127.11513,37.6241],[127.11701,37.62558],[127.11658,37.62758],[127.11688,37.62892],[127.11907,37.63265],[127.11898,37.63367],[127.11786,37.63558],[127.11785,37.63627],[127.11809,37.63675],[127.11877,37.63734],[127.1198,37.63794],[127.12315,37.63929],[127.12508,37.63965],[127.12729,37.64115],[127.12754,37.64098]]]}},{"type":"Feature","id":"TN_RIVER_BNDRY:WTR0100000000KM0N","properties":{"NF_ID":"WTR0100000000KM0N","source_layer":"TN_RIVER_BNDRY","semantic":"zone","river_class":"지방하천","river_class_source":"중심선 공간조인","river_name":"불암천","river_code":"1024870","survey_method":"사진측량","admin_code":"41310"},"geometry":{"type":"Polygon","coordinates":[[[127.1156,37.6438],[127.11648,37.64335],[127.11976,37.6429],[127.12074,37.64253],[127.12217,37.64246],[127.12456,37.64191],[127.12542,37.64188],[127.12724,37.64121],[127.12752,37.64129],[127.12729,37.64115],[127.12446,37.64193],[127.12078,37.64238],[127.11976,37.64283],[127.11671,37.64323],[127.1156,37.6438]]]}}]}