{"type":"FeatureCollection","features":[{"type":"Feature","id":"TN_RIVER_BT:WTR02000000004GRT","properties":{"NF_ID":"WTR02000000004GRT","admin_code":"41285","source_layer":"TN_RIVER_BT","semantic":"channel","river_class":"등급미확인","survey_method":"사진측량"},"geometry":{"type":"Polygon","coordinates":[[[126.76164,37.6335],[126.76164,37.6335],[126.76162,37.63351],[126.7615,37.63358],[126.76142,37.63362],[126.76141,37.63363],[126.7614,37.63363],[126.7614,37.63364],[126.76141,37.63365],[126.76141,37.63365],[126.76142,37.63366],[126.76147,37.63367],[126.76153,37.63368],[126.76156,37.63368],[126.76159,37.63368],[126.76161,37.63367],[126.76163,37.63367],[126.7617,37.63363],[126.76171,37.63362],[126.76172,37.63362],[126.76171,37.63361],[126.7617,37.63358],[126.76165,37.63351],[126.76164,37.6335]]]}},{"type":"Feature","id":"TN_RIVER_BT:WTR02000000004GWY","properties":{"NF_ID":"WTR02000000004GWY","admin_code":"41285","source_layer":"TN_RIVER_BT","semantic":"channel","river_class":"등급미확인","survey_method":"사진측량"},"geometry":{"type":"Polygon","coordinates":[[[126.75903,37.63359],[126.75877,37.63369],[126.75942,37.6339],[126.75974,37.63461],[126.7595,37.63388],[126.75903,37.63359]]]}},{"type":"Feature","id":"TN_RIVER_BT:WTR02000000004H03","properties":{"NF_ID":"WTR02000000004H03","admin_code":"41285","source_layer":"TN_RIVER_BT","semantic":"channel","river_class":"소하천","river_class_source":"중심선 공간조인","survey_method":"사진측량"},"geometry":{"type":"Polygon","coordinates":[[[126.77156,37.63419],[126.77155,37.63416],[126.77152,37.63417],[126.77154,37.6342],[126.7717,37.63447],[126.7719,37.63481],[126.77226,37.6354],[126.77246,37.63573],[126.7725,37.63571],[126.77238,37.63555],[126.77217,37.6352],[126.77195,37.63484],[126.77173,37.63447],[126.77156,37.63419]]]}},{"type":"Feature","id":"TN_RIVER_BT:WTR02000000004H36","properties":{"NF_ID":"WTR02000000004H36","admin_code":"41285","source_layer":"TN_RIVER_BT","semantic":"channel","river_class":"등급미확인","survey_method":"사진측량"},"geometry":{"type":"Polygon","coordinates":[[[126.75957,37.63628],[126.75956,37.63627],[126.75954,37.63628],[126.75953,37.63628],[126.75953,37.63629],[126.75953,37.6363],[126.75953,37.63631],[126.7596,37.63638],[126.75963,37.6364],[126.75977,37.63653],[126.75977,37.63653],[126.75978,37.63653],[126.75979,37.63653],[126.75981,37.63652],[126.75982,37.63651],[126.75982,37.63651],[126.75982,37.6365],[126.75981,37.63648],[126.75959,37.63628],[126.75957,37.63628]]]}},{"type":"Feature","id":"TN_RIVER_BT:WTR02000000004H47","properties":{"NF_ID":"WTR02000000004H47","admin_code":"41285","source_layer":"TN_RIVER_BT","semantic":"channel","river_class":"등급미확인","survey_method":"사진측량"},"geometry":{"type":"Polygon","coordinates":[[[126.75636,37.63525],[126.75624,37.63504],[126.75593,37.63523],[126.75627,37.63531],[126.75644,37.63591],[126.75615,37.63657],[126.75652,37.636],[126.75636,37.63525]]]}},{"type":"Feature","id":"TN_RIVER_BT:WTR02000000004H8B","properties":{"NF_ID":"WTR02000000004H8B","admin_code":"41285","source_layer":"TN_RIVER_BT","semantic":"channel","river_class":"등급미확인","survey_method":"사진측량"},"geometry":{"type":"Polygon","coordinates":[[[126.76379,37.63596],[126.76412,37.63587],[126.76372,37.6357],[126.76104,37.63725],[126.76379,37.63596]]]}},{"type":"Feature","id":"TN_RIVER_BT:WTR02000000004H9C","properties":{"NF_ID":"WTR02000000004H9C","admin_code":"41285","source_layer":"TN_RIVER_BT","semantic":"channel","river_class":"등급미확인","survey_method":"사진측량"},"geometry":{"type":"Polygon","coordinates":[[[126.76055,37.6372],[126.76054,37.6372],[126.76054,37.6372],[126.76053,37.6372],[126.76047,37.63726],[126.76043,37.63728],[126.76026,37.63737],[126.76016,37.63742],[126.76015,37.63743],[126.76015,37.63744],[126.76016,37.63745],[126.76016,37.63746],[126.76017,37.63746],[126.76018,37.63746],[126.76057,37.63726],[126.76058,37.63725],[126.76058,37.63724],[126.76058,37.63723],[126.76058,37.63722],[126.76055,37.6372]]]}},{"type":"Feature","id":"TN_RIVER_BT:WTR02000000004HAD","properties":{"NF_ID":"WTR02000000004HAD","admin_code":"41285","source_layer":"TN_RIVER_BT","semantic":"channel","river_class":"소하천","river_class_source":"중심선 공간조인","survey_method":"사진측량"},"geometry":{"type":"Polygon","coordinates":[[[126.76812,37.63735],[126.76794,37.63706],[126.76792,37.63707],[126.76799,37.63717],[126.76822,37.63756],[126.76824,37.63755],[126.76812,37.63735]]]}},{"type":"Feature","id":"TN_RIVER_BT:WTR02000000004HEH","properties":{"NF_ID":"WTR02000000004HEH","admin_code":"41285","source_layer":"TN_RIVER_BT","semantic":"channel","river_class":"등급미확인","survey_method":"사진측량"},"geometry":{"type":"Polygon","coordinates":[[[126.76081,37.63742],[126.75887,37.63856],[126.76063,37.63782],[126.76081,37.63742]]]}},{"type":"Feature","id":"TN_RIVER_BT:WTR02000000004HJM","properties":{"NF_ID":"WTR02000000004HJM","admin_code":"41285","source_layer":"TN_RIVER_BT","semantic":"channel","river_class":"등급미확인","survey_method":"사진측량"},"geometry":{"type":"Polygon","coordinates":[[[126.7581,37.63853],[126.75874,37.63861],[126.75833,37.63831],[126.75731,37.6388],[126.75693,37.6393],[126.75582,37.63988],[126.75591,37.64004],[126.7581,37.63853]]]}},{"type":"Feature","id":"TN_RIVER_BT:WTR02000000004HLO","properties":{"NF_ID":"WTR02000000004HLO","admin_code":"41285","source_layer":"TN_RIVER_BT","semantic":"channel","river_class":"소하천","river_class_source":"중심선 공간조인","survey_method":"사진측량"},"geometry":{"type":"Polygon","coordinates":[[[126.77482,37.63955],[126.77481,37.63955],[126.77481,37.63955],[126.7748,37.63955],[126.7748,37.63955],[126.7748,37.63956],[126.7748,37.63956],[126.7748,37.63956],[126.7748,37.63957],[126.77485,37.63965],[126.77494,37.6398],[126.775,37.63991],[126.77505,37.64],[126.77508,37.64005],[126.77518,37.64021],[126.77519,37.64022],[126.7751,37.64028],[126.77511,37.64029],[126.7752,37.64024],[126.7752,37.64023],[126.77521,37.64022],[126.77524,37.64021],[126.77524,37.6402],[126.77516,37.64009],[126.77511,37.64],[126.775,37.63982],[126.77496,37.63976],[126.77483,37.63956],[126.77482,37.63955],[126.77482,37.63955]]]}},{"type":"Feature","id":"TN_RIVER_BT:WTR02000000004HNQ","properties":{"NF_ID":"WTR02000000004HNQ","admin_code":"41285","source_layer":"TN_RIVER_BT","semantic":"channel","river_class":"등급미확인","survey_method":"사진측량"},"geometry":{"type":"Polygon","coordinates":[[[126.75398,37.63832],[126.75553,37.64013],[126.75573,37.64012],[126.75284,37.63689],[126.75227,37.63723],[126.75273,37.63717],[126.75331,37.63748],[126.75388,37.63832],[126.75079,37.64065],[126.75398,37.63832]]]}},{"type":"Feature","id":"TN_RIVER_BT:WTR02000000004HQT","properties":{"NF_ID":"WTR02000000004HQT","admin_code":"41285","source_layer":"TN_RIVER_BT","semantic":"channel","river_class":"등급미확인","survey_method":"사진측량"},"geometry":{"type":"Polygon","coordinates":[[[126.75475,37.64055],[126.75551,37.64032],[126.75518,37.64021],[126.75407,37.6408],[126.75423,37.64099],[126.75475,37.64055]]]}},{"type":"Feature","id":"TN_RIVER_BT:WTR02000000004HSV","properties":{"NF_ID":"WTR02000000004HSV","admin_code":"41285","source_layer":"TN_RIVER_BT","semantic":"channel","river_class":"등급미확인","survey_method":"사진측량"},"geometry":{"type":"Polygon","coordinates":[[[126.76605,37.64156],[126.76606,37.64155],[126.76607,37.64156],[126.76608,37.64155],[126.76572,37.64115],[126.76568,37.6411],[126.76554,37.64096],[126.76551,37.64098],[126.76564,37.64112],[126.76569,37.64117],[126.76605,37.64156]]]}},{"type":"Feature","id":"TN_RIVER_BT:WTR02000000004HTW","properties":{"NF_ID":"WTR02000000004HTW","admin_code":"41285","source_layer":"TN_RIVER_BT","semantic":"channel","river_class":"등급미확인","survey_method":"사진측량"},"geometry":{"type":"Polygon","coordinates":[[[126.75388,37.64091],[126.75248,37.64169],[126.75391,37.64113],[126.75388,37.64091]]]}},{"type":"Feature","id":"TN_RIVER_BT:WTR02000000004HUX","properties":{"NF_ID":"WTR02000000004HUX","admin_code":"41285","source_layer":"TN_RIVER_BT","semantic":"channel","river_class":"등급미확인","survey_method":"사진측량"},"geometry":{"type":"Polygon","coordinates":[[[126.75086,37.64095],[126.75085,37.64095],[126.75085,37.64095],[126.75084,37.64095],[126.75084,37.64096],[126.75085,37.64097],[126.75095,37.64104],[126.75165,37.64147],[126.75203,37.64169],[126.75211,37.64173],[126.75213,37.64174],[126.75214,37.64174],[126.75215,37.64174],[126.75216,37.64174],[126.75216,37.64173],[126.75215,37.64172],[126.75184,37.64154],[126.75146,37.64131],[126.75098,37.64101],[126.75087,37.64095],[126.75086,37.64095]]]}},{"type":"Feature","id":"TN_RIVER_BT:WTR02000000004HWZ","properties":{"NF_ID":"WTR02000000004HWZ","admin_code":"41285","source_layer":"TN_RIVER_BT","semantic":"channel","river_class":"등급미확인","survey_method":"사진측량"},"geometry":{"type":"Polygon","coordinates":[[[126.76645,37.64194],[126.76631,37.6418],[126.76628,37.64181],[126.76642,37.64196],[126.76645,37.64194]]]}},{"type":"Feature","id":"TN_RIVER_BT:WTR02000000004I7B","properties":{"NF_ID":"WTR02000000004I7B","admin_code":"41285","source_layer":"TN_RIVER_BT","semantic":"channel","river_class":"소하천","river_class_source":"중심선 공간조인","survey_method":"사진측량"},"geometry":{"type":"Polygon","coordinates":[[[126.77596,37.64474],[126.77595,37.64473],[126.77594,37.64474],[126.77593,37.64475],[126.77592,37.64477],[126.77591,37.64479],[126.7759,37.64481],[126.7759,37.64483],[126.77589,37.64485],[126.77588,37.64487],[126.77587,37.64488],[126.77586,37.64489],[126.77585,37.6449],[126.77583,37.64491],[126.77581,37.64492],[126.77578,37.64493],[126.77575,37.64493],[126.77573,37.64494],[126.7757,37.64494],[126.77567,37.64495],[126.77565,37.64496],[126.77563,37.64498],[126.77561,37.645],[126.7756,37.64502],[126.77559,37.64504],[126.77558,37.64506],[126.77557,37.64508],[126.77556,37.64509],[126.77554,37.6451],[126.77552,37.64511],[126.77549,37.64512],[126.77547,37.64513],[126.77545,37.64513],[126.77544,37.64514],[126.77543,37.64515],[126.77543,37.64516],[126.77543,37.64516],[126.77544,37.64516],[126.77545,37.64515],[126.77546,37.64514],[126.77547,37.64513],[126.7755,37.64513],[126.77552,37.64512],[126.77554,37.64511],[126.77557,37.64509],[126.77558,37.64508],[126.7756,37.64506],[126.7756,37.64504],[126.77562,37.64502],[126.77563,37.645],[126.77563,37.645],[126.77564,37.64499],[126.77566,37.64498],[126.77568,37.64496],[126.77571,37.64496],[126.77574,37.64495],[126.77578,37.64494],[126.77581,37.64493],[126.77584,37.64493],[126.77586,37.64492],[126.77588,37.6449],[126.77589,37.64488],[126.7759,37.64487],[126.77592,37.64484],[126.77593,37.64482],[126.77593,37.6448],[126.77594,37.64477],[126.77595,37.64475],[126.77596,37.64474],[126.77596,37.64474]]]}},{"type":"Feature","id":"TN_RIVER_BT:WTR02000000004I8C","properties":{"NF_ID":"WTR02000000004I8C","admin_code":"41285","source_layer":"TN_RIVER_BT","semantic":"channel","river_class":"등급미확인","survey_method":"사진측량"},"geometry":{"type":"Polygon","coordinates":[[[126.76106,37.64482],[126.76105,37.64481],[126.76073,37.645],[126.76046,37.64516],[126.76046,37.64517],[126.76076,37.645],[126.76106,37.64482]]]}},{"type":"Feature","id":"TN_RIVER_BT:WTR02000000004I9D","properties":{"NF_ID":"WTR02000000004I9D","admin_code":"41285","source_layer":"TN_RIVER_BT","semantic":"channel","river_class":"소하천","river_class_source":"중심선 공간조인","survey_method":"사진측량"},"geometry":{"type":"Polygon","coordinates":[[[126.77566,37.64527],[126.77568,37.64526],[126.7757,37.64525],[126.77572,37.64523],[126.77573,37.64522],[126.77573,37.6452],[126.77574,37.64518],[126.77577,37.64513],[126.77578,37.64512],[126.7758,37.6451],[126.77581,37.6451],[126.77583,37.64509],[126.77585,37.64509],[126.77588,37.64509],[126.77591,37.64509],[126.77593,37.64509],[126.77596,37.64508],[126.776,37.64507],[126.77604,37.64505],[126.77606,37.64503],[126.77609,37.64502],[126.77611,37.64501],[126.77614,37.64501],[126.77617,37.64501],[126.77619,37.64501],[126.77622,37.645],[126.77625,37.645],[126.77627,37.64499],[126.77629,37.64498],[126.7763,37.64498],[126.77632,37.64497],[126.77631,37.64496],[126.77627,37.64498],[126.77624,37.64499],[126.77621,37.64499],[126.77618,37.64499],[126.77615,37.645],[126.77612,37.645],[126.77609,37.64501],[126.77607,37.64502],[126.77605,37.64503],[126.77603,37.64505],[126.776,37.64506],[126.77598,37.64507],[126.77594,37.64508],[126.77591,37.64508],[126.77584,37.64508],[126.77581,37.64509],[126.77578,37.6451],[126.77576,37.64512],[126.77575,37.64515],[126.77573,37.64517],[126.77572,37.64519],[126.7757,37.64521],[126.77569,37.64523],[126.77567,37.64525],[126.77565,37.64526],[126.77563,37.64526],[126.77559,37.64526],[126.77556,37.64526],[126.77553,37.64525],[126.7755,37.64525],[126.77547,37.64525],[126.77545,37.64525],[126.77544,37.64525],[126.77545,37.64526],[126.77546,37.64526],[126.77549,37.64526],[126.77552,37.64527],[126.77554,37.64527],[126.77557,37.64528],[126.7756,37.64528],[126.77563,37.64527],[126.77566,37.64527]]]}},{"type":"Feature","id":"TN_RIVER_BT:WTR02000000004IEI","properties":{"NF_ID":"WTR02000000004IEI","admin_code":"41285","source_layer":"TN_RIVER_BT","semantic":"channel","river_class":"등급미확인","survey_method":"사진측량"},"geometry":{"type":"Polygon","coordinates":[[[126.75504,37.64681],[126.75501,37.6468],[126.75501,37.64679],[126.755,37.64679],[126.755,37.64678],[126.75499,37.64678],[126.75497,37.64677],[126.75496,37.64677],[126.75495,37.64677],[126.75494,37.64676],[126.75494,37.64677],[126.75494,37.64678],[126.75494,37.64678],[126.75495,37.64679],[126.75496,37.64679],[126.75497,37.6468],[126.75498,37.6468],[126.75499,37.6468],[126.75499,37.6468],[126.755,37.6468],[126.755,37.64681],[126.75501,37.64681],[126.75502,37.64682],[126.75505,37.64683],[126.75509,37.64685],[126.75516,37.64688],[126.7552,37.64689],[126.75525,37.64692],[126.75539,37.64699],[126.7554,37.64699],[126.7554,37.64699],[126.7554,37.647],[126.7554,37.647],[126.75541,37.64701],[126.75542,37.64701],[126.75544,37.64701],[126.75545,37.64702],[126.75546,37.64701],[126.75545,37.64701],[126.75544,37.647],[126.75543,37.64699],[126.75542,37.64698],[126.75542,37.64698],[126.7554,37.64697],[126.7554,37.64697],[126.75539,37.64697],[126.75537,37.64696],[126.75536,37.64695],[126.75534,37.64695],[126.75529,37.64692],[126.75523,37.6469],[126.75518,37.64687],[126.75513,37.64685],[126.75508,37.64683],[126.75504,37.64681]]]}},{"type":"Feature","id":"TN_RIVER_BT:WTR02000000004IJN","properties":{"NF_ID":"WTR02000000004IJN","admin_code":"41285","source_layer":"TN_RIVER_BT","semantic":"channel","river_class":"소하천","river_class_source":"중심선 공간조인","survey_method":"사진측량"},"geometry":{"type":"Polygon","coordinates":[[[126.76244,37.64938],[126.76367,37.64921],[126.76464,37.64876],[126.78011,37.63966],[126.78754,37.6343],[126.78032,37.63949],[126.76452,37.64879],[126.76366,37.64919],[126.76215,37.64936],[126.76077,37.64856],[126.76193,37.64933],[126.76244,37.64938]]]}},{"type":"Feature","id":"TN_RIVER_BT:WTR02000000004INR","properties":{"NF_ID":"WTR02000000004INR","admin_code":"41285","source_layer":"TN_RIVER_BT","semantic":"channel","river_class":"소하천","river_class_source":"중심선 공간조인","survey_method":"사진측량"},"geometry":{"type":"Polygon","coordinates":[[[126.79271,37.63251],[126.79204,37.6328],[126.77895,37.6427],[126.76693,37.64972],[126.77904,37.6427],[126.79271,37.63251]]]}},{"type":"Feature","id":"TN_RIVER_BT:WTR02000000004IQU","properties":{"NF_ID":"WTR02000000004IQU","admin_code":"41285","source_layer":"TN_RIVER_BT","semantic":"channel","river_class":"소하천","river_class_source":"중심선 공간조인","survey_method":"사진측량"},"geometry":{"type":"Polygon","coordinates":[[[126.76061,37.65276],[126.76061,37.65273],[126.75971,37.65283],[126.75807,37.65304],[126.75709,37.65317],[126.75585,37.65333],[126.75432,37.65353],[126.75266,37.65375],[126.75188,37.65386],[126.75017,37.65408],[126.75,37.6541],[126.75,37.6541],[126.75,37.65414],[126.75,37.65414],[126.75036,37.65409],[126.75144,37.65395],[126.75277,37.65377],[126.75489,37.6535],[126.75606,37.65334],[126.75742,37.65317],[126.75908,37.65294],[126.75995,37.65285],[126.76061,37.65276]]]}},{"type":"Feature","id":"TN_RIVER_BT:WTR02000000004IY2","properties":{"NF_ID":"WTR02000000004IY2","admin_code":"41285","source_layer":"TN_RIVER_BT","semantic":"channel","river_class":"소하천","river_class_source":"중심선 공간조인","survey_method":"사진측량"},"geometry":{"type":"Polygon","coordinates":[[[126.75362,37.65976],[126.75437,37.65941],[126.75598,37.65947],[126.75687,37.65924],[126.75816,37.65956],[126.75891,37.65935],[126.75902,37.65907],[126.75829,37.65925],[126.75698,37.65903],[126.7557,37.65926],[126.75442,37.65917],[126.75338,37.65945],[126.75156,37.65852],[126.75025,37.65859],[126.75,37.65891],[126.75186,37.65887],[126.75293,37.65957],[126.75362,37.65976]],[[126.75343,37.65968],[126.75345,37.65968],[126.75347,37.65968],[126.75351,37.65969],[126.75359,37.65968],[126.75362,37.65968],[126.75366,37.65968],[126.75369,37.65967],[126.7537,37.65968],[126.7537,37.65968],[126.7537,37.65968],[126.7537,37.65969],[126.75364,37.65973],[126.75361,37.65975],[126.75356,37.65975],[126.75352,37.65975],[126.75348,37.65975],[126.75343,37.65974],[126.75339,37.65973],[126.75335,37.65971],[126.75335,37.6597],[126.75334,37.65969],[126.75335,37.65969],[126.75336,37.65968],[126.75343,37.65968]]]}},{"type":"Feature","id":"TN_RIVER_BT:WTR02000000004K06","properties":{"NF_ID":"WTR02000000004K06","admin_code":"41285","source_layer":"TN_RIVER_BT","semantic":"channel","river_class":"지방하천","river_class_source":"중심선 공간조인","river_name":"도촌천","river_code":"1025680","survey_method":"사진측량"},"geometry":{"type":"Polygon","coordinates":[[[126.82546,37.645],[126.82526,37.64446],[126.82934,37.64346],[126.82516,37.64436],[126.82144,37.63431],[126.82052,37.63345],[126.82413,37.63247],[126.81998,37.63352],[126.81779,37.63288],[126.81839,37.63177],[126.81756,37.63287],[126.81211,37.63174],[126.81162,37.63109],[126.81187,37.63054],[126.8116,37.63105],[126.81124,37.63055],[126.81,37.62993],[126.80812,37.62845],[126.80811,37.62749],[126.80726,37.6261],[126.80583,37.62461],[126.80476,37.62299],[126.80401,37.62268],[126.80446,37.62204],[126.80711,37.61993],[126.8039,37.62265],[126.80198,37.62222],[126.80024,37.62042],[126.79966,37.62012],[126.79669,37.61948],[126.80184,37.61638],[126.80395,37.61541],[126.80994,37.61739],[126.81348,37.61782],[126.81198,37.62062],[126.81381,37.6243],[126.812,37.62062],[126.81357,37.61778],[126.82333,37.61445],[126.81312,37.61767],[126.81016,37.61732],[126.80426,37.61526],[126.80375,37.61529],[126.79877,37.61829],[126.79829,37.61836],[126.79612,37.61958],[126.79587,37.62034],[126.79563,37.62024],[126.79467,37.62076],[126.79486,37.62105],[126.79451,37.62125],[126.79438,37.62178],[126.79459,37.62223],[126.79422,37.62247],[126.7943,37.62229],[126.79407,37.62232],[126.79386,37.62268],[126.79401,37.62295],[126.79214,37.62467],[126.79138,37.62574],[126.79137,37.62617],[126.7908,37.62628],[126.78657,37.62886],[126.78551,37.63057],[126.78471,37.63117],[126.78383,37.63142],[126.77403,37.63194],[126.76243,37.6382],[126.75978,37.63993],[126.75816,37.6417],[126.75538,37.64605],[126.75401,37.64713],[126.7534,37.64743],[126.75164,37.64766],[126.75,37.64699],[126.75159,37.6477],[126.75318,37.64752],[126.75406,37.64717],[126.75509,37.64623],[126.75542,37.64621],[126.75688,37.64379],[126.75961,37.6403],[126.76317,37.63799],[126.77389,37.63216],[126.78448,37.6315],[126.78556,37.63078],[126.78672,37.62895],[126.79075,37.6264],[126.79143,37.62628],[126.7935,37.62838],[126.79432,37.62893],[126.79388,37.63129],[126.79473,37.63839],[126.79398,37.63895],[126.79475,37.6385],[126.79511,37.6405],[126.79673,37.64145],[126.79803,37.64392],[126.80071,37.64448],[126.80242,37.64547],[126.79909,37.65094],[126.79766,37.65531],[126.79803,37.65808],[126.79475,37.66152],[126.79111,37.66728],[126.79113,37.66779],[126.79193,37.66913],[126.79196,37.66991],[126.79261,37.67115],[126.79352,37.67437],[126.79462,37.67535],[126.79357,37.67432],[126.79287,37.67162],[126.7922,37.67038],[126.79198,37.6691],[126.79122,37.66778],[126.79119,37.66728],[126.79479,37.66164],[126.79801,37.65818],[126.79965,37.66038],[126.79823,37.65817],[126.79789,37.65507],[126.79941,37.65069],[126.80267,37.64554],[126.80328,37.64735],[126.8027,37.65029],[126.80411,37.6531],[126.80485,37.65573],[126.80595,37.65649],[126.80635,37.65743],[126.80636,37.6583],[126.80578,37.65878],[126.80622,37.65996],[126.80513,37.66122],[126.80807,37.66455],[126.80938,37.66792],[126.81022,37.66842],[126.81145,37.66969],[126.81283,37.67052],[126.81526,37.67324],[126.81555,37.67478],[126.81627,37.67581],[126.81638,37.67662],[126.8185,37.6796],[126.81882,37.68083],[126.82077,37.6823],[126.82095,37.68304],[126.82001,37.68586],[126.82102,37.68296],[126.82075,37.68208],[126.82146,37.68169],[126.82285,37.68116],[126.82373,37.68154],[126.82473,37.68141],[126.82539,37.68183],[126.82619,37.68184],[126.82691,37.68239],[126.82628,37.6818],[126.82536,37.68178],[126.82475,37.68137],[126.82366,37.68149],[126.82277,37.68112],[126.8207,37.68201],[126.8196,37.68148],[126.81896,37.68087],[126.81857,37.67964],[126.81662,37.67681],[126.81627,37.67564],[126.81565,37.67479],[126.81531,37.6732],[126.81286,37.67045],[126.8115,37.66965],[126.81055,37.66858],[126.80924,37.66771],[126.80811,37.66455],[126.80705,37.6631],[126.80608,37.66239],[126.80575,37.66164],[126.80518,37.66123],[126.80626,37.65993],[126.80581,37.65878],[126.80642,37.6583],[126.8064,37.65738],[126.80657,37.65733],[126.80678,37.6585],[126.80762,37.65993],[126.80683,37.65853],[126.80658,37.65698],[126.80482,37.65562],[126.80421,37.65309],[126.80284,37.6505],[126.80339,37.64739],[126.80298,37.64587],[126.80317,37.64561],[126.80904,37.64806],[126.81034,37.64924],[126.8112,37.6491],[126.81224,37.64971],[126.81118,37.64907],[126.81036,37.64923],[126.80908,37.64806],[126.80505,37.64638],[126.80632,37.64444],[126.80503,37.64637],[126.80291,37.64559],[126.80259,37.64521],[126.802,37.64505],[126.80209,37.64489],[126.80121,37.64452],[126.79822,37.64381],[126.79783,37.64348],[126.79695,37.6415],[126.79519,37.64015],[126.79472,37.63765],[126.79457,37.63491],[126.79956,37.63657],[126.79446,37.63478],[126.79442,37.63264],[126.79401,37.63125],[126.7946,37.62899],[126.79662,37.62793],[126.80083,37.62646],[126.80262,37.62426],[126.80069,37.62644],[126.7973,37.62759],[126.79471,37.62879],[126.79419,37.62859],[126.79178,37.62641],[126.79155,37.6258],[126.79419,37.62309],[126.79463,37.62298],[126.79547,37.62158],[126.79648,37.62067],[126.79672,37.61985],[126.79945,37.62041],[126.80194,37.62248],[126.80406,37.62281],[126.80568,37.62458],[126.80494,37.62479],[126.8057,37.62462],[126.80662,37.6255],[126.80784,37.62737],[126.80809,37.62867],[126.80964,37.62988],[126.81099,37.63055],[126.81223,37.63208],[126.81284,37.63202],[126.81691,37.63279],[126.81934,37.63344],[126.81935,37.63367],[126.81942,37.63342],[126.81991,37.63353],[126.81986,37.63379],[126.82001,37.63358],[126.82045,37.63356],[126.82107,37.63398],[126.82546,37.645]],[[126.79266,37.62463],[126.79257,37.62471],[126.79253,37.62474],[126.79252,37.62476],[126.79252,37.62478],[126.7925,37.62481],[126.79249,37.62482],[126.79247,37.62482],[126.79246,37.62483],[126.79242,37.62488],[126.79239,37.62492],[126.79238,37.62493],[126.79237,37.62494],[126.79236,37.62494],[126.79235,37.62494],[126.79232,37.62496],[126.79231,37.62496],[126.79231,37.62497],[126.7923,37.62498],[126.79229,37.625],[126.79229,37.625],[126.79228,37.62501],[126.79227,37.62501],[126.79227,37.62502],[126.79227,37.62502],[126.79226,37.62502],[126.79226,37.62501],[126.79226,37.62501],[126.79226,37.62501],[126.79226,37.625],[126.79226,37.625],[126.79226,37.625],[126.79228,37.62497],[126.79232,37.62492],[126.79235,37.62489],[126.79237,37.62485],[126.79239,37.62483],[126.79239,37.62482],[126.79239,37.62482],[126.7924,37.62481],[126.7924,37.6248],[126.7924,37.62479],[126.79241,37.62479],[126.79246,37.62474],[126.79253,37.62467],[126.79258,37.62463],[126.79261,37.62458],[126.79264,37.62455],[126.79273,37.62449],[126.79278,37.62444],[126.79285,37.62438],[126.79291,37.62435],[126.79291,37.62435],[126.79292,37.62435],[126.79292,37.62435],[126.79292,37.62436],[126.79292,37.62437],[126.79289,37.6244],[126.79282,37.62448],[126.79273,37.62455],[126.79266,37.62463]],[[126.80656,37.6573],[126.80632,37.65723],[126.80636,37.65696],[126.80656,37.6573]]]}},{"type":"Feature","id":"TN_RIVER_BT:WTR02000000004K17","properties":{"NF_ID":"WTR02000000004K17","admin_code":"41285","source_layer":"TN_RIVER_BT","semantic":"channel","river_class":"소하천","river_class_source":"중심선 공간조인","survey_method":"사진측량"},"geometry":{"type":"Polygon","coordinates":[[[126.7916,37.68185],[126.79127,37.68302],[126.79168,37.68344],[126.79172,37.68401],[126.79208,37.68421],[126.79206,37.68613],[126.79227,37.68499],[126.79211,37.68421],[126.79175,37.68399],[126.79173,37.68345],[126.7913,37.68303],[126.7916,37.68185]]]}},{"type":"Feature","id":"TN_RIVER_BT:WTR02000000004K28","properties":{"NF_ID":"WTR02000000004K28","admin_code":"41285","source_layer":"TN_RIVER_BT","semantic":"channel","river_class":"지방하천","river_class_source":"중심선 공간조인","river_name":"도촌천","river_code":"1025680","survey_method":"사진측량"},"geometry":{"type":"Polygon","coordinates":[[[126.82021,37.68619],[126.82018,37.68614],[126.82016,37.68616],[126.8202,37.68623],[126.82023,37.68629],[126.82025,37.68635],[126.82026,37.6864],[126.82026,37.68641],[126.82023,37.68654],[126.82022,37.68656],[126.82017,37.68666],[126.82017,37.68668],[126.82015,37.68679],[126.82014,37.68697],[126.82013,37.68715],[126.82013,37.68716],[126.82013,37.68717],[126.82004,37.68735],[126.82004,37.68737],[126.82001,37.68746],[126.81991,37.68768],[126.81991,37.6877],[126.8199,37.68773],[126.81991,37.68779],[126.81992,37.68788],[126.81997,37.68789],[126.81999,37.68788],[126.81998,37.68786],[126.81996,37.68783],[126.81995,37.68781],[126.81995,37.68779],[126.81995,37.68776],[126.81995,37.68773],[126.81996,37.6877],[126.82004,37.68749],[126.82007,37.6874],[126.82018,37.68716],[126.82018,37.68713],[126.82019,37.6871],[126.82019,37.68705],[126.82018,37.68691],[126.82019,37.68683],[126.8202,37.68677],[126.82022,37.68669],[126.82027,37.68656],[126.82027,37.68655],[126.82029,37.6864],[126.82029,37.68636],[126.82029,37.68635],[126.82028,37.68633],[126.82027,37.68629],[126.82025,37.68627],[126.82021,37.68619]]]}},{"type":"Feature","id":"TN_RIVER_BT:WTR02000000004KBH","properties":{"NF_ID":"WTR02000000004KBH","admin_code":"41285","source_layer":"TN_RIVER_BT","semantic":"channel","river_class":"소하천","river_class_source":"중심선 공간조인","survey_method":"사진측량"},"geometry":{"type":"Polygon","coordinates":[[[126.84118,37.69031],[126.84091,37.68945],[126.84084,37.68946],[126.84112,37.69034],[126.84129,37.69091],[126.84131,37.69096],[126.84133,37.69098],[126.84135,37.69099],[126.84136,37.691],[126.84138,37.69103],[126.8414,37.69107],[126.8414,37.69108],[126.84141,37.69108],[126.84142,37.69107],[126.84142,37.69105],[126.84142,37.69104],[126.8414,37.69098],[126.84139,37.69096],[126.84138,37.69094],[126.84136,37.6909],[126.84118,37.69031]]]}},{"type":"Feature","id":"TN_RIVER_BT:WTR02000000004KDJ","properties":{"NF_ID":"WTR02000000004KDJ","admin_code":"41285","source_layer":"TN_RIVER_BT","semantic":"channel","river_class":"등급미확인","survey_method":"사진측량"},"geometry":{"type":"Polygon","coordinates":[[[126.85505,37.69394],[126.85503,37.69393],[126.85502,37.69394],[126.855,37.69394],[126.85499,37.69395],[126.85498,37.69396],[126.85496,37.69399],[126.85495,37.69401],[126.85494,37.69403],[126.85493,37.69405],[126.85493,37.69408],[126.85492,37.69413],[126.85491,37.6942],[126.85491,37.69422],[126.85491,37.69425],[126.8549,37.69427],[126.8549,37.69431],[126.85489,37.69432],[126.85488,37.69434],[126.85486,37.69436],[126.85485,37.69438],[126.85483,37.69439],[126.85482,37.69441],[126.85481,37.69442],[126.8548,37.69443],[126.8548,37.69444],[126.8548,37.69447],[126.85481,37.69449],[126.85481,37.6945],[126.85482,37.69451],[126.85482,37.69453],[126.85482,37.69454],[126.85482,37.69455],[126.85481,37.69456],[126.8548,37.69457],[126.85479,37.69458],[126.85478,37.69459],[126.85478,37.6946],[126.85478,37.6946],[126.85478,37.69461],[126.85479,37.69462],[126.85479,37.69462],[126.85481,37.69461],[126.85482,37.6946],[126.85483,37.69459],[126.85487,37.69455],[126.85489,37.69453],[126.85491,37.69451],[126.85492,37.69449],[126.85492,37.69447],[126.85494,37.69445],[126.85495,37.69443],[126.85496,37.6944],[126.85497,37.69437],[126.85497,37.69435],[126.85498,37.69433],[126.85498,37.69429],[126.85499,37.69426],[126.855,37.69423],[126.85501,37.69421],[126.85501,37.69419],[126.85501,37.69417],[126.85501,37.69415],[126.855,37.69412],[126.855,37.69409],[126.855,37.69407],[126.855,37.69405],[126.85501,37.69403],[126.85502,37.69402],[126.85503,37.69401],[126.85505,37.694],[126.85505,37.69399],[126.85506,37.69398],[126.85507,37.69396],[126.85506,37.69395],[126.85506,37.69394],[126.85505,37.69394]]]}},{"type":"Feature","id":"TN_RIVER_BT:WTR02000000004KIO","properties":{"NF_ID":"WTR02000000004KIO","admin_code":"41285","source_layer":"TN_RIVER_BT","semantic":"channel","river_class":"소하천","river_class_source":"중심선 공간조인","survey_method":"사진측량"},"geometry":{"type":"Polygon","coordinates":[[[126.82353,37.70191],[126.82484,37.70183],[126.82392,37.70186],[126.82428,37.70115],[126.82501,37.70104],[126.82418,37.70115],[126.82353,37.7009],[126.8242,37.70123],[126.82388,37.70185],[126.82312,37.70217],[126.82353,37.70191]]]}},{"type":"Feature","id":"TN_RIVER_BT:WTR02000000004KKQ","properties":{"NF_ID":"WTR02000000004KKQ","admin_code":"41285","source_layer":"TN_RIVER_BT","semantic":"channel","river_class":"소하천","river_class_source":"중심선 공간조인","survey_method":"사진측량"},"geometry":{"type":"Polygon","coordinates":[[[126.83908,37.70505],[126.83854,37.70485],[126.83815,37.70505],[126.83892,37.70499],[126.83996,37.70571],[126.84422,37.70977],[126.84078,37.70636],[126.83908,37.70505]]]}},{"type":"Feature","id":"TN_RIVER_BT:WTR02000000004KMS","properties":{"NF_ID":"WTR02000000004KMS","admin_code":"41285","source_layer":"TN_RIVER_BT","semantic":"channel","river_class":"소하천","river_class_source":"중심선 공간조인","survey_method":"사진측량"},"geometry":{"type":"Polygon","coordinates":[[[126.82499,37.71202],[126.82497,37.71202],[126.82484,37.71207],[126.82482,37.71208],[126.82474,37.71215],[126.82469,37.71218],[126.82453,37.71228],[126.82454,37.7123],[126.82458,37.71228],[126.82471,37.71219],[126.82474,37.71218],[126.82475,37.71217],[126.82485,37.71209],[126.82486,37.71208],[126.82487,37.71208],[126.82499,37.71203],[126.82499,37.71203],[126.82499,37.71202]]]}},{"type":"Feature","id":"TN_RIVER_BT:WTR02000000004KNT","properties":{"NF_ID":"WTR02000000004KNT","admin_code":"41285","source_layer":"TN_RIVER_BT","semantic":"channel","river_class":"소하천","river_class_source":"중심선 공간조인","survey_method":"사진측량"},"geometry":{"type":"Polygon","coordinates":[[[126.79543,37.71178],[126.79542,37.71178],[126.79542,37.71178],[126.79542,37.71179],[126.7954,37.71194],[126.7954,37.71207],[126.79539,37.71221],[126.79538,37.71226],[126.79538,37.71227],[126.79542,37.71227],[126.79542,37.71227],[126.79542,37.71217],[126.79544,37.71201],[126.79545,37.71188],[126.79544,37.71179],[126.79543,37.71179],[126.79543,37.71178]]]}},{"type":"Feature","id":"TN_RIVER_BT:WTR02000000004KOU","properties":{"NF_ID":"WTR02000000004KOU","admin_code":"41285","source_layer":"TN_RIVER_BT","semantic":"channel","river_class":"소하천","river_class_source":"중심선 공간조인","survey_method":"사진측량"},"geometry":{"type":"Polygon","coordinates":[[[126.80034,37.71211],[126.8007,37.71267],[126.80015,37.71368],[126.80073,37.71267],[126.80034,37.71211]]]}},{"type":"Feature","id":"TN_RIVER_BT:WTR02000000004KPV","properties":{"NF_ID":"WTR02000000004KPV","admin_code":"41285","source_layer":"TN_RIVER_BT","semantic":"channel","river_class":"소하천","river_class_source":"중심선 공간조인","survey_method":"사진측량"},"geometry":{"type":"Polygon","coordinates":[[[126.84076,37.71612],[126.84076,37.71612],[126.84077,37.71612],[126.84077,37.71612],[126.84078,37.71613],[126.84079,37.71613],[126.8408,37.71613],[126.84081,37.71613],[126.84082,37.71613],[126.84083,37.71614],[126.84084,37.71614],[126.84085,37.71615],[126.84087,37.71615],[126.84089,37.71617],[126.8409,37.71617],[126.84091,37.71618],[126.84092,37.71618],[126.84094,37.71611],[126.84093,37.71611],[126.84092,37.71611],[126.84091,37.7161],[126.8409,37.7161],[126.84088,37.71609],[126.84087,37.71609],[126.84086,37.71609],[126.84085,37.71609],[126.84084,37.71608],[126.84082,37.71608],[126.84081,37.71608],[126.8408,37.71609],[126.84079,37.71609],[126.84076,37.71609],[126.84075,37.71609],[126.84074,37.71609],[126.84072,37.71609],[126.84071,37.71609],[126.84068,37.71609],[126.84066,37.7161],[126.84063,37.7161],[126.84062,37.7161],[126.84061,37.7161],[126.84058,37.71611],[126.84057,37.71611],[126.84057,37.71611],[126.84055,37.71611],[126.84054,37.71612],[126.84053,37.71612],[126.84051,37.71613],[126.84049,37.71614],[126.84045,37.71615],[126.84041,37.71616],[126.8404,37.71617],[126.84039,37.71617],[126.84038,37.71618],[126.84032,37.7162],[126.84035,37.71623],[126.84035,37.71623],[126.84041,37.71621],[126.84042,37.71621],[126.84043,37.71621],[126.84044,37.7162],[126.84045,37.7162],[126.84048,37.71619],[126.84051,37.71618],[126.84052,37.71618],[126.84053,37.71617],[126.84057,37.71616],[126.84059,37.71615],[126.8406,37.71615],[126.84063,37.71614],[126.84064,37.71613],[126.84066,37.71613],[126.84067,37.71613],[126.84068,37.71613],[126.8407,37.71612],[126.8407,37.71612],[126.84072,37.71612],[126.84076,37.71612]]]}},{"type":"Feature","id":"TN_RIVER_BT:WTR02000000004KRX","properties":{"NF_ID":"WTR02000000004KRX","admin_code":"41285","source_layer":"TN_RIVER_BT","semantic":"channel","river_class":"소하천","river_class_source":"중심선 공간조인","survey_method":"사진측량"},"geometry":{"type":"Polygon","coordinates":[[[126.83849,37.717],[126.83853,37.71698],[126.83852,37.71697],[126.83846,37.71698],[126.83844,37.71698],[126.83843,37.71697],[126.83843,37.71696],[126.83843,37.71696],[126.83845,37.71681],[126.8386,37.71612],[126.83872,37.71558],[126.83889,37.71463],[126.83909,37.71359],[126.83914,37.71334],[126.83909,37.71334],[126.83887,37.71457],[126.83872,37.71529],[126.83869,37.71558],[126.83855,37.71626],[126.83842,37.71691],[126.83842,37.71699],[126.83843,37.71699],[126.83846,37.717],[126.83849,37.717]]]}},{"type":"Feature","id":"TN_RIVER_BT:WTR02000000004KSY","properties":{"NF_ID":"WTR02000000004KSY","admin_code":"41285","source_layer":"TN_RIVER_BT","semantic":"channel","river_class":"소하천","river_class_source":"중심선 공간조인","survey_method":"사진측량"},"geometry":{"type":"Polygon","coordinates":[[[126.79399,37.71445],[126.79349,37.71527],[126.79062,37.7162],[126.78937,37.71708],[126.79064,37.71621],[126.79349,37.71529],[126.79399,37.71445]]]}},{"type":"Feature","id":"TN_RIVER_BT:WTR02000000004KU0","properties":{"NF_ID":"WTR02000000004KU0","admin_code":"41285","source_layer":"TN_RIVER_BT","semantic":"channel","river_class":"소하천","river_class_source":"중심선 공간조인","survey_method":"사진측량"},"geometry":{"type":"Polygon","coordinates":[[[126.8237,37.71571],[126.82456,37.71566],[126.82425,37.71487],[126.8244,37.71426],[126.82423,37.71491],[126.82453,37.71565],[126.8235,37.71569],[126.82352,37.71382],[126.82418,37.71245],[126.82406,37.71175],[126.82436,37.71119],[126.82457,37.70913],[126.82498,37.70864],[126.82439,37.70966],[126.82435,37.71116],[126.82403,37.71175],[126.82414,37.71243],[126.82348,37.71382],[126.82346,37.71749],[126.82453,37.71844],[126.82352,37.71754],[126.82351,37.71573],[126.8237,37.71571]]]}},{"type":"Feature","id":"TN_RIVER_BT:WTR02000000004KV1","properties":{"NF_ID":"WTR02000000004KV1","admin_code":"41285","source_layer":"TN_RIVER_BT","semantic":"channel","river_class":"소하천","river_class_source":"중심선 공간조인","survey_method":"사진측량"},"geometry":{"type":"Polygon","coordinates":[[[126.79189,37.71726],[126.79029,37.71797],[126.78928,37.71899],[126.7903,37.718],[126.79189,37.71726]]]}},{"type":"Feature","id":"TN_RIVER_BT:WTR02000000004L7E","properties":{"NF_ID":"WTR02000000004L7E","admin_code":"41285","source_layer":"TN_RIVER_BT","semantic":"channel","river_class":"소하천","river_class_source":"중심선 공간조인","survey_method":"사진측량"},"geometry":{"type":"Polygon","coordinates":[[[126.78554,37.72032],[126.78805,37.71775],[126.78876,37.71745],[126.78803,37.71766],[126.78627,37.71155],[126.78546,37.71045],[126.78635,37.70998],[126.78543,37.71039],[126.78432,37.70988],[126.78189,37.70623],[126.7804,37.70269],[126.78241,37.70705],[126.78044,37.70766],[126.77964,37.70763],[126.77869,37.70807],[126.77965,37.70765],[126.78045,37.70768],[126.78242,37.70708],[126.78427,37.70987],[126.78536,37.71041],[126.78619,37.71146],[126.78795,37.71779],[126.775,37.73121],[126.78554,37.72032]]]}},{"type":"Feature","id":"TN_RIVER_BT:WTR02000000004RGT","properties":{"NF_ID":"WTR02000000004RGT","admin_code":"41285","source_layer":"TN_RIVER_BT","semantic":"channel","river_class":"등급미확인","survey_method":"사진측량"},"geometry":{"type":"Polygon","coordinates":[[[126.74523,37.64191],[126.74493,37.64177],[126.74432,37.64202],[126.74401,37.64174],[126.74383,37.64186],[126.74437,37.64207],[126.7451,37.64183],[126.74588,37.64238],[126.74549,37.64275],[126.74596,37.64325],[126.7459,37.64292],[126.74554,37.64273],[126.74593,37.64238],[126.74523,37.64191]]]}},{"type":"Feature","id":"TN_RIVER_BT:WTR02000000004RLY","properties":{"NF_ID":"WTR02000000004RLY","admin_code":"41285","source_layer":"TN_RIVER_BT","semantic":"channel","river_class":"등급미확인","survey_method":"사진측량"},"geometry":{"type":"Polygon","coordinates":[[[126.7433,37.64228],[126.74401,37.64276],[126.7441,37.64387],[126.74407,37.64272],[126.7433,37.64228]]]}},{"type":"Feature","id":"TN_RIVER_BT:WTR02000000004RQ3","properties":{"NF_ID":"WTR02000000004RQ3","admin_code":"41285","source_layer":"TN_RIVER_BT","semantic":"channel","river_class":"등급미확인","survey_method":"사진측량"},"geometry":{"type":"Polygon","coordinates":[[[126.74124,37.64335],[126.741,37.64334],[126.7412,37.64364],[126.74062,37.64413],[126.74126,37.64464],[126.7408,37.64523],[126.74129,37.64481],[126.7412,37.64446],[126.74068,37.64419],[126.74121,37.64376],[126.74124,37.64335]]]}},{"type":"Feature","id":"TN_RIVER_BT:WTR02000000004RZC","properties":{"NF_ID":"WTR02000000004RZC","admin_code":"41285","source_layer":"TN_RIVER_BT","semantic":"channel","river_class":"등급미확인","survey_method":"사진측량"},"geometry":{"type":"Polygon","coordinates":[[[126.73422,37.64757],[126.73562,37.64691],[126.73698,37.64704],[126.73867,37.64682],[126.74001,37.64637],[126.73874,37.64677],[126.73684,37.64699],[126.73567,37.64683],[126.73417,37.6475],[126.73312,37.64722],[126.73422,37.64757]]]}},{"type":"Feature","id":"TN_RIVER_BT:WTR02000000004SAO","properties":{"NF_ID":"WTR02000000004SAO","admin_code":"41285","source_layer":"TN_RIVER_BT","semantic":"channel","river_class":"등급미확인","survey_method":"사진측량"},"geometry":{"type":"Polygon","coordinates":[[[126.73626,37.64829],[126.73576,37.64908],[126.73582,37.6497],[126.7361,37.64895],[126.73649,37.64877],[126.73626,37.64829]]]}},{"type":"Feature","id":"TN_RIVER_BT:WTR02000000004SN1","properties":{"NF_ID":"WTR02000000004SN1","admin_code":"41285","source_layer":"TN_RIVER_BT","semantic":"channel","river_class":"소하천","river_class_source":"중심선 공간조인","survey_method":"사진측량"},"geometry":{"type":"Polygon","coordinates":[[[126.74232,37.65514],[126.75,37.6541],[126.74231,37.6551],[126.74146,37.65458],[126.74232,37.65514]]]}}]}