{"type":"FeatureCollection","features":[{"type":"Feature","id":"TN_RIVER_BT:WTR0200000000452T","properties":{"NF_ID":"WTR0200000000452T","source_layer":"TN_RIVER_BT","semantic":"channel","river_class":"소하천","river_class_source":"중심선 공간조인","survey_method":"사진측량","admin_code":"41190"},"geometry":{"type":"MultiPolygon","coordinates":[[[[126.81015,37.46087],[126.80954,37.46129],[126.80996,37.46118],[126.81015,37.46087]]],[[[126.81033,37.46079],[126.81029,37.46081],[126.81038,37.4608],[126.81033,37.46079]]],[[[126.811,37.46032],[126.81097,37.46033],[126.81091,37.46036],[126.81075,37.46048],[126.81065,37.46056],[126.81062,37.46058],[126.81058,37.46063],[126.81058,37.46063],[126.81057,37.46068],[126.81057,37.46068],[126.81056,37.4607],[126.81057,37.4607],[126.81058,37.46067],[126.81065,37.4606],[126.81094,37.46037],[126.81103,37.46032],[126.811,37.46032]]],[[[126.81165,37.45953],[126.81164,37.45954],[126.81158,37.45963],[126.81158,37.45963],[126.81156,37.45967],[126.81156,37.45967],[126.81156,37.45967],[126.81155,37.45975],[126.81148,37.45988],[126.81141,37.45992],[126.81122,37.46011],[126.81114,37.46021],[126.81114,37.46026],[126.81114,37.46025],[126.81117,37.46022],[126.81126,37.46012],[126.81133,37.46003],[126.81139,37.45997],[126.81147,37.45989],[126.81151,37.45984],[126.81155,37.45977],[126.81159,37.45965],[126.81164,37.45955],[126.81165,37.45953],[126.81165,37.45953]]],[[[126.81185,37.45884],[126.81184,37.45882],[126.8118,37.45886],[126.81178,37.45888],[126.81178,37.45901],[126.81178,37.45905],[126.81178,37.45905],[126.81178,37.45905],[126.81177,37.45905],[126.81177,37.45905],[126.81177,37.45905],[126.81176,37.45922],[126.81176,37.45924],[126.81176,37.45924],[126.81176,37.45924],[126.81176,37.45924],[126.81176,37.45924],[126.81176,37.45924],[126.81176,37.45927],[126.81175,37.45928],[126.81172,37.45937],[126.81172,37.45938],[126.81167,37.4595],[126.81168,37.45948],[126.81174,37.4594],[126.81175,37.45937],[126.81178,37.45928],[126.81182,37.45889],[126.81183,37.45887],[126.81186,37.45886],[126.81186,37.45885],[126.81186,37.45885],[126.81185,37.45884]]]]}},{"type":"Feature","id":"TN_RIVER_BT:WTR020000000045TK","properties":{"NF_ID":"WTR020000000045TK","source_layer":"TN_RIVER_BT","semantic":"channel","river_class":"소하천","river_class_source":"중심선 공간조인","river_name":"심곡천","river_code":"1520300","survey_method":"사진측량","admin_code":"41190"},"geometry":{"type":"Polygon","coordinates":[[[126.78518,37.49006],[126.78545,37.48988],[126.78546,37.48988],[126.78593,37.4895],[126.78636,37.48917],[126.7868,37.48884],[126.78713,37.48859],[126.78738,37.48836],[126.78778,37.48806],[126.7883,37.48766],[126.78868,37.48737],[126.78904,37.48712],[126.78919,37.48704],[126.78913,37.48697],[126.78885,37.48716],[126.78844,37.48749],[126.78783,37.48798],[126.7874,37.48829],[126.7873,37.48837],[126.78712,37.48855],[126.78701,37.48862],[126.78658,37.48894],[126.7862,37.48923],[126.78578,37.48956],[126.78551,37.48977],[126.78521,37.48998],[126.78497,37.49017],[126.78452,37.4905],[126.78405,37.4909],[126.78384,37.49105],[126.78314,37.49158],[126.78262,37.49199],[126.78228,37.49226],[126.78225,37.4923],[126.78223,37.4923],[126.78189,37.49255],[126.78188,37.49256],[126.7819,37.49257],[126.78193,37.49259],[126.78194,37.49261],[126.7823,37.4923],[126.78234,37.49227],[126.78274,37.49196],[126.78311,37.49168],[126.78349,37.49139],[126.78389,37.49108],[126.78421,37.49082],[126.78458,37.49051],[126.78462,37.4905],[126.78485,37.49033],[126.78518,37.49006]]]}},{"type":"Feature","id":"TN_RIVER_BT:WTR020000000045WN","properties":{"NF_ID":"WTR020000000045WN","source_layer":"TN_RIVER_BT","semantic":"channel","river_class":"소하천","river_class_source":"중심선 공간조인","survey_method":"사진측량","admin_code":"41190"},"geometry":{"type":"Polygon","coordinates":[[[126.76682,37.49934],[126.76681,37.49934],[126.76681,37.49934],[126.7668,37.49935],[126.7668,37.49936],[126.7668,37.49937],[126.76681,37.49938],[126.76681,37.49941],[126.76684,37.49948],[126.76687,37.49957],[126.76689,37.49965],[126.7669,37.49974],[126.7669,37.49979],[126.76691,37.49984],[126.76691,37.49988],[126.76691,37.49992],[126.76693,37.49997],[126.76694,37.5],[126.76698,37.5],[126.76698,37.5],[126.76696,37.49995],[126.76696,37.49992],[126.76695,37.49987],[126.76695,37.49976],[126.76693,37.49967],[126.76691,37.49957],[126.76687,37.49945],[126.76683,37.49935],[126.76682,37.49934]]]}},{"type":"Feature","id":"TN_RIVER_BT:WTR020000000045YP","properties":{"NF_ID":"WTR020000000045YP","source_layer":"TN_RIVER_BT","semantic":"channel","river_class":"소하천","river_class_source":"중심선 공간조인","survey_method":"사진측량","admin_code":"41190"},"geometry":{"type":"Polygon","coordinates":[[[126.80988,37.49997],[126.80986,37.49995],[126.80985,37.49995],[126.80986,37.5],[126.80989,37.5],[126.80988,37.49997]]]}},{"type":"Feature","id":"TN_RIVER_BT:WTR020000000045ZQ","properties":{"NF_ID":"WTR020000000045ZQ","source_layer":"TN_RIVER_BT","semantic":"channel","river_class":"국가하천","river_class_source":"중심선 공간조인","river_name":"안양천","river_code":"1005380","survey_method":"사진측량","admin_code":"41190"},"geometry":{"type":"MultiPolygon","coordinates":[[[[126.83294,37.46579],[126.83292,37.46576],[126.83286,37.46575],[126.83271,37.46574],[126.83253,37.46574],[126.83245,37.46577],[126.83232,37.46583],[126.83229,37.46588],[126.83229,37.46588],[126.83274,37.46581],[126.83294,37.46579],[126.83294,37.46579]]],[[[126.82159,37.47626],[126.82202,37.47394],[126.82329,37.47257],[126.82413,37.47083],[126.82556,37.46959],[126.82625,37.4682],[126.82811,37.46775],[126.82847,37.46817],[126.82813,37.46774],[126.83119,37.46596],[126.82842,37.46758],[126.82667,37.46789],[126.82615,37.46818],[126.82539,37.46969],[126.82408,37.4708],[126.82321,37.47258],[126.822,37.47383],[126.82159,37.47626]]],[[[126.81968,37.48231],[126.81974,37.48223],[126.81975,37.48221],[126.81976,37.48219],[126.81976,37.4822],[126.81969,37.48229],[126.81965,37.48235],[126.81965,37.48235],[126.81968,37.48231]]],[[[126.81945,37.48318],[126.81947,37.48314],[126.81949,37.4831],[126.81949,37.48306],[126.8195,37.48303],[126.81951,37.483],[126.81952,37.48294],[126.81953,37.48289],[126.81953,37.48287],[126.81953,37.48284],[126.81954,37.4828],[126.81954,37.48275],[126.81954,37.48268],[126.81955,37.48262],[126.81955,37.48261],[126.81952,37.48276],[126.81949,37.48293],[126.81942,37.48319],[126.81944,37.48319],[126.81945,37.48318]]]]}},{"type":"Feature","id":"TN_RIVER_BT:WTR020000000048VP","properties":{"NF_ID":"WTR020000000048VP","source_layer":"TN_RIVER_BT","semantic":"channel","river_class":"소하천","river_class_source":"중심선 공간조인","survey_method":"사진측량","admin_code":"41190"},"geometry":{"type":"Polygon","coordinates":[[[126.74896,37.48517],[126.74895,37.48518],[126.74892,37.48554],[126.74885,37.48634],[126.74882,37.48687],[126.74882,37.48696],[126.74884,37.48696],[126.74888,37.48643],[126.74893,37.48578],[126.74897,37.48519],[126.74898,37.48517],[126.74896,37.48517]]]}},{"type":"Feature","id":"TN_RIVER_BT:WTR020000000048YS","properties":{"NF_ID":"WTR020000000048YS","source_layer":"TN_RIVER_BT","semantic":"channel","river_class":"소하천","river_class_source":"중심선 공간조인","survey_method":"사진측량","admin_code":"41190"},"geometry":{"type":"Polygon","coordinates":[[[126.7456,37.49188],[126.74554,37.49174],[126.74551,37.49174],[126.74557,37.4919],[126.74558,37.49196],[126.74559,37.49198],[126.74559,37.492],[126.74559,37.49202],[126.74558,37.49205],[126.74554,37.49214],[126.74554,37.49218],[126.74554,37.49222],[126.74554,37.49226],[126.74554,37.49229],[126.74553,37.49238],[126.74549,37.49266],[126.74548,37.49276],[126.74548,37.49281],[126.74548,37.49285],[126.74548,37.49287],[126.7455,37.49291],[126.74552,37.49298],[126.74555,37.49305],[126.74559,37.49315],[126.7456,37.4932],[126.7456,37.49324],[126.7456,37.49327],[126.74559,37.49328],[126.74558,37.49332],[126.74557,37.49336],[126.74557,37.4934],[126.74556,37.49345],[126.74556,37.49349],[126.74556,37.49352],[126.74555,37.49356],[126.74555,37.4936],[126.74555,37.49365],[126.74555,37.49369],[126.74555,37.49374],[126.74555,37.49379],[126.74554,37.49383],[126.74554,37.49386],[126.74554,37.4939],[126.74554,37.49394],[126.74555,37.49397],[126.74555,37.494],[126.74557,37.49403],[126.74559,37.49408],[126.74561,37.49409],[126.74562,37.49408],[126.74559,37.49404],[126.74558,37.49403],[126.74557,37.49399],[126.74556,37.49396],[126.74556,37.49393],[126.74557,37.49389],[126.74557,37.49387],[126.74558,37.49384],[126.74558,37.4938],[126.74558,37.49377],[126.74558,37.49373],[126.74557,37.49369],[126.74557,37.49367],[126.74557,37.49365],[126.74558,37.49361],[126.74558,37.49357],[126.74558,37.49354],[126.74559,37.49351],[126.74559,37.49348],[126.74559,37.49339],[126.74559,37.49336],[126.74561,37.4933],[126.74562,37.49326],[126.74562,37.49323],[126.74562,37.4932],[126.74561,37.49317],[126.74561,37.49314],[126.7456,37.4931],[126.74559,37.49307],[126.74554,37.49299],[126.74553,37.49292],[126.74553,37.49284],[126.74553,37.49279],[126.74552,37.49276],[126.74552,37.49273],[126.74552,37.49268],[126.74553,37.49263],[126.74554,37.49254],[126.74555,37.49246],[126.74556,37.4924],[126.74556,37.49236],[126.74556,37.49232],[126.74556,37.49229],[126.74556,37.49226],[126.74556,37.49219],[126.74557,37.49216],[126.74557,37.49213],[126.74558,37.49211],[126.7456,37.49204],[126.74561,37.492],[126.74561,37.49197],[126.74561,37.49195],[126.74561,37.49193],[126.7456,37.49188]]]}},{"type":"Feature","id":"TN_RIVER_BT:WTR0200000000491W","properties":{"NF_ID":"WTR0200000000491W","source_layer":"TN_RIVER_BT","semantic":"channel","river_class":"소하천","river_class_source":"중심선 공간조인","survey_method":"사진측량","admin_code":"41190"},"geometry":{"type":"Polygon","coordinates":[[[126.74661,37.49431],[126.74661,37.4943],[126.74659,37.4943],[126.74658,37.4943],[126.74657,37.49432],[126.74657,37.49434],[126.74657,37.49436],[126.74657,37.49438],[126.74659,37.49441],[126.74661,37.49445],[126.74663,37.49456],[126.74663,37.49463],[126.74663,37.49468],[126.74663,37.49473],[126.74662,37.49479],[126.74663,37.49484],[126.74663,37.4949],[126.74663,37.49494],[126.74663,37.495],[126.74665,37.49506],[126.74667,37.49516],[126.74667,37.49522],[126.74668,37.49525],[126.74668,37.49527],[126.74669,37.49529],[126.7467,37.49531],[126.74671,37.49534],[126.74672,37.49537],[126.74675,37.4955],[126.74676,37.49556],[126.74678,37.49562],[126.74679,37.49568],[126.74679,37.49573],[126.7468,37.49577],[126.7468,37.49582],[126.74681,37.49592],[126.74682,37.49596],[126.74682,37.49601],[126.74682,37.49606],[126.74682,37.49611],[126.74682,37.49616],[126.74683,37.4962],[126.74683,37.49625],[126.74685,37.49632],[126.74689,37.49644],[126.74691,37.4965],[126.74691,37.49655],[126.74692,37.49661],[126.74692,37.49666],[126.74692,37.49671],[126.74692,37.49675],[126.74692,37.4968],[126.74693,37.49684],[126.74697,37.49691],[126.74699,37.49697],[126.747,37.497],[126.747,37.49703],[126.74701,37.49705],[126.74701,37.49708],[126.747,37.49711],[126.747,37.49714],[126.74699,37.49717],[126.74702,37.49717],[126.74703,37.49711],[126.74704,37.49707],[126.74704,37.49703],[126.74703,37.497],[126.74702,37.49694],[126.747,37.4969],[126.74699,37.49687],[126.74697,37.49682],[126.74696,37.49678],[126.74696,37.49673],[126.74696,37.49666],[126.74696,37.4966],[126.74695,37.49654],[126.74694,37.49649],[126.74693,37.49645],[126.74692,37.4964],[126.74688,37.49625],[126.74686,37.49617],[126.74686,37.49612],[126.74685,37.49607],[126.74685,37.49601],[126.74685,37.49596],[126.74685,37.49592],[126.74684,37.49587],[126.74683,37.49578],[126.74683,37.49573],[126.74682,37.49569],[126.74681,37.49563],[126.74679,37.49551],[126.74673,37.49534],[126.7467,37.49528],[126.74669,37.49523],[126.74669,37.49519],[126.74669,37.49515],[126.74669,37.49509],[126.74669,37.49504],[126.74668,37.495],[126.74667,37.49496],[126.74666,37.4949],[126.74665,37.49484],[126.74665,37.4948],[126.74665,37.49473],[126.74665,37.49468],[126.74665,37.49462],[126.74665,37.49456],[126.74665,37.49452],[126.74664,37.49446],[126.74664,37.49442],[126.74663,37.49437],[126.74662,37.49434],[126.74661,37.49431]]]}},{"type":"Feature","id":"TN_RIVER_BT:WTR0200000000493Y","properties":{"NF_ID":"WTR0200000000493Y","source_layer":"TN_RIVER_BT","semantic":"channel","river_class":"소하천","river_class_source":"중심선 공간조인","survey_method":"사진측량","admin_code":"41190"},"geometry":{"type":"Polygon","coordinates":[[[126.74717,37.49774],[126.74742,37.4977],[126.74711,37.49764],[126.74713,37.4978],[126.74768,37.5],[126.74717,37.49774]]]}},{"type":"Feature","id":"TN_RIVER_BT:WTR02000000004B0X","properties":{"NF_ID":"WTR02000000004B0X","source_layer":"TN_RIVER_BT","semantic":"channel","river_class":"소하천","river_class_source":"중심선 공간조인","survey_method":"사진측량","admin_code":"41190"},"geometry":{"type":"Polygon","coordinates":[[[126.76737,37.50022],[126.76737,37.5002],[126.76737,37.50019],[126.76738,37.50018],[126.76739,37.50017],[126.76741,37.50015],[126.76739,37.50014],[126.76738,37.50015],[126.76736,37.50016],[126.76731,37.50021],[126.76725,37.50019],[126.76717,37.50016],[126.76709,37.50012],[126.76705,37.50009],[126.76701,37.50005],[126.76698,37.5],[126.76698,37.5],[126.76694,37.5],[126.76694,37.5],[126.76695,37.50002],[126.76698,37.50006],[126.76701,37.5001],[126.76705,37.50013],[126.76711,37.50016],[126.76724,37.50022],[126.76727,37.50025],[126.76728,37.50027],[126.76738,37.50025],[126.76738,37.50023],[126.76737,37.50022]]]}},{"type":"Feature","id":"TN_RIVER_BT:WTR02000000004B30","properties":{"NF_ID":"WTR02000000004B30","source_layer":"TN_RIVER_BT","semantic":"channel","river_class":"소하천","river_class_source":"중심선 공간조인","survey_method":"사진측량","admin_code":"41190"},"geometry":{"type":"Polygon","coordinates":[[[126.81162,37.50253],[126.81217,37.50234],[126.81277,37.50173],[126.81378,37.50164],[126.81424,37.50094],[126.81377,37.50163],[126.81277,37.50171],[126.81215,37.50234],[126.81156,37.50251],[126.8111,37.50144],[126.80986,37.5],[126.81009,37.50053],[126.81108,37.50143],[126.81151,37.50254],[126.81029,37.50429],[126.81,37.50518],[126.80878,37.50633],[126.81012,37.50507],[126.81033,37.50423],[126.81162,37.50253]]]}},{"type":"Feature","id":"TN_RIVER_BT:WTR02000000004B41","properties":{"NF_ID":"WTR02000000004B41","source_layer":"TN_RIVER_BT","semantic":"channel","river_class":"소하천","river_class_source":"중심선 공간조인","survey_method":"사진측량","admin_code":"41190"},"geometry":{"type":"Polygon","coordinates":[[[126.81377,37.50613],[126.81294,37.50655],[126.81171,37.50673],[126.81288,37.50657],[126.81377,37.50613]]]}},{"type":"Feature","id":"TN_RIVER_BT:WTR02000000004B63","properties":{"NF_ID":"WTR02000000004B63","source_layer":"TN_RIVER_BT","semantic":"channel","river_class":"소하천","river_class_source":"중심선 공간조인","river_name":"베르네천","survey_method":"사진측량","admin_code":"41190"},"geometry":{"type":"Polygon","coordinates":[[[126.80563,37.51415],[126.80644,37.51323],[126.80662,37.51255],[126.80685,37.51258],[126.80751,37.51096],[126.80759,37.50877],[126.80817,37.50693],[126.80757,37.5086],[126.80748,37.5105],[126.80726,37.51109],[126.807,37.51119],[126.80648,37.51311],[126.8055,37.51397],[126.80504,37.51407],[126.80535,37.51418],[126.80487,37.5145],[126.80563,37.51415]]]}},{"type":"Feature","id":"TN_RIVER_BT:WTR02000000004B85","properties":{"NF_ID":"WTR02000000004B85","source_layer":"TN_RIVER_BT","semantic":"channel","river_class":"소하천","river_class_source":"중심선 공간조인","river_name":"오쇠천","survey_method":"사진측량","admin_code":"41190"},"geometry":{"type":"MultiPolygon","coordinates":[[[[126.8008,37.54094],[126.8018,37.54083],[126.80445,37.54126],[126.80545,37.53951],[126.80932,37.53758],[126.81072,37.53656],[126.81172,37.53628],[126.81279,37.53514],[126.81265,37.53452],[126.81208,37.53398],[126.81215,37.53292],[126.81365,37.53147],[126.81213,37.53288],[126.81206,37.53399],[126.81262,37.53455],[126.81276,37.53516],[126.81163,37.53626],[126.81069,37.53653],[126.80917,37.53762],[126.8054,37.53949],[126.80445,37.54121],[126.80169,37.54078],[126.8008,37.54094]]],[[[126.79938,37.54038],[126.79936,37.54041],[126.7995,37.54043],[126.79969,37.54046],[126.79994,37.5405],[126.8,37.54052],[126.80004,37.54053],[126.80014,37.54057],[126.80023,37.54062],[126.80037,37.5407],[126.80047,37.54076],[126.80052,37.5408],[126.80052,37.5408],[126.8006,37.5408],[126.80043,37.54068],[126.80019,37.54055],[126.80009,37.54051],[126.8,37.54048],[126.79994,37.54046],[126.79968,37.54041],[126.79938,37.54037],[126.79938,37.54038]]],[[[126.79472,37.54086],[126.79418,37.5413],[126.79241,37.54153],[126.79063,37.5414],[126.78871,37.54163],[126.79321,37.54146],[126.79424,37.54131],[126.79472,37.54086]]]]}},{"type":"Feature","id":"TN_RIVER_BT:WTR02000000004BDA","properties":{"NF_ID":"WTR02000000004BDA","source_layer":"TN_RIVER_BT","semantic":"channel","river_class":"소하천","river_class_source":"중심선 공간조인","survey_method":"사진측량","admin_code":"41190"},"geometry":{"type":"Polygon","coordinates":[[[126.76542,37.54531],[126.76535,37.54533],[126.76628,37.54802],[126.76697,37.54995],[126.76699,37.55],[126.76723,37.55062],[126.76756,37.55171],[126.76758,37.55174],[126.7676,37.55174],[126.76766,37.55172],[126.76766,37.55168],[126.76765,37.55165],[126.76763,37.55159],[126.76734,37.55074],[126.76709,37.55],[126.76686,37.54932],[126.76614,37.54735],[126.76542,37.54533],[126.76542,37.54531]]]}},{"type":"Feature","id":"TN_RIVER_BT:WTR02000000004JZ4","properties":{"NF_ID":"WTR02000000004JZ4","source_layer":"TN_RIVER_BT","semantic":"channel","river_class":"국가하천","river_class_source":"중심선 공간조인","river_name":"한강","river_code":"1000010","survey_method":"사진측량","admin_code":"41190"},"geometry":{"type":"MultiPolygon","coordinates":[[[[126.79825,37.5377],[126.80712,37.53627],[126.81153,37.53194],[126.81199,37.53178],[126.81219,37.53113],[126.81355,37.52999],[126.81214,37.53114],[126.81197,37.53176],[126.81054,37.53289],[126.80931,37.53209],[126.80923,37.53054],[126.80928,37.53211],[126.8105,37.53293],[126.80702,37.53625],[126.79825,37.5377]]],[[[126.78554,37.54601],[126.78568,37.54586],[126.78604,37.54601],[126.78565,37.54582],[126.78554,37.54601]]],[[[126.78187,37.54614],[126.78188,37.54616],[126.78189,37.54616],[126.78254,37.54616],[126.78256,37.54615],[126.78259,37.54616],[126.78265,37.54614],[126.78276,37.54612],[126.782,37.54613],[126.78186,37.54612],[126.78187,37.54614]]],[[[126.7797,37.54649],[126.78046,37.54616],[126.78172,37.54612],[126.78031,37.54614],[126.7797,37.54649]]],[[[126.77339,37.54885],[126.77536,37.54894],[126.7768,37.54812],[126.77533,37.54891],[126.77339,37.54885]]],[[[126.77113,37.54867],[126.77174,37.54674],[126.77223,37.54612],[126.77548,37.54415],[126.77897,37.54147],[126.78292,37.54006],[126.78633,37.54058],[126.78707,37.54048],[126.78783,37.54152],[126.78763,37.5428],[126.78486,37.5461],[126.78524,37.54603],[126.78777,37.54294],[126.78809,37.54224],[126.78796,37.54135],[126.78601,37.53873],[126.79437,37.53598],[126.79691,37.52983],[126.79838,37.52834],[126.79686,37.52979],[126.79435,37.53592],[126.78592,37.5386],[126.78285,37.53444],[126.78359,37.53409],[126.78695,37.53384],[126.78858,37.53346],[126.78947,37.53159],[126.79118,37.53072],[126.79188,37.52979],[126.79112,37.53073],[126.78946,37.53155],[126.78856,37.53345],[126.78696,37.53379],[126.78349,37.53402],[126.78265,37.53427],[126.77934,37.53268],[126.77813,37.53178],[126.77812,37.53211],[126.77885,37.53265],[126.7826,37.53455],[126.78573,37.53868],[126.78427,37.53905],[126.78279,37.54004],[126.77893,37.54144],[126.77548,37.5441],[126.77194,37.54611],[126.77113,37.54867]],[[126.78652,37.54056],[126.783,37.53999],[126.78435,37.53909],[126.78583,37.53881],[126.78698,37.54032],[126.78652,37.54056]]],[[[126.77009,37.55011],[126.77027,37.55],[126.77033,37.54983],[126.7704,37.54975],[126.77048,37.54965],[126.77053,37.54962],[126.7706,37.54959],[126.7709,37.5492],[126.77093,37.54913],[126.77101,37.54903],[126.77102,37.54891],[126.77103,37.54889],[126.77103,37.54889],[126.77101,37.54883],[126.77098,37.54887],[126.77086,37.54901],[126.77074,37.54915],[126.77049,37.54948],[126.77021,37.54983],[126.76999,37.55011],[126.76995,37.55016],[126.77009,37.55011]]],[[[126.76905,37.55156],[126.76906,37.55156],[126.7691,37.55156],[126.76914,37.55152],[126.76939,37.55118],[126.76983,37.55061],[126.76982,37.55058],[126.76981,37.55054],[126.76985,37.55045],[126.76987,37.55036],[126.7699,37.55026],[126.76991,37.55021],[126.76968,37.55053],[126.76938,37.55094],[126.7692,37.55118],[126.76917,37.55122],[126.76905,37.55143],[126.769,37.55155],[126.76905,37.55156]]],[[[126.76487,37.55056],[126.76434,37.5506],[126.76454,37.55109],[126.76564,37.55197],[126.76577,37.55264],[126.76653,37.55311],[126.76613,37.55358],[126.76634,37.55401],[126.76643,37.55376],[126.76673,37.55406],[126.76732,37.5542],[126.76703,37.55332],[126.76764,37.55268],[126.76703,37.55306],[126.76671,37.55298],[126.76518,37.55054],[126.76487,37.55056]]],[[[126.76289,37.54328],[126.76238,37.54367],[126.76325,37.54412],[126.76302,37.54489],[126.7634,37.54529],[126.76339,37.54673],[126.76398,37.54768],[126.76389,37.5484],[126.76452,37.54906],[126.76391,37.54949],[126.7641,37.54998],[126.76438,37.55001],[126.7651,37.54986],[126.76488,37.54979],[126.76383,37.54706],[126.76289,37.54328]]],[[[126.76218,37.5413],[126.76153,37.54177],[126.76162,37.54202],[126.7625,37.54208],[126.76218,37.5413]]],[[[126.76171,37.54018],[126.76158,37.54057],[126.76192,37.54067],[126.76171,37.54018]]],[[[126.76108,37.53851],[126.76072,37.53888],[126.76101,37.53913],[126.76135,37.53906],[126.76108,37.53851]]],[[[126.76075,37.5365],[126.76055,37.53677],[126.7608,37.53772],[126.76075,37.5365]]],[[[126.76071,37.53605],[126.76071,37.53605],[126.76072,37.53607],[126.76074,37.53605],[126.76074,37.53603],[126.76071,37.53605]]],[[[126.76039,37.53172],[126.7603,37.53388],[126.76056,37.53487],[126.76014,37.53549],[126.76067,37.53606],[126.76085,37.53556],[126.76269,37.53481],[126.76444,37.53373],[126.76463,37.53155],[126.7649,37.53123],[126.76898,37.53016],[126.77096,37.53041],[126.77651,37.52693],[126.77948,37.52672],[126.78078,37.52737],[126.78211,37.52727],[126.78053,37.52724],[126.77953,37.52664],[126.77995,37.52613],[126.7793,37.52668],[126.77639,37.52692],[126.77417,37.52819],[126.77209,37.52657],[126.77367,37.52529],[126.7741,37.52405],[126.77397,37.52063],[126.7738,37.52447],[126.77355,37.52519],[126.77195,37.52659],[126.77402,37.52828],[126.77367,37.52866],[126.77089,37.53029],[126.76931,37.53002],[126.7648,37.53117],[126.76455,37.53151],[126.76453,37.53335],[126.76427,37.53377],[126.76092,37.5354],[126.76065,37.53529],[126.76039,37.53172]]],[[[126.76033,37.53065],[126.76028,37.5307],[126.76028,37.5308],[126.7602,37.53088],[126.76022,37.53099],[126.76022,37.53099],[126.76028,37.5311],[126.76028,37.53121],[126.76028,37.53121],[126.76037,37.53135],[126.7604,37.53139],[126.76038,37.53117],[126.76036,37.53072],[126.76036,37.53064],[126.76033,37.53065]]],[[[126.76027,37.52965],[126.76027,37.52977],[126.76027,37.52987],[126.76027,37.53002],[126.76027,37.53013],[126.76027,37.53023],[126.76027,37.53023],[126.76027,37.53023],[126.76034,37.53029],[126.76034,37.52994],[126.76032,37.52959],[126.76032,37.52957],[126.76027,37.52965]]],[[[126.76029,37.52869],[126.76025,37.52896],[126.76024,37.529],[126.76024,37.529],[126.76025,37.52904],[126.76025,37.52904],[126.76031,37.52932],[126.76031,37.52893],[126.76031,37.52852],[126.76029,37.52869]]],[[[126.76032,37.52773],[126.76022,37.52783],[126.76023,37.52835],[126.76027,37.52844],[126.76031,37.52852],[126.76031,37.52843],[126.76032,37.52777],[126.76032,37.52773],[126.76032,37.52773]]],[[[126.76032,37.52685],[126.76029,37.52686],[126.76025,37.52704],[126.76025,37.52704],[126.76032,37.52725],[126.76032,37.52725],[126.76032,37.52706],[126.76033,37.52684],[126.76032,37.52685]]],[[[126.76036,37.52369],[126.76011,37.52541],[126.76033,37.52667],[126.76036,37.52369]]],[[[126.76034,37.52302],[126.76028,37.52309],[126.76029,37.52309],[126.76029,37.52309],[126.7603,37.52309],[126.7603,37.5231],[126.7603,37.52313],[126.7603,37.52316],[126.7603,37.52321],[126.76029,37.52322],[126.76029,37.52324],[126.76029,37.5233],[126.76029,37.52331],[126.76034,37.52338],[126.76035,37.5234],[126.76037,37.52342],[126.76039,37.52343],[126.76039,37.5233],[126.76041,37.52302],[126.76041,37.52298],[126.76041,37.52297],[126.7604,37.52295],[126.7604,37.52294],[126.76039,37.52294],[126.76038,37.52294],[126.76037,37.52294],[126.76037,37.52294],[126.76034,37.52302]]],[[[126.76059,37.52134],[126.76061,37.52134],[126.7606,37.52132],[126.7606,37.52132],[126.76059,37.52131],[126.76059,37.52134]]],[[[126.76018,37.51867],[126.75999,37.51935],[126.76057,37.51945],[126.7606,37.5204],[126.76064,37.51944],[126.76037,37.51858],[126.76016,37.5184],[126.76018,37.51867]]],[[[126.75369,37.51686],[126.75369,37.51685],[126.75372,37.51685],[126.75373,37.51684],[126.75374,37.51683],[126.75374,37.51683],[126.75373,37.51679],[126.75373,37.51676],[126.75372,37.51677],[126.75368,37.51681],[126.75367,37.51682],[126.75365,37.51685],[126.75365,37.51686],[126.75365,37.51686],[126.75369,37.51686]]],[[[126.75234,37.51558],[126.7524,37.51586],[126.75258,37.51574],[126.754,37.51614],[126.7543,37.51647],[126.75637,37.51658],[126.75623,37.51639],[126.75565,37.51647],[126.75234,37.51558]]],[[[126.752,37.51534],[126.75206,37.51535],[126.75206,37.51534],[126.75206,37.5153],[126.75196,37.51528],[126.75194,37.51529],[126.7519,37.51531],[126.752,37.51534]]],[[[126.7503,37.51492],[126.75062,37.51498],[126.75024,37.51475],[126.7503,37.51492]]]]}},{"type":"Feature","id":"TN_RIVER_BT:WTR02000000004LLS","properties":{"NF_ID":"WTR02000000004LLS","source_layer":"TN_RIVER_BT","semantic":"channel","river_class":"소하천","river_class_source":"중심선 공간조인","survey_method":"사진측량","admin_code":"41190"},"geometry":{"type":"Polygon","coordinates":[[[126.74768,37.5],[126.74768,37.5],[126.74766,37.5],[126.74766,37.5],[126.74766,37.50001],[126.74766,37.50003],[126.74767,37.50005],[126.74767,37.50006],[126.74768,37.50007],[126.74769,37.5001],[126.7477,37.50011],[126.7477,37.50013],[126.74771,37.50016],[126.74771,37.50018],[126.74772,37.5002],[126.74772,37.50023],[126.74772,37.50024],[126.74771,37.5003],[126.74771,37.50031],[126.74771,37.50033],[126.74771,37.50034],[126.74771,37.50036],[126.74772,37.50037],[126.74773,37.50042],[126.74774,37.50043],[126.74774,37.50045],[126.74774,37.50047],[126.74774,37.50049],[126.74774,37.50051],[126.74774,37.50052],[126.74775,37.50054],[126.74775,37.50055],[126.74776,37.50058],[126.74777,37.50062],[126.74778,37.50064],[126.74778,37.50066],[126.74779,37.50069],[126.74782,37.50074],[126.74783,37.50075],[126.74783,37.50076],[126.74784,37.50079],[126.74784,37.5008],[126.74784,37.50081],[126.74783,37.50082],[126.74782,37.50087],[126.74781,37.50088],[126.74779,37.50092],[126.74779,37.50092],[126.74778,37.50094],[126.74777,37.50095],[126.74777,37.50095],[126.74776,37.50097],[126.74776,37.50098],[126.74776,37.50099],[126.74776,37.501],[126.74776,37.501],[126.74777,37.50102],[126.74777,37.50103],[126.74779,37.50103],[126.7478,37.50102],[126.74781,37.50101],[126.74782,37.501],[126.74782,37.501],[126.74782,37.50099],[126.74782,37.50099],[126.74782,37.50098],[126.74782,37.50097],[126.74781,37.50095],[126.74781,37.50095],[126.74781,37.50094],[126.74781,37.50093],[126.74781,37.50092],[126.74782,37.50092],[126.74783,37.50091],[126.74784,37.50088],[126.74784,37.50088],[126.74786,37.50085],[126.74786,37.50083],[126.74787,37.50082],[126.74787,37.5008],[126.74787,37.50079],[126.74787,37.50078],[126.74786,37.50077],[126.74786,37.50076],[126.74785,37.50074],[126.74784,37.50072],[126.74783,37.5007],[126.74781,37.50066],[126.74781,37.50065],[126.74781,37.50064],[126.7478,37.50062],[126.7478,37.50059],[126.74779,37.50058],[126.74778,37.50054],[126.74778,37.50053],[126.74778,37.50052],[126.74778,37.50047],[126.74778,37.50046],[126.74777,37.50045],[126.74777,37.50043],[126.74776,37.50041],[126.74776,37.5004],[126.74776,37.50038],[126.74775,37.50035],[126.74775,37.50035],[126.74775,37.50034],[126.74774,37.50031],[126.74774,37.50031],[126.74774,37.50025],[126.74774,37.50022],[126.74774,37.5002],[126.74774,37.50018],[126.74773,37.50016],[126.74772,37.50012],[126.74772,37.5001],[126.7477,37.50006],[126.74769,37.50002],[126.74769,37.5],[126.74768,37.5]]]}},{"type":"Feature","id":"TN_RIVER_BT:WTR02000000004LOV","properties":{"NF_ID":"WTR02000000004LOV","source_layer":"TN_RIVER_BT","semantic":"channel","river_class":"소하천","river_class_source":"중심선 공간조인","survey_method":"사진측량","admin_code":"41190"},"geometry":{"type":"Polygon","coordinates":[[[126.74788,37.5013],[126.74786,37.50129],[126.74782,37.5013],[126.74782,37.5013],[126.74783,37.50132],[126.74783,37.50132],[126.74787,37.50136],[126.74791,37.5014],[126.74792,37.50142],[126.74794,37.50144],[126.74795,37.50145],[126.74796,37.50145],[126.74797,37.50147],[126.74798,37.5015],[126.74799,37.50151],[126.748,37.50153],[126.748,37.50156],[126.74801,37.50157],[126.74801,37.5016],[126.74801,37.50162],[126.74802,37.50165],[126.74802,37.50168],[126.74802,37.50169],[126.74802,37.50173],[126.74802,37.50174],[126.74803,37.50178],[126.74803,37.5018],[126.74803,37.50182],[126.74804,37.50187],[126.74804,37.50191],[126.74805,37.50195],[126.74805,37.502],[126.74806,37.50204],[126.74806,37.50205],[126.74806,37.50208],[126.7481,37.5022],[126.74811,37.50225],[126.74812,37.50227],[126.74812,37.5023],[126.74814,37.50236],[126.74814,37.50239],[126.74815,37.50244],[126.74815,37.50247],[126.74816,37.50251],[126.74816,37.50254],[126.74816,37.50255],[126.74817,37.50259],[126.74818,37.50263],[126.74819,37.50268],[126.7482,37.50269],[126.7482,37.50272],[126.7482,37.50275],[126.74821,37.50279],[126.74821,37.50284],[126.74821,37.5029],[126.74822,37.50292],[126.74822,37.50293],[126.74822,37.50294],[126.74823,37.50296],[126.74824,37.50297],[126.74824,37.50298],[126.74825,37.50299],[126.74825,37.50303],[126.74825,37.50303],[126.74825,37.50304],[126.74825,37.50305],[126.74825,37.50307],[126.74824,37.50307],[126.74822,37.5031],[126.74821,37.50311],[126.74821,37.50312],[126.7482,37.50314],[126.7482,37.50315],[126.74819,37.50315],[126.74819,37.50316],[126.7482,37.50317],[126.7482,37.50318],[126.74821,37.50322],[126.74821,37.50323],[126.74822,37.50326],[126.74823,37.5033],[126.74824,37.50331],[126.74824,37.50333],[126.74825,37.50337],[126.74825,37.50338],[126.74826,37.50342],[126.74826,37.50344],[126.74826,37.50346],[126.74826,37.50348],[126.74827,37.5035],[126.74827,37.50352],[126.74828,37.50354],[126.74828,37.50355],[126.74829,37.50357],[126.74829,37.50358],[126.74829,37.50361],[126.74829,37.50361],[126.74831,37.50365],[126.74831,37.50366],[126.74832,37.50368],[126.74832,37.50369],[126.74833,37.5037],[126.74833,37.5037],[126.74832,37.50371],[126.74831,37.50372],[126.7483,37.50373],[126.7483,37.50373],[126.74829,37.50374],[126.74829,37.50375],[126.74829,37.50375],[126.74829,37.50376],[126.74829,37.50376],[126.74829,37.50377],[126.7483,37.50377],[126.74831,37.50377],[126.74831,37.50378],[126.74832,37.50378],[126.74833,37.50378],[126.74834,37.50378],[126.74834,37.50377],[126.74835,37.50377],[126.74836,37.50377],[126.74836,37.50376],[126.74836,37.50376],[126.74836,37.50375],[126.74836,37.50375],[126.74836,37.50372],[126.74836,37.50372],[126.74835,37.50369],[126.74835,37.50368],[126.74835,37.50366],[126.74833,37.50361],[126.74832,37.50357],[126.74831,37.50352],[126.74829,37.50345],[126.74828,37.50343],[126.74828,37.50343],[126.74828,37.5034],[126.74829,37.50338],[126.74829,37.50336],[126.74829,37.50335],[126.74829,37.50332],[126.74829,37.5033],[126.74828,37.50329],[126.74827,37.50327],[126.74827,37.50326],[126.74826,37.50325],[126.74826,37.50324],[126.74825,37.50323],[126.74824,37.50322],[126.74824,37.50322],[126.74823,37.50321],[126.74823,37.50321],[126.74822,37.50319],[126.74822,37.50318],[126.74822,37.50317],[126.74822,37.50316],[126.74822,37.50315],[126.74823,37.50314],[126.74823,37.50313],[126.74824,37.50312],[126.74826,37.5031],[126.74827,37.50308],[126.74828,37.50306],[126.74828,37.50305],[126.74828,37.50305],[126.74828,37.50304],[126.74828,37.50303],[126.74828,37.50302],[126.74827,37.50299],[126.74826,37.50296],[126.74826,37.50295],[126.74825,37.5029],[126.74825,37.50286],[126.74825,37.50284],[126.74824,37.50279],[126.74824,37.50276],[126.74824,37.50274],[126.74824,37.50272],[126.74823,37.5027],[126.74821,37.50262],[126.7482,37.50259],[126.7482,37.50258],[126.7482,37.50256],[126.7482,37.50254],[126.74819,37.50252],[126.74819,37.50248],[126.74819,37.50247],[126.74819,37.50242],[126.74819,37.5024],[126.74819,37.50239],[126.74819,37.50237],[126.74818,37.50235],[126.74817,37.50231],[126.74816,37.50228],[126.74816,37.50227],[126.74815,37.50224],[126.74815,37.50223],[126.74814,37.5022],[126.74813,37.50219],[126.74813,37.50218],[126.74813,37.50214],[126.74812,37.5021],[126.74812,37.50208],[126.74812,37.50207],[126.74811,37.50205],[126.74811,37.50204],[126.7481,37.50202],[126.7481,37.502],[126.74809,37.50198],[126.74809,37.50197],[126.74808,37.50192],[126.74808,37.5019],[126.74808,37.50189],[126.74807,37.50184],[126.74807,37.50182],[126.74807,37.50177],[126.74806,37.50172],[126.74805,37.50171],[126.74805,37.5017],[126.74805,37.50168],[126.74805,37.50165],[126.74805,37.50163],[126.74805,37.50162],[126.74805,37.5016],[126.74804,37.50158],[126.74804,37.50155],[126.74803,37.50153],[126.74802,37.50151],[126.74801,37.50148],[126.74799,37.50143],[126.74798,37.50142],[126.74796,37.50139],[126.74795,37.50136],[126.74794,37.50135],[126.74793,37.50134],[126.74792,37.50133],[126.74792,37.50132],[126.7479,37.50131],[126.74789,37.5013],[126.74788,37.5013]]]}},{"type":"Feature","id":"TN_RIVER_BT:WTR02000000004M6E","properties":{"NF_ID":"WTR02000000004M6E","source_layer":"TN_RIVER_BT","semantic":"channel","river_class":"지방하천","river_class_source":"중심선 공간조인","river_name":"갈산천","river_code":"1025651","survey_method":"사진측량","admin_code":"41190"},"geometry":{"type":"MultiPolygon","coordinates":[[[[126.74722,37.51462],[126.74734,37.5148],[126.74908,37.51462],[126.74886,37.51412],[126.74881,37.51449],[126.74722,37.51462]]],[[[126.74565,37.515],[126.7459,37.51518],[126.74645,37.51477],[126.74565,37.515]]]]}}]}