{"type":"FeatureCollection","features":[{"type":"Feature","id":"TN_RIVER_BT:WTR0200000000ASTD","properties":{"NF_ID":"WTR0200000000ASTD","source_layer":"TN_RIVER_BT","semantic":"channel","river_class":"지방하천","river_class_source":"중심선 공간조인","river_name":"대리천","river_code":"2027670","survey_method":"사진측량","admin_code":"26320"},"geometry":{"type":"Polygon","coordinates":[[[129.00536,35.19897],[129.00507,35.19923],[129.00461,35.2011],[129.00327,35.20238],[129.00386,35.20461],[129.00338,35.20241],[129.00474,35.20099],[129.00536,35.19897]]]}},{"type":"Feature","id":"TN_RIVER_BT:WTR0200000000ASUE","properties":{"NF_ID":"WTR0200000000ASUE","source_layer":"TN_RIVER_BT","semantic":"channel","river_class":"소하천","river_class_source":"중심선 공간조인","survey_method":"사진측량","admin_code":"26320"},"geometry":{"type":"Polygon","coordinates":[[[129.03079,35.20415],[129.03056,35.20375],[129.03051,35.20377],[129.03065,35.204],[129.03077,35.20421],[129.03087,35.20438],[129.03094,35.20448],[129.031,35.20466],[129.03105,35.20465],[129.03097,35.20446],[129.03079,35.20415]]]}},{"type":"Feature","id":"TN_RIVER_BT:WTR0200000000ASVF","properties":{"NF_ID":"WTR0200000000ASVF","source_layer":"TN_RIVER_BT","semantic":"channel","river_class":"소하천","river_class_source":"중심선 공간조인","survey_method":"사진측량","admin_code":"26320"},"geometry":{"type":"Polygon","coordinates":[[[129.02298,35.20855],[129.02312,35.20845],[129.02278,35.20819],[129.02298,35.20855]]]}},{"type":"Feature","id":"TN_RIVER_BT:WTR0200000000ASWG","properties":{"NF_ID":"WTR0200000000ASWG","source_layer":"TN_RIVER_BT","semantic":"channel","river_class":"소하천","river_class_source":"중심선 공간조인","survey_method":"사진측량","admin_code":"26320"},"geometry":{"type":"Polygon","coordinates":[[[129.0222,35.20807],[129.02214,35.20801],[129.02213,35.20802],[129.02221,35.2081],[129.02225,35.20814],[129.02229,35.2082],[129.02234,35.20826],[129.02237,35.2083],[129.02238,35.20832],[129.02239,35.20835],[129.0224,35.20839],[129.0224,35.20843],[129.0224,35.20845],[129.0224,35.20849],[129.02239,35.20853],[129.0224,35.20855],[129.0224,35.20858],[129.02242,35.20862],[129.02246,35.2087],[129.02246,35.20871],[129.02247,35.20871],[129.02248,35.20869],[129.02248,35.20868],[129.02248,35.20868],[129.02244,35.20861],[129.02242,35.20858],[129.02241,35.20855],[129.02241,35.20852],[129.02241,35.20848],[129.02242,35.20843],[129.02242,35.2084],[129.02242,35.20838],[129.02242,35.20836],[129.02241,35.20834],[129.0224,35.20831],[129.02239,35.20828],[129.02236,35.20825],[129.02232,35.2082],[129.02226,35.20812],[129.0222,35.20807]]]}},{"type":"Feature","id":"TN_RIVER_BT:WTR0200000000ASXH","properties":{"NF_ID":"WTR0200000000ASXH","source_layer":"TN_RIVER_BT","semantic":"channel","river_class":"소하천","river_class_source":"중심선 공간조인","survey_method":"사진측량","admin_code":"26320"},"geometry":{"type":"Polygon","coordinates":[[[129.03181,35.21039],[129.03306,35.20968],[129.0345,35.21003],[129.03308,35.20955],[129.0317,35.21032],[129.03092,35.21037],[129.03181,35.21039]]]}},{"type":"Feature","id":"TN_RIVER_BT:WTR0200000000ASYI","properties":{"NF_ID":"WTR0200000000ASYI","source_layer":"TN_RIVER_BT","semantic":"channel","river_class":"소하천","river_class_source":"중심선 공간조인","survey_method":"사진측량","admin_code":"26320"},"geometry":{"type":"Polygon","coordinates":[[[129.03722,35.21],[129.03739,35.21095],[129.03743,35.2102],[129.03722,35.21]]]}},{"type":"Feature","id":"TN_RIVER_BT:WTR0200000000AT0L","properties":{"NF_ID":"WTR0200000000AT0L","source_layer":"TN_RIVER_BT","semantic":"channel","river_class":"소하천","river_class_source":"중심선 공간조인","survey_method":"사진측량","admin_code":"26320"},"geometry":{"type":"Polygon","coordinates":[[[129.03839,35.21117],[129.03888,35.212],[129.04033,35.21258],[129.03977,35.21215],[129.03894,35.21199],[129.03839,35.21117]]]}},{"type":"Feature","id":"TN_RIVER_BT:WTR0200000000AT1M","properties":{"NF_ID":"WTR0200000000AT1M","source_layer":"TN_RIVER_BT","semantic":"channel","river_class":"소하천","river_class_source":"중심선 공간조인","survey_method":"사진측량","admin_code":"26320"},"geometry":{"type":"Polygon","coordinates":[[[129.02411,35.21443],[129.02479,35.21421],[129.02408,35.2144],[129.02362,35.21427],[129.02411,35.21443]]]}},{"type":"Feature","id":"TN_RIVER_BT:WTR0200000000AT3O","properties":{"NF_ID":"WTR0200000000AT3O","source_layer":"TN_RIVER_BT","semantic":"channel","river_class":"소하천","river_class_source":"중심선 공간조인","survey_method":"사진측량","admin_code":"26320"},"geometry":{"type":"Polygon","coordinates":[[[129.04579,35.21549],[129.04413,35.21474],[129.04289,35.21472],[129.04265,35.21439],[129.04203,35.21436],[129.0411,35.21367],[129.04143,35.21511],[129.0416,35.2146],[129.04122,35.21426],[129.04132,35.21394],[129.04195,35.21438],[129.04259,35.21439],[129.04283,35.21474],[129.04358,35.21491],[129.04417,35.21479],[129.04668,35.21604],[129.04579,35.21549]]]}},{"type":"Feature","id":"TN_RIVER_BT:WTR0200000000AT6R","properties":{"NF_ID":"WTR0200000000AT6R","source_layer":"TN_RIVER_BT","semantic":"channel","river_class":"소하천","river_class_source":"중심선 공간조인","survey_method":"사진측량","admin_code":"26320"},"geometry":{"type":"Polygon","coordinates":[[[129.01958,35.21977],[129.01936,35.22032],[129.01951,35.22055],[129.01958,35.21977]]]}},{"type":"Feature","id":"TN_RIVER_BT:WTR0200000000ATG1","properties":{"NF_ID":"WTR0200000000ATG1","source_layer":"TN_RIVER_BT","semantic":"channel","river_class":"소하천","river_class_source":"중심선 공간조인","survey_method":"사진측량","admin_code":"26320"},"geometry":{"type":"Polygon","coordinates":[[[129.00164,35.2234],[129.00336,35.22324],[129.00285,35.22197],[129.00199,35.22139],[129.00131,35.22238],[129.00164,35.2234]],[[129.00209,35.22151],[129.00288,35.22206],[129.00331,35.22323],[129.00155,35.22337],[129.00133,35.22239],[129.00209,35.22151]]]}},{"type":"Feature","id":"TN_RIVER_BT:WTR0200000000ATH2","properties":{"NF_ID":"WTR0200000000ATH2","source_layer":"TN_RIVER_BT","semantic":"channel","river_class":"소하천","river_class_source":"중심선 공간조인","survey_method":"사진측량","admin_code":"26320"},"geometry":{"type":"Polygon","coordinates":[[[129.00381,35.21946],[129.00345,35.21832],[129.00285,35.21758],[129.00317,35.21719],[129.00282,35.21607],[129.00398,35.21582],[129.00266,35.21581],[129.00162,35.21342],[129.00067,35.21198],[129.00102,35.21167],[129.00081,35.21101],[129.00178,35.21056],[129.00228,35.21112],[129.00243,35.21074],[129.00262,35.21077],[129.00234,35.21051],[129.00276,35.21035],[129.00258,35.21007],[129.00113,35.21044],[129.0,35.21101],[129.0,35.21185],[129.00206,35.21494],[129.00224,35.21586],[129.002,35.21651],[129.00228,35.2167],[129.00273,35.21662],[129.00303,35.21716],[129.00268,35.21759],[129.00324,35.21817],[129.00395,35.22005],[129.00477,35.22436],[129.00435,35.22128],[129.00381,35.21946]],[[129.00235,35.21666],[129.00201,35.21644],[129.00226,35.21595],[129.00263,35.21652],[129.00235,35.21666]]]}},{"type":"Feature","id":"TN_RIVER_BT:WTR0200000000ATK5","properties":{"NF_ID":"WTR0200000000ATK5","source_layer":"TN_RIVER_BT","semantic":"channel","river_class":"소하천","river_class_source":"중심선 공간조인","survey_method":"사진측량","admin_code":"26320"},"geometry":{"type":"Polygon","coordinates":[[[129.00508,35.22552],[129.00491,35.22479],[129.00488,35.22557],[129.00508,35.22552]]]}},{"type":"Feature","id":"TN_RIVER_BT:WTR0200000000ATL6","properties":{"NF_ID":"WTR0200000000ATL6","source_layer":"TN_RIVER_BT","semantic":"channel","river_class":"소하천","river_class_source":"중심선 공간조인","survey_method":"사진측량","admin_code":"26320"},"geometry":{"type":"Polygon","coordinates":[[[129.01503,35.22651],[129.01503,35.22649],[129.01503,35.22649],[129.01502,35.22648],[129.01499,35.22648],[129.01494,35.2265],[129.0149,35.22651],[129.01481,35.22654],[129.01479,35.22655],[129.01475,35.22657],[129.01467,35.2266],[129.01456,35.22663],[129.01441,35.22666],[129.01434,35.22668],[129.01426,35.22673],[129.01429,35.22675],[129.01436,35.2267],[129.01443,35.22668],[129.01453,35.22667],[129.01464,35.22664],[129.01479,35.2266],[129.01479,35.2266],[129.01482,35.22659],[129.01488,35.22658],[129.01493,35.22655],[129.01503,35.22652],[129.01503,35.22651],[129.01503,35.22651]]]}},{"type":"Feature","id":"TN_RIVER_BT:WTR0200000000ATVG","properties":{"NF_ID":"WTR0200000000ATVG","source_layer":"TN_RIVER_BT","semantic":"channel","river_class":"소하천","river_class_source":"중심선 공간조인","survey_method":"사진측량","admin_code":"26320"},"geometry":{"type":"Polygon","coordinates":[[[129.02198,35.23504],[129.02277,35.23455],[129.02398,35.23435],[129.025,35.23324],[129.02559,35.23328],[129.02599,35.23269],[129.02645,35.2326],[129.027,35.23199],[129.02755,35.23194],[129.02793,35.23151],[129.02848,35.23149],[129.02918,35.231],[129.03031,35.23099],[129.0289,35.23108],[129.02936,35.23045],[129.02838,35.23143],[129.02661,35.23211],[129.02648,35.23252],[129.0259,35.23272],[129.0256,35.2332],[129.025,35.23318],[129.02394,35.23433],[129.02226,35.23471],[129.0216,35.23512],[129.02158,35.23552],[129.02116,35.23577],[129.02198,35.23504]]]}},{"type":"Feature","id":"TN_RIVER_BT:WTR0200000000ATWH","properties":{"NF_ID":"WTR0200000000ATWH","source_layer":"TN_RIVER_BT","semantic":"channel","river_class":"소하천","river_class_source":"중심선 공간조인","survey_method":"사진측량","admin_code":"26320"},"geometry":{"type":"Polygon","coordinates":[[[129.01995,35.23611],[129.02066,35.23601],[129.01986,35.23608],[129.01968,35.2364],[129.01995,35.23611]]]}},{"type":"Feature","id":"TN_RIVER_BT:WTR0200000000ATZK","properties":{"NF_ID":"WTR0200000000ATZK","source_layer":"TN_RIVER_BT","semantic":"channel","river_class":"소하천","river_class_source":"중심선 공간조인","survey_method":"사진측량","admin_code":"26320"},"geometry":{"type":"Polygon","coordinates":[[[129.01763,35.23758],[129.01697,35.23818],[129.01597,35.23843],[129.01529,35.23907],[129.01575,35.23892],[129.01609,35.23843],[129.01706,35.23817],[129.01763,35.23758]]]}},{"type":"Feature","id":"TN_RIVER_BT:WTR0200000000AUH3","properties":{"NF_ID":"WTR0200000000AUH3","source_layer":"TN_RIVER_BT","semantic":"channel","river_class":"등급미확인","survey_method":"사진측량","admin_code":"26320"},"geometry":{"type":"Polygon","coordinates":[[[129.00013,35.22029],[129.0,35.2216],[129.00079,35.2219],[129.00117,35.22165],[129.00114,35.22115],[129.00084,35.22066],[129.00013,35.22029]]]}},{"type":"Feature","id":"TN_RIVER_BT:WTR0200000000AUI4","properties":{"NF_ID":"WTR0200000000AUI4","source_layer":"TN_RIVER_BT","semantic":"channel","river_class":"국가하천","river_class_source":"중심선 공간조인","river_name":"낙동강","river_code":"2000010","survey_method":"사진측량","admin_code":"26320"},"geometry":{"type":"Polygon","coordinates":[[[129.00031,35.24102],[129.00218,35.24529],[129.0048,35.25],[129.00773,35.25],[129.00594,35.24543],[129.00914,35.24518],[129.00589,35.24534],[129.00503,35.24311],[129.00517,35.24277],[129.00919,35.24111],[129.01428,35.23978],[129.01612,35.24028],[129.0185,35.24202],[129.01975,35.24255],[129.02228,35.24295],[129.02408,35.24265],[129.02499,35.24334],[129.02772,35.24416],[129.03138,35.2461],[129.0326,35.24755],[129.03302,35.24941],[129.03402,35.24965],[129.03575,35.24962],[129.03649,35.25],[129.03561,35.24946],[129.03326,35.24941],[129.03286,35.24774],[129.031,35.24553],[129.02976,35.24505],[129.02871,35.2443],[129.02631,35.24362],[129.02499,35.24234],[129.02385,35.2425],[129.02429,35.2398],[129.02596,35.23951],[129.02675,35.23997],[129.02701,35.2398],[129.02652,35.2399],[129.02606,35.23946],[129.02426,35.23972],[129.02382,35.24158],[129.02391,35.2423],[129.02293,35.24288],[129.01907,35.24227],[129.01843,35.24194],[129.01726,35.2408],[129.01579,35.24011],[129.01428,35.23971],[129.01291,35.23989],[129.00957,35.24084],[129.00724,35.24157],[129.00618,35.24221],[129.00504,35.24244],[129.00418,35.24085],[129.00436,35.24078],[129.0045,35.24123],[129.0044,35.2395],[129.00319,35.23528],[129.00247,35.23376],[129.00187,35.23109],[129.00603,35.23217],[129.00191,35.23089],[129.00146,35.22986],[129.00122,35.22988],[129.00107,35.2267],[129.00184,35.22704],[129.00214,35.22749],[129.00215,35.22845],[129.00251,35.22931],[129.00196,35.23075],[129.00277,35.22992],[129.00237,35.22742],[129.00245,35.22702],[129.00284,35.22742],[129.00242,35.22692],[129.00234,35.22616],[129.00281,35.22559],[129.00327,35.22552],[129.00326,35.22447],[129.00275,35.22389],[129.00154,35.22362],[129.00105,35.22341],[129.00137,35.22332],[129.00048,35.22307],[129.0,35.2221],[129.0,35.24043],[129.00031,35.24102]],[[129.02848,35.24435],[129.0295,35.24507],[129.0285,35.24456],[129.02848,35.24435]],[[129.02415,35.24263],[129.02491,35.24239],[129.02595,35.24346],[129.02496,35.24325],[129.02415,35.24263]],[[129.00053,35.22323],[129.00101,35.22346],[129.00117,35.2239],[129.00111,35.22364],[129.00133,35.22359],[129.003,35.2245],[129.00228,35.225],[129.00274,35.22555],[129.00228,35.22585],[129.0018,35.22672],[129.00099,35.22658],[129.00053,35.22323]],[[129.0004,35.22317],[129.00041,35.22317],[129.00042,35.22317],[129.00048,35.22319],[129.00048,35.22319],[129.00049,35.2232],[129.00049,35.2232],[129.00048,35.22322],[129.00048,35.22322],[129.00047,35.22322],[129.00046,35.22322],[129.00046,35.22322],[129.00043,35.22321],[129.00039,35.2232],[129.00038,35.2232],[129.00038,35.2232],[129.00037,35.22319],[129.00037,35.22319],[129.00037,35.22318],[129.00037,35.22318],[129.00038,35.22318],[129.00038,35.22317],[129.00039,35.22317],[129.0004,35.22317]],[[129.00019,35.22259],[129.0002,35.2226],[129.0002,35.2226],[129.00021,35.22262],[129.00022,35.22262],[129.00024,35.22261],[129.00027,35.2226],[129.00027,35.2226],[129.00033,35.22268],[129.00037,35.22274],[129.00037,35.22274],[129.0003,35.22277],[129.00026,35.22279],[129.00026,35.22279],[129.00026,35.2228],[129.00028,35.22282],[129.00028,35.22282],[129.00027,35.22282],[129.00023,35.22284],[129.00022,35.22284],[129.00022,35.22284],[129.00009,35.22265],[129.00009,35.22265],[129.00009,35.22265],[129.00009,35.22265],[129.00019,35.22259],[129.00019,35.22259]]]}},{"type":"Feature","id":"TN_RIVER_BT:WTR0200000000AXB0","properties":{"NF_ID":"WTR0200000000AXB0","source_layer":"TN_RIVER_BT","semantic":"channel","river_class":"지방하천","river_class_source":"중심선 공간조인","river_name":"대천천","river_code":"2027650","survey_method":"사진측량","admin_code":"26320"},"geometry":{"type":"Polygon","coordinates":[[[129.04416,35.25762],[129.04376,35.2561],[129.04386,35.25534],[129.04352,35.2549],[129.04365,35.25399],[129.04282,35.25368],[129.04162,35.25195],[129.04293,35.25179],[129.0433,35.25193],[129.04329,35.2524],[129.04386,35.25277],[129.04422,35.25397],[129.04555,35.25497],[129.04424,35.25393],[129.04387,35.25276],[129.04331,35.2524],[129.0433,35.2518],[129.04254,35.25178],[129.04332,35.25161],[129.04471,35.252],[129.04545,35.25169],[129.04473,35.25187],[129.04404,35.25151],[129.04284,35.25145],[129.04129,35.25172],[129.04117,35.25145],[129.04092,35.25154],[129.03987,35.25112],[129.03892,35.25115],[129.03812,35.25022],[129.03694,35.25049],[129.03635,35.25],[129.03683,35.25054],[129.03821,35.25041],[129.03872,35.2513],[129.03999,35.25133],[129.04137,35.25201],[129.04236,35.25302],[129.04277,35.25386],[129.04357,35.25401],[129.04339,35.25487],[129.04365,35.25703],[129.04416,35.25762]]]}},{"type":"Feature","id":"TN_RIVER_BT:WTR0200000000AXJ8","properties":{"NF_ID":"WTR0200000000AXJ8","source_layer":"TN_RIVER_BT","semantic":"channel","river_class":"소하천","river_class_source":"중심선 공간조인","survey_method":"사진측량","admin_code":"26320"},"geometry":{"type":"Polygon","coordinates":[[[129.02393,35.26605],[129.02388,35.26604],[129.02384,35.26604],[129.02382,35.26604],[129.02378,35.26604],[129.02376,35.26604],[129.02373,35.26604],[129.02369,35.26603],[129.02367,35.26603],[129.02364,35.26605],[129.02366,35.26605],[129.02369,35.26606],[129.02371,35.26606],[129.02375,35.26606],[129.02378,35.26605],[129.02381,35.26605],[129.02383,35.26605],[129.02385,35.26605],[129.02388,35.26605],[129.02392,35.26606],[129.02399,35.26607],[129.02411,35.26609],[129.0242,35.26612],[129.0242,35.26611],[129.02414,35.26609],[129.0241,35.26608],[129.02405,35.26607],[129.02393,35.26605]]]}},{"type":"Feature","id":"TN_RIVER_BT:WTR0200000000AXNC","properties":{"NF_ID":"WTR0200000000AXNC","source_layer":"TN_RIVER_BT","semantic":"channel","river_class":"소하천","river_class_source":"중심선 공간조인","survey_method":"사진측량","admin_code":"26320"},"geometry":{"type":"Polygon","coordinates":[[[129.02333,35.26811],[129.02331,35.26809],[129.02328,35.2681],[129.02363,35.26853],[129.02365,35.26855],[129.02402,35.26876],[129.02405,35.26879],[129.02407,35.26876],[129.02404,35.26874],[129.02372,35.26856],[129.02367,35.26853],[129.02333,35.26811]]]}},{"type":"Feature","id":"TN_RIVER_BT:WTR0200000000B676","properties":{"NF_ID":"WTR0200000000B676","source_layer":"TN_RIVER_BT","semantic":"channel","river_class":"국가하천","river_class_source":"중심선 공간조인","river_name":"낙동강","river_code":"2000010","survey_method":"사진측량","admin_code":"26320"},"geometry":{"type":"MultiPolygon","coordinates":[[[[129.0169,35.27538],[129.017,35.27542],[129.01704,35.27543],[129.01712,35.27546],[129.01717,35.27547],[129.0173,35.27548],[129.01735,35.27549],[129.01748,35.27549],[129.01749,35.27549],[129.01754,35.27549],[129.01758,35.27549],[129.0177,35.27549],[129.01778,35.2755],[129.01802,35.27553],[129.01803,35.27553],[129.01816,35.27554],[129.01816,35.27554],[129.01831,35.27548],[129.0183,35.27548],[129.01828,35.27548],[129.01826,35.27548],[129.01824,35.27549],[129.01821,35.27551],[129.0182,35.27551],[129.01819,35.27551],[129.01817,35.27552],[129.01814,35.27552],[129.01797,35.2755],[129.0177,35.27549],[129.01726,35.27544],[129.01706,35.27537],[129.01704,35.27537],[129.01702,35.27537],[129.01698,35.27536],[129.01694,35.27536],[129.01687,35.27537],[129.01685,35.27537],[129.0169,35.27538]]],[[[129.00613,35.25249],[129.01166,35.2634],[129.01482,35.27053],[129.01348,35.27376],[129.01648,35.2752],[129.01744,35.27261],[129.01758,35.27176],[129.01737,35.27148],[129.01791,35.27141],[129.01738,35.27128],[129.0172,35.26932],[129.01577,35.26714],[129.01633,35.26698],[129.01569,35.26692],[129.0149,35.26575],[129.01473,35.26517],[129.01524,35.26505],[129.0147,35.26512],[129.01445,35.2647],[129.0149,35.26427],[129.01441,35.26454],[129.01381,35.2638],[129.01361,35.26288],[129.01321,35.26249],[129.01393,35.26232],[129.01314,35.26239],[129.01241,35.26072],[129.01296,35.26052],[129.01233,35.26054],[129.01205,35.25975],[129.01248,35.2596],[129.01203,35.25963],[129.01095,35.25718],[129.01024,35.25613],[129.01069,35.25593],[129.01018,35.25605],[129.00998,35.25554],[129.01042,35.25531],[129.00994,35.25543],[129.00894,35.25362],[129.00863,35.25258],[129.0098,35.25239],[129.00848,35.25242],[129.00773,35.25],[129.0048,35.25],[129.00613,35.25249]]]]}},{"type":"Feature","id":"TN_RIVER_BT:WTR0200000000BZB3","properties":{"NF_ID":"WTR0200000000BZB3","source_layer":"TN_RIVER_BT","semantic":"channel","river_class":"지방하천","river_class_source":"중심선 공간조인","river_name":"삼락천","river_code":"2027671","survey_method":"사진측량","admin_code":"26320"},"geometry":{"type":"Polygon","coordinates":[[[128.98794,35.1959],[128.98793,35.1959],[128.98795,35.196],[128.98801,35.19632],[128.98802,35.19633],[128.98803,35.19637],[128.98804,35.19638],[128.98804,35.19639],[128.98804,35.1964],[128.98803,35.1964],[128.98803,35.19641],[128.98804,35.19642],[128.98804,35.19643],[128.98804,35.19643],[128.98805,35.19644],[128.98805,35.19645],[128.98805,35.19646],[128.98805,35.19647],[128.98805,35.19648],[128.98805,35.19649],[128.98805,35.19649],[128.98805,35.1965],[128.98806,35.19651],[128.98807,35.19652],[128.98807,35.19652],[128.98807,35.19653],[128.98806,35.19654],[128.98806,35.19655],[128.98806,35.19657],[128.98806,35.19657],[128.98807,35.19658],[128.98807,35.19659],[128.98808,35.1966],[128.98808,35.1966],[128.98808,35.19661],[128.98808,35.19661],[128.98807,35.19662],[128.98807,35.19663],[128.98809,35.19673],[128.98812,35.19672],[128.98811,35.19668],[128.98811,35.19668],[128.98811,35.19666],[128.9881,35.19664],[128.9881,35.19664],[128.9881,35.19663],[128.9881,35.19661],[128.9881,35.19661],[128.9881,35.1966],[128.9881,35.1966],[128.9881,35.19659],[128.98809,35.19658],[128.98809,35.19657],[128.98809,35.19657],[128.98808,35.19656],[128.98808,35.19655],[128.98808,35.19654],[128.98808,35.19653],[128.98808,35.19653],[128.98808,35.19652],[128.98808,35.19651],[128.98808,35.1965],[128.98807,35.19649],[128.98807,35.19648],[128.98807,35.19647],[128.98807,35.19646],[128.98807,35.19645],[128.98807,35.19645],[128.98807,35.19644],[128.98805,35.19635],[128.98804,35.19632],[128.98805,35.19632],[128.98805,35.19631],[128.98799,35.19598],[128.98797,35.19589],[128.98794,35.1959]]]}},{"type":"Feature","id":"TN_RIVER_BT:WTR0200000000C3MJ","properties":{"NF_ID":"WTR0200000000C3MJ","source_layer":"TN_RIVER_BT","semantic":"channel","river_class":"국가하천","river_class_source":"중심선 공간조인","river_name":"서낙동강","river_code":"2400010","survey_method":"사진측량","admin_code":"26320"},"geometry":{"type":"MultiPolygon","coordinates":[[[[128.98903,35.19978],[128.98886,35.20063],[128.98774,35.20146],[128.99119,35.20442],[128.99317,35.20675],[128.99388,35.20811],[128.99536,35.21269],[128.9973,35.22464],[128.99822,35.23291],[128.99676,35.23608],[128.9988,35.23808],[129.0,35.24043],[129.0,35.2221],[128.99982,35.22167],[129.0,35.2216],[129.0,35.22023],[128.9987,35.21946],[128.99852,35.2187],[128.99899,35.21844],[128.99836,35.21852],[128.99801,35.21564],[128.9977,35.21498],[128.9976,35.21195],[128.99666,35.20875],[128.99677,35.20857],[128.99825,35.20992],[128.99799,35.21036],[128.99817,35.21096],[128.99802,35.21041],[128.99824,35.21005],[129.0,35.21185],[129.0,35.21101],[128.99976,35.21107],[128.99671,35.20794],[128.99712,35.20753],[128.99384,35.20425],[128.99273,35.20263],[128.99095,35.20081],[128.9904,35.20104],[128.98912,35.19966],[128.98897,35.19959],[128.98903,35.19978]]],[[[128.98895,35.19952],[128.98895,35.19953],[128.98896,35.19951],[128.98895,35.19949],[128.98894,35.19947],[128.98893,35.19946],[128.98895,35.19952]]]]}}]}