{"type":"FeatureCollection","features":[{"type":"Feature","id":"TN_RIVER_BT:WTR02000000003WAR","properties":{"NF_ID":"WTR02000000003WAR","admin_code":"41270","source_layer":"TN_RIVER_BT","semantic":"channel","river_class":"소하천","river_class_source":"중심선 공간조인","survey_method":"사진측량"},"geometry":{"type":"Polygon","coordinates":[[[126.84693,37.2762],[126.84082,37.27457],[126.83998,37.27497],[126.83813,37.27465],[126.83822,37.27489],[126.83881,37.27502],[126.84004,37.275],[126.84069,37.27465],[126.84693,37.2762]]]}},{"type":"Feature","id":"TN_RIVER_BT:WTR02000000003WEV","properties":{"NF_ID":"WTR02000000003WEV","admin_code":"41270","source_layer":"TN_RIVER_BT","semantic":"channel","river_class":"소하천","river_class_source":"중심선 공간조인","survey_method":"사진측량"},"geometry":{"type":"Polygon","coordinates":[[[126.83828,37.27862],[126.83827,37.27862],[126.83823,37.27862],[126.83822,37.27862],[126.83822,37.27863],[126.83822,37.27879],[126.83822,37.27881],[126.83822,37.27887],[126.83822,37.27888],[126.83823,37.27891],[126.83824,37.27901],[126.83825,37.27926],[126.83826,37.27945],[126.83826,37.27946],[126.83826,37.27956],[126.83825,37.27961],[126.83824,37.27962],[126.83821,37.27965],[126.83816,37.27971],[126.83815,37.27974],[126.83814,37.27976],[126.83814,37.27978],[126.83817,37.27978],[126.83818,37.27974],[126.83819,37.27973],[126.8382,37.27972],[126.83822,37.2797],[126.83825,37.27967],[126.83827,37.27965],[126.83828,37.27964],[126.83829,37.27963],[126.83829,37.27949],[126.83829,37.27945],[126.83828,37.27933],[126.83828,37.27918],[126.83828,37.27905],[126.83828,37.2789],[126.83828,37.27888],[126.83828,37.27888],[126.83828,37.27863],[126.83828,37.27862]]]}},{"type":"Feature","id":"TN_RIVER_BT:WTR02000000003WFW","properties":{"NF_ID":"WTR02000000003WFW","admin_code":"41270","source_layer":"TN_RIVER_BT","semantic":"channel","river_class":"소하천","river_class_source":"중심선 공간조인","survey_method":"사진측량"},"geometry":{"type":"Polygon","coordinates":[[[126.84068,37.27855],[126.84066,37.27854],[126.84068,37.2786],[126.84069,37.2786],[126.84069,37.27861],[126.84069,37.27862],[126.8407,37.27875],[126.8407,37.27889],[126.84071,37.27903],[126.84072,37.27924],[126.84072,37.27954],[126.84072,37.27982],[126.84072,37.28002],[126.84072,37.28003],[126.84072,37.28006],[126.84073,37.28009],[126.84079,37.28009],[126.84078,37.2798],[126.84077,37.27954],[126.84077,37.27928],[126.84076,37.27905],[126.84076,37.2789],[126.84076,37.27889],[126.84076,37.27889],[126.84076,37.27877],[126.84076,37.27862],[126.84076,37.27862],[126.84076,37.27862],[126.84076,37.27861],[126.84076,37.27861],[126.8408,37.27857],[126.84074,37.27855],[126.84068,37.27855]]]}},{"type":"Feature","id":"TN_RIVER_BT:WTR02000000003WP6","properties":{"NF_ID":"WTR02000000003WP6","admin_code":"41270","source_layer":"TN_RIVER_BT","semantic":"channel","river_class":"소하천","river_class_source":"중심선 공간조인","survey_method":"사진측량"},"geometry":{"type":"Polygon","coordinates":[[[126.92539,37.29738],[126.92643,37.29734],[126.92657,37.29576],[126.92767,37.29459],[126.92783,37.29369],[126.92751,37.29327],[126.92718,37.29167],[126.92748,37.29332],[126.92774,37.29361],[126.92763,37.29463],[126.92655,37.29574],[126.92638,37.29727],[126.92539,37.29738]]]}},{"type":"Feature","id":"TN_RIVER_BT:WTR02000000003XBT","properties":{"NF_ID":"WTR02000000003XBT","admin_code":"41270","source_layer":"TN_RIVER_BT","semantic":"channel","river_class":"지방하천","river_class_source":"중심선 공간조인","river_name":"반월천","river_code":"1520150","survey_method":"사진측량"},"geometry":{"type":"Polygon","coordinates":[[[126.88728,37.31844],[126.88727,37.31816],[126.88782,37.31788],[126.88855,37.31705],[126.88837,37.31311],[126.88994,37.31095],[126.89063,37.31065],[126.89179,37.30963],[126.89258,37.30812],[126.89363,37.30751],[126.89448,37.30667],[126.89553,37.30415],[126.89637,37.30584],[126.89703,37.30614],[126.89658,37.30703],[126.89686,37.3077],[126.89631,37.30839],[126.89623,37.30957],[126.89661,37.31015],[126.89624,37.31085],[126.89634,37.31137],[126.89877,37.31244],[126.89965,37.31229],[126.90221,37.31282],[126.90319,37.31431],[126.90611,37.31457],[126.90728,37.31519],[126.90784,37.31522],[126.90847,37.31599],[126.90805,37.31693],[126.91275,37.31827],[126.91411,37.31763],[126.91479,37.31878],[126.91522,37.31899],[126.91487,37.31882],[126.91412,37.31759],[126.91271,37.31823],[126.91158,37.31775],[126.90813,37.3169],[126.90848,37.31594],[126.90783,37.31517],[126.90731,37.31516],[126.90608,37.31453],[126.9032,37.31425],[126.90223,37.3128],[126.90157,37.3128],[126.8997,37.31222],[126.89874,37.31235],[126.89639,37.31136],[126.89627,37.31086],[126.89665,37.3101],[126.89627,37.30923],[126.89642,37.30833],[126.89692,37.30758],[126.89663,37.30701],[126.89709,37.30613],[126.89639,37.30578],[126.89556,37.30375],[126.89661,37.30188],[126.89722,37.30158],[126.90004,37.30316],[126.90079,37.30399],[126.90128,37.30421],[126.90495,37.30432],[126.90602,37.30498],[126.90838,37.30584],[126.91138,37.30638],[126.9133,37.30571],[126.91551,37.30566],[126.91588,37.3062],[126.91658,37.3066],[126.91633,37.30737],[126.91896,37.30792],[126.91921,37.30938],[126.91968,37.30993],[126.92011,37.30999],[126.92048,37.31056],[126.9205,37.31156],[126.91956,37.31218],[126.91969,37.313],[126.91959,37.3122],[126.9205,37.31161],[126.92052,37.31061],[126.92101,37.31128],[126.92206,37.31198],[126.92369,37.31256],[126.92209,37.31196],[126.92099,37.31123],[126.92013,37.30997],[126.91971,37.30989],[126.91923,37.30933],[126.919,37.30792],[126.9165,37.3073],[126.91663,37.30659],[126.91585,37.30611],[126.91556,37.30563],[126.91489,37.30559],[126.91542,37.30514],[126.91709,37.30488],[126.92183,37.3026],[126.92309,37.30159],[126.92325,37.3003],[126.92398,37.29986],[126.92415,37.29931],[126.92522,37.2985],[126.9241,37.29921],[126.92397,37.29983],[126.92314,37.30039],[126.92314,37.30142],[126.92274,37.30192],[126.92149,37.30267],[126.92121,37.30116],[126.92146,37.30018],[126.92119,37.30113],[126.92144,37.30268],[126.91956,37.30377],[126.917,37.30489],[126.91545,37.30508],[126.91476,37.30559],[126.91324,37.30568],[126.91157,37.30632],[126.90825,37.30578],[126.90492,37.30428],[126.90088,37.304],[126.90013,37.30316],[126.89719,37.30154],[126.89733,37.30067],[126.8969,37.29921],[126.89566,37.29658],[126.89544,37.29635],[126.89551,37.29666],[126.8945,37.29509],[126.89356,37.29457],[126.89206,37.29433],[126.89118,37.29393],[126.88898,37.292],[126.88576,37.29052],[126.88492,37.28992],[126.88386,37.28816],[126.88423,37.28647],[126.88486,37.28511],[126.88497,37.28357],[126.88332,37.28081],[126.88195,37.27966],[126.88001,37.27995],[126.8787,37.27915],[126.87733,37.27873],[126.8768,37.27736],[126.87543,37.27725],[126.87492,37.277],[126.87424,37.27627],[126.87427,37.27571],[126.87944,37.2728],[126.88025,37.27265],[126.88143,37.27279],[126.88232,37.27338],[126.8834,37.27525],[126.8843,37.27565],[126.88518,37.27716],[126.88627,37.27726],[126.88747,37.27659],[126.88779,37.27663],[126.88919,37.27753],[126.89027,37.27885],[126.89143,37.27875],[126.8934,37.27936],[126.89444,37.27933],[126.89815,37.28133],[126.89921,37.2816],[126.90055,37.283],[126.89924,37.28156],[126.89818,37.28129],[126.89449,37.27931],[126.89242,37.27909],[126.89162,37.27871],[126.8903,37.27879],[126.88926,37.27751],[126.88769,37.27653],[126.88622,37.27722],[126.88512,37.27705],[126.88432,37.27564],[126.88347,37.27518],[126.88242,37.27351],[126.88265,37.27363],[126.88628,37.27294],[126.88904,37.27216],[126.88975,37.27157],[126.88981,37.27082],[126.89176,37.27029],[126.89263,37.26985],[126.89308,37.26932],[126.8938,37.26911],[126.8951,37.26925],[126.89593,37.26877],[126.89655,37.26903],[126.89602,37.26875],[126.89506,37.26922],[126.89392,37.26907],[126.89308,37.26929],[126.89262,37.26983],[126.89173,37.27027],[126.88974,37.27082],[126.88972,37.27154],[126.8891,37.27208],[126.88585,37.273],[126.88264,37.27361],[126.88219,37.27301],[126.88159,37.27269],[126.87955,37.2726],[126.87367,37.27598],[126.87158,37.27533],[126.87074,37.2747],[126.86641,37.27355],[126.86406,37.27224],[126.86178,37.27274],[126.85965,37.27275],[126.85874,37.27314],[126.85846,37.273],[126.85847,37.27316],[126.85741,37.27327],[126.85679,37.27279],[126.85538,37.27267],[126.85337,37.27181],[126.85322,37.27152],[126.85342,37.27122],[126.85297,37.27076],[126.85284,37.2716],[126.85376,37.27226],[126.85369,37.27245],[126.85385,37.27232],[126.85539,37.27291],[126.85654,37.27296],[126.85741,37.27351],[126.86061,37.27283],[126.8623,37.27291],[126.86382,37.27244],[126.86334,37.27385],[126.86223,37.27528],[126.8615,37.27681],[126.8609,37.2765],[126.86062,37.276],[126.8605,37.27623],[126.8611,37.2768],[126.86263,37.27747],[126.86649,37.27775],[126.86941,37.28067],[126.86565,37.28432],[126.86946,37.28072],[126.87136,37.28266],[126.87929,37.28764],[126.87133,37.28255],[126.86654,37.27772],[126.86273,37.27745],[126.86155,37.27684],[126.86223,37.27537],[126.86335,37.27396],[126.86393,37.27254],[126.86532,37.27303],[126.86629,37.27382],[126.87084,37.27485],[126.87147,37.27551],[126.874,37.27629],[126.87494,37.2772],[126.87642,37.27743],[126.87679,37.27769],[126.8773,37.27882],[126.87812,37.27933],[126.87743,37.27886],[126.87865,37.27917],[126.87933,37.27955],[126.87931,37.27976],[126.88009,37.28004],[126.88215,37.27982],[126.88346,37.28111],[126.88478,37.28329],[126.88474,37.28514],[126.88362,37.28845],[126.88466,37.28987],[126.88648,37.29108],[126.88894,37.29207],[126.89139,37.29422],[126.89399,37.29476],[126.89496,37.29578],[126.89647,37.29868],[126.8965,37.29941],[126.89715,37.30068],[126.89706,37.30146],[126.89654,37.3019],[126.89482,37.30183],[126.89653,37.30192],[126.89544,37.30384],[126.89438,37.30661],[126.89391,37.30723],[126.89221,37.30844],[126.89167,37.3097],[126.88986,37.31098],[126.88827,37.31307],[126.88839,37.3168],[126.88711,37.3182],[126.88725,37.31893],[126.88728,37.31844]],[[126.89083,37.31036],[126.89084,37.31036],[126.89085,37.31036],[126.89086,37.31036],[126.89087,37.31036],[126.89087,37.31038],[126.89087,37.31038],[126.89087,37.31039],[126.89084,37.31043],[126.89084,37.31043],[126.89081,37.31046],[126.89079,37.31047],[126.89077,37.31049],[126.89073,37.31052],[126.89069,37.31055],[126.89068,37.31055],[126.89069,37.31056],[126.8907,37.31056],[126.89071,37.31056],[126.89071,37.31057],[126.89071,37.31057],[126.89069,37.31058],[126.89068,37.31059],[126.89067,37.31059],[126.89064,37.3106],[126.89063,37.31061],[126.89062,37.31061],[126.8906,37.31061],[126.89059,37.3106],[126.89058,37.3106],[126.89058,37.31059],[126.89057,37.31059],[126.89054,37.31061],[126.89053,37.31061],[126.89052,37.31062],[126.89051,37.31062],[126.89049,37.31061],[126.89049,37.31059],[126.89052,37.31056],[126.89058,37.31051],[126.89064,37.31049],[126.89064,37.31049],[126.89065,37.31048],[126.89065,37.31047],[126.89071,37.31043],[126.8908,37.31037],[126.89083,37.31036]],[[126.89245,37.29446],[126.89243,37.29446],[126.89241,37.29446],[126.89241,37.29444],[126.89242,37.29444],[126.89243,37.29443],[126.89244,37.29443],[126.89246,37.29443],[126.8925,37.29443],[126.89252,37.29443],[126.89257,37.29444],[126.8926,37.29444],[126.89262,37.29444],[126.89264,37.29444],[126.89266,37.29444],[126.89268,37.29445],[126.89269,37.29445],[126.89269,37.29446],[126.89266,37.29448],[126.89265,37.29448],[126.89263,37.29448],[126.89261,37.29448],[126.89258,37.29448],[126.89255,37.29447],[126.89252,37.29447],[126.89245,37.29446]],[[126.89235,37.29446],[126.89234,37.29446],[126.89231,37.29446],[126.89228,37.29445],[126.89223,37.29444],[126.89221,37.29443],[126.89219,37.29442],[126.89212,37.29439],[126.8921,37.29438],[126.8921,37.29437],[126.8921,37.29436],[126.89211,37.29436],[126.89213,37.29437],[126.89221,37.29439],[126.89222,37.29439],[126.89225,37.2944],[126.89228,37.29441],[126.89233,37.29444],[126.89234,37.29444],[126.89235,37.29445],[126.89235,37.29446],[126.89235,37.29446]],[[126.87967,37.27258],[126.87981,37.27267],[126.87812,37.27343],[126.87967,37.27258]],[[126.8807,37.27267],[126.88168,37.27275],[126.88228,37.27328],[126.88152,37.27278],[126.8807,37.27267]],[[126.88004,37.2726],[126.88004,37.2726],[126.88004,37.27261],[126.88004,37.27262],[126.88003,37.27262],[126.88003,37.27262],[126.87998,37.27264],[126.87997,37.27264],[126.87996,37.27265],[126.87994,37.27264],[126.87994,37.27264],[126.87993,37.27263],[126.87993,37.27263],[126.87992,37.27262],[126.87992,37.27262],[126.87992,37.27262],[126.87992,37.27261],[126.87992,37.2726],[126.87993,37.2726],[126.87994,37.27259],[126.87994,37.27259],[126.87995,37.27258],[126.87997,37.27258],[126.87998,37.27257],[126.87999,37.27257],[126.88,37.27257],[126.88001,37.27257],[126.88002,37.27257],[126.88003,37.27257],[126.88003,37.27257],[126.88004,37.27258],[126.88004,37.27258],[126.88004,37.27258],[126.88004,37.27259],[126.88004,37.2726]],[[126.8893,37.27194],[126.8893,37.27194],[126.88931,37.27194],[126.88931,37.27194],[126.88931,37.27194],[126.8893,37.27195],[126.8893,37.27196],[126.88928,37.27198],[126.88927,37.27199],[126.88926,37.272],[126.88926,37.27201],[126.88925,37.27202],[126.88921,37.27204],[126.8892,37.27205],[126.8892,37.27205],[126.8892,37.27205],[126.88919,37.27205],[126.88919,37.27205],[126.88919,37.27204],[126.8892,37.27203],[126.8892,37.27202],[126.88921,37.27201],[126.88921,37.272],[126.88922,37.27199],[126.88922,37.27198],[126.88923,37.27197],[126.88924,37.27196],[126.88925,37.27196],[126.88926,37.27195],[126.88927,37.27194],[126.88929,37.27194],[126.88929,37.27194],[126.8893,37.27194]]]}},{"type":"Feature","id":"TN_RIVER_BT:WTR02000000003Y8R","properties":{"NF_ID":"WTR02000000003Y8R","admin_code":"41270","source_layer":"TN_RIVER_BT","semantic":"channel","river_class":"소하천","river_class_source":"중심선 공간조인","survey_method":"사진측량"},"geometry":{"type":"Polygon","coordinates":[[[126.87136,37.33854],[126.87219,37.3384],[126.87264,37.33864],[126.87345,37.33853],[126.87405,37.33815],[126.87465,37.33815],[126.87401,37.33813],[126.87373,37.3384],[126.87263,37.33862],[126.87215,37.33838],[126.87138,37.33851],[126.87028,37.33898],[126.87136,37.33854]]]}},{"type":"Feature","id":"TN_RIVER_BT:WTR02000000003YZI","properties":{"NF_ID":"WTR02000000003YZI","admin_code":"41270","source_layer":"TN_RIVER_BT","semantic":"channel","river_class":"소하천","river_class_source":"중심선 공간조인","survey_method":"사진측량"},"geometry":{"type":"Polygon","coordinates":[[[126.87662,37.35612],[126.87729,37.35584],[126.87658,37.35611],[126.87569,37.35599],[126.87492,37.35558],[126.87569,37.356],[126.87662,37.35612]]]}},{"type":"Feature","id":"TN_RIVER_BT:WTR02000000003Z2M","properties":{"NF_ID":"WTR02000000003Z2M","admin_code":"41270","source_layer":"TN_RIVER_BT","semantic":"channel","river_class":"소하천","river_class_source":"중심선 공간조인","survey_method":"사진측량"},"geometry":{"type":"Polygon","coordinates":[[[126.87573,37.35885],[126.87623,37.35865],[126.87565,37.35882],[126.87487,37.35829],[126.87573,37.35885]]]}},{"type":"Feature","id":"TN_RIVER_BT:WTR02000000003Z8S","properties":{"NF_ID":"WTR02000000003Z8S","admin_code":"41270","source_layer":"TN_RIVER_BT","semantic":"channel","river_class":"소하천","river_class_source":"중심선 공간조인","survey_method":"사진측량"},"geometry":{"type":"Polygon","coordinates":[[[126.88283,37.36034],[126.8848,37.35925],[126.88637,37.35907],[126.88483,37.35922],[126.88299,37.36031],[126.88178,37.36056],[126.88283,37.36034]]]}},{"type":"Feature","id":"TN_RIVER_BT:WTR02000000003ZFZ","properties":{"NF_ID":"WTR02000000003ZFZ","admin_code":"41270","source_layer":"TN_RIVER_BT","semantic":"channel","river_class":"소하천","river_class_source":"중심선 공간조인","survey_method":"사진측량"},"geometry":{"type":"Polygon","coordinates":[[[126.88481,37.36419],[126.88554,37.36381],[126.88635,37.36381],[126.88553,37.3638],[126.88471,37.36418],[126.88256,37.36396],[126.88481,37.36419]]]}},{"type":"Feature","id":"TN_RIVER_BT:WTR02000000003ZG0","properties":{"NF_ID":"WTR02000000003ZG0","admin_code":"41270","source_layer":"TN_RIVER_BT","semantic":"channel","river_class":"지방하천","river_class_source":"중심선 공간조인","river_name":"안산천","river_code":"1520190","survey_method":"사진측량"},"geometry":{"type":"Polygon","coordinates":[[[126.86951,37.36321],[126.87078,37.36307],[126.87178,37.36242],[126.87301,37.3621],[126.87175,37.36239],[126.87077,37.36301],[126.86942,37.3632],[126.86811,37.36264],[126.86761,37.36176],[126.86796,37.35968],[126.86613,37.35882],[126.86663,37.35758],[126.86625,37.35662],[126.86646,37.35577],[126.8654,37.35421],[126.86464,37.35201],[126.86507,37.35106],[126.865,37.35139],[126.86592,37.35268],[126.86759,37.35313],[126.86816,37.35388],[126.86822,37.35368],[126.86765,37.35313],[126.86675,37.3528],[126.86701,37.35255],[126.86862,37.35243],[126.86999,37.35149],[126.87262,37.35144],[126.87341,37.35086],[126.87423,37.35071],[126.87493,37.3503],[126.87619,37.35035],[126.87691,37.34994],[126.87927,37.3505],[126.88122,37.35152],[126.88249,37.35174],[126.88316,37.35136],[126.88246,37.35169],[126.88116,37.35146],[126.87939,37.35053],[126.87696,37.34991],[126.87615,37.35034],[126.87483,37.3503],[126.87423,37.35068],[126.87334,37.35086],[126.87261,37.35138],[126.86995,37.35147],[126.86867,37.35238],[126.86708,37.3525],[126.86643,37.35286],[126.86596,37.35262],[126.86504,37.3514],[126.86533,37.35074],[126.86506,37.34989],[126.86452,37.34933],[126.86204,37.34849],[126.85642,37.34573],[126.8563,37.34525],[126.85684,37.34446],[126.8569,37.34391],[126.85571,37.34088],[126.85644,37.34065],[126.85695,37.34015],[126.85841,37.34062],[126.85936,37.3402],[126.86233,37.34001],[126.86355,37.3406],[126.8676,37.3397],[126.86937,37.34094],[126.87114,37.34118],[126.87172,37.34161],[126.87237,37.34124],[126.87307,37.34126],[126.87353,37.34102],[126.87307,37.34125],[126.87236,37.34123],[126.87176,37.34157],[126.87113,37.34115],[126.86941,37.34093],[126.86776,37.33971],[126.86841,37.33942],[126.8637,37.34055],[126.8631,37.34048],[126.8623,37.33999],[126.85942,37.34017],[126.8584,37.3406],[126.85701,37.34012],[126.85639,37.34065],[126.85571,37.34084],[126.85506,37.33915],[126.85461,37.33871],[126.85405,37.3385],[126.85147,37.33837],[126.84612,37.33188],[126.84183,37.33002],[126.84165,37.32791],[126.84183,37.32774],[126.84164,37.32771],[126.84105,37.32044],[126.84126,37.31987],[126.84312,37.31804],[126.84324,37.31757],[126.84307,37.31598],[126.84259,37.31482],[126.84195,37.30813],[126.84207,37.30727],[126.84164,37.306],[126.83939,37.30498],[126.83979,37.30489],[126.83915,37.30488],[126.83559,37.30343],[126.82496,37.30401],[126.82287,37.30382],[126.818,37.30008],[126.81734,37.29914],[126.81706,37.298],[126.81597,37.29688],[126.81346,37.29516],[126.81261,37.2955],[126.81361,37.29594],[126.81635,37.29793],[126.81704,37.29988],[126.81976,37.30236],[126.8201,37.30291],[126.82141,37.31888],[126.82097,37.32009],[126.81993,37.32109],[126.81949,37.32223],[126.81942,37.32362],[126.81723,37.33147],[126.81648,37.33283],[126.81664,37.33685],[126.81691,37.33832],[126.81792,37.33977],[126.81845,37.34796],[126.82162,37.35058],[126.82402,37.35412],[126.82388,37.3545],[126.8246,37.35554],[126.82391,37.35443],[126.82404,37.35415],[126.82493,37.35459],[126.82411,37.35419],[126.82161,37.35053],[126.81863,37.34791],[126.81796,37.33968],[126.81763,37.33892],[126.81696,37.33828],[126.81687,37.33764],[126.81673,37.33521],[126.8169,37.33512],[126.81668,37.33481],[126.81659,37.33387],[126.8168,37.33383],[126.81658,37.33369],[126.81656,37.33285],[126.81743,37.33114],[126.81941,37.32453],[126.81953,37.32232],[126.82017,37.32097],[126.82093,37.32027],[126.82152,37.31929],[126.82165,37.31803],[126.82146,37.3178],[126.82133,37.31605],[126.82153,37.31588],[126.82128,37.31543],[126.82149,37.31536],[126.82127,37.31532],[126.82118,37.31463],[126.82107,37.31329],[126.82131,37.31316],[126.82111,37.31312],[126.82126,37.31272],[126.82109,37.31268],[126.82103,37.31007],[126.82066,37.30851],[126.8209,37.30846],[126.82086,37.30795],[126.82064,37.30789],[126.8203,37.30315],[126.82064,37.3031],[126.82026,37.30285],[126.82064,37.30284],[126.82197,37.30397],[126.82362,37.30436],[126.82706,37.30432],[126.83554,37.30376],[126.84113,37.30582],[126.84179,37.30679],[126.84177,37.30909],[126.84197,37.30918],[126.84217,37.31141],[126.84198,37.31152],[126.84219,37.31154],[126.84221,37.31199],[126.84202,37.31201],[126.84222,37.312],[126.84242,37.31433],[126.84224,37.31441],[126.84297,37.31608],[126.84309,37.31764],[126.84292,37.31811],[126.8412,37.31972],[126.84091,37.32028],[126.84167,37.33011],[126.84607,37.33206],[126.85148,37.3387],[126.85128,37.34228],[126.84958,37.34401],[126.84946,37.34486],[126.84754,37.34704],[126.84688,37.34817],[126.8458,37.34851],[126.84511,37.34847],[126.84581,37.34855],[126.84556,37.349],[126.84588,37.34946],[126.84548,37.35027],[126.84598,37.35262],[126.84715,37.35285],[126.84798,37.35424],[126.84749,37.35311],[126.84707,37.35279],[126.84614,37.35273],[126.84596,37.35253],[126.84551,37.35024],[126.84595,37.34937],[126.84561,37.34898],[126.84591,37.34852],[126.84704,37.3481],[126.84761,37.34709],[126.84863,37.34614],[126.84961,37.34475],[126.84963,37.34403],[126.85138,37.34229],[126.85158,37.33866],[126.85389,37.33851],[126.85448,37.33868],[126.855,37.33917],[126.85685,37.3438],[126.85629,37.3457],[126.85901,37.34713],[126.86123,37.34801],[126.86164,37.34825],[126.86159,37.34843],[126.86174,37.34832],[126.86206,37.34863],[126.86424,37.34924],[126.86416,37.34948],[126.86473,37.34978],[126.86465,37.34953],[126.86503,37.3499],[126.86529,37.35079],[126.8646,37.35203],[126.86535,37.35423],[126.86644,37.35576],[126.86621,37.35662],[126.8666,37.35759],[126.8661,37.35883],[126.86794,37.35972],[126.86759,37.36145],[126.8677,37.36207],[126.86827,37.36282],[126.86957,37.36366],[126.87086,37.36412],[126.87093,37.36487],[126.87125,37.36525],[126.87327,37.36565],[126.87398,37.36689],[126.87466,37.36746],[126.87493,37.36822],[126.87484,37.36774],[126.874,37.36685],[126.87336,37.36566],[126.87122,37.36516],[126.87091,37.36408],[126.86966,37.3636],[126.86932,37.36329],[126.86951,37.36321]],[[126.86454,37.34953],[126.86452,37.34953],[126.86451,37.34953],[126.86449,37.34953],[126.86446,37.34952],[126.8644,37.3495],[126.86438,37.34949],[126.86438,37.34949],[126.86438,37.34948],[126.86438,37.34947],[126.86439,37.34945],[126.86441,37.34944],[126.86444,37.34943],[126.86445,37.34942],[126.86448,37.34942],[126.8645,37.34942],[126.86452,37.34943],[126.86456,37.34945],[126.86458,37.34947],[126.86458,37.34948],[126.86458,37.34948],[126.86458,37.34949],[126.86457,37.3495],[126.86456,37.34952],[126.86454,37.34953]],[[126.86418,37.34919],[126.8641,37.34917],[126.86408,37.34916],[126.86408,37.34914],[126.86409,37.34913],[126.8641,37.34913],[126.86411,37.34913],[126.86412,37.34914],[126.86414,37.34915],[126.86423,37.34918],[126.86425,37.3492],[126.86426,37.3492],[126.86427,37.34921],[126.86428,37.34921],[126.86433,37.34924],[126.86433,37.34925],[126.86433,37.34926],[126.86433,37.34926],[126.86432,37.34927],[126.86431,37.34926],[126.86426,37.34923],[126.86418,37.34919]],[[126.86403,37.34917],[126.86402,37.34917],[126.86399,37.34917],[126.86392,37.34915],[126.86383,37.34912],[126.86381,37.34911],[126.86381,37.3491],[126.86381,37.3491],[126.86382,37.34909],[126.86383,37.34909],[126.86386,37.3491],[126.86393,37.34912],[126.86395,37.34912],[126.86397,37.34913],[126.86399,37.34913],[126.864,37.34914],[126.86401,37.34914],[126.86403,37.34915],[126.86404,37.34915],[126.86404,37.34916],[126.86404,37.34916],[126.86403,37.34917]],[[126.86221,37.34863],[126.86221,37.34863],[126.8622,37.34863],[126.86219,37.34863],[126.86218,37.34862],[126.86217,37.34862],[126.86215,37.34861],[126.86214,37.3486],[126.86213,37.3486],[126.86212,37.3486],[126.8621,37.3486],[126.86209,37.34859],[126.86209,37.34859],[126.86208,37.34858],[126.86208,37.34857],[126.86207,37.34856],[126.86207,37.34855],[126.86206,37.34855],[126.86206,37.34854],[126.86206,37.34853],[126.86206,37.34853],[126.86206,37.34852],[126.86207,37.34852],[126.86208,37.34852],[126.8621,37.34852],[126.86212,37.34852],[126.86215,37.34852],[126.86217,37.34853],[126.86218,37.34854],[126.86221,37.34855],[126.86222,37.34855],[126.86222,37.34856],[126.86222,37.34856],[126.86222,37.34857],[126.86222,37.34859],[126.86222,37.34862],[126.86222,37.34863],[126.86221,37.34863]],[[126.86218,37.34852],[126.86215,37.34851],[126.86215,37.34851],[126.86215,37.3485],[126.86216,37.3485],[126.86217,37.3485],[126.86221,37.34851],[126.86223,37.34852],[126.86223,37.34852],[126.86222,37.34852],[126.86222,37.34852],[126.86221,37.34852],[126.8622,37.34852],[126.86218,37.34852]],[[126.84108,37.32166],[126.84109,37.32165],[126.84111,37.32165],[126.84113,37.32167],[126.84113,37.32171],[126.84114,37.32175],[126.84114,37.32178],[126.84115,37.32179],[126.84115,37.3218],[126.84114,37.32186],[126.84113,37.32187],[126.84111,37.32186],[126.8411,37.32183],[126.84109,37.32177],[126.84108,37.32172],[126.84108,37.32169],[126.84108,37.32166]],[[126.84248,37.31443],[126.84248,37.31441],[126.84248,37.31439],[126.84251,37.31437],[126.84253,37.31439],[126.84253,37.31442],[126.84253,37.31444],[126.84252,37.31445],[126.84252,37.31445],[126.8425,37.31445],[126.84248,37.31443]],[[126.84241,37.31342],[126.84243,37.31342],[126.84245,37.31343],[126.84246,37.31345],[126.84247,37.31347],[126.84248,37.31354],[126.84248,37.31358],[126.84248,37.31361],[126.84247,37.31364],[126.84246,37.31367],[126.84244,37.31369],[126.84243,37.31369],[126.84241,37.31368],[126.84239,37.31366],[126.84238,37.31363],[126.84238,37.31359],[126.84238,37.31354],[126.84238,37.31349],[126.84238,37.31346],[126.84239,37.31343],[126.84241,37.31342]],[[126.84239,37.31298],[126.84242,37.31297],[126.84244,37.31297],[126.84246,37.31298],[126.84247,37.313],[126.84248,37.31304],[126.84249,37.31308],[126.84249,37.31311],[126.84249,37.31314],[126.84248,37.31317],[126.84247,37.31321],[126.84246,37.31326],[126.84245,37.31328],[126.84244,37.3133],[126.84242,37.31331],[126.8424,37.3133],[126.84239,37.31327],[126.84238,37.31322],[126.84237,37.31317],[126.84236,37.31311],[126.84235,37.31308],[126.84236,37.31304],[126.84238,37.313],[126.84239,37.31298]],[[126.84235,37.31243],[126.84237,37.31242],[126.8424,37.31243],[126.84241,37.31244],[126.84241,37.31246],[126.84242,37.31249],[126.84242,37.31252],[126.84243,37.31256],[126.84243,37.3126],[126.84243,37.31264],[126.84243,37.31269],[126.84242,37.31273],[126.8424,37.31274],[126.84238,37.31274],[126.84236,37.31273],[126.84235,37.31271],[126.84235,37.31267],[126.84235,37.31262],[126.84234,37.31257],[126.84234,37.31252],[126.84234,37.31249],[126.84234,37.31245],[126.84235,37.31243]],[[126.84209,37.30994],[126.8421,37.30993],[126.84211,37.30993],[126.84211,37.30994],[126.84212,37.30994],[126.84216,37.30997],[126.84217,37.30999],[126.84219,37.31003],[126.84221,37.31008],[126.84222,37.31012],[126.84222,37.31017],[126.84221,37.31022],[126.8422,37.31026],[126.84219,37.31031],[126.84217,37.31032],[126.84215,37.31033],[126.84213,37.31032],[126.84212,37.3103],[126.84211,37.31026],[126.8421,37.31021],[126.84209,37.31016],[126.84209,37.31011],[126.84208,37.31005],[126.84208,37.31],[126.84208,37.30996],[126.84209,37.30994],[126.84209,37.30994]],[[126.84202,37.30967],[126.842,37.30966],[126.84199,37.30966],[126.84198,37.30964],[126.84198,37.30961],[126.84198,37.30958],[126.84198,37.30954],[126.84199,37.3095],[126.84199,37.30947],[126.842,37.30945],[126.84202,37.30943],[126.84203,37.30943],[126.84204,37.30944],[126.84206,37.30946],[126.84207,37.30949],[126.84208,37.30952],[126.84207,37.30957],[126.84206,37.30961],[126.84205,37.30963],[126.84204,37.30967],[126.84203,37.30967],[126.84203,37.30967],[126.84202,37.30967]],[[126.83865,37.30476],[126.83868,37.30475],[126.8387,37.30475],[126.83873,37.30476],[126.83877,37.30477],[126.83881,37.30479],[126.83885,37.30481],[126.83891,37.30484],[126.83894,37.30486],[126.83897,37.30488],[126.83899,37.3049],[126.83899,37.30491],[126.83896,37.30492],[126.83893,37.30492],[126.8389,37.3049],[126.83886,37.30488],[126.83882,37.30486],[126.83878,37.30484],[126.83874,37.30483],[126.8387,37.30481],[126.83867,37.3048],[126.83865,37.30478],[126.83864,37.30476],[126.83865,37.30476]],[[126.83797,37.30459],[126.83798,37.30458],[126.838,37.30458],[126.83803,37.30459],[126.83808,37.3046],[126.83811,37.30461],[126.83815,37.30463],[126.8382,37.30465],[126.83822,37.30467],[126.83824,37.30469],[126.83825,37.3047],[126.83824,37.30471],[126.83822,37.30472],[126.8382,37.30471],[126.83816,37.3047],[126.83813,37.30469],[126.83809,37.30467],[126.83805,37.30466],[126.83803,37.30465],[126.838,37.30463],[126.83798,37.30462],[126.83797,37.30461],[126.83797,37.3046],[126.83797,37.30459]],[[126.8376,37.30447],[126.83762,37.30447],[126.83766,37.30447],[126.83771,37.30448],[126.83775,37.30449],[126.83777,37.30451],[126.83779,37.30453],[126.83778,37.30454],[126.83775,37.30455],[126.8377,37.30454],[126.83764,37.30451],[126.83761,37.3045],[126.83759,37.30448],[126.8376,37.30447]],[[126.83706,37.30411],[126.83709,37.30411],[126.83713,37.30412],[126.83718,37.30412],[126.83724,37.30414],[126.83734,37.30418],[126.83739,37.3042],[126.83743,37.30423],[126.83747,37.30425],[126.83751,37.30427],[126.83754,37.30429],[126.83755,37.3043],[126.83754,37.30432],[126.83751,37.30433],[126.83746,37.30432],[126.8374,37.30431],[126.83729,37.30427],[126.83725,37.30425],[126.83719,37.30423],[126.83714,37.30421],[126.8371,37.30418],[126.83706,37.30417],[126.83705,37.30415],[126.83705,37.30415],[126.83703,37.30414],[126.83704,37.30412],[126.83706,37.30411]],[[126.83661,37.30394],[126.8366,37.30393],[126.8366,37.30392],[126.8366,37.30392],[126.8366,37.30392],[126.83664,37.30392],[126.83668,37.30393],[126.83671,37.30395],[126.83674,37.30396],[126.83676,37.30398],[126.83677,37.304],[126.83676,37.30401],[126.83674,37.30401],[126.83671,37.304],[126.83668,37.30399],[126.83665,37.30398],[126.83662,37.30396],[126.83661,37.30394]],[[126.8215,37.31843],[126.82148,37.31843],[126.82147,37.31842],[126.82146,37.31841],[126.82145,37.31838],[126.82145,37.31835],[126.82145,37.31832],[126.82145,37.31828],[126.82146,37.31826],[126.82147,37.31825],[126.82148,37.31825],[126.82149,37.31825],[126.82151,37.31828],[126.82152,37.3183],[126.82153,37.31833],[126.82153,37.31836],[126.82152,37.31838],[126.82151,37.3184],[126.8215,37.31842],[126.8215,37.31843]],[[126.82149,37.31877],[126.82148,37.31877],[126.82147,37.31877],[126.82145,37.31874],[126.82144,37.31872],[126.82145,37.31869],[126.82145,37.31866],[126.82146,37.31864],[126.82147,37.31862],[126.82149,37.31862],[126.82151,37.31862],[126.82153,37.31865],[126.82153,37.31867],[126.82153,37.3187],[126.82152,37.31873],[126.82151,37.31875],[126.8215,37.31876],[126.82149,37.31877]],[[126.82021,37.32086],[126.82019,37.32086],[126.82018,37.32085],[126.82018,37.32084],[126.82018,37.32084],[126.82019,37.32081],[126.82028,37.32073],[126.82031,37.32072],[126.82033,37.32071],[126.82035,37.32072],[126.82034,37.32073],[126.82032,37.32076],[126.82023,37.32084],[126.82021,37.32086]],[[126.81998,37.32123],[126.81997,37.32123],[126.81995,37.32122],[126.81995,37.3212],[126.81995,37.32118],[126.81997,37.32113],[126.81999,37.32109],[126.82002,37.32105],[126.82005,37.32103],[126.82007,37.32103],[126.82007,37.32105],[126.82006,37.32107],[126.82001,37.3212],[126.82001,37.32121],[126.82,37.32121],[126.81998,37.32123]],[[126.81881,37.32613],[126.81879,37.32613],[126.81878,37.32613],[126.81878,37.32612],[126.81878,37.32609],[126.81882,37.32598],[126.81883,37.32594],[126.81884,37.32592],[126.81886,37.32591],[126.81887,37.32592],[126.81886,37.32598],[126.81884,37.32608],[126.81883,37.3261],[126.81882,37.32612],[126.81881,37.32612],[126.81881,37.32613]],[[126.8174,37.3311],[126.81738,37.3311],[126.81737,37.33109],[126.81736,37.33107],[126.81736,37.33104],[126.81736,37.331],[126.81737,37.33094],[126.81739,37.33089],[126.81742,37.3308],[126.81745,37.33076],[126.81746,37.33074],[126.81748,37.33075],[126.81748,37.33077],[126.81749,37.33079],[126.81748,37.33081],[126.81748,37.33083],[126.81748,37.33089],[126.81745,37.33106],[126.81743,37.33107],[126.81742,37.33109],[126.8174,37.3311]],[[126.81725,37.29864],[126.81726,37.29862],[126.81727,37.29862],[126.81727,37.29862],[126.81729,37.29863],[126.81734,37.29868],[126.8174,37.29892],[126.81742,37.29902],[126.81733,37.29911],[126.81732,37.29912],[126.81731,37.29911],[126.81732,37.2991],[126.81732,37.29906],[126.81732,37.29903],[126.81732,37.299],[126.81731,37.29899],[126.8173,37.29898],[126.8173,37.29897],[126.8173,37.29896],[126.81732,37.29896],[126.81733,37.29895],[126.81733,37.29893],[126.81732,37.29891],[126.8173,37.29888],[126.81728,37.29885],[126.81727,37.29882],[126.81727,37.29879],[126.81726,37.29876],[126.81726,37.29867],[126.81725,37.29864]]]}},{"type":"Feature","id":"TN_RIVER_BT:WTR02000000003ZI2","properties":{"NF_ID":"WTR02000000003ZI2","admin_code":"41270","source_layer":"TN_RIVER_BT","semantic":"channel","river_class":"소하천","river_class_source":"중심선 공간조인","survey_method":"사진측량"},"geometry":{"type":"Polygon","coordinates":[[[126.87516,37.36903],[126.8751,37.36897],[126.87505,37.36898],[126.87509,37.36902],[126.8751,37.36903],[126.87519,37.36907],[126.8752,37.36905],[126.87517,37.36904],[126.87516,37.36903]]]}},{"type":"Feature","id":"TN_RIVER_BT:WTR02000000003ZJ3","properties":{"NF_ID":"WTR02000000003ZJ3","admin_code":"41270","source_layer":"TN_RIVER_BT","semantic":"channel","river_class":"소하천","river_class_source":"중심선 공간조인","survey_method":"사진측량"},"geometry":{"type":"Polygon","coordinates":[[[126.87574,37.36927],[126.87557,37.36921],[126.87555,37.36923],[126.87573,37.3693],[126.87574,37.36927]]]}},{"type":"Feature","id":"TN_RIVER_BT:WTR02000000003ZL5","properties":{"NF_ID":"WTR02000000003ZL5","admin_code":"41270","source_layer":"TN_RIVER_BT","semantic":"channel","river_class":"소하천","river_class_source":"중심선 공간조인","survey_method":"사진측량"},"geometry":{"type":"Polygon","coordinates":[[[126.88677,37.36929],[126.88678,37.36928],[126.8867,37.36933],[126.88658,37.36942],[126.88646,37.36949],[126.88637,37.36954],[126.88629,37.36957],[126.88619,37.36959],[126.88607,37.3696],[126.88597,37.36962],[126.88589,37.36963],[126.88582,37.36967],[126.88581,37.36967],[126.88583,37.36968],[126.8859,37.36966],[126.88601,37.36964],[126.88611,37.36962],[126.88622,37.36961],[126.88631,37.36959],[126.88639,37.36956],[126.88647,37.36951],[126.88656,37.36945],[126.88668,37.36936],[126.88677,37.36929]]]}},{"type":"Feature","id":"TN_RIVER_BT:WTR02000000003ZM6","properties":{"NF_ID":"WTR02000000003ZM6","admin_code":"41270","source_layer":"TN_RIVER_BT","semantic":"channel","river_class":"소하천","river_class_source":"중심선 공간조인","survey_method":"사진측량"},"geometry":{"type":"Polygon","coordinates":[[[126.87751,37.3698],[126.87751,37.36977],[126.87749,37.36977],[126.87747,37.36977],[126.87744,37.36976],[126.87742,37.36976],[126.87739,37.36976],[126.87736,37.36977],[126.87725,37.36978],[126.8772,37.36978],[126.87716,37.36978],[126.87712,37.36978],[126.87708,37.36977],[126.87705,37.36976],[126.87692,37.36973],[126.87688,37.36972],[126.87682,37.3697],[126.87668,37.36965],[126.87644,37.36956],[126.87625,37.36949],[126.876,37.3694],[126.87599,37.36941],[126.876,37.36942],[126.87625,37.36951],[126.87643,37.36958],[126.87674,37.36969],[126.87687,37.36975],[126.87687,37.36975],[126.87688,37.36975],[126.87689,37.36976],[126.8769,37.36977],[126.87691,37.36977],[126.87694,37.36979],[126.87698,37.3698],[126.87702,37.36981],[126.87704,37.36982],[126.87708,37.36983],[126.87712,37.36983],[126.87716,37.36983],[126.8772,37.36983],[126.87724,37.36982],[126.87731,37.36981],[126.87734,37.36981],[126.87737,37.3698],[126.87741,37.3698],[126.87751,37.3698]]]}},{"type":"Feature","id":"TN_RIVER_BT:WTR02000000003ZN7","properties":{"NF_ID":"WTR02000000003ZN7","admin_code":"41270","source_layer":"TN_RIVER_BT","semantic":"channel","river_class":"소하천","river_class_source":"중심선 공간조인","survey_method":"사진측량"},"geometry":{"type":"Polygon","coordinates":[[[126.87892,37.37031],[126.87879,37.37026],[126.87879,37.37026],[126.87879,37.37026],[126.87879,37.37026],[126.87879,37.37027],[126.87888,37.37031],[126.87893,37.37034],[126.87896,37.37037],[126.87899,37.3704],[126.87899,37.3704],[126.87902,37.37042],[126.87929,37.37054],[126.87949,37.37063],[126.8796,37.37072],[126.87965,37.37074],[126.87965,37.37074],[126.87971,37.37066],[126.87969,37.37065],[126.87961,37.37061],[126.87958,37.3706],[126.87952,37.37059],[126.87949,37.37059],[126.87941,37.37057],[126.87922,37.37048],[126.87902,37.37039],[126.87901,37.37039],[126.87898,37.37036],[126.87895,37.37033],[126.87892,37.37031]]]}},{"type":"Feature","id":"TN_RIVER_BT:WTR02000000003ZO8","properties":{"NF_ID":"WTR02000000003ZO8","admin_code":"41270","source_layer":"TN_RIVER_BT","semantic":"channel","river_class":"소하천","river_class_source":"중심선 공간조인","survey_method":"사진측량"},"geometry":{"type":"Polygon","coordinates":[[[126.88384,37.37081],[126.8849,37.37063],[126.88375,37.3708],[126.88225,37.37007],[126.88384,37.37081]]]}},{"type":"Feature","id":"TN_RIVER_BT:WTR02000000003ZP9","properties":{"NF_ID":"WTR02000000003ZP9","admin_code":"41270","source_layer":"TN_RIVER_BT","semantic":"channel","river_class":"소하천","river_class_source":"중심선 공간조인","survey_method":"사진측량"},"geometry":{"type":"Polygon","coordinates":[[[126.8813,37.37106],[126.88158,37.37069],[126.88189,37.37026],[126.88185,37.37024],[126.88184,37.37027],[126.88169,37.37047],[126.88144,37.37081],[126.88126,37.37104],[126.88118,37.37103],[126.88117,37.37104],[126.8813,37.37106]]]}},{"type":"Feature","id":"TN_RIVER_BT:WTR02000000003TGU","properties":{"NF_ID":"WTR02000000003TGU","admin_code":"41270","source_layer":"TN_RIVER_BT","semantic":"channel","river_class":"소하천","river_class_source":"중심선 공간조인","survey_method":"사진측량"},"geometry":{"type":"Polygon","coordinates":[[[126.65161,37.20089],[126.6516,37.20088],[126.65159,37.20088],[126.65158,37.20089],[126.65158,37.20089],[126.65159,37.20094],[126.65166,37.20112],[126.65172,37.2013],[126.6518,37.20157],[126.65188,37.20175],[126.65194,37.20192],[126.65197,37.20199],[126.65203,37.20199],[126.65202,37.20197],[126.65198,37.20186],[126.65193,37.20175],[126.65187,37.20163],[126.65183,37.20152],[126.65177,37.20129],[126.65169,37.20106],[126.65163,37.2009],[126.65162,37.20089],[126.65161,37.20089]]]}},{"type":"Feature","id":"TN_RIVER_BT:WTR02000000003TIW","properties":{"NF_ID":"WTR02000000003TIW","admin_code":"41270","source_layer":"TN_RIVER_BT","semantic":"channel","river_class":"소하천","river_class_source":"중심선 공간조인","survey_method":"사진측량"},"geometry":{"type":"Polygon","coordinates":[[[126.65024,37.2066],[126.65246,37.20599],[126.65023,37.20656],[126.64975,37.20633],[126.64955,37.20575],[126.64972,37.20643],[126.65024,37.2066]]]}},{"type":"Feature","id":"TN_RIVER_BT:WTR02000000003TJX","properties":{"NF_ID":"WTR02000000003TJX","admin_code":"41270","source_layer":"TN_RIVER_BT","semantic":"channel","river_class":"소하천","river_class_source":"중심선 공간조인","survey_method":"사진측량"},"geometry":{"type":"Polygon","coordinates":[[[126.55745,37.20743],[126.55838,37.20734],[126.5573,37.2074],[126.55712,37.20691],[126.55571,37.20637],[126.55618,37.20528],[126.55567,37.20635],[126.55497,37.20592],[126.55251,37.20509],[126.55141,37.20288],[126.55206,37.20466],[126.55249,37.20514],[126.55378,37.2057],[126.55357,37.20604],[126.55381,37.20569],[126.55497,37.206],[126.55708,37.20693],[126.55717,37.20735],[126.55745,37.20743]]]}},{"type":"Feature","id":"TN_RIVER_BT:WTR02000000003TM0","properties":{"NF_ID":"WTR02000000003TM0","admin_code":"41270","source_layer":"TN_RIVER_BT","semantic":"channel","river_class":"소하천","river_class_source":"중심선 공간조인","survey_method":"사진측량"},"geometry":{"type":"Polygon","coordinates":[[[126.63605,37.21718],[126.6356,37.21692],[126.6358,37.21726],[126.63605,37.21718]]]}},{"type":"Feature","id":"TN_RIVER_BT:WTR02000000003TO2","properties":{"NF_ID":"WTR02000000003TO2","admin_code":"41270","source_layer":"TN_RIVER_BT","semantic":"channel","river_class":"소하천","river_class_source":"중심선 공간조인","survey_method":"사진측량"},"geometry":{"type":"Polygon","coordinates":[[[126.56155,37.2204],[126.55967,37.22018],[126.55933,37.2203],[126.55694,37.2181],[126.55806,37.21939],[126.55928,37.22033],[126.56179,37.2206],[126.56188,37.22048],[126.56155,37.2204]]]}},{"type":"Feature","id":"TN_RIVER_BT:WTR02000000003TQ4","properties":{"NF_ID":"WTR02000000003TQ4","admin_code":"41270","source_layer":"TN_RIVER_BT","semantic":"channel","river_class":"소하천","river_class_source":"중심선 공간조인","survey_method":"사진측량"},"geometry":{"type":"Polygon","coordinates":[[[126.62858,37.22241],[126.62893,37.22195],[126.62848,37.22222],[126.6271,37.22217],[126.62854,37.22226],[126.62858,37.22241]]]}},{"type":"Feature","id":"TN_RIVER_BT:WTR02000000003TR5","properties":{"NF_ID":"WTR02000000003TR5","admin_code":"41270","source_layer":"TN_RIVER_BT","semantic":"channel","river_class":"소하천","river_class_source":"중심선 공간조인","survey_method":"사진측량"},"geometry":{"type":"Polygon","coordinates":[[[126.63933,37.22339],[126.63923,37.22327],[126.63923,37.22327],[126.63921,37.22328],[126.63919,37.22328],[126.63918,37.22328],[126.63916,37.22328],[126.63924,37.2234],[126.63924,37.22341],[126.63925,37.22341],[126.63926,37.22342],[126.63954,37.22353],[126.63963,37.22357],[126.63972,37.22366],[126.63979,37.22378],[126.63987,37.22373],[126.63976,37.22364],[126.63968,37.22354],[126.63934,37.2234],[126.63933,37.2234],[126.63933,37.22339]]]}},{"type":"Feature","id":"TN_RIVER_BT:WTR02000000003TS6","properties":{"NF_ID":"WTR02000000003TS6","admin_code":"41270","source_layer":"TN_RIVER_BT","semantic":"channel","river_class":"소하천","river_class_source":"중심선 공간조인","survey_method":"사진측량"},"geometry":{"type":"Polygon","coordinates":[[[126.59554,37.22508],[126.59607,37.22438],[126.59568,37.22493],[126.59495,37.22524],[126.59554,37.22508]]]}},{"type":"Feature","id":"TN_RIVER_BT:WTR02000000003TT7","properties":{"NF_ID":"WTR02000000003TT7","admin_code":"41270","source_layer":"TN_RIVER_BT","semantic":"channel","river_class":"소하천","river_class_source":"중심선 공간조인","survey_method":"사진측량"},"geometry":{"type":"Polygon","coordinates":[[[126.55916,37.22531],[126.55965,37.22511],[126.55912,37.22529],[126.55789,37.22491],[126.55694,37.22292],[126.55537,37.22195],[126.5535,37.22128],[126.55351,37.22146],[126.55554,37.2221],[126.55695,37.223],[126.55685,37.22324],[126.55705,37.22306],[126.55785,37.22494],[126.55916,37.22531]]]}},{"type":"Feature","id":"TN_RIVER_BT:WTR02000000003TU8","properties":{"NF_ID":"WTR02000000003TU8","admin_code":"41270","source_layer":"TN_RIVER_BT","semantic":"channel","river_class":"소하천","river_class_source":"중심선 공간조인","survey_method":"사진측량"},"geometry":{"type":"Polygon","coordinates":[[[126.64515,37.22596],[126.6449,37.22586],[126.64463,37.22499],[126.64378,37.22453],[126.64462,37.22502],[126.64488,37.22587],[126.64515,37.22596]]]}},{"type":"Feature","id":"TN_RIVER_BT:WTR02000000003TWA","properties":{"NF_ID":"WTR02000000003TWA","admin_code":"41270","source_layer":"TN_RIVER_BT","semantic":"channel","river_class":"소하천","river_class_source":"중심선 공간조인","survey_method":"사진측량"},"geometry":{"type":"Polygon","coordinates":[[[126.64211,37.22797],[126.64166,37.22773],[126.64123,37.22705],[126.64163,37.22774],[126.64211,37.22797]]]}},{"type":"Feature","id":"TN_RIVER_BT:WTR02000000003TXB","properties":{"NF_ID":"WTR02000000003TXB","admin_code":"41270","source_layer":"TN_RIVER_BT","semantic":"channel","river_class":"소하천","river_class_source":"중심선 공간조인","survey_method":"사진측량"},"geometry":{"type":"Polygon","coordinates":[[[126.59646,37.23401],[126.5964,37.23394],[126.59636,37.23397],[126.59634,37.23398],[126.59641,37.23403],[126.59648,37.23409],[126.59653,37.23416],[126.59655,37.23419],[126.59656,37.2342],[126.59658,37.23421],[126.59659,37.23422],[126.59661,37.23425],[126.59661,37.23425],[126.59661,37.23426],[126.59662,37.23428],[126.59664,37.23429],[126.59664,37.2343],[126.59665,37.23433],[126.59667,37.2344],[126.5967,37.23451],[126.59675,37.23464],[126.5968,37.23475],[126.59685,37.2349],[126.59695,37.23513],[126.59704,37.23532],[126.59711,37.23547],[126.59714,37.23558],[126.59717,37.23565],[126.59718,37.23566],[126.5972,37.23567],[126.59721,37.23566],[126.59722,37.23566],[126.59721,37.23566],[126.5972,37.23564],[126.59719,37.23559],[126.59719,37.23557],[126.5972,37.23555],[126.59721,37.23553],[126.59723,37.23552],[126.59725,37.23549],[126.59725,37.23548],[126.59725,37.23546],[126.59724,37.23545],[126.59719,37.23537],[126.59704,37.23505],[126.59692,37.23475],[126.59678,37.23443],[126.59671,37.23434],[126.59664,37.23422],[126.59661,37.23419],[126.59658,37.23414],[126.59646,37.23401]]]}},{"type":"Feature","id":"TN_RIVER_BT:WTR02000000003TZD","properties":{"NF_ID":"WTR02000000003TZD","admin_code":"41270","source_layer":"TN_RIVER_BT","semantic":"channel","river_class":"소하천","river_class_source":"중심선 공간조인","survey_method":"사진측량"},"geometry":{"type":"Polygon","coordinates":[[[126.59826,37.2358],[126.60069,37.23581],[126.59817,37.23577],[126.59741,37.23537],[126.59713,37.2348],[126.59737,37.23543],[126.59826,37.2358]]]}},{"type":"Feature","id":"TN_RIVER_BT:WTR02000000003U0F","properties":{"NF_ID":"WTR02000000003U0F","admin_code":"41270","source_layer":"TN_RIVER_BT","semantic":"channel","river_class":"소하천","river_class_source":"중심선 공간조인","survey_method":"사진측량"},"geometry":{"type":"Polygon","coordinates":[[[126.62546,37.23626],[126.62545,37.23626],[126.62544,37.23626],[126.62542,37.23626],[126.62523,37.2363],[126.62505,37.23636],[126.62491,37.23639],[126.6248,37.23644],[126.6246,37.23649],[126.62443,37.23653],[126.62437,37.23654],[126.62433,37.23656],[126.62391,37.23672],[126.6235,37.23688],[126.62322,37.23698],[126.62315,37.237],[126.62313,37.23701],[126.62313,37.23702],[126.62313,37.23703],[126.62315,37.23703],[126.62316,37.23703],[126.6236,37.23689],[126.62439,37.23657],[126.62448,37.23656],[126.62452,37.23655],[126.62459,37.23654],[126.62465,37.23653],[126.62484,37.23646],[126.62502,37.2364],[126.62513,37.23637],[126.62529,37.23633],[126.62545,37.2363],[126.62546,37.2363],[126.62547,37.23629],[126.62548,37.23629],[126.62548,37.23629],[126.62548,37.23628],[126.62548,37.23627],[126.62548,37.23627],[126.62547,37.23626],[126.62547,37.23626],[126.62546,37.23626]]]}},{"type":"Feature","id":"TN_RIVER_BT:WTR02000000003U1G","properties":{"NF_ID":"WTR02000000003U1G","admin_code":"41270","source_layer":"TN_RIVER_BT","semantic":"channel","river_class":"소하천","river_class_source":"중심선 공간조인","survey_method":"사진측량"},"geometry":{"type":"Polygon","coordinates":[[[126.56937,37.23703],[126.56929,37.23699],[126.56927,37.23702],[126.56936,37.23708],[126.56938,37.23711],[126.56939,37.23712],[126.56939,37.23714],[126.56939,37.23717],[126.56939,37.2372],[126.56939,37.23722],[126.56937,37.23726],[126.56937,37.23727],[126.56936,37.23728],[126.56937,37.23728],[126.56939,37.2373],[126.5694,37.2373],[126.56941,37.2373],[126.56945,37.23729],[126.56946,37.23728],[126.56947,37.23727],[126.56947,37.23726],[126.56945,37.23725],[126.56945,37.23724],[126.56944,37.23723],[126.56944,37.2372],[126.56945,37.23717],[126.56947,37.23714],[126.56947,37.23713],[126.56948,37.23713],[126.56948,37.23712],[126.56948,37.23711],[126.56947,37.2371],[126.56945,37.2371],[126.56945,37.23709],[126.56943,37.23708],[126.56937,37.23703]]]}},{"type":"Feature","id":"TN_RIVER_BT:WTR02000000003U2H","properties":{"NF_ID":"WTR02000000003U2H","admin_code":"41270","source_layer":"TN_RIVER_BT","semantic":"channel","river_class":"소하천","river_class_source":"중심선 공간조인","survey_method":"사진측량"},"geometry":{"type":"Polygon","coordinates":[[[126.58715,37.23393],[126.58798,37.23652],[126.58751,37.23735],[126.58768,37.23795],[126.58728,37.23879],[126.58738,37.23921],[126.58732,37.23876],[126.58771,37.23794],[126.58756,37.23735],[126.58806,37.23649],[126.58715,37.23393]]]}},{"type":"Feature","id":"TN_RIVER_BT:WTR02000000003U3I","properties":{"NF_ID":"WTR02000000003U3I","admin_code":"41270","source_layer":"TN_RIVER_BT","semantic":"channel","river_class":"소하천","river_class_source":"중심선 공간조인","survey_method":"사진측량"},"geometry":{"type":"Polygon","coordinates":[[[126.58736,37.23972],[126.58764,37.24076],[126.58743,37.2418],[126.58766,37.24076],[126.58736,37.23972]]]}},{"type":"Feature","id":"TN_RIVER_BT:WTR02000000003U4J","properties":{"NF_ID":"WTR02000000003U4J","admin_code":"41270","source_layer":"TN_RIVER_BT","semantic":"channel","river_class":"소하천","river_class_source":"중심선 공간조인","survey_method":"사진측량"},"geometry":{"type":"Polygon","coordinates":[[[126.62625,37.24529],[126.62504,37.24458],[126.62523,37.24428],[126.62475,37.24394],[126.62453,37.244],[126.625,37.24447],[126.62304,37.24321],[126.61993,37.24599],[126.61926,37.24556],[126.6214,37.24369],[126.61921,37.24563],[126.61998,37.24605],[126.62071,37.24691],[126.62004,37.24601],[126.6215,37.24466],[126.62437,37.24668],[126.626,37.2452],[126.62641,37.24556],[126.62596,37.24615],[126.62642,37.24633],[126.62613,37.24701],[126.62644,37.24708],[126.62646,37.24634],[126.62619,37.24607],[126.62653,37.24556],[126.62625,37.24529]],[[126.62433,37.24652],[126.62153,37.24464],[126.62306,37.24324],[126.62574,37.24519],[126.62433,37.24652]]]}},{"type":"Feature","id":"TN_RIVER_BT:WTR02000000003U5K","properties":{"NF_ID":"WTR02000000003U5K","admin_code":"41270","source_layer":"TN_RIVER_BT","semantic":"channel","river_class":"소하천","river_class_source":"중심선 공간조인","survey_method":"사진측량"},"geometry":{"type":"Polygon","coordinates":[[[126.59421,37.24669],[126.59415,37.24663],[126.59414,37.24664],[126.59419,37.2467],[126.59425,37.24676],[126.59426,37.24678],[126.59427,37.2468],[126.59427,37.24682],[126.59427,37.24683],[126.59428,37.24685],[126.59427,37.24689],[126.59427,37.24691],[126.59425,37.24693],[126.59421,37.24699],[126.5942,37.247],[126.5942,37.247],[126.5942,37.24701],[126.59421,37.24701],[126.59421,37.24701],[126.59422,37.24701],[126.59427,37.24697],[126.59428,37.24694],[126.5943,37.2469],[126.59431,37.24687],[126.59431,37.24685],[126.59431,37.24683],[126.5943,37.2468],[126.59429,37.24677],[126.59425,37.24673],[126.59421,37.24669]]]}},{"type":"Feature","id":"TN_RIVER_BT:WTR02000000003U6L","properties":{"NF_ID":"WTR02000000003U6L","admin_code":"41270","source_layer":"TN_RIVER_BT","semantic":"channel","river_class":"소하천","river_class_source":"중심선 공간조인","survey_method":"사진측량"},"geometry":{"type":"Polygon","coordinates":[[[126.61902,37.24883],[126.61962,37.24851],[126.61787,37.2491],[126.61896,37.24882],[126.61948,37.25],[126.61902,37.24883]]]}},{"type":"Feature","id":"TN_RIVER_BT:WTR02000000003U8N","properties":{"NF_ID":"WTR02000000003U8N","admin_code":"41270","source_layer":"TN_RIVER_BT","semantic":"channel","river_class":"소하천","river_class_source":"중심선 공간조인","survey_method":"사진측량"},"geometry":{"type":"Polygon","coordinates":[[[126.62638,37.24917],[126.62597,37.24902],[126.6269,37.24906],[126.62607,37.24892],[126.6262,37.2483],[126.62582,37.24832],[126.6257,37.24881],[126.62543,37.24879],[126.62573,37.24682],[126.62525,37.24885],[126.6224,37.24853],[126.6243,37.2467],[126.62227,37.24852],[126.62075,37.24695],[126.62224,37.2486],[126.62586,37.24901],[126.62639,37.24922],[126.62612,37.25],[126.62638,37.24917]]]}},{"type":"Feature","id":"TN_RIVER_BT:WTR02000000003U9O","properties":{"NF_ID":"WTR02000000003U9O","admin_code":"41270","source_layer":"TN_RIVER_BT","semantic":"channel","river_class":"소하천","river_class_source":"중심선 공간조인","survey_method":"사진측량"},"geometry":{"type":"Polygon","coordinates":[[[126.63179,37.24983],[126.6319,37.25],[126.63202,37.24982],[126.63178,37.24976],[126.63163,37.25],[126.63179,37.24983]]]}},{"type":"Feature","id":"TN_RIVER_BT:WTR02000000003UCR","properties":{"NF_ID":"WTR02000000003UCR","admin_code":"41270","source_layer":"TN_RIVER_BT","semantic":"channel","river_class":"소하천","river_class_source":"중심선 공간조인","survey_method":"사진측량"},"geometry":{"type":"Polygon","coordinates":[[[126.62226,37.24867],[126.62269,37.24882],[126.62255,37.25],[126.62275,37.2488],[126.62226,37.24867]]]}},{"type":"Feature","id":"TN_RIVER_BT:WTR02000000003UET","properties":{"NF_ID":"WTR02000000003UET","admin_code":"41270","source_layer":"TN_RIVER_BT","semantic":"channel","river_class":"소하천","river_class_source":"중심선 공간조인","survey_method":"사진측량"},"geometry":{"type":"Polygon","coordinates":[[[126.61581,37.24983],[126.61579,37.24982],[126.61578,37.24982],[126.6158,37.24991],[126.61581,37.25],[126.61587,37.25],[126.61585,37.24995],[126.61581,37.24983]]]}},{"type":"Feature","id":"TN_RIVER_BT:WTR02000000003UFU","properties":{"NF_ID":"WTR02000000003UFU","admin_code":"41270","source_layer":"TN_RIVER_BT","semantic":"channel","river_class":"소하천","river_class_source":"중심선 공간조인","survey_method":"사진측량"},"geometry":{"type":"Polygon","coordinates":[[[126.56775,37.23998],[126.56699,37.23991],[126.5652,37.24075],[126.56451,37.24034],[126.5648,37.24073],[126.56523,37.24079],[126.5669,37.24001],[126.56751,37.23994],[126.56906,37.24071],[126.57037,37.24172],[126.57155,37.24209],[126.57307,37.24418],[126.57379,37.24693],[126.57392,37.24854],[126.57446,37.25],[126.57396,37.24857],[126.57383,37.24693],[126.57316,37.24428],[126.57265,37.24332],[126.57148,37.24193],[126.57043,37.24167],[126.56907,37.24064],[126.56775,37.23998]]]}},{"type":"Feature","id":"TN_RIVER_BT:WTR02000000003WTA","properties":{"NF_ID":"WTR02000000003WTA","admin_code":"41270","source_layer":"TN_RIVER_BT","semantic":"channel","river_class":"소하천","river_class_source":"중심선 공간조인","survey_method":"사진측량"},"geometry":{"type":"Polygon","coordinates":[[[126.8053,37.29574],[126.80514,37.29647],[126.80615,37.29679],[126.80631,37.29703],[126.80591,37.29923],[126.80649,37.29773],[126.80644,37.29694],[126.8062,37.29666],[126.8053,37.29645],[126.8053,37.29574]]]}},{"type":"Feature","id":"TN_RIVER_BT:WTR02000000003XAS","properties":{"NF_ID":"WTR02000000003XAS","admin_code":"41270","source_layer":"TN_RIVER_BT","semantic":"channel","river_class":"소하천","river_class_source":"중심선 공간조인","survey_method":"사진측량"},"geometry":{"type":"Polygon","coordinates":[[[126.81144,37.31778],[126.81295,37.31554],[126.81304,37.31414],[126.8123,37.31246],[126.81069,37.3112],[126.80652,37.30076],[126.81053,37.31107],[126.81225,37.31254],[126.81292,37.31415],[126.8128,37.31561],[126.81144,37.31778]]]}},{"type":"Feature","id":"TN_RIVER_BT:WTR02000000003XO6","properties":{"NF_ID":"WTR02000000003XO6","admin_code":"41270","source_layer":"TN_RIVER_BT","semantic":"channel","river_class":"소하천","river_class_source":"중심선 공간조인","survey_method":"사진측량"},"geometry":{"type":"Polygon","coordinates":[[[126.78323,37.32705],[126.77833,37.3269],[126.77484,37.32717],[126.77354,37.32763],[126.76958,37.32794],[126.76601,37.32727],[126.76968,37.32797],[126.77353,37.32766],[126.77505,37.32717],[126.77847,37.32693],[126.78465,37.32713],[126.78571,37.32789],[126.78648,37.32911],[126.7858,37.32786],[126.78486,37.32718],[126.78323,37.32705]]]}},{"type":"Feature","id":"TN_RIVER_BT:WTR02000000003XP7","properties":{"NF_ID":"WTR02000000003XP7","admin_code":"41270","source_layer":"TN_RIVER_BT","semantic":"channel","river_class":"소하천","river_class_source":"중심선 공간조인","survey_method":"사진측량"},"geometry":{"type":"Polygon","coordinates":[[[126.7504,37.32867],[126.75038,37.32865],[126.75033,37.32868],[126.75022,37.32873],[126.75016,37.32876],[126.75001,37.32883],[126.75,37.32884],[126.75,37.32887],[126.75007,37.32883],[126.75015,37.32878],[126.75022,37.32876],[126.7504,37.32867]]]}},{"type":"Feature","id":"TN_RIVER_BT:WTR02000000003XVD","properties":{"NF_ID":"WTR02000000003XVD","admin_code":"41270","source_layer":"TN_RIVER_BT","semantic":"channel","river_class":"소하천","river_class_source":"중심선 공간조인","survey_method":"사진측량"},"geometry":{"type":"Polygon","coordinates":[[[126.75152,37.3293],[126.75216,37.33033],[126.75431,37.33241],[126.75218,37.33032],[126.75152,37.3293]]]}},{"type":"Feature","id":"TN_RIVER_BT:WTR02000000003YDW","properties":{"NF_ID":"WTR02000000003YDW","admin_code":"41270","source_layer":"TN_RIVER_BT","semantic":"channel","river_class":"지방하천","river_class_source":"중심선 공간조인","river_name":"신길천","river_code":"1520210","survey_method":"사진측량"},"geometry":{"type":"Polygon","coordinates":[[[126.78904,37.3402],[126.78711,37.33806],[126.7868,37.33606],[126.78706,37.33484],[126.78666,37.33235],[126.78506,37.33042],[126.78663,37.33243],[126.78654,37.33348],[126.78696,37.33474],[126.78676,37.33603],[126.78709,37.33812],[126.79033,37.3418],[126.79197,37.34303],[126.79098,37.34241],[126.78904,37.3402]]]}},{"type":"Feature","id":"TN_RIVER_BT:WTR02000000003YL4","properties":{"NF_ID":"WTR02000000003YL4","admin_code":"41270","source_layer":"TN_RIVER_BT","semantic":"channel","river_class":"지방하천","river_class_source":"중심선 공간조인","river_name":"신길천","river_code":"1520210","survey_method":"사진측량"},"geometry":{"type":"Polygon","coordinates":[[[126.75091,37.31408],[126.75132,37.31409],[126.75089,37.31396],[126.7508,37.31126],[126.75001,37.30915],[126.75017,37.30906],[126.75,37.30959],[126.75057,37.31123],[126.7506,37.31238],[126.75081,37.31241],[126.7506,37.31245],[126.75071,37.31391],[126.75,37.31758],[126.75091,37.31408]]]}},{"type":"Feature","id":"TN_RIVER_BT:WTR02000000003YM5","properties":{"NF_ID":"WTR02000000003YM5","admin_code":"41270","source_layer":"TN_RIVER_BT","semantic":"channel","river_class":"등급미확인","survey_method":"사진측량"},"geometry":{"type":"Polygon","coordinates":[[[126.75,37.31767],[126.75,37.31767],[126.75,37.31776],[126.75001,37.31775],[126.75001,37.31773],[126.75001,37.3177],[126.75001,37.31769],[126.75,37.31767]]]}},{"type":"Feature","id":"TN_RIVER_BT:WTR02000000003YN6","properties":{"NF_ID":"WTR02000000003YN6","admin_code":"41270","source_layer":"TN_RIVER_BT","semantic":"channel","river_class":"지방하천","river_class_source":"중심선 공간조인","river_name":"신길천","river_code":"1520210","survey_method":"사진측량"},"geometry":{"type":"Polygon","coordinates":[[[126.76974,37.33105],[126.77054,37.33061],[126.77167,37.32941],[126.77048,37.3306],[126.76956,37.33103],[126.76821,37.33065],[126.76903,37.32974],[126.76837,37.32918],[126.77336,37.32846],[126.77621,37.32919],[126.78039,37.32966],[126.78127,37.33063],[126.78283,37.33055],[126.78469,37.33002],[126.78424,37.32992],[126.78284,37.33044],[126.78125,37.33055],[126.78046,37.32963],[126.77616,37.32914],[126.77369,37.32838],[126.76788,37.32913],[126.76733,37.32891],[126.76686,37.32829],[126.76519,37.32758],[126.76388,37.32832],[126.76465,37.32735],[126.76344,37.32838],[126.75769,37.32582],[126.75581,37.3261],[126.75457,37.32565],[126.752,37.32423],[126.75,37.32122],[126.75182,37.32421],[126.75382,37.32546],[126.75565,37.32621],[126.75772,37.32595],[126.76242,37.32812],[126.76287,37.32851],[126.76297,37.32837],[126.76337,37.32855],[126.76349,37.32883],[126.76404,37.32872],[126.765,37.32778],[126.76532,37.32775],[126.76684,37.32836],[126.7674,37.32905],[126.76831,37.3292],[126.76894,37.32972],[126.76807,37.33049],[126.76811,37.33075],[126.76974,37.33105]]]}},{"type":"Feature","id":"TN_RIVER_BT:WTR02000000003YO7","properties":{"NF_ID":"WTR02000000003YO7","admin_code":"41270","source_layer":"TN_RIVER_BT","semantic":"channel","river_class":"소하천","river_class_source":"중심선 공간조인","survey_method":"사진측량"},"geometry":{"type":"Polygon","coordinates":[[[126.77263,37.34103],[126.77371,37.34205],[126.77605,37.34284],[126.77788,37.34251],[126.77874,37.34262],[126.78064,37.34141],[126.78191,37.34137],[126.78063,37.34138],[126.77874,37.34258],[126.77787,37.34248],[126.77598,37.3428],[126.77373,37.34202],[126.77287,37.341],[126.77199,37.34102],[126.7715,37.34064],[126.76558,37.3382],[126.76633,37.3375],[126.76696,37.33511],[126.77014,37.3358],[126.77129,37.33525],[126.77011,37.33576],[126.76692,37.33506],[126.76612,37.33769],[126.76232,37.33967],[126.76004,37.34038],[126.75751,37.33789],[126.75,37.33378],[126.7574,37.33796],[126.75963,37.34024],[126.75952,37.3414],[126.75525,37.34745],[126.75999,37.34097],[126.75983,37.34038],[126.76041,37.34041],[126.7622,37.33981],[126.76502,37.33841],[126.76561,37.33876],[126.76531,37.34283],[126.76401,37.34293],[126.764,37.34322],[126.76633,37.34642],[126.76403,37.3432],[126.76406,37.34297],[126.76532,37.34291],[126.76582,37.34323],[126.76632,37.34567],[126.76679,37.34623],[126.76632,37.34561],[126.76586,37.34325],[126.76522,37.34251],[126.76541,37.34242],[126.76564,37.33864],[126.76607,37.33868],[126.77176,37.34101],[126.77229,37.34311],[126.77305,37.34405],[126.7739,37.34624],[126.77458,37.347],[126.77596,37.34761],[126.7787,37.34801],[126.77992,37.3488],[126.77939,37.34828],[126.77849,37.34788],[126.77521,37.34731],[126.77417,37.34651],[126.77315,37.34411],[126.77242,37.34322],[126.77204,37.34113],[126.77263,37.34103]]]}},{"type":"Feature","id":"TN_RIVER_BT:WTR0200000000462U","properties":{"NF_ID":"WTR0200000000462U","admin_code":"41270","source_layer":"TN_RIVER_BT","semantic":"channel","river_class":"소하천","river_class_source":"중심선 공간조인","survey_method":"사진측량"},"geometry":{"type":"Polygon","coordinates":[[[126.61948,37.25],[126.61948,37.25],[126.61935,37.25],[126.61935,37.25],[126.61937,37.25007],[126.61938,37.2501],[126.61939,37.25019],[126.6194,37.25022],[126.61942,37.25022],[126.61955,37.25019],[126.61955,37.25018],[126.61951,37.2501],[126.61951,37.25009],[126.6195,37.25007],[126.6195,37.25007],[126.61949,37.25004],[126.61949,37.25002],[126.61948,37.25]]]}},{"type":"Feature","id":"TN_RIVER_BT:WTR0200000000464W","properties":{"NF_ID":"WTR0200000000464W","admin_code":"41270","source_layer":"TN_RIVER_BT","semantic":"channel","river_class":"소하천","river_class_source":"중심선 공간조인","survey_method":"사진측량"},"geometry":{"type":"Polygon","coordinates":[[[126.62617,37.25],[126.62617,37.25],[126.62612,37.25],[126.62612,37.25],[126.62612,37.25007],[126.62612,37.25009],[126.62611,37.25015],[126.62606,37.25074],[126.62606,37.25076],[126.62606,37.25077],[126.62607,37.25078],[126.62607,37.25078],[126.62608,37.25077],[126.62609,37.25076],[126.62609,37.25074],[126.6261,37.25065],[126.62612,37.25029],[126.62615,37.25015],[126.62616,37.25007],[126.62617,37.25]]]}},{"type":"Feature","id":"TN_RIVER_BT:WTR0200000000465X","properties":{"NF_ID":"WTR0200000000465X","admin_code":"41270","source_layer":"TN_RIVER_BT","semantic":"channel","river_class":"소하천","river_class_source":"중심선 공간조인","survey_method":"사진측량"},"geometry":{"type":"Polygon","coordinates":[[[126.63172,37.25],[126.63172,37.25],[126.63163,37.25],[126.63163,37.25],[126.63161,37.25001],[126.63157,37.25002],[126.63155,37.25003],[126.63153,37.25005],[126.63151,37.25007],[126.63151,37.25007],[126.6315,37.2501],[126.63149,37.25012],[126.63148,37.25014],[126.63146,37.25018],[126.63139,37.25028],[126.63138,37.25029],[126.63139,37.25029],[126.63141,37.25029],[126.63144,37.25026],[126.6315,37.25018],[126.63152,37.25015],[126.63153,37.25014],[126.63154,37.25012],[126.63155,37.25009],[126.63156,37.25007],[126.63157,37.25007],[126.63157,37.25006],[126.63159,37.25004],[126.63162,37.25004],[126.63166,37.25003],[126.63169,37.25002],[126.63171,37.25001],[126.63172,37.25]]]}},{"type":"Feature","id":"TN_RIVER_BT:WTR0200000000466Y","properties":{"NF_ID":"WTR0200000000466Y","admin_code":"41270","source_layer":"TN_RIVER_BT","semantic":"channel","river_class":"소하천","river_class_source":"중심선 공간조인","survey_method":"사진측량"},"geometry":{"type":"Polygon","coordinates":[[[126.63122,37.25105],[126.6319,37.25],[126.63117,37.25103],[126.62962,37.25089],[126.63122,37.25105]]]}},{"type":"Feature","id":"TN_RIVER_BT:WTR02000000004691","properties":{"NF_ID":"WTR02000000004691","admin_code":"41270","source_layer":"TN_RIVER_BT","semantic":"channel","river_class":"소하천","river_class_source":"중심선 공간조인","survey_method":"사진측량"},"geometry":{"type":"Polygon","coordinates":[[[126.62255,37.25],[126.62255,37.25],[126.62249,37.25],[126.62249,37.25],[126.62247,37.25006],[126.62247,37.25007],[126.6224,37.25035],[126.62231,37.25066],[126.62216,37.2511],[126.62206,37.25145],[126.62203,37.25156],[126.62194,37.2518],[126.62194,37.2518],[126.62194,37.25181],[126.62195,37.25182],[126.62199,37.25182],[126.622,37.25181],[126.62215,37.25138],[126.62229,37.25093],[126.62241,37.25052],[126.62245,37.2504],[126.62248,37.25031],[126.62251,37.25017],[126.62254,37.25007],[126.62255,37.25]]]}},{"type":"Feature","id":"TN_RIVER_BT:WTR020000000046B3","properties":{"NF_ID":"WTR020000000046B3","admin_code":"41270","source_layer":"TN_RIVER_BT","semantic":"channel","river_class":"소하천","river_class_source":"중심선 공간조인","survey_method":"사진측량"},"geometry":{"type":"Polygon","coordinates":[[[126.61587,37.25],[126.61587,37.25],[126.61581,37.25],[126.61581,37.25],[126.61581,37.25003],[126.61582,37.25007],[126.61585,37.25025],[126.61592,37.25075],[126.61598,37.25123],[126.61604,37.25169],[126.61605,37.25176],[126.61603,37.25182],[126.61602,37.25185],[126.61605,37.25185],[126.61607,37.25176],[126.61607,37.25173],[126.61607,37.25169],[126.61606,37.25154],[126.61603,37.25131],[126.61598,37.25092],[126.61594,37.25057],[126.61591,37.25026],[126.61588,37.25007],[126.61587,37.25001],[126.61587,37.25]]]}},{"type":"Feature","id":"TN_RIVER_BT:WTR020000000046D5","properties":{"NF_ID":"WTR020000000046D5","admin_code":"41270","source_layer":"TN_RIVER_BT","semantic":"channel","river_class":"소하천","river_class_source":"중심선 공간조인","survey_method":"사진측량"},"geometry":{"type":"Polygon","coordinates":[[[126.61956,37.25024],[126.61954,37.25023],[126.61945,37.25025],[126.61943,37.25026],[126.61943,37.25027],[126.61957,37.25073],[126.6198,37.25147],[126.61999,37.25206],[126.62,37.25207],[126.6201,37.25205],[126.6201,37.25204],[126.62005,37.25185],[126.61984,37.25114],[126.61956,37.25026],[126.61956,37.25024]]]}},{"type":"Feature","id":"TN_RIVER_BT:WTR020000000046LD","properties":{"NF_ID":"WTR020000000046LD","admin_code":"41270","source_layer":"TN_RIVER_BT","semantic":"channel","river_class":"소하천","river_class_source":"중심선 공간조인","survey_method":"사진측량"},"geometry":{"type":"Polygon","coordinates":[[[126.57738,37.25387],[126.57702,37.25299],[126.57532,37.25169],[126.57441,37.25],[126.57531,37.25175],[126.57702,37.25309],[126.57716,37.2538],[126.5773,37.25404],[126.57738,37.25387]]]}},{"type":"Feature","id":"TN_RIVER_BT:WTR020000000046ME","properties":{"NF_ID":"WTR020000000046ME","admin_code":"41270","source_layer":"TN_RIVER_BT","semantic":"channel","river_class":"소하천","river_class_source":"중심선 공간조인","survey_method":"사진측량"},"geometry":{"type":"Polygon","coordinates":[[[126.56635,37.25877],[126.56562,37.25867],[126.56448,37.25789],[126.56451,37.25722],[126.56482,37.2569],[126.56429,37.25557],[126.56373,37.25546],[126.56424,37.25562],[126.56457,37.25634],[126.56478,37.25699],[126.56449,37.25718],[126.56439,37.25781],[126.56513,37.25836],[126.56506,37.25891],[126.56516,37.25836],[126.56574,37.25873],[126.56671,37.25898],[126.56635,37.25877]]]}},{"type":"Feature","id":"TN_RIVER_BT:WTR020000000046NF","properties":{"NF_ID":"WTR020000000046NF","admin_code":"41270","source_layer":"TN_RIVER_BT","semantic":"channel","river_class":"소하천","river_class_source":"중심선 공간조인","survey_method":"사진측량"},"geometry":{"type":"Polygon","coordinates":[[[126.56651,37.26511],[126.56644,37.26509],[126.56642,37.26512],[126.56644,37.26512],[126.56652,37.26512],[126.56659,37.26514],[126.56672,37.26518],[126.56689,37.26523],[126.56707,37.26528],[126.56721,37.26532],[126.56737,37.26536],[126.56752,37.2654],[126.56766,37.26544],[126.56778,37.26548],[126.56788,37.26552],[126.56802,37.26558],[126.56815,37.26563],[126.56816,37.26561],[126.56805,37.26557],[126.56793,37.26552],[126.5678,37.26547],[126.56766,37.26542],[126.56745,37.26536],[126.56728,37.26531],[126.56713,37.26528],[126.56701,37.26525],[126.56688,37.26521],[126.56669,37.26515],[126.56656,37.26511],[126.56651,37.26511]]]}},{"type":"Feature","id":"TN_RIVER_BT:WTR020000000046QI","properties":{"NF_ID":"WTR020000000046QI","admin_code":"41270","source_layer":"TN_RIVER_BT","semantic":"channel","river_class":"소하천","river_class_source":"중심선 공간조인","survey_method":"사진측량"},"geometry":{"type":"Polygon","coordinates":[[[126.57015,37.27295],[126.56974,37.27289],[126.56918,37.27234],[126.56929,37.27192],[126.5699,37.27159],[126.56937,37.27176],[126.56911,37.27228],[126.5687,37.2718],[126.56942,37.27271],[126.57015,37.27295]]]}},{"type":"Feature","id":"TN_RIVER_BT:WTR020000000046TL","properties":{"NF_ID":"WTR020000000046TL","admin_code":"41270","source_layer":"TN_RIVER_BT","semantic":"channel","river_class":"소하천","river_class_source":"중심선 공간조인","survey_method":"사진측량"},"geometry":{"type":"Polygon","coordinates":[[[126.57591,37.27677],[126.5759,37.27677],[126.5759,37.27677],[126.5759,37.27677],[126.5759,37.27677],[126.5759,37.27678],[126.5759,37.2768],[126.57592,37.27684],[126.57611,37.27704],[126.57661,37.27755],[126.57691,37.27788],[126.57693,37.2779],[126.57693,37.2779],[126.57694,37.27791],[126.57695,37.27791],[126.57696,37.27792],[126.57703,37.27799],[126.57703,37.27799],[126.57703,37.278],[126.57704,37.27802],[126.57742,37.27838],[126.57743,37.27838],[126.57743,37.27838],[126.57744,37.27839],[126.57744,37.27839],[126.57745,37.27839],[126.57746,37.27838],[126.57747,37.27837],[126.57747,37.27836],[126.57747,37.27836],[126.57746,37.27835],[126.57708,37.278],[126.57707,37.27799],[126.57706,37.27799],[126.57704,37.27798],[126.57697,37.27791],[126.57697,37.27791],[126.57697,37.2779],[126.57697,37.27789],[126.57696,37.27788],[126.57674,37.27765],[126.57661,37.2775],[126.5765,37.27738],[126.57645,37.27734],[126.57634,37.27724],[126.57616,37.27705],[126.57602,37.27692],[126.57598,37.27687],[126.57591,37.27677],[126.57591,37.27677]]]}},{"type":"Feature","id":"TN_RIVER_BT:WTR020000000046UM","properties":{"NF_ID":"WTR020000000046UM","admin_code":"41270","source_layer":"TN_RIVER_BT","semantic":"channel","river_class":"소하천","river_class_source":"중심선 공간조인","survey_method":"사진측량"},"geometry":{"type":"Polygon","coordinates":[[[126.57163,37.27852],[126.57163,37.27852],[126.57162,37.27852],[126.57162,37.27852],[126.57161,37.27852],[126.57161,37.27852],[126.57167,37.27871],[126.57181,37.27909],[126.57189,37.27933],[126.57192,37.2794],[126.57204,37.27968],[126.57223,37.28008],[126.57223,37.2801],[126.57224,37.2801],[126.57226,37.2801],[126.57227,37.2801],[126.57227,37.28009],[126.57227,37.28008],[126.57218,37.27989],[126.57195,37.27938],[126.57185,37.27907],[126.5717,37.27866],[126.57163,37.27852]]]}},{"type":"Feature","id":"TN_RIVER_BT:WTR020000000046VN","properties":{"NF_ID":"WTR020000000046VN","admin_code":"41270","source_layer":"TN_RIVER_BT","semantic":"channel","river_class":"소하천","river_class_source":"중심선 공간조인","survey_method":"사진측량"},"geometry":{"type":"Polygon","coordinates":[[[126.57001,37.27766],[126.56992,37.27829],[126.57078,37.2803],[126.57001,37.27766]]]}},{"type":"Feature","id":"TN_RIVER_BT:WTR020000000046WO","properties":{"NF_ID":"WTR020000000046WO","admin_code":"41270","source_layer":"TN_RIVER_BT","semantic":"channel","river_class":"소하천","river_class_source":"중심선 공간조인","survey_method":"사진측량"},"geometry":{"type":"Polygon","coordinates":[[[126.57871,37.28019],[126.57751,37.27957],[126.57707,37.27955],[126.57671,37.27898],[126.57493,37.27852],[126.57444,37.27818],[126.57604,37.27898],[126.57425,37.27934],[126.57361,37.2782],[126.57389,37.27884],[126.57204,37.27935],[126.57388,37.27888],[126.57405,37.27907],[126.5742,37.27936],[126.5725,37.28008],[126.57441,37.27935],[126.5762,37.27895],[126.57708,37.27958],[126.57751,37.27959],[126.58069,37.28113],[126.58165,37.28131],[126.58076,37.28113],[126.57871,37.28019]]]}},{"type":"Feature","id":"TN_RIVER_BT:WTR020000000046XP","properties":{"NF_ID":"WTR020000000046XP","admin_code":"41270","source_layer":"TN_RIVER_BT","semantic":"channel","river_class":"소하천","river_class_source":"중심선 공간조인","survey_method":"사진측량"},"geometry":{"type":"Polygon","coordinates":[[[126.57363,37.2797],[126.57361,37.27969],[126.57359,37.2797],[126.57359,37.27971],[126.57359,37.27973],[126.57366,37.27983],[126.57396,37.28032],[126.57424,37.28083],[126.57452,37.28136],[126.57455,37.2814],[126.57457,37.2814],[126.57458,37.2814],[126.57458,37.28139],[126.57458,37.28137],[126.57443,37.28109],[126.57419,37.28065],[126.57389,37.28011],[126.57363,37.2797]]]}},{"type":"Feature","id":"TN_RIVER_BT:WTR020000000046YQ","properties":{"NF_ID":"WTR020000000046YQ","admin_code":"41270","source_layer":"TN_RIVER_BT","semantic":"channel","river_class":"소하천","river_class_source":"중심선 공간조인","survey_method":"사진측량"},"geometry":{"type":"Polygon","coordinates":[[[126.57233,37.28015],[126.57232,37.28015],[126.5723,37.28016],[126.57229,37.28017],[126.57229,37.28018],[126.57229,37.28019],[126.57246,37.2805],[126.5726,37.28075],[126.57274,37.28097],[126.57295,37.28126],[126.5732,37.28167],[126.57321,37.28167],[126.57322,37.28167],[126.57327,37.28165],[126.57326,37.28163],[126.57321,37.28156],[126.57299,37.28119],[126.57277,37.28084],[126.57255,37.28049],[126.57236,37.28018],[126.57234,37.28016],[126.57233,37.28015]]]}},{"type":"Feature","id":"TN_RIVER_BT:WTR020000000046ZR","properties":{"NF_ID":"WTR020000000046ZR","admin_code":"41270","source_layer":"TN_RIVER_BT","semantic":"channel","river_class":"소하천","river_class_source":"중심선 공간조인","survey_method":"사진측량"},"geometry":{"type":"Polygon","coordinates":[[[126.57087,37.28044],[126.57084,37.28044],[126.57077,37.28044],[126.57074,37.28044],[126.57074,37.28044],[126.57074,37.28045],[126.57074,37.28046],[126.57074,37.28047],[126.57079,37.28059],[126.57079,37.2806],[126.5708,37.2806],[126.57081,37.2806],[126.57084,37.2806],[126.57085,37.28061],[126.57086,37.28061],[126.57088,37.28063],[126.5709,37.28069],[126.57097,37.28082],[126.57107,37.281],[126.57123,37.28123],[126.57138,37.28142],[126.57141,37.28148],[126.57141,37.28149],[126.57141,37.28151],[126.5714,37.28152],[126.5714,37.28152],[126.57141,37.28154],[126.57149,37.28167],[126.57152,37.28167],[126.57153,37.28167],[126.57154,37.28168],[126.57158,37.28173],[126.57163,37.28181],[126.57188,37.28214],[126.57191,37.28216],[126.57192,37.28216],[126.57194,37.28216],[126.57195,37.28215],[126.57195,37.28214],[126.57195,37.28213],[126.57183,37.28198],[126.57166,37.28173],[126.5715,37.2815],[126.57137,37.28131],[126.57133,37.28125],[126.5712,37.28107],[126.57106,37.28085],[126.57097,37.28069],[126.57092,37.28057],[126.5709,37.28046],[126.57089,37.28045],[126.57088,37.28044],[126.57087,37.28044]]]}},{"type":"Feature","id":"TN_RIVER_BT:WTR0200000000470T","properties":{"NF_ID":"WTR0200000000470T","admin_code":"41270","source_layer":"TN_RIVER_BT","semantic":"channel","river_class":"등급미확인","survey_method":"사진측량"},"geometry":{"type":"Polygon","coordinates":[[[126.57316,37.28294],[126.57322,37.28289],[126.57321,37.28288],[126.57308,37.28283],[126.57275,37.28272],[126.57251,37.28264],[126.57222,37.28251],[126.57217,37.2825],[126.57216,37.2825],[126.57215,37.28252],[126.57215,37.28253],[126.57215,37.28255],[126.57215,37.28255],[126.57216,37.28256],[126.5724,37.28268],[126.57242,37.28269],[126.57265,37.28279],[126.57272,37.28282],[126.57275,37.28283],[126.57277,37.28282],[126.57279,37.28284],[126.57282,37.2829],[126.57283,37.28291],[126.57285,37.28291],[126.57287,37.28291],[126.57294,37.28291],[126.57302,37.28292],[126.57311,37.28295],[126.57313,37.28295],[126.57316,37.28294]]]}},{"type":"Feature","id":"TN_RIVER_BT:WTR0200000000471U","properties":{"NF_ID":"WTR0200000000471U","admin_code":"41270","source_layer":"TN_RIVER_BT","semantic":"channel","river_class":"소하천","river_class_source":"중심선 공간조인","survey_method":"사진측량"},"geometry":{"type":"Polygon","coordinates":[[[126.57396,37.28301],[126.5738,37.28294],[126.57366,37.28287],[126.57357,37.28282],[126.57332,37.28274],[126.57303,37.28264],[126.57269,37.28252],[126.57242,37.28241],[126.57226,37.28235],[126.57204,37.28222],[126.57201,37.28221],[126.572,37.28221],[126.57192,37.28227],[126.57192,37.2823],[126.57191,37.28231],[126.57192,37.28232],[126.57205,37.28241],[126.57211,37.28244],[126.57224,37.2825],[126.57251,37.28262],[126.57288,37.28272],[126.57297,37.28276],[126.57324,37.28287],[126.5735,37.28295],[126.57353,37.28296],[126.57358,37.28295],[126.5736,37.28295],[126.57363,37.28295],[126.57373,37.28298],[126.57391,37.28306],[126.57393,37.28307],[126.57395,37.28307],[126.57397,37.28307],[126.57399,37.28306],[126.57399,37.28304],[126.57398,37.28302],[126.57396,37.28301]]]}},{"type":"Feature","id":"TN_RIVER_BT:WTR0200000000472V","properties":{"NF_ID":"WTR0200000000472V","admin_code":"41270","source_layer":"TN_RIVER_BT","semantic":"channel","river_class":"등급미확인","survey_method":"사진측량"},"geometry":{"type":"Polygon","coordinates":[[[126.57337,37.28293],[126.57329,37.28291],[126.57328,37.28291],[126.57325,37.28295],[126.57325,37.28296],[126.57325,37.28297],[126.57334,37.283],[126.57348,37.28308],[126.57349,37.28309],[126.57349,37.28309],[126.57351,37.28309],[126.57354,37.28307],[126.57355,37.28305],[126.57355,37.28304],[126.57351,37.283],[126.57343,37.28295],[126.57337,37.28293]]]}},{"type":"Feature","id":"TN_RIVER_BT:WTR0200000000473W","properties":{"NF_ID":"WTR0200000000473W","admin_code":"41270","source_layer":"TN_RIVER_BT","semantic":"channel","river_class":"소하천","river_class_source":"중심선 공간조인","survey_method":"사진측량"},"geometry":{"type":"Polygon","coordinates":[[[126.57447,37.28339],[126.57371,37.2822],[126.57452,37.28175],[126.57356,37.28204],[126.57528,37.28127],[126.57354,37.282],[126.57325,37.28171],[126.57415,37.28316],[126.57355,37.28313],[126.57388,37.28339],[126.57447,37.28339]]]}},{"type":"Feature","id":"TN_RIVER_BT:WTR0200000000474X","properties":{"NF_ID":"WTR0200000000474X","admin_code":"41270","source_layer":"TN_RIVER_BT","semantic":"channel","river_class":"소하천","river_class_source":"중심선 공간조인","survey_method":"사진측량"},"geometry":{"type":"Polygon","coordinates":[[[126.57587,37.28283],[126.57528,37.28258],[126.57584,37.28284],[126.57627,37.28385],[126.57587,37.28283]]]}},{"type":"Feature","id":"TN_RIVER_BT:WTR0200000000475Y","properties":{"NF_ID":"WTR0200000000475Y","admin_code":"41270","source_layer":"TN_RIVER_BT","semantic":"channel","river_class":"등급미확인","survey_method":"사진측량"},"geometry":{"type":"Polygon","coordinates":[[[126.63668,37.25009],[126.6367,37.25009],[126.63672,37.25009],[126.63673,37.25009],[126.63675,37.25009],[126.63677,37.25009],[126.63679,37.25009],[126.6368,37.25009],[126.63682,37.25009],[126.63684,37.25009],[126.63685,37.25009],[126.63687,37.25009],[126.63689,37.25009],[126.6369,37.25008],[126.63692,37.25008],[126.63694,37.25008],[126.63696,37.25008],[126.63698,37.25008],[126.63699,37.25008],[126.63701,37.25008],[126.63703,37.25007],[126.63705,37.25007],[126.63706,37.25007],[126.63708,37.25007],[126.6371,37.25007],[126.63712,37.25007],[126.63712,37.25007],[126.63714,37.25006],[126.63715,37.25006],[126.63717,37.25006],[126.63719,37.25006],[126.63721,37.25005],[126.63722,37.25005],[126.63725,37.25004],[126.63727,37.25004],[126.63728,37.25004],[126.6373,37.25003],[126.63732,37.25003],[126.63734,37.25002],[126.63735,37.25002],[126.63737,37.25001],[126.63739,37.25],[126.63739,37.25],[126.6374,37.25],[126.63524,37.25],[126.63525,37.25],[126.63538,37.25001],[126.63548,37.25002],[126.63555,37.25002],[126.63568,37.25003],[126.63591,37.25005],[126.63616,37.25007],[126.63625,37.25007],[126.63626,37.25007],[126.63627,37.25007],[126.63628,37.25007],[126.6363,37.25007],[126.63631,37.25007],[126.63633,37.25007],[126.63634,37.25008],[126.63636,37.25008],[126.63637,37.25008],[126.63639,37.25008],[126.6364,37.25008],[126.63642,37.25008],[126.63643,37.25008],[126.63645,37.25008],[126.63647,37.25008],[126.63649,37.25008],[126.6365,37.25009],[126.63652,37.25009],[126.63654,37.25009],[126.63656,37.25009],[126.63657,37.25009],[126.63659,37.25009],[126.63661,37.25009],[126.63662,37.25009],[126.63663,37.25009],[126.63664,37.25009],[126.63666,37.25009],[126.63668,37.25009]]]}},{"type":"Feature","id":"TN_RIVER_BT:WTR0200000000476Z","properties":{"NF_ID":"WTR0200000000476Z","admin_code":"41270","source_layer":"TN_RIVER_BT","semantic":"channel","river_class":"소하천","river_class_source":"중심선 공간조인","survey_method":"사진측량"},"geometry":{"type":"Polygon","coordinates":[[[126.63268,37.25097],[126.63335,37.25099],[126.63373,37.25],[126.63287,37.25],[126.63266,37.25019],[126.63244,37.25108],[126.63268,37.25097]]]}},{"type":"Feature","id":"TN_RIVER_BT:WTR02000000004792","properties":{"NF_ID":"WTR02000000004792","admin_code":"41270","source_layer":"TN_RIVER_BT","semantic":"channel","river_class":"소하천","river_class_source":"중심선 공간조인","survey_method":"사진측량"},"geometry":{"type":"Polygon","coordinates":[[[126.73616,37.30038],[126.73616,37.30038],[126.73613,37.30039],[126.73613,37.30039],[126.73614,37.30039],[126.73615,37.30042],[126.73617,37.30042],[126.73616,37.30038]]]}},{"type":"Feature","id":"TN_RIVER_BT:WTR020000000047A3","properties":{"NF_ID":"WTR020000000047A3","admin_code":"41270","source_layer":"TN_RIVER_BT","semantic":"channel","river_class":"지방하천","river_class_source":"중심선 공간조인","river_name":"신길천","river_code":"1520210","survey_method":"사진측량"},"geometry":{"type":"Polygon","coordinates":[[[126.74674,37.30238],[126.74683,37.3018],[126.74643,37.30099],[126.74639,37.30195],[126.74674,37.30238]],[[126.7466,37.30157],[126.7466,37.30157],[126.74663,37.30157],[126.74666,37.3016],[126.74671,37.30165],[126.74675,37.30171],[126.74677,37.30174],[126.74679,37.3018],[126.7468,37.30185],[126.74679,37.3019],[126.74677,37.30202],[126.74676,37.30208],[126.74675,37.30212],[126.74674,37.30214],[126.74672,37.30215],[126.74671,37.30215],[126.7467,37.30215],[126.74667,37.30214],[126.74665,37.30213],[126.74664,37.30211],[126.74663,37.30206],[126.7466,37.30193],[126.74656,37.30176],[126.74655,37.30163],[126.74655,37.30162],[126.74655,37.30161],[126.74658,37.30158],[126.74659,37.30157],[126.7466,37.30157]]]}},{"type":"Feature","id":"TN_RIVER_BT:WTR020000000047B4","properties":{"NF_ID":"WTR020000000047B4","admin_code":"41270","source_layer":"TN_RIVER_BT","semantic":"channel","river_class":"소하천","river_class_source":"중심선 공간조인","survey_method":"사진측량"},"geometry":{"type":"Polygon","coordinates":[[[126.74508,37.31962],[126.73437,37.30844],[126.73328,37.30772],[126.73258,37.30679],[126.73277,37.3068],[126.73235,37.30668],[126.73121,37.30555],[126.73024,37.30419],[126.72961,37.30407],[126.73153,37.3062],[126.7316,37.30606],[126.73181,37.30622],[126.73227,37.30696],[126.73262,37.30703],[126.73348,37.30825],[126.73393,37.30838],[126.73545,37.3098],[126.74508,37.31962]]]}},{"type":"Feature","id":"TN_RIVER_BT:WTR020000000047C5","properties":{"NF_ID":"WTR020000000047C5","admin_code":"41270","source_layer":"TN_RIVER_BT","semantic":"channel","river_class":"소하천","river_class_source":"중심선 공간조인","survey_method":"사진측량"},"geometry":{"type":"Polygon","coordinates":[[[126.74991,37.32891],[126.74994,37.32889],[126.74997,37.3289],[126.75,37.32887],[126.75,37.32884],[126.74997,37.32885],[126.7499,37.3289],[126.74991,37.32891]]]}},{"type":"Feature","id":"TN_RIVER_BT:WTR020000000047D6","properties":{"NF_ID":"WTR020000000047D6","admin_code":"41270","source_layer":"TN_RIVER_BT","semantic":"channel","river_class":"지방하천","river_class_source":"중심선 공간조인","river_name":"신길천","river_code":"1520210","survey_method":"사진측량"},"geometry":{"type":"Polygon","coordinates":[[[126.74824,37.30523],[126.74775,37.30439],[126.74754,37.30329],[126.74688,37.30246],[126.74673,37.30279],[126.74745,37.30371],[126.75,37.30959],[126.75,37.3091],[126.74824,37.30523]]]}},{"type":"Feature","id":"TN_RIVER_BT:WTR020000000047E7","properties":{"NF_ID":"WTR020000000047E7","admin_code":"41270","source_layer":"TN_RIVER_BT","semantic":"channel","river_class":"지방하천","river_class_source":"중심선 공간조인","river_name":"신길천","river_code":"1520210","survey_method":"사진측량"},"geometry":{"type":"Polygon","coordinates":[[[126.7489,37.32093],[126.75,37.32132],[126.74972,37.32093],[126.74902,37.3207],[126.75,37.31776],[126.75,37.31678],[126.74915,37.31996],[126.7485,37.3213],[126.74747,37.32544],[126.74933,37.33289],[126.75,37.3339],[126.7494,37.3329],[126.74763,37.32562],[126.7489,37.32093]]]}},{"type":"Feature","id":"TN_RIVER_BT:WTR020000000047F8","properties":{"NF_ID":"WTR020000000047F8","admin_code":"41270","source_layer":"TN_RIVER_BT","semantic":"channel","river_class":"소하천","river_class_source":"중심선 공간조인","survey_method":"사진측량"},"geometry":{"type":"Polygon","coordinates":[[[126.73198,37.32281],[126.72433,37.31496],[126.71982,37.30986],[126.71899,37.30928],[126.71857,37.3085],[126.7181,37.30877],[126.71961,37.31],[126.73129,37.32243],[126.74829,37.33982],[126.73198,37.32281]]]}}]}