{"type":"FeatureCollection","features":[{"type":"Feature","id":"TN_RIVER_BNDRY:WTR0100000000PWBD","properties":{"NF_ID":"WTR0100000000PWBD","admin_code":"28275","source_layer":"TN_RIVER_BNDRY","semantic":"zone","river_class":"소하천","river_class_source":"중심선 공간조인","survey_method":"사진측량"},"geometry":{"type":"Polygon","coordinates":[[[126.6586,37.49364],[126.65077,37.49055],[126.65044,37.49078],[126.64986,37.49087],[126.64807,37.49183],[126.64807,37.49202],[126.6483,37.4921],[126.64958,37.49196],[126.64974,37.49139],[126.65049,37.49132],[126.65064,37.4915],[126.65985,37.49506],[126.65998,37.49532],[126.6599,37.4962],[126.66093,37.49638],[126.66093,37.49456],[126.6586,37.49364]]]}},{"type":"Feature","id":"TN_RIVER_BNDRY:WTR0100000000PZ9E","properties":{"NF_ID":"WTR0100000000PZ9E","admin_code":"28275","source_layer":"TN_RIVER_BNDRY","semantic":"zone","river_class":"소하천","river_class_source":"중심선 공간조인","survey_method":"사진측량"},"geometry":{"type":"Polygon","coordinates":[[[126.68724,37.5],[126.68723,37.49998],[126.68721,37.49999],[126.68721,37.5],[126.68724,37.5]]]}},{"type":"Feature","id":"TN_RIVER_BNDRY:WTR0100000000R3LW","properties":{"NF_ID":"WTR0100000000R3LW","admin_code":"28275","source_layer":"TN_RIVER_BNDRY","semantic":"zone","river_class":"소하천","river_class_source":"중심선 공간조인","survey_method":"사진측량"},"geometry":{"type":"Polygon","coordinates":[[[126.70048,37.55027],[126.7002,37.55009],[126.69829,37.55058],[126.69599,37.55071],[126.69829,37.55065],[126.70007,37.5502],[126.70101,37.55066],[126.70106,37.55106],[126.70158,37.55124],[126.70109,37.551],[126.7011,37.55066],[126.70048,37.55027]]]}},{"type":"Feature","id":"TN_RIVER_BNDRY:WTR0100000000RK4W","properties":{"NF_ID":"WTR0100000000RK4W","admin_code":"28275","source_layer":"TN_RIVER_BNDRY","semantic":"zone","river_class":"지방하천","river_class_source":"중심선 공간조인","river_name":"심곡천","river_code":"1520300","survey_method":"사진측량"},"geometry":{"type":"Polygon","coordinates":[[[126.61436,37.52056],[126.61303,37.51965],[126.61166,37.52721],[126.61138,37.52731],[126.61035,37.52707],[126.60251,37.52706],[126.60256,37.52781],[126.60313,37.52769],[126.61039,37.52775],[126.61084,37.52769],[126.61087,37.52749],[126.61133,37.52753],[126.61204,37.52793],[126.61268,37.52783],[126.61322,37.5271],[126.61436,37.52056]]]}},{"type":"Feature","id":"TN_RIVER_BNDRY:WTR0100000000RK5X","properties":{"NF_ID":"WTR0100000000RK5X","admin_code":"28275","source_layer":"TN_RIVER_BNDRY","semantic":"zone","river_class":"지방하천","river_class_source":"중심선 공간조인","river_name":"심곡천","river_code":"1520300","survey_method":"사진측량"},"geometry":{"type":"Polygon","coordinates":[[[126.61447,37.52036],[126.61323,37.51947],[126.61303,37.51965],[126.61436,37.52056],[126.61447,37.52036]]]}},{"type":"Feature","id":"TN_RIVER_BNDRY:WTR0100000000RK6Y","properties":{"NF_ID":"WTR0100000000RK6Y","admin_code":"28275","source_layer":"TN_RIVER_BNDRY","semantic":"zone","river_class":"소하천","river_class_source":"중심선 공간조인","survey_method":"사진측량"},"geometry":{"type":"Polygon","coordinates":[[[126.61323,37.51947],[126.61313,37.51926],[126.61347,37.51737],[126.61303,37.51948],[126.61303,37.51965],[126.61323,37.51947]]]}},{"type":"Feature","id":"TN_RIVER_BNDRY:WTR0100000000RK80","properties":{"NF_ID":"WTR0100000000RK80","admin_code":"28275","source_layer":"TN_RIVER_BNDRY","semantic":"zone","river_class":"소하천","river_class_source":"중심선 공간조인","survey_method":"사진측량"},"geometry":{"type":"Polygon","coordinates":[[[126.60271,37.51684],[126.61015,37.51566],[126.61073,37.51554],[126.6106,37.51551],[126.61079,37.5154],[126.61303,37.51507],[126.61344,37.51272],[126.6122,37.51259],[126.61087,37.51284],[126.61074,37.5125],[126.61037,37.51256],[126.6099,37.51292],[126.60956,37.51297],[126.60988,37.51328],[126.60955,37.51357],[126.61019,37.51524],[126.60242,37.51644],[126.60225,37.51651],[126.60224,37.5168],[126.60271,37.51684]]]}},{"type":"Feature","id":"TN_RIVER_BNDRY:WTR0100000000RK91","properties":{"NF_ID":"WTR0100000000RK91","admin_code":"28275","source_layer":"TN_RIVER_BNDRY","semantic":"zone","river_class":"지방하천","river_class_source":"중심선 공간조인","river_name":"공촌천","river_code":"1520310","survey_method":"사진측량"},"geometry":{"type":"Polygon","coordinates":[[[126.65555,37.54836],[126.65528,37.54856],[126.65624,37.54948],[126.66053,37.55021],[126.66321,37.55226],[126.66688,37.55382],[126.66754,37.55392],[126.67064,37.55384],[126.67246,37.55475],[126.67409,37.55486],[126.6759,37.55592],[126.67787,37.55628],[126.67943,37.55624],[126.6831,37.55466],[126.68599,37.55376],[126.689,37.5531],[126.68873,37.55302],[126.68886,37.55216],[126.6886,37.55272],[126.68816,37.55307],[126.68559,37.55357],[126.6835,37.55423],[126.67949,37.55593],[126.67857,37.55609],[126.67709,37.55594],[126.6757,37.55555],[126.67437,37.55464],[126.67286,37.55458],[126.67082,37.55361],[126.66755,37.55364],[126.66686,37.55352],[126.66332,37.55201],[126.66111,37.55019],[126.66126,37.55004],[126.66108,37.55016],[126.66019,37.54982],[126.65666,37.54934],[126.65555,37.54836]]]}},{"type":"Feature","id":"TN_RIVER_BNDRY:WTR0100000000RKA2","properties":{"NF_ID":"WTR0100000000RKA2","admin_code":"28275","source_layer":"TN_RIVER_BNDRY","semantic":"zone","river_class":"지방하천","river_class_source":"중심선 공간조인","river_name":"심곡천","river_code":"1520300","survey_method":"사진측량"},"geometry":{"type":"Polygon","coordinates":[[[126.63745,37.52386],[126.63699,37.52451],[126.64145,37.52635],[126.64424,37.52699],[126.64636,37.52718],[126.66027,37.5272],[126.66147,37.52733],[126.66147,37.52672],[126.66114,37.52655],[126.66087,37.52654],[126.66075,37.5267],[126.64984,37.52671],[126.64492,37.52649],[126.642,37.52579],[126.63745,37.52386]]]}},{"type":"Feature","id":"TN_RIVER_BNDRY:WTR0100000000RKB3","properties":{"NF_ID":"WTR0100000000RKB3","admin_code":"28275","source_layer":"TN_RIVER_BNDRY","semantic":"zone","river_class":"소하천","river_class_source":"중심선 공간조인","survey_method":"사진측량"},"geometry":{"type":"Polygon","coordinates":[[[126.68204,37.50726],[126.68208,37.50725],[126.68211,37.50725],[126.68213,37.50726],[126.68217,37.50726],[126.68221,37.50727],[126.68225,37.50728],[126.68228,37.50728],[126.6823,37.50728],[126.68232,37.50728],[126.68235,37.50727],[126.68238,37.50727],[126.68242,37.50725],[126.68249,37.50722],[126.68257,37.50718],[126.68267,37.50715],[126.68269,37.50715],[126.68273,37.50715],[126.68277,37.50715],[126.68288,37.50714],[126.68307,37.50715],[126.68315,37.50715],[126.68319,37.50715],[126.68321,37.50715],[126.68324,37.50715],[126.68331,37.50714],[126.68337,37.50712],[126.6834,37.50711],[126.68344,37.5071],[126.68346,37.5071],[126.6835,37.5071],[126.68355,37.50711],[126.68362,37.50711],[126.68369,37.50711],[126.68371,37.50711],[126.68379,37.50711],[126.68393,37.50709],[126.6841,37.50707],[126.68423,37.50705],[126.68435,37.50703],[126.68456,37.50701],[126.68477,37.50699],[126.68492,37.50698],[126.68509,37.50697],[126.68526,37.50697],[126.68536,37.50697],[126.68542,37.50696],[126.68546,37.50696],[126.6855,37.50696],[126.68555,37.50696],[126.68561,37.50695],[126.68566,37.50695],[126.68568,37.50695],[126.68572,37.50695],[126.68585,37.50695],[126.68598,37.50694],[126.68602,37.50694],[126.6861,37.50693],[126.68615,37.50693],[126.68625,37.50692],[126.68635,37.5069],[126.68643,37.50689],[126.6865,37.50688],[126.68655,37.50687],[126.68661,37.50686],[126.68683,37.50684],[126.68692,37.50683],[126.68694,37.50683],[126.68697,37.50682],[126.68697,37.5068],[126.68696,37.50678],[126.68692,37.50677],[126.68688,37.50677],[126.68681,37.50678],[126.68653,37.50682],[126.68626,37.50685],[126.68608,37.50687],[126.68601,37.50688],[126.68593,37.50688],[126.68584,37.50689],[126.68569,37.50689],[126.68559,37.5069],[126.68545,37.5069],[126.68525,37.50691],[126.68504,37.50692],[126.68493,37.50693],[126.68487,37.50693],[126.6848,37.50693],[126.68476,37.50693],[126.68467,37.50694],[126.68457,37.50695],[126.68451,37.50695],[126.68438,37.50697],[126.68434,37.50699],[126.68422,37.50702],[126.68409,37.50703],[126.68393,37.50706],[126.68379,37.50707],[126.68371,37.50708],[126.68369,37.50708],[126.68362,37.50707],[126.68355,37.50707],[126.6835,37.50707],[126.68346,37.50707],[126.68343,37.50707],[126.68339,37.50707],[126.68336,37.50708],[126.68329,37.5071],[126.68324,37.50712],[126.68321,37.50712],[126.68315,37.50712],[126.68307,37.50711],[126.68288,37.50711],[126.68277,37.50711],[126.68273,37.50711],[126.68269,37.50711],[126.68265,37.50712],[126.68261,37.50713],[126.68255,37.50715],[126.68247,37.50719],[126.6824,37.50722],[126.68236,37.50723],[126.68234,37.50724],[126.68231,37.50724],[126.6823,37.50724],[126.68228,37.50724],[126.68226,37.50724],[126.68222,37.50724],[126.68218,37.50723],[126.68214,37.50722],[126.68212,37.50722],[126.68208,37.50722],[126.68203,37.50722],[126.68199,37.50723],[126.68191,37.50726],[126.68178,37.50733],[126.68181,37.50736],[126.68193,37.50729],[126.682,37.50727],[126.68204,37.50726]]]}},{"type":"Feature","id":"TN_RIVER_BNDRY:WTR0100000000RKJB","properties":{"NF_ID":"WTR0100000000RKJB","admin_code":"28275","source_layer":"TN_RIVER_BNDRY","semantic":"zone","river_class":"지방하천","river_class_source":"중심선 공간조인","river_name":"심곡천","river_code":"1520300","survey_method":"사진측량"},"geometry":{"type":"Polygon","coordinates":[[[126.63745,37.52386],[126.63735,37.52381],[126.6369,37.52447],[126.63745,37.52386]]]}},{"type":"Feature","id":"TN_RIVER_BNDRY:WTR0100000000RKKC","properties":{"NF_ID":"WTR0100000000RKKC","admin_code":"28275","source_layer":"TN_RIVER_BNDRY","semantic":"zone","river_class":"소하천","river_class_source":"중심선 공간조인","survey_method":"사진측량"},"geometry":{"type":"Polygon","coordinates":[[[126.63699,37.52451],[126.6369,37.52447],[126.63687,37.52452],[126.63678,37.52465],[126.63657,37.52495],[126.63656,37.52495],[126.63653,37.525],[126.63652,37.52503],[126.63645,37.52513],[126.63654,37.52517],[126.63661,37.52507],[126.63666,37.525],[126.63665,37.52499],[126.63673,37.52487],[126.63686,37.52469],[126.63696,37.52456],[126.63699,37.52451]]]}},{"type":"Feature","id":"TN_RIVER_BNDRY:WTR0100000000RKLD","properties":{"NF_ID":"WTR0100000000RKLD","admin_code":"28275","source_layer":"TN_RIVER_BNDRY","semantic":"zone","river_class":"소하천","river_class_source":"중심선 공간조인","survey_method":"사진측량"},"geometry":{"type":"Polygon","coordinates":[[[126.64285,37.53301],[126.64285,37.5329],[126.64261,37.53289],[126.64182,37.53301],[126.63952,37.53299],[126.63838,37.53285],[126.63711,37.533],[126.63617,37.5329],[126.63595,37.53301],[126.64285,37.53301]]]}},{"type":"Feature","id":"TN_RIVER_BNDRY:WTR0100000000RKME","properties":{"NF_ID":"WTR0100000000RKME","admin_code":"28275","source_layer":"TN_RIVER_BNDRY","semantic":"zone","river_class":"소하천","river_class_source":"중심선 공간조인","survey_method":"사진측량"},"geometry":{"type":"Polygon","coordinates":[[[126.64309,37.53294],[126.64285,37.5329],[126.64285,37.53301],[126.64309,37.53294]]]}},{"type":"Feature","id":"TN_RIVER_BNDRY:WTR0100000000RKNF","properties":{"NF_ID":"WTR0100000000RKNF","admin_code":"28275","source_layer":"TN_RIVER_BNDRY","semantic":"zone","river_class":"소하천","river_class_source":"중심선 공간조인","survey_method":"사진측량"},"geometry":{"type":"Polygon","coordinates":[[[126.64322,37.5331],[126.64285,37.53301],[126.64315,37.53323],[126.64322,37.5331]]]}},{"type":"Feature","id":"TN_RIVER_BNDRY:WTR0100000000RKOG","properties":{"NF_ID":"WTR0100000000RKOG","admin_code":"28275","source_layer":"TN_RIVER_BNDRY","semantic":"zone","river_class":"소하천","river_class_source":"중심선 공간조인","survey_method":"사진측량"},"geometry":{"type":"Polygon","coordinates":[[[126.64322,37.53287],[126.64315,37.53275],[126.64285,37.5329],[126.64322,37.53287]]]}},{"type":"Feature","id":"TN_RIVER_BNDRY:WTR0100000000RKPH","properties":{"NF_ID":"WTR0100000000RKPH","admin_code":"28275","source_layer":"TN_RIVER_BNDRY","semantic":"zone","river_class":"소하천","river_class_source":"중심선 공간조인","survey_method":"사진측량"},"geometry":{"type":"Polygon","coordinates":[[[126.64338,37.53287],[126.64333,37.53264],[126.64315,37.53275],[126.64338,37.53287]]]}},{"type":"Feature","id":"TN_RIVER_BNDRY:WTR0100000000RKQI","properties":{"NF_ID":"WTR0100000000RKQI","admin_code":"28275","source_layer":"TN_RIVER_BNDRY","semantic":"zone","river_class":"지방하천","river_class_source":"중심선 공간조인","river_name":"공촌천","river_code":"1520310","survey_method":"사진측량"},"geometry":{"type":"Polygon","coordinates":[[[126.63451,37.54277],[126.63451,37.54235],[126.63427,37.54238],[126.63426,37.54278],[126.63451,37.54277]]]}},{"type":"Feature","id":"TN_RIVER_BNDRY:WTR0100000000RKRJ","properties":{"NF_ID":"WTR0100000000RKRJ","admin_code":"28275","source_layer":"TN_RIVER_BNDRY","semantic":"zone","river_class":"소하천","river_class_source":"중심선 공간조인","survey_method":"사진측량"},"geometry":{"type":"Polygon","coordinates":[[[126.64333,37.53264],[126.64322,37.53234],[126.64272,37.53192],[126.64265,37.53055],[126.64267,37.53194],[126.64323,37.53243],[126.64315,37.53275],[126.64333,37.53264]]]}},{"type":"Feature","id":"TN_RIVER_BNDRY:WTR0100000000RKSK","properties":{"NF_ID":"WTR0100000000RKSK","admin_code":"28275","source_layer":"TN_RIVER_BNDRY","semantic":"zone","river_class":"소하천","river_class_source":"중심선 공간조인","survey_method":"사진측량"},"geometry":{"type":"Polygon","coordinates":[[[126.64374,37.53299],[126.64357,37.53305],[126.64375,37.53309],[126.64374,37.53299]]]}},{"type":"Feature","id":"TN_RIVER_BNDRY:WTR0100000000RKTL","properties":{"NF_ID":"WTR0100000000RKTL","admin_code":"28275","source_layer":"TN_RIVER_BNDRY","semantic":"zone","river_class":"소하천","river_class_source":"중심선 공간조인","survey_method":"사진측량"},"geometry":{"type":"Polygon","coordinates":[[[126.64333,37.53264],[126.64338,37.53287],[126.64374,37.53299],[126.64375,37.53281],[126.64333,37.53264]]]}},{"type":"Feature","id":"TN_RIVER_BNDRY:WTR0100000000RKUM","properties":{"NF_ID":"WTR0100000000RKUM","admin_code":"28275","source_layer":"TN_RIVER_BNDRY","semantic":"zone","river_class":"소하천","river_class_source":"중심선 공간조인","survey_method":"사진측량"},"geometry":{"type":"Polygon","coordinates":[[[126.64333,37.53333],[126.64315,37.53323],[126.64322,37.53357],[126.64262,37.53421],[126.64267,37.53541],[126.6427,37.53419],[126.64333,37.53333]]]}},{"type":"Feature","id":"TN_RIVER_BNDRY:WTR0100000000RKVN","properties":{"NF_ID":"WTR0100000000RKVN","admin_code":"28275","source_layer":"TN_RIVER_BNDRY","semantic":"zone","river_class":"소하천","river_class_source":"중심선 공간조인","survey_method":"사진측량"},"geometry":{"type":"Polygon","coordinates":[[[126.64339,37.5331],[126.64315,37.53323],[126.64333,37.53333],[126.64339,37.5331]]]}},{"type":"Feature","id":"TN_RIVER_BNDRY:WTR0100000000RKWO","properties":{"NF_ID":"WTR0100000000RKWO","admin_code":"28275","source_layer":"TN_RIVER_BNDRY","semantic":"zone","river_class":"등급미확인","survey_method":"사진측량"},"geometry":{"type":"Polygon","coordinates":[[[126.63451,37.54235],[126.6344,37.54163],[126.63427,37.54238],[126.63451,37.54235]]]}},{"type":"Feature","id":"TN_RIVER_BNDRY:WTR0100000000RKXP","properties":{"NF_ID":"WTR0100000000RKXP","admin_code":"28275","source_layer":"TN_RIVER_BNDRY","semantic":"zone","river_class":"소하천","river_class_source":"중심선 공간조인","survey_method":"사진측량"},"geometry":{"type":"Polygon","coordinates":[[[126.64375,37.53309],[126.64339,37.5331],[126.64333,37.53333],[126.64375,37.53309]]]}},{"type":"Feature","id":"TN_RIVER_BNDRY:WTR0100000000RL2V","properties":{"NF_ID":"WTR0100000000RL2V","admin_code":"28275","source_layer":"TN_RIVER_BNDRY","semantic":"zone","river_class":"소하천","river_class_source":"중심선 공간조인","survey_method":"사진측량"},"geometry":{"type":"Polygon","coordinates":[[[126.63088,37.5545],[126.63041,37.55431],[126.63035,37.55389],[126.62975,37.55354],[126.62907,37.55356],[126.62924,37.55377],[126.62984,37.55376],[126.63022,37.55398],[126.62991,37.55445],[126.62907,37.5543],[126.62875,37.55405],[126.62842,37.55402],[126.62823,37.55374],[126.62765,37.55364],[126.62798,37.55402],[126.62829,37.55405],[126.62836,37.55428],[126.62902,37.55443],[126.62923,37.55429],[126.631,37.55481],[126.63109,37.5547],[126.63088,37.5545]]]}},{"type":"Feature","id":"TN_RIVER_BNDRY:WTR0100000000RLIB","properties":{"NF_ID":"WTR0100000000RLIB","admin_code":"28275","source_layer":"TN_RIVER_BNDRY","semantic":"zone","river_class":"지방하천","river_class_source":"중심선 공간조인","river_name":"심곡천","river_code":"1520300","survey_method":"사진측량"},"geometry":{"type":"Polygon","coordinates":[[[126.66147,37.52733],[126.66082,37.52728],[126.66079,37.52738],[126.66144,37.52751],[126.66147,37.52733]]]}},{"type":"Feature","id":"TN_RIVER_BNDRY:WTR0100000000RLJC","properties":{"NF_ID":"WTR0100000000RLJC","admin_code":"28275","source_layer":"TN_RIVER_BNDRY","semantic":"zone","river_class":"지방하천","river_class_source":"중심선 공간조인","river_name":"심곡천","river_code":"1520300","survey_method":"사진측량"},"geometry":{"type":"Polygon","coordinates":[[[126.66144,37.52751],[126.66086,37.52742],[126.66126,37.52929],[126.6616,37.53007],[126.66183,37.53251],[126.66028,37.5338],[126.66022,37.53445],[126.6624,37.53631],[126.66266,37.5385],[126.66956,37.54176],[126.66584,37.53988],[126.66593,37.53981],[126.66579,37.53985],[126.66295,37.53843],[126.6626,37.53618],[126.66214,37.5357],[126.66225,37.53563],[126.66064,37.5343],[126.66071,37.53405],[126.66203,37.53301],[126.6623,37.53257],[126.66219,37.53094],[126.66152,37.52841],[126.66144,37.52751]]]}},{"type":"Feature","id":"TN_RIVER_BNDRY:WTR0100000000RLKD","properties":{"NF_ID":"WTR0100000000RLKD","admin_code":"28275","source_layer":"TN_RIVER_BNDRY","semantic":"zone","river_class":"소하천","river_class_source":"중심선 공간조인","survey_method":"사진측량"},"geometry":{"type":"Polygon","coordinates":[[[126.65055,37.546],[126.6505,37.54599],[126.6505,37.54599],[126.6505,37.54603],[126.6505,37.5461],[126.6505,37.54627],[126.65051,37.54627],[126.65052,37.54627],[126.65052,37.54628],[126.65052,37.54628],[126.65053,37.54627],[126.65054,37.54626],[126.65053,37.54612],[126.65054,37.54609],[126.65055,37.546]]]}},{"type":"Feature","id":"TN_RIVER_BNDRY:WTR0100000000RLLE","properties":{"NF_ID":"WTR0100000000RLLE","admin_code":"28275","source_layer":"TN_RIVER_BNDRY","semantic":"zone","river_class":"소하천","river_class_source":"중심선 공간조인","survey_method":"사진측량"},"geometry":{"type":"Polygon","coordinates":[[[126.65489,37.53291],[126.65489,37.5331],[126.65773,37.53313],[126.65876,37.533],[126.66058,37.5332],[126.66086,37.53298],[126.66088,37.53269],[126.66026,37.53266],[126.66023,37.53293],[126.65962,37.533],[126.65869,37.53292],[126.65761,37.53306],[126.65489,37.53291]]]}},{"type":"Feature","id":"TN_RIVER_BNDRY:WTR0100000000RLMF","properties":{"NF_ID":"WTR0100000000RLMF","admin_code":"28275","source_layer":"TN_RIVER_BNDRY","semantic":"zone","river_class":"소하천","river_class_source":"중심선 공간조인","survey_method":"사진측량"},"geometry":{"type":"Polygon","coordinates":[[[126.65549,37.54836],[126.65679,37.54717],[126.65881,37.54639],[126.66083,37.54594],[126.66002,37.54395],[126.66158,37.54355],[126.66264,37.54409],[126.66311,37.54418],[126.66159,37.54353],[126.66,37.54392],[126.66079,37.54593],[126.65882,37.54637],[126.65672,37.54716],[126.65549,37.54836]]]}},{"type":"Feature","id":"TN_RIVER_BNDRY:WTR0100000000RLNG","properties":{"NF_ID":"WTR0100000000RLNG","admin_code":"28275","source_layer":"TN_RIVER_BNDRY","semantic":"zone","river_class":"소하천","river_class_source":"중심선 공간조인","survey_method":"사진측량"},"geometry":{"type":"Polygon","coordinates":[[[126.65489,37.5331],[126.6544,37.53309],[126.65453,37.53325],[126.65441,37.53341],[126.65472,37.53351],[126.65489,37.53492],[126.65489,37.5331]]]}},{"type":"Feature","id":"TN_RIVER_BNDRY:WTR0100000000RLOH","properties":{"NF_ID":"WTR0100000000RLOH","admin_code":"28275","source_layer":"TN_RIVER_BNDRY","semantic":"zone","river_class":"소하천","river_class_source":"중심선 공간조인","survey_method":"사진측량"},"geometry":{"type":"Polygon","coordinates":[[[126.65489,37.53291],[126.65441,37.53288],[126.6544,37.53309],[126.65489,37.5331],[126.65489,37.53291]]]}},{"type":"Feature","id":"TN_RIVER_BNDRY:WTR0100000000RLPI","properties":{"NF_ID":"WTR0100000000RLPI","admin_code":"28275","source_layer":"TN_RIVER_BNDRY","semantic":"zone","river_class":"소하천","river_class_source":"중심선 공간조인","survey_method":"사진측량"},"geometry":{"type":"Polygon","coordinates":[[[126.65441,37.53288],[126.65489,37.53291],[126.6548,37.53204],[126.65496,37.53171],[126.65496,37.53042],[126.65482,37.53044],[126.65493,37.53091],[126.65477,37.53125],[126.6549,37.53162],[126.65479,37.53265],[126.65447,37.53271],[126.65441,37.53288]]]}},{"type":"Feature","id":"TN_RIVER_BNDRY:WTR0100000000RLQJ","properties":{"NF_ID":"WTR0100000000RLQJ","admin_code":"28275","source_layer":"TN_RIVER_BNDRY","semantic":"zone","river_class":"지방하천","river_class_source":"중심선 공간조인","river_name":"공촌천","river_code":"1520310","survey_method":"사진측량"},"geometry":{"type":"Polygon","coordinates":[[[126.65061,37.54573],[126.65054,37.54573],[126.6505,37.54599],[126.65055,37.546],[126.65061,37.54573]]]}},{"type":"Feature","id":"TN_RIVER_BNDRY:WTR0100000000RLRK","properties":{"NF_ID":"WTR0100000000RLRK","admin_code":"28275","source_layer":"TN_RIVER_BNDRY","semantic":"zone","river_class":"소하천","river_class_source":"중심선 공간조인","survey_method":"사진측량"},"geometry":{"type":"Polygon","coordinates":[[[126.66147,37.52733],[126.66144,37.52751],[126.66177,37.5276],[126.66186,37.52809],[126.66204,37.52816],[126.6623,37.5279],[126.66207,37.52761],[126.66221,37.52738],[126.66203,37.52677],[126.66172,37.52701],[126.66166,37.52734],[126.66147,37.52733]]]}},{"type":"Feature","id":"TN_RIVER_BNDRY:WTR0100000000RLTM","properties":{"NF_ID":"WTR0100000000RLTM","admin_code":"28275","source_layer":"TN_RIVER_BNDRY","semantic":"zone","river_class":"소하천","river_class_source":"중심선 공간조인","survey_method":"사진측량"},"geometry":{"type":"Polygon","coordinates":[[[126.67572,37.52964],[126.67589,37.53095],[126.67645,37.53137],[126.67664,37.53264],[126.67652,37.53344],[126.67666,37.53264],[126.67648,37.53136],[126.67592,37.53093],[126.67572,37.52964]]]}},{"type":"Feature","id":"TN_RIVER_BNDRY:WTR0100000000RM93","properties":{"NF_ID":"WTR0100000000RM93","admin_code":"28275","source_layer":"TN_RIVER_BNDRY","semantic":"zone","river_class":"소하천","river_class_source":"중심선 공간조인","survey_method":"사진측량"},"geometry":{"type":"Polygon","coordinates":[[[126.68356,37.50255],[126.68296,37.50191],[126.68179,37.50117],[126.6824,37.50172],[126.68292,37.50193],[126.68353,37.50257],[126.68351,37.50271],[126.68356,37.50255]]]}},{"type":"Feature","id":"TN_RIVER_BNDRY:WTR0100000000RMB5","properties":{"NF_ID":"WTR0100000000RMB5","admin_code":"28275","source_layer":"TN_RIVER_BNDRY","semantic":"zone","river_class":"지방하천","river_class_source":"중심선 공간조인","river_name":"공촌천","river_code":"1520310","survey_method":"사진측량"},"geometry":{"type":"Polygon","coordinates":[[[126.65054,37.54573],[126.64974,37.54553],[126.6497,37.54373],[126.6495,37.54308],[126.64898,37.54274],[126.64819,37.54258],[126.64815,37.54245],[126.63451,37.54235],[126.63451,37.54277],[126.63571,37.54282],[126.64815,37.54281],[126.64892,37.54307],[126.64917,37.54331],[126.64936,37.54575],[126.64982,37.54597],[126.64982,37.54587],[126.6505,37.54599],[126.65054,37.54573]]]}},{"type":"Feature","id":"TN_RIVER_BNDRY:WTR0100000000RMGA","properties":{"NF_ID":"WTR0100000000RMGA","admin_code":"28275","source_layer":"TN_RIVER_BNDRY","semantic":"zone","river_class":"소하천","river_class_source":"중심선 공간조인","survey_method":"사진측량"},"geometry":{"type":"Polygon","coordinates":[[[126.62573,37.53288],[126.62631,37.53295],[126.62639,37.53271],[126.62622,37.53265],[126.62622,37.53243],[126.62599,37.53257],[126.62582,37.53242],[126.62573,37.53288]]]}},{"type":"Feature","id":"TN_RIVER_BNDRY:WTR0100000000RMHB","properties":{"NF_ID":"WTR0100000000RMHB","admin_code":"28275","source_layer":"TN_RIVER_BNDRY","semantic":"zone","river_class":"소하천","river_class_source":"중심선 공간조인","survey_method":"사진측량"},"geometry":{"type":"Polygon","coordinates":[[[126.62631,37.53295],[126.62628,37.53308],[126.62768,37.53294],[126.62892,37.53306],[126.62985,37.53293],[126.63129,37.53304],[126.63264,37.53291],[126.62631,37.53295]]]}},{"type":"Feature","id":"TN_RIVER_BNDRY:WTR0100000000RMIC","properties":{"NF_ID":"WTR0100000000RMIC","admin_code":"28275","source_layer":"TN_RIVER_BNDRY","semantic":"zone","river_class":"소하천","river_class_source":"중심선 공간조인","survey_method":"사진측량"},"geometry":{"type":"Polygon","coordinates":[[[126.62631,37.53295],[126.62573,37.53288],[126.62571,37.53299],[126.62628,37.53308],[126.62631,37.53295]]]}},{"type":"Feature","id":"TN_RIVER_BNDRY:WTR0100000000RMJD","properties":{"NF_ID":"WTR0100000000RMJD","admin_code":"28275","source_layer":"TN_RIVER_BNDRY","semantic":"zone","river_class":"소하천","river_class_source":"중심선 공간조인","survey_method":"사진측량"},"geometry":{"type":"Polygon","coordinates":[[[126.62628,37.53308],[126.62571,37.53299],[126.62577,37.53395],[126.62588,37.53338],[126.62629,37.53326],[126.62628,37.53308]]]}},{"type":"Feature","id":"TN_RIVER_BNDRY:WTR0100000000RMNH","properties":{"NF_ID":"WTR0100000000RMNH","admin_code":"28275","source_layer":"TN_RIVER_BNDRY","semantic":"zone","river_class":"소하천","river_class_source":"중심선 공간조인","survey_method":"사진측량"},"geometry":{"type":"Polygon","coordinates":[[[126.62571,37.53299],[126.62573,37.53288],[126.62523,37.53281],[126.6205,37.53288],[126.62038,37.53287],[126.62047,37.53265],[126.61901,37.53264],[126.61901,37.53283],[126.61929,37.5329],[126.61901,37.53298],[126.61903,37.53318],[126.62047,37.53319],[126.62038,37.53295],[126.62571,37.53299]]]}},{"type":"Feature","id":"TN_RIVER_BNDRY:WTR0100000000RMOI","properties":{"NF_ID":"WTR0100000000RMOI","admin_code":"28275","source_layer":"TN_RIVER_BNDRY","semantic":"zone","river_class":"지방하천","river_class_source":"중심선 공간조인","river_name":"공촌천","river_code":"1520310","survey_method":"사진측량"},"geometry":{"type":"Polygon","coordinates":[[[126.63426,37.54278],[126.63427,37.54238],[126.62096,37.54238],[126.61957,37.54199],[126.61722,37.54073],[126.61426,37.54053],[126.61404,37.53974],[126.61236,37.53973],[126.6123,37.54062],[126.61126,37.54078],[126.61107,37.53958],[126.60719,37.53952],[126.60651,37.53931],[126.60569,37.53882],[126.60511,37.53894],[126.60511,37.53917],[126.60554,37.53921],[126.60604,37.54438],[126.60647,37.5446],[126.60806,37.54434],[126.61105,37.54286],[126.61305,37.54233],[126.61319,37.54241],[126.61532,37.54216],[126.61975,37.54266],[126.61975,37.54239],[126.61987,37.54238],[126.61995,37.54255],[126.62036,37.54265],[126.62211,37.54281],[126.62391,37.54269],[126.62952,37.54269],[126.63114,37.54284],[126.63151,37.54272],[126.63426,37.54278]]]}},{"type":"Feature","id":"TN_RIVER_BNDRY:WTR0100000000RMPJ","properties":{"NF_ID":"WTR0100000000RMPJ","admin_code":"28275","source_layer":"TN_RIVER_BNDRY","semantic":"zone","river_class":"지방하천","river_class_source":"중심선 공간조인","river_name":"심곡천","river_code":"1520300","survey_method":"사진측량"},"geometry":{"type":"Polygon","coordinates":[[[126.63735,37.52381],[126.625,37.51834],[126.62305,37.51766],[126.62158,37.51732],[126.62011,37.51714],[126.62008,37.51762],[126.61978,37.5178],[126.61645,37.51805],[126.61323,37.51947],[126.61447,37.52036],[126.61526,37.51963],[126.61629,37.51928],[126.62225,37.51923],[126.62271,37.51904],[126.62353,37.51906],[126.62353,37.51922],[126.62378,37.51908],[126.62469,37.51916],[126.62597,37.51949],[126.62969,37.52125],[126.62999,37.5212],[126.6369,37.52447],[126.63735,37.52381]]]}},{"type":"Feature","id":"TN_RIVER_BNDRY:WTR0100000000RP63","properties":{"NF_ID":"WTR0100000000RP63","admin_code":"28275","source_layer":"TN_RIVER_BNDRY","semantic":"zone","river_class":"소하천","river_class_source":"중심선 공간조인","survey_method":"사진측량"},"geometry":{"type":"Polygon","coordinates":[[[126.6544,37.53309],[126.65441,37.53288],[126.65112,37.53299],[126.6544,37.53309]]]}},{"type":"Feature","id":"TN_RIVER_BNDRY:WTR0100000000RP74","properties":{"NF_ID":"WTR0100000000RP74","admin_code":"28275","source_layer":"TN_RIVER_BNDRY","semantic":"zone","river_class":"소하천","river_class_source":"중심선 공간조인","survey_method":"사진측량"},"geometry":{"type":"Polygon","coordinates":[[[126.64374,37.53299],[126.64375,37.53309],[126.6451,37.53299],[126.64635,37.5331],[126.64745,37.53297],[126.64805,37.53306],[126.64808,37.53297],[126.64374,37.53299]]]}},{"type":"Feature","id":"TN_RIVER_BNDRY:WTR0100000000RPXU","properties":{"NF_ID":"WTR0100000000RPXU","admin_code":"28275","source_layer":"TN_RIVER_BNDRY","semantic":"zone","river_class":"소하천","river_class_source":"중심선 공간조인","survey_method":"사진측량"},"geometry":{"type":"Polygon","coordinates":[[[126.68789,37.50139],[126.68813,37.5013],[126.68774,37.50129],[126.6876,37.50055],[126.68721,37.5],[126.68758,37.50062],[126.68767,37.50123],[126.68789,37.50139]]]}},{"type":"Feature","id":"TN_RIVER_BNDRY:WTR0100000000PWBD","properties":{"NF_ID":"WTR0100000000PWBD","source_layer":"TN_RIVER_BNDRY","semantic":"zone","river_class":"소하천","river_class_source":"중심선 공간조인","survey_method":"사진측량","admin_code":"28275"},"geometry":{"type":"Polygon","coordinates":[[[126.64991,37.49086],[126.64807,37.49183],[126.64807,37.49202],[126.64958,37.49196],[126.64974,37.49139],[126.65049,37.49132],[126.65064,37.4915],[126.65985,37.49506],[126.65998,37.49532],[126.6599,37.4962],[126.66093,37.49638],[126.66093,37.49456],[126.65077,37.49055],[126.65044,37.49078],[126.64991,37.49086]]]}},{"type":"Feature","id":"TN_RIVER_BNDRY:WTR0100000000PZ9E","properties":{"NF_ID":"WTR0100000000PZ9E","source_layer":"TN_RIVER_BNDRY","semantic":"zone","river_class":"소하천","river_class_source":"중심선 공간조인","survey_method":"사진측량","admin_code":"28275"},"geometry":{"type":"Polygon","coordinates":[[[126.68724,37.5],[126.68723,37.49998],[126.68721,37.49999],[126.68721,37.5],[126.68724,37.5]]]}},{"type":"Feature","id":"TN_RIVER_BNDRY:WTR0100000000R3LW","properties":{"NF_ID":"WTR0100000000R3LW","source_layer":"TN_RIVER_BNDRY","semantic":"zone","river_class":"소하천","river_class_source":"중심선 공간조인","survey_method":"사진측량","admin_code":"28275"},"geometry":{"type":"Polygon","coordinates":[[[126.70048,37.55027],[126.7002,37.55009],[126.69829,37.55058],[126.69599,37.55071],[126.69829,37.55065],[126.70007,37.5502],[126.70101,37.55066],[126.70106,37.55106],[126.70158,37.55124],[126.70109,37.551],[126.7011,37.55066],[126.70048,37.55027]]]}},{"type":"Feature","id":"TN_RIVER_BNDRY:WTR0100000000RK4W","properties":{"NF_ID":"WTR0100000000RK4W","source_layer":"TN_RIVER_BNDRY","semantic":"zone","river_class":"지방하천","river_class_source":"중심선 공간조인","river_name":"심곡천","river_code":"1520300","survey_method":"사진측량","admin_code":"28275"},"geometry":{"type":"Polygon","coordinates":[[[126.61098,37.52725],[126.61094,37.5275],[126.61231,37.52795],[126.61275,37.52779],[126.61322,37.5271],[126.61436,37.52056],[126.61303,37.51965],[126.61166,37.52721],[126.61098,37.52725]]]}},{"type":"Feature","id":"TN_RIVER_BNDRY:WTR0100000000RK5X","properties":{"NF_ID":"WTR0100000000RK5X","source_layer":"TN_RIVER_BNDRY","semantic":"zone","river_class":"지방하천","river_class_source":"중심선 공간조인","river_name":"심곡천","river_code":"1520300","survey_method":"사진측량","admin_code":"28275"},"geometry":{"type":"Polygon","coordinates":[[[126.61447,37.52036],[126.61323,37.51947],[126.61303,37.51965],[126.61436,37.52056],[126.61447,37.52036]]]}},{"type":"Feature","id":"TN_RIVER_BNDRY:WTR0100000000RK6Y","properties":{"NF_ID":"WTR0100000000RK6Y","source_layer":"TN_RIVER_BNDRY","semantic":"zone","river_class":"소하천","river_class_source":"중심선 공간조인","survey_method":"사진측량","admin_code":"28275"},"geometry":{"type":"Polygon","coordinates":[[[126.61323,37.51947],[126.61313,37.51926],[126.61347,37.51737],[126.61303,37.51948],[126.61303,37.51965],[126.61323,37.51947]]]}},{"type":"Feature","id":"TN_RIVER_BNDRY:WTR0100000000RK80","properties":{"NF_ID":"WTR0100000000RK80","source_layer":"TN_RIVER_BNDRY","semantic":"zone","river_class":"소하천","river_class_source":"중심선 공간조인","survey_method":"사진측량","admin_code":"28275"},"geometry":{"type":"Polygon","coordinates":[[[126.60274,37.51681],[126.61015,37.51566],[126.61073,37.51554],[126.6106,37.51551],[126.61079,37.5154],[126.61303,37.51507],[126.61344,37.51272],[126.6122,37.51259],[126.61087,37.51284],[126.61074,37.5125],[126.61037,37.51256],[126.6099,37.51292],[126.60956,37.51297],[126.60988,37.51328],[126.60955,37.51357],[126.61019,37.51524],[126.60242,37.51644],[126.60225,37.51651],[126.60224,37.5168],[126.60274,37.51681]]]}},{"type":"Feature","id":"TN_RIVER_BNDRY:WTR0100000000RK91","properties":{"NF_ID":"WTR0100000000RK91","source_layer":"TN_RIVER_BNDRY","semantic":"zone","river_class":"지방하천","river_class_source":"중심선 공간조인","river_name":"공촌천","river_code":"1520310","survey_method":"사진측량","admin_code":"28275"},"geometry":{"type":"Polygon","coordinates":[[[126.65555,37.54836],[126.65528,37.54856],[126.65624,37.54948],[126.66053,37.55021],[126.66321,37.55226],[126.66688,37.55382],[126.66754,37.55392],[126.67064,37.55384],[126.67246,37.55475],[126.67409,37.55486],[126.6759,37.55592],[126.67787,37.55628],[126.67943,37.55624],[126.6831,37.55466],[126.68599,37.55376],[126.689,37.5531],[126.68873,37.55302],[126.68886,37.55216],[126.6886,37.55272],[126.68816,37.55307],[126.68559,37.55357],[126.6835,37.55423],[126.67949,37.55593],[126.67857,37.55609],[126.67709,37.55594],[126.6757,37.55555],[126.67437,37.55464],[126.67286,37.55458],[126.67082,37.55361],[126.66755,37.55364],[126.66686,37.55352],[126.66332,37.55201],[126.66111,37.55019],[126.66126,37.55004],[126.66108,37.55016],[126.66019,37.54982],[126.65666,37.54934],[126.65555,37.54836]]]}},{"type":"Feature","id":"TN_RIVER_BNDRY:WTR0100000000RKA2","properties":{"NF_ID":"WTR0100000000RKA2","source_layer":"TN_RIVER_BNDRY","semantic":"zone","river_class":"지방하천","river_class_source":"중심선 공간조인","river_name":"심곡천","river_code":"1520300","survey_method":"사진측량","admin_code":"28275"},"geometry":{"type":"Polygon","coordinates":[[[126.63745,37.52386],[126.63699,37.52451],[126.64145,37.52635],[126.64424,37.52699],[126.64636,37.52718],[126.66027,37.5272],[126.66147,37.52733],[126.66147,37.52672],[126.66114,37.52655],[126.66087,37.52654],[126.66075,37.5267],[126.64984,37.52671],[126.64492,37.52649],[126.642,37.52579],[126.63745,37.52386]]]}},{"type":"Feature","id":"TN_RIVER_BNDRY:WTR0100000000RKB3","properties":{"NF_ID":"WTR0100000000RKB3","source_layer":"TN_RIVER_BNDRY","semantic":"zone","river_class":"소하천","river_class_source":"중심선 공간조인","survey_method":"사진측량","admin_code":"28275"},"geometry":{"type":"Polygon","coordinates":[[[126.68204,37.50726],[126.68208,37.50725],[126.68211,37.50725],[126.68213,37.50726],[126.68217,37.50726],[126.68221,37.50727],[126.68225,37.50728],[126.68228,37.50728],[126.6823,37.50728],[126.68232,37.50728],[126.68235,37.50727],[126.68238,37.50727],[126.68242,37.50725],[126.68249,37.50722],[126.68257,37.50718],[126.68267,37.50715],[126.68269,37.50715],[126.68273,37.50715],[126.68277,37.50715],[126.68288,37.50714],[126.68307,37.50715],[126.68315,37.50715],[126.68319,37.50715],[126.68321,37.50715],[126.68324,37.50715],[126.68331,37.50714],[126.68337,37.50712],[126.6834,37.50711],[126.68344,37.5071],[126.68346,37.5071],[126.6835,37.5071],[126.68355,37.50711],[126.68362,37.50711],[126.68369,37.50711],[126.68371,37.50711],[126.68379,37.50711],[126.68393,37.50709],[126.6841,37.50707],[126.68423,37.50705],[126.68435,37.50703],[126.68456,37.50701],[126.68477,37.50699],[126.68492,37.50698],[126.68509,37.50697],[126.68526,37.50697],[126.68536,37.50697],[126.68542,37.50696],[126.68546,37.50696],[126.6855,37.50696],[126.68555,37.50696],[126.68561,37.50695],[126.68566,37.50695],[126.68568,37.50695],[126.68572,37.50695],[126.68585,37.50695],[126.68598,37.50694],[126.68602,37.50694],[126.6861,37.50693],[126.68615,37.50693],[126.68625,37.50692],[126.68635,37.5069],[126.68643,37.50689],[126.6865,37.50688],[126.68655,37.50687],[126.68661,37.50686],[126.68683,37.50684],[126.68692,37.50683],[126.68694,37.50683],[126.68697,37.50682],[126.68697,37.5068],[126.68696,37.50678],[126.68692,37.50677],[126.68688,37.50677],[126.68681,37.50678],[126.68653,37.50682],[126.68626,37.50685],[126.68608,37.50687],[126.68601,37.50688],[126.68593,37.50688],[126.68584,37.50689],[126.68569,37.50689],[126.68559,37.5069],[126.68545,37.5069],[126.68525,37.50691],[126.68504,37.50692],[126.68493,37.50693],[126.68487,37.50693],[126.6848,37.50693],[126.68476,37.50693],[126.68467,37.50694],[126.68457,37.50695],[126.68451,37.50695],[126.68438,37.50697],[126.68434,37.50699],[126.68422,37.50702],[126.68409,37.50703],[126.68393,37.50706],[126.68379,37.50707],[126.68371,37.50708],[126.68369,37.50708],[126.68362,37.50707],[126.68355,37.50707],[126.6835,37.50707],[126.68346,37.50707],[126.68343,37.50707],[126.68339,37.50707],[126.68336,37.50708],[126.68329,37.5071],[126.68324,37.50712],[126.68321,37.50712],[126.68315,37.50712],[126.68307,37.50711],[126.68288,37.50711],[126.68277,37.50711],[126.68273,37.50711],[126.68269,37.50711],[126.68265,37.50712],[126.68261,37.50713],[126.68255,37.50715],[126.68247,37.50719],[126.6824,37.50722],[126.68236,37.50723],[126.68234,37.50724],[126.68231,37.50724],[126.6823,37.50724],[126.68228,37.50724],[126.68226,37.50724],[126.68222,37.50724],[126.68218,37.50723],[126.68214,37.50722],[126.68212,37.50722],[126.68208,37.50722],[126.68203,37.50722],[126.68199,37.50723],[126.68191,37.50726],[126.68178,37.50733],[126.68181,37.50736],[126.68193,37.50729],[126.682,37.50727],[126.68204,37.50726]]]}},{"type":"Feature","id":"TN_RIVER_BNDRY:WTR0100000000RKJB","properties":{"NF_ID":"WTR0100000000RKJB","source_layer":"TN_RIVER_BNDRY","semantic":"zone","river_class":"지방하천","river_class_source":"중심선 공간조인","river_name":"심곡천","river_code":"1520300","survey_method":"사진측량","admin_code":"28275"},"geometry":{"type":"Polygon","coordinates":[[[126.63745,37.52386],[126.63735,37.52381],[126.6369,37.52447],[126.63745,37.52386]]]}},{"type":"Feature","id":"TN_RIVER_BNDRY:WTR0100000000RKKC","properties":{"NF_ID":"WTR0100000000RKKC","source_layer":"TN_RIVER_BNDRY","semantic":"zone","river_class":"소하천","river_class_source":"중심선 공간조인","survey_method":"사진측량","admin_code":"28275"},"geometry":{"type":"Polygon","coordinates":[[[126.63699,37.52451],[126.6369,37.52447],[126.63687,37.52452],[126.63678,37.52465],[126.63657,37.52495],[126.63656,37.52495],[126.63653,37.525],[126.63652,37.52503],[126.63645,37.52513],[126.63654,37.52517],[126.63661,37.52507],[126.63666,37.525],[126.63665,37.52499],[126.63673,37.52487],[126.63686,37.52469],[126.63696,37.52456],[126.63699,37.52451]]]}},{"type":"Feature","id":"TN_RIVER_BNDRY:WTR0100000000RKLD","properties":{"NF_ID":"WTR0100000000RKLD","source_layer":"TN_RIVER_BNDRY","semantic":"zone","river_class":"소하천","river_class_source":"중심선 공간조인","survey_method":"사진측량","admin_code":"28275"},"geometry":{"type":"Polygon","coordinates":[[[126.64285,37.53301],[126.64285,37.5329],[126.64261,37.53289],[126.64182,37.53301],[126.63952,37.53299],[126.63838,37.53285],[126.63711,37.533],[126.63617,37.5329],[126.63595,37.53301],[126.64285,37.53301]]]}},{"type":"Feature","id":"TN_RIVER_BNDRY:WTR0100000000RKME","properties":{"NF_ID":"WTR0100000000RKME","source_layer":"TN_RIVER_BNDRY","semantic":"zone","river_class":"소하천","river_class_source":"중심선 공간조인","survey_method":"사진측량","admin_code":"28275"},"geometry":{"type":"Polygon","coordinates":[[[126.64309,37.53294],[126.64285,37.5329],[126.64285,37.53301],[126.64309,37.53294]]]}},{"type":"Feature","id":"TN_RIVER_BNDRY:WTR0100000000RKNF","properties":{"NF_ID":"WTR0100000000RKNF","source_layer":"TN_RIVER_BNDRY","semantic":"zone","river_class":"소하천","river_class_source":"중심선 공간조인","survey_method":"사진측량","admin_code":"28275"},"geometry":{"type":"Polygon","coordinates":[[[126.64322,37.5331],[126.64285,37.53301],[126.64315,37.53323],[126.64322,37.5331]]]}},{"type":"Feature","id":"TN_RIVER_BNDRY:WTR0100000000RKOG","properties":{"NF_ID":"WTR0100000000RKOG","source_layer":"TN_RIVER_BNDRY","semantic":"zone","river_class":"소하천","river_class_source":"중심선 공간조인","survey_method":"사진측량","admin_code":"28275"},"geometry":{"type":"Polygon","coordinates":[[[126.64322,37.53287],[126.64315,37.53275],[126.64285,37.5329],[126.64322,37.53287]]]}},{"type":"Feature","id":"TN_RIVER_BNDRY:WTR0100000000RKPH","properties":{"NF_ID":"WTR0100000000RKPH","source_layer":"TN_RIVER_BNDRY","semantic":"zone","river_class":"소하천","river_class_source":"중심선 공간조인","survey_method":"사진측량","admin_code":"28275"},"geometry":{"type":"Polygon","coordinates":[[[126.64338,37.53287],[126.64333,37.53264],[126.64315,37.53275],[126.64338,37.53287]]]}},{"type":"Feature","id":"TN_RIVER_BNDRY:WTR0100000000RKQI","properties":{"NF_ID":"WTR0100000000RKQI","source_layer":"TN_RIVER_BNDRY","semantic":"zone","river_class":"지방하천","river_class_source":"중심선 공간조인","river_name":"공촌천","river_code":"1520310","survey_method":"사진측량","admin_code":"28275"},"geometry":{"type":"Polygon","coordinates":[[[126.63451,37.54277],[126.63451,37.54235],[126.63427,37.54238],[126.63426,37.54278],[126.63451,37.54277]]]}},{"type":"Feature","id":"TN_RIVER_BNDRY:WTR0100000000RKRJ","properties":{"NF_ID":"WTR0100000000RKRJ","source_layer":"TN_RIVER_BNDRY","semantic":"zone","river_class":"소하천","river_class_source":"중심선 공간조인","survey_method":"사진측량","admin_code":"28275"},"geometry":{"type":"Polygon","coordinates":[[[126.64333,37.53264],[126.64322,37.53234],[126.64272,37.53192],[126.64265,37.53055],[126.64267,37.53194],[126.64323,37.53243],[126.64315,37.53275],[126.64333,37.53264]]]}},{"type":"Feature","id":"TN_RIVER_BNDRY:WTR0100000000RKSK","properties":{"NF_ID":"WTR0100000000RKSK","source_layer":"TN_RIVER_BNDRY","semantic":"zone","river_class":"소하천","river_class_source":"중심선 공간조인","survey_method":"사진측량","admin_code":"28275"},"geometry":{"type":"Polygon","coordinates":[[[126.64374,37.53299],[126.64357,37.53305],[126.64375,37.53309],[126.64374,37.53299]]]}},{"type":"Feature","id":"TN_RIVER_BNDRY:WTR0100000000RKTL","properties":{"NF_ID":"WTR0100000000RKTL","source_layer":"TN_RIVER_BNDRY","semantic":"zone","river_class":"소하천","river_class_source":"중심선 공간조인","survey_method":"사진측량","admin_code":"28275"},"geometry":{"type":"Polygon","coordinates":[[[126.64333,37.53264],[126.64338,37.53287],[126.64374,37.53299],[126.64375,37.53281],[126.64333,37.53264]]]}},{"type":"Feature","id":"TN_RIVER_BNDRY:WTR0100000000RKUM","properties":{"NF_ID":"WTR0100000000RKUM","source_layer":"TN_RIVER_BNDRY","semantic":"zone","river_class":"소하천","river_class_source":"중심선 공간조인","survey_method":"사진측량","admin_code":"28275"},"geometry":{"type":"Polygon","coordinates":[[[126.64333,37.53333],[126.64315,37.53323],[126.64322,37.53357],[126.64262,37.53421],[126.64267,37.53541],[126.6427,37.53419],[126.64333,37.53333]]]}},{"type":"Feature","id":"TN_RIVER_BNDRY:WTR0100000000RKVN","properties":{"NF_ID":"WTR0100000000RKVN","source_layer":"TN_RIVER_BNDRY","semantic":"zone","river_class":"소하천","river_class_source":"중심선 공간조인","survey_method":"사진측량","admin_code":"28275"},"geometry":{"type":"Polygon","coordinates":[[[126.64339,37.5331],[126.64315,37.53323],[126.64333,37.53333],[126.64339,37.5331]]]}},{"type":"Feature","id":"TN_RIVER_BNDRY:WTR0100000000RKWO","properties":{"NF_ID":"WTR0100000000RKWO","source_layer":"TN_RIVER_BNDRY","semantic":"zone","river_class":"등급미확인","survey_method":"사진측량","admin_code":"28275"},"geometry":{"type":"Polygon","coordinates":[[[126.63451,37.54235],[126.6344,37.54163],[126.63427,37.54238],[126.63451,37.54235]]]}},{"type":"Feature","id":"TN_RIVER_BNDRY:WTR0100000000RKXP","properties":{"NF_ID":"WTR0100000000RKXP","source_layer":"TN_RIVER_BNDRY","semantic":"zone","river_class":"소하천","river_class_source":"중심선 공간조인","survey_method":"사진측량","admin_code":"28275"},"geometry":{"type":"Polygon","coordinates":[[[126.64375,37.53309],[126.64339,37.5331],[126.64333,37.53333],[126.64375,37.53309]]]}},{"type":"Feature","id":"TN_RIVER_BNDRY:WTR0100000000RL2V","properties":{"NF_ID":"WTR0100000000RL2V","source_layer":"TN_RIVER_BNDRY","semantic":"zone","river_class":"소하천","river_class_source":"중심선 공간조인","survey_method":"사진측량","admin_code":"28275"},"geometry":{"type":"Polygon","coordinates":[[[126.63088,37.5545],[126.63041,37.55431],[126.63035,37.55389],[126.62975,37.55354],[126.62907,37.55356],[126.62924,37.55377],[126.62984,37.55376],[126.63022,37.55398],[126.62991,37.55445],[126.62907,37.5543],[126.62875,37.55405],[126.62842,37.55402],[126.62823,37.55374],[126.62765,37.55364],[126.62798,37.55402],[126.62829,37.55405],[126.62836,37.55428],[126.62902,37.55443],[126.62923,37.55429],[126.631,37.55481],[126.63109,37.5547],[126.63088,37.5545]]]}},{"type":"Feature","id":"TN_RIVER_BNDRY:WTR0100000000RLIB","properties":{"NF_ID":"WTR0100000000RLIB","source_layer":"TN_RIVER_BNDRY","semantic":"zone","river_class":"지방하천","river_class_source":"중심선 공간조인","river_name":"심곡천","river_code":"1520300","survey_method":"사진측량","admin_code":"28275"},"geometry":{"type":"Polygon","coordinates":[[[126.66147,37.52733],[126.66082,37.52728],[126.66079,37.52738],[126.66144,37.52751],[126.66147,37.52733]]]}},{"type":"Feature","id":"TN_RIVER_BNDRY:WTR0100000000RLJC","properties":{"NF_ID":"WTR0100000000RLJC","source_layer":"TN_RIVER_BNDRY","semantic":"zone","river_class":"지방하천","river_class_source":"중심선 공간조인","river_name":"심곡천","river_code":"1520300","survey_method":"사진측량","admin_code":"28275"},"geometry":{"type":"Polygon","coordinates":[[[126.66144,37.52751],[126.66086,37.52742],[126.66126,37.52929],[126.6616,37.53007],[126.66183,37.53251],[126.66028,37.5338],[126.66022,37.53445],[126.6624,37.53631],[126.66266,37.5385],[126.66956,37.54176],[126.66584,37.53988],[126.66593,37.53981],[126.66579,37.53985],[126.66295,37.53843],[126.6626,37.53618],[126.66214,37.5357],[126.66225,37.53563],[126.66064,37.5343],[126.66071,37.53405],[126.66203,37.53301],[126.6623,37.53257],[126.66219,37.53094],[126.66152,37.52841],[126.66144,37.52751]]]}},{"type":"Feature","id":"TN_RIVER_BNDRY:WTR0100000000RLKD","properties":{"NF_ID":"WTR0100000000RLKD","source_layer":"TN_RIVER_BNDRY","semantic":"zone","river_class":"소하천","river_class_source":"중심선 공간조인","survey_method":"사진측량","admin_code":"28275"},"geometry":{"type":"Polygon","coordinates":[[[126.65055,37.546],[126.6505,37.54599],[126.6505,37.54599],[126.6505,37.54603],[126.6505,37.5461],[126.6505,37.54627],[126.65051,37.54627],[126.65052,37.54627],[126.65052,37.54628],[126.65052,37.54628],[126.65053,37.54627],[126.65054,37.54626],[126.65053,37.54612],[126.65054,37.54609],[126.65055,37.546]]]}},{"type":"Feature","id":"TN_RIVER_BNDRY:WTR0100000000RLLE","properties":{"NF_ID":"WTR0100000000RLLE","source_layer":"TN_RIVER_BNDRY","semantic":"zone","river_class":"소하천","river_class_source":"중심선 공간조인","survey_method":"사진측량","admin_code":"28275"},"geometry":{"type":"Polygon","coordinates":[[[126.65489,37.53291],[126.65489,37.5331],[126.65773,37.53313],[126.65876,37.533],[126.66058,37.5332],[126.66086,37.53298],[126.66088,37.53269],[126.66026,37.53266],[126.66023,37.53293],[126.65962,37.533],[126.65869,37.53292],[126.65761,37.53306],[126.65489,37.53291]]]}},{"type":"Feature","id":"TN_RIVER_BNDRY:WTR0100000000RLMF","properties":{"NF_ID":"WTR0100000000RLMF","source_layer":"TN_RIVER_BNDRY","semantic":"zone","river_class":"소하천","river_class_source":"중심선 공간조인","survey_method":"사진측량","admin_code":"28275"},"geometry":{"type":"Polygon","coordinates":[[[126.65549,37.54836],[126.65679,37.54717],[126.65881,37.54639],[126.66083,37.54594],[126.66002,37.54395],[126.66158,37.54355],[126.66264,37.54409],[126.66311,37.54418],[126.66159,37.54353],[126.66,37.54392],[126.66079,37.54593],[126.65882,37.54637],[126.65672,37.54716],[126.65549,37.54836]]]}},{"type":"Feature","id":"TN_RIVER_BNDRY:WTR0100000000RLNG","properties":{"NF_ID":"WTR0100000000RLNG","source_layer":"TN_RIVER_BNDRY","semantic":"zone","river_class":"소하천","river_class_source":"중심선 공간조인","survey_method":"사진측량","admin_code":"28275"},"geometry":{"type":"Polygon","coordinates":[[[126.65489,37.5331],[126.6544,37.53309],[126.65453,37.53325],[126.65441,37.53341],[126.65472,37.53351],[126.65489,37.53492],[126.65489,37.5331]]]}},{"type":"Feature","id":"TN_RIVER_BNDRY:WTR0100000000RLOH","properties":{"NF_ID":"WTR0100000000RLOH","source_layer":"TN_RIVER_BNDRY","semantic":"zone","river_class":"소하천","river_class_source":"중심선 공간조인","survey_method":"사진측량","admin_code":"28275"},"geometry":{"type":"Polygon","coordinates":[[[126.65489,37.53291],[126.65441,37.53288],[126.6544,37.53309],[126.65489,37.5331],[126.65489,37.53291]]]}},{"type":"Feature","id":"TN_RIVER_BNDRY:WTR0100000000RLPI","properties":{"NF_ID":"WTR0100000000RLPI","source_layer":"TN_RIVER_BNDRY","semantic":"zone","river_class":"소하천","river_class_source":"중심선 공간조인","survey_method":"사진측량","admin_code":"28275"},"geometry":{"type":"Polygon","coordinates":[[[126.65441,37.53288],[126.65489,37.53291],[126.6548,37.53204],[126.65496,37.53171],[126.65496,37.53042],[126.65482,37.53044],[126.65493,37.53091],[126.65477,37.53125],[126.6549,37.53162],[126.65479,37.53265],[126.65447,37.53271],[126.65441,37.53288]]]}},{"type":"Feature","id":"TN_RIVER_BNDRY:WTR0100000000RLQJ","properties":{"NF_ID":"WTR0100000000RLQJ","source_layer":"TN_RIVER_BNDRY","semantic":"zone","river_class":"지방하천","river_class_source":"중심선 공간조인","river_name":"공촌천","river_code":"1520310","survey_method":"사진측량","admin_code":"28275"},"geometry":{"type":"Polygon","coordinates":[[[126.65061,37.54573],[126.65054,37.54573],[126.6505,37.54599],[126.65055,37.546],[126.65061,37.54573]]]}},{"type":"Feature","id":"TN_RIVER_BNDRY:WTR0100000000RLRK","properties":{"NF_ID":"WTR0100000000RLRK","source_layer":"TN_RIVER_BNDRY","semantic":"zone","river_class":"소하천","river_class_source":"중심선 공간조인","survey_method":"사진측량","admin_code":"28275"},"geometry":{"type":"Polygon","coordinates":[[[126.66147,37.52733],[126.66144,37.52751],[126.66177,37.5276],[126.66186,37.52809],[126.66204,37.52816],[126.6623,37.5279],[126.66207,37.52761],[126.66221,37.52738],[126.66203,37.52677],[126.66172,37.52701],[126.66166,37.52734],[126.66147,37.52733]]]}},{"type":"Feature","id":"TN_RIVER_BNDRY:WTR0100000000RLTM","properties":{"NF_ID":"WTR0100000000RLTM","source_layer":"TN_RIVER_BNDRY","semantic":"zone","river_class":"소하천","river_class_source":"중심선 공간조인","survey_method":"사진측량","admin_code":"28275"},"geometry":{"type":"Polygon","coordinates":[[[126.67572,37.52964],[126.67589,37.53095],[126.67645,37.53137],[126.67664,37.53264],[126.67652,37.53344],[126.67666,37.53264],[126.67648,37.53136],[126.67592,37.53093],[126.67572,37.52964]]]}},{"type":"Feature","id":"TN_RIVER_BNDRY:WTR0100000000RM93","properties":{"NF_ID":"WTR0100000000RM93","source_layer":"TN_RIVER_BNDRY","semantic":"zone","river_class":"소하천","river_class_source":"중심선 공간조인","survey_method":"사진측량","admin_code":"28275"},"geometry":{"type":"Polygon","coordinates":[[[126.68356,37.50255],[126.68296,37.50191],[126.68179,37.50117],[126.6824,37.50172],[126.68292,37.50193],[126.68353,37.50257],[126.68351,37.50271],[126.68356,37.50255]]]}},{"type":"Feature","id":"TN_RIVER_BNDRY:WTR0100000000RMB5","properties":{"NF_ID":"WTR0100000000RMB5","source_layer":"TN_RIVER_BNDRY","semantic":"zone","river_class":"지방하천","river_class_source":"중심선 공간조인","river_name":"공촌천","river_code":"1520310","survey_method":"사진측량","admin_code":"28275"},"geometry":{"type":"Polygon","coordinates":[[[126.65054,37.54573],[126.64974,37.54553],[126.6497,37.54373],[126.6495,37.54308],[126.64898,37.54274],[126.64819,37.54258],[126.64815,37.54245],[126.63451,37.54235],[126.63451,37.54277],[126.63571,37.54282],[126.64815,37.54281],[126.64892,37.54307],[126.64917,37.54331],[126.64936,37.54575],[126.64982,37.54597],[126.64982,37.54587],[126.6505,37.54599],[126.65054,37.54573]]]}},{"type":"Feature","id":"TN_RIVER_BNDRY:WTR0100000000RMGA","properties":{"NF_ID":"WTR0100000000RMGA","source_layer":"TN_RIVER_BNDRY","semantic":"zone","river_class":"소하천","river_class_source":"중심선 공간조인","survey_method":"사진측량","admin_code":"28275"},"geometry":{"type":"Polygon","coordinates":[[[126.62573,37.53288],[126.62631,37.53295],[126.62639,37.53271],[126.62622,37.53265],[126.62622,37.53243],[126.62599,37.53257],[126.62582,37.53242],[126.62573,37.53288]]]}},{"type":"Feature","id":"TN_RIVER_BNDRY:WTR0100000000RMHB","properties":{"NF_ID":"WTR0100000000RMHB","source_layer":"TN_RIVER_BNDRY","semantic":"zone","river_class":"소하천","river_class_source":"중심선 공간조인","survey_method":"사진측량","admin_code":"28275"},"geometry":{"type":"Polygon","coordinates":[[[126.62631,37.53295],[126.62628,37.53308],[126.62768,37.53294],[126.62892,37.53306],[126.62985,37.53293],[126.63129,37.53304],[126.63264,37.53291],[126.62631,37.53295]]]}},{"type":"Feature","id":"TN_RIVER_BNDRY:WTR0100000000RMIC","properties":{"NF_ID":"WTR0100000000RMIC","source_layer":"TN_RIVER_BNDRY","semantic":"zone","river_class":"소하천","river_class_source":"중심선 공간조인","survey_method":"사진측량","admin_code":"28275"},"geometry":{"type":"Polygon","coordinates":[[[126.62631,37.53295],[126.62573,37.53288],[126.62571,37.53299],[126.62628,37.53308],[126.62631,37.53295]]]}},{"type":"Feature","id":"TN_RIVER_BNDRY:WTR0100000000RMJD","properties":{"NF_ID":"WTR0100000000RMJD","source_layer":"TN_RIVER_BNDRY","semantic":"zone","river_class":"소하천","river_class_source":"중심선 공간조인","survey_method":"사진측량","admin_code":"28275"},"geometry":{"type":"Polygon","coordinates":[[[126.62628,37.53308],[126.62571,37.53299],[126.62577,37.53395],[126.62588,37.53338],[126.62629,37.53326],[126.62628,37.53308]]]}},{"type":"Feature","id":"TN_RIVER_BNDRY:WTR0100000000RMNH","properties":{"NF_ID":"WTR0100000000RMNH","source_layer":"TN_RIVER_BNDRY","semantic":"zone","river_class":"소하천","river_class_source":"중심선 공간조인","survey_method":"사진측량","admin_code":"28275"},"geometry":{"type":"Polygon","coordinates":[[[126.62571,37.53299],[126.62573,37.53288],[126.62523,37.53281],[126.6205,37.53288],[126.62038,37.53287],[126.62047,37.53265],[126.61901,37.53264],[126.61901,37.53283],[126.61929,37.5329],[126.61901,37.53298],[126.61903,37.53318],[126.62047,37.53319],[126.62038,37.53295],[126.62571,37.53299]]]}},{"type":"Feature","id":"TN_RIVER_BNDRY:WTR0100000000RMOI","properties":{"NF_ID":"WTR0100000000RMOI","source_layer":"TN_RIVER_BNDRY","semantic":"zone","river_class":"지방하천","river_class_source":"중심선 공간조인","river_name":"공촌천","river_code":"1520310","survey_method":"사진측량","admin_code":"28275"},"geometry":{"type":"Polygon","coordinates":[[[126.63426,37.54278],[126.63427,37.54238],[126.62096,37.54238],[126.61957,37.54199],[126.61722,37.54073],[126.61426,37.54053],[126.61404,37.53974],[126.61236,37.53973],[126.6123,37.54062],[126.61126,37.54078],[126.61107,37.53958],[126.60719,37.53952],[126.60651,37.53931],[126.60569,37.53882],[126.60511,37.53894],[126.60511,37.53917],[126.60554,37.53921],[126.60604,37.54438],[126.60647,37.5446],[126.60806,37.54434],[126.61105,37.54286],[126.61305,37.54233],[126.61319,37.54241],[126.61532,37.54216],[126.61975,37.54266],[126.61975,37.54239],[126.61987,37.54238],[126.61995,37.54255],[126.62036,37.54265],[126.62211,37.54281],[126.62391,37.54269],[126.62952,37.54269],[126.63114,37.54284],[126.63151,37.54272],[126.63426,37.54278]]]}},{"type":"Feature","id":"TN_RIVER_BNDRY:WTR0100000000RMPJ","properties":{"NF_ID":"WTR0100000000RMPJ","source_layer":"TN_RIVER_BNDRY","semantic":"zone","river_class":"지방하천","river_class_source":"중심선 공간조인","river_name":"심곡천","river_code":"1520300","survey_method":"사진측량","admin_code":"28275"},"geometry":{"type":"Polygon","coordinates":[[[126.63735,37.52381],[126.625,37.51834],[126.62305,37.51766],[126.62158,37.51732],[126.62011,37.51714],[126.62008,37.51762],[126.61978,37.5178],[126.61645,37.51805],[126.61323,37.51947],[126.61447,37.52036],[126.61526,37.51963],[126.61629,37.51928],[126.62225,37.51923],[126.62271,37.51904],[126.62353,37.51906],[126.62353,37.51922],[126.62378,37.51908],[126.62469,37.51916],[126.62597,37.51949],[126.62969,37.52125],[126.62999,37.5212],[126.6369,37.52447],[126.63735,37.52381]]]}},{"type":"Feature","id":"TN_RIVER_BNDRY:WTR0100000000RP63","properties":{"NF_ID":"WTR0100000000RP63","source_layer":"TN_RIVER_BNDRY","semantic":"zone","river_class":"소하천","river_class_source":"중심선 공간조인","survey_method":"사진측량","admin_code":"28275"},"geometry":{"type":"Polygon","coordinates":[[[126.6544,37.53309],[126.65441,37.53288],[126.65112,37.53299],[126.6544,37.53309]]]}},{"type":"Feature","id":"TN_RIVER_BNDRY:WTR0100000000RP74","properties":{"NF_ID":"WTR0100000000RP74","source_layer":"TN_RIVER_BNDRY","semantic":"zone","river_class":"소하천","river_class_source":"중심선 공간조인","survey_method":"사진측량","admin_code":"28275"},"geometry":{"type":"Polygon","coordinates":[[[126.64374,37.53299],[126.64375,37.53309],[126.6451,37.53299],[126.64635,37.5331],[126.64745,37.53297],[126.64805,37.53306],[126.64808,37.53297],[126.64374,37.53299]]]}},{"type":"Feature","id":"TN_RIVER_BNDRY:WTR0100000000RPXU","properties":{"NF_ID":"WTR0100000000RPXU","source_layer":"TN_RIVER_BNDRY","semantic":"zone","river_class":"소하천","river_class_source":"중심선 공간조인","survey_method":"사진측량","admin_code":"28275"},"geometry":{"type":"Polygon","coordinates":[[[126.68789,37.50139],[126.68813,37.5013],[126.68774,37.50129],[126.6876,37.50055],[126.68721,37.5],[126.68758,37.50062],[126.68767,37.50123],[126.68789,37.50139]]]}}]}