{"type":"FeatureCollection","features":[{"type":"Feature","id":"TN_RIVER_BNDRY:WTR0100000000QDTD","properties":{"NF_ID":"WTR0100000000QDTD","source_layer":"TN_RIVER_BNDRY","semantic":"zone","river_class":"소하천","river_class_source":"중심선 공간조인","river_name":"동부간선수로","survey_method":"사진측량","admin_code":"28245"},"geometry":{"type":"MultiPolygon","coordinates":[[[[126.77575,37.56535],[126.7759,37.56523],[126.77594,37.56521],[126.776,37.56513],[126.77601,37.56508],[126.77588,37.56518],[126.77567,37.56535],[126.77575,37.56535]]],[[[126.79077,37.58017],[126.79079,37.57999],[126.7774,37.5762],[126.77615,37.57535],[126.7706,37.57088],[126.77034,37.57041],[126.77051,37.56981],[126.7751,37.56616],[126.77513,37.56588],[126.77558,37.56559],[126.77549,37.56549],[126.77024,37.56969],[126.77001,37.57034],[126.77032,37.57099],[126.77714,37.57638],[126.79077,37.58017]]],[[[126.79344,37.58085],[126.7934,37.58071],[126.79208,37.58034],[126.79195,37.58057],[126.79348,37.58099],[126.79344,37.58085]]]]}},{"type":"Feature","id":"TN_RIVER_BNDRY:WTR0100000000QDVF","properties":{"NF_ID":"WTR0100000000QDVF","source_layer":"TN_RIVER_BNDRY","semantic":"zone","river_class":"소하천","river_class_source":"중심선 공간조인","survey_method":"사진측량","admin_code":"28245"},"geometry":{"type":"Polygon","coordinates":[[[126.75508,37.57359],[126.75494,37.57373],[126.75562,37.57372],[126.75508,37.57359]]]}},{"type":"Feature","id":"TN_RIVER_BNDRY:WTR0100000000QDWG","properties":{"NF_ID":"WTR0100000000QDWG","source_layer":"TN_RIVER_BNDRY","semantic":"zone","river_class":"지방하천","river_class_source":"중심선 공간조인","river_name":"굴포천","river_code":"1025640","survey_method":"사진측량","admin_code":"28245"},"geometry":{"type":"Polygon","coordinates":[[[126.76728,37.56884],[126.76627,37.56843],[126.76466,37.57033],[126.76383,37.57101],[126.76189,37.57203],[126.75763,37.57359],[126.75539,37.57396],[126.75884,37.57453],[126.75894,37.57428],[126.76275,37.57279],[126.76458,37.57173],[126.76645,37.57007],[126.76728,37.56884]]]}},{"type":"Feature","id":"TN_RIVER_BNDRY:WTR0100000000QDXH","properties":{"NF_ID":"WTR0100000000QDXH","source_layer":"TN_RIVER_BNDRY","semantic":"zone","river_class":"소하천","river_class_source":"중심선 공간조인","survey_method":"사진측량","admin_code":"28245"},"geometry":{"type":"Polygon","coordinates":[[[126.78174,37.57167],[126.78072,37.57231],[126.77676,37.57556],[126.78174,37.57167]]]}},{"type":"Feature","id":"TN_RIVER_BNDRY:WTR0100000000QEBW","properties":{"NF_ID":"WTR0100000000QEBW","source_layer":"TN_RIVER_BNDRY","semantic":"zone","river_class":"소하천","river_class_source":"중심선 공간조인","survey_method":"사진측량","admin_code":"28245"},"geometry":{"type":"Polygon","coordinates":[[[126.78158,37.58391],[126.78185,37.58366],[126.78424,37.57907],[126.78459,37.57869],[126.78423,37.57865],[126.78158,37.58391]]]}},{"type":"Feature","id":"TN_RIVER_BNDRY:WTR0100000000QECX","properties":{"NF_ID":"WTR0100000000QECX","source_layer":"TN_RIVER_BNDRY","semantic":"zone","river_class":"소하천","river_class_source":"중심선 공간조인","survey_method":"사진측량","admin_code":"28245"},"geometry":{"type":"Polygon","coordinates":[[[126.75056,37.5518],[126.75059,37.55179],[126.75052,37.55171],[126.75034,37.55196],[126.75034,37.55199],[126.75034,37.552],[126.7503,37.55201],[126.75036,37.55207],[126.75056,37.5518]]]}},{"type":"Feature","id":"TN_RIVER_BNDRY:WTR0100000000QEDY","properties":{"NF_ID":"WTR0100000000QEDY","source_layer":"TN_RIVER_BNDRY","semantic":"zone","river_class":"소하천","river_class_source":"중심선 공간조인","survey_method":"사진측량","admin_code":"28245"},"geometry":{"type":"Polygon","coordinates":[[[126.75691,37.54981],[126.75685,37.54971],[126.75294,37.55087],[126.75052,37.55171],[126.75059,37.55179],[126.7512,37.55146],[126.75691,37.54981]]]}},{"type":"Feature","id":"TN_RIVER_BNDRY:WTR0100000000QEEZ","properties":{"NF_ID":"WTR0100000000QEEZ","source_layer":"TN_RIVER_BNDRY","semantic":"zone","river_class":"지방하천","river_class_source":"중심선 공간조인","river_name":"계산천","river_code":"1025660","survey_method":"사진측량","admin_code":"28245"},"geometry":{"type":"Polygon","coordinates":[[[126.7516,37.53782],[126.75154,37.53819],[126.75168,37.53821],[126.7516,37.53782]]]}},{"type":"Feature","id":"TN_RIVER_BNDRY:WTR0100000000QEF0","properties":{"NF_ID":"WTR0100000000QEF0","source_layer":"TN_RIVER_BNDRY","semantic":"zone","river_class":"지방하천","river_class_source":"중심선 공간조인","river_name":"계산천","river_code":"1025660","survey_method":"사진측량","admin_code":"28245"},"geometry":{"type":"Polygon","coordinates":[[[126.7601,37.53804],[126.76001,37.53768],[126.7516,37.53782],[126.75168,37.53821],[126.75191,37.53821],[126.7601,37.53804]]]}},{"type":"Feature","id":"TN_RIVER_BNDRY:WTR0100000000QEG1","properties":{"NF_ID":"WTR0100000000QEG1","source_layer":"TN_RIVER_BNDRY","semantic":"zone","river_class":"소하천","river_class_source":"중심선 공간조인","survey_method":"사진측량","admin_code":"28245"},"geometry":{"type":"Polygon","coordinates":[[[126.75168,37.53821],[126.75154,37.53819],[126.75603,37.54788],[126.75168,37.53821]]]}},{"type":"Feature","id":"TN_RIVER_BNDRY:WTR0100000000QI4T","properties":{"NF_ID":"WTR0100000000QI4T","source_layer":"TN_RIVER_BNDRY","semantic":"zone","river_class":"소하천","river_class_source":"중심선 공간조인","survey_method":"사진측량","admin_code":"28245"},"geometry":{"type":"Polygon","coordinates":[[[126.78591,37.57591],[126.7859,37.57591],[126.7859,37.57592],[126.7859,37.57593],[126.78591,37.57594],[126.78592,37.57595],[126.78593,37.57596],[126.78595,37.57596],[126.78596,37.57597],[126.78679,37.57607],[126.78828,37.57625],[126.78829,37.57625],[126.78829,37.57626],[126.78834,37.57625],[126.78832,37.57624],[126.78831,37.57623],[126.7883,37.57623],[126.7868,37.57605],[126.78597,37.57595],[126.78595,37.57593],[126.78594,37.57592],[126.78591,37.57591]]]}},{"type":"Feature","id":"TN_RIVER_BNDRY:WTR0100000000QI5U","properties":{"NF_ID":"WTR0100000000QI5U","source_layer":"TN_RIVER_BNDRY","semantic":"zone","river_class":"소하천","river_class_source":"중심선 공간조인","survey_method":"사진측량","admin_code":"28245"},"geometry":{"type":"Polygon","coordinates":[[[126.78892,37.57604],[126.78838,37.57627],[126.78858,37.5763],[126.78892,37.57604]]]}},{"type":"Feature","id":"TN_RIVER_BNDRY:WTR0100000000QIC1","properties":{"NF_ID":"WTR0100000000QIC1","source_layer":"TN_RIVER_BNDRY","semantic":"zone","river_class":"소하천","river_class_source":"중심선 공간조인","survey_method":"사진측량","admin_code":"28245"},"geometry":{"type":"Polygon","coordinates":[[[126.78707,37.57719],[126.78679,37.57717],[126.7851,37.57825],[126.78525,37.57829],[126.78707,37.57719]]]}},{"type":"Feature","id":"TN_RIVER_BNDRY:WTR0100000000QIG5","properties":{"NF_ID":"WTR0100000000QIG5","source_layer":"TN_RIVER_BNDRY","semantic":"zone","river_class":"소하천","river_class_source":"중심선 공간조인","survey_method":"사진측량","admin_code":"28245"},"geometry":{"type":"Polygon","coordinates":[[[126.76327,37.54794],[126.75695,37.54968],[126.75702,37.5498],[126.76327,37.54794]]]}},{"type":"Feature","id":"TN_RIVER_BNDRY:WTR0100000000QIH6","properties":{"NF_ID":"WTR0100000000QIH6","source_layer":"TN_RIVER_BNDRY","semantic":"zone","river_class":"소하천","river_class_source":"중심선 공간조인","survey_method":"사진측량","admin_code":"28245"},"geometry":{"type":"Polygon","coordinates":[[[126.75702,37.5498],[126.75691,37.54981],[126.75694,37.54982],[126.757,37.54989],[126.75705,37.55],[126.75741,37.55079],[126.75792,37.55186],[126.75826,37.55262],[126.75841,37.55296],[126.75868,37.55354],[126.7587,37.55359],[126.75928,37.55484],[126.75982,37.55599],[126.76029,37.55703],[126.76058,37.55764],[126.76084,37.55818],[126.76107,37.55869],[126.76108,37.5587],[126.76113,37.55869],[126.76113,37.55868],[126.7609,37.55812],[126.76083,37.55798],[126.76073,37.55776],[126.76062,37.55751],[126.76053,37.55731],[126.76043,37.55709],[126.76043,37.55708],[126.7604,37.55704],[126.76039,37.55704],[126.76038,37.55701],[126.7596,37.5553],[126.75955,37.55525],[126.75954,37.55522],[126.75954,37.55518],[126.75953,37.55515],[126.75911,37.55425],[126.75878,37.55354],[126.75874,37.55346],[126.75872,37.55346],[126.75871,37.55343],[126.75872,37.55343],[126.75843,37.55279],[126.75838,37.55268],[126.75797,37.55177],[126.75795,37.55173],[126.75789,37.55164],[126.75787,37.55162],[126.75786,37.55161],[126.75784,37.55153],[126.75783,37.55152],[126.75727,37.55027],[126.75713,37.55],[126.75702,37.5498]]]}},{"type":"Feature","id":"TN_RIVER_BNDRY:WTR0100000000QILA","properties":{"NF_ID":"WTR0100000000QILA","source_layer":"TN_RIVER_BNDRY","semantic":"zone","river_class":"소하천","river_class_source":"중심선 공간조인","survey_method":"사진측량","admin_code":"28245"},"geometry":{"type":"MultiPolygon","coordinates":[[[[126.77549,37.56151],[126.77549,37.5615],[126.77549,37.56149],[126.77521,37.56157],[126.775,37.56163],[126.7744,37.56179],[126.77351,37.56204],[126.77273,37.56226],[126.77196,37.56247],[126.77158,37.56257],[126.77093,37.56275],[126.77029,37.56293],[126.76981,37.56306],[126.76949,37.56315],[126.76932,37.5632],[126.76913,37.56326],[126.76892,37.56333],[126.76888,37.56334],[126.76885,37.56335],[126.76884,37.56335],[126.76879,37.56336],[126.76878,37.56336],[126.76875,37.56336],[126.7687,37.56337],[126.7687,37.56337],[126.76872,37.56344],[126.76891,37.56338],[126.76928,37.56326],[126.76932,37.56325],[126.7695,37.56321],[126.76975,37.56313],[126.77013,37.56303],[126.77071,37.56287],[126.77155,37.56263],[126.77181,37.56256],[126.77231,37.56243],[126.77332,37.56214],[126.77416,37.56191],[126.775,37.56168],[126.77524,37.5616],[126.77549,37.56153],[126.77549,37.56151]]],[[[126.77777,37.56087],[126.77739,37.56098],[126.77689,37.56111],[126.77672,37.56116],[126.77667,37.56121],[126.77691,37.56115],[126.77773,37.56092],[126.77777,37.56087]]]]}},{"type":"Feature","id":"TN_RIVER_BNDRY:WTR0100000000QIMB","properties":{"NF_ID":"WTR0100000000QIMB","source_layer":"TN_RIVER_BNDRY","semantic":"zone","river_class":"지방하천","river_class_source":"중심선 공간조인","river_name":"굴포천","river_code":"1025640","survey_method":"사진측량","admin_code":"28245"},"geometry":{"type":"Polygon","coordinates":[[[126.76608,37.5536],[126.76641,37.55346],[126.76652,37.55312],[126.76595,37.55341],[126.76608,37.5536]]]}},{"type":"Feature","id":"TN_RIVER_BNDRY:WTR0100000000QINC","properties":{"NF_ID":"WTR0100000000QINC","source_layer":"TN_RIVER_BNDRY","semantic":"zone","river_class":"소하천","river_class_source":"중심선 공간조인","survey_method":"사진측량","admin_code":"28245"},"geometry":{"type":"Polygon","coordinates":[[[126.76872,37.56344],[126.7687,37.56337],[126.76864,37.56339],[126.76864,37.56345],[126.76865,37.56345],[126.76871,37.56344],[126.76872,37.56344]]]}},{"type":"Feature","id":"TN_RIVER_BNDRY:WTR0100000000QIOD","properties":{"NF_ID":"WTR0100000000QIOD","source_layer":"TN_RIVER_BNDRY","semantic":"zone","river_class":"지방하천","river_class_source":"중심선 공간조인","river_name":"굴포천","river_code":"1025640","survey_method":"사진측량","admin_code":"28245"},"geometry":{"type":"Polygon","coordinates":[[[126.7678,37.56788],[126.76682,37.56761],[126.76672,37.56778],[126.76775,37.56805],[126.7678,37.56788]]]}},{"type":"Feature","id":"TN_RIVER_BNDRY:WTR0100000000QIPE","properties":{"NF_ID":"WTR0100000000QIPE","source_layer":"TN_RIVER_BNDRY","semantic":"zone","river_class":"지방하천","river_class_source":"중심선 공간조인","river_name":"굴포천","river_code":"1025640","survey_method":"사진측량","admin_code":"28245"},"geometry":{"type":"Polygon","coordinates":[[[126.76842,37.56347],[126.76744,37.56349],[126.76745,37.56359],[126.76842,37.56347]]]}},{"type":"Feature","id":"TN_RIVER_BNDRY:WTR0100000000QIQF","properties":{"NF_ID":"WTR0100000000QIQF","source_layer":"TN_RIVER_BNDRY","semantic":"zone","river_class":"소하천","river_class_source":"중심선 공간조인","survey_method":"사진측량","admin_code":"28245"},"geometry":{"type":"Polygon","coordinates":[[[126.7687,37.56337],[126.76849,37.56145],[126.76948,37.56119],[126.76952,37.56215],[126.76955,37.56112],[126.76843,37.56144],[126.7687,37.56337]]]}},{"type":"Feature","id":"TN_RIVER_BNDRY:WTR0100000000QIRG","properties":{"NF_ID":"WTR0100000000QIRG","source_layer":"TN_RIVER_BNDRY","semantic":"zone","river_class":"소하천","river_class_source":"중심선 공간조인","survey_method":"사진측량","admin_code":"28245"},"geometry":{"type":"Polygon","coordinates":[[[126.76864,37.56345],[126.76864,37.56339],[126.76862,37.5634],[126.76842,37.56342],[126.76841,37.56342],[126.76841,37.56342],[126.76841,37.56342],[126.76842,37.56347],[126.76861,37.56344],[126.76861,37.56344],[126.76862,37.56345],[126.76863,37.56345],[126.76864,37.56345]]]}},{"type":"Feature","id":"TN_RIVER_BNDRY:WTR0100000000QISH","properties":{"NF_ID":"WTR0100000000QISH","source_layer":"TN_RIVER_BNDRY","semantic":"zone","river_class":"지방하천","river_class_source":"중심선 공간조인","river_name":"굴포천","river_code":"1025640","survey_method":"사진측량","admin_code":"28245"},"geometry":{"type":"MultiPolygon","coordinates":[[[[126.76666,37.55658],[126.76675,37.55639],[126.76661,37.55626],[126.76666,37.55658]]],[[[126.76774,37.5567],[126.76724,37.55663],[126.76668,37.55694],[126.76744,37.56349],[126.76841,37.56342],[126.76774,37.5567]]]]}},{"type":"Feature","id":"TN_RIVER_BNDRY:WTR0100000000QITI","properties":{"NF_ID":"WTR0100000000QITI","source_layer":"TN_RIVER_BNDRY","semantic":"zone","river_class":"지방하천","river_class_source":"중심선 공간조인","river_name":"굴포천","river_code":"1025640","survey_method":"사진측량","admin_code":"28245"},"geometry":{"type":"Polygon","coordinates":[[[126.76842,37.56347],[126.76745,37.56359],[126.76751,37.56553],[126.76682,37.56761],[126.7678,37.56788],[126.76825,37.5668],[126.76856,37.56538],[126.76842,37.56347]]]}},{"type":"Feature","id":"TN_RIVER_BNDRY:WTR0100000000QIUJ","properties":{"NF_ID":"WTR0100000000QIUJ","source_layer":"TN_RIVER_BNDRY","semantic":"zone","river_class":"지방하천","river_class_source":"중심선 공간조인","river_name":"굴포천","river_code":"1025640","survey_method":"사진측량","admin_code":"28245"},"geometry":{"type":"Polygon","coordinates":[[[126.76733,37.56875],[126.76637,37.56841],[126.76728,37.56884],[126.76733,37.56875]]]}},{"type":"Feature","id":"TN_RIVER_BNDRY:WTR0100000000QIVK","properties":{"NF_ID":"WTR0100000000QIVK","source_layer":"TN_RIVER_BNDRY","semantic":"zone","river_class":"지방하천","river_class_source":"중심선 공간조인","river_name":"굴포천","river_code":"1025640","survey_method":"사진측량","admin_code":"28245"},"geometry":{"type":"Polygon","coordinates":[[[126.76775,37.56805],[126.76672,37.56778],[126.76637,37.56841],[126.76733,37.56875],[126.76775,37.56805]]]}},{"type":"Feature","id":"TN_RIVER_BNDRY:WTR0100000000QIWL","properties":{"NF_ID":"WTR0100000000QIWL","source_layer":"TN_RIVER_BNDRY","semantic":"zone","river_class":"소하천","river_class_source":"중심선 공간조인","survey_method":"사진측량","admin_code":"28245"},"geometry":{"type":"Polygon","coordinates":[[[126.75702,37.5498],[126.75695,37.54968],[126.75685,37.54971],[126.75691,37.54981],[126.75702,37.5498]]]}},{"type":"Feature","id":"TN_RIVER_BNDRY:WTR0100000000QIYN","properties":{"NF_ID":"WTR0100000000QIYN","source_layer":"TN_RIVER_BNDRY","semantic":"zone","river_class":"지방하천","river_class_source":"중심선 공간조인","river_name":"굴포천","river_code":"1025640","survey_method":"사진측량","admin_code":"28245"},"geometry":{"type":"MultiPolygon","coordinates":[[[[126.76389,37.54952],[126.76452,37.54906],[126.76389,37.5484],[126.76398,37.54773],[126.76327,37.54794],[126.76389,37.54952]]],[[[126.76438,37.55059],[126.76524,37.55054],[126.76499,37.54989],[126.76403,37.54998],[126.76438,37.55059]]],[[[126.76653,37.55311],[126.76577,37.55264],[126.76555,37.55188],[126.76444,37.55106],[126.76595,37.55341],[126.76653,37.55311]]]]}},{"type":"Feature","id":"TN_RIVER_BNDRY:WTR0100000000QJ0Q","properties":{"NF_ID":"WTR0100000000QJ0Q","source_layer":"TN_RIVER_BNDRY","semantic":"zone","river_class":"지방하천","river_class_source":"중심선 공간조인","river_name":"굴포천","river_code":"1025640","survey_method":"사진측량","admin_code":"28245"},"geometry":{"type":"Polygon","coordinates":[[[126.76096,37.5377],[126.76001,37.53768],[126.7601,37.53804],[126.76102,37.53792],[126.76096,37.5377]]]}},{"type":"Feature","id":"TN_RIVER_BNDRY:WTR0100000000QJ2S","properties":{"NF_ID":"WTR0100000000QJ2S","source_layer":"TN_RIVER_BNDRY","semantic":"zone","river_class":"지방하천","river_class_source":"중심선 공간조인","river_name":"굴포천","river_code":"1025640","survey_method":"사진측량","admin_code":"28245"},"geometry":{"type":"Polygon","coordinates":[[[126.76398,37.54768],[126.76398,37.54768],[126.76396,37.54765],[126.76323,37.54789],[126.76327,37.54794],[126.76398,37.54773],[126.76398,37.54768]]]}},{"type":"Feature","id":"TN_RIVER_BNDRY:WTR0100000000QJ3T","properties":{"NF_ID":"WTR0100000000QJ3T","source_layer":"TN_RIVER_BNDRY","semantic":"zone","river_class":"지방하천","river_class_source":"중심선 공간조인","river_name":"굴포천","river_code":"1025640","survey_method":"사진측량","admin_code":"28245"},"geometry":{"type":"Polygon","coordinates":[[[126.76043,37.53582],[126.76014,37.53541],[126.75986,37.53547],[126.7599,37.53605],[126.76043,37.53582]]]}},{"type":"Feature","id":"TN_RIVER_BNDRY:WTR0100000000QJ4U","properties":{"NF_ID":"WTR0100000000QJ4U","source_layer":"TN_RIVER_BNDRY","semantic":"zone","river_class":"지방하천","river_class_source":"중심선 공간조인","river_name":"굴포천","river_code":"1025640","survey_method":"사진측량","admin_code":"28245"},"geometry":{"type":"MultiPolygon","coordinates":[[[[126.7615,37.5418],[126.76224,37.54126],[126.762,37.54065],[126.76158,37.54057],[126.76178,37.54007],[126.76138,37.53905],[126.76101,37.53913],[126.76072,37.53888],[126.76091,37.53855],[126.76117,37.53848],[126.76102,37.53792],[126.7601,37.53804],[126.7615,37.5418]]],[[[126.76386,37.5475],[126.76339,37.54673],[126.7634,37.54529],[126.76302,37.54489],[126.76325,37.54412],[126.76299,37.54386],[126.76238,37.54367],[126.76244,37.54345],[126.763,37.54326],[126.76256,37.5421],[126.76158,37.54201],[126.76245,37.54442],[126.76323,37.54789],[126.76396,37.54765],[126.76386,37.5475]]]]}},{"type":"Feature","id":"TN_RIVER_BNDRY:WTR0100000000QJ5V","properties":{"NF_ID":"WTR0100000000QJ5V","source_layer":"TN_RIVER_BNDRY","semantic":"zone","river_class":"지방하천","river_class_source":"중심선 공간조인","river_name":"굴포천","river_code":"1025640","survey_method":"사진측량","admin_code":"28245"},"geometry":{"type":"Polygon","coordinates":[[[126.76066,37.53763],[126.76075,37.53713],[126.76057,37.53661],[126.76082,37.53647],[126.76076,37.53599],[126.76065,37.53605],[126.76048,37.53585],[126.7599,37.53605],[126.76001,37.53768],[126.76066,37.53763]]]}},{"type":"Feature","id":"TN_RIVER_BNDRY:WTR0100000000QKXO","properties":{"NF_ID":"WTR0100000000QKXO","source_layer":"TN_RIVER_BNDRY","semantic":"zone","river_class":"지방하천","river_class_source":"중심선 공간조인","river_name":"굴포천","river_code":"1025640","survey_method":"사진측량","admin_code":"28245"},"geometry":{"type":"Polygon","coordinates":[[[126.76014,37.5354],[126.76057,37.53465],[126.7603,37.53388],[126.76045,37.53345],[126.76026,37.53288],[126.7604,37.53139],[126.7602,37.53088],[126.76041,37.53062],[126.76027,37.53023],[126.76022,37.52783],[126.76038,37.52768],[126.76025,37.52704],[126.76039,37.52672],[126.76011,37.52541],[126.76031,37.52408],[126.75965,37.52407],[126.75957,37.52955],[126.75972,37.5332],[126.75986,37.53547],[126.76014,37.5354]]]}},{"type":"Feature","id":"TN_RIVER_BNDRY:WTR0100000000QM92","properties":{"NF_ID":"WTR0100000000QM92","source_layer":"TN_RIVER_BNDRY","semantic":"zone","river_class":"소하천","river_class_source":"중심선 공간조인","survey_method":"사진측량","admin_code":"28245"},"geometry":{"type":"Polygon","coordinates":[[[126.76337,37.5851],[126.76338,37.5851],[126.7634,37.58508],[126.76342,37.58514],[126.76343,37.58516],[126.76348,37.58512],[126.76342,37.58505],[126.76335,37.58508],[126.76337,37.5851]]]}},{"type":"Feature","id":"TN_RIVER_BNDRY:WTR0100000000QMA3","properties":{"NF_ID":"WTR0100000000QMA3","source_layer":"TN_RIVER_BNDRY","semantic":"zone","river_class":"등급미확인","survey_method":"사진측량","admin_code":"28245"},"geometry":{"type":"Polygon","coordinates":[[[126.76342,37.58505],[126.76348,37.58512],[126.76348,37.58512],[126.76348,37.58512],[126.76348,37.58511],[126.76348,37.5851],[126.7635,37.5851],[126.76368,37.585],[126.76368,37.585],[126.76372,37.58498],[126.76379,37.58493],[126.76379,37.58492],[126.76378,37.58491],[126.76376,37.58489],[126.76355,37.585],[126.76348,37.58503],[126.76344,37.58505],[126.76343,37.58505],[126.76343,37.58505],[126.76342,37.58505]]]}},{"type":"Feature","id":"TN_RIVER_BNDRY:WTR0100000000QMB4","properties":{"NF_ID":"WTR0100000000QMB4","source_layer":"TN_RIVER_BNDRY","semantic":"zone","river_class":"소하천","river_class_source":"중심선 공간조인","survey_method":"사진측량","admin_code":"28245"},"geometry":{"type":"Polygon","coordinates":[[[126.76324,37.58499],[126.76342,37.58505],[126.76009,37.5811],[126.76324,37.58499]]]}},{"type":"Feature","id":"TN_RIVER_BNDRY:WTR0100000000QMD6","properties":{"NF_ID":"WTR0100000000QMD6","source_layer":"TN_RIVER_BNDRY","semantic":"zone","river_class":"소하천","river_class_source":"중심선 공간조인","survey_method":"사진측량","admin_code":"28245"},"geometry":{"type":"Polygon","coordinates":[[[126.7719,37.5856],[126.77177,37.58545],[126.77166,37.58532],[126.77143,37.58503],[126.77115,37.5847],[126.77113,37.58471],[126.77141,37.58506],[126.77176,37.58549],[126.77186,37.58562],[126.7719,37.5856]]]}},{"type":"Feature","id":"TN_RIVER_BNDRY:WTR0100000000QME7","properties":{"NF_ID":"WTR0100000000QME7","source_layer":"TN_RIVER_BNDRY","semantic":"zone","river_class":"지방하천","river_class_source":"중심선 공간조인","river_name":"굴포천","river_code":"1025640","survey_method":"사진측량","admin_code":"28245"},"geometry":{"type":"Polygon","coordinates":[[[126.77326,37.57514],[126.77326,37.57514],[126.77322,37.57511],[126.77278,37.57539],[126.77281,37.57543],[126.77326,37.57514]]]}},{"type":"Feature","id":"TN_RIVER_BNDRY:WTR0100000000QMG9","properties":{"NF_ID":"WTR0100000000QMG9","source_layer":"TN_RIVER_BNDRY","semantic":"zone","river_class":"소하천","river_class_source":"중심선 공간조인","survey_method":"사진측량","admin_code":"28245"},"geometry":{"type":"MultiPolygon","coordinates":[[[[126.76716,37.58799],[126.76722,37.58807],[126.76727,37.58814],[126.7673,37.58815],[126.76731,37.58818],[126.76743,37.58834],[126.76752,37.5884],[126.76752,37.58837],[126.76739,37.58819],[126.76721,37.58796],[126.76716,37.58799]]],[[[126.76584,37.58682],[126.76587,37.58687],[126.76595,37.58691],[126.76611,37.58696],[126.7662,37.58698],[126.76583,37.5868],[126.76584,37.58682]]],[[[126.76448,37.58612],[126.76463,37.58625],[126.76466,37.58628],[126.76485,37.58637],[126.7649,37.5864],[126.76498,37.58644],[126.765,37.58645],[126.76517,37.58653],[126.76521,37.58654],[126.76532,37.58656],[126.76547,37.58665],[126.76556,37.58668],[126.76562,37.58669],[126.76549,37.58663],[126.76519,37.58645],[126.765,37.58636],[126.76482,37.58627],[126.76455,37.58612],[126.7644,37.58604],[126.76434,37.58601],[126.76448,37.58612]]],[[[126.76343,37.58517],[126.76392,37.58584],[126.76406,37.58583],[126.76343,37.58517]]]]}},{"type":"Feature","id":"TN_RIVER_BNDRY:WTR0100000000R0DL","properties":{"NF_ID":"WTR0100000000R0DL","source_layer":"TN_RIVER_BNDRY","semantic":"zone","river_class":"소하천","river_class_source":"중심선 공간조인","survey_method":"사진측량","admin_code":"28245"},"geometry":{"type":"Polygon","coordinates":[[[126.77322,37.57511],[126.77326,37.57514],[126.77327,37.57512],[126.77333,37.57508],[126.77335,37.57507],[126.77335,37.57506],[126.77338,37.57501],[126.77338,37.575],[126.77344,37.57493],[126.77346,37.57488],[126.77349,37.57484],[126.7735,37.57482],[126.77351,37.57481],[126.77354,37.57478],[126.77361,37.57474],[126.77369,37.57469],[126.77377,37.57463],[126.77381,37.57459],[126.77383,37.57458],[126.77384,37.57457],[126.77387,37.57456],[126.77388,37.57455],[126.77392,37.57455],[126.77395,37.57453],[126.77397,37.57452],[126.77399,37.57451],[126.774,37.57451],[126.77405,37.57446],[126.77402,37.57443],[126.77396,37.57447],[126.77389,37.57451],[126.77386,37.57453],[126.77381,37.57455],[126.77377,37.57458],[126.77373,37.5746],[126.77369,37.57463],[126.77366,37.57465],[126.77363,37.57468],[126.77359,37.57471],[126.77357,37.57472],[126.77355,37.57473],[126.77353,37.57474],[126.7735,37.57475],[126.77349,37.57476],[126.77346,37.57478],[126.77344,37.57481],[126.77342,37.57483],[126.7734,37.57487],[126.77332,37.575],[126.77331,37.57501],[126.77331,37.57502],[126.77331,37.57503],[126.77331,37.57503],[126.77331,37.57504],[126.7733,37.57506],[126.77324,37.5751],[126.77323,37.57511],[126.77322,37.57511]]]}},{"type":"Feature","id":"TN_RIVER_BNDRY:WTR0100000000R0EM","properties":{"NF_ID":"WTR0100000000R0EM","source_layer":"TN_RIVER_BNDRY","semantic":"zone","river_class":"지방하천","river_class_source":"중심선 공간조인","river_name":"굴포천","river_code":"1025640","survey_method":"사진측량","admin_code":"28245"},"geometry":{"type":"Polygon","coordinates":[[[126.77322,37.57511],[126.77091,37.57194],[126.76994,37.57111],[126.76925,37.57019],[126.76889,37.56811],[126.76816,37.56786],[126.768,37.56797],[126.7678,37.56788],[126.76775,37.56805],[126.76848,37.56855],[126.76836,37.56873],[126.76852,37.56996],[126.76889,37.57099],[126.77023,37.57224],[126.77249,37.57517],[126.77278,37.57539],[126.77322,37.57511]]]}},{"type":"Feature","id":"TN_RIVER_BNDRY:WTR0100000000R0FN","properties":{"NF_ID":"WTR0100000000R0FN","source_layer":"TN_RIVER_BNDRY","semantic":"zone","river_class":"지방하천","river_class_source":"중심선 공간조인","river_name":"굴포천","river_code":"1025640","survey_method":"사진측량","admin_code":"28245"},"geometry":{"type":"Polygon","coordinates":[[[126.75998,37.57498],[126.75884,37.57453],[126.75539,37.57396],[126.75471,37.575],[126.75651,37.57523],[126.75789,37.57562],[126.75998,37.57498]]]}},{"type":"Feature","id":"TN_RIVER_BNDRY:WTR0100000000R0GO","properties":{"NF_ID":"WTR0100000000R0GO","source_layer":"TN_RIVER_BNDRY","semantic":"zone","river_class":"지방하천","river_class_source":"중심선 공간조인","river_name":"굴포천","river_code":"1025640","survey_method":"사진측량","admin_code":"28245"},"geometry":{"type":"Polygon","coordinates":[[[126.77911,37.58447],[126.77954,37.5844],[126.77936,37.58394],[126.77906,37.58373],[126.77916,37.58347],[126.77868,37.58225],[126.77627,37.57926],[126.77597,37.57784],[126.77326,37.57514],[126.77281,37.57543],[126.775,37.57741],[126.77574,37.57947],[126.77764,37.58162],[126.77889,37.5845],[126.77911,37.58447]]]}},{"type":"Feature","id":"TN_RIVER_BNDRY:WTR0100000000R0HP","properties":{"NF_ID":"WTR0100000000R0HP","source_layer":"TN_RIVER_BNDRY","semantic":"zone","river_class":"지방하천","river_class_source":"중심선 공간조인","river_name":"아라천","river_code":"1500321","survey_method":"사진측량","admin_code":"28245"},"geometry":{"type":"Polygon","coordinates":[[[126.77275,37.5851],[126.77446,37.58502],[126.76487,37.57771],[126.76341,37.57678],[126.76349,37.57671],[126.7613,37.57551],[126.75998,37.57498],[126.75789,37.57562],[126.76154,37.57702],[126.76271,37.57765],[126.77259,37.58515],[126.77275,37.5851]]]}},{"type":"Feature","id":"TN_RIVER_BNDRY:WTR0100000000R25F","properties":{"NF_ID":"WTR0100000000R25F","source_layer":"TN_RIVER_BNDRY","semantic":"zone","river_class":"지방하천","river_class_source":"중심선 공간조인","river_name":"계산천","river_code":"1025660","survey_method":"사진측량","admin_code":"28245"},"geometry":{"type":"Polygon","coordinates":[[[126.75151,37.53781],[126.75,37.53777],[126.75,37.53815],[126.75154,37.53819],[126.75151,37.53781]]]}},{"type":"Feature","id":"TN_RIVER_BNDRY:WTR0100000000R27H","properties":{"NF_ID":"WTR0100000000R27H","source_layer":"TN_RIVER_BNDRY","semantic":"zone","river_class":"등급미확인","survey_method":"사진측량","admin_code":"28245"},"geometry":{"type":"Polygon","coordinates":[[[126.75052,37.55171],[126.75,37.55114],[126.75,37.55155],[126.75034,37.55196],[126.75052,37.55171]]]}},{"type":"Feature","id":"TN_RIVER_BNDRY:WTR0100000000R28I","properties":{"NF_ID":"WTR0100000000R28I","source_layer":"TN_RIVER_BNDRY","semantic":"zone","river_class":"소하천","river_class_source":"중심선 공간조인","survey_method":"사진측량","admin_code":"28245"},"geometry":{"type":"Polygon","coordinates":[[[126.75036,37.55207],[126.7503,37.55201],[126.75027,37.55203],[126.75024,37.55205],[126.75021,37.55206],[126.7501,37.55209],[126.75006,37.55209],[126.75,37.5521],[126.75,37.55216],[126.75011,37.55216],[126.75015,37.55216],[126.75019,37.55215],[126.75027,37.55212],[126.75032,37.55209],[126.75036,37.55207]]]}},{"type":"Feature","id":"TN_RIVER_BNDRY:WTR0100000000R2AK","properties":{"NF_ID":"WTR0100000000R2AK","source_layer":"TN_RIVER_BNDRY","semantic":"zone","river_class":"지방하천","river_class_source":"중심선 공간조인","river_name":"귤현천","river_code":"1025670","survey_method":"사진측량","admin_code":"28245"},"geometry":{"type":"Polygon","coordinates":[[[126.76636,37.56845],[126.76589,37.56833],[126.75583,37.5702],[126.75509,37.57091],[126.75394,37.57154],[126.75,37.57153],[126.75,37.57176],[126.7535,37.5718],[126.75491,37.57131],[126.75602,37.57032],[126.75651,37.57014],[126.76537,37.5685],[126.76615,37.56837],[126.76636,37.56845]]]}},{"type":"Feature","id":"TN_RIVER_BNDRY:WTR0100000000R2BL","properties":{"NF_ID":"WTR0100000000R2BL","source_layer":"TN_RIVER_BNDRY","semantic":"zone","river_class":"등급미확인","survey_method":"사진측량","admin_code":"28245"},"geometry":{"type":"Polygon","coordinates":[[[126.75056,37.5518],[126.75036,37.55207],[126.75082,37.55247],[126.75224,37.55486],[126.75264,37.5583],[126.75305,37.55965],[126.75338,37.55995],[126.7558,37.56117],[126.75616,37.56157],[126.75712,37.56369],[126.75569,37.56741],[126.7555,37.56957],[126.75509,37.57037],[126.75437,37.57091],[126.75356,37.57115],[126.75,37.57118],[126.75,37.57147],[126.75328,37.57148],[126.75471,37.57109],[126.75568,37.57016],[126.75589,37.56946],[126.75604,37.56752],[126.75733,37.56384],[126.75629,37.56155],[126.75595,37.56116],[126.75318,37.55963],[126.75247,37.55473],[126.75056,37.5518]]]}},{"type":"Feature","id":"TN_RIVER_BNDRY:WTR0100000000R2CM","properties":{"NF_ID":"WTR0100000000R2CM","source_layer":"TN_RIVER_BNDRY","semantic":"zone","river_class":"소하천","river_class_source":"중심선 공간조인","survey_method":"사진측량","admin_code":"28245"},"geometry":{"type":"Polygon","coordinates":[[[126.75853,37.57304],[126.75949,37.57281],[126.75967,37.57265],[126.75807,37.5718],[126.75695,37.57147],[126.75625,37.57144],[126.75546,37.5716],[126.75421,37.57225],[126.75406,37.57243],[126.75418,37.57255],[126.75356,37.57265],[126.7522,37.57232],[126.75185,37.5718],[126.75,37.5718],[126.75,37.57284],[126.75404,37.57288],[126.75633,37.57306],[126.75669,37.57297],[126.75829,37.57319],[126.75853,37.57304]]]}},{"type":"Feature","id":"TN_RIVER_BNDRY:WTR0100000000R2DN","properties":{"NF_ID":"WTR0100000000R2DN","source_layer":"TN_RIVER_BNDRY","semantic":"zone","river_class":"소하천","river_class_source":"중심선 공간조인","survey_method":"사진측량","admin_code":"28245"},"geometry":{"type":"Polygon","coordinates":[[[126.75487,37.57366],[126.7538,37.57345],[126.75,37.57327],[126.75,37.5734],[126.75349,37.57368],[126.75487,37.57366]]]}},{"type":"Feature","id":"TN_RIVER_BNDRY:WTR0100000000R2EO","properties":{"NF_ID":"WTR0100000000R2EO","source_layer":"TN_RIVER_BNDRY","semantic":"zone","river_class":"지방하천","river_class_source":"중심선 공간조인","river_name":"아라천","river_code":"1500321","survey_method":"사진측량","admin_code":"28245"},"geometry":{"type":"Polygon","coordinates":[[[126.75471,37.575],[126.75539,37.57396],[126.75384,37.57394],[126.75,37.57353],[126.75,37.57464],[126.75471,37.575]]]}},{"type":"Feature","id":"TN_RIVER_BNDRY:WTR0100000000R2FP","properties":{"NF_ID":"WTR0100000000R2FP","source_layer":"TN_RIVER_BNDRY","semantic":"zone","river_class":"소하천","river_class_source":"중심선 공간조인","survey_method":"사진측량","admin_code":"28245"},"geometry":{"type":"MultiPolygon","coordinates":[[[[126.75597,37.58302],[126.75609,37.58344],[126.75716,37.58448],[126.75801,37.58523],[126.7583,37.58514],[126.75597,37.58302]]],[[[126.75565,37.58281],[126.7559,37.58294],[126.75564,37.58268],[126.75565,37.58281]]],[[[126.75426,37.58034],[126.75433,37.58038],[126.75434,37.58037],[126.75436,37.58036],[126.75422,37.58029],[126.75426,37.58034]]],[[[126.7517,37.57961],[126.75382,37.58013],[126.75,37.57893],[126.75,37.57919],[126.7517,37.57961]]]]}},{"type":"Feature","id":"TN_RIVER_BNDRY:WTR0100000000R3KV","properties":{"NF_ID":"WTR0100000000R3KV","source_layer":"TN_RIVER_BNDRY","semantic":"zone","river_class":"소하천","river_class_source":"중심선 공간조인","survey_method":"사진측량","admin_code":"28245"},"geometry":{"type":"Polygon","coordinates":[[[126.70034,37.53246],[126.70033,37.53246],[126.70024,37.5325],[126.70017,37.53255],[126.7,37.5326],[126.69989,37.53264],[126.69988,37.53264],[126.6999,37.53267],[126.6999,37.53266],[126.7,37.53264],[126.70022,37.53258],[126.70033,37.53252],[126.70037,37.53249],[126.70034,37.53246]]]}},{"type":"Feature","id":"TN_RIVER_BNDRY:WTR0100000000R3OZ","properties":{"NF_ID":"WTR0100000000R3OZ","source_layer":"TN_RIVER_BNDRY","semantic":"zone","river_class":"소하천","river_class_source":"중심선 공간조인","survey_method":"사진측량","admin_code":"28245"},"geometry":{"type":"Polygon","coordinates":[[[126.72488,37.59188],[126.72497,37.59188],[126.7247,37.59182],[126.7247,37.59183],[126.72469,37.59185],[126.72488,37.59188]]]}},{"type":"Feature","id":"TN_RIVER_BNDRY:WTR0100000000R48K","properties":{"NF_ID":"WTR0100000000R48K","source_layer":"TN_RIVER_BNDRY","semantic":"zone","river_class":"등급미확인","survey_method":"사진측량","admin_code":"28245"},"geometry":{"type":"Polygon","coordinates":[[[126.74502,37.52421],[126.74502,37.52421],[126.74501,37.52421],[126.745,37.52422],[126.74496,37.52425],[126.74497,37.52425],[126.745,37.52424],[126.74502,37.52422],[126.74502,37.52422],[126.74502,37.52422],[126.74502,37.52421]]]}},{"type":"Feature","id":"TN_RIVER_BNDRY:WTR0100000000R7BQ","properties":{"NF_ID":"WTR0100000000R7BQ","source_layer":"TN_RIVER_BNDRY","semantic":"zone","river_class":"지방하천","river_class_source":"중심선 공간조인","river_name":"귤현천","river_code":"1025670","survey_method":"사진측량","admin_code":"28245"},"geometry":{"type":"Polygon","coordinates":[[[126.74637,37.57474],[126.74617,37.57459],[126.74616,37.57478],[126.74634,37.57625],[126.74317,37.57682],[126.74078,37.57668],[126.73703,37.57542],[126.7316,37.57439],[126.73702,37.57547],[126.74079,37.57672],[126.74323,37.57686],[126.74639,37.57628],[126.74637,37.57474]]]}},{"type":"Feature","id":"TN_RIVER_BNDRY:WTR0100000000R7IX","properties":{"NF_ID":"WTR0100000000R7IX","source_layer":"TN_RIVER_BNDRY","semantic":"zone","river_class":"소하천","river_class_source":"중심선 공간조인","survey_method":"사진측량","admin_code":"28245"},"geometry":{"type":"Polygon","coordinates":[[[126.74235,37.58928],[126.74329,37.58557],[126.74506,37.58582],[126.74327,37.58555],[126.74235,37.58928]]]}},{"type":"Feature","id":"TN_RIVER_BNDRY:WTR0100000000R7O3","properties":{"NF_ID":"WTR0100000000R7O3","source_layer":"TN_RIVER_BNDRY","semantic":"zone","river_class":"소하천","river_class_source":"중심선 공간조인","survey_method":"사진측량","admin_code":"28245"},"geometry":{"type":"Polygon","coordinates":[[[126.74238,37.58929],[126.74235,37.58928],[126.74235,37.58929],[126.74238,37.5893],[126.74238,37.58929]]]}},{"type":"Feature","id":"TN_RIVER_BNDRY:WTR0100000000R7P4","properties":{"NF_ID":"WTR0100000000R7P4","source_layer":"TN_RIVER_BNDRY","semantic":"zone","river_class":"소하천","river_class_source":"중심선 공간조인","survey_method":"사진측량","admin_code":"28245"},"geometry":{"type":"Polygon","coordinates":[[[126.74238,37.5893],[126.74235,37.58929],[126.74232,37.58943],[126.74225,37.58971],[126.74217,37.59003],[126.74209,37.5903],[126.74202,37.59054],[126.74199,37.5906],[126.74202,37.59061],[126.74206,37.59053],[126.74208,37.59047],[126.7421,37.59034],[126.74215,37.59021],[126.7422,37.59001],[126.74225,37.5898],[126.7423,37.58958],[126.74236,37.58935],[126.74238,37.5893]]]}},{"type":"Feature","id":"TN_RIVER_BNDRY:WTR0100000000R7R6","properties":{"NF_ID":"WTR0100000000R7R6","source_layer":"TN_RIVER_BNDRY","semantic":"zone","river_class":"소하천","river_class_source":"중심선 공간조인","survey_method":"사진측량","admin_code":"28245"},"geometry":{"type":"Polygon","coordinates":[[[126.74197,37.5906],[126.73903,37.58844],[126.73717,37.58333],[126.73234,37.58119],[126.73714,37.58335],[126.73901,37.58848],[126.74197,37.5906]]]}},{"type":"Feature","id":"TN_RIVER_BNDRY:WTR0100000000R7U9","properties":{"NF_ID":"WTR0100000000R7U9","source_layer":"TN_RIVER_BNDRY","semantic":"zone","river_class":"소하천","river_class_source":"중심선 공간조인","survey_method":"사진측량","admin_code":"28245"},"geometry":{"type":"Polygon","coordinates":[[[126.74141,37.59301],[126.74141,37.593],[126.74165,37.59207],[126.74169,37.59208],[126.74173,37.59192],[126.74179,37.59167],[126.74187,37.5914],[126.74193,37.59113],[126.74204,37.59074],[126.74202,37.59074],[126.742,37.59074],[126.74199,37.59073],[126.74201,37.59065],[126.74196,37.59064],[126.74197,37.59065],[126.74196,37.59068],[126.74194,37.59075],[126.74193,37.59078],[126.74192,37.59083],[126.74191,37.59087],[126.74187,37.591],[126.74182,37.59119],[126.74175,37.59148],[126.74165,37.59185],[126.74158,37.59214],[126.74149,37.59249],[126.74141,37.5928],[126.74137,37.593],[126.74141,37.59301]]]}},{"type":"Feature","id":"TN_RIVER_BNDRY:WTR0100000000R7VA","properties":{"NF_ID":"WTR0100000000R7VA","source_layer":"TN_RIVER_BNDRY","semantic":"zone","river_class":"소하천","river_class_source":"중심선 공간조인","survey_method":"사진측량","admin_code":"28245"},"geometry":{"type":"Polygon","coordinates":[[[126.74202,37.59061],[126.74199,37.5906],[126.74196,37.59064],[126.74201,37.59065],[126.74201,37.59062],[126.74202,37.59061]]]}},{"type":"Feature","id":"TN_RIVER_BNDRY:WTR0100000000R91I","properties":{"NF_ID":"WTR0100000000R91I","source_layer":"TN_RIVER_BNDRY","semantic":"zone","river_class":"등급미확인","survey_method":"사진측량","admin_code":"28245"},"geometry":{"type":"Polygon","coordinates":[[[126.74062,37.52392],[126.74043,37.52392],[126.74104,37.5257],[126.74293,37.5303],[126.74442,37.53804],[126.74473,37.538],[126.74319,37.53037],[126.74062,37.52392]]]}},{"type":"Feature","id":"TN_RIVER_BNDRY:WTR0100000000R92J","properties":{"NF_ID":"WTR0100000000R92J","source_layer":"TN_RIVER_BNDRY","semantic":"zone","river_class":"지방하천","river_class_source":"중심선 공간조인","river_name":"아라천","river_code":"1500321","survey_method":"사진측량","admin_code":"28245"},"geometry":{"type":"Polygon","coordinates":[[[126.7462,37.57309],[126.7425,37.57294],[126.74169,37.57303],[126.74109,37.57286],[126.74106,37.57301],[126.74058,37.573],[126.74057,37.57286],[126.73626,37.57268],[126.73628,37.57422],[126.73675,37.57427],[126.73666,37.57414],[126.73956,37.57438],[126.74403,37.57436],[126.74592,37.57447],[126.74617,37.57459],[126.7462,37.57309]]]}},{"type":"Feature","id":"TN_RIVER_BNDRY:WTR0100000000R93K","properties":{"NF_ID":"WTR0100000000R93K","source_layer":"TN_RIVER_BNDRY","semantic":"zone","river_class":"등급미확인","survey_method":"사진측량","admin_code":"28245"},"geometry":{"type":"Polygon","coordinates":[[[126.74587,37.57206],[126.74629,37.57187],[126.74604,37.57181],[126.74587,37.57206]]]}},{"type":"Feature","id":"TN_RIVER_BNDRY:WTR0100000000R94L","properties":{"NF_ID":"WTR0100000000R94L","source_layer":"TN_RIVER_BNDRY","semantic":"zone","river_class":"지방하천","river_class_source":"중심선 공간조인","river_name":"아라천","river_code":"1500321","survey_method":"사진측량","admin_code":"28245"},"geometry":{"type":"Polygon","coordinates":[[[126.73618,37.57284],[126.73032,37.57253],[126.73002,37.57241],[126.72971,37.57252],[126.72383,37.57215],[126.72146,37.57219],[126.72147,37.5736],[126.7234,37.57367],[126.72451,37.57355],[126.72518,37.57373],[126.72872,37.57396],[126.72927,37.57399],[126.72988,37.5738],[126.73609,37.57421],[126.73618,37.57284]]]}},{"type":"Feature","id":"TN_RIVER_BNDRY:WTR0100000000R95M","properties":{"NF_ID":"WTR0100000000R95M","source_layer":"TN_RIVER_BNDRY","semantic":"zone","river_class":"지방하천","river_class_source":"중심선 공간조인","river_name":"아라천","river_code":"1500321","survey_method":"사진측량","admin_code":"28245"},"geometry":{"type":"Polygon","coordinates":[[[126.72142,37.57219],[126.71351,37.5717],[126.714,37.57332],[126.71643,37.57328],[126.7212,37.57359],[126.72142,37.57219]]]}},{"type":"Feature","id":"TN_RIVER_BNDRY:WTR0100000000R96N","properties":{"NF_ID":"WTR0100000000R96N","source_layer":"TN_RIVER_BNDRY","semantic":"zone","river_class":"등급미확인","survey_method":"사진측량","admin_code":"28245"},"geometry":{"type":"Polygon","coordinates":[[[126.71765,37.57408],[126.71745,37.57375],[126.71669,37.57365],[126.71138,37.57347],[126.70999,37.57358],[126.71139,37.57348],[126.71662,37.57366],[126.71745,37.57376],[126.71765,37.57408]]]}},{"type":"Feature","id":"TN_RIVER_BNDRY:WTR0100000000R97O","properties":{"NF_ID":"WTR0100000000R97O","source_layer":"TN_RIVER_BNDRY","semantic":"zone","river_class":"등급미확인","survey_method":"사진측량","admin_code":"28245"},"geometry":{"type":"Polygon","coordinates":[[[126.74584,37.5721],[126.74483,37.57197],[126.74207,37.57238],[126.74173,37.57254],[126.74481,37.57204],[126.74584,37.5721]]]}},{"type":"Feature","id":"TN_RIVER_BNDRY:WTR0100000000R98P","properties":{"NF_ID":"WTR0100000000R98P","source_layer":"TN_RIVER_BNDRY","semantic":"zone","river_class":"등급미확인","survey_method":"사진측량","admin_code":"28245"},"geometry":{"type":"Polygon","coordinates":[[[126.72006,37.57052],[126.71968,37.57075],[126.7197,37.57094],[126.71969,37.57077],[126.72006,37.57052]]]}},{"type":"Feature","id":"TN_RIVER_BNDRY:WTR0100000000R99Q","properties":{"NF_ID":"WTR0100000000R99Q","source_layer":"TN_RIVER_BNDRY","semantic":"zone","river_class":"지방하천","river_class_source":"중심선 공간조인","river_name":"계산천","river_code":"1025660","survey_method":"사진측량","admin_code":"28245"},"geometry":{"type":"Polygon","coordinates":[[[126.74478,37.53832],[126.74473,37.538],[126.74442,37.53804],[126.74448,37.53837],[126.74478,37.53832]]]}},{"type":"Feature","id":"TN_RIVER_BNDRY:WTR0100000000R9AR","properties":{"NF_ID":"WTR0100000000R9AR","source_layer":"TN_RIVER_BNDRY","semantic":"zone","river_class":"등급미확인","survey_method":"사진측량","admin_code":"28245"},"geometry":{"type":"Polygon","coordinates":[[[126.73166,37.54853],[126.73171,37.54855],[126.73172,37.54855],[126.73172,37.54855],[126.7318,37.54845],[126.73174,37.54848],[126.73169,37.54851],[126.73167,37.54852],[126.73166,37.54853]]]}},{"type":"Feature","id":"TN_RIVER_BNDRY:WTR0100000000R9BS","properties":{"NF_ID":"WTR0100000000R9BS","source_layer":"TN_RIVER_BNDRY","semantic":"zone","river_class":"등급미확인","survey_method":"사진측량","admin_code":"28245"},"geometry":{"type":"Polygon","coordinates":[[[126.73171,37.54855],[126.73166,37.54853],[126.73162,37.54858],[126.73168,37.5486],[126.73171,37.54855]]]}},{"type":"Feature","id":"TN_RIVER_BNDRY:WTR0100000000R9CT","properties":{"NF_ID":"WTR0100000000R9CT","source_layer":"TN_RIVER_BNDRY","semantic":"zone","river_class":"등급미확인","survey_method":"사진측량","admin_code":"28245"},"geometry":{"type":"Polygon","coordinates":[[[126.73166,37.54853],[126.73161,37.54853],[126.73157,37.54853],[126.73156,37.54854],[126.7316,37.54856],[126.73162,37.54857],[126.73162,37.54858],[126.73166,37.54853]]]}},{"type":"Feature","id":"TN_RIVER_BNDRY:WTR0100000000R9DU","properties":{"NF_ID":"WTR0100000000R9DU","source_layer":"TN_RIVER_BNDRY","semantic":"zone","river_class":"등급미확인","survey_method":"사진측량","admin_code":"28245"},"geometry":{"type":"Polygon","coordinates":[[[126.73168,37.5486],[126.73156,37.54868],[126.73169,37.54919],[126.73168,37.5486]]]}},{"type":"Feature","id":"TN_RIVER_BNDRY:WTR0100000000R9EV","properties":{"NF_ID":"WTR0100000000R9EV","source_layer":"TN_RIVER_BNDRY","semantic":"zone","river_class":"지방하천","river_class_source":"중심선 공간조인","river_name":"아라천","river_code":"1500321","survey_method":"사진측량","admin_code":"28245"},"geometry":{"type":"Polygon","coordinates":[[[126.74652,37.57308],[126.7462,37.57309],[126.74617,37.57459],[126.74637,37.57474],[126.74652,37.57308]]]}},{"type":"Feature","id":"TN_RIVER_BNDRY:WTR0100000000R9FW","properties":{"NF_ID":"WTR0100000000R9FW","source_layer":"TN_RIVER_BNDRY","semantic":"zone","river_class":"등급미확인","survey_method":"사진측량","admin_code":"28245"},"geometry":{"type":"Polygon","coordinates":[[[126.74591,37.57207],[126.74587,37.57206],[126.74584,37.5721],[126.74588,37.57211],[126.7459,37.57209],[126.74591,37.57207]]]}},{"type":"Feature","id":"TN_RIVER_BNDRY:WTR0100000000R9GX","properties":{"NF_ID":"WTR0100000000R9GX","source_layer":"TN_RIVER_BNDRY","semantic":"zone","river_class":"등급미확인","survey_method":"사진측량","admin_code":"28245"},"geometry":{"type":"Polygon","coordinates":[[[126.7486,37.57493],[126.74841,37.57491],[126.74835,37.57491],[126.74834,37.57491],[126.74834,37.57491],[126.74832,37.57491],[126.74811,37.5749],[126.74808,37.57489],[126.74794,37.57488],[126.74793,37.57488],[126.74771,37.57487],[126.74767,37.57487],[126.74763,37.57488],[126.74757,37.57488],[126.74754,37.57488],[126.74751,37.57488],[126.74742,37.57488],[126.74738,37.57488],[126.74735,37.57488],[126.74732,37.57488],[126.7472,37.57487],[126.74713,37.57487],[126.74707,37.57488],[126.74696,37.57488],[126.74693,37.57488],[126.74691,37.57488],[126.74691,37.57489],[126.74704,37.57489],[126.74713,37.57488],[126.74716,37.57488],[126.74747,37.57489],[126.74759,37.57489],[126.74762,37.57489],[126.74768,37.57489],[126.74771,37.57489],[126.74792,37.57489],[126.74793,37.57489],[126.74794,37.5749],[126.74795,37.5749],[126.74798,37.5749],[126.74808,37.57491],[126.7481,37.57491],[126.74829,37.57492],[126.74831,37.57492],[126.74832,37.57492],[126.74848,37.57493],[126.74853,37.57493],[126.74857,37.57493],[126.74859,37.57493],[126.7486,37.57493]]]}},{"type":"Feature","id":"TN_RIVER_BNDRY:WTR0100000000R9HY","properties":{"NF_ID":"WTR0100000000R9HY","source_layer":"TN_RIVER_BNDRY","semantic":"zone","river_class":"등급미확인","survey_method":"사진측량","admin_code":"28245"},"geometry":{"type":"Polygon","coordinates":[[[126.74588,37.57211],[126.74584,37.5721],[126.74584,37.57211],[126.74585,37.57213],[126.74585,37.57218],[126.74585,37.57227],[126.74585,37.5723],[126.74586,37.57239],[126.74586,37.5724],[126.74587,37.5724],[126.74588,37.5724],[126.74588,37.57238],[126.74589,37.57235],[126.74588,37.5723],[126.74588,37.57227],[126.74588,37.57224],[126.74588,37.57218],[126.74588,37.57217],[126.74588,37.57211]]]}},{"type":"Feature","id":"TN_RIVER_BNDRY:WTR0100000000R9IZ","properties":{"NF_ID":"WTR0100000000R9IZ","source_layer":"TN_RIVER_BNDRY","semantic":"zone","river_class":"지방하천","river_class_source":"중심선 공간조인","river_name":"아라천","river_code":"1500321","survey_method":"사진측량","admin_code":"28245"},"geometry":{"type":"Polygon","coordinates":[[[126.73626,37.57268],[126.73609,37.57421],[126.73628,37.57422],[126.73626,37.57268]]]}},{"type":"Feature","id":"TN_RIVER_BNDRY:WTR0100000000R9J0","properties":{"NF_ID":"WTR0100000000R9J0","source_layer":"TN_RIVER_BNDRY","semantic":"zone","river_class":"등급미확인","survey_method":"사진측량","admin_code":"28245"},"geometry":{"type":"Polygon","coordinates":[[[126.73626,37.57268],[126.7362,37.57249],[126.73618,37.57284],[126.73626,37.57268]]]}},{"type":"Feature","id":"TN_RIVER_BNDRY:WTR0100000000R9K1","properties":{"NF_ID":"WTR0100000000R9K1","source_layer":"TN_RIVER_BNDRY","semantic":"zone","river_class":"등급미확인","survey_method":"사진측량","admin_code":"28245"},"geometry":{"type":"Polygon","coordinates":[[[126.73352,37.5711],[126.7335,37.5711],[126.73351,37.57111],[126.73357,37.57116],[126.73362,37.5712],[126.73362,37.57121],[126.73362,37.57122],[126.73366,37.57122],[126.73366,37.57121],[126.73365,37.57121],[126.7336,37.57116],[126.73355,37.57112],[126.73352,37.5711]]]}},{"type":"Feature","id":"TN_RIVER_BNDRY:WTR0100000000R9L2","properties":{"NF_ID":"WTR0100000000R9L2","source_layer":"TN_RIVER_BNDRY","semantic":"zone","river_class":"등급미확인","survey_method":"사진측량","admin_code":"28245"},"geometry":{"type":"Polygon","coordinates":[[[126.73268,37.57124],[126.73268,37.57119],[126.73269,37.57119],[126.73265,37.57083],[126.73264,37.57084],[126.73264,37.57082],[126.73262,37.57082],[126.73262,37.57084],[126.73261,37.57084],[126.73261,37.57085],[126.73261,37.57086],[126.73261,37.57087],[126.73262,37.57091],[126.73262,37.57096],[126.73262,37.57097],[126.73262,37.571],[126.73262,37.57101],[126.73263,37.57102],[126.73263,37.57105],[126.73263,37.57106],[126.73263,37.57107],[126.73263,37.5711],[126.73263,37.57114],[126.73263,37.57116],[126.73263,37.57117],[126.73263,37.57119],[126.73264,37.5712],[126.73261,37.5712],[126.73261,37.57117],[126.73261,37.57114],[126.7326,37.57105],[126.7326,37.57096],[126.7326,37.57085],[126.7326,37.57084],[126.7326,37.57083],[126.73261,37.57078],[126.73261,37.57077],[126.7326,37.57077],[126.73259,37.5708],[126.73258,37.57083],[126.73258,37.57084],[126.73259,37.57091],[126.73259,37.57102],[126.73259,37.57114],[126.7326,37.57121],[126.7326,37.57122],[126.73261,37.57122],[126.73261,37.57121],[126.73264,37.57121],[126.73266,37.57124],[126.73268,37.57124]]]}},{"type":"Feature","id":"TN_RIVER_BNDRY:WTR0100000000R9M3","properties":{"NF_ID":"WTR0100000000R9M3","source_layer":"TN_RIVER_BNDRY","semantic":"zone","river_class":"등급미확인","survey_method":"사진측량","admin_code":"28245"},"geometry":{"type":"Polygon","coordinates":[[[126.72517,37.57119],[126.72517,37.57118],[126.72517,37.57122],[126.72521,37.57122],[126.7252,37.57119],[126.72517,37.57119]]]}},{"type":"Feature","id":"TN_RIVER_BNDRY:WTR0100000000R9N4","properties":{"NF_ID":"WTR0100000000R9N4","source_layer":"TN_RIVER_BNDRY","semantic":"zone","river_class":"등급미확인","survey_method":"사진측량","admin_code":"28245"},"geometry":{"type":"Polygon","coordinates":[[[126.72857,37.5748],[126.72898,37.5746],[126.72831,37.57481],[126.72833,37.57491],[126.72857,37.5748]]]}},{"type":"Feature","id":"TN_RIVER_BNDRY:WTR0100000000R9O5","properties":{"NF_ID":"WTR0100000000R9O5","source_layer":"TN_RIVER_BNDRY","semantic":"zone","river_class":"소하천","river_class_source":"중심선 공간조인","survey_method":"사진측량","admin_code":"28245"},"geometry":{"type":"Polygon","coordinates":[[[126.7201,37.57049],[126.72009,37.57048],[126.72005,37.5705],[126.72006,37.57052],[126.7201,37.57049]]]}},{"type":"Feature","id":"TN_RIVER_BNDRY:WTR0100000000R9P6","properties":{"NF_ID":"WTR0100000000R9P6","source_layer":"TN_RIVER_BNDRY","semantic":"zone","river_class":"소하천","river_class_source":"중심선 공간조인","survey_method":"사진측량","admin_code":"28245"},"geometry":{"type":"Polygon","coordinates":[[[126.7201,37.57049],[126.72037,37.57096],[126.72097,37.57105],[126.72146,37.57169],[126.72146,37.57219],[126.7215,37.57168],[126.72101,37.57105],[126.72042,37.57093],[126.7201,37.57049]]]}},{"type":"Feature","id":"TN_RIVER_BNDRY:WTR0100000000R9Q7","properties":{"NF_ID":"WTR0100000000R9Q7","source_layer":"TN_RIVER_BNDRY","semantic":"zone","river_class":"지방하천","river_class_source":"중심선 공간조인","river_name":"아라천","river_code":"1500321","survey_method":"사진측량","admin_code":"28245"},"geometry":{"type":"Polygon","coordinates":[[[126.72146,37.57219],[126.7212,37.57359],[126.72147,37.5736],[126.72146,37.57219]]]}},{"type":"Feature","id":"TN_RIVER_BNDRY:WTR0100000000R9R8","properties":{"NF_ID":"WTR0100000000R9R8","source_layer":"TN_RIVER_BNDRY","semantic":"zone","river_class":"등급미확인","survey_method":"사진측량","admin_code":"28245"},"geometry":{"type":"Polygon","coordinates":[[[126.72338,37.57031],[126.72331,37.57021],[126.72331,37.57021],[126.72336,37.5703],[126.7234,37.57036],[126.72344,37.57041],[126.72345,37.57043],[126.72347,37.57044],[126.72352,37.57046],[126.7236,37.57049],[126.7236,37.57048],[126.72351,37.57045],[126.72348,37.57044],[126.72346,37.57042],[126.72342,37.57038],[126.72338,37.57031]]]}},{"type":"Feature","id":"TN_RIVER_BNDRY:WTR0100000000R9S9","properties":{"NF_ID":"WTR0100000000R9S9","source_layer":"TN_RIVER_BNDRY","semantic":"zone","river_class":"등급미확인","survey_method":"사진측량","admin_code":"28245"},"geometry":{"type":"Polygon","coordinates":[[[126.72083,37.57002],[126.72179,37.57027],[126.72082,37.57001],[126.72027,37.57037],[126.72083,37.57002]]]}},{"type":"Feature","id":"TN_RIVER_BNDRY:WTR0100000000R9TA","properties":{"NF_ID":"WTR0100000000R9TA","source_layer":"TN_RIVER_BNDRY","semantic":"zone","river_class":"등급미확인","survey_method":"사진측량","admin_code":"28245"},"geometry":{"type":"Polygon","coordinates":[[[126.71767,37.57409],[126.71765,37.57408],[126.71765,37.57409],[126.71765,37.57409],[126.71766,37.57409],[126.71767,37.57409]]]}},{"type":"Feature","id":"TN_RIVER_BNDRY:WTR0100000000R9UB","properties":{"NF_ID":"WTR0100000000R9UB","source_layer":"TN_RIVER_BNDRY","semantic":"zone","river_class":"등급미확인","survey_method":"사진측량","admin_code":"28245"},"geometry":{"type":"Polygon","coordinates":[[[126.71767,37.57409],[126.71766,37.57409],[126.71767,37.5741],[126.71771,37.5741],[126.71772,37.5741],[126.71773,37.5741],[126.71775,37.5741],[126.71776,37.5741],[126.71779,37.5741],[126.71823,37.57409],[126.71837,37.57409],[126.71841,37.57408],[126.71842,37.57408],[126.71844,37.57407],[126.71843,37.57406],[126.71842,37.57406],[126.71841,37.57407],[126.7184,37.57407],[126.7184,37.57408],[126.71838,37.57408],[126.71801,37.57409],[126.71778,37.57409],[126.71775,37.57409],[126.71774,37.5741],[126.71773,37.5741],[126.71772,37.5741],[126.71771,37.5741],[126.71767,37.57409],[126.71767,37.57409]]]}},{"type":"Feature","id":"TN_RIVER_BNDRY:WTR0100000000R9VC","properties":{"NF_ID":"WTR0100000000R9VC","source_layer":"TN_RIVER_BNDRY","semantic":"zone","river_class":"지방하천","river_class_source":"중심선 공간조인","river_name":"아라천","river_code":"1500321","survey_method":"사진측량","admin_code":"28245"},"geometry":{"type":"Polygon","coordinates":[[[126.71351,37.5717],[126.71309,37.57329],[126.714,37.57332],[126.71351,37.5717]]]}},{"type":"Feature","id":"TN_RIVER_BNDRY:WTR0100000000R9WD","properties":{"NF_ID":"WTR0100000000R9WD","source_layer":"TN_RIVER_BNDRY","semantic":"zone","river_class":"등급미확인","survey_method":"사진측량","admin_code":"28245"},"geometry":{"type":"Polygon","coordinates":[[[126.7135,37.5717],[126.71351,37.5717],[126.71344,37.57138],[126.71344,37.57134],[126.71344,37.57129],[126.71346,37.57062],[126.71347,37.5706],[126.71348,37.5706],[126.71348,37.57059],[126.71347,37.57058],[126.71345,37.57057],[126.71344,37.57053],[126.71343,37.57051],[126.71342,37.5705],[126.71342,37.57052],[126.71342,37.57053],[126.71342,37.57057],[126.71341,37.57058],[126.71341,37.57059],[126.71343,37.5706],[126.71344,37.57062],[126.71342,37.57129],[126.71342,37.57138],[126.7135,37.5717]]]}},{"type":"Feature","id":"TN_RIVER_BNDRY:WTR0100000000R9XE","properties":{"NF_ID":"WTR0100000000R9XE","source_layer":"TN_RIVER_BNDRY","semantic":"zone","river_class":"등급미확인","survey_method":"사진측량","admin_code":"28245"},"geometry":{"type":"Polygon","coordinates":[[[126.70436,37.57094],[126.70436,37.57094],[126.70433,37.57087],[126.70433,37.57086],[126.7043,37.57086],[126.70432,37.57094],[126.70432,37.57094],[126.70432,37.57094],[126.70433,37.57094],[126.70436,37.57094],[126.70436,37.57094]]]}},{"type":"Feature","id":"TN_RIVER_BNDRY:WTR0100000000R9YF","properties":{"NF_ID":"WTR0100000000R9YF","source_layer":"TN_RIVER_BNDRY","semantic":"zone","river_class":"등급미확인","survey_method":"사진측량","admin_code":"28245"},"geometry":{"type":"Polygon","coordinates":[[[126.70128,37.57002],[126.70125,37.57001],[126.70124,37.57001],[126.70124,37.57001],[126.70124,37.57002],[126.70123,37.57002],[126.70123,37.57002],[126.70123,37.57002],[126.70123,37.57003],[126.70126,37.57006],[126.70128,37.57002]]]}},{"type":"Feature","id":"TN_RIVER_BNDRY:WTR0100000000R9ZG","properties":{"NF_ID":"WTR0100000000R9ZG","source_layer":"TN_RIVER_BNDRY","semantic":"zone","river_class":"등급미확인","survey_method":"사진측량","admin_code":"28245"},"geometry":{"type":"Polygon","coordinates":[[[126.74933,37.55458],[126.7493,37.55458],[126.74935,37.55464],[126.74936,37.55464],[126.7494,37.55461],[126.74939,37.55459],[126.74938,37.55459],[126.74933,37.55458]]]}},{"type":"Feature","id":"TN_RIVER_BNDRY:WTR0100000000RA0I","properties":{"NF_ID":"WTR0100000000RA0I","source_layer":"TN_RIVER_BNDRY","semantic":"zone","river_class":"등급미확인","survey_method":"사진측량","admin_code":"28245"},"geometry":{"type":"Polygon","coordinates":[[[126.74836,37.5504],[126.74836,37.5504],[126.74836,37.5504],[126.74835,37.5504],[126.74833,37.55041],[126.74832,37.55041],[126.74832,37.55043],[126.74834,37.55045],[126.74834,37.55045],[126.74835,37.55049],[126.74838,37.55062],[126.74839,37.55071],[126.74841,37.55083],[126.74842,37.5509],[126.74842,37.55091],[126.74845,37.55101],[126.74847,37.55109],[126.74848,37.55114],[126.74851,37.55126],[126.74852,37.55129],[126.74852,37.55126],[126.7485,37.55116],[126.7485,37.55113],[126.7485,37.55111],[126.74845,37.55095],[126.74843,37.55084],[126.74842,37.55072],[126.74841,37.55063],[126.74839,37.55055],[126.74837,37.55048],[126.74837,37.55047],[126.74837,37.55045],[126.74837,37.55043],[126.74837,37.55041],[126.74837,37.55041],[126.74836,37.5504]]]}},{"type":"Feature","id":"TN_RIVER_BNDRY:WTR0100000000RA1J","properties":{"NF_ID":"WTR0100000000RA1J","source_layer":"TN_RIVER_BNDRY","semantic":"zone","river_class":"등급미확인","survey_method":"사진측량","admin_code":"28245"},"geometry":{"type":"Polygon","coordinates":[[[126.71994,37.54707],[126.71992,37.54707],[126.71986,37.54716],[126.71978,37.54731],[126.71979,37.54732],[126.71986,37.54723],[126.71993,37.54711],[126.71993,37.5471],[126.71993,37.54709],[126.71994,37.54707]]]}},{"type":"Feature","id":"TN_RIVER_BNDRY:WTR0100000000RA2K","properties":{"NF_ID":"WTR0100000000RA2K","source_layer":"TN_RIVER_BNDRY","semantic":"zone","river_class":"소하천","river_class_source":"중심선 공간조인","survey_method":"사진측량","admin_code":"28245"},"geometry":{"type":"Polygon","coordinates":[[[126.70715,37.57023],[126.70728,37.5697],[126.70708,37.57012],[126.70672,37.57016],[126.70618,37.57006],[126.70592,37.56967],[126.70613,37.57013],[126.70715,37.57023]]]}},{"type":"Feature","id":"TN_RIVER_BNDRY:WTR0100000000RA3L","properties":{"NF_ID":"WTR0100000000RA3L","source_layer":"TN_RIVER_BNDRY","semantic":"zone","river_class":"소하천","river_class_source":"중심선 공간조인","survey_method":"사진측량","admin_code":"28245"},"geometry":{"type":"Polygon","coordinates":[[[126.72009,37.57048],[126.71962,37.56943],[126.71979,37.5702],[126.72009,37.57048]]]}},{"type":"Feature","id":"TN_RIVER_BNDRY:WTR0100000000RA4M","properties":{"NF_ID":"WTR0100000000RA4M","source_layer":"TN_RIVER_BNDRY","semantic":"zone","river_class":"등급미확인","survey_method":"사진측량","admin_code":"28245"},"geometry":{"type":"Polygon","coordinates":[[[126.73515,37.56947],[126.73479,37.57001],[126.73503,37.57011],[126.73481,37.57],[126.73515,37.56947]]]}},{"type":"Feature","id":"TN_RIVER_BNDRY:WTR0100000000RA5N","properties":{"NF_ID":"WTR0100000000RA5N","source_layer":"TN_RIVER_BNDRY","semantic":"zone","river_class":"소하천","river_class_source":"중심선 공간조인","survey_method":"사진측량","admin_code":"28245"},"geometry":{"type":"Polygon","coordinates":[[[126.73228,37.56793],[126.73333,37.56846],[126.73353,37.56928],[126.73489,37.57093],[126.7336,37.56926],[126.73337,37.5684],[126.73228,37.56793]]]}},{"type":"Feature","id":"TN_RIVER_BNDRY:WTR0100000000RA6O","properties":{"NF_ID":"WTR0100000000RA6O","source_layer":"TN_RIVER_BNDRY","semantic":"zone","river_class":"소하천","river_class_source":"중심선 공간조인","survey_method":"사진측량","admin_code":"28245"},"geometry":{"type":"Polygon","coordinates":[[[126.72897,37.55539],[126.73058,37.55522],[126.73147,37.55466],[126.73236,37.55482],[126.73304,37.55465],[126.73436,37.55418],[126.73635,37.55298],[126.73911,37.55272],[126.73996,37.55247],[126.741,37.55156],[126.74183,37.55123],[126.7427,37.55125],[126.74279,37.55208],[126.74357,37.5532],[126.7438,37.55332],[126.74284,37.55206],[126.74273,37.55115],[126.74185,37.55117],[126.74093,37.55152],[126.74019,37.55226],[126.73973,37.55247],[126.73896,37.55267],[126.73637,37.55292],[126.73432,37.55415],[126.73293,37.55462],[126.73237,37.55477],[126.73142,37.55463],[126.73053,37.55518],[126.72996,37.55516],[126.72897,37.55539]]]}},{"type":"Feature","id":"TN_RIVER_BNDRY:WTR0100000000RA7P","properties":{"NF_ID":"WTR0100000000RA7P","source_layer":"TN_RIVER_BNDRY","semantic":"zone","river_class":"등급미확인","survey_method":"사진측량","admin_code":"28245"},"geometry":{"type":"Polygon","coordinates":[[[126.74586,37.55021],[126.74605,37.55035],[126.74633,37.55029],[126.74669,37.55014],[126.74677,37.54982],[126.74666,37.55014],[126.74604,37.5503],[126.74587,37.55017],[126.74505,37.55066],[126.74626,37.55191],[126.74511,37.55067],[126.74586,37.55021]]]}},{"type":"Feature","id":"TN_RIVER_BNDRY:WTR0100000000RA8Q","properties":{"NF_ID":"WTR0100000000RA8Q","source_layer":"TN_RIVER_BNDRY","semantic":"zone","river_class":"소하천","river_class_source":"중심선 공간조인","survey_method":"사진측량","admin_code":"28245"},"geometry":{"type":"Polygon","coordinates":[[[126.72162,37.54798],[126.72158,37.54797],[126.72157,37.54798],[126.72157,37.548],[126.72154,37.54819],[126.72155,37.54821],[126.72148,37.5484],[126.7214,37.54861],[126.7214,37.54862],[126.72141,37.54862],[126.72141,37.54863],[126.72141,37.54864],[126.72141,37.54864],[126.72142,37.54864],[126.72142,37.54864],[126.72142,37.54864],[126.72143,37.54864],[126.72143,37.54864],[126.72143,37.54864],[126.72145,37.54862],[126.72146,37.54859],[126.72151,37.54848],[126.7216,37.54819],[126.72163,37.54799],[126.72162,37.54798]]]}},{"type":"Feature","id":"TN_RIVER_BNDRY:WTR0100000000RA9R","properties":{"NF_ID":"WTR0100000000RA9R","source_layer":"TN_RIVER_BNDRY","semantic":"zone","river_class":"소하천","river_class_source":"중심선 공간조인","survey_method":"사진측량","admin_code":"28245"},"geometry":{"type":"Polygon","coordinates":[[[126.71528,37.54541],[126.71527,37.54539],[126.71525,37.5454],[126.71525,37.54541],[126.71526,37.54544],[126.71527,37.54548],[126.71531,37.54561],[126.71537,37.54577],[126.71538,37.54578],[126.71544,37.54584],[126.71545,37.54585],[126.71546,37.54585],[126.71547,37.54585],[126.71547,37.54584],[126.7154,37.54576],[126.71533,37.5456],[126.71528,37.54541]]]}},{"type":"Feature","id":"TN_RIVER_BNDRY:WTR0100000000RAAS","properties":{"NF_ID":"WTR0100000000RAAS","source_layer":"TN_RIVER_BNDRY","semantic":"zone","river_class":"소하천","river_class_source":"중심선 공간조인","survey_method":"사진측량","admin_code":"28245"},"geometry":{"type":"Polygon","coordinates":[[[126.73223,37.56792],[126.73228,37.56793],[126.73227,37.56789],[126.73232,37.56777],[126.73234,37.56771],[126.73235,37.56767],[126.73236,37.56762],[126.73237,37.56759],[126.73238,37.56758],[126.7324,37.56756],[126.73247,37.56751],[126.73251,37.56747],[126.73254,37.56745],[126.73256,37.56743],[126.73259,37.5674],[126.73261,37.56738],[126.73262,37.56736],[126.73264,37.56731],[126.73265,37.56726],[126.73265,37.56726],[126.73265,37.56726],[126.73265,37.56725],[126.73264,37.56725],[126.73264,37.56726],[126.73263,37.56727],[126.73258,37.56734],[126.73258,37.56736],[126.73256,37.56738],[126.73254,37.5674],[126.73253,37.56741],[126.73246,37.56747],[126.7324,37.56752],[126.73237,37.56754],[126.73235,37.56757],[126.73233,37.5676],[126.73232,37.56761],[126.73232,37.56763],[126.73231,37.56764],[126.73231,37.56766],[126.7323,37.56768],[126.7323,37.56769],[126.73229,37.56774],[126.73228,37.56777],[126.73225,37.56785],[126.73223,37.56792]]]}},{"type":"Feature","id":"TN_RIVER_BNDRY:WTR0100000000RABT","properties":{"NF_ID":"WTR0100000000RABT","source_layer":"TN_RIVER_BNDRY","semantic":"zone","river_class":"소하천","river_class_source":"중심선 공간조인","survey_method":"사진측량","admin_code":"28245"},"geometry":{"type":"Polygon","coordinates":[[[126.73228,37.56793],[126.73223,37.56792],[126.73222,37.56797],[126.73226,37.56799],[126.73228,37.56793]]]}},{"type":"Feature","id":"TN_RIVER_BNDRY:WTR0100000000RACU","properties":{"NF_ID":"WTR0100000000RACU","source_layer":"TN_RIVER_BNDRY","semantic":"zone","river_class":"소하천","river_class_source":"중심선 공간조인","survey_method":"사진측량","admin_code":"28245"},"geometry":{"type":"Polygon","coordinates":[[[126.73223,37.56792],[126.73125,37.56728],[126.73121,37.56678],[126.73019,37.56637],[126.7294,37.56571],[126.72889,37.56573],[126.7285,37.56518],[126.72808,37.56502],[126.72812,37.56467],[126.72767,37.56339],[126.72747,37.56321],[126.72702,37.56332],[126.72651,37.56311],[126.72606,37.56311],[126.72535,37.56235],[126.72398,37.56198],[126.7236,37.56111],[126.7229,37.56081],[126.72247,37.56023],[126.72164,37.55988],[126.72107,37.55944],[126.72237,37.56026],[126.72284,37.56086],[126.72353,37.56114],[126.72397,37.56206],[126.7253,37.56238],[126.72608,37.56317],[126.7265,37.56315],[126.72702,37.56337],[126.72757,37.56334],[126.72807,37.56466],[126.72805,37.56504],[126.72846,37.56519],[126.72885,37.56575],[126.72941,37.56575],[126.73047,37.56658],[126.73107,37.56676],[126.73126,37.56734],[126.73223,37.56792]]]}},{"type":"Feature","id":"TN_RIVER_BNDRY:WTR0100000000RIKA","properties":{"NF_ID":"WTR0100000000RIKA","source_layer":"TN_RIVER_BNDRY","semantic":"zone","river_class":"지방하천","river_class_source":"중심선 공간조인","river_name":"계양천","river_code":"1025690","survey_method":"사진측량","admin_code":"28245"},"geometry":{"type":"Polygon","coordinates":[[[126.71645,37.57978],[126.71681,37.57849],[126.71589,37.57715],[126.7145,37.57674],[126.71333,37.57571],[126.71265,37.57531],[126.71134,37.57511],[126.71027,37.57465],[126.70911,37.57401],[126.70868,37.5735],[126.70913,37.57412],[126.71068,37.57496],[126.71274,37.57543],[126.71442,37.57682],[126.71566,37.57717],[126.71664,37.57843],[126.71645,37.57978]]]}},{"type":"Feature","id":"TN_RIVER_BNDRY:WTR0100000000RILB","properties":{"NF_ID":"WTR0100000000RILB","source_layer":"TN_RIVER_BNDRY","semantic":"zone","river_class":"지방하천","river_class_source":"중심선 공간조인","river_name":"아라천","river_code":"1500321","survey_method":"사진측량","admin_code":"28245"},"geometry":{"type":"Polygon","coordinates":[[[126.70019,37.57122],[126.70042,37.57177],[126.70065,37.57186],[126.69921,37.5723],[126.69921,37.57286],[126.70059,37.57268],[126.70392,37.57292],[126.7093,37.57292],[126.71309,37.57329],[126.7135,37.5717],[126.70167,37.57114],[126.70019,37.57109],[126.70019,37.57122]]]}},{"type":"Feature","id":"TN_RIVER_BNDRY:WTR0100000000RIYO","properties":{"NF_ID":"WTR0100000000RIYO","source_layer":"TN_RIVER_BNDRY","semantic":"zone","river_class":"소하천","river_class_source":"중심선 공간조인","survey_method":"사진측량","admin_code":"28245"},"geometry":{"type":"Polygon","coordinates":[[[126.70409,37.5799],[126.70408,37.5799],[126.704,37.57987],[126.70375,37.57976],[126.70373,37.57976],[126.7037,37.57974],[126.70368,37.57972],[126.70364,37.57965],[126.70362,37.57961],[126.7036,37.57958],[126.70358,37.57957],[126.70354,37.57954],[126.7035,37.57953],[126.70341,37.57952],[126.70337,37.57951],[126.70333,37.5795],[126.7033,37.57948],[126.7032,37.57939],[126.70309,37.57931],[126.70295,37.57924],[126.70291,37.57922],[126.70288,37.57921],[126.70286,37.5792],[126.70284,37.57919],[126.7028,37.57913],[126.70274,37.57908],[126.70263,37.57904],[126.70251,37.57898],[126.7024,37.57892],[126.70236,37.57891],[126.70234,37.5789],[126.70231,37.57889],[126.70231,37.57888],[126.70228,37.57888],[126.70225,37.57889],[126.70225,37.57889],[126.70225,37.57889],[126.70224,37.5789],[126.70224,37.5789],[126.70224,37.5789],[126.70224,37.57891],[126.70225,37.57891],[126.70228,37.57892],[126.70231,37.57892],[126.70235,37.57893],[126.70236,37.57893],[126.70251,37.57901],[126.70267,37.57909],[126.70274,37.57912],[126.70276,37.57913],[126.70277,37.57914],[126.70279,37.57917],[126.70281,37.57921],[126.70283,37.57922],[126.70289,37.57924],[126.70299,37.57929],[126.70312,37.57936],[126.70319,37.57943],[126.70322,37.57945],[126.70325,37.57948],[126.70326,37.5795],[126.70329,37.57952],[126.70333,37.57953],[126.70337,37.57954],[126.70342,37.57954],[126.70351,37.57957],[126.70354,37.57958],[126.70358,37.5796],[126.70359,37.57964],[126.70361,37.57969],[126.70366,37.57974],[126.70374,37.57979],[126.70386,37.57985],[126.70402,37.57991],[126.70407,37.57992],[126.70409,37.5799]]]}},{"type":"Feature","id":"TN_RIVER_BNDRY:WTR0100000000RJ2T","properties":{"NF_ID":"WTR0100000000RJ2T","source_layer":"TN_RIVER_BNDRY","semantic":"zone","river_class":"소하천","river_class_source":"중심선 공간조인","survey_method":"사진측량","admin_code":"28245"},"geometry":{"type":"Polygon","coordinates":[[[126.68292,37.58353],[126.68289,37.58351],[126.68288,37.5835],[126.68289,37.58339],[126.68286,37.58339],[126.68286,37.5834],[126.68285,37.58353],[126.68285,37.58354],[126.68284,37.58354],[126.68292,37.58353]]]}},{"type":"Feature","id":"TN_RIVER_BNDRY:WTR0100000000RJ3U","properties":{"NF_ID":"WTR0100000000RJ3U","source_layer":"TN_RIVER_BNDRY","semantic":"zone","river_class":"소하천","river_class_source":"중심선 공간조인","survey_method":"사진측량","admin_code":"28245"},"geometry":{"type":"Polygon","coordinates":[[[126.68202,37.58368],[126.68214,37.58366],[126.68227,37.58365],[126.6824,37.58364],[126.68242,37.58364],[126.68255,37.58362],[126.68284,37.58359],[126.68284,37.58354],[126.68284,37.58355],[126.68283,37.58355],[126.68282,37.58355],[126.68255,37.58358],[126.68232,37.58361],[126.68201,37.58368],[126.68202,37.58368]]]}},{"type":"Feature","id":"TN_RIVER_BNDRY:WTR0100000000RJ4V","properties":{"NF_ID":"WTR0100000000RJ4V","source_layer":"TN_RIVER_BNDRY","semantic":"zone","river_class":"소하천","river_class_source":"중심선 공간조인","survey_method":"사진측량","admin_code":"28245"},"geometry":{"type":"Polygon","coordinates":[[[126.68292,37.58353],[126.68284,37.58354],[126.68284,37.58359],[126.68293,37.58358],[126.68292,37.58353]]]}},{"type":"Feature","id":"TN_RIVER_BNDRY:WTR0100000000RJ5W","properties":{"NF_ID":"WTR0100000000RJ5W","source_layer":"TN_RIVER_BNDRY","semantic":"zone","river_class":"소하천","river_class_source":"중심선 공간조인","survey_method":"사진측량","admin_code":"28245"},"geometry":{"type":"Polygon","coordinates":[[[126.68293,37.58358],[126.68492,37.58342],[126.68533,37.58326],[126.68585,37.5838],[126.68534,37.58323],[126.68293,37.58358]]]}},{"type":"Feature","id":"TN_RIVER_BNDRY:WTR0100000000RKG8","properties":{"NF_ID":"WTR0100000000RKG8","source_layer":"TN_RIVER_BNDRY","semantic":"zone","river_class":"소하천","river_class_source":"중심선 공간조인","survey_method":"사진측량","admin_code":"28245"},"geometry":{"type":"Polygon","coordinates":[[[126.6915,37.52356],[126.69121,37.52388],[126.6912,37.5239],[126.69115,37.52406],[126.69121,37.52406],[126.69125,37.52393],[126.69126,37.5239],[126.69126,37.52389],[126.69127,37.52388],[126.69159,37.52356],[126.6915,37.52356]]]}},{"type":"Feature","id":"TN_RIVER_BNDRY:WTR0100000000RPEB","properties":{"NF_ID":"WTR0100000000RPEB","source_layer":"TN_RIVER_BNDRY","semantic":"zone","river_class":"등급미확인","survey_method":"사진측량","admin_code":"28245"},"geometry":{"type":"Polygon","coordinates":[[[126.71766,37.57409],[126.71732,37.57459],[126.71777,37.57556],[126.71734,37.57461],[126.71766,37.57409]]]}},{"type":"Feature","id":"TN_RIVER_BNDRY:WTR0100000000RPFC","properties":{"NF_ID":"WTR0100000000RPFC","source_layer":"TN_RIVER_BNDRY","semantic":"zone","river_class":"등급미확인","survey_method":"사진측량","admin_code":"28245"},"geometry":{"type":"Polygon","coordinates":[[[126.7101,37.57486],[126.70922,37.57437],[126.71053,37.57529],[126.7101,37.57486]]]}},{"type":"Feature","id":"TN_RIVER_BNDRY:WTR0100000000RQ20","properties":{"NF_ID":"WTR0100000000RQ20","source_layer":"TN_RIVER_BNDRY","semantic":"zone","river_class":"지방하천","river_class_source":"중심선 공간조인","river_name":"계산천","river_code":"1025660","survey_method":"사진측량","admin_code":"28245"},"geometry":{"type":"Polygon","coordinates":[[[126.74473,37.538],[126.74478,37.53832],[126.74497,37.5382],[126.74501,37.53847],[126.74681,37.53844],[126.75,37.53815],[126.75,37.53777],[126.74726,37.53804],[126.74473,37.538]]]}},{"type":"Feature","id":"TN_RIVER_BNDRY:WTR0100000000RQ31","properties":{"NF_ID":"WTR0100000000RQ31","source_layer":"TN_RIVER_BNDRY","semantic":"zone","river_class":"소하천","river_class_source":"중심선 공간조인","survey_method":"사진측량","admin_code":"28245"},"geometry":{"type":"Polygon","coordinates":[[[126.74478,37.53832],[126.74448,37.53837],[126.74563,37.5454],[126.74613,37.54693],[126.75,37.55155],[126.74996,37.55108],[126.74636,37.54678],[126.74595,37.54556],[126.74478,37.53832]]]}},{"type":"Feature","id":"TN_RIVER_BNDRY:WTR0100000000RQ42","properties":{"NF_ID":"WTR0100000000RQ42","source_layer":"TN_RIVER_BNDRY","semantic":"zone","river_class":"소하천","river_class_source":"중심선 공간조인","survey_method":"사진측량","admin_code":"28245"},"geometry":{"type":"Polygon","coordinates":[[[126.74602,37.55295],[126.74811,37.55243],[126.74901,37.55199],[126.75,37.5521],[126.74901,37.55193],[126.74806,37.55237],[126.74583,37.55293],[126.74467,37.55263],[126.74456,37.55279],[126.74473,37.5527],[126.74602,37.55295]]]}},{"type":"Feature","id":"TN_RIVER_BNDRY:WTR0100000000RQ53","properties":{"NF_ID":"WTR0100000000RQ53","source_layer":"TN_RIVER_BNDRY","semantic":"zone","river_class":"지방하천","river_class_source":"중심선 공간조인","river_name":"귤현천","river_code":"1025670","survey_method":"사진측량","admin_code":"28245"},"geometry":{"type":"Polygon","coordinates":[[[126.74753,37.57212],[126.75,37.57176],[126.75,37.57153],[126.74712,37.57193],[126.74688,37.5721],[126.74753,37.57212]]]}},{"type":"Feature","id":"TN_RIVER_BNDRY:WTR0100000000RQ64","properties":{"NF_ID":"WTR0100000000RQ64","source_layer":"TN_RIVER_BNDRY","semantic":"zone","river_class":"등급미확인","survey_method":"사진측량","admin_code":"28245"},"geometry":{"type":"Polygon","coordinates":[[[126.74611,37.57276],[126.7465,37.57275],[126.7465,37.57234],[126.74696,37.57193],[126.75,37.57147],[126.75,37.57118],[126.74681,37.57168],[126.74622,37.57216],[126.74611,37.57276]]]}},{"type":"Feature","id":"TN_RIVER_BNDRY:WTR0100000000RQ75","properties":{"NF_ID":"WTR0100000000RQ75","source_layer":"TN_RIVER_BNDRY","semantic":"zone","river_class":"지방하천","river_class_source":"중심선 공간조인","river_name":"아라천","river_code":"1500321","survey_method":"사진측량","admin_code":"28245"},"geometry":{"type":"Polygon","coordinates":[[[126.74652,37.57308],[126.74637,37.57474],[126.74769,37.57446],[126.75,37.57464],[126.74992,37.57323],[126.74652,37.57308]]]}},{"type":"Feature","id":"TN_RIVER_BNDRY:WTR0100000000RQ86","properties":{"NF_ID":"WTR0100000000RQ86","source_layer":"TN_RIVER_BNDRY","semantic":"zone","river_class":"소하천","river_class_source":"중심선 공간조인","survey_method":"사진측량","admin_code":"28245"},"geometry":{"type":"Polygon","coordinates":[[[126.74752,37.57729],[126.74705,37.57705],[126.74675,37.57491],[126.74646,37.57489],[126.74643,37.57508],[126.74678,37.57723],[126.74802,37.57787],[126.74929,37.5789],[126.75,37.57919],[126.75,37.57893],[126.74752,37.57729]]]}},{"type":"Feature","id":"TN_RIVER_BNDRY:WTR0100000000RQ97","properties":{"NF_ID":"WTR0100000000RQ97","source_layer":"TN_RIVER_BNDRY","semantic":"zone","river_class":"등급미확인","survey_method":"사진측량","admin_code":"28245"},"geometry":{"type":"Polygon","coordinates":[[[126.74501,37.5897],[126.74501,37.5897],[126.74468,37.58965],[126.74426,37.58958],[126.74389,37.58952],[126.74342,37.58944],[126.74301,37.58938],[126.74254,37.58931],[126.74238,37.58929],[126.74238,37.5893],[126.74253,37.58932],[126.74298,37.5894],[126.74341,37.58947],[126.74388,37.58954],[126.74425,37.58961],[126.74467,37.58967],[126.74501,37.58972],[126.74501,37.5897]]]}}]}