{"type":"FeatureCollection","features":[{"type":"Feature","id":"TN_RIVER_BT:WTR02000000003V7N","properties":{"NF_ID":"WTR02000000003V7N","admin_code":"28720","source_layer":"TN_RIVER_BT","semantic":"channel","river_class":"소하천","river_class_source":"중심선 공간조인","survey_method":"사진측량"},"geometry":{"type":"Polygon","coordinates":[[[126.29532,37.17259],[126.29533,37.17327],[126.29582,37.1737],[126.29537,37.17321],[126.29532,37.17259]]]}},{"type":"Feature","id":"TN_RIVER_BT:WTR02000000003V8O","properties":{"NF_ID":"WTR02000000003V8O","admin_code":"28720","source_layer":"TN_RIVER_BT","semantic":"channel","river_class":"소하천","river_class_source":"중심선 공간조인","survey_method":"사진측량"},"geometry":{"type":"Polygon","coordinates":[[[126.45653,37.22894],[126.45623,37.22847],[126.45635,37.22785],[126.45772,37.22659],[126.4586,37.22657],[126.45768,37.22653],[126.45627,37.22777],[126.4561,37.22837],[126.45653,37.22894]]]}},{"type":"Feature","id":"TN_RIVER_BT:WTR02000000003V9P","properties":{"NF_ID":"WTR02000000003V9P","admin_code":"28720","source_layer":"TN_RIVER_BT","semantic":"channel","river_class":"소하천","river_class_source":"중심선 공간조인","survey_method":"사진측량"},"geometry":{"type":"Polygon","coordinates":[[[126.46604,37.23459],[126.46602,37.23457],[126.466,37.23456],[126.466,37.23456],[126.46597,37.23455],[126.46597,37.23454],[126.46586,37.23451],[126.4658,37.23449],[126.46569,37.23445],[126.46561,37.23443],[126.4656,37.23443],[126.46557,37.23442],[126.46554,37.23441],[126.46551,37.2344],[126.4655,37.2344],[126.46543,37.23437],[126.46537,37.23434],[126.46535,37.23434],[126.46533,37.23433],[126.46532,37.23432],[126.46528,37.23431],[126.46527,37.2343],[126.46524,37.23429],[126.46522,37.23428],[126.46521,37.23428],[126.46521,37.23428],[126.46521,37.23427],[126.4652,37.23426],[126.4652,37.23426],[126.46519,37.23426],[126.46518,37.23426],[126.46517,37.23425],[126.46517,37.23425],[126.46516,37.23424],[126.46516,37.23424],[126.46516,37.23423],[126.46515,37.23422],[126.46515,37.23422],[126.46514,37.23421],[126.46514,37.23421],[126.46512,37.2342],[126.46507,37.23419],[126.46495,37.23414],[126.46481,37.23409],[126.46478,37.23409],[126.46476,37.23409],[126.46475,37.23409],[126.46472,37.2341],[126.46471,37.23411],[126.46471,37.23411],[126.46471,37.23412],[126.46482,37.23417],[126.46508,37.23428],[126.4651,37.23428],[126.46512,37.23429],[126.46522,37.23433],[126.46525,37.23435],[126.46527,37.23436],[126.46532,37.23437],[126.46536,37.23439],[126.46538,37.2344],[126.46541,37.23441],[126.46543,37.23442],[126.4655,37.23445],[126.46552,37.23445],[126.46557,37.23447],[126.46561,37.23449],[126.46566,37.23451],[126.46569,37.23453],[126.46577,37.23456],[126.46578,37.23457],[126.46581,37.23458],[126.46586,37.23461],[126.46586,37.23461],[126.46588,37.23461],[126.46588,37.23461],[126.46589,37.23461],[126.46589,37.23461],[126.46589,37.23461],[126.46589,37.2346],[126.46589,37.2346],[126.46589,37.23458],[126.46589,37.23458],[126.46589,37.23458],[126.4659,37.23457],[126.46591,37.23457],[126.46592,37.23457],[126.46593,37.23457],[126.46594,37.23457],[126.46595,37.23457],[126.46597,37.23458],[126.46598,37.23458],[126.46598,37.23458],[126.46599,37.23459],[126.46601,37.2346],[126.46602,37.23462],[126.46606,37.23465],[126.46607,37.23466],[126.46608,37.23467],[126.46609,37.23467],[126.46611,37.23468],[126.46612,37.23468],[126.46614,37.23469],[126.46619,37.2347],[126.4662,37.2347],[126.46621,37.23471],[126.46622,37.23471],[126.46623,37.23472],[126.46625,37.23474],[126.46626,37.23474],[126.46627,37.23475],[126.46634,37.23477],[126.46636,37.23478],[126.46638,37.23478],[126.46639,37.23479],[126.46639,37.23479],[126.4664,37.23478],[126.4664,37.23478],[126.4664,37.23478],[126.46641,37.23478],[126.46641,37.23477],[126.46641,37.23477],[126.46641,37.23477],[126.46641,37.23476],[126.46641,37.23475],[126.46641,37.23474],[126.4664,37.23474],[126.4664,37.23473],[126.46639,37.23473],[126.46638,37.23472],[126.46634,37.2347],[126.46634,37.2347],[126.46632,37.23469],[126.46631,37.23468],[126.46629,37.23465],[126.46629,37.23465],[126.46628,37.23465],[126.46626,37.23465],[126.46625,37.23464],[126.46622,37.23464],[126.46618,37.23464],[126.46617,37.23463],[126.46613,37.23463],[126.46612,37.23463],[126.46611,37.23462],[126.46609,37.23462],[126.46607,37.23461],[126.46606,37.23461],[126.46605,37.2346],[126.46604,37.2346],[126.46604,37.23459]]]}},{"type":"Feature","id":"TN_RIVER_BT:WTR02000000003VAQ","properties":{"NF_ID":"WTR02000000003VAQ","admin_code":"28720","source_layer":"TN_RIVER_BT","semantic":"channel","river_class":"소하천","river_class_source":"중심선 공간조인","survey_method":"사진측량"},"geometry":{"type":"Polygon","coordinates":[[[126.46643,37.23919],[126.46748,37.23886],[126.46837,37.23817],[126.46847,37.23706],[126.46822,37.23638],[126.46834,37.23808],[126.46679,37.23902],[126.46507,37.23909],[126.4638,37.23847],[126.46379,37.23703],[126.46146,37.23656],[126.46048,37.23572],[126.46028,37.23467],[126.4615,37.23421],[126.46021,37.2346],[126.46026,37.23551],[126.46123,37.2365],[126.46366,37.23708],[126.46364,37.23832],[126.46392,37.23865],[126.4651,37.23915],[126.46643,37.23919]]]}},{"type":"Feature","id":"TN_RIVER_BT:WTR02000000003VBR","properties":{"NF_ID":"WTR02000000003VBR","admin_code":"28720","source_layer":"TN_RIVER_BT","semantic":"channel","river_class":"소하천","river_class_source":"중심선 공간조인","survey_method":"사진측량"},"geometry":{"type":"Polygon","coordinates":[[[126.45152,37.24271],[126.45285,37.24225],[126.45604,37.2406],[126.4577,37.23888],[126.45707,37.23682],[126.45843,37.23437],[126.45858,37.23303],[126.45747,37.2321],[126.45606,37.23153],[126.4546,37.23159],[126.45614,37.23163],[126.45749,37.23222],[126.45845,37.23297],[126.45831,37.2344],[126.45696,37.23681],[126.45761,37.23882],[126.45606,37.24047],[126.45426,37.24148],[126.45158,37.24261],[126.45005,37.24263],[126.45152,37.24271]]]}},{"type":"Feature","id":"TN_RIVER_BT:WTR02000000003VCS","properties":{"NF_ID":"WTR02000000003VCS","admin_code":"28720","source_layer":"TN_RIVER_BT","semantic":"channel","river_class":"소하천","river_class_source":"중심선 공간조인","survey_method":"사진측량"},"geometry":{"type":"Polygon","coordinates":[[[126.45683,37.2425],[126.45708,37.24219],[126.45644,37.24148],[126.45639,37.2409],[126.45637,37.24146],[126.457,37.24245],[126.45595,37.2428],[126.45529,37.24456],[126.45598,37.24282],[126.45683,37.2425]]]}},{"type":"Feature","id":"TN_RIVER_BT:WTR02000000003VDT","properties":{"NF_ID":"WTR02000000003VDT","admin_code":"28720","source_layer":"TN_RIVER_BT","semantic":"channel","river_class":"소하천","river_class_source":"중심선 공간조인","survey_method":"사진측량"},"geometry":{"type":"Polygon","coordinates":[[[126.45534,37.24527],[126.45621,37.24638],[126.45637,37.24789],[126.45626,37.24643],[126.45534,37.24527]]]}},{"type":"Feature","id":"TN_RIVER_BT:WTR02000000003VEU","properties":{"NF_ID":"WTR02000000003VEU","admin_code":"28720","source_layer":"TN_RIVER_BT","semantic":"channel","river_class":"소하천","river_class_source":"중심선 공간조인","survey_method":"사진측량"},"geometry":{"type":"Polygon","coordinates":[[[126.4734,37.2478],[126.47336,37.24778],[126.47337,37.24781],[126.47341,37.24782],[126.47355,37.24787],[126.4736,37.2479],[126.47364,37.24793],[126.47368,37.24797],[126.47373,37.24802],[126.47379,37.2481],[126.47386,37.24817],[126.474,37.2483],[126.47413,37.24841],[126.4743,37.24856],[126.47433,37.2486],[126.47437,37.24865],[126.47441,37.24869],[126.4745,37.2488],[126.47472,37.24902],[126.47486,37.24917],[126.47495,37.24925],[126.475,37.2493],[126.47505,37.24935],[126.47521,37.2495],[126.47532,37.24961],[126.47541,37.2497],[126.47548,37.24976],[126.47551,37.24978],[126.47555,37.2498],[126.47559,37.24983],[126.47575,37.24997],[126.47578,37.25],[126.47582,37.25],[126.47579,37.24997],[126.47577,37.24996],[126.47569,37.24988],[126.47559,37.2498],[126.47557,37.24978],[126.47554,37.24976],[126.47549,37.24972],[126.47544,37.24968],[126.47533,37.24958],[126.47515,37.24941],[126.475,37.24926],[126.47497,37.24923],[126.47497,37.24922],[126.47479,37.24904],[126.47462,37.24888],[126.47448,37.24873],[126.4744,37.24865],[126.47435,37.2486],[126.47431,37.24855],[126.47426,37.2485],[126.47419,37.24843],[126.47411,37.24836],[126.47394,37.24821],[126.47388,37.24816],[126.47382,37.24809],[126.4737,37.24796],[126.47366,37.24792],[126.47363,37.24789],[126.47358,37.24787],[126.47353,37.24785],[126.4734,37.2478]]]}},{"type":"Feature","id":"TN_RIVER_BT:WTR02000000003VFV","properties":{"NF_ID":"WTR02000000003VFV","admin_code":"28720","source_layer":"TN_RIVER_BT","semantic":"channel","river_class":"소하천","river_class_source":"중심선 공간조인","survey_method":"사진측량"},"geometry":{"type":"Polygon","coordinates":[[[126.31466,37.24935],[126.31465,37.24935],[126.31463,37.24935],[126.31455,37.2494],[126.31448,37.24945],[126.31442,37.24953],[126.31439,37.24962],[126.31436,37.24967],[126.31433,37.2497],[126.31432,37.24974],[126.3143,37.24984],[126.31428,37.24998],[126.31428,37.25],[126.31432,37.25],[126.31434,37.24991],[126.31436,37.24977],[126.31438,37.2497],[126.31441,37.24963],[126.31442,37.24959],[126.31447,37.24952],[126.31455,37.24945],[126.31463,37.2494],[126.31468,37.24936],[126.31467,37.24935],[126.31466,37.24935]]]}},{"type":"Feature","id":"TN_RIVER_BT:WTR02000000003VGW","properties":{"NF_ID":"WTR02000000003VGW","admin_code":"28720","source_layer":"TN_RIVER_BT","semantic":"channel","river_class":"소하천","river_class_source":"중심선 공간조인","survey_method":"사진측량"},"geometry":{"type":"Polygon","coordinates":[[[126.14349,37.22262],[126.14352,37.22298],[126.14405,37.22346],[126.14349,37.22262]]]}},{"type":"Feature","id":"TN_RIVER_BT:WTR02000000003VHX","properties":{"NF_ID":"WTR02000000003VHX","admin_code":"28720","source_layer":"TN_RIVER_BT","semantic":"channel","river_class":"소하천","river_class_source":"중심선 공간조인","survey_method":"사진측량"},"geometry":{"type":"Polygon","coordinates":[[[126.13824,37.23271],[126.13766,37.23174],[126.1384,37.23116],[126.13859,37.23067],[126.13904,37.23066],[126.13857,37.23065],[126.13846,37.23106],[126.13764,37.23173],[126.1382,37.23269],[126.13702,37.23247],[126.13569,37.23159],[126.13458,37.23174],[126.13578,37.23164],[126.13706,37.23254],[126.13513,37.23328],[126.13653,37.23263],[126.13724,37.23257],[126.13827,37.23277],[126.1388,37.23319],[126.13997,37.23585],[126.13939,37.23738],[126.13981,37.23824],[126.14007,37.23803],[126.13944,37.23741],[126.14001,37.23583],[126.13891,37.23327],[126.13824,37.23271]]]}},{"type":"Feature","id":"TN_RIVER_BT:WTR02000000003VIY","properties":{"NF_ID":"WTR02000000003VIY","admin_code":"28720","source_layer":"TN_RIVER_BT","semantic":"channel","river_class":"소하천","river_class_source":"중심선 공간조인","survey_method":"사진측량"},"geometry":{"type":"Polygon","coordinates":[[[126.10404,37.23873],[126.10352,37.23877],[126.10285,37.23839],[126.1027,37.23625],[126.10451,37.23726],[126.10501,37.23814],[126.1055,37.23821],[126.10503,37.23812],[126.10451,37.23723],[126.10269,37.23613],[126.10249,37.23389],[126.10723,37.23365],[126.10248,37.23382],[126.09906,37.23198],[126.09926,37.23154],[126.09899,37.23095],[126.09933,37.2308],[126.09828,37.23068],[126.09786,37.23097],[126.09678,37.23082],[126.09667,37.23057],[126.09677,37.23096],[126.0983,37.23167],[126.09857,37.23228],[126.09901,37.23204],[126.09959,37.23237],[126.09899,37.23289],[126.09968,37.23242],[126.10238,37.23387],[126.10283,37.23848],[126.10183,37.23886],[126.10283,37.23855],[126.10286,37.23894],[126.1029,37.2385],[126.10349,37.23878],[126.10403,37.23874],[126.10433,37.23903],[126.10404,37.23873]],[[126.09816,37.23129],[126.09816,37.23129],[126.09816,37.23129],[126.09816,37.23129],[126.09817,37.23129],[126.09817,37.23129],[126.09818,37.23129],[126.09818,37.23129],[126.09819,37.2313],[126.0982,37.2313],[126.0982,37.2313],[126.0982,37.2313],[126.0982,37.23131],[126.0982,37.23131],[126.0982,37.23131],[126.0982,37.23131],[126.0982,37.23131],[126.0982,37.23131],[126.0982,37.23131],[126.0982,37.23132],[126.0982,37.23132],[126.0982,37.23132],[126.09819,37.23132],[126.09819,37.23132],[126.09819,37.23132],[126.09818,37.23132],[126.09818,37.23132],[126.09817,37.23132],[126.09817,37.23132],[126.09817,37.23132],[126.09816,37.23132],[126.09816,37.23131],[126.09816,37.23131],[126.09815,37.23131],[126.09815,37.2313],[126.09815,37.2313],[126.09815,37.2313],[126.09815,37.2313],[126.09815,37.23129],[126.09815,37.23129],[126.09815,37.23129],[126.09815,37.23129],[126.09815,37.23129],[126.09815,37.23129],[126.09815,37.23129],[126.09815,37.23129],[126.09816,37.23129]],[[126.09829,37.23128],[126.09829,37.23128],[126.09829,37.23127],[126.09829,37.23127],[126.09829,37.23127],[126.09828,37.23127],[126.09829,37.23127],[126.09829,37.23126],[126.09829,37.23126],[126.09829,37.23124],[126.0983,37.23124],[126.0983,37.23123],[126.0983,37.23123],[126.0983,37.23123],[126.09831,37.23123],[126.09831,37.23123],[126.09831,37.23123],[126.09832,37.23123],[126.09832,37.23123],[126.09832,37.23123],[126.09832,37.23123],[126.09832,37.23123],[126.09833,37.23123],[126.09833,37.23124],[126.09833,37.23124],[126.09833,37.23125],[126.09833,37.23125],[126.09834,37.23125],[126.09834,37.23126],[126.09834,37.23126],[126.09834,37.23127],[126.09834,37.23127],[126.09833,37.23127],[126.09833,37.23127],[126.09833,37.23128],[126.09833,37.23128],[126.09833,37.23128],[126.09833,37.23128],[126.09833,37.23128],[126.09833,37.23128],[126.09832,37.23128],[126.09832,37.23128],[126.09832,37.23129],[126.09832,37.23129],[126.09831,37.23129],[126.09831,37.23129],[126.09831,37.23129],[126.09831,37.23128],[126.0983,37.23128],[126.09829,37.23128],[126.09829,37.23128],[126.09829,37.23128]],[[126.09822,37.23126],[126.09822,37.23126],[126.09821,37.23126],[126.09821,37.23126],[126.09821,37.23126],[126.09821,37.23125],[126.09821,37.23125],[126.0982,37.23125],[126.0982,37.23125],[126.0982,37.23125],[126.0982,37.23125],[126.0982,37.23124],[126.0982,37.23124],[126.0982,37.23124],[126.0982,37.23123],[126.0982,37.23122],[126.0982,37.23122],[126.09821,37.23122],[126.09821,37.23121],[126.09821,37.23121],[126.09821,37.23121],[126.09821,37.23121],[126.09821,37.23121],[126.09821,37.23121],[126.09821,37.23121],[126.09821,37.23121],[126.09822,37.23121],[126.09822,37.23121],[126.09822,37.23121],[126.09822,37.23121],[126.09822,37.23121],[126.09823,37.23122],[126.09823,37.23123],[126.09824,37.23124],[126.09824,37.23124],[126.09824,37.23125],[126.09824,37.23125],[126.09823,37.23125],[126.09823,37.23125],[126.09823,37.23125],[126.09823,37.23125],[126.09822,37.23126]],[[126.09811,37.23124],[126.09783,37.23116],[126.09813,37.23109],[126.09811,37.23124]],[[126.09788,37.231],[126.09788,37.231],[126.09789,37.231],[126.09789,37.231],[126.09792,37.231],[126.09792,37.23101],[126.09796,37.23102],[126.09797,37.23102],[126.09797,37.23103],[126.09797,37.23103],[126.09797,37.23103],[126.09798,37.23103],[126.09798,37.23104],[126.09798,37.23104],[126.09798,37.23104],[126.09798,37.23105],[126.09798,37.23105],[126.09798,37.23105],[126.09798,37.23105],[126.09798,37.23105],[126.09798,37.23105],[126.09797,37.23105],[126.09797,37.23105],[126.09797,37.23105],[126.09797,37.23105],[126.09797,37.23105],[126.09796,37.23105],[126.09796,37.23105],[126.09795,37.23105],[126.09795,37.23105],[126.09794,37.23104],[126.09792,37.23104],[126.09792,37.23104],[126.0979,37.23103],[126.09789,37.23102],[126.09788,37.23102],[126.09788,37.23102],[126.09788,37.23102],[126.09788,37.23101],[126.09788,37.23101],[126.09787,37.23101],[126.09787,37.23101],[126.09787,37.23101],[126.09787,37.231],[126.09787,37.231],[126.09787,37.231],[126.09787,37.231],[126.09787,37.231],[126.09788,37.231],[126.09788,37.231],[126.09788,37.231],[126.09788,37.231]]]}},{"type":"Feature","id":"TN_RIVER_BT:WTR02000000004950","properties":{"NF_ID":"WTR02000000004950","admin_code":"28720","source_layer":"TN_RIVER_BT","semantic":"channel","river_class":"소하천","river_class_source":"중심선 공간조인","survey_method":"사진측량"},"geometry":{"type":"Polygon","coordinates":[[[126.47582,37.25],[126.47694,37.25132],[126.47691,37.25103],[126.47582,37.25]]]}},{"type":"Feature","id":"TN_RIVER_BT:WTR02000000004961","properties":{"NF_ID":"WTR02000000004961","admin_code":"28720","source_layer":"TN_RIVER_BT","semantic":"channel","river_class":"소하천","river_class_source":"중심선 공간조인","survey_method":"사진측량"},"geometry":{"type":"Polygon","coordinates":[[[126.31432,37.25],[126.31432,37.25],[126.31428,37.25],[126.31428,37.25],[126.31429,37.25001],[126.31432,37.25],[126.31432,37.25]]]}},{"type":"Feature","id":"TN_RIVER_BT:WTR02000000004972","properties":{"NF_ID":"WTR02000000004972","admin_code":"28720","source_layer":"TN_RIVER_BT","semantic":"channel","river_class":"소하천","river_class_source":"중심선 공간조인","survey_method":"사진측량"},"geometry":{"type":"Polygon","coordinates":[[[126.31226,37.25101],[126.31226,37.25094],[126.31211,37.25094],[126.31189,37.25094],[126.31171,37.25094],[126.31171,37.251],[126.31203,37.25101],[126.31226,37.25101]]]}},{"type":"Feature","id":"TN_RIVER_BT:WTR02000000004983","properties":{"NF_ID":"WTR02000000004983","admin_code":"28720","source_layer":"TN_RIVER_BT","semantic":"channel","river_class":"소하천","river_class_source":"중심선 공간조인","survey_method":"사진측량"},"geometry":{"type":"Polygon","coordinates":[[[126.45912,37.25689],[126.46021,37.25535],[126.46433,37.25434],[126.4668,37.25314],[126.47187,37.25261],[126.47555,37.25258],[126.47179,37.25256],[126.46656,37.25313],[126.46419,37.2543],[126.46033,37.25521],[126.45908,37.25681],[126.4587,37.25686],[126.45796,37.2565],[126.45864,37.25689],[126.45912,37.25689]]]}},{"type":"Feature","id":"TN_RIVER_BT:WTR02000000004994","properties":{"NF_ID":"WTR02000000004994","admin_code":"28720","source_layer":"TN_RIVER_BT","semantic":"channel","river_class":"소하천","river_class_source":"중심선 공간조인","survey_method":"사진측량"},"geometry":{"type":"Polygon","coordinates":[[[126.45239,37.26081],[126.45293,37.26049],[126.45342,37.25927],[126.45255,37.26071],[126.45169,37.26078],[126.45084,37.26055],[126.45068,37.26029],[126.45078,37.2606],[126.45239,37.26081]]]}},{"type":"Feature","id":"TN_RIVER_BT:WTR020000000049A5","properties":{"NF_ID":"WTR020000000049A5","admin_code":"28720","source_layer":"TN_RIVER_BT","semantic":"channel","river_class":"소하천","river_class_source":"중심선 공간조인","survey_method":"사진측량"},"geometry":{"type":"Polygon","coordinates":[[[126.48569,37.26282],[126.48573,37.26278],[126.48573,37.26275],[126.48572,37.26273],[126.4857,37.26272],[126.48562,37.26263],[126.48552,37.26256],[126.48547,37.26255],[126.48544,37.26256],[126.48544,37.26257],[126.48548,37.26259],[126.48555,37.26263],[126.48561,37.26267],[126.48566,37.26271],[126.48568,37.26274],[126.48567,37.26277],[126.48565,37.26281],[126.48562,37.26282],[126.48559,37.2628],[126.48549,37.2627],[126.48541,37.26261],[126.48537,37.26255],[126.48535,37.26252],[126.48533,37.26247],[126.48533,37.26247],[126.48531,37.26249],[126.48533,37.26253],[126.48535,37.26257],[126.48548,37.26272],[126.48557,37.26284],[126.48561,37.26286],[126.48565,37.26285],[126.48569,37.26282]]]}},{"type":"Feature","id":"TN_RIVER_BT:WTR020000000049B6","properties":{"NF_ID":"WTR020000000049B6","admin_code":"28720","source_layer":"TN_RIVER_BT","semantic":"channel","river_class":"소하천","river_class_source":"중심선 공간조인","survey_method":"사진측량"},"geometry":{"type":"Polygon","coordinates":[[[126.47067,37.26276],[126.47173,37.26261],[126.47266,37.26209],[126.47449,37.26153],[126.47563,37.26007],[126.47674,37.25931],[126.4765,37.25753],[126.47691,37.2564],[126.47677,37.25447],[126.47728,37.25425],[126.47666,37.25411],[126.47664,37.25374],[126.47684,37.25618],[126.47641,37.25755],[126.4767,37.25931],[126.47561,37.26008],[126.4745,37.2615],[126.47269,37.26206],[126.47169,37.2626],[126.47029,37.2628],[126.46983,37.26339],[126.47025,37.26287],[126.47067,37.26276]]]}},{"type":"Feature","id":"TN_RIVER_BT:WTR020000000049C7","properties":{"NF_ID":"WTR020000000049C7","admin_code":"28720","source_layer":"TN_RIVER_BT","semantic":"channel","river_class":"소하천","river_class_source":"중심선 공간조인","survey_method":"사진측량"},"geometry":{"type":"Polygon","coordinates":[[[126.48092,37.26671],[126.48125,37.26605],[126.48204,37.26559],[126.48218,37.26501],[126.48187,37.26443],[126.48385,37.26303],[126.48574,37.26207],[126.4874,37.26056],[126.48756,37.25995],[126.48585,37.25997],[126.48587,37.25942],[126.48581,37.2611],[126.48556,37.26184],[126.48522,37.26202],[126.48572,37.26159],[126.48585,37.26004],[126.4874,37.26003],[126.4873,37.26046],[126.48571,37.26194],[126.48466,37.2626],[126.48364,37.26285],[126.48252,37.2637],[126.48233,37.26413],[126.48178,37.26432],[126.48205,37.2653],[126.48083,37.26625],[126.48056,37.26735],[126.48082,37.26673],[126.48095,37.2669],[126.48055,37.26841],[126.48092,37.26671]]]}},{"type":"Feature","id":"TN_RIVER_BT:WTR020000000049D8","properties":{"NF_ID":"WTR020000000049D8","admin_code":"28720","source_layer":"TN_RIVER_BT","semantic":"channel","river_class":"소하천","river_class_source":"중심선 공간조인","survey_method":"사진측량"},"geometry":{"type":"Polygon","coordinates":[[[126.44702,37.27143],[126.44936,37.2713],[126.45,37.2704],[126.44938,37.27126],[126.44794,37.27138],[126.44718,37.27122],[126.44736,37.27137],[126.44702,37.27143]]]}},{"type":"Feature","id":"TN_RIVER_BT:WTR020000000049E9","properties":{"NF_ID":"WTR020000000049E9","admin_code":"28720","source_layer":"TN_RIVER_BT","semantic":"channel","river_class":"소하천","river_class_source":"중심선 공간조인","survey_method":"사진측량"},"geometry":{"type":"Polygon","coordinates":[[[126.49439,37.27326],[126.49435,37.27324],[126.49412,37.27336],[126.49413,37.27337],[126.49414,37.27337],[126.49439,37.27326]]]}},{"type":"Feature","id":"TN_RIVER_BT:WTR020000000049FA","properties":{"NF_ID":"WTR020000000049FA","admin_code":"28720","source_layer":"TN_RIVER_BT","semantic":"channel","river_class":"소하천","river_class_source":"중심선 공간조인","survey_method":"사진측량"},"geometry":{"type":"Polygon","coordinates":[[[126.47805,37.27341],[126.47889,37.27348],[126.48001,37.27131],[126.48074,37.26929],[126.4804,37.2685],[126.48042,37.26765],[126.48026,37.268],[126.48063,37.26937],[126.47883,37.2734],[126.47859,37.27351],[126.47794,37.27315],[126.47808,37.27332],[126.47709,37.27367],[126.47638,37.27462],[126.47709,37.27378],[126.47805,37.27341]]]}},{"type":"Feature","id":"TN_RIVER_BT:WTR02000000004AXT","properties":{"NF_ID":"WTR02000000004AXT","admin_code":"28720","source_layer":"TN_RIVER_BT","semantic":"channel","river_class":"소하천","river_class_source":"중심선 공간조인","survey_method":"사진측량"},"geometry":{"type":"Polygon","coordinates":[[[126.10205,37.26258],[126.10205,37.26252],[126.102,37.26252],[126.10202,37.26269],[126.10206,37.26295],[126.10207,37.26325],[126.1021,37.26324],[126.10209,37.26308],[126.10207,37.26277],[126.10205,37.26258]]]}},{"type":"Feature","id":"TN_RIVER_BT:WTR02000000004AYU","properties":{"NF_ID":"WTR02000000004AYU","admin_code":"28720","source_layer":"TN_RIVER_BT","semantic":"channel","river_class":"소하천","river_class_source":"중심선 공간조인","survey_method":"사진측량"},"geometry":{"type":"Polygon","coordinates":[[[126.10253,37.2611],[126.10372,37.26035],[126.10556,37.26053],[126.10648,37.26014],[126.1071,37.25804],[126.1067,37.25719],[126.10709,37.25804],[126.10647,37.26011],[126.10564,37.2605],[126.10365,37.26032],[126.10325,37.26073],[126.10173,37.26136],[126.10095,37.26304],[126.10112,37.2641],[126.1011,37.26256],[126.10176,37.26139],[126.10253,37.2611]]]}},{"type":"Feature","id":"TN_RIVER_BT:WTR02000000004AZV","properties":{"NF_ID":"WTR02000000004AZV","admin_code":"28720","source_layer":"TN_RIVER_BT","semantic":"channel","river_class":"소하천","river_class_source":"중심선 공간조인","survey_method":"사진측량"},"geometry":{"type":"Polygon","coordinates":[[[126.10255,37.26419],[126.10227,37.26373],[126.10221,37.264],[126.1028,37.2647],[126.10287,37.26579],[126.10303,37.26534],[126.10255,37.26419]]]}},{"type":"Feature","id":"TN_RIVER_BT:WTR02000000004SU8","properties":{"NF_ID":"WTR02000000004SU8","admin_code":"28720","source_layer":"TN_RIVER_BT","semantic":"channel","river_class":"소하천","river_class_source":"중심선 공간조인","survey_method":"사진측량"},"geometry":{"type":"Polygon","coordinates":[[[126.45646,37.51708],[126.45648,37.51708],[126.4565,37.51708],[126.45652,37.51708],[126.45654,37.51709],[126.45656,37.51709],[126.45658,37.51709],[126.4566,37.51709],[126.45662,37.51709],[126.45663,37.51709],[126.45665,37.51709],[126.45667,37.51709],[126.45669,37.51708],[126.45671,37.51708],[126.45677,37.51706],[126.45678,37.51706],[126.4568,37.51704],[126.4568,37.51704],[126.45681,37.51703],[126.45681,37.51701],[126.4568,37.517],[126.45679,37.51699],[126.45678,37.51699],[126.45677,37.51699],[126.45675,37.51699],[126.45675,37.51699],[126.45672,37.517],[126.45667,37.51701],[126.45666,37.51701],[126.45665,37.51701],[126.45664,37.51699],[126.45663,37.517],[126.45663,37.51702],[126.45662,37.51702],[126.45653,37.51704],[126.45643,37.51707],[126.45634,37.51709],[126.45623,37.51713],[126.45619,37.51714],[126.4562,37.51714],[126.45622,37.51714],[126.4563,37.51711],[126.45634,37.5171],[126.45639,37.51709],[126.45642,37.51709],[126.45646,37.51708]]]}},{"type":"Feature","id":"TN_RIVER_BT:WTR02000000004SV9","properties":{"NF_ID":"WTR02000000004SV9","admin_code":"28720","source_layer":"TN_RIVER_BT","semantic":"channel","river_class":"소하천","river_class_source":"중심선 공간조인","survey_method":"사진측량"},"geometry":{"type":"Polygon","coordinates":[[[126.45774,37.51747],[126.45772,37.51746],[126.45767,37.51748],[126.45768,37.5175],[126.45769,37.51752],[126.45774,37.51761],[126.45781,37.51776],[126.45782,37.51777],[126.45783,37.51789],[126.45785,37.51791],[126.45785,37.51791],[126.45786,37.51791],[126.45786,37.51791],[126.45786,37.51791],[126.45787,37.51791],[126.45787,37.5179],[126.45786,37.51778],[126.45786,37.51777],[126.45786,37.51777],[126.45784,37.51771],[126.45779,37.5176],[126.45775,37.51752],[126.45774,37.51751],[126.45774,37.51749],[126.45774,37.51747]]]}},{"type":"Feature","id":"TN_RIVER_BT:WTR02000000004SWA","properties":{"NF_ID":"WTR02000000004SWA","admin_code":"28720","source_layer":"TN_RIVER_BT","semantic":"channel","river_class":"소하천","river_class_source":"중심선 공간조인","survey_method":"사진측량"},"geometry":{"type":"Polygon","coordinates":[[[126.45571,37.51732],[126.45554,37.5175],[126.45595,37.51801],[126.45557,37.5175],[126.45571,37.51732]]]}},{"type":"Feature","id":"TN_RIVER_BT:WTR02000000004SXB","properties":{"NF_ID":"WTR02000000004SXB","admin_code":"28720","source_layer":"TN_RIVER_BT","semantic":"channel","river_class":"소하천","river_class_source":"중심선 공간조인","survey_method":"사진측량"},"geometry":{"type":"Polygon","coordinates":[[[126.46907,37.5191],[126.46906,37.51909],[126.46902,37.51909],[126.469,37.51909],[126.46898,37.5191],[126.4689,37.51912],[126.46885,37.51914],[126.46876,37.51916],[126.46855,37.51921],[126.46797,37.51932],[126.46766,37.51937],[126.46678,37.51953],[126.4666,37.51955],[126.46647,37.51958],[126.46636,37.51961],[126.46625,37.51964],[126.4657,37.51974],[126.46571,37.51978],[126.46667,37.5196],[126.4671,37.51952],[126.46724,37.51949],[126.46743,37.51946],[126.46761,37.51943],[126.46775,37.51941],[126.46791,37.51938],[126.46809,37.51936],[126.46825,37.51933],[126.46881,37.51921],[126.46894,37.51919],[126.469,37.51917],[126.46903,37.51915],[126.46905,37.51914],[126.46906,37.51912],[126.46907,37.5191]]]}},{"type":"Feature","id":"TN_RIVER_BT:WTR02000000004SYC","properties":{"NF_ID":"WTR02000000004SYC","admin_code":"28720","source_layer":"TN_RIVER_BT","semantic":"channel","river_class":"소하천","river_class_source":"중심선 공간조인","survey_method":"사진측량"},"geometry":{"type":"Polygon","coordinates":[[[126.45219,37.51993],[126.45217,37.51993],[126.45216,37.51994],[126.45214,37.51995],[126.45213,37.51997],[126.45212,37.51998],[126.45212,37.52],[126.45211,37.52001],[126.4521,37.52002],[126.4521,37.52003],[126.4521,37.52005],[126.45209,37.52006],[126.45209,37.52007],[126.45209,37.52008],[126.45209,37.5201],[126.45209,37.52012],[126.45209,37.52013],[126.45209,37.52014],[126.45208,37.52015],[126.45207,37.52016],[126.45205,37.52016],[126.45205,37.52017],[126.45204,37.52017],[126.45203,37.52018],[126.45203,37.52019],[126.45203,37.5202],[126.45202,37.52021],[126.45202,37.52022],[126.45201,37.52022],[126.45199,37.52023],[126.45198,37.52025],[126.45197,37.52026],[126.45196,37.52027],[126.45196,37.52027],[126.45194,37.52028],[126.45194,37.52028],[126.45194,37.52029],[126.45194,37.52029],[126.45196,37.52029],[126.45197,37.52028],[126.45198,37.52028],[126.45199,37.52027],[126.45199,37.52027],[126.45199,37.52026],[126.452,37.52025],[126.45201,37.52024],[126.45202,37.52023],[126.45203,37.52023],[126.45204,37.52022],[126.45204,37.52021],[126.45204,37.5202],[126.45205,37.52019],[126.45206,37.52018],[126.45208,37.52017],[126.45209,37.52017],[126.4521,37.52016],[126.45211,37.52015],[126.45211,37.52014],[126.45212,37.52013],[126.45212,37.52012],[126.45212,37.52011],[126.45212,37.5201],[126.45212,37.52009],[126.45212,37.52008],[126.45213,37.52006],[126.45214,37.52006],[126.45215,37.52005],[126.45216,37.52004],[126.45217,37.52004],[126.45217,37.52003],[126.45218,37.52002],[126.45218,37.51999],[126.45218,37.51996],[126.45219,37.51995],[126.45219,37.51994],[126.45219,37.51993]]]}},{"type":"Feature","id":"TN_RIVER_BT:WTR02000000004T0F","properties":{"NF_ID":"WTR02000000004T0F","admin_code":"28720","source_layer":"TN_RIVER_BT","semantic":"channel","river_class":"소하천","river_class_source":"중심선 공간조인","survey_method":"사진측량"},"geometry":{"type":"Polygon","coordinates":[[[126.45567,37.52674],[126.45685,37.52645],[126.45801,37.52665],[126.45692,37.52642],[126.45524,37.52671],[126.45456,37.52626],[126.45324,37.5261],[126.45137,37.52465],[126.45081,37.52451],[126.45135,37.52466],[126.45323,37.52613],[126.45452,37.52629],[126.45506,37.52669],[126.45567,37.52674]]]}},{"type":"Feature","id":"TN_RIVER_BT:WTR02000000004T1G","properties":{"NF_ID":"WTR02000000004T1G","admin_code":"28720","source_layer":"TN_RIVER_BT","semantic":"channel","river_class":"소하천","river_class_source":"중심선 공간조인","survey_method":"사진측량"},"geometry":{"type":"Polygon","coordinates":[[[126.33701,37.53121],[126.33666,37.53091],[126.33663,37.53093],[126.33701,37.53123],[126.33729,37.53146],[126.33737,37.53153],[126.33747,37.53162],[126.33774,37.53185],[126.33776,37.53184],[126.3375,37.53162],[126.33742,37.53155],[126.33733,37.53148],[126.33719,37.53135],[126.3371,37.53128],[126.33701,37.53121]]]}},{"type":"Feature","id":"TN_RIVER_BT:WTR02000000004T2H","properties":{"NF_ID":"WTR02000000004T2H","admin_code":"28720","source_layer":"TN_RIVER_BT","semantic":"channel","river_class":"소하천","river_class_source":"중심선 공간조인","survey_method":"사진측량"},"geometry":{"type":"Polygon","coordinates":[[[126.43147,37.53139],[126.43117,37.53146],[126.43125,37.53202],[126.43034,37.53285],[126.43152,37.53206],[126.43121,37.53147],[126.43147,37.53139]]]}},{"type":"Feature","id":"TN_RIVER_BT:WTR02000000004T3I","properties":{"NF_ID":"WTR02000000004T3I","admin_code":"28720","source_layer":"TN_RIVER_BT","semantic":"channel","river_class":"소하천","river_class_source":"중심선 공간조인","survey_method":"사진측량"},"geometry":{"type":"Polygon","coordinates":[[[126.45066,37.53404],[126.45128,37.53319],[126.45127,37.53262],[126.45126,37.53318],[126.45066,37.53404]]]}},{"type":"Feature","id":"TN_RIVER_BT:WTR02000000004T4J","properties":{"NF_ID":"WTR02000000004T4J","admin_code":"28720","source_layer":"TN_RIVER_BT","semantic":"channel","river_class":"소하천","river_class_source":"중심선 공간조인","survey_method":"사진측량"},"geometry":{"type":"Polygon","coordinates":[[[126.46003,37.5292],[126.46144,37.52933],[126.46156,37.52978],[126.4623,37.52911],[126.46221,37.52823],[126.46662,37.52813],[126.46585,37.52808],[126.46574,37.52776],[126.46622,37.52727],[126.4658,37.52767],[126.46562,37.52725],[126.46545,37.52738],[126.46571,37.52746],[126.46562,37.52796],[126.46215,37.52821],[126.46229,37.52902],[126.46164,37.52954],[126.46144,37.52929],[126.46019,37.52914],[126.45836,37.52967],[126.45996,37.53339],[126.4613,37.53423],[126.46,37.5334],[126.45838,37.5297],[126.46003,37.5292]]]}},{"type":"Feature","id":"TN_RIVER_BT:WTR02000000004T5K","properties":{"NF_ID":"WTR02000000004T5K","admin_code":"28720","source_layer":"TN_RIVER_BT","semantic":"channel","river_class":"소하천","river_class_source":"중심선 공간조인","survey_method":"사진측량"},"geometry":{"type":"Polygon","coordinates":[[[126.41151,37.53073],[126.41105,37.53059],[126.41163,37.53095],[126.41245,37.53358],[126.41193,37.53453],[126.41251,37.53356],[126.41151,37.53073]]]}},{"type":"Feature","id":"TN_RIVER_BT:WTR02000000004T6L","properties":{"NF_ID":"WTR02000000004T6L","admin_code":"28720","source_layer":"TN_RIVER_BT","semantic":"channel","river_class":"소하천","river_class_source":"중심선 공간조인","survey_method":"사진측량"},"geometry":{"type":"Polygon","coordinates":[[[126.45295,37.53653],[126.45236,37.53646],[126.45303,37.53539],[126.4523,37.53649],[126.45126,37.53596],[126.45143,37.5357],[126.45078,37.53539],[126.45061,37.53551],[126.45179,37.5366],[126.4528,37.53678],[126.45295,37.53653]]]}},{"type":"Feature","id":"TN_RIVER_BT:WTR02000000004T7M","properties":{"NF_ID":"WTR02000000004T7M","admin_code":"28720","source_layer":"TN_RIVER_BT","semantic":"channel","river_class":"소하천","river_class_source":"중심선 공간조인","survey_method":"사진측량"},"geometry":{"type":"Polygon","coordinates":[[[126.4345,37.54148],[126.43472,37.54007],[126.43272,37.5366],[126.43236,37.53672],[126.43278,37.5369],[126.43469,37.54016],[126.43463,37.54071],[126.43434,37.54087],[126.43459,37.54075],[126.43444,37.54144],[126.43414,37.54142],[126.43436,37.54173],[126.43424,37.54266],[126.4345,37.54148]]]}},{"type":"Feature","id":"TN_RIVER_BT:WTR02000000004T8N","properties":{"NF_ID":"WTR02000000004T8N","admin_code":"28720","source_layer":"TN_RIVER_BT","semantic":"channel","river_class":"소하천","river_class_source":"중심선 공간조인","survey_method":"사진측량"},"geometry":{"type":"Polygon","coordinates":[[[126.33086,37.54175],[126.33179,37.53931],[126.33083,37.54175],[126.32934,37.54138],[126.3308,37.54184],[126.33027,37.54551],[126.33086,37.54175]]]}}]}