{"type":"FeatureCollection","features":[{"type":"Feature","id":"TN_RIVER_BNDRY:WTR0100000000JZYX","properties":{"NF_ID":"WTR0100000000JZYX","admin_code":"11320","source_layer":"TN_RIVER_BNDRY","semantic":"zone","river_class":"소하천","river_class_source":"중심선 공간조인","river_name":"서원천","survey_method":"사진측량"},"geometry":{"type":"Polygon","coordinates":[[[127.04534,37.68094],[127.04513,37.68083],[127.04399,37.68267],[127.04268,37.68353],[127.04153,37.6849],[127.04095,37.68528],[127.04088,37.68562],[127.04106,37.68607],[127.04089,37.68625],[127.03956,37.68652],[127.03882,37.6865],[127.03766,37.6859],[127.03627,37.6859],[127.03538,37.68631],[127.03438,37.6864],[127.0338,37.68723],[127.03301,37.68745],[127.03201,37.68807],[127.02927,37.68737],[127.02871,37.68772],[127.02812,37.68775],[127.02743,37.68818],[127.02694,37.68791],[127.02642,37.68719],[127.02577,37.68761],[127.02484,37.68733],[127.02579,37.68767],[127.0264,37.68729],[127.02693,37.68791],[127.02742,37.68822],[127.02817,37.68778],[127.02867,37.68778],[127.02918,37.68746],[127.02949,37.68744],[127.03191,37.68817],[127.03377,37.6874],[127.03449,37.68651],[127.03549,37.68636],[127.03637,37.68599],[127.03764,37.68599],[127.03878,37.68667],[127.04102,37.68633],[127.04126,37.68607],[127.04108,37.68536],[127.04193,37.68476],[127.04273,37.68368],[127.04392,37.68283],[127.04534,37.68094]]]}},{"type":"Feature","id":"TN_RIVER_BNDRY:WTR0100000000JZZY","properties":{"NF_ID":"WTR0100000000JZZY","admin_code":"11320","source_layer":"TN_RIVER_BNDRY","semantic":"zone","river_class":"지방하천","river_class_source":"중심선 공간조인","river_name":"도봉천","river_code":"1025180","survey_method":"사진측량"},"geometry":{"type":"Polygon","coordinates":[[[127.0312,37.67717],[127.03025,37.67737],[127.02926,37.67678],[127.02883,37.67676],[127.02819,37.67643],[127.02729,37.67578],[127.02608,37.67552],[127.0249,37.67556],[127.02301,37.67628],[127.01993,37.67672],[127.0177,37.67648],[127.01673,37.67687],[127.01504,37.67953],[127.01674,37.67692],[127.01771,37.67651],[127.01993,37.67675],[127.02286,37.67634],[127.02511,37.67563],[127.02725,37.67584],[127.02815,37.67653],[127.03038,37.67749],[127.0312,37.67717]]]}},{"type":"Feature","id":"TN_RIVER_BNDRY:WTR0100000000K146","properties":{"NF_ID":"WTR0100000000K146","admin_code":"11320","source_layer":"TN_RIVER_BNDRY","semantic":"zone","river_class":"소하천","river_class_source":"중심선 공간조인","survey_method":"사진측량"},"geometry":{"type":"Polygon","coordinates":[[[127.04626,37.64376],[127.04618,37.64374],[127.04618,37.64377],[127.0462,37.64381],[127.04623,37.64383],[127.04629,37.64386],[127.04633,37.64388],[127.04633,37.64391],[127.04633,37.64394],[127.04633,37.64396],[127.04633,37.64396],[127.04635,37.64397],[127.04632,37.64401],[127.04649,37.6441],[127.0465,37.64408],[127.0464,37.64403],[127.04642,37.64401],[127.04642,37.64401],[127.04643,37.64399],[127.0464,37.64397],[127.0464,37.64394],[127.04639,37.64392],[127.04638,37.64389],[127.04636,37.64387],[127.04632,37.64384],[127.0463,37.64383],[127.04628,37.64381],[127.04626,37.64378],[127.04626,37.64377],[127.04626,37.64376]]]}},{"type":"Feature","id":"TN_RIVER_BNDRY:WTR0100000000K157","properties":{"NF_ID":"WTR0100000000K157","admin_code":"11320","source_layer":"TN_RIVER_BNDRY","semantic":"zone","river_class":"지방하천","river_class_source":"중심선 공간조인","river_name":"우이천","river_code":"1025220","survey_method":"사진측량"},"geometry":{"type":"Polygon","coordinates":[[[127.01706,37.64879],[127.01839,37.64873],[127.02047,37.64918],[127.02143,37.649],[127.02251,37.64802],[127.02468,37.64748],[127.0258,37.64596],[127.02775,37.64512],[127.02889,37.64424],[127.03245,37.64206],[127.0332,37.64118],[127.03466,37.63787],[127.03528,37.63735],[127.03706,37.63681],[127.03769,37.63636],[127.03808,37.63588],[127.03873,37.63388],[127.04014,37.63228],[127.04342,37.63029],[127.0449,37.62886],[127.04759,37.62742],[127.04923,37.62533],[127.05346,37.62088],[127.05607,37.61899],[127.05807,37.61726],[127.06081,37.61576],[127.06242,37.61549],[127.06239,37.61527],[127.0611,37.6155],[127.05815,37.617],[127.05639,37.61858],[127.0544,37.6199],[127.05289,37.62116],[127.05015,37.6242],[127.05002,37.62419],[127.0501,37.62429],[127.04737,37.62734],[127.04442,37.62895],[127.04271,37.63045],[127.0403,37.63187],[127.03938,37.63261],[127.03817,37.63421],[127.03781,37.63572],[127.03737,37.63637],[127.03685,37.63666],[127.03522,37.63712],[127.03453,37.63757],[127.03294,37.64111],[127.03213,37.64199],[127.02866,37.64406],[127.02773,37.64479],[127.02561,37.64581],[127.02448,37.64735],[127.02259,37.64779],[127.02132,37.64885],[127.02045,37.64902],[127.01854,37.64858],[127.01753,37.64856],[127.01539,37.64907],[127.01466,37.64955],[127.01434,37.65029],[127.01449,37.65197],[127.0142,37.65544],[127.01463,37.65896],[127.01444,37.66003],[127.01459,37.66146],[127.01436,37.66197],[127.01338,37.66293],[127.01352,37.66302],[127.01426,37.66236],[127.01479,37.66145],[127.01469,37.6601],[127.01491,37.65927],[127.01438,37.65551],[127.01456,37.65298],[127.01477,37.65217],[127.01468,37.65007],[127.01544,37.64925],[127.01706,37.64879]]]}},{"type":"Feature","id":"TN_RIVER_BNDRY:WTR0100000000K4X2","properties":{"NF_ID":"WTR0100000000K4X2","admin_code":"11320","source_layer":"TN_RIVER_BNDRY","semantic":"zone","river_class":"지방하천","river_class_source":"중심선 공간조인","river_name":"중랑천","river_code":"1025090","survey_method":"사진측량"},"geometry":{"type":"Polygon","coordinates":[[[127.05214,37.66037],[127.05441,37.6557],[127.05448,37.65425],[127.0548,37.65428],[127.05448,37.65415],[127.05478,37.64988],[127.05574,37.64739],[127.05614,37.6474],[127.05586,37.64731],[127.05628,37.64583],[127.05567,37.64416],[127.05539,37.64255],[127.05547,37.6418],[127.05615,37.6401],[127.05889,37.63801],[127.05827,37.63766],[127.0556,37.63983],[127.05472,37.64098],[127.05448,37.64087],[127.05471,37.641],[127.0544,37.64178],[127.05532,37.64507],[127.05532,37.64533],[127.05508,37.64555],[127.0553,37.64544],[127.05534,37.64589],[127.055,37.64804],[127.05395,37.65012],[127.0538,37.65485],[127.05342,37.65624],[127.053,37.65707],[127.05277,37.65699],[127.05244,37.65743],[127.0507,37.66077],[127.05214,37.66037]]]}},{"type":"Feature","id":"TN_RIVER_BNDRY:WTR0100000000K4Z4","properties":{"NF_ID":"WTR0100000000K4Z4","admin_code":"11320","source_layer":"TN_RIVER_BNDRY","semantic":"zone","river_class":"지방하천","river_class_source":"중심선 공간조인","river_name":"방학천","river_code":"1025190","survey_method":"사진측량"},"geometry":{"type":"Polygon","coordinates":[[[127.0507,37.66108],[127.0507,37.66077],[127.04657,37.66198],[127.04506,37.66213],[127.0416,37.66167],[127.03778,37.66174],[127.03751,37.66166],[127.03715,37.66111],[127.03626,37.66092],[127.03557,37.66049],[127.03513,37.66034],[127.03382,37.66028],[127.03546,37.66062],[127.03623,37.66103],[127.03695,37.66118],[127.0373,37.66164],[127.03787,37.66184],[127.04161,37.66181],[127.04586,37.6623],[127.0507,37.66108]]]}},{"type":"Feature","id":"TN_RIVER_BNDRY:WTR0100000000K5FL","properties":{"NF_ID":"WTR0100000000K5FL","admin_code":"11320","source_layer":"TN_RIVER_BNDRY","semantic":"zone","river_class":"소하천","river_class_source":"중심선 공간조인","survey_method":"사진측량"},"geometry":{"type":"Polygon","coordinates":[[[127.04609,37.64358],[127.04606,37.64357],[127.04604,37.64357],[127.04603,37.64357],[127.04601,37.64357],[127.046,37.64357],[127.04599,37.64356],[127.04598,37.64354],[127.04597,37.64353],[127.04596,37.64352],[127.04595,37.64351],[127.04591,37.64347],[127.04587,37.64346],[127.04584,37.64344],[127.04582,37.64342],[127.0458,37.64344],[127.04581,37.64347],[127.04582,37.64347],[127.04584,37.64349],[127.04587,37.64351],[127.04593,37.64354],[127.04593,37.64355],[127.04595,37.64357],[127.04598,37.6436],[127.04602,37.64362],[127.04605,37.64362],[127.04607,37.64362],[127.04609,37.64363],[127.04614,37.64365],[127.04616,37.64367],[127.04621,37.64363],[127.04619,37.64363],[127.04618,37.64362],[127.04616,37.64362],[127.04613,37.64359],[127.04609,37.64358]]]}},{"type":"Feature","id":"TN_RIVER_BNDRY:WTR0100000000K5KQ","properties":{"NF_ID":"WTR0100000000K5KQ","admin_code":"11320","source_layer":"TN_RIVER_BNDRY","semantic":"zone","river_class":"지방하천","river_class_source":"중심선 공간조인","river_name":"방학천","river_code":"1025190","survey_method":"사진측량"},"geometry":{"type":"Polygon","coordinates":[[[127.05204,37.66085],[127.05214,37.66037],[127.0507,37.66077],[127.0507,37.66108],[127.05204,37.66085]]]}},{"type":"Feature","id":"TN_RIVER_BNDRY:WTR0100000000K5LR","properties":{"NF_ID":"WTR0100000000K5LR","admin_code":"11320","source_layer":"TN_RIVER_BNDRY","semantic":"zone","river_class":"지방하천","river_class_source":"중심선 공간조인","river_name":"방학천","river_code":"1025190","survey_method":"사진측량"},"geometry":{"type":"Polygon","coordinates":[[[127.03208,37.65947],[127.03182,37.65954],[127.03271,37.65978],[127.03208,37.65947]]]}},{"type":"Feature","id":"TN_RIVER_BNDRY:WTR0100000000K5MS","properties":{"NF_ID":"WTR0100000000K5MS","admin_code":"11320","source_layer":"TN_RIVER_BNDRY","semantic":"zone","river_class":"지방하천","river_class_source":"중심선 공간조인","river_name":"방학천","river_code":"1025190","survey_method":"사진측량"},"geometry":{"type":"Polygon","coordinates":[[[127.02798,37.65885],[127.02825,37.65906],[127.02941,37.6594],[127.02798,37.65885]]]}},{"type":"Feature","id":"TN_RIVER_BNDRY:WTR0100000000K6CJ","properties":{"NF_ID":"WTR0100000000K6CJ","admin_code":"11320","source_layer":"TN_RIVER_BNDRY","semantic":"zone","river_class":"지방하천","river_class_source":"중심선 공간조인","river_name":"도봉천","river_code":"1025180","survey_method":"사진측량"},"geometry":{"type":"Polygon","coordinates":[[[127.05065,37.67963],[127.05035,37.67941],[127.04711,37.68055],[127.04538,37.68082],[127.04534,37.68094],[127.04664,37.68076],[127.05042,37.67984],[127.05065,37.67963]]]}},{"type":"Feature","id":"TN_RIVER_BNDRY:WTR0100000000K6HO","properties":{"NF_ID":"WTR0100000000K6HO","admin_code":"11320","source_layer":"TN_RIVER_BNDRY","semantic":"zone","river_class":"지방하천","river_class_source":"중심선 공간조인","river_name":"중랑천","river_code":"1025090","survey_method":"사진측량"},"geometry":{"type":"Polygon","coordinates":[[[127.05139,37.67929],[127.05065,37.67963],[127.05191,37.68432],[127.05191,37.68484],[127.05019,37.68731],[127.04966,37.68842],[127.05046,37.68844],[127.05099,37.6871],[127.05253,37.68467],[127.05207,37.68264],[127.05221,37.68253],[127.05204,37.68245],[127.05184,37.68172],[127.05139,37.67929]]]}},{"type":"Feature","id":"TN_RIVER_BNDRY:WTR0100000000K6NU","properties":{"NF_ID":"WTR0100000000K6NU","admin_code":"11320","source_layer":"TN_RIVER_BNDRY","semantic":"zone","river_class":"지방하천","river_class_source":"중심선 공간조인","river_name":"방학천","river_code":"1025190","survey_method":"사진측량"},"geometry":{"type":"Polygon","coordinates":[[[127.02329,37.66166],[127.02147,37.6626],[127.02133,37.66312],[127.02151,37.66262],[127.02329,37.66166]]]}},{"type":"Feature","id":"TN_RIVER_BNDRY:WTR0100000000K6T0","properties":{"NF_ID":"WTR0100000000K6T0","admin_code":"11320","source_layer":"TN_RIVER_BNDRY","semantic":"zone","river_class":"소하천","river_class_source":"중심선 공간조인","survey_method":"사진측량"},"geometry":{"type":"Polygon","coordinates":[[[127.04966,37.68842],[127.04955,37.68843],[127.04946,37.68843],[127.04946,37.68845],[127.04948,37.68846],[127.04958,37.68847],[127.04964,37.68848],[127.04965,37.68848],[127.04966,37.68842]]]}},{"type":"Feature","id":"TN_RIVER_BNDRY:WTR0100000000K6U1","properties":{"NF_ID":"WTR0100000000K6U1","admin_code":"11320","source_layer":"TN_RIVER_BNDRY","semantic":"zone","river_class":"소하천","river_class_source":"중심선 공간조인","survey_method":"사진측량"},"geometry":{"type":"Polygon","coordinates":[[[127.04958,37.69145],[127.04962,37.69139],[127.04943,37.69139],[127.04922,37.69139],[127.04917,37.69141],[127.04917,37.69144],[127.04923,37.69145],[127.04958,37.69145]]]}},{"type":"Feature","id":"TN_RIVER_BNDRY:WTR0100000000K6V2","properties":{"NF_ID":"WTR0100000000K6V2","admin_code":"11320","source_layer":"TN_RIVER_BNDRY","semantic":"zone","river_class":"등급미확인","survey_method":"사진측량"},"geometry":{"type":"Polygon","coordinates":[[[127.04895,37.69259],[127.04899,37.69252],[127.04875,37.69252],[127.04868,37.69255],[127.04868,37.69258],[127.04876,37.6926],[127.04895,37.69259]]]}},{"type":"Feature","id":"TN_RIVER_BNDRY:WTR0100000000K6Y5","properties":{"NF_ID":"WTR0100000000K6Y5","admin_code":"11320","source_layer":"TN_RIVER_BNDRY","semantic":"zone","river_class":"지방하천","river_class_source":"중심선 공간조인","river_name":"도봉천","river_code":"1025180","survey_method":"사진측량"},"geometry":{"type":"Polygon","coordinates":[[[127.04515,37.68079],[127.04135,37.67868],[127.04037,37.67846],[127.03839,37.67859],[127.03705,37.67828],[127.03602,37.67782],[127.0344,37.67738],[127.03319,37.67605],[127.03288,37.6759],[127.03222,37.67606],[127.03181,37.67664],[127.03122,37.67703],[127.03179,37.67679],[127.03248,37.67614],[127.03294,37.67609],[127.03412,37.67738],[127.03722,37.67851],[127.03877,37.67874],[127.04033,37.67859],[127.04161,37.67884],[127.04464,37.68064],[127.04515,37.68079]]]}},{"type":"Feature","id":"TN_RIVER_BNDRY:WTR0100000000K6Z6","properties":{"NF_ID":"WTR0100000000K6Z6","admin_code":"11320","source_layer":"TN_RIVER_BNDRY","semantic":"zone","river_class":"지방하천","river_class_source":"중심선 공간조인","river_name":"도봉천","river_code":"1025180","survey_method":"사진측량"},"geometry":{"type":"Polygon","coordinates":[[[127.04538,37.68082],[127.04513,37.68083],[127.04534,37.68094],[127.04538,37.68082]]]}},{"type":"Feature","id":"TN_RIVER_BNDRY:WTR0100000000K708","properties":{"NF_ID":"WTR0100000000K708","admin_code":"11320","source_layer":"TN_RIVER_BNDRY","semantic":"zone","river_class":"지방하천","river_class_source":"중심선 공간조인","river_name":"도봉천","river_code":"1025180","survey_method":"사진측량"},"geometry":{"type":"Polygon","coordinates":[[[127.03127,37.6771],[127.03122,37.67703],[127.03117,37.67709],[127.03108,37.67713],[127.0312,37.67717],[127.03127,37.6771]]]}},{"type":"Feature","id":"TN_RIVER_BNDRY:WTR0100000000K73B","properties":{"NF_ID":"WTR0100000000K73B","admin_code":"11320","source_layer":"TN_RIVER_BNDRY","semantic":"zone","river_class":"소하천","river_class_source":"중심선 공간조인","survey_method":"사진측량"},"geometry":{"type":"Polygon","coordinates":[[[127.03127,37.6771],[127.03135,37.67754],[127.03115,37.67778],[127.03141,37.67758],[127.03127,37.6771]]]}}]}