{"type":"FeatureCollection","features":[{"type":"Feature","id":"TN_RIVER_BNDRY:WTR0100000000OSJG","properties":{"NF_ID":"WTR0100000000OSJG","admin_code":"41192","source_layer":"TN_RIVER_BNDRY","semantic":"zone","river_class":"소하천","river_class_source":"중심선 공간조인","river_name":"심곡천","river_code":"1520300","survey_method":"사진측량"},"geometry":{"type":"Polygon","coordinates":[[[126.78518,37.49007],[126.78545,37.48988],[126.78546,37.48989],[126.78594,37.4895],[126.78636,37.48917],[126.7868,37.48884],[126.78714,37.48859],[126.78739,37.48836],[126.78778,37.48806],[126.7883,37.48766],[126.78869,37.48737],[126.78904,37.48712],[126.78919,37.48704],[126.78913,37.48697],[126.78885,37.48716],[126.78844,37.48749],[126.78783,37.48797],[126.7874,37.48829],[126.7873,37.48837],[126.78712,37.48854],[126.78701,37.48862],[126.78658,37.48894],[126.7862,37.48923],[126.78578,37.48955],[126.78551,37.48977],[126.78521,37.48998],[126.78497,37.49017],[126.78452,37.49049],[126.78404,37.4909],[126.78384,37.49105],[126.78314,37.49158],[126.78262,37.49199],[126.78228,37.49226],[126.78225,37.4923],[126.78223,37.4923],[126.78189,37.49255],[126.78188,37.49256],[126.7819,37.49257],[126.78193,37.49259],[126.78194,37.49261],[126.7823,37.4923],[126.78234,37.49227],[126.78274,37.49196],[126.78311,37.49169],[126.7835,37.49139],[126.78389,37.49109],[126.78421,37.49082],[126.78458,37.49052],[126.78462,37.4905],[126.78486,37.49033],[126.78518,37.49007]]]}},{"type":"Feature","id":"TN_RIVER_BNDRY:WTR0100000000PPMH","properties":{"NF_ID":"WTR0100000000PPMH","admin_code":"41192","source_layer":"TN_RIVER_BNDRY","semantic":"zone","river_class":"소하천","river_class_source":"중심선 공간조인","survey_method":"사진측량"},"geometry":{"type":"Polygon","coordinates":[[[126.76682,37.49934],[126.76681,37.49934],[126.76681,37.49934],[126.7668,37.49935],[126.7668,37.49936],[126.7668,37.49937],[126.7668,37.49938],[126.76681,37.49941],[126.76684,37.49948],[126.76687,37.49957],[126.76688,37.49966],[126.76689,37.49974],[126.7669,37.49979],[126.76691,37.49984],[126.76691,37.49988],[126.76691,37.49992],[126.76692,37.49997],[126.76694,37.5],[126.76699,37.5],[126.76698,37.49999],[126.76696,37.49995],[126.76696,37.49992],[126.76695,37.49987],[126.76695,37.49982],[126.76695,37.49975],[126.76694,37.49967],[126.76691,37.49957],[126.76687,37.49945],[126.76683,37.49935],[126.76682,37.49934]]]}},{"type":"Feature","id":"TN_RIVER_BNDRY:WTR0100000000PPOJ","properties":{"NF_ID":"WTR0100000000PPOJ","admin_code":"41192","source_layer":"TN_RIVER_BNDRY","semantic":"zone","river_class":"소하천","river_class_source":"중심선 공간조인","survey_method":"사진측량"},"geometry":{"type":"Polygon","coordinates":[[[126.80987,37.49995],[126.80986,37.49995],[126.80985,37.49995],[126.80985,37.49996],[126.80986,37.5],[126.8099,37.5],[126.80988,37.49997],[126.80987,37.49995]]]}},{"type":"Feature","id":"TN_RIVER_BNDRY:WTR0100000000PPWR","properties":{"NF_ID":"WTR0100000000PPWR","admin_code":"41192","source_layer":"TN_RIVER_BNDRY","semantic":"zone","river_class":"소하천","river_class_source":"중심선 공간조인","survey_method":"사진측량"},"geometry":{"type":"Polygon","coordinates":[[[126.74662,37.4943],[126.74661,37.4943],[126.74659,37.4943],[126.74656,37.4943],[126.74656,37.49431],[126.74656,37.49433],[126.74655,37.49435],[126.74656,37.49437],[126.74657,37.49439],[126.74659,37.49443],[126.7466,37.49446],[126.7466,37.49448],[126.74661,37.49454],[126.74661,37.49458],[126.74661,37.49463],[126.74661,37.49468],[126.74661,37.49478],[126.7466,37.49484],[126.7466,37.49489],[126.7466,37.49494],[126.74661,37.49498],[126.74662,37.49504],[126.74663,37.49508],[126.74664,37.49514],[126.74665,37.49517],[126.74665,37.49521],[126.74666,37.49527],[126.74668,37.49532],[126.7467,37.49534],[126.74671,37.49537],[126.74672,37.49542],[126.74673,37.4955],[126.74677,37.49571],[126.7468,37.49589],[126.7468,37.49599],[126.74681,37.49605],[126.74681,37.49611],[126.74681,37.49615],[126.74681,37.49621],[126.74682,37.49624],[126.74683,37.49629],[126.74688,37.49645],[126.74691,37.49657],[126.74691,37.49664],[126.74691,37.49669],[126.74691,37.49674],[126.74691,37.4968],[126.74692,37.49683],[126.74692,37.49686],[126.74694,37.49689],[126.74697,37.49697],[126.74698,37.49703],[126.74699,37.49709],[126.74698,37.49713],[126.74698,37.49716],[126.74698,37.49716],[126.74698,37.49717],[126.74699,37.49717],[126.74702,37.49717],[126.74703,37.49717],[126.74703,37.49716],[126.74704,37.49711],[126.74705,37.49708],[126.74705,37.49704],[126.74705,37.497],[126.74703,37.49695],[126.74702,37.49691],[126.747,37.49684],[126.74698,37.49677],[126.74697,37.49671],[126.74697,37.49666],[126.74696,37.49661],[126.74696,37.49656],[126.74696,37.49652],[126.74695,37.49648],[126.74695,37.49643],[126.74693,37.49637],[126.7469,37.49627],[126.74688,37.49619],[126.74687,37.49612],[126.74687,37.49606],[126.74687,37.49596],[126.74687,37.49591],[126.74686,37.49586],[126.74686,37.49581],[126.74684,37.49573],[126.74682,37.49556],[126.74678,37.49542],[126.74675,37.49536],[126.74674,37.49533],[126.74671,37.4953],[126.7467,37.49526],[126.7467,37.49526],[126.7467,37.49518],[126.74671,37.49514],[126.74671,37.4951],[126.7467,37.49504],[126.74668,37.49492],[126.74667,37.49489],[126.74667,37.49485],[126.74667,37.4948],[126.74666,37.49473],[126.74667,37.49468],[126.74666,37.49461],[126.74666,37.49455],[126.74666,37.49449],[126.74665,37.49443],[126.74664,37.49438],[126.74663,37.49434],[126.74662,37.4943]]]}},{"type":"Feature","id":"TN_RIVER_BNDRY:WTR0100000000PPXS","properties":{"NF_ID":"WTR0100000000PPXS","admin_code":"41192","source_layer":"TN_RIVER_BNDRY","semantic":"zone","river_class":"소하천","river_class_source":"중심선 공간조인","survey_method":"사진측량"},"geometry":{"type":"Polygon","coordinates":[[[126.74555,37.49176],[126.74554,37.49174],[126.74551,37.49174],[126.74551,37.49177],[126.74555,37.49188],[126.74557,37.49192],[126.74558,37.49195],[126.74558,37.492],[126.74557,37.49203],[126.74557,37.49206],[126.74556,37.49208],[126.74554,37.49211],[126.74553,37.49215],[126.74552,37.49218],[126.74552,37.49223],[126.74552,37.49226],[126.74552,37.49231],[126.74552,37.49233],[126.74551,37.4924],[126.7455,37.4925],[126.7455,37.49254],[126.74549,37.4926],[126.74548,37.49267],[126.74548,37.49272],[126.74547,37.49277],[126.74547,37.49283],[126.74547,37.49287],[126.74548,37.4929],[126.7455,37.49295],[126.74551,37.49299],[126.74553,37.49303],[126.74556,37.49309],[126.74557,37.49312],[126.74559,37.49316],[126.74559,37.4932],[126.74559,37.49324],[126.74559,37.49326],[126.74557,37.49332],[126.74556,37.49334],[126.74556,37.49338],[126.74556,37.49342],[126.74556,37.49347],[126.74555,37.49352],[126.74554,37.49357],[126.74554,37.49361],[126.74554,37.49366],[126.74554,37.49371],[126.74554,37.49375],[126.74554,37.49379],[126.74554,37.49383],[126.74553,37.49387],[126.74553,37.49391],[126.74553,37.49396],[126.74554,37.49399],[126.74555,37.49402],[126.74556,37.49405],[126.74557,37.49408],[126.74558,37.49408],[126.74561,37.49409],[126.74562,37.49408],[126.74561,37.49406],[126.7456,37.49404],[126.74558,37.494],[126.74557,37.49397],[126.74557,37.49393],[126.74558,37.4939],[126.74558,37.49386],[126.74559,37.49382],[126.74559,37.49377],[126.74559,37.49372],[126.74558,37.49368],[126.74558,37.49363],[126.74559,37.49357],[126.7456,37.49352],[126.7456,37.49347],[126.7456,37.49343],[126.74559,37.49338],[126.74561,37.49334],[126.74562,37.49331],[126.74563,37.49326],[126.74563,37.49322],[126.74562,37.49317],[126.74562,37.49313],[126.74561,37.49309],[126.74557,37.49302],[126.74555,37.49299],[126.74554,37.49293],[126.74554,37.49291],[126.74554,37.49287],[126.74554,37.49284],[126.74553,37.4928],[126.74553,37.49276],[126.74553,37.49271],[126.74554,37.49267],[126.74554,37.49262],[126.74555,37.49255],[126.74558,37.49233],[126.74558,37.49231],[126.74558,37.49228],[126.74558,37.49227],[126.74558,37.49224],[126.74557,37.4922],[126.74558,37.49216],[126.74559,37.49211],[126.74561,37.49204],[126.74562,37.49201],[126.74562,37.49199],[126.74562,37.49196],[126.74562,37.49193],[126.74561,37.49188],[126.74555,37.49176]]]}},{"type":"Feature","id":"TN_RIVER_BNDRY:WTR0100000000PZ8D","properties":{"NF_ID":"WTR0100000000PZ8D","admin_code":"41192","source_layer":"TN_RIVER_BNDRY","semantic":"zone","river_class":"소하천","river_class_source":"중심선 공간조인","survey_method":"사진측량"},"geometry":{"type":"Polygon","coordinates":[[[126.74717,37.49775],[126.74742,37.4977],[126.74725,37.4976],[126.74711,37.49773],[126.74745,37.49955],[126.74769,37.5],[126.7473,37.49882],[126.7474,37.4986],[126.74717,37.49775]]]}},{"type":"Feature","id":"TN_RIVER_BNDRY:WTR0100000000Q5X9","properties":{"NF_ID":"WTR0100000000Q5X9","admin_code":"41192","source_layer":"TN_RIVER_BNDRY","semantic":"zone","river_class":"지방하천","river_class_source":"중심선 공간조인","river_name":"굴포천","river_code":"1025640","survey_method":"사진측량"},"geometry":{"type":"Polygon","coordinates":[[[126.75542,37.51619],[126.75434,37.51588],[126.75406,37.51639],[126.75521,37.51669],[126.75542,37.51619]]]}},{"type":"Feature","id":"TN_RIVER_BNDRY:WTR0100000000QEH2","properties":{"NF_ID":"WTR0100000000QEH2","admin_code":"41192","source_layer":"TN_RIVER_BNDRY","semantic":"zone","river_class":"소하천","river_class_source":"중심선 공간조인","survey_method":"사진측량"},"geometry":{"type":"Polygon","coordinates":[[[126.81158,37.50251],[126.81218,37.50234],[126.81277,37.50173],[126.81326,37.5018],[126.81378,37.50164],[126.81398,37.50112],[126.81424,37.50094],[126.81396,37.50111],[126.81376,37.50163],[126.81325,37.50178],[126.81277,37.50171],[126.81215,37.50234],[126.81158,37.50251]]]}},{"type":"Feature","id":"TN_RIVER_BNDRY:WTR0100000000QEJ4","properties":{"NF_ID":"WTR0100000000QEJ4","admin_code":"41192","source_layer":"TN_RIVER_BNDRY","semantic":"zone","river_class":"소하천","river_class_source":"중심선 공간조인","survey_method":"사진측량"},"geometry":{"type":"Polygon","coordinates":[[[126.8116,37.50254],[126.81158,37.50251],[126.81151,37.50254],[126.81153,37.50256],[126.8116,37.50254]]]}},{"type":"Feature","id":"TN_RIVER_BNDRY:WTR0100000000QEK5","properties":{"NF_ID":"WTR0100000000QEK5","admin_code":"41192","source_layer":"TN_RIVER_BNDRY","semantic":"zone","river_class":"소하천","river_class_source":"중심선 공간조인","survey_method":"사진측량"},"geometry":{"type":"Polygon","coordinates":[[[126.81153,37.50256],[126.81118,37.50327],[126.81028,37.50429],[126.81,37.50518],[126.80878,37.50633],[126.80943,37.5059],[126.81013,37.50507],[126.81033,37.50424],[126.81123,37.50328],[126.81153,37.50256]]]}},{"type":"Feature","id":"TN_RIVER_BNDRY:WTR0100000000R1X6","properties":{"NF_ID":"WTR0100000000R1X6","admin_code":"41192","source_layer":"TN_RIVER_BNDRY","semantic":"zone","river_class":"소하천","river_class_source":"중심선 공간조인","survey_method":"사진측량"},"geometry":{"type":"Polygon","coordinates":[[[126.76739,37.50026],[126.76739,37.50014],[126.76694,37.5],[126.76739,37.50026]]]}},{"type":"Feature","id":"TN_RIVER_BNDRY:WTR0100000000R1Z8","properties":{"NF_ID":"WTR0100000000R1Z8","admin_code":"41192","source_layer":"TN_RIVER_BNDRY","semantic":"zone","river_class":"소하천","river_class_source":"중심선 공간조인","survey_method":"사진측량"},"geometry":{"type":"Polygon","coordinates":[[[126.81158,37.50251],[126.81111,37.50144],[126.81011,37.50051],[126.80986,37.5],[126.81009,37.50053],[126.81108,37.50143],[126.81158,37.50251]]]}},{"type":"Feature","id":"TN_RIVER_BNDRY:WTR0100000000R49L","properties":{"NF_ID":"WTR0100000000R49L","admin_code":"41192","source_layer":"TN_RIVER_BNDRY","semantic":"zone","river_class":"소하천","river_class_source":"중심선 공간조인","survey_method":"사진측량"},"geometry":{"type":"Polygon","coordinates":[[[126.74791,37.50131],[126.74787,37.5013],[126.74782,37.5013],[126.74782,37.5013],[126.74783,37.50132],[126.74783,37.50133],[126.74787,37.50137],[126.74791,37.50142],[126.74794,37.50145],[126.74798,37.50152],[126.748,37.50163],[126.748,37.50172],[126.74803,37.50194],[126.74806,37.5021],[126.74809,37.50222],[126.74812,37.50236],[126.74814,37.50247],[126.74817,37.50262],[126.74819,37.50273],[126.7482,37.50292],[126.74822,37.50297],[126.74823,37.50302],[126.74822,37.50308],[126.74819,37.50314],[126.74818,37.50317],[126.74822,37.50331],[126.74827,37.50352],[126.74828,37.5036],[126.74829,37.50367],[126.74829,37.50371],[126.74829,37.50375],[126.74829,37.50376],[126.74829,37.50376],[126.74829,37.50377],[126.7483,37.50377],[126.74831,37.50377],[126.74831,37.50378],[126.74832,37.50378],[126.74833,37.50378],[126.74834,37.50378],[126.74834,37.50377],[126.74835,37.50377],[126.74836,37.50377],[126.74836,37.50376],[126.74836,37.50376],[126.74836,37.50375],[126.74836,37.5037],[126.74833,37.50357],[126.7483,37.50346],[126.74829,37.50343],[126.7483,37.50338],[126.7483,37.50335],[126.7483,37.50329],[126.74826,37.50322],[126.74824,37.50319],[126.74823,37.50315],[126.74827,37.5031],[126.74829,37.50307],[126.74829,37.50302],[126.74827,37.50296],[126.74826,37.50293],[126.74825,37.50285],[126.74825,37.5028],[126.74825,37.50273],[126.74824,37.5027],[126.74823,37.50264],[126.74821,37.50257],[126.7482,37.50248],[126.7482,37.50242],[126.74819,37.50237],[126.74816,37.50225],[126.74814,37.50218],[126.74813,37.50214],[126.74813,37.50206],[126.74811,37.50201],[126.7481,37.50196],[126.74808,37.50188],[126.74808,37.50181],[126.74807,37.50175],[126.74805,37.50169],[126.74806,37.50164],[126.74805,37.50159],[126.74803,37.50151],[126.74798,37.50141],[126.74796,37.50136],[126.74791,37.50131]]]}},{"type":"Feature","id":"TN_RIVER_BNDRY:WTR0100000000R4AM","properties":{"NF_ID":"WTR0100000000R4AM","admin_code":"41192","source_layer":"TN_RIVER_BNDRY","semantic":"zone","river_class":"소하천","river_class_source":"중심선 공간조인","survey_method":"사진측량"},"geometry":{"type":"Polygon","coordinates":[[[126.74882,37.51446],[126.74909,37.51387],[126.74885,37.51337],[126.74529,37.51391],[126.74575,37.51457],[126.74703,37.51421],[126.74787,37.51413],[126.74871,37.51413],[126.74882,37.51446]]]}},{"type":"Feature","id":"TN_RIVER_BNDRY:WTR0100000000RPWT","properties":{"NF_ID":"WTR0100000000RPWT","admin_code":"41192","source_layer":"TN_RIVER_BNDRY","semantic":"zone","river_class":"소하천","river_class_source":"중심선 공간조인","survey_method":"사진측량"},"geometry":{"type":"Polygon","coordinates":[[[126.74769,37.5],[126.74769,37.5],[126.74765,37.5],[126.74765,37.5],[126.74766,37.50004],[126.74768,37.50009],[126.7477,37.50012],[126.74771,37.50019],[126.74771,37.50023],[126.74771,37.50027],[126.7477,37.5003],[126.7477,37.50033],[126.74771,37.50037],[126.74772,37.5004],[126.74773,37.50043],[126.74774,37.50046],[126.74774,37.50049],[126.74774,37.50052],[126.74777,37.50061],[126.74778,37.50065],[126.74779,37.50068],[126.7478,37.50071],[126.74782,37.50074],[126.74783,37.50078],[126.74783,37.5008],[126.74782,37.50084],[126.7478,37.5009],[126.74778,37.50092],[126.74776,37.50097],[126.74776,37.50099],[126.74776,37.50101],[126.74777,37.50103],[126.74779,37.50103],[126.74781,37.50102],[126.74783,37.501],[126.74783,37.50098],[126.74782,37.50096],[126.74781,37.50095],[126.74783,37.50092],[126.74784,37.5009],[126.74788,37.50083],[126.74788,37.50078],[126.74786,37.50074],[126.74782,37.50066],[126.74781,37.50063],[126.7478,37.50059],[126.74779,37.50055],[126.74779,37.50048],[126.74778,37.50044],[126.74777,37.5004],[126.74775,37.50031],[126.74774,37.50017],[126.74771,37.50007],[126.74769,37.5]]]}}]}