{"type":"FeatureCollection","features":[{"type":"Feature","id":"TN_RIVER_BT:WTR02000000002XVC","properties":{"NF_ID":"WTR02000000002XVC","admin_code":"11260","source_layer":"TN_RIVER_BT","semantic":"channel","river_class":"소하천","river_class_source":"중심선 공간조인","survey_method":"사진측량"},"geometry":{"type":"Polygon","coordinates":[[[127.10201,37.58707],[127.1025,37.58663],[127.10202,37.58705],[127.10184,37.58679],[127.1025,37.5865],[127.10179,37.58677],[127.10155,37.58654],[127.10171,37.58714],[127.10201,37.58707]]]}},{"type":"Feature","id":"TN_RIVER_BT:WTR02000000002XWD","properties":{"NF_ID":"WTR02000000002XWD","admin_code":"11260","source_layer":"TN_RIVER_BT","semantic":"channel","river_class":"소하천","river_class_source":"중심선 공간조인","survey_method":"사진측량"},"geometry":{"type":"Polygon","coordinates":[[[127.10316,37.58714],[127.10316,37.58714],[127.10315,37.58714],[127.10313,37.58714],[127.10311,37.58715],[127.10306,37.58716],[127.10305,37.58716],[127.10303,37.58717],[127.10301,37.58717],[127.10298,37.58717],[127.10288,37.58719],[127.10281,37.58719],[127.10279,37.5872],[127.10277,37.5872],[127.10274,37.5872],[127.10272,37.58721],[127.1027,37.58721],[127.10268,37.58722],[127.10266,37.58723],[127.10265,37.58724],[127.10263,37.58724],[127.10262,37.58725],[127.1026,37.58726],[127.10259,37.58726],[127.10258,37.58727],[127.10257,37.58728],[127.10251,37.58733],[127.10248,37.58735],[127.10247,37.58736],[127.10246,37.58737],[127.10244,37.58738],[127.10241,37.5874],[127.1024,37.5874],[127.10239,37.58741],[127.10237,37.58742],[127.10236,37.58742],[127.10233,37.58743],[127.10225,37.58746],[127.10223,37.58746],[127.1022,37.58748],[127.10217,37.58752],[127.10217,37.58752],[127.10217,37.58753],[127.10218,37.58753],[127.1022,37.58753],[127.10223,37.58752],[127.10229,37.5875],[127.10232,37.58748],[127.10236,37.58746],[127.10239,37.58745],[127.10242,37.58743],[127.10244,37.58742],[127.10246,37.58742],[127.10247,37.58741],[127.10248,37.5874],[127.10249,37.58739],[127.10251,37.58738],[127.10254,37.58735],[127.10256,37.58733],[127.10258,37.58732],[127.1026,37.5873],[127.10262,37.58729],[127.10264,37.58728],[127.10265,37.58727],[127.10267,37.58726],[127.10269,37.58726],[127.1027,37.58725],[127.10271,37.58725],[127.10272,37.58724],[127.10274,37.58724],[127.10275,37.58723],[127.10276,37.58723],[127.10278,37.58723],[127.10279,37.58722],[127.10281,37.58722],[127.10282,37.58722],[127.10288,37.58721],[127.1029,37.58721],[127.10293,37.5872],[127.10295,37.5872],[127.10299,37.58719],[127.10302,37.58719],[127.10306,37.58718],[127.10309,37.58717],[127.10311,37.58717],[127.10312,37.58716],[127.10313,37.58716],[127.10314,37.58715],[127.10315,37.58715],[127.10315,37.58715],[127.10316,37.58714],[127.10316,37.58714],[127.10316,37.58714]]]}},{"type":"Feature","id":"TN_RIVER_BT:WTR02000000002XYF","properties":{"NF_ID":"WTR02000000002XYF","admin_code":"11260","source_layer":"TN_RIVER_BT","semantic":"channel","river_class":"소하천","river_class_source":"중심선 공간조인","survey_method":"사진측량"},"geometry":{"type":"Polygon","coordinates":[[[127.10262,37.5884],[127.10262,37.5884],[127.10263,37.5884],[127.10263,37.5884],[127.10265,37.58841],[127.10266,37.58841],[127.10266,37.58841],[127.10267,37.58841],[127.10267,37.58841],[127.10268,37.5884],[127.10268,37.5884],[127.10268,37.5884],[127.10268,37.5884],[127.10268,37.5884],[127.10268,37.5884],[127.10268,37.58839],[127.10268,37.58839],[127.10268,37.58838],[127.10268,37.58838],[127.10268,37.58838],[127.10268,37.58837],[127.10268,37.58837],[127.10268,37.58837],[127.10267,37.58837],[127.10267,37.58837],[127.10266,37.58837],[127.10266,37.58837],[127.10265,37.58837],[127.10263,37.58838],[127.10262,37.58838],[127.10261,37.58838],[127.1026,37.58838],[127.10259,37.58839],[127.10259,37.58839],[127.10259,37.58839],[127.10258,37.58839],[127.10258,37.58839],[127.10258,37.5884],[127.10258,37.5884],[127.10258,37.5884],[127.10257,37.58841],[127.10257,37.58842],[127.10257,37.58843],[127.10256,37.58843],[127.10256,37.58843],[127.10256,37.58843],[127.10256,37.58844],[127.10256,37.58844],[127.10254,37.58844],[127.10253,37.58844],[127.10252,37.58845],[127.10252,37.58845],[127.10252,37.58845],[127.10252,37.58845],[127.10252,37.58845],[127.10251,37.58845],[127.10251,37.58845],[127.10251,37.58846],[127.10251,37.58846],[127.10251,37.58846],[127.10251,37.58846],[127.10251,37.58847],[127.10251,37.58847],[127.10251,37.58847],[127.10251,37.58848],[127.10251,37.58848],[127.10251,37.58848],[127.10252,37.58849],[127.10252,37.58849],[127.10252,37.5885],[127.10252,37.5885],[127.10254,37.58851],[127.10254,37.58852],[127.10254,37.58852],[127.10254,37.58853],[127.10255,37.58853],[127.10255,37.58853],[127.10255,37.58854],[127.10255,37.58854],[127.10255,37.58854],[127.10254,37.58855],[127.10254,37.58855],[127.10254,37.58856],[127.10254,37.58857],[127.10254,37.58858],[127.10254,37.58858],[127.10254,37.58859],[127.10254,37.58861],[127.10254,37.58862],[127.10254,37.58862],[127.10253,37.58863],[127.10253,37.58863],[127.10253,37.58863],[127.10253,37.58864],[127.10253,37.58864],[127.10253,37.58864],[127.10253,37.58864],[127.10253,37.58864],[127.10253,37.58865],[127.10253,37.58865],[127.10253,37.58865],[127.10254,37.58865],[127.10254,37.58865],[127.10254,37.58865],[127.10254,37.58865],[127.10255,37.58865],[127.10255,37.58865],[127.10255,37.58865],[127.10255,37.58865],[127.10255,37.58864],[127.10255,37.58864],[127.10256,37.58864],[127.10256,37.58864],[127.10256,37.58863],[127.10256,37.58862],[127.10256,37.58862],[127.10257,37.58861],[127.10257,37.5886],[127.10257,37.5886],[127.10257,37.58859],[127.10257,37.58859],[127.10257,37.58858],[127.10257,37.58858],[127.10257,37.58857],[127.10257,37.58856],[127.10257,37.58856],[127.10256,37.58855],[127.10256,37.58855],[127.10256,37.58855],[127.10256,37.58854],[127.10256,37.58854],[127.10256,37.58854],[127.10257,37.58853],[127.10257,37.58852],[127.10257,37.58852],[127.10257,37.58852],[127.10257,37.58851],[127.10257,37.58851],[127.10257,37.58851],[127.10257,37.5885],[127.10257,37.5885],[127.10257,37.58849],[127.10256,37.58848],[127.10256,37.58848],[127.10256,37.58847],[127.10256,37.58847],[127.10256,37.58847],[127.10256,37.58847],[127.10256,37.58846],[127.10257,37.58846],[127.10258,37.58845],[127.10259,37.58845],[127.10259,37.58844],[127.10259,37.58844],[127.1026,37.58844],[127.1026,37.58844],[127.1026,37.58843],[127.1026,37.58843],[127.1026,37.58843],[127.1026,37.58841],[127.1026,37.58841],[127.1026,37.58841],[127.1026,37.58841],[127.10261,37.58841],[127.10261,37.58841],[127.10261,37.5884],[127.10262,37.5884]]]}},{"type":"Feature","id":"TN_RIVER_BT:WTR02000000002Y0I","properties":{"NF_ID":"WTR02000000002Y0I","admin_code":"11260","source_layer":"TN_RIVER_BT","semantic":"channel","river_class":"소하천","river_class_source":"중심선 공간조인","survey_method":"사진측량"},"geometry":{"type":"Polygon","coordinates":[[[127.10457,37.59063],[127.10454,37.59063],[127.10441,37.59065],[127.10432,37.59066],[127.10421,37.59069],[127.10409,37.59072],[127.104,37.59074],[127.1039,37.59077],[127.10377,37.59079],[127.10366,37.59081],[127.10351,37.59084],[127.10348,37.59084],[127.10349,37.59086],[127.10352,37.59085],[127.10367,37.59082],[127.10379,37.5908],[127.10389,37.59078],[127.104,37.59077],[127.10411,37.59075],[127.10421,37.59073],[127.10432,37.5907],[127.10444,37.59068],[127.10456,37.59065],[127.10458,37.59065],[127.10458,37.59064],[127.10458,37.59064],[127.10457,37.59063]]]}}]}