{"type":"FeatureCollection","features":[{"type":"Feature","id":"TN_RIVER_BT:WTR02000000007OCP","properties":{"NF_ID":"WTR02000000007OCP","admin_code":"30140","source_layer":"TN_RIVER_BT","semantic":"channel","river_class":"소하천","river_class_source":"중심선 공간조인","survey_method":"사진측량"},"geometry":{"type":"Polygon","coordinates":[[[127.41763,36.22073],[127.4201,36.22022],[127.42095,36.22034],[127.42169,36.22105],[127.42094,36.22029],[127.42011,36.22019],[127.41763,36.22071],[127.41748,36.2199],[127.41665,36.21894],[127.41753,36.21808],[127.41959,36.21784],[127.42012,36.21704],[127.42049,36.21696],[127.42015,36.21698],[127.42008,36.21624],[127.42052,36.21551],[127.42002,36.21616],[127.42012,36.21698],[127.41954,36.21784],[127.41753,36.21805],[127.41728,36.21701],[127.41645,36.21618],[127.41664,36.21584],[127.41627,36.21501],[127.41569,36.21474],[127.41622,36.21504],[127.41657,36.2158],[127.41643,36.21621],[127.41726,36.2171],[127.41746,36.21813],[127.4166,36.2189],[127.41744,36.21994],[127.41769,36.22136],[127.41645,36.22283],[127.41617,36.22333],[127.41623,36.22383],[127.41591,36.2241],[127.41627,36.22395],[127.41639,36.22307],[127.41774,36.22141],[127.41763,36.22073]]]}},{"type":"Feature","id":"TN_RIVER_BT:WTR02000000007OLY","properties":{"NF_ID":"WTR02000000007OLY","admin_code":"30140","source_layer":"TN_RIVER_BT","semantic":"channel","river_class":"지방하천","river_class_source":"중심선 공간조인","river_name":"정생천","river_code":"3021670","survey_method":"사진측량"},"geometry":{"type":"Polygon","coordinates":[[[127.39847,36.24163],[127.39844,36.24092],[127.39761,36.2404],[127.39719,36.23964],[127.39746,36.24029],[127.39842,36.24098],[127.39847,36.24163]]]}},{"type":"Feature","id":"TN_RIVER_BT:WTR02000000007OS5","properties":{"NF_ID":"WTR02000000007OS5","admin_code":"30140","source_layer":"TN_RIVER_BT","semantic":"channel","river_class":"소하천","river_class_source":"중심선 공간조인","survey_method":"사진측량"},"geometry":{"type":"Polygon","coordinates":[[[127.43074,36.24721],[127.42981,36.24707],[127.42915,36.24625],[127.42975,36.24709],[127.43074,36.24721]]]}},{"type":"Feature","id":"TN_RIVER_BT:WTR02000000007P0E","properties":{"NF_ID":"WTR02000000007P0E","admin_code":"30140","source_layer":"TN_RIVER_BT","semantic":"channel","river_class":"소하천","river_class_source":"중심선 공간조인","survey_method":"사진측량"},"geometry":{"type":"Polygon","coordinates":[[[127.39658,36.24996],[127.39657,36.24996],[127.39656,36.24996],[127.39657,36.24997],[127.39663,36.25],[127.39665,36.25],[127.3966,36.24997],[127.39658,36.24996]]]}},{"type":"Feature","id":"TN_RIVER_BT:WTR02000000007P1F","properties":{"NF_ID":"WTR02000000007P1F","admin_code":"30140","source_layer":"TN_RIVER_BT","semantic":"channel","river_class":"지방하천","river_class_source":"중심선 공간조인","river_name":"정생천","river_code":"3021670","survey_method":"사진측량"},"geometry":{"type":"Polygon","coordinates":[[[127.39879,36.2437],[127.39999,36.24456],[127.40038,36.24523],[127.40123,36.2455],[127.40202,36.24667],[127.40189,36.24802],[127.40212,36.25],[127.4021,36.24668],[127.40136,36.24544],[127.40037,36.24508],[127.39993,36.24447],[127.39879,36.2437]]]}},{"type":"Feature","id":"TN_RIVER_BT:WTR02000000007P2G","properties":{"NF_ID":"WTR02000000007P2G","admin_code":"30140","source_layer":"TN_RIVER_BT","semantic":"channel","river_class":"지방하천","river_class_source":"중심선 공간조인","river_name":"금동천","river_code":"3021680","survey_method":"사진측량"},"geometry":{"type":"Polygon","coordinates":[[[127.40711,36.24995],[127.40824,36.24858],[127.41151,36.24761],[127.4139,36.24565],[127.4139,36.24511],[127.41331,36.24416],[127.41353,36.24358],[127.41528,36.24393],[127.41623,36.2446],[127.41625,36.24487],[127.41553,36.24536],[127.41538,36.24579],[127.41561,36.24606],[127.41641,36.2463],[127.41738,36.24615],[127.41763,36.24556],[127.41835,36.24499],[127.4193,36.2453],[127.42073,36.24537],[127.42321,36.24452],[127.42478,36.24524],[127.42343,36.24451],[127.42216,36.24465],[127.42194,36.2437],[127.42213,36.24152],[127.42187,36.24105],[127.42276,36.24044],[127.42276,36.23971],[127.42265,36.24052],[127.42182,36.24106],[127.42207,36.2415],[127.42188,36.24372],[127.42209,36.24475],[127.42062,36.24531],[127.41958,36.24527],[127.41825,36.24489],[127.41756,36.24548],[127.41727,36.24608],[127.41635,36.24622],[127.41565,36.24598],[127.41552,36.24568],[127.4166,36.24462],[127.41532,36.24386],[127.41341,36.24335],[127.41312,36.2441],[127.41372,36.24555],[127.41214,36.24712],[127.41049,36.24786],[127.40819,36.24841],[127.40682,36.24992],[127.40602,36.24897],[127.40565,36.24728],[127.40599,36.24586],[127.40532,36.24488],[127.40527,36.24243],[127.40441,36.2412],[127.40441,36.24073],[127.40462,36.24046],[127.4058,36.24057],[127.40651,36.2402],[127.40614,36.23827],[127.40642,36.23709],[127.40722,36.23624],[127.40777,36.2348],[127.40753,36.23318],[127.40837,36.23285],[127.40894,36.2323],[127.40952,36.23271],[127.41124,36.23223],[127.41214,36.2325],[127.41123,36.23221],[127.40953,36.23269],[127.40899,36.23226],[127.40946,36.2317],[127.41075,36.23133],[127.41148,36.23021],[127.41243,36.22971],[127.41387,36.22821],[127.41497,36.22647],[127.41551,36.22474],[127.41411,36.22763],[127.41237,36.22967],[127.41138,36.23022],[127.41074,36.23127],[127.40939,36.23168],[127.40824,36.23284],[127.40746,36.23318],[127.40764,36.23483],[127.40702,36.23632],[127.4064,36.2369],[127.40608,36.23827],[127.40646,36.23963],[127.40636,36.24011],[127.40576,36.24048],[127.40471,36.24037],[127.40433,36.24055],[127.40428,36.24123],[127.40518,36.24243],[127.4052,36.24479],[127.4059,36.24597],[127.40552,36.24721],[127.40567,36.24839],[127.40655,36.25],[127.40711,36.24995]]]}},{"type":"Feature","id":"TN_RIVER_BT:WTR0200000000843X","properties":{"NF_ID":"WTR0200000000843X","admin_code":"30140","source_layer":"TN_RIVER_BT","semantic":"channel","river_class":"소하천","river_class_source":"중심선 공간조인","survey_method":"사진측량"},"geometry":{"type":"Polygon","coordinates":[[[127.41,36.25004],[127.41024,36.25031],[127.41019,36.25083],[127.41027,36.25027],[127.41,36.25004]]]}},{"type":"Feature","id":"TN_RIVER_BT:WTR02000000008460","properties":{"NF_ID":"WTR02000000008460","admin_code":"30140","source_layer":"TN_RIVER_BT","semantic":"channel","river_class":"등급미확인","survey_method":"사진측량"},"geometry":{"type":"Polygon","coordinates":[[[127.39543,36.26939],[127.39542,36.26939],[127.3954,36.2694],[127.39539,36.26942],[127.39538,36.26945],[127.39539,36.26947],[127.39542,36.2695],[127.39554,36.26958],[127.39574,36.26966],[127.39577,36.26967],[127.39578,36.26967],[127.39578,36.26967],[127.39578,36.26966],[127.39578,36.26965],[127.3956,36.26951],[127.39543,36.26939]]]}},{"type":"Feature","id":"TN_RIVER_BT:WTR020000000084MG","properties":{"NF_ID":"WTR020000000084MG","admin_code":"30140","source_layer":"TN_RIVER_BT","semantic":"channel","river_class":"소하천","river_class_source":"중심선 공간조인","survey_method":"사진측량"},"geometry":{"type":"Polygon","coordinates":[[[127.40052,36.28789],[127.40158,36.28747],[127.40048,36.28786],[127.40014,36.28778],[127.40002,36.28745],[127.40012,36.2878],[127.40052,36.28789]]]}},{"type":"Feature","id":"TN_RIVER_BT:WTR020000000084OI","properties":{"NF_ID":"WTR020000000084OI","admin_code":"30140","source_layer":"TN_RIVER_BT","semantic":"channel","river_class":"국가하천","river_class_source":"중심선 공간조인","river_name":"유등천","river_code":"3001620","survey_method":"사진측량"},"geometry":{"type":"Polygon","coordinates":[[[127.37602,36.28797],[127.37656,36.28748],[127.37586,36.28784],[127.37703,36.28663],[127.37561,36.28768],[127.37515,36.28838],[127.3751,36.28914],[127.37602,36.28797]]]}},{"type":"Feature","id":"TN_RIVER_BT:WTR020000000084SM","properties":{"NF_ID":"WTR020000000084SM","admin_code":"30140","source_layer":"TN_RIVER_BT","semantic":"channel","river_class":"소하천","river_class_source":"중심선 공간조인","survey_method":"사진측량"},"geometry":{"type":"Polygon","coordinates":[[[127.39211,36.29031],[127.38954,36.28987],[127.38867,36.29003],[127.38956,36.28991],[127.39211,36.29031]]]}},{"type":"Feature","id":"TN_RIVER_BT:WTR0200000000850V","properties":{"NF_ID":"WTR0200000000850V","admin_code":"30140","source_layer":"TN_RIVER_BT","semantic":"channel","river_class":"소하천","river_class_source":"중심선 공간조인","survey_method":"사진측량"},"geometry":{"type":"Polygon","coordinates":[[[127.38856,36.29061],[127.38868,36.2916],[127.38961,36.29379],[127.38856,36.29061]]]}},{"type":"Feature","id":"TN_RIVER_BT:WTR0200000000853Y","properties":{"NF_ID":"WTR0200000000853Y","admin_code":"30140","source_layer":"TN_RIVER_BT","semantic":"channel","river_class":"소하천","river_class_source":"중심선 공간조인","survey_method":"사진측량"},"geometry":{"type":"Polygon","coordinates":[[[127.39846,36.29732],[127.40019,36.2972],[127.39948,36.29709],[127.39846,36.29732]]]}},{"type":"Feature","id":"TN_RIVER_BT:WTR0200000000854Z","properties":{"NF_ID":"WTR0200000000854Z","admin_code":"30140","source_layer":"TN_RIVER_BT","semantic":"channel","river_class":"소하천","river_class_source":"중심선 공간조인","survey_method":"사진측량"},"geometry":{"type":"Polygon","coordinates":[[[127.40323,36.29718],[127.40253,36.29716],[127.40268,36.29682],[127.40228,36.29722],[127.40095,36.29717],[127.4031,36.29719],[127.40509,36.29801],[127.40323,36.29718]]]}},{"type":"Feature","id":"TN_RIVER_BT:WTR02000000008561","properties":{"NF_ID":"WTR02000000008561","admin_code":"30140","source_layer":"TN_RIVER_BT","semantic":"channel","river_class":"소하천","river_class_source":"중심선 공간조인","survey_method":"사진측량"},"geometry":{"type":"Polygon","coordinates":[[[127.40626,36.29871],[127.40693,36.29918],[127.40774,36.29932],[127.40626,36.29871]]]}},{"type":"Feature","id":"TN_RIVER_BT:WTR02000000008594","properties":{"NF_ID":"WTR02000000008594","admin_code":"30140","source_layer":"TN_RIVER_BT","semantic":"channel","river_class":"소하천","river_class_source":"중심선 공간조인","survey_method":"사진측량"},"geometry":{"type":"Polygon","coordinates":[[[127.38902,36.30174],[127.38966,36.30142],[127.39093,36.30145],[127.39158,36.30115],[127.3928,36.30016],[127.39312,36.29944],[127.39422,36.29847],[127.39678,36.29768],[127.39727,36.29789],[127.39759,36.29767],[127.39729,36.29786],[127.39678,36.29765],[127.39415,36.29846],[127.39295,36.29949],[127.39279,36.30013],[127.39108,36.30138],[127.38966,36.30137],[127.38898,36.30172],[127.38734,36.30163],[127.38902,36.30174]]]}},{"type":"Feature","id":"TN_RIVER_BT:WTR020000000085A5","properties":{"NF_ID":"WTR020000000085A5","admin_code":"30140","source_layer":"TN_RIVER_BT","semantic":"channel","river_class":"소하천","river_class_source":"중심선 공간조인","survey_method":"사진측량"},"geometry":{"type":"Polygon","coordinates":[[[127.43979,36.2959],[127.43885,36.29573],[127.43751,36.2949],[127.43407,36.29428],[127.43273,36.29483],[127.43257,36.29526],[127.43161,36.29578],[127.43253,36.29532],[127.43274,36.29486],[127.4333,36.29452],[127.43406,36.29431],[127.43749,36.29493],[127.43884,36.29577],[127.43978,36.29594],[127.44002,36.29632],[127.43986,36.29696],[127.44104,36.29995],[127.44362,36.30374],[127.44442,36.30456],[127.44114,36.30004],[127.44006,36.29735],[127.44008,36.29622],[127.43979,36.2959]]]}},{"type":"Feature","id":"TN_RIVER_BT:WTR020000000085B6","properties":{"NF_ID":"WTR020000000085B6","admin_code":"30140","source_layer":"TN_RIVER_BT","semantic":"channel","river_class":"소하천","river_class_source":"중심선 공간조인","survey_method":"사진측량"},"geometry":{"type":"Polygon","coordinates":[[[127.41198,36.30645],[127.41141,36.30696],[127.41197,36.30807],[127.41147,36.30691],[127.41198,36.30645]]]}},{"type":"Feature","id":"TN_RIVER_BT:WTR020000000085C7","properties":{"NF_ID":"WTR020000000085C7","admin_code":"30140","source_layer":"TN_RIVER_BT","semantic":"channel","river_class":"소하천","river_class_source":"중심선 공간조인","survey_method":"사진측량"},"geometry":{"type":"Polygon","coordinates":[[[127.42989,36.30797],[127.42915,36.30714],[127.42983,36.30795],[127.42891,36.30748],[127.43012,36.30828],[127.42989,36.30797]]]}}]}