{"type":"FeatureCollection","features":[{"type":"Feature","id":"TN_RIVER_BNDRY:WTR0100000000OSJG","properties":{"NF_ID":"WTR0100000000OSJG","admin_code":"41190","source_layer":"TN_RIVER_BNDRY","semantic":"zone","river_class":"소하천","river_class_source":"중심선 공간조인","river_name":"심곡천","river_code":"1520300","survey_method":"사진측량"},"geometry":{"type":"Polygon","coordinates":[[[126.78518,37.49007],[126.78545,37.48988],[126.78546,37.48989],[126.78594,37.4895],[126.78636,37.48917],[126.7868,37.48884],[126.78714,37.48859],[126.78739,37.48836],[126.78778,37.48806],[126.7883,37.48766],[126.78869,37.48737],[126.78904,37.48712],[126.78919,37.48704],[126.78913,37.48697],[126.78885,37.48716],[126.78844,37.48749],[126.78783,37.48797],[126.7874,37.48829],[126.7873,37.48837],[126.78712,37.48854],[126.78701,37.48862],[126.78658,37.48894],[126.7862,37.48923],[126.78578,37.48955],[126.78551,37.48977],[126.78521,37.48998],[126.78497,37.49017],[126.78452,37.49049],[126.78404,37.4909],[126.78384,37.49105],[126.78314,37.49158],[126.78262,37.49199],[126.78228,37.49226],[126.78225,37.4923],[126.78223,37.4923],[126.78189,37.49255],[126.78188,37.49256],[126.7819,37.49257],[126.78193,37.49259],[126.78194,37.49261],[126.7823,37.4923],[126.78234,37.49227],[126.78274,37.49196],[126.78311,37.49169],[126.7835,37.49139],[126.78389,37.49109],[126.78421,37.49082],[126.78458,37.49052],[126.78462,37.4905],[126.78486,37.49033],[126.78518,37.49007]]]}},{"type":"Feature","id":"TN_RIVER_BNDRY:WTR0100000000PPMH","properties":{"NF_ID":"WTR0100000000PPMH","admin_code":"41190","source_layer":"TN_RIVER_BNDRY","semantic":"zone","river_class":"소하천","river_class_source":"중심선 공간조인","survey_method":"사진측량"},"geometry":{"type":"Polygon","coordinates":[[[126.76682,37.49934],[126.76681,37.49934],[126.76681,37.49934],[126.7668,37.49935],[126.7668,37.49936],[126.7668,37.49937],[126.7668,37.49938],[126.76681,37.49941],[126.76684,37.49948],[126.76687,37.49957],[126.76688,37.49966],[126.76689,37.49974],[126.7669,37.49979],[126.76691,37.49984],[126.76691,37.49988],[126.76691,37.49992],[126.76692,37.49997],[126.76694,37.5],[126.76699,37.5],[126.76698,37.49999],[126.76696,37.49995],[126.76696,37.49992],[126.76695,37.49987],[126.76695,37.49982],[126.76695,37.49975],[126.76694,37.49967],[126.76691,37.49957],[126.76687,37.49945],[126.76683,37.49935],[126.76682,37.49934]]]}},{"type":"Feature","id":"TN_RIVER_BNDRY:WTR0100000000PPOJ","properties":{"NF_ID":"WTR0100000000PPOJ","admin_code":"41190","source_layer":"TN_RIVER_BNDRY","semantic":"zone","river_class":"소하천","river_class_source":"중심선 공간조인","survey_method":"사진측량"},"geometry":{"type":"Polygon","coordinates":[[[126.80987,37.49995],[126.80986,37.49995],[126.80985,37.49995],[126.80985,37.49996],[126.80986,37.5],[126.8099,37.5],[126.80988,37.49997],[126.80987,37.49995]]]}},{"type":"Feature","id":"TN_RIVER_BNDRY:WTR0100000000PPWR","properties":{"NF_ID":"WTR0100000000PPWR","admin_code":"41190","source_layer":"TN_RIVER_BNDRY","semantic":"zone","river_class":"소하천","river_class_source":"중심선 공간조인","survey_method":"사진측량"},"geometry":{"type":"Polygon","coordinates":[[[126.74662,37.4943],[126.74661,37.4943],[126.74659,37.4943],[126.74656,37.4943],[126.74656,37.49431],[126.74656,37.49433],[126.74655,37.49435],[126.74656,37.49437],[126.74657,37.49439],[126.74659,37.49443],[126.7466,37.49446],[126.7466,37.49448],[126.74661,37.49454],[126.74661,37.49458],[126.74661,37.49463],[126.74661,37.49468],[126.74661,37.49478],[126.7466,37.49484],[126.7466,37.49489],[126.7466,37.49494],[126.74661,37.49498],[126.74662,37.49504],[126.74663,37.49508],[126.74664,37.49514],[126.74665,37.49517],[126.74665,37.49521],[126.74666,37.49527],[126.74668,37.49532],[126.7467,37.49534],[126.74671,37.49537],[126.74672,37.49542],[126.74673,37.4955],[126.74677,37.49571],[126.7468,37.49589],[126.7468,37.49599],[126.74681,37.49605],[126.74681,37.49611],[126.74681,37.49615],[126.74681,37.49621],[126.74682,37.49624],[126.74683,37.49629],[126.74688,37.49645],[126.74691,37.49657],[126.74691,37.49664],[126.74691,37.49669],[126.74691,37.49674],[126.74691,37.4968],[126.74692,37.49683],[126.74692,37.49686],[126.74694,37.49689],[126.74697,37.49697],[126.74698,37.49703],[126.74699,37.49709],[126.74698,37.49713],[126.74698,37.49716],[126.74698,37.49716],[126.74698,37.49717],[126.74699,37.49717],[126.74702,37.49717],[126.74703,37.49717],[126.74703,37.49716],[126.74704,37.49711],[126.74705,37.49708],[126.74705,37.49704],[126.74705,37.497],[126.74703,37.49695],[126.74702,37.49691],[126.747,37.49684],[126.74698,37.49677],[126.74697,37.49671],[126.74697,37.49666],[126.74696,37.49661],[126.74696,37.49656],[126.74696,37.49652],[126.74695,37.49648],[126.74695,37.49643],[126.74693,37.49637],[126.7469,37.49627],[126.74688,37.49619],[126.74687,37.49612],[126.74687,37.49606],[126.74687,37.49596],[126.74687,37.49591],[126.74686,37.49586],[126.74686,37.49581],[126.74684,37.49573],[126.74682,37.49556],[126.74678,37.49542],[126.74675,37.49536],[126.74674,37.49533],[126.74671,37.4953],[126.7467,37.49526],[126.7467,37.49526],[126.7467,37.49518],[126.74671,37.49514],[126.74671,37.4951],[126.7467,37.49504],[126.74668,37.49492],[126.74667,37.49489],[126.74667,37.49485],[126.74667,37.4948],[126.74666,37.49473],[126.74667,37.49468],[126.74666,37.49461],[126.74666,37.49455],[126.74666,37.49449],[126.74665,37.49443],[126.74664,37.49438],[126.74663,37.49434],[126.74662,37.4943]]]}},{"type":"Feature","id":"TN_RIVER_BNDRY:WTR0100000000PPXS","properties":{"NF_ID":"WTR0100000000PPXS","admin_code":"41190","source_layer":"TN_RIVER_BNDRY","semantic":"zone","river_class":"소하천","river_class_source":"중심선 공간조인","survey_method":"사진측량"},"geometry":{"type":"Polygon","coordinates":[[[126.74555,37.49176],[126.74554,37.49174],[126.74551,37.49174],[126.74551,37.49177],[126.74555,37.49188],[126.74557,37.49192],[126.74558,37.49195],[126.74558,37.492],[126.74557,37.49203],[126.74557,37.49206],[126.74556,37.49208],[126.74554,37.49211],[126.74553,37.49215],[126.74552,37.49218],[126.74552,37.49223],[126.74552,37.49226],[126.74552,37.49231],[126.74552,37.49233],[126.74551,37.4924],[126.7455,37.4925],[126.7455,37.49254],[126.74549,37.4926],[126.74548,37.49267],[126.74548,37.49272],[126.74547,37.49277],[126.74547,37.49283],[126.74547,37.49287],[126.74548,37.4929],[126.7455,37.49295],[126.74551,37.49299],[126.74553,37.49303],[126.74556,37.49309],[126.74557,37.49312],[126.74559,37.49316],[126.74559,37.4932],[126.74559,37.49324],[126.74559,37.49326],[126.74557,37.49332],[126.74556,37.49334],[126.74556,37.49338],[126.74556,37.49342],[126.74556,37.49347],[126.74555,37.49352],[126.74554,37.49357],[126.74554,37.49361],[126.74554,37.49366],[126.74554,37.49371],[126.74554,37.49375],[126.74554,37.49379],[126.74554,37.49383],[126.74553,37.49387],[126.74553,37.49391],[126.74553,37.49396],[126.74554,37.49399],[126.74555,37.49402],[126.74556,37.49405],[126.74557,37.49408],[126.74558,37.49408],[126.74561,37.49409],[126.74562,37.49408],[126.74561,37.49406],[126.7456,37.49404],[126.74558,37.494],[126.74557,37.49397],[126.74557,37.49393],[126.74558,37.4939],[126.74558,37.49386],[126.74559,37.49382],[126.74559,37.49377],[126.74559,37.49372],[126.74558,37.49368],[126.74558,37.49363],[126.74559,37.49357],[126.7456,37.49352],[126.7456,37.49347],[126.7456,37.49343],[126.74559,37.49338],[126.74561,37.49334],[126.74562,37.49331],[126.74563,37.49326],[126.74563,37.49322],[126.74562,37.49317],[126.74562,37.49313],[126.74561,37.49309],[126.74557,37.49302],[126.74555,37.49299],[126.74554,37.49293],[126.74554,37.49291],[126.74554,37.49287],[126.74554,37.49284],[126.74553,37.4928],[126.74553,37.49276],[126.74553,37.49271],[126.74554,37.49267],[126.74554,37.49262],[126.74555,37.49255],[126.74558,37.49233],[126.74558,37.49231],[126.74558,37.49228],[126.74558,37.49227],[126.74558,37.49224],[126.74557,37.4922],[126.74558,37.49216],[126.74559,37.49211],[126.74561,37.49204],[126.74562,37.49201],[126.74562,37.49199],[126.74562,37.49196],[126.74562,37.49193],[126.74561,37.49188],[126.74555,37.49176]]]}},{"type":"Feature","id":"TN_RIVER_BNDRY:WTR0100000000PZ8D","properties":{"NF_ID":"WTR0100000000PZ8D","admin_code":"41190","source_layer":"TN_RIVER_BNDRY","semantic":"zone","river_class":"소하천","river_class_source":"중심선 공간조인","survey_method":"사진측량"},"geometry":{"type":"Polygon","coordinates":[[[126.74717,37.49775],[126.74742,37.4977],[126.74725,37.4976],[126.74711,37.49773],[126.74745,37.49955],[126.74769,37.5],[126.7473,37.49882],[126.7474,37.4986],[126.74717,37.49775]]]}},{"type":"Feature","id":"TN_RIVER_BNDRY:WTR0100000000Q5X9","properties":{"NF_ID":"WTR0100000000Q5X9","admin_code":"41190","source_layer":"TN_RIVER_BNDRY","semantic":"zone","river_class":"지방하천","river_class_source":"중심선 공간조인","river_name":"굴포천","river_code":"1025640","survey_method":"사진측량"},"geometry":{"type":"Polygon","coordinates":[[[126.75542,37.51619],[126.75434,37.51588],[126.75406,37.51639],[126.75521,37.51669],[126.75542,37.51619]]]}},{"type":"Feature","id":"TN_RIVER_BNDRY:WTR0100000000QEH2","properties":{"NF_ID":"WTR0100000000QEH2","admin_code":"41190","source_layer":"TN_RIVER_BNDRY","semantic":"zone","river_class":"소하천","river_class_source":"중심선 공간조인","survey_method":"사진측량"},"geometry":{"type":"Polygon","coordinates":[[[126.81158,37.50251],[126.81218,37.50234],[126.81277,37.50173],[126.81326,37.5018],[126.81378,37.50164],[126.81398,37.50112],[126.81424,37.50094],[126.81396,37.50111],[126.81376,37.50163],[126.81325,37.50178],[126.81277,37.50171],[126.81215,37.50234],[126.81158,37.50251]]]}},{"type":"Feature","id":"TN_RIVER_BNDRY:WTR0100000000QEJ4","properties":{"NF_ID":"WTR0100000000QEJ4","admin_code":"41190","source_layer":"TN_RIVER_BNDRY","semantic":"zone","river_class":"소하천","river_class_source":"중심선 공간조인","survey_method":"사진측량"},"geometry":{"type":"Polygon","coordinates":[[[126.8116,37.50254],[126.81158,37.50251],[126.81151,37.50254],[126.81153,37.50256],[126.8116,37.50254]]]}},{"type":"Feature","id":"TN_RIVER_BNDRY:WTR0100000000QEK5","properties":{"NF_ID":"WTR0100000000QEK5","admin_code":"41190","source_layer":"TN_RIVER_BNDRY","semantic":"zone","river_class":"소하천","river_class_source":"중심선 공간조인","survey_method":"사진측량"},"geometry":{"type":"Polygon","coordinates":[[[126.81153,37.50256],[126.81118,37.50327],[126.81028,37.50429],[126.81,37.50518],[126.80878,37.50633],[126.80943,37.5059],[126.81013,37.50507],[126.81033,37.50424],[126.81123,37.50328],[126.81153,37.50256]]]}},{"type":"Feature","id":"TN_RIVER_BNDRY:WTR0100000000R1X6","properties":{"NF_ID":"WTR0100000000R1X6","admin_code":"41190","source_layer":"TN_RIVER_BNDRY","semantic":"zone","river_class":"소하천","river_class_source":"중심선 공간조인","survey_method":"사진측량"},"geometry":{"type":"Polygon","coordinates":[[[126.76739,37.50026],[126.76739,37.50014],[126.76694,37.5],[126.76739,37.50026]]]}},{"type":"Feature","id":"TN_RIVER_BNDRY:WTR0100000000R1Z8","properties":{"NF_ID":"WTR0100000000R1Z8","admin_code":"41190","source_layer":"TN_RIVER_BNDRY","semantic":"zone","river_class":"소하천","river_class_source":"중심선 공간조인","survey_method":"사진측량"},"geometry":{"type":"Polygon","coordinates":[[[126.81158,37.50251],[126.81111,37.50144],[126.81011,37.50051],[126.80986,37.5],[126.81009,37.50053],[126.81108,37.50143],[126.81158,37.50251]]]}},{"type":"Feature","id":"TN_RIVER_BNDRY:WTR0100000000R49L","properties":{"NF_ID":"WTR0100000000R49L","admin_code":"41190","source_layer":"TN_RIVER_BNDRY","semantic":"zone","river_class":"소하천","river_class_source":"중심선 공간조인","survey_method":"사진측량"},"geometry":{"type":"Polygon","coordinates":[[[126.74791,37.50131],[126.74787,37.5013],[126.74782,37.5013],[126.74782,37.5013],[126.74783,37.50132],[126.74783,37.50133],[126.74787,37.50137],[126.74791,37.50142],[126.74794,37.50145],[126.74798,37.50152],[126.748,37.50163],[126.748,37.50172],[126.74803,37.50194],[126.74806,37.5021],[126.74809,37.50222],[126.74812,37.50236],[126.74814,37.50247],[126.74817,37.50262],[126.74819,37.50273],[126.7482,37.50292],[126.74822,37.50297],[126.74823,37.50302],[126.74822,37.50308],[126.74819,37.50314],[126.74818,37.50317],[126.74822,37.50331],[126.74827,37.50352],[126.74828,37.5036],[126.74829,37.50367],[126.74829,37.50371],[126.74829,37.50375],[126.74829,37.50376],[126.74829,37.50376],[126.74829,37.50377],[126.7483,37.50377],[126.74831,37.50377],[126.74831,37.50378],[126.74832,37.50378],[126.74833,37.50378],[126.74834,37.50378],[126.74834,37.50377],[126.74835,37.50377],[126.74836,37.50377],[126.74836,37.50376],[126.74836,37.50376],[126.74836,37.50375],[126.74836,37.5037],[126.74833,37.50357],[126.7483,37.50346],[126.74829,37.50343],[126.7483,37.50338],[126.7483,37.50335],[126.7483,37.50329],[126.74826,37.50322],[126.74824,37.50319],[126.74823,37.50315],[126.74827,37.5031],[126.74829,37.50307],[126.74829,37.50302],[126.74827,37.50296],[126.74826,37.50293],[126.74825,37.50285],[126.74825,37.5028],[126.74825,37.50273],[126.74824,37.5027],[126.74823,37.50264],[126.74821,37.50257],[126.7482,37.50248],[126.7482,37.50242],[126.74819,37.50237],[126.74816,37.50225],[126.74814,37.50218],[126.74813,37.50214],[126.74813,37.50206],[126.74811,37.50201],[126.7481,37.50196],[126.74808,37.50188],[126.74808,37.50181],[126.74807,37.50175],[126.74805,37.50169],[126.74806,37.50164],[126.74805,37.50159],[126.74803,37.50151],[126.74798,37.50141],[126.74796,37.50136],[126.74791,37.50131]]]}},{"type":"Feature","id":"TN_RIVER_BNDRY:WTR0100000000R4AM","properties":{"NF_ID":"WTR0100000000R4AM","admin_code":"41190","source_layer":"TN_RIVER_BNDRY","semantic":"zone","river_class":"소하천","river_class_source":"중심선 공간조인","survey_method":"사진측량"},"geometry":{"type":"Polygon","coordinates":[[[126.74882,37.51446],[126.74909,37.51387],[126.74885,37.51337],[126.74529,37.51391],[126.74575,37.51457],[126.74703,37.51421],[126.74787,37.51413],[126.74871,37.51413],[126.74882,37.51446]]]}},{"type":"Feature","id":"TN_RIVER_BNDRY:WTR0100000000RPWT","properties":{"NF_ID":"WTR0100000000RPWT","admin_code":"41190","source_layer":"TN_RIVER_BNDRY","semantic":"zone","river_class":"소하천","river_class_source":"중심선 공간조인","survey_method":"사진측량"},"geometry":{"type":"Polygon","coordinates":[[[126.74769,37.5],[126.74769,37.5],[126.74765,37.5],[126.74765,37.5],[126.74766,37.50004],[126.74768,37.50009],[126.7477,37.50012],[126.74771,37.50019],[126.74771,37.50023],[126.74771,37.50027],[126.7477,37.5003],[126.7477,37.50033],[126.74771,37.50037],[126.74772,37.5004],[126.74773,37.50043],[126.74774,37.50046],[126.74774,37.50049],[126.74774,37.50052],[126.74777,37.50061],[126.74778,37.50065],[126.74779,37.50068],[126.7478,37.50071],[126.74782,37.50074],[126.74783,37.50078],[126.74783,37.5008],[126.74782,37.50084],[126.7478,37.5009],[126.74778,37.50092],[126.74776,37.50097],[126.74776,37.50099],[126.74776,37.50101],[126.74777,37.50103],[126.74779,37.50103],[126.74781,37.50102],[126.74783,37.501],[126.74783,37.50098],[126.74782,37.50096],[126.74781,37.50095],[126.74783,37.50092],[126.74784,37.5009],[126.74788,37.50083],[126.74788,37.50078],[126.74786,37.50074],[126.74782,37.50066],[126.74781,37.50063],[126.7478,37.50059],[126.74779,37.50055],[126.74779,37.50048],[126.74778,37.50044],[126.74777,37.5004],[126.74775,37.50031],[126.74774,37.50017],[126.74771,37.50007],[126.74769,37.5]]]}},{"type":"Feature","id":"TN_RIVER_BNDRY:WTR0100000000OU10","properties":{"NF_ID":"WTR0100000000OU10","admin_code":"41190","source_layer":"TN_RIVER_BNDRY","semantic":"zone","river_class":"소하천","river_class_source":"중심선 공간조인","survey_method":"사진측량"},"geometry":{"type":"Polygon","coordinates":[[[126.82812,37.46787],[126.82802,37.46762],[126.82667,37.46782],[126.82612,37.46809],[126.82542,37.46948],[126.824,37.47072],[126.82296,37.47276],[126.82185,37.47386],[126.82139,37.47657],[126.82177,37.47781],[126.82164,37.47866],[126.81956,37.48052],[126.81995,37.48177],[126.81954,37.48234],[126.81942,37.48319],[126.82018,37.48175],[126.8198,37.48058],[126.82186,37.47859],[126.82195,37.47787],[126.82158,37.47667],[126.82176,37.47607],[126.82168,37.47537],[126.82211,37.47382],[126.82333,37.47265],[126.8242,37.47087],[126.82567,37.46957],[126.82633,37.46827],[126.8267,37.46808],[126.82812,37.46787]]]}},{"type":"Feature","id":"TN_RIVER_BNDRY:WTR0100000000OVFF","properties":{"NF_ID":"WTR0100000000OVFF","admin_code":"41190","source_layer":"TN_RIVER_BNDRY","semantic":"zone","river_class":"소하천","river_class_source":"중심선 공간조인","survey_method":"사진측량"},"geometry":{"type":"Polygon","coordinates":[[[126.82817,37.46786],[126.82815,37.4676],[126.82802,37.46762],[126.82817,37.46786]]]}},{"type":"Feature","id":"TN_RIVER_BNDRY:WTR0100000000OVGG","properties":{"NF_ID":"WTR0100000000OVGG","admin_code":"41190","source_layer":"TN_RIVER_BNDRY","semantic":"zone","river_class":"소하천","river_class_source":"중심선 공간조인","survey_method":"사진측량"},"geometry":{"type":"Polygon","coordinates":[[[126.82817,37.46786],[126.82812,37.46787],[126.82814,37.46792],[126.82831,37.46807],[126.82843,37.46816],[126.82847,37.46817],[126.82848,37.46816],[126.82848,37.46815],[126.82847,37.46813],[126.82843,37.46808],[126.82827,37.46796],[126.82819,37.4679],[126.82817,37.46786]]]}},{"type":"Feature","id":"TN_RIVER_BNDRY:WTR0100000000PPVQ","properties":{"NF_ID":"WTR0100000000PPVQ","admin_code":"41190","source_layer":"TN_RIVER_BNDRY","semantic":"zone","river_class":"소하천","river_class_source":"중심선 공간조인","survey_method":"사진측량"},"geometry":{"type":"Polygon","coordinates":[[[126.74905,37.48463],[126.74897,37.48463],[126.74898,37.48468],[126.74893,37.48529],[126.74889,37.48575],[126.74885,37.48634],[126.74881,37.48696],[126.74886,37.48695],[126.7489,37.48636],[126.74895,37.48582],[126.74899,37.48523],[126.74905,37.48469],[126.74905,37.48463]]]}},{"type":"Feature","id":"TN_RIVER_BNDRY:WTR0100000000QDSC","properties":{"NF_ID":"WTR0100000000QDSC","admin_code":"41190","source_layer":"TN_RIVER_BNDRY","semantic":"zone","river_class":"소하천","river_class_source":"중심선 공간조인","river_name":"베르네천","survey_method":"사진측량"},"geometry":{"type":"Polygon","coordinates":[[[126.80496,37.51455],[126.80577,37.51432],[126.80607,37.51372],[126.80641,37.5136],[126.80693,37.51222],[126.80764,37.51097],[126.80783,37.50818],[126.80825,37.50697],[126.80812,37.50692],[126.80726,37.50883],[126.80735,37.51046],[126.80666,37.51162],[126.80637,37.51291],[126.80543,37.51391],[126.80504,37.51407],[126.80496,37.51455]]]}},{"type":"Feature","id":"TN_RIVER_BNDRY:WTR0100000000QDZJ","properties":{"NF_ID":"WTR0100000000QDZJ","admin_code":"41190","source_layer":"TN_RIVER_BNDRY","semantic":"zone","river_class":"소하천","river_class_source":"중심선 공간조인","river_name":"삼정1천","survey_method":"사진측량"},"geometry":{"type":"Polygon","coordinates":[[[126.7795,37.52674],[126.77938,37.52664],[126.77644,37.5269],[126.77419,37.52817],[126.7744,37.52832],[126.77652,37.52693],[126.7795,37.52674]]]}},{"type":"Feature","id":"TN_RIVER_BNDRY:WTR0100000000QE0L","properties":{"NF_ID":"WTR0100000000QE0L","admin_code":"41190","source_layer":"TN_RIVER_BNDRY","semantic":"zone","river_class":"소하천","river_class_source":"중심선 공간조인","river_name":"여월천","survey_method":"사진측량"},"geometry":{"type":"Polygon","coordinates":[[[126.79428,37.53588],[126.79447,37.53592],[126.79456,37.53577],[126.79614,37.53182],[126.79643,37.53152],[126.79637,37.53131],[126.79691,37.52983],[126.79838,37.52834],[126.79686,37.52979],[126.79428,37.53588]]]}},{"type":"Feature","id":"TN_RIVER_BNDRY:WTR0100000000QE1M","properties":{"NF_ID":"WTR0100000000QE1M","admin_code":"41190","source_layer":"TN_RIVER_BNDRY","semantic":"zone","river_class":"소하천","river_class_source":"중심선 공간조인","river_name":"삼정1천","survey_method":"사진측량"},"geometry":{"type":"Polygon","coordinates":[[[126.77946,37.52657],[126.77953,37.52662],[126.77953,37.5266],[126.77953,37.52659],[126.77954,37.52657],[126.77955,37.52656],[126.77966,37.52645],[126.77998,37.52615],[126.77995,37.52613],[126.7797,37.52635],[126.77951,37.52653],[126.77946,37.52657]]]}},{"type":"Feature","id":"TN_RIVER_BNDRY:WTR0100000000QE2N","properties":{"NF_ID":"WTR0100000000QE2N","admin_code":"41190","source_layer":"TN_RIVER_BNDRY","semantic":"zone","river_class":"소하천","river_class_source":"중심선 공간조인","survey_method":"사진측량"},"geometry":{"type":"Polygon","coordinates":[[[126.78273,37.53424],[126.78286,37.53444],[126.78359,37.5341],[126.78695,37.53384],[126.78853,37.5335],[126.78948,37.53159],[126.79025,37.53132],[126.79119,37.53072],[126.79188,37.52979],[126.79111,37.53072],[126.79022,37.53129],[126.78945,37.53155],[126.78855,37.53344],[126.78696,37.53378],[126.78348,37.53401],[126.78273,37.53424]]]}},{"type":"Feature","id":"TN_RIVER_BNDRY:WTR0100000000QE3O","properties":{"NF_ID":"WTR0100000000QE3O","admin_code":"41190","source_layer":"TN_RIVER_BNDRY","semantic":"zone","river_class":"소하천","river_class_source":"중심선 공간조인","survey_method":"사진측량"},"geometry":{"type":"Polygon","coordinates":[[[126.77953,37.52662],[126.7795,37.52674],[126.78058,37.52734],[126.78212,37.52731],[126.78076,37.52731],[126.77953,37.52662]]]}},{"type":"Feature","id":"TN_RIVER_BNDRY:WTR0100000000QE4P","properties":{"NF_ID":"WTR0100000000QE4P","admin_code":"41190","source_layer":"TN_RIVER_BNDRY","semantic":"zone","river_class":"소하천","river_class_source":"중심선 공간조인","survey_method":"사진측량"},"geometry":{"type":"Polygon","coordinates":[[[126.77953,37.52662],[126.77938,37.52664],[126.7795,37.52674],[126.77953,37.52662]]]}},{"type":"Feature","id":"TN_RIVER_BNDRY:WTR0100000000QE5Q","properties":{"NF_ID":"WTR0100000000QE5Q","admin_code":"41190","source_layer":"TN_RIVER_BNDRY","semantic":"zone","river_class":"소하천","river_class_source":"중심선 공간조인","river_name":"삼정1천","survey_method":"사진측량"},"geometry":{"type":"Polygon","coordinates":[[[126.7744,37.52832],[126.77419,37.52817],[126.77397,37.52826],[126.77425,37.52845],[126.7744,37.52832]]]}},{"type":"Feature","id":"TN_RIVER_BNDRY:WTR0100000000QE6R","properties":{"NF_ID":"WTR0100000000QE6R","admin_code":"41190","source_layer":"TN_RIVER_BNDRY","semantic":"zone","river_class":"소하천","river_class_source":"중심선 공간조인","river_name":"삼정1천","survey_method":"사진측량"},"geometry":{"type":"Polygon","coordinates":[[[126.77425,37.52845],[126.77397,37.52826],[126.77368,37.52858],[126.77084,37.53024],[126.76927,37.52996],[126.76498,37.53102],[126.76451,37.53153],[126.76443,37.53328],[126.76422,37.5337],[126.76263,37.53463],[126.76099,37.53535],[126.7607,37.53528],[126.76075,37.53575],[126.76091,37.53554],[126.76186,37.53507],[126.76272,37.53484],[126.76445,37.53381],[126.76468,37.53323],[126.76468,37.53161],[126.7649,37.53132],[126.76942,37.53019],[126.77057,37.53051],[126.77096,37.53049],[126.77425,37.52845]]]}},{"type":"Feature","id":"TN_RIVER_BNDRY:WTR0100000000QEM7","properties":{"NF_ID":"WTR0100000000QEM7","admin_code":"41190","source_layer":"TN_RIVER_BNDRY","semantic":"zone","river_class":"소하천","river_class_source":"중심선 공간조인","survey_method":"사진측량"},"geometry":{"type":"Polygon","coordinates":[[[126.81376,37.50611],[126.81295,37.50653],[126.81171,37.50674],[126.81304,37.50655],[126.81376,37.50611]]]}},{"type":"Feature","id":"TN_RIVER_BNDRY:WTR0100000000QF0M","properties":{"NF_ID":"WTR0100000000QF0M","admin_code":"41190","source_layer":"TN_RIVER_BNDRY","semantic":"zone","river_class":"소하천","river_class_source":"중심선 공간조인","river_name":"여월천","survey_method":"사진측량"},"geometry":{"type":"Polygon","coordinates":[[[126.7829,37.54011],[126.7828,37.53999],[126.78078,37.54062],[126.77892,37.54142],[126.77736,37.54248],[126.77546,37.54409],[126.77374,37.5452],[126.77323,37.54544],[126.77311,37.54538],[126.77308,37.54554],[126.77194,37.54611],[126.77106,37.54862],[126.77122,37.54866],[126.77177,37.5467],[126.77225,37.54613],[126.77553,37.54416],[126.77743,37.54254],[126.77898,37.54149],[126.78082,37.54069],[126.7829,37.54011]]]}},{"type":"Feature","id":"TN_RIVER_BNDRY:WTR0100000000QF2O","properties":{"NF_ID":"WTR0100000000QF2O","admin_code":"41190","source_layer":"TN_RIVER_BNDRY","semantic":"zone","river_class":"소하천","river_class_source":"중심선 공간조인","river_name":"고리울천","survey_method":"사진측량"},"geometry":{"type":"Polygon","coordinates":[[[126.81052,37.53295],[126.80689,37.53626],[126.79825,37.53765],[126.7972,37.53795],[126.79447,37.53592],[126.79438,37.53602],[126.79715,37.53807],[126.7984,37.53771],[126.80682,37.53636],[126.80712,37.53629],[126.80764,37.53586],[126.81052,37.53295]]]}},{"type":"Feature","id":"TN_RIVER_BNDRY:WTR0100000000QF3P","properties":{"NF_ID":"WTR0100000000QF3P","admin_code":"41190","source_layer":"TN_RIVER_BNDRY","semantic":"zone","river_class":"소하천","river_class_source":"중심선 공간조인","river_name":"오쇠천","survey_method":"사진측량"},"geometry":{"type":"Polygon","coordinates":[[[126.7904,37.54146],[126.79175,37.54164],[126.79419,37.54133],[126.79472,37.54087],[126.79607,37.54052],[126.79744,37.54077],[126.79834,37.54037],[126.79993,37.54051],[126.80076,37.54096],[126.80175,37.54083],[126.80372,37.54126],[126.80442,37.54128],[126.80471,37.54108],[126.80544,37.53953],[126.8093,37.53761],[126.81069,37.53661],[126.81169,37.53632],[126.81265,37.53548],[126.81279,37.535],[126.81265,37.53452],[126.8121,37.53397],[126.81214,37.53304],[126.81365,37.53147],[126.81208,37.53296],[126.81203,37.53394],[126.81264,37.53461],[126.81275,37.53509],[126.81258,37.53546],[126.81159,37.53626],[126.8108,37.53645],[126.8093,37.53754],[126.80543,37.53945],[126.80446,37.5412],[126.80409,37.54125],[126.80165,37.54078],[126.8008,37.54089],[126.79994,37.54045],[126.79825,37.54032],[126.79736,37.54071],[126.79623,37.54045],[126.79588,37.54049],[126.79479,37.54079],[126.79414,37.5413],[126.79181,37.5416],[126.79063,37.54139],[126.78871,37.54164],[126.7904,37.54146]]]}},{"type":"Feature","id":"TN_RIVER_BNDRY:WTR0100000000QF5R","properties":{"NF_ID":"WTR0100000000QF5R","admin_code":"41190","source_layer":"TN_RIVER_BNDRY","semantic":"zone","river_class":"소하천","river_class_source":"중심선 공간조인","river_name":"고리울천","survey_method":"사진측량"},"geometry":{"type":"Polygon","coordinates":[[[126.81057,37.53291],[126.81051,37.53287],[126.81047,37.53292],[126.81052,37.53295],[126.81057,37.53291]]]}},{"type":"Feature","id":"TN_RIVER_BNDRY:WTR0100000000QF6S","properties":{"NF_ID":"WTR0100000000QF6S","admin_code":"41190","source_layer":"TN_RIVER_BNDRY","semantic":"zone","river_class":"소하천","river_class_source":"중심선 공간조인","river_name":"고리울천","survey_method":"사진측량"},"geometry":{"type":"Polygon","coordinates":[[[126.81051,37.53287],[126.81158,37.53192],[126.812,37.53179],[126.81219,37.53115],[126.81351,37.52996],[126.81214,37.53112],[126.81196,37.53176],[126.81148,37.53194],[126.81051,37.53287]]]}},{"type":"Feature","id":"TN_RIVER_BNDRY:WTR0100000000QF7T","properties":{"NF_ID":"WTR0100000000QF7T","admin_code":"41190","source_layer":"TN_RIVER_BNDRY","semantic":"zone","river_class":"소하천","river_class_source":"중심선 공간조인","survey_method":"사진측량"},"geometry":{"type":"Polygon","coordinates":[[[126.81051,37.53287],[126.80931,37.53208],[126.8094,37.53101],[126.80923,37.53054],[126.80937,37.53102],[126.80928,37.53211],[126.81051,37.53287]]]}},{"type":"Feature","id":"TN_RIVER_BNDRY:WTR0100000000QF8U","properties":{"NF_ID":"WTR0100000000QF8U","admin_code":"41190","source_layer":"TN_RIVER_BNDRY","semantic":"zone","river_class":"소하천","river_class_source":"중심선 공간조인","river_name":"동부간선수로","survey_method":"사진측량"},"geometry":{"type":"Polygon","coordinates":[[[126.78728,37.54037],[126.78699,37.54051],[126.78777,37.54144],[126.78782,37.54239],[126.78754,37.54291],[126.78474,37.54618],[126.78502,37.54637],[126.78805,37.54247],[126.78812,37.54159],[126.78728,37.54037]]]}},{"type":"Feature","id":"TN_RIVER_BNDRY:WTR0100000000QF9V","properties":{"NF_ID":"WTR0100000000QF9V","admin_code":"41190","source_layer":"TN_RIVER_BNDRY","semantic":"zone","river_class":"소하천","river_class_source":"중심선 공간조인","river_name":"동부간선수로","survey_method":"사진측량"},"geometry":{"type":"Polygon","coordinates":[[[126.78595,37.53858],[126.78286,37.53444],[126.78264,37.5346],[126.78569,37.53865],[126.78595,37.53858]]]}},{"type":"Feature","id":"TN_RIVER_BNDRY:WTR0100000000QFAW","properties":{"NF_ID":"WTR0100000000QFAW","admin_code":"41190","source_layer":"TN_RIVER_BNDRY","semantic":"zone","river_class":"소하천","river_class_source":"중심선 공간조인","river_name":"동부간선수로","survey_method":"사진측량"},"geometry":{"type":"Polygon","coordinates":[[[126.78728,37.54037],[126.7872,37.54027],[126.78692,37.54042],[126.78699,37.54051],[126.78728,37.54037]]]}},{"type":"Feature","id":"TN_RIVER_BNDRY:WTR0100000000QFBX","properties":{"NF_ID":"WTR0100000000QFBX","admin_code":"41190","source_layer":"TN_RIVER_BNDRY","semantic":"zone","river_class":"소하천","river_class_source":"중심선 공간조인","river_name":"여월천","survey_method":"사진측량"},"geometry":{"type":"Polygon","coordinates":[[[126.79438,37.53602],[126.79422,37.53591],[126.78595,37.53858],[126.78605,37.53871],[126.78623,37.53866],[126.79438,37.53602]]]}},{"type":"Feature","id":"TN_RIVER_BNDRY:WTR0100000000QFCY","properties":{"NF_ID":"WTR0100000000QFCY","admin_code":"41190","source_layer":"TN_RIVER_BNDRY","semantic":"zone","river_class":"소하천","river_class_source":"중심선 공간조인","river_name":"여월천","survey_method":"사진측량"},"geometry":{"type":"Polygon","coordinates":[[[126.78585,37.53889],[126.78569,37.53865],[126.78428,37.53901],[126.78298,37.53986],[126.78311,37.53995],[126.78453,37.53911],[126.78585,37.53889]]]}},{"type":"Feature","id":"TN_RIVER_BNDRY:WTR0100000000QFDZ","properties":{"NF_ID":"WTR0100000000QFDZ","admin_code":"41190","source_layer":"TN_RIVER_BNDRY","semantic":"zone","river_class":"소하천","river_class_source":"중심선 공간조인","river_name":"동부간선수로","survey_method":"사진측량"},"geometry":{"type":"Polygon","coordinates":[[[126.78273,37.53424],[126.77985,37.5329],[126.77813,37.53178],[126.77812,37.53211],[126.77894,37.53274],[126.78153,37.53387],[126.78253,37.53449],[126.78273,37.53424]]]}},{"type":"Feature","id":"TN_RIVER_BNDRY:WTR0100000000QFE0","properties":{"NF_ID":"WTR0100000000QFE0","admin_code":"41190","source_layer":"TN_RIVER_BNDRY","semantic":"zone","river_class":"소하천","river_class_source":"중심선 공간조인","river_name":"동부간선수로","survey_method":"사진측량"},"geometry":{"type":"Polygon","coordinates":[[[126.7872,37.54027],[126.78605,37.53871],[126.78585,37.53889],[126.78695,37.5404],[126.7872,37.54027]]]}},{"type":"Feature","id":"TN_RIVER_BNDRY:WTR0100000000QFG2","properties":{"NF_ID":"WTR0100000000QFG2","admin_code":"41190","source_layer":"TN_RIVER_BNDRY","semantic":"zone","river_class":"소하천","river_class_source":"중심선 공간조인","survey_method":"사진측량"},"geometry":{"type":"Polygon","coordinates":[[[126.78699,37.54051],[126.78692,37.54042],[126.78642,37.54053],[126.78311,37.53995],[126.7829,37.54011],[126.78651,37.54064],[126.78699,37.54051]]]}},{"type":"Feature","id":"TN_RIVER_BNDRY:WTR0100000000QFH3","properties":{"NF_ID":"WTR0100000000QFH3","admin_code":"41190","source_layer":"TN_RIVER_BNDRY","semantic":"zone","river_class":"소하천","river_class_source":"중심선 공간조인","river_name":"고리울천","survey_method":"사진측량"},"geometry":{"type":"Polygon","coordinates":[[[126.79447,37.53592],[126.79422,37.53591],[126.79438,37.53602],[126.79447,37.53592]]]}},{"type":"Feature","id":"TN_RIVER_BNDRY:WTR0100000000QFJ5","properties":{"NF_ID":"WTR0100000000QFJ5","admin_code":"41190","source_layer":"TN_RIVER_BNDRY","semantic":"zone","river_class":"소하천","river_class_source":"중심선 공간조인","survey_method":"사진측량"},"geometry":{"type":"Polygon","coordinates":[[[126.78286,37.53444],[126.78273,37.53424],[126.78253,37.53449],[126.78264,37.5346],[126.78286,37.53444]]]}},{"type":"Feature","id":"TN_RIVER_BNDRY:WTR0100000000QFK6","properties":{"NF_ID":"WTR0100000000QFK6","admin_code":"41190","source_layer":"TN_RIVER_BNDRY","semantic":"zone","river_class":"소하천","river_class_source":"중심선 공간조인","river_name":"동부간선수로","survey_method":"사진측량"},"geometry":{"type":"Polygon","coordinates":[[[126.78605,37.53871],[126.78595,37.53858],[126.78569,37.53865],[126.78585,37.53889],[126.78605,37.53871]]]}},{"type":"Feature","id":"TN_RIVER_BNDRY:WTR0100000000QFL7","properties":{"NF_ID":"WTR0100000000QFL7","admin_code":"41190","source_layer":"TN_RIVER_BNDRY","semantic":"zone","river_class":"소하천","river_class_source":"중심선 공간조인","river_name":"여월천","survey_method":"사진측량"},"geometry":{"type":"Polygon","coordinates":[[[126.78311,37.53995],[126.78298,37.53986],[126.7828,37.53999],[126.7829,37.54011],[126.78311,37.53995]]]}},{"type":"Feature","id":"TN_RIVER_BNDRY:WTR0100000000QIMB","properties":{"NF_ID":"WTR0100000000QIMB","admin_code":"41190","source_layer":"TN_RIVER_BNDRY","semantic":"zone","river_class":"지방하천","river_class_source":"중심선 공간조인","river_name":"굴포천","river_code":"1025640","survey_method":"사진측량"},"geometry":{"type":"Polygon","coordinates":[[[126.76713,37.5535],[126.76679,37.55299],[126.76595,37.55341],[126.76623,37.55393],[126.76713,37.5535]]]}},{"type":"Feature","id":"TN_RIVER_BNDRY:WTR0100000000QIXM","properties":{"NF_ID":"WTR0100000000QIXM","admin_code":"41190","source_layer":"TN_RIVER_BNDRY","semantic":"zone","river_class":"소하천","river_class_source":"중심선 공간조인","survey_method":"사진측량"},"geometry":{"type":"Polygon","coordinates":[[[126.76543,37.54536],[126.76542,37.54531],[126.76535,37.54533],[126.76599,37.5472],[126.76638,37.54831],[126.76659,37.54889],[126.76664,37.54903],[126.76668,37.54914],[126.76673,37.54929],[126.76679,37.54945],[126.76687,37.54968],[126.76693,37.54983],[126.76698,37.55],[126.76722,37.55062],[126.76755,37.55171],[126.76757,37.55174],[126.7676,37.55175],[126.76767,37.55173],[126.76767,37.55168],[126.76766,37.55165],[126.76764,37.55159],[126.76735,37.55074],[126.7671,37.55],[126.76702,37.54979],[126.76685,37.54928],[126.7667,37.54887],[126.76643,37.54813],[126.76617,37.5474],[126.76598,37.54687],[126.76581,37.5464],[126.76561,37.54585],[126.76552,37.5456],[126.76543,37.54536]]]}},{"type":"Feature","id":"TN_RIVER_BNDRY:WTR0100000000QIYN","properties":{"NF_ID":"WTR0100000000QIYN","admin_code":"41190","source_layer":"TN_RIVER_BNDRY","semantic":"zone","river_class":"지방하천","river_class_source":"중심선 공간조인","river_name":"굴포천","river_code":"1025640","survey_method":"사진측량"},"geometry":{"type":"Polygon","coordinates":[[[126.76679,37.55299],[126.76548,37.55113],[126.76495,37.5499],[126.76508,37.54979],[126.76489,37.54979],[126.7641,37.5477],[126.76327,37.54794],[126.76444,37.55107],[126.76509,37.55226],[126.76595,37.55341],[126.76679,37.55299]]]}},{"type":"Feature","id":"TN_RIVER_BNDRY:WTR0100000000QIZO","properties":{"NF_ID":"WTR0100000000QIZO","admin_code":"41190","source_layer":"TN_RIVER_BNDRY","semantic":"zone","river_class":"소하천","river_class_source":"중심선 공간조인","river_name":"여월천","survey_method":"사진측량"},"geometry":{"type":"Polygon","coordinates":[[[126.77121,37.54875],[126.77103,37.54871],[126.76821,37.55249],[126.76701,37.55301],[126.76679,37.55299],[126.76713,37.5535],[126.76754,37.55287],[126.7682,37.55265],[126.76867,37.55224],[126.77121,37.54875]]]}},{"type":"Feature","id":"TN_RIVER_BNDRY:WTR0100000000QJ3T","properties":{"NF_ID":"WTR0100000000QJ3T","admin_code":"41190","source_layer":"TN_RIVER_BNDRY","semantic":"zone","river_class":"지방하천","river_class_source":"중심선 공간조인","river_name":"굴포천","river_code":"1025640","survey_method":"사진측량"},"geometry":{"type":"Polygon","coordinates":[[[126.76075,37.53575],[126.7607,37.53528],[126.75986,37.53547],[126.7599,37.53605],[126.76075,37.53575]]]}},{"type":"Feature","id":"TN_RIVER_BNDRY:WTR0100000000QKWN","properties":{"NF_ID":"WTR0100000000QKWN","admin_code":"41190","source_layer":"TN_RIVER_BNDRY","semantic":"zone","river_class":"소하천","river_class_source":"중심선 공간조인","river_name":"동부간선수로","survey_method":"사진측량"},"geometry":{"type":"Polygon","coordinates":[[[126.77419,37.52817],[126.7721,37.52657],[126.77368,37.5253],[126.77412,37.52404],[126.77397,37.52063],[126.774,37.52356],[126.77361,37.525],[126.77192,37.5266],[126.77397,37.52826],[126.77419,37.52817]]]}}]}