{"type":"FeatureCollection","features":[{"type":"Feature","id":"TN_RIVER_BT:WTR02000000004N2B","properties":{"NF_ID":"WTR02000000004N2B","admin_code":"28290","source_layer":"TN_RIVER_BT","semantic":"channel","river_class":"지방하천","river_class_source":"중심선 공간조인","river_name":"공촌천","river_code":"1520310","survey_method":"사진측량"},"geometry":{"type":"Polygon","coordinates":[[[126.67872,37.5563],[126.67972,37.55609],[126.68301,37.5546],[126.68624,37.55357],[126.68847,37.55316],[126.6889,37.55217],[126.68839,37.55313],[126.68342,37.55433],[126.67988,37.556],[126.67878,37.55626],[126.67602,37.55583],[126.67402,37.55465],[126.67279,37.55467],[126.67034,37.55364],[126.66692,37.55372],[126.66322,37.55203],[126.66086,37.55029],[126.66126,37.55004],[126.66084,37.55027],[126.65648,37.5495],[126.65539,37.54847],[126.65667,37.54722],[126.65881,37.54639],[126.66082,37.54594],[126.66002,37.54394],[126.66158,37.54354],[126.66311,37.5442],[126.66161,37.54353],[126.65999,37.54394],[126.66079,37.54594],[126.65882,37.54637],[126.65673,37.54717],[126.65536,37.54842],[126.65336,37.54666],[126.64961,37.54555],[126.64944,37.54317],[126.64816,37.54254],[126.6346,37.54255],[126.6344,37.54163],[126.63431,37.54254],[126.62106,37.54251],[126.61986,37.54214],[126.61972,37.54236],[126.6196,37.542],[126.61716,37.54076],[126.6142,37.54057],[126.61105,37.5409],[126.6109,37.53974],[126.61063,37.5399],[126.60957,37.53972],[126.6097,37.53994],[126.60935,37.54018],[126.60858,37.5398],[126.6082,37.54016],[126.60752,37.54021],[126.60719,37.54048],[126.60695,37.53955],[126.60551,37.53889],[126.60511,37.53894],[126.60511,37.53917],[126.60575,37.53932],[126.6061,37.54442],[126.60647,37.5446],[126.60804,37.54435],[126.61022,37.54317],[126.61026,37.54286],[126.61113,37.5423],[126.61115,37.54196],[126.6113,37.54241],[126.61092,37.54291],[126.61286,37.54232],[126.61531,37.54208],[126.61978,37.54265],[126.61987,37.54237],[126.62096,37.54277],[126.62211,37.54281],[126.64857,37.54272],[126.64936,37.54325],[126.64941,37.54568],[126.6505,37.54598],[126.65052,37.54627],[126.65055,37.54598],[126.65081,37.54598],[126.65369,37.54687],[126.65641,37.54951],[126.66065,37.5502],[126.66329,37.55226],[126.66688,37.55375],[126.6703,37.55366],[126.67153,37.55409],[126.67236,37.55472],[126.67387,37.55472],[126.67591,37.5558],[126.67872,37.5563]],[[126.60796,37.54232],[126.60745,37.54211],[126.60735,37.54181],[126.60801,37.54196],[126.608,37.54165],[126.60845,37.54148],[126.60868,37.5411],[126.60935,37.54129],[126.60934,37.54098],[126.60961,37.54088],[126.60976,37.54141],[126.60926,37.54148],[126.60929,37.54164],[126.60796,37.54232]],[[126.61003,37.54108],[126.61008,37.54085],[126.61069,37.54066],[126.6108,37.54094],[126.61003,37.54108]],[[126.60925,37.54064],[126.60845,37.54085],[126.60835,37.5406],[126.60862,37.54042],[126.60925,37.54064]],[[126.60971,37.5405],[126.60979,37.54043],[126.60983,37.5404],[126.60986,37.54038],[126.60991,37.54033],[126.60994,37.54029],[126.60997,37.54028],[126.60999,37.54027],[126.61001,37.54026],[126.61003,37.54026],[126.61006,37.54025],[126.6101,37.54025],[126.61012,37.54024],[126.61013,37.54024],[126.61015,37.54023],[126.61017,37.54021],[126.61021,37.54015],[126.61024,37.54009],[126.61027,37.54002],[126.61027,37.54001],[126.61028,37.54],[126.61029,37.53999],[126.61031,37.53999],[126.61033,37.54],[126.61035,37.54001],[126.61036,37.54002],[126.61037,37.54003],[126.61037,37.54006],[126.61037,37.54008],[126.61037,37.5401],[126.61035,37.54014],[126.61032,37.54018],[126.61028,37.54022],[126.61026,37.54024],[126.61024,37.54026],[126.61022,37.54028],[126.61018,37.5403],[126.61016,37.54031],[126.61014,37.54033],[126.61009,37.54036],[126.61007,37.54038],[126.61004,37.54039],[126.60995,37.54041],[126.60993,37.54041],[126.60991,37.54042],[126.6099,37.54043],[126.60989,37.54044],[126.60987,37.54047],[126.60985,37.54055],[126.60984,37.54056],[126.60982,37.54057],[126.6098,37.54058],[126.60979,37.54058],[126.60977,37.54058],[126.60975,37.54057],[126.60973,37.54056],[126.60971,37.54055],[126.6097,37.54052],[126.6097,37.54051],[126.60971,37.5405]],[[126.60799,37.5404],[126.60785,37.54059],[126.60774,37.54046],[126.60799,37.5404]],[[126.6076,37.54058],[126.608,37.54082],[126.60784,37.54169],[126.60719,37.54168],[126.60715,37.54204],[126.60692,37.5418],[126.60709,37.54172],[126.60692,37.54049],[126.60708,37.54066],[126.60749,37.54044],[126.6076,37.54058]],[[126.60807,37.54111],[126.60809,37.54111],[126.60813,37.54112],[126.60818,37.54114],[126.60823,37.54117],[126.60825,37.5412],[126.60827,37.54123],[126.60828,37.54128],[126.60828,37.54131],[126.60828,37.54134],[126.60828,37.54135],[126.60828,37.54137],[126.60827,37.54138],[126.60826,37.54139],[126.60824,37.5414],[126.60822,37.5414],[126.60819,37.54141],[126.60817,37.54141],[126.60815,37.54141],[126.60812,37.54141],[126.60811,37.54141],[126.60809,37.5414],[126.60805,37.54137],[126.60803,37.54133],[126.60801,37.5413],[126.60799,37.54126],[126.60799,37.54125],[126.60799,37.54123],[126.608,37.5412],[126.60803,37.54114],[126.60805,37.54112],[126.60806,37.54112],[126.60807,37.54111]],[[126.60907,37.54104],[126.60909,37.54103],[126.60911,37.54104],[126.60912,37.54105],[126.60916,37.5411],[126.60917,37.54111],[126.60917,37.54112],[126.60917,37.54114],[126.60917,37.54116],[126.60914,37.54118],[126.60912,37.54119],[126.60911,37.5412],[126.60909,37.5412],[126.60907,37.54119],[126.60905,37.54117],[126.60903,37.54115],[126.60901,37.54113],[126.60901,37.54111],[126.60901,37.54109],[126.60902,37.54106],[126.60905,37.54104],[126.60907,37.54104]],[[126.60862,37.53993],[126.60884,37.54014],[126.60847,37.54011],[126.60862,37.53993]],[[126.6816,37.55513],[126.68161,37.55513],[126.68163,37.55513],[126.68164,37.55514],[126.68165,37.55514],[126.68166,37.55514],[126.6817,37.55513],[126.68171,37.55513],[126.68172,37.55513],[126.68173,37.55513],[126.68173,37.55513],[126.68173,37.55514],[126.68172,37.55515],[126.6817,37.55516],[126.68169,37.55516],[126.68168,37.55517],[126.68167,37.55517],[126.68164,37.55519],[126.68161,37.5552],[126.68158,37.55522],[126.68154,37.55523],[126.68151,37.55525],[126.68149,37.55526],[126.68148,37.55526],[126.68146,37.55528],[126.68142,37.55529],[126.68139,37.5553],[126.68127,37.55536],[126.68124,37.55537],[126.6812,37.55539],[126.68119,37.55539],[126.68118,37.5554],[126.68115,37.55541],[126.68112,37.55543],[126.68108,37.55545],[126.68104,37.55546],[126.68102,37.55547],[126.68096,37.5555],[126.68096,37.5555],[126.68095,37.55551],[126.68091,37.55552],[126.68089,37.55553],[126.68088,37.55553],[126.68085,37.55554],[126.68084,37.55555],[126.68083,37.55555],[126.68082,37.55555],[126.68081,37.55556],[126.6808,37.55556],[126.68079,37.55556],[126.68079,37.55557],[126.68078,37.55557],[126.68075,37.55558],[126.68072,37.55559],[126.68071,37.5556],[126.68068,37.55561],[126.68065,37.55563],[126.68062,37.55564],[126.68058,37.55566],[126.68054,37.55568],[126.68051,37.5557],[126.6805,37.5557],[126.68047,37.55572],[126.68046,37.55572],[126.68043,37.55574],[126.68042,37.55574],[126.68039,37.55576],[126.68038,37.55576],[126.68037,37.55577],[126.68033,37.55578],[126.68032,37.55578],[126.68029,37.5558],[126.68027,37.5558],[126.68023,37.55582],[126.68023,37.55582],[126.68022,37.55583],[126.68022,37.55582],[126.68022,37.55581],[126.68022,37.5558],[126.68023,37.55579],[126.68023,37.55578],[126.68025,37.55575],[126.68026,37.55574],[126.68028,37.55572],[126.68028,37.55571],[126.68029,37.5557],[126.68029,37.5557],[126.6803,37.55569],[126.68031,37.55569],[126.68034,37.55567],[126.68037,37.55566],[126.68038,37.55566],[126.6804,37.55565],[126.68041,37.55564],[126.68045,37.55562],[126.68046,37.55562],[126.68047,37.55562],[126.68051,37.55561],[126.68054,37.5556],[126.68056,37.55559],[126.68059,37.55558],[126.6806,37.55558],[126.68064,37.55556],[126.68065,37.55556],[126.68066,37.55556],[126.68069,37.55554],[126.68076,37.5555],[126.68079,37.55549],[126.6808,37.55548],[126.68083,37.55546],[126.68084,37.55546],[126.68087,37.55544],[126.6809,37.55542],[126.68093,37.55541],[126.68096,37.55539],[126.68096,37.55539],[126.68097,37.55538],[126.681,37.55537],[126.68101,37.55536],[126.68106,37.55535],[126.68109,37.55533],[126.6811,37.55533],[126.68111,37.55532],[126.68115,37.55531],[126.68117,37.5553],[126.68119,37.55529],[126.68123,37.55527],[126.68125,37.55526],[126.68126,37.55526],[126.68129,37.55525],[126.6813,37.55524],[126.68133,37.55523],[126.68134,37.55523],[126.68137,37.55521],[126.6814,37.5552],[126.68143,37.55518],[126.68145,37.55517],[126.68146,37.55517],[126.68147,37.55517],[126.6815,37.55516],[126.68151,37.55515],[126.68155,37.55514],[126.68156,37.55514],[126.68157,37.55514],[126.68158,37.55514],[126.68159,37.55513],[126.6816,37.55513]],[[126.68343,37.55436],[126.68344,37.55436],[126.68345,37.55436],[126.68346,37.55436],[126.68347,37.55437],[126.68347,37.55438],[126.68349,37.55442],[126.68349,37.55442],[126.68349,37.55443],[126.68349,37.55444],[126.68349,37.55444],[126.68344,37.55445],[126.6834,37.55446],[126.68339,37.55446],[126.68336,37.55447],[126.68329,37.55448],[126.68329,37.55448],[126.68326,37.55449],[126.68325,37.55449],[126.68317,37.55451],[126.68316,37.55451],[126.68313,37.55453],[126.68312,37.55453],[126.68311,37.55453],[126.6831,37.55454],[126.68309,37.55454],[126.68309,37.55454],[126.68308,37.55454],[126.68308,37.55453],[126.68311,37.55451],[126.68312,37.55451],[126.68313,37.5545],[126.68313,37.5545],[126.68314,37.55449],[126.68315,37.55449],[126.68315,37.55448],[126.68318,37.55447],[126.68319,37.55446],[126.6832,37.55446],[126.68323,37.55444],[126.68327,37.55442],[126.68328,37.55442],[126.68329,37.55441],[126.6833,37.55441],[126.68331,37.5544],[126.68332,37.5544],[126.68332,37.5544],[126.68334,37.55439],[126.68335,37.55439],[126.68335,37.55439],[126.68338,37.55438],[126.68339,37.55437],[126.68341,37.55437],[126.68341,37.55437],[126.68342,37.55436],[126.68343,37.55436]]]}},{"type":"Feature","id":"TN_RIVER_BT:WTR02000000004N3C","properties":{"NF_ID":"WTR02000000004N3C","admin_code":"28290","source_layer":"TN_RIVER_BT","semantic":"channel","river_class":"소하천","river_class_source":"중심선 공간조인","survey_method":"사진측량"},"geometry":{"type":"Polygon","coordinates":[[[126.62354,37.55679],[126.61608,37.55529],[126.61015,37.55484],[126.60878,37.55515],[126.60771,37.55504],[126.607,37.55447],[126.60679,37.55464],[126.60708,37.55503],[126.60873,37.55517],[126.60971,37.55489],[126.61559,37.55529],[126.62172,37.55648],[126.62254,37.5568],[126.62354,37.55679]]]}},{"type":"Feature","id":"TN_RIVER_BT:WTR02000000004N6F","properties":{"NF_ID":"WTR02000000004N6F","admin_code":"28290","source_layer":"TN_RIVER_BT","semantic":"channel","river_class":"소하천","river_class_source":"중심선 공간조인","survey_method":"사진측량"},"geometry":{"type":"Polygon","coordinates":[[[126.64057,37.56246],[126.64135,37.56275],[126.64295,37.56208],[126.64171,37.56263],[126.64122,37.56269],[126.64061,37.56239],[126.63902,37.56277],[126.64057,37.56246]]]}},{"type":"Feature","id":"TN_RIVER_BT:WTR02000000004N7G","properties":{"NF_ID":"WTR02000000004N7G","admin_code":"28290","source_layer":"TN_RIVER_BT","semantic":"channel","river_class":"소하천","river_class_source":"중심선 공간조인","survey_method":"사진측량"},"geometry":{"type":"Polygon","coordinates":[[[126.658,37.563],[126.65833,37.56284],[126.65771,37.56299],[126.65669,37.56274],[126.658,37.563]]]}},{"type":"Feature","id":"TN_RIVER_BT:WTR02000000004N8H","properties":{"NF_ID":"WTR02000000004N8H","admin_code":"28290","source_layer":"TN_RIVER_BT","semantic":"channel","river_class":"소하천","river_class_source":"중심선 공간조인","survey_method":"사진측량"},"geometry":{"type":"Polygon","coordinates":[[[126.6585,37.56394],[126.66129,37.56379],[126.66131,37.56251],[126.66196,37.56142],[126.66435,37.56209],[126.66469,37.56243],[126.66588,37.5629],[126.66723,37.5624],[126.66777,37.56194],[126.66844,37.56182],[126.6694,37.56109],[126.66847,37.56178],[126.66768,37.56194],[126.66721,37.56239],[126.66599,37.56286],[126.66468,37.56241],[126.66436,37.56207],[126.66193,37.56141],[126.66132,37.56237],[126.66125,37.56377],[126.65785,37.56393],[126.65461,37.56346],[126.65347,37.56351],[126.6585,37.56394]]]}},{"type":"Feature","id":"TN_RIVER_BT:WTR02000000004N9I","properties":{"NF_ID":"WTR02000000004N9I","admin_code":"28290","source_layer":"TN_RIVER_BT","semantic":"channel","river_class":"소하천","river_class_source":"중심선 공간조인","survey_method":"사진측량"},"geometry":{"type":"Polygon","coordinates":[[[126.65,37.56659],[126.65091,37.56592],[126.65088,37.5653],[126.65362,37.56405],[126.6508,37.56529],[126.65069,37.56588],[126.65016,37.56649],[126.64965,37.56653],[126.65,37.56659]]]}},{"type":"Feature","id":"TN_RIVER_BT:WTR02000000004NAJ","properties":{"NF_ID":"WTR02000000004NAJ","admin_code":"28290","source_layer":"TN_RIVER_BT","semantic":"channel","river_class":"소하천","river_class_source":"중심선 공간조인","survey_method":"사진측량"},"geometry":{"type":"Polygon","coordinates":[[[126.62082,37.56645],[126.61985,37.56616],[126.61968,37.56627],[126.6201,37.56642],[126.62007,37.5666],[126.62015,37.56644],[126.62104,37.56667],[126.62082,37.56645]]]}},{"type":"Feature","id":"TN_RIVER_BT:WTR02000000004NBK","properties":{"NF_ID":"WTR02000000004NBK","admin_code":"28290","source_layer":"TN_RIVER_BT","semantic":"channel","river_class":"소하천","river_class_source":"중심선 공간조인","survey_method":"사진측량"},"geometry":{"type":"Polygon","coordinates":[[[126.63281,37.56791],[126.63504,37.56419],[126.63284,37.56774],[126.63043,37.56714],[126.627,37.56501],[126.62653,37.56505],[126.62631,37.56535],[126.62604,37.56527],[126.62612,37.56592],[126.6266,37.5652],[126.62692,37.56511],[126.6284,37.56606],[126.62827,37.56622],[126.62845,37.56608],[126.63037,37.56729],[126.63281,37.56791]]]}},{"type":"Feature","id":"TN_RIVER_BT:WTR02000000004NCL","properties":{"NF_ID":"WTR02000000004NCL","admin_code":"28290","source_layer":"TN_RIVER_BT","semantic":"channel","river_class":"소하천","river_class_source":"중심선 공간조인","survey_method":"사진측량"},"geometry":{"type":"Polygon","coordinates":[[[126.68843,37.56732],[126.68995,37.56734],[126.6881,37.56734],[126.68742,37.56839],[126.68591,37.56942],[126.68744,37.56841],[126.68796,37.5675],[126.68843,37.56732]]]}},{"type":"Feature","id":"TN_RIVER_BT:WTR02000000004NIR","properties":{"NF_ID":"WTR02000000004NIR","admin_code":"28290","source_layer":"TN_RIVER_BT","semantic":"channel","river_class":"소하천","river_class_source":"중심선 공간조인","survey_method":"사진측량"},"geometry":{"type":"Polygon","coordinates":[[[126.64536,37.56953],[126.65002,37.57017],[126.65065,37.56985],[126.65002,37.57],[126.6479,37.56985],[126.64741,37.56959],[126.64623,37.56963],[126.64555,37.56941],[126.64524,37.5687],[126.6456,37.56683],[126.64629,37.56678],[126.64867,37.56724],[126.6463,37.56662],[126.64606,37.56634],[126.64533,37.56679],[126.64496,37.56983],[126.64538,37.57015],[126.64507,37.56987],[126.64536,37.56953]]]}},{"type":"Feature","id":"TN_RIVER_BT:WTR02000000004NY7","properties":{"NF_ID":"WTR02000000004NY7","admin_code":"28290","source_layer":"TN_RIVER_BT","semantic":"channel","river_class":"소하천","river_class_source":"중심선 공간조인","survey_method":"사진측량"},"geometry":{"type":"Polygon","coordinates":[[[126.67182,37.57366],[126.67182,37.57366],[126.67181,37.57367],[126.67187,37.5737],[126.67243,37.57393],[126.67308,37.5742],[126.6737,37.57446],[126.67389,37.57454],[126.67391,37.57455],[126.67437,37.57483],[126.67448,37.57489],[126.67454,37.57492],[126.67455,37.57491],[126.67449,37.57488],[126.67409,37.57465],[126.67388,37.57452],[126.67358,37.5744],[126.67299,37.57415],[126.67244,37.57392],[126.67187,37.57368],[126.67182,37.57366]]]}},{"type":"Feature","id":"TN_RIVER_BT:WTR02000000004O1B","properties":{"NF_ID":"WTR02000000004O1B","admin_code":"28290","source_layer":"TN_RIVER_BT","semantic":"channel","river_class":"소하천","river_class_source":"중심선 공간조인","survey_method":"사진측량"},"geometry":{"type":"Polygon","coordinates":[[[126.6507,37.57743],[126.6507,37.57743],[126.6507,37.57743],[126.65069,37.57744],[126.65069,37.57747],[126.65069,37.57752],[126.65069,37.57757],[126.6507,37.57759],[126.65069,37.57761],[126.65069,37.57763],[126.65069,37.57764],[126.65069,37.57767],[126.65069,37.57769],[126.65069,37.57773],[126.65069,37.57775],[126.65069,37.57779],[126.65069,37.57785],[126.65069,37.57789],[126.65068,37.57791],[126.65068,37.57792],[126.65069,37.57794],[126.65071,37.57797],[126.65071,37.578],[126.6507,37.57801],[126.6507,37.57803],[126.6507,37.57805],[126.6507,37.57807],[126.6507,37.57809],[126.65071,37.57812],[126.65072,37.57815],[126.65071,37.5782],[126.65071,37.57824],[126.65072,37.57828],[126.65072,37.57832],[126.65072,37.57834],[126.65072,37.57836],[126.65073,37.57838],[126.65074,37.57841],[126.65078,37.57845],[126.65078,37.57845],[126.65079,37.57844],[126.65078,37.57844],[126.65076,37.5784],[126.65075,37.57838],[126.65074,37.57835],[126.65074,37.57833],[126.65074,37.57829],[126.65074,37.57827],[126.65072,37.57824],[126.65072,37.57822],[126.65072,37.57817],[126.65073,37.57812],[126.65072,37.5781],[126.65072,37.57807],[126.65072,37.57804],[126.65072,37.57802],[126.65072,37.578],[126.65072,37.57799],[126.65071,37.57795],[126.6507,37.57791],[126.6507,37.5779],[126.6507,37.57789],[126.6507,37.57787],[126.65069,37.5778],[126.65069,37.57775],[126.6507,37.57773],[126.65071,37.5777],[126.65071,37.57768],[126.6507,37.57766],[126.6507,37.57764],[126.65071,37.57763],[126.65071,37.57762],[126.65071,37.57761],[126.65071,37.57759],[126.65071,37.57757],[126.65071,37.57754],[126.65071,37.57751],[126.65071,37.57749],[126.65071,37.57748],[126.65071,37.57746],[126.65071,37.57744],[126.6507,37.57743]]]}},{"type":"Feature","id":"TN_RIVER_BT:WTR02000000004O2C","properties":{"NF_ID":"WTR02000000004O2C","admin_code":"28290","source_layer":"TN_RIVER_BT","semantic":"channel","river_class":"소하천","river_class_source":"중심선 공간조인","survey_method":"사진측량"},"geometry":{"type":"Polygon","coordinates":[[[126.65112,37.57842],[126.65114,37.57841],[126.65117,37.5784],[126.6512,37.57839],[126.65124,37.57838],[126.65127,37.57837],[126.65132,37.57833],[126.6514,37.5783],[126.65141,37.57829],[126.65144,37.57829],[126.65147,37.57829],[126.65148,37.57829],[126.65149,37.57829],[126.65151,37.57827],[126.65152,37.57826],[126.65153,37.57825],[126.65156,37.57825],[126.65157,37.57825],[126.65159,37.57824],[126.65163,37.57823],[126.65166,37.57821],[126.65182,37.57815],[126.65213,37.57804],[126.65217,37.57801],[126.6522,37.57801],[126.65222,37.578],[126.65224,37.57799],[126.65225,37.57797],[126.65227,37.57796],[126.65228,37.57796],[126.65228,37.57796],[126.65229,37.57797],[126.6523,37.57797],[126.65232,37.57796],[126.65233,37.57796],[126.65234,37.57795],[126.65234,37.57795],[126.65236,37.57795],[126.65238,37.57795],[126.65239,37.57795],[126.6524,37.57794],[126.65242,37.57793],[126.65244,37.57792],[126.65245,37.57791],[126.65244,37.57791],[126.65243,37.57791],[126.65239,37.5779],[126.65232,37.57793],[126.65227,37.57795],[126.65223,37.57798],[126.6522,37.57799],[126.65217,37.57799],[126.65213,37.57802],[126.65208,37.57804],[126.65176,37.57816],[126.65161,37.57822],[126.65154,37.57824],[126.65149,37.57825],[126.65145,37.57826],[126.65138,37.5783],[126.65128,37.57834],[126.65121,37.57837],[126.6512,37.57838],[126.65119,37.57839],[126.65114,37.57841],[126.65113,37.57841],[126.65111,37.57842],[126.65106,37.57842],[126.65105,37.57842],[126.65102,37.57844],[126.65097,37.57845],[126.65092,37.57845],[126.6509,37.57845],[126.65083,37.57847],[126.65084,37.57847],[126.65084,37.57848],[126.65085,37.57848],[126.65088,37.57847],[126.65093,37.57846],[126.65095,37.57846],[126.65097,37.57846],[126.65099,37.57846],[126.65102,37.57844],[126.65105,37.57844],[126.65106,37.57844],[126.65107,37.57844],[126.65108,37.57843],[126.65108,37.57842],[126.65109,37.57842],[126.65112,37.57842]]]}},{"type":"Feature","id":"TN_RIVER_BT:WTR02000000004O3D","properties":{"NF_ID":"WTR02000000004O3D","admin_code":"28290","source_layer":"TN_RIVER_BT","semantic":"channel","river_class":"소하천","river_class_source":"중심선 공간조인","survey_method":"사진측량"},"geometry":{"type":"Polygon","coordinates":[[[126.67806,37.57885],[126.67901,37.57897],[126.68038,37.57854],[126.68061,37.57829],[126.68063,37.57797],[126.67984,37.57686],[126.6789,37.57596],[126.67906,37.57572],[126.67963,37.57568],[126.67903,37.57571],[126.67888,37.576],[126.67976,37.5768],[126.6806,37.57826],[126.68033,37.57853],[126.67894,37.57896],[126.678,37.57884],[126.67782,37.57971],[126.67806,37.57885]]]}},{"type":"Feature","id":"TN_RIVER_BT:WTR02000000004O6G","properties":{"NF_ID":"WTR02000000004O6G","admin_code":"28290","source_layer":"TN_RIVER_BT","semantic":"channel","river_class":"소하천","river_class_source":"중심선 공간조인","survey_method":"사진측량"},"geometry":{"type":"Polygon","coordinates":[[[126.5882,37.58059],[126.5882,37.58058],[126.58816,37.5806],[126.58816,37.58061],[126.58814,37.58063],[126.58812,37.58066],[126.58811,37.58068],[126.58811,37.58072],[126.58809,37.58074],[126.58807,37.58076],[126.58803,37.58079],[126.58789,37.58086],[126.58769,37.58097],[126.58766,37.58098],[126.58761,37.581],[126.58754,37.58102],[126.58742,37.58107],[126.5874,37.58108],[126.58732,37.58112],[126.58715,37.58122],[126.58696,37.58132],[126.58693,37.58135],[126.5869,37.58137],[126.58687,37.58138],[126.58683,37.5814],[126.5866,37.58149],[126.58658,37.5815],[126.58655,37.58151],[126.58651,37.58152],[126.58648,37.58153],[126.58645,37.58154],[126.58632,37.58159],[126.5863,37.5816],[126.5863,37.5816],[126.5863,37.58161],[126.58631,37.58163],[126.58632,37.58164],[126.58634,37.58165],[126.58636,37.58166],[126.58637,37.58167],[126.5864,37.58166],[126.58637,37.58165],[126.58636,37.58163],[126.58637,37.58161],[126.58638,37.58159],[126.5864,37.58158],[126.58642,37.58157],[126.58646,37.58155],[126.58685,37.58141],[126.58699,37.58135],[126.58725,37.5812],[126.58727,37.58118],[126.58733,37.58114],[126.58747,37.58106],[126.5875,37.58106],[126.58756,37.58104],[126.58765,37.581],[126.58791,37.58089],[126.58807,37.58081],[126.5881,37.58079],[126.58813,37.58076],[126.58814,37.5807],[126.58815,37.58067],[126.58817,37.58066],[126.58819,37.58064],[126.58821,37.58063],[126.58821,37.58062],[126.58821,37.58062],[126.58821,37.58061],[126.58821,37.5806],[126.5882,37.58059]]]}},{"type":"Feature","id":"TN_RIVER_BT:WTR02000000004O8I","properties":{"NF_ID":"WTR02000000004O8I","admin_code":"28290","source_layer":"TN_RIVER_BT","semantic":"channel","river_class":"소하천","river_class_source":"중심선 공간조인","survey_method":"사진측량"},"geometry":{"type":"Polygon","coordinates":[[[126.64951,37.58477],[126.64956,37.58477],[126.64959,37.58477],[126.64963,37.58478],[126.6497,37.58478],[126.64974,37.58478],[126.64979,37.58478],[126.64981,37.58478],[126.64987,37.58475],[126.65001,37.5847],[126.6501,37.58466],[126.6503,37.5846],[126.65038,37.58459],[126.6504,37.58459],[126.65041,37.5846],[126.65043,37.58459],[126.65043,37.58459],[126.65044,37.58458],[126.65044,37.58458],[126.65044,37.58457],[126.65043,37.58457],[126.65041,37.58456],[126.65038,37.58456],[126.65034,37.58457],[126.65024,37.5846],[126.65004,37.58466],[126.64993,37.58471],[126.64985,37.58475],[126.64981,37.58476],[126.64976,37.58477],[126.64972,37.58477],[126.64965,37.58477],[126.64958,37.58475],[126.64952,37.58475],[126.64949,37.58475],[126.64946,37.58475],[126.64944,37.58476],[126.64941,37.58476],[126.64938,37.58478],[126.64934,37.58481],[126.64932,37.58484],[126.64931,37.58486],[126.64931,37.58487],[126.64931,37.58489],[126.64931,37.5849],[126.64932,37.58492],[126.64935,37.58493],[126.64938,37.58493],[126.6494,37.58492],[126.6494,37.58488],[126.6494,37.58484],[126.6494,37.58482],[126.64941,37.58481],[126.64942,37.58481],[126.64951,37.58477]]]}},{"type":"Feature","id":"TN_RIVER_BT:WTR02000000004O9J","properties":{"NF_ID":"WTR02000000004O9J","admin_code":"28290","source_layer":"TN_RIVER_BT","semantic":"channel","river_class":"소하천","river_class_source":"중심선 공간조인","survey_method":"사진측량"},"geometry":{"type":"Polygon","coordinates":[[[126.62441,37.5883],[126.62438,37.5883],[126.62437,37.5883],[126.62438,37.58831],[126.62438,37.58833],[126.62439,37.58834],[126.62439,37.58836],[126.6244,37.58838],[126.6244,37.58842],[126.62439,37.58848],[126.62439,37.5885],[126.62439,37.58854],[126.62439,37.58861],[126.6244,37.58867],[126.6244,37.5887],[126.6244,37.58874],[126.6244,37.58876],[126.62442,37.58879],[126.62444,37.58883],[126.62446,37.58885],[126.62448,37.58888],[126.62451,37.58888],[126.62451,37.58887],[126.62451,37.58887],[126.6245,37.58886],[126.6245,37.58885],[126.62448,37.58883],[126.62446,37.58881],[126.62445,37.58879],[126.62445,37.58877],[126.62444,37.58874],[126.62444,37.58873],[126.62443,37.5887],[126.62443,37.58867],[126.62443,37.58864],[126.62443,37.58862],[126.62444,37.58859],[126.62445,37.58853],[126.62445,37.58851],[126.62446,37.58846],[126.62446,37.5884],[126.62445,37.58838],[126.62445,37.58836],[126.62444,37.58833],[126.62441,37.5883]]]}},{"type":"Feature","id":"TN_RIVER_BT:WTR02000000004OAK","properties":{"NF_ID":"WTR02000000004OAK","admin_code":"28290","source_layer":"TN_RIVER_BT","semantic":"channel","river_class":"지방하천","river_class_source":"중심선 공간조인","river_name":"아라천","river_code":"1500321","survey_method":"사진측량"},"geometry":{"type":"Polygon","coordinates":[[[126.64289,37.58762],[126.64332,37.58744],[126.64784,37.58875],[126.64817,37.58822],[126.64918,37.5881],[126.6509,37.58612],[126.65067,37.58574],[126.6494,37.58515],[126.6492,37.58474],[126.64947,37.58525],[126.65068,37.58584],[126.64981,37.5866],[126.65068,37.58589],[126.65088,37.58612],[126.64919,37.58806],[126.64816,37.58819],[126.64773,37.58871],[126.64343,37.58744],[126.64283,37.58745],[126.64263,37.58707],[126.64225,37.58694],[126.6417,37.58545],[126.64096,37.58468],[126.64254,37.58284],[126.64108,37.58424],[126.64079,37.58482],[126.64034,37.58487],[126.64189,37.5829],[126.64288,37.58234],[126.64677,37.57913],[126.64735,37.57998],[126.64784,37.58014],[126.64957,37.57927],[126.65475,37.57738],[126.65707,37.57934],[126.66262,37.57871],[126.66299,37.57682],[126.66117,37.57327],[126.66274,37.57308],[126.66176,37.573],[126.6617,37.5732],[126.66118,37.57321],[126.6611,37.57271],[126.66661,37.57286],[126.66681,37.57328],[126.66394,37.57314],[126.66682,37.57331],[126.66996,37.57299],[126.66692,37.57322],[126.66689,37.57284],[126.67687,37.57194],[126.6816,37.57171],[126.69034,37.57178],[126.70038,37.57223],[126.70034,37.5727],[126.70051,37.57223],[126.73207,37.57371],[126.73949,37.57423],[126.74589,37.57433],[126.7462,37.57445],[126.74636,37.57624],[126.74322,37.57682],[126.74078,37.57669],[126.73703,37.57543],[126.7316,37.57439],[126.73702,37.57547],[126.74079,37.57672],[126.7432,37.57686],[126.74638,37.57628],[126.74624,37.57448],[126.75,37.57459],[126.75,37.57358],[126.74268,37.57316],[126.73628,37.57313],[126.73621,37.57249],[126.73613,37.57312],[126.72148,37.57243],[126.7215,37.57169],[126.72099,37.57104],[126.72037,37.57089],[126.71983,37.57018],[126.71966,37.56943],[126.72005,37.5705],[126.7197,37.57094],[126.72006,37.57051],[126.7204,37.57097],[126.72097,37.57105],[126.72146,37.57169],[126.72135,37.57243],[126.71352,37.57208],[126.71342,37.5705],[126.71345,37.57207],[126.70714,37.57174],[126.70711,37.57146],[126.707,37.57173],[126.70599,37.57174],[126.68564,37.57086],[126.67855,37.57077],[126.67251,37.5713],[126.67232,37.57124],[126.67219,37.5682],[126.6751,37.56826],[126.67226,37.56816],[126.67228,37.57127],[126.66475,37.5719],[126.65891,37.57152],[126.65865,37.57092],[126.65852,37.57148],[126.65532,37.57125],[126.65534,37.5706],[126.65629,37.57011],[126.65628,37.56898],[126.65669,37.56814],[126.65755,37.56821],[126.65747,37.56772],[126.65803,37.56704],[126.66185,37.56532],[126.6579,37.56709],[126.65747,37.56761],[126.6575,37.56816],[126.6567,37.56807],[126.65628,37.56888],[126.65605,37.56886],[126.65625,37.56945],[126.65551,37.57046],[126.6552,37.57035],[126.65485,37.57056],[126.65464,37.5702],[126.65469,37.57049],[126.65406,37.57042],[126.65412,37.56984],[126.6538,37.56958],[126.65361,37.56963],[126.65396,37.56975],[126.65394,37.57041],[126.65221,37.57029],[126.65187,37.56983],[126.65143,37.56976],[126.65176,37.56956],[126.6513,37.56974],[126.65181,37.5699],[126.65173,37.57004],[126.65076,37.56989],[126.65102,37.56999],[126.65078,37.57091],[126.63932,37.57028],[126.63426,37.56916],[126.63367,37.56884],[126.61735,37.5643],[126.61802,37.56231],[126.608,37.55953],[126.60818,37.55911],[126.6036,37.55792],[126.60236,37.55854],[126.60199,37.55836],[126.60152,37.55872],[126.60175,37.55896],[126.60156,37.55918],[126.60462,37.56014],[126.60439,37.56083],[126.60181,37.56012],[126.60171,37.56036],[126.60427,37.56108],[126.60419,37.56129],[126.60161,37.56058],[126.6015,37.56083],[126.60407,37.56153],[126.60382,37.56213],[126.6159,37.56547],[126.61697,37.56512],[126.63762,37.57085],[126.64654,37.57162],[126.64661,37.5789],[126.64571,37.57949],[126.64288,37.58228],[126.64181,37.5828],[126.63978,37.58516],[126.63842,37.58504],[126.63552,37.58532],[126.6336,37.58574],[126.63292,37.58619],[126.6326,37.58613],[126.62966,37.5835],[126.6294,37.58349],[126.62952,37.58334],[126.62927,37.58335],[126.62924,37.5831],[126.62912,37.58322],[126.62721,37.58215],[126.62747,37.58111],[126.62735,37.57963],[126.62571,37.57864],[126.62366,37.57783],[126.62364,37.57627],[126.62336,37.57628],[126.6233,37.57769],[126.62181,37.57813],[126.62153,37.57792],[126.62148,37.56769],[126.62137,37.58453],[126.62095,37.5851],[126.61756,37.58509],[126.61684,37.58526],[126.61623,37.58509],[126.61378,37.58519],[126.61367,37.58502],[126.61371,37.58523],[126.61275,37.58549],[126.61066,37.58712],[126.60572,37.58696],[126.604,37.58571],[126.60372,37.58531],[126.6039,37.58454],[126.60372,37.5818],[126.60391,37.58178],[126.60362,37.58173],[126.60376,37.58125],[126.60347,37.58062],[126.6046,37.58022],[126.60538,37.57918],[126.60515,37.57913],[126.60539,37.57144],[126.60509,37.57138],[126.59324,37.57136],[126.60512,37.57142],[126.6051,37.57924],[126.60457,37.58006],[126.60361,37.58036],[126.59761,37.58033],[126.59612,37.58062],[126.59481,37.58001],[126.59203,37.57958],[126.58723,37.58203],[126.58654,37.58245],[126.58645,37.58296],[126.59079,37.5803],[126.59212,37.57971],[126.59482,37.58019],[126.59597,37.58077],[126.59571,37.58099],[126.59586,37.58112],[126.59732,37.58056],[126.60279,37.5806],[126.60326,37.58076],[126.60355,37.58117],[126.60354,37.58529],[126.60386,37.58587],[126.60577,37.58712],[126.61069,37.58733],[126.61118,37.58716],[126.61278,37.5856],[126.6136,37.58532],[126.61609,37.58512],[126.61986,37.58539],[126.62125,37.58502],[126.62166,37.58423],[126.62141,37.5782],[126.6219,37.57833],[126.62331,37.5779],[126.62517,37.57854],[126.62716,37.57966],[126.62719,37.5823],[126.62893,37.58317],[126.63242,37.58608],[126.63292,37.58625],[126.63328,37.58702],[126.63182,37.58786],[126.63334,37.58702],[126.63294,37.58622],[126.63375,37.58577],[126.63812,37.58513],[126.63991,37.58529],[126.64031,37.58493],[126.64054,37.58521],[126.63988,37.58557],[126.64055,37.58562],[126.64099,37.58508],[126.64129,37.58517],[126.64177,37.58616],[126.64166,37.58645],[126.64266,37.58756],[126.64251,37.58807],[126.64273,37.58762],[126.64398,37.58784],[126.64855,37.58924],[126.64289,37.58762]],[[126.64181,37.58615],[126.642,37.58667],[126.6417,37.58642],[126.64181,37.58615]],[[126.64715,37.57171],[126.66066,37.57268],[126.66283,37.57683],[126.6625,37.57857],[126.65716,37.57922],[126.65472,37.57725],[126.64976,37.57913],[126.64775,37.58011],[126.64739,37.57991],[126.64691,37.57887],[126.64715,37.57171]],[[126.65103,37.57092],[126.65112,37.56998],[126.65182,37.57007],[126.65217,37.57035],[126.65523,37.5707],[126.65511,37.57123],[126.65103,37.57092]]]}},{"type":"Feature","id":"TN_RIVER_BT:WTR02000000004OCM","properties":{"NF_ID":"WTR02000000004OCM","admin_code":"28290","source_layer":"TN_RIVER_BT","semantic":"channel","river_class":"소하천","river_class_source":"중심선 공간조인","survey_method":"사진측량"},"geometry":{"type":"Polygon","coordinates":[[[126.6766,37.58665],[126.67666,37.58764],[126.67628,37.5884],[126.67441,37.58912],[126.67348,37.59115],[126.67443,37.58916],[126.67628,37.58844],[126.67671,37.58757],[126.6766,37.58665]]]}},{"type":"Feature","id":"TN_RIVER_BT:WTR02000000004OFP","properties":{"NF_ID":"WTR02000000004OFP","admin_code":"28290","source_layer":"TN_RIVER_BT","semantic":"channel","river_class":"등급미확인","survey_method":"사진측량"},"geometry":{"type":"Polygon","coordinates":[[[126.60488,37.59524],[126.60461,37.59497],[126.60487,37.59522],[126.60392,37.59588],[126.60488,37.59524]]]}},{"type":"Feature","id":"TN_RIVER_BT:WTR02000000004OJT","properties":{"NF_ID":"WTR02000000004OJT","admin_code":"28290","source_layer":"TN_RIVER_BT","semantic":"channel","river_class":"소하천","river_class_source":"중심선 공간조인","survey_method":"사진측량"},"geometry":{"type":"Polygon","coordinates":[[[126.72118,37.5962],[126.71738,37.59851],[126.71622,37.59945],[126.72118,37.5962]]]}},{"type":"Feature","id":"TN_RIVER_BT:WTR02000000004ONX","properties":{"NF_ID":"WTR02000000004ONX","admin_code":"28290","source_layer":"TN_RIVER_BT","semantic":"channel","river_class":"소하천","river_class_source":"중심선 공간조인","survey_method":"사진측량"},"geometry":{"type":"Polygon","coordinates":[[[126.62649,37.60232],[126.62637,37.60231],[126.6263,37.60231],[126.62629,37.60231],[126.62629,37.60233],[126.62637,37.60232],[126.62647,37.60233],[126.62649,37.60233],[126.62652,37.60234],[126.62654,37.60235],[126.62656,37.60235],[126.62655,37.60233],[126.62649,37.60232]]]}},{"type":"Feature","id":"TN_RIVER_BT:WTR02000000004P8J","properties":{"NF_ID":"WTR02000000004P8J","admin_code":"28290","source_layer":"TN_RIVER_BT","semantic":"channel","river_class":"소하천","river_class_source":"중심선 공간조인","survey_method":"사진측량"},"geometry":{"type":"Polygon","coordinates":[[[126.65925,37.61513],[126.65911,37.61472],[126.65958,37.61407],[126.66209,37.61223],[126.66303,37.61184],[126.66506,37.61154],[126.6657,37.61112],[126.66594,37.61045],[126.66778,37.60859],[126.66829,37.60703],[126.66767,37.60863],[126.6659,37.61034],[126.66547,37.61126],[126.66481,37.61155],[126.66295,37.6118],[126.66202,37.61222],[126.65945,37.61416],[126.65891,37.61524],[126.65844,37.61525],[126.65916,37.61511],[126.65925,37.61577],[126.65925,37.61513]]]}},{"type":"Feature","id":"TN_RIVER_BT:WTR02000000004PFQ","properties":{"NF_ID":"WTR02000000004PFQ","admin_code":"28290","source_layer":"TN_RIVER_BT","semantic":"channel","river_class":"소하천","river_class_source":"중심선 공간조인","survey_method":"사진측량"},"geometry":{"type":"Polygon","coordinates":[[[126.67886,37.61904],[126.67883,37.61903],[126.67877,37.61917],[126.67871,37.6193],[126.67864,37.61946],[126.67858,37.61957],[126.67861,37.61958],[126.67865,37.61951],[126.67871,37.61938],[126.67877,37.61925],[126.67881,37.61917],[126.67881,37.61917],[126.67886,37.61904]]]}},{"type":"Feature","id":"TN_RIVER_BT:WTR02000000004PGR","properties":{"NF_ID":"WTR02000000004PGR","admin_code":"28290","source_layer":"TN_RIVER_BT","semantic":"channel","river_class":"소하천","river_class_source":"중심선 공간조인","survey_method":"사진측량"},"geometry":{"type":"Polygon","coordinates":[[[126.67124,37.61844],[126.66743,37.61872],[126.66704,37.61971],[126.66744,37.61875],[126.67124,37.61844]]]}},{"type":"Feature","id":"TN_RIVER_BT:WTR02000000004PLW","properties":{"NF_ID":"WTR02000000004PLW","admin_code":"28290","source_layer":"TN_RIVER_BT","semantic":"channel","river_class":"등급미확인","survey_method":"사진측량"},"geometry":{"type":"Polygon","coordinates":[[[126.64003,37.62068],[126.6389,37.6201],[126.63934,37.62051],[126.64003,37.62068]]]}},{"type":"Feature","id":"TN_RIVER_BT:WTR02000000004PMX","properties":{"NF_ID":"WTR02000000004PMX","admin_code":"28290","source_layer":"TN_RIVER_BT","semantic":"channel","river_class":"지방하천","river_class_source":"중심선 공간조인","river_name":"대포천","river_code":"1520340","survey_method":"사진측량"},"geometry":{"type":"Polygon","coordinates":[[[126.63657,37.62042],[126.63813,37.62063],[126.63866,37.62012],[126.63843,37.62052],[126.63803,37.62061],[126.63597,37.62026],[126.63403,37.61911],[126.63332,37.61936],[126.63297,37.61852],[126.63327,37.61939],[126.63308,37.61951],[126.63403,37.61916],[126.6359,37.62029],[126.63651,37.6204],[126.63639,37.62077],[126.63657,37.62042]]]}},{"type":"Feature","id":"TN_RIVER_BT:WTR02000000004POZ","properties":{"NF_ID":"WTR02000000004POZ","admin_code":"28290","source_layer":"TN_RIVER_BT","semantic":"channel","river_class":"등급미확인","survey_method":"사진측량"},"geometry":{"type":"Polygon","coordinates":[[[126.63938,37.62066],[126.63936,37.62065],[126.63935,37.62066],[126.63937,37.62068],[126.63943,37.62072],[126.6395,37.62077],[126.63958,37.62083],[126.63964,37.62088],[126.63967,37.6209],[126.63971,37.62093],[126.63974,37.62095],[126.63983,37.62099],[126.63987,37.621],[126.63992,37.62101],[126.63997,37.62103],[126.63997,37.62101],[126.63993,37.621],[126.63992,37.621],[126.63988,37.62099],[126.63986,37.62099],[126.63984,37.62098],[126.63975,37.62094],[126.63973,37.62094],[126.6397,37.6209],[126.63959,37.62083],[126.63952,37.62077],[126.63947,37.62073],[126.63942,37.62069],[126.63938,37.62066]]]}},{"type":"Feature","id":"TN_RIVER_BT:WTR02000000004QX9","properties":{"NF_ID":"WTR02000000004QX9","admin_code":"28290","source_layer":"TN_RIVER_BT","semantic":"channel","river_class":"등급미확인","survey_method":"사진측량"},"geometry":{"type":"Polygon","coordinates":[[[126.65512,37.63563],[126.65468,37.63591],[126.65501,37.63614],[126.65471,37.63591],[126.65512,37.63563]]]}},{"type":"Feature","id":"TN_RIVER_BT:WTR02000000004RYB","properties":{"NF_ID":"WTR02000000004RYB","admin_code":"28290","source_layer":"TN_RIVER_BT","semantic":"channel","river_class":"지방하천","river_class_source":"중심선 공간조인","river_name":"대곡천","river_code":"1025710","survey_method":"사진측량"},"geometry":{"type":"Polygon","coordinates":[[[126.70231,37.6473],[126.70339,37.64668],[126.70408,37.64677],[126.70472,37.64656],[126.70482,37.64602],[126.70662,37.64437],[126.70758,37.64238],[126.70968,37.64227],[126.71064,37.64446],[126.70971,37.64224],[126.71067,37.63684],[126.71068,37.63402],[126.7118,37.63188],[126.7121,37.63164],[126.71247,37.63207],[126.71211,37.63144],[126.71451,37.62792],[126.71625,37.62779],[126.71801,37.62797],[126.71974,37.6285],[126.72162,37.6295],[126.72318,37.62913],[126.72488,37.62964],[126.72731,37.62864],[126.72888,37.63078],[126.72815,37.63128],[126.72809,37.63171],[126.72841,37.63111],[126.72955,37.63087],[126.73032,37.63043],[126.7308,37.62963],[126.73254,37.62843],[126.73353,37.62712],[126.73378,37.62627],[126.73327,37.62542],[126.73334,37.62445],[126.73229,37.62346],[126.73331,37.6231],[126.737,37.62292],[126.73574,37.62287],[126.73276,37.6232],[126.72765,37.62598],[126.72702,37.62519],[126.72766,37.62456],[126.72842,37.62309],[126.72916,37.62259],[126.73358,37.62111],[126.73745,37.62124],[126.73818,37.62075],[126.73884,37.62078],[126.73925,37.62139],[126.739,37.62182],[126.73962,37.62348],[126.74305,37.6274],[126.74293,37.62763],[126.74327,37.62765],[126.7438,37.62829],[126.74426,37.62806],[126.74352,37.62742],[126.74387,37.62728],[126.74061,37.62361],[126.74156,37.62261],[126.74382,37.62265],[126.74147,37.6226],[126.74021,37.62377],[126.73953,37.6225],[126.7393,37.62108],[126.73949,37.62037],[126.73914,37.62033],[126.73921,37.62],[126.74053,37.61835],[126.74077,37.61744],[126.74051,37.60948],[126.73715,37.60465],[126.74246,37.60225],[126.74456,37.60732],[126.743,37.60339],[126.74695,37.60241],[126.74774,37.60295],[126.74769,37.60319],[126.74817,37.60118],[126.74735,37.60018],[126.74824,37.60033],[126.74878,37.6],[126.74826,37.60031],[126.74711,37.59995],[126.74813,37.60106],[126.74775,37.60294],[126.74696,37.60239],[126.74299,37.60337],[126.74226,37.60153],[126.74628,37.60051],[126.74225,37.6015],[126.74008,37.59604],[126.74667,37.59437],[126.74177,37.59557],[126.7414,37.59469],[126.74169,37.59557],[126.73997,37.59599],[126.7424,37.60215],[126.73718,37.60445],[126.73329,37.59906],[126.73813,37.59561],[126.74386,37.59372],[126.74677,37.59183],[126.75,37.59195],[126.75,37.59167],[126.74684,37.59157],[126.7438,37.5935],[126.73859,37.59519],[126.73751,37.59574],[126.73649,37.59489],[126.7355,37.59447],[126.7247,37.59183],[126.72464,37.592],[126.73563,37.59468],[126.73739,37.59583],[126.73311,37.59892],[126.72451,37.59336],[126.72069,37.59146],[126.71595,37.59086],[126.71552,37.59063],[126.71496,37.58943],[126.71519,37.58772],[126.71641,37.58544],[126.71474,37.58273],[126.71533,37.58149],[126.71639,37.58014],[126.71681,37.57845],[126.71584,37.57712],[126.7145,37.57674],[126.71265,37.57531],[126.71093,37.57499],[126.70915,37.57404],[126.70872,37.57349],[126.70929,37.57421],[126.711,37.57507],[126.71274,37.57543],[126.71442,37.57682],[126.71566,37.57717],[126.71664,37.57843],[126.71638,37.57996],[126.71505,37.58169],[126.7147,37.58265],[126.71478,37.58311],[126.71636,37.58543],[126.71514,37.58773],[126.71492,37.58943],[126.71535,37.59061],[126.71513,37.59075],[126.70782,37.5903],[126.7062,37.59039],[126.70484,37.59078],[126.70396,37.59182],[126.70274,37.59266],[126.70401,37.59181],[126.70488,37.59078],[126.70625,37.59039],[126.7149,37.59074],[126.72021,37.59141],[126.72461,37.59356],[126.73288,37.59889],[126.73301,37.599],[126.73168,37.59998],[126.73141,37.60068],[126.73252,37.60487],[126.73299,37.60549],[126.73575,37.6074],[126.73602,37.60807],[126.73538,37.60903],[126.7306,37.61075],[126.73068,37.61088],[126.73544,37.60915],[126.73621,37.60811],[126.73591,37.60733],[126.73312,37.6054],[126.73268,37.60468],[126.73164,37.60063],[126.73199,37.59997],[126.73318,37.59913],[126.73335,37.59928],[126.73582,37.60289],[126.73325,37.60405],[126.73284,37.60474],[126.73326,37.60406],[126.73587,37.60298],[126.74029,37.60941],[126.74051,37.61784],[126.73907,37.61977],[126.73561,37.61967],[126.73528,37.61172],[126.7356,37.61967],[126.73884,37.61964],[126.73905,37.61979],[126.73891,37.61999],[126.73793,37.62072],[126.73714,37.62099],[126.73341,37.62104],[126.73063,37.62199],[126.73028,37.61601],[126.73045,37.6221],[126.72839,37.62296],[126.72761,37.62453],[126.72698,37.62512],[126.72639,37.62544],[126.7255,37.62553],[126.72302,37.62509],[126.7183,37.62496],[126.71675,37.62527],[126.71528,37.6259],[126.71415,37.62685],[126.71333,37.62839],[126.71173,37.63024],[126.71,37.63164],[126.70962,37.6326],[126.71003,37.63391],[126.70968,37.63591],[126.70807,37.64021],[126.70773,37.64074],[126.70744,37.64078],[126.7058,37.63903],[126.70353,37.63818],[126.6991,37.63709],[126.69835,37.6365],[126.69728,37.63488],[126.69632,37.63446],[126.6949,37.63422],[126.69273,37.63452],[126.6915,37.63443],[126.69007,37.63381],[126.68893,37.63293],[126.6885,37.63204],[126.68865,37.62743],[126.68833,37.62646],[126.68782,37.62586],[126.6854,37.62446],[126.68417,37.62255],[126.68963,37.61908],[126.68411,37.62246],[126.6795,37.62055],[126.67742,37.61934],[126.67998,37.61501],[126.68096,37.61399],[126.6824,37.61166],[126.68091,37.61399],[126.67996,37.61497],[126.67738,37.61924],[126.67599,37.61827],[126.67563,37.61744],[126.67494,37.61159],[126.6742,37.61066],[126.67022,37.60739],[126.67002,37.60694],[126.67044,37.60579],[126.67097,37.60517],[126.67242,37.60459],[126.67313,37.60402],[126.67684,37.60208],[126.67686,37.60098],[126.67712,37.60076],[126.67684,37.60084],[126.67669,37.59997],[126.67684,37.59874],[126.67646,37.59802],[126.67579,37.59762],[126.67632,37.59799],[126.67677,37.59874],[126.67674,37.60215],[126.6732,37.60393],[126.67233,37.6046],[126.67094,37.60515],[126.67037,37.60584],[126.66993,37.60701],[126.66861,37.60673],[126.66993,37.60707],[126.67419,37.61069],[126.67497,37.61186],[126.67571,37.61801],[126.67241,37.61834],[126.67574,37.6181],[126.67785,37.61973],[126.67539,37.62039],[126.67425,37.62114],[126.67207,37.62212],[126.67165,37.62258],[126.67153,37.62343],[126.67047,37.62454],[126.67035,37.62572],[126.66935,37.62802],[126.66931,37.62864],[126.66983,37.63038],[126.66837,37.63161],[126.66761,37.63326],[126.66588,37.63373],[126.6635,37.6353],[126.66171,37.6354],[126.66099,37.6357],[126.65886,37.63566],[126.65764,37.63528],[126.65664,37.63453],[126.65615,37.63364],[126.65661,37.63453],[126.65722,37.63481],[126.65761,37.63528],[126.65883,37.63568],[126.66107,37.63572],[126.66168,37.63546],[126.66361,37.63531],[126.66606,37.6337],[126.6676,37.63335],[126.66801,37.63288],[126.66843,37.63164],[126.66992,37.63034],[126.66936,37.62837],[126.67046,37.62558],[126.67063,37.62437],[126.67162,37.62339],[126.67211,37.62409],[126.67098,37.62885],[126.67213,37.62415],[126.67162,37.62336],[126.67171,37.62257],[126.67207,37.62216],[126.67419,37.62123],[126.67541,37.62042],[126.67794,37.61976],[126.67939,37.62059],[126.68388,37.62246],[126.68527,37.62452],[126.68762,37.62589],[126.68808,37.6264],[126.68841,37.62734],[126.68827,37.63189],[126.68879,37.63303],[126.68985,37.63392],[126.69208,37.63467],[126.69462,37.63443],[126.69598,37.63457],[126.69645,37.63484],[126.69461,37.6364],[126.69676,37.63491],[126.69867,37.63718],[126.70396,37.63862],[126.70613,37.63958],[126.70728,37.6414],[126.70665,37.64334],[126.70506,37.64523],[126.70462,37.64544],[126.70447,37.64487],[126.70465,37.64553],[126.70247,37.64676],[126.70219,37.64719],[126.70145,37.64708],[126.7006,37.64632],[126.70009,37.6435],[126.70022,37.64536],[126.70056,37.64631],[126.70138,37.64706],[126.70231,37.6473]],[[126.70796,37.64081],[126.70993,37.63569],[126.71022,37.63396],[126.70983,37.63293],[126.70988,37.63223],[126.71071,37.63108],[126.71169,37.63042],[126.71386,37.62807],[126.714,37.62828],[126.71063,37.63395],[126.71064,37.63668],[126.70972,37.6421],[126.70757,37.64226],[126.70796,37.64081]],[[126.71598,37.62571],[126.71683,37.62535],[126.71858,37.62514],[126.72274,37.6252],[126.72555,37.6256],[126.72688,37.62526],[126.72779,37.6263],[126.72753,37.62806],[126.72672,37.62896],[126.72483,37.62954],[126.72321,37.62906],[126.72144,37.62939],[126.71974,37.62841],[126.71762,37.62782],[126.71523,37.62772],[126.71405,37.62807],[126.7138,37.62785],[126.71429,37.62691],[126.71598,37.62571]],[[126.7277,37.62598],[126.73226,37.62348],[126.73332,37.62448],[126.73324,37.6254],[126.73374,37.62628],[126.73351,37.6271],[126.73269,37.62826],[126.73076,37.62961],[126.73025,37.6304],[126.72953,37.63085],[126.72895,37.63087],[126.72737,37.62857],[126.72787,37.62653],[126.7277,37.62598]],[[126.739,37.62054],[126.739,37.62054],[126.73901,37.62054],[126.73903,37.62056],[126.73903,37.62057],[126.73903,37.62059],[126.73903,37.62061],[126.73902,37.62061],[126.73902,37.62062],[126.73902,37.62062],[126.73901,37.62062],[126.73901,37.62062],[126.73901,37.62063],[126.73901,37.62063],[126.73898,37.62066],[126.73896,37.62067],[126.73892,37.62068],[126.73892,37.62068],[126.73892,37.62068],[126.73891,37.62066],[126.73892,37.62063],[126.73893,37.62063],[126.73894,37.62061],[126.73895,37.62059],[126.73896,37.62058],[126.73897,37.62057],[126.73898,37.62056],[126.73899,37.62054],[126.739,37.62054]],[[126.70698,37.59036],[126.707,37.59036],[126.70701,37.59036],[126.70703,37.59036],[126.70703,37.59036],[126.70704,37.59036],[126.70703,37.59036],[126.70703,37.59037],[126.707,37.59038],[126.70697,37.59038],[126.70695,37.59038],[126.70691,37.59038],[126.70686,37.59038],[126.70685,37.59038],[126.70685,37.59038],[126.70684,37.59037],[126.70684,37.59035],[126.70684,37.59035],[126.70684,37.59034],[126.70685,37.59033],[126.70686,37.59033],[126.70687,37.59033],[126.7069,37.59033],[126.70693,37.59033],[126.70697,37.59033],[126.70698,37.59034],[126.70698,37.59034],[126.70698,37.59036]],[[126.7068,37.59035],[126.70681,37.59035],[126.70682,37.59035],[126.70683,37.59035],[126.70683,37.59036],[126.70684,37.59037],[126.70684,37.59038],[126.70683,37.59039],[126.70682,37.59039],[126.70681,37.59039],[126.70679,37.59039],[126.70678,37.59039],[126.70675,37.59039],[126.7066,37.5904],[126.70657,37.5904],[126.70656,37.5904],[126.70656,37.5904],[126.70655,37.59039],[126.70655,37.59039],[126.70656,37.59038],[126.70656,37.59038],[126.70657,37.59037],[126.70658,37.59037],[126.70659,37.59038],[126.7066,37.59038],[126.70662,37.59038],[126.70665,37.59038],[126.70668,37.59038],[126.70672,37.59038],[126.70675,37.59037],[126.70677,37.59037],[126.70677,37.59037],[126.70678,37.59036],[126.70678,37.59035],[126.70678,37.59035],[126.70678,37.59035],[126.70679,37.59035],[126.7068,37.59035]],[[126.70657,37.59035],[126.70658,37.59035],[126.70659,37.59035],[126.7066,37.59035],[126.70662,37.59035],[126.70665,37.59035],[126.70669,37.59035],[126.70675,37.59035],[126.70676,37.59035],[126.70676,37.59035],[126.70676,37.59036],[126.70676,37.59036],[126.70675,37.59036],[126.70665,37.59038],[126.70662,37.59037],[126.7066,37.59037],[126.70659,37.59036],[126.70657,37.59036],[126.70656,37.59037],[126.70655,37.59037],[126.70653,37.59039],[126.70653,37.5904],[126.70652,37.5904],[126.7065,37.5904],[126.70649,37.5904],[126.70649,37.5904],[126.70649,37.5904],[126.70649,37.59039],[126.70649,37.59039],[126.7065,37.59039],[126.70651,37.59039],[126.70654,37.59036],[126.70656,37.59035],[126.70657,37.59035],[126.70657,37.59035]],[[126.7389,37.62084],[126.73889,37.62084],[126.73888,37.62084],[126.73887,37.62084],[126.73887,37.62083],[126.73887,37.62083],[126.73887,37.62082],[126.73887,37.62081],[126.73888,37.62081],[126.73888,37.62081],[126.73889,37.62081],[126.7389,37.62081],[126.73891,37.62081],[126.73891,37.62082],[126.73892,37.62082],[126.73892,37.62082],[126.73892,37.62083],[126.73892,37.62083],[126.73891,37.62083],[126.7389,37.62084],[126.7389,37.62084]],[[126.73922,37.62165],[126.73922,37.62167],[126.7392,37.62167],[126.7392,37.62165],[126.73922,37.62165]],[[126.74055,37.62367],[126.74367,37.62718],[126.74347,37.62736],[126.74024,37.6238],[126.74055,37.62367]]]}}]}