{"type":"FeatureCollection","features":[{"type":"Feature","id":"TN_RIVER_BT:WTR020000000030YJ","properties":{"NF_ID":"WTR020000000030YJ","source_layer":"TN_RIVER_BT","semantic":"channel","river_class":"소하천","river_class_source":"중심선 공간조인","survey_method":"사진측량","admin_code":"41150"},"geometry":{"type":"Polygon","coordinates":[[[127.05693,37.68952],[127.05609,37.68925],[127.05508,37.68924],[127.0518,37.68735],[127.05502,37.6893],[127.05693,37.68952]]]}},{"type":"Feature","id":"TN_RIVER_BT:WTR0200000000314Q","properties":{"NF_ID":"WTR0200000000314Q","source_layer":"TN_RIVER_BT","semantic":"channel","river_class":"소하천","river_class_source":"중심선 공간조인","survey_method":"사진측량","admin_code":"41150"},"geometry":{"type":"Polygon","coordinates":[[[127.0503,37.69634],[127.05047,37.69633],[127.05067,37.69634],[127.05088,37.69634],[127.05106,37.69634],[127.05126,37.69634],[127.05144,37.69635],[127.05163,37.69635],[127.05184,37.69635],[127.05206,37.69636],[127.05206,37.69634],[127.0519,37.69634],[127.05166,37.69633],[127.05143,37.69632],[127.05121,37.69632],[127.05103,37.69631],[127.05085,37.69631],[127.05068,37.6963],[127.05051,37.6963],[127.05039,37.6963],[127.05009,37.69632],[127.05,37.69639],[127.04998,37.69641],[127.05,37.69643],[127.05001,37.69643],[127.05001,37.69642],[127.05004,37.6964],[127.05007,37.69638],[127.05013,37.69635],[127.0503,37.69634]]]}},{"type":"Feature","id":"TN_RIVER_BT:WTR0200000000318U","properties":{"NF_ID":"WTR0200000000318U","source_layer":"TN_RIVER_BT","semantic":"channel","river_class":"소하천","river_class_source":"중심선 공간조인","survey_method":"사진측량","admin_code":"41150"},"geometry":{"type":"Polygon","coordinates":[[[127.06895,37.70151],[127.07077,37.70112],[127.0687,37.7015],[127.06774,37.70146],[127.06531,37.70055],[127.06347,37.69957],[127.06227,37.69945],[127.05996,37.69991],[127.05876,37.69937],[127.0573,37.69934],[127.05504,37.70037],[127.05732,37.69939],[127.05886,37.69945],[127.06002,37.7],[127.06106,37.69965],[127.06337,37.69958],[127.0675,37.70143],[127.06895,37.70151]]]}},{"type":"Feature","id":"TN_RIVER_BT:WTR020000000031G2","properties":{"NF_ID":"WTR020000000031G2","source_layer":"TN_RIVER_BT","semantic":"channel","river_class":"소하천","river_class_source":"중심선 공간조인","survey_method":"사진측량","admin_code":"41150"},"geometry":{"type":"Polygon","coordinates":[[[127.06206,37.70771],[127.06269,37.70743],[127.06166,37.70768],[127.06045,37.70747],[127.05896,37.7068],[127.05798,37.70677],[127.05887,37.70685],[127.06053,37.70762],[127.06206,37.70771]]]}},{"type":"Feature","id":"TN_RIVER_BT:WTR020000000031YK","properties":{"NF_ID":"WTR020000000031YK","source_layer":"TN_RIVER_BT","semantic":"channel","river_class":"소하천","river_class_source":"중심선 공간조인","survey_method":"사진측량","admin_code":"41150"},"geometry":{"type":"Polygon","coordinates":[[[127.04627,37.71491],[127.04628,37.71483],[127.04624,37.71484],[127.04618,37.71491],[127.04618,37.71493],[127.04614,37.71556],[127.04615,37.71566],[127.04612,37.71623],[127.04611,37.71664],[127.0461,37.71705],[127.04609,37.71724],[127.04607,37.7173],[127.04605,37.71732],[127.04608,37.71738],[127.04615,37.71732],[127.04618,37.71727],[127.04619,37.71725],[127.04619,37.71723],[127.04618,37.71683],[127.04618,37.71649],[127.04619,37.7163],[127.04619,37.71618],[127.04622,37.71574],[127.04623,37.71554],[127.04625,37.71512],[127.04627,37.71491]]]}},{"type":"Feature","id":"TN_RIVER_BT:WTR020000000031ZL","properties":{"NF_ID":"WTR020000000031ZL","source_layer":"TN_RIVER_BT","semantic":"channel","river_class":"소하천","river_class_source":"중심선 공간조인","survey_method":"사진측량","admin_code":"41150"},"geometry":{"type":"Polygon","coordinates":[[[127.04058,37.7199],[127.04076,37.7188],[127.04055,37.7199],[127.04011,37.71968],[127.04058,37.7199]]]}},{"type":"Feature","id":"TN_RIVER_BT:WTR0200000000321O","properties":{"NF_ID":"WTR0200000000321O","source_layer":"TN_RIVER_BT","semantic":"channel","river_class":"소하천","river_class_source":"중심선 공간조인","survey_method":"사진측량","admin_code":"41150"},"geometry":{"type":"Polygon","coordinates":[[[127.05628,37.7239],[127.05796,37.72339],[127.05825,37.72264],[127.05944,37.72159],[127.06203,37.72057],[127.06306,37.71986],[127.06317,37.71942],[127.06415,37.71919],[127.06785,37.72018],[127.06842,37.71953],[127.06954,37.71728],[127.06786,37.72009],[127.06734,37.72012],[127.06571,37.71942],[127.06528,37.71949],[127.06422,37.71912],[127.06311,37.71935],[127.06298,37.71979],[127.062,37.72044],[127.05951,37.72148],[127.05815,37.72262],[127.05801,37.72327],[127.05514,37.72414],[127.05628,37.7239]],[[127.058,37.7233],[127.05801,37.7233],[127.05801,37.7233],[127.05802,37.7233],[127.05802,37.72331],[127.05802,37.72332],[127.058,37.72334],[127.05796,37.72336],[127.05794,37.72338],[127.0579,37.72339],[127.05787,37.72341],[127.05786,37.72341],[127.05785,37.7234],[127.05785,37.72339],[127.05785,37.72339],[127.05786,37.72338],[127.05786,37.72338],[127.05789,37.72336],[127.05794,37.72333],[127.058,37.7233]]]}},{"type":"Feature","id":"TN_RIVER_BT:WTR0200000000322P","properties":{"NF_ID":"WTR0200000000322P","source_layer":"TN_RIVER_BT","semantic":"channel","river_class":"지방하천","river_class_source":"중심선 공간조인","river_name":"회룡천","river_code":"1025160","survey_method":"사진측량","admin_code":"41150"},"geometry":{"type":"Polygon","coordinates":[[[127.04142,37.72406],[127.0411,37.72387],[127.04029,37.72414],[127.03872,37.72273],[127.03743,37.72327],[127.03657,37.723],[127.03548,37.72308],[127.03421,37.72271],[127.03377,37.72278],[127.03313,37.72228],[127.03105,37.72182],[127.03075,37.72065],[127.03008,37.71981],[127.02642,37.7197],[127.02392,37.71861],[127.02262,37.71754],[127.02284,37.71618],[127.02234,37.71583],[127.02231,37.71537],[127.02148,37.71449],[127.02176,37.71326],[127.02138,37.71464],[127.0222,37.71549],[127.02225,37.7159],[127.02274,37.71622],[127.02248,37.71783],[127.02139,37.71738],[127.02091,37.71693],[127.01762,37.71553],[127.02083,37.71698],[127.02139,37.71745],[127.02284,37.71799],[127.02629,37.7199],[127.02681,37.71968],[127.02865,37.71993],[127.03002,37.71984],[127.03066,37.72061],[127.03095,37.72183],[127.0331,37.72234],[127.03363,37.72287],[127.03424,37.72281],[127.03547,37.72319],[127.03655,37.72305],[127.03734,37.72333],[127.03875,37.72279],[127.03941,37.72366],[127.04041,37.72427],[127.04116,37.72403],[127.04279,37.72459],[127.04325,37.72515],[127.0429,37.72451],[127.04142,37.72406]],[[127.02637,37.71974],[127.0264,37.71975],[127.02644,37.71975],[127.02646,37.71974],[127.02647,37.71974],[127.02648,37.71974],[127.02649,37.71975],[127.02649,37.71976],[127.02649,37.71977],[127.02642,37.71984],[127.0264,37.71986],[127.02638,37.71986],[127.02636,37.71987],[127.02634,37.71987],[127.02631,37.71986],[127.02629,37.71985],[127.02617,37.71977],[127.02609,37.71969],[127.02607,37.71965],[127.02606,37.71964],[127.02606,37.71963],[127.02607,37.71962],[127.02609,37.71963],[127.02616,37.71965],[127.0263,37.7197],[127.02637,37.71974]]]}},{"type":"Feature","id":"TN_RIVER_BT:WTR0200000000324R","properties":{"NF_ID":"WTR0200000000324R","source_layer":"TN_RIVER_BT","semantic":"channel","river_class":"소하천","river_class_source":"중심선 공간조인","survey_method":"사진측량","admin_code":"41150"},"geometry":{"type":"Polygon","coordinates":[[[127.03538,37.72785],[127.03361,37.72765],[127.03272,37.7273],[127.03187,37.72755],[127.03061,37.72666],[127.02826,37.72667],[127.03033,37.72666],[127.03177,37.72759],[127.03273,37.72732],[127.0336,37.72772],[127.03538,37.72785]]]}},{"type":"Feature","id":"TN_RIVER_BT:WTR0200000000325S","properties":{"NF_ID":"WTR0200000000325S","source_layer":"TN_RIVER_BT","semantic":"channel","river_class":"소하천","river_class_source":"중심선 공간조인","survey_method":"사진측량","admin_code":"41150"},"geometry":{"type":"Polygon","coordinates":[[[127.08315,37.72792],[127.08315,37.72787],[127.08312,37.72788],[127.08314,37.72795],[127.08344,37.72841],[127.08347,37.72837],[127.08341,37.72832],[127.0833,37.72816],[127.08315,37.72792]]]}},{"type":"Feature","id":"TN_RIVER_BT:WTR0200000000326T","properties":{"NF_ID":"WTR0200000000326T","source_layer":"TN_RIVER_BT","semantic":"channel","river_class":"소하천","river_class_source":"중심선 공간조인","survey_method":"사진측량","admin_code":"41150"},"geometry":{"type":"Polygon","coordinates":[[[127.11503,37.72857],[127.11495,37.72854],[127.11482,37.72855],[127.11484,37.72865],[127.11495,37.72864],[127.11503,37.7286],[127.11503,37.72857]]]}},{"type":"Feature","id":"TN_RIVER_BT:WTR0200000000327U","properties":{"NF_ID":"WTR0200000000327U","source_layer":"TN_RIVER_BT","semantic":"channel","river_class":"소하천","river_class_source":"중심선 공간조인","survey_method":"사진측량","admin_code":"41150"},"geometry":{"type":"Polygon","coordinates":[[[127.06641,37.72871],[127.06674,37.72816],[127.06793,37.72805],[127.0685,37.7276],[127.06965,37.72783],[127.06848,37.7275],[127.06857,37.7271],[127.06791,37.728],[127.06673,37.72812],[127.06643,37.72866],[127.06444,37.72844],[127.06641,37.72871]]]}},{"type":"Feature","id":"TN_RIVER_BT:WTR0200000000328V","properties":{"NF_ID":"WTR0200000000328V","source_layer":"TN_RIVER_BT","semantic":"channel","river_class":"소하천","river_class_source":"중심선 공간조인","survey_method":"사진측량","admin_code":"41150"},"geometry":{"type":"Polygon","coordinates":[[[127.08314,37.729],[127.08357,37.72893],[127.08195,37.72875],[127.08023,37.72747],[127.07938,37.72586],[127.07938,37.72515],[127.07902,37.72471],[127.07825,37.7246],[127.07777,37.7241],[127.07695,37.72248],[127.07816,37.72462],[127.07896,37.72475],[127.07935,37.72517],[127.07934,37.72587],[127.08021,37.7275],[127.08193,37.72879],[127.08314,37.729]]]}},{"type":"Feature","id":"TN_RIVER_BT:WTR0200000000329W","properties":{"NF_ID":"WTR0200000000329W","source_layer":"TN_RIVER_BT","semantic":"channel","river_class":"소하천","river_class_source":"중심선 공간조인","survey_method":"사진측량","admin_code":"41150"},"geometry":{"type":"Polygon","coordinates":[[[127.08213,37.72945],[127.08401,37.72996],[127.08424,37.73065],[127.08402,37.72993],[127.08213,37.72945]]]}},{"type":"Feature","id":"TN_RIVER_BT:WTR020000000032AX","properties":{"NF_ID":"WTR020000000032AX","source_layer":"TN_RIVER_BT","semantic":"channel","river_class":"소하천","river_class_source":"중심선 공간조인","survey_method":"사진측량","admin_code":"41150"},"geometry":{"type":"Polygon","coordinates":[[[127.09314,37.73052],[127.09415,37.73022],[127.09305,37.73049],[127.0934,37.73132],[127.09314,37.73052]]]}},{"type":"Feature","id":"TN_RIVER_BT:WTR020000000032BY","properties":{"NF_ID":"WTR020000000032BY","source_layer":"TN_RIVER_BT","semantic":"channel","river_class":"소하천","river_class_source":"중심선 공간조인","survey_method":"사진측량","admin_code":"41150"},"geometry":{"type":"Polygon","coordinates":[[[127.08182,37.73092],[127.08181,37.7309],[127.08178,37.73091],[127.08182,37.73099],[127.08184,37.73103],[127.08187,37.73108],[127.08192,37.73114],[127.08196,37.73117],[127.08203,37.7312],[127.08211,37.73123],[127.08221,37.73126],[127.08232,37.73128],[127.08238,37.73129],[127.08239,37.73127],[127.08218,37.73123],[127.08207,37.73119],[127.082,37.73116],[127.08195,37.73114],[127.08191,37.73109],[127.08189,37.73107],[127.08187,37.73102],[127.08182,37.73092]]]}},{"type":"Feature","id":"TN_RIVER_BT:WTR020000000032E1","properties":{"NF_ID":"WTR020000000032E1","source_layer":"TN_RIVER_BT","semantic":"channel","river_class":"소하천","river_class_source":"중심선 공간조인","survey_method":"사진측량","admin_code":"41150"},"geometry":{"type":"Polygon","coordinates":[[[127.07071,37.73524],[127.07053,37.73521],[127.07074,37.73542],[127.07071,37.73524]]]}},{"type":"Feature","id":"TN_RIVER_BT:WTR020000000032F2","properties":{"NF_ID":"WTR020000000032F2","source_layer":"TN_RIVER_BT","semantic":"channel","river_class":"소하천","river_class_source":"중심선 공간조인","survey_method":"사진측량","admin_code":"41150"},"geometry":{"type":"Polygon","coordinates":[[[127.06594,37.73607],[127.0661,37.73605],[127.06624,37.73603],[127.06643,37.73601],[127.06658,37.736],[127.06672,37.73599],[127.0668,37.73598],[127.06684,37.73598],[127.06687,37.73599],[127.06687,37.73598],[127.06685,37.73597],[127.06685,37.73597],[127.06685,37.73597],[127.06679,37.73597],[127.06663,37.73598],[127.06646,37.736],[127.06628,37.73601],[127.06611,37.73603],[127.06599,37.73605],[127.06594,37.73606],[127.06588,37.73606],[127.06582,37.73604],[127.0658,37.73605],[127.06579,37.73606],[127.0658,37.73607],[127.06582,37.73608],[127.06594,37.73607]]]}},{"type":"Feature","id":"TN_RIVER_BT:WTR020000000032WJ","properties":{"NF_ID":"WTR020000000032WJ","source_layer":"TN_RIVER_BT","semantic":"channel","river_class":"소하천","river_class_source":"중심선 공간조인","survey_method":"사진측량","admin_code":"41150"},"geometry":{"type":"Polygon","coordinates":[[[127.01153,37.74788],[127.01249,37.74863],[127.01327,37.74992],[127.01356,37.75],[127.0125,37.74848],[127.01153,37.74788]]]}},{"type":"Feature","id":"TN_RIVER_BT:WTR020000000032XK","properties":{"NF_ID":"WTR020000000032XK","source_layer":"TN_RIVER_BT","semantic":"channel","river_class":"지방하천","river_class_source":"중심선 공간조인","river_name":"백석천","river_code":"1025150","survey_method":"사진측량","admin_code":"41150"},"geometry":{"type":"MultiPolygon","coordinates":[[[[127.00435,37.74286],[127.00439,37.74289],[127.0044,37.74289],[127.0044,37.74289],[127.00442,37.74288],[127.00442,37.74287],[127.00442,37.74287],[127.00442,37.74285],[127.00442,37.74284],[127.00442,37.74283],[127.00441,37.74281],[127.0044,37.7428],[127.00437,37.74278],[127.00436,37.74277],[127.00434,37.74275],[127.00435,37.74286]]],[[[127.00237,37.74103],[127.00326,37.74262],[127.00431,37.74273],[127.00327,37.7425],[127.00237,37.74103]]],[[[127.00613,37.73672],[127.00495,37.7369],[127.00393,37.73776],[127.00261,37.74032],[127.00408,37.7377],[127.00502,37.73697],[127.00674,37.7367],[127.008,37.73677],[127.01026,37.73792],[127.01154,37.73653],[127.0128,37.73624],[127.01389,37.73637],[127.01439,37.73682],[127.01786,37.7383],[127.01968,37.73993],[127.02033,37.73982],[127.02145,37.739],[127.02211,37.73914],[127.02243,37.73959],[127.0228,37.74207],[127.02397,37.74275],[127.02604,37.74227],[127.02752,37.74281],[127.02952,37.74251],[127.03163,37.74267],[127.03172,37.74285],[127.03448,37.74251],[127.03529,37.7422],[127.03621,37.74131],[127.03644,37.73908],[127.03741,37.73721],[127.04229,37.73176],[127.04464,37.7305],[127.046,37.7302],[127.04695,37.73018],[127.04697,37.73033],[127.04778,37.73003],[127.04909,37.72873],[127.05019,37.7284],[127.0514,37.72751],[127.05156,37.72782],[127.05196,37.72744],[127.05249,37.72882],[127.0539,37.72987],[127.05403,37.73027],[127.05374,37.73278],[127.05402,37.73461],[127.05306,37.7374],[127.05375,37.73968],[127.05438,37.74363],[127.05347,37.74526],[127.04958,37.75],[127.05035,37.74945],[127.05057,37.74966],[127.05037,37.74943],[127.05447,37.744],[127.05863,37.74718],[127.06066,37.74838],[127.06668,37.75],[127.06752,37.75],[127.06051,37.74813],[127.05874,37.74702],[127.05496,37.744],[127.05455,37.74344],[127.05431,37.74052],[127.05346,37.73706],[127.05421,37.73487],[127.05412,37.73223],[127.05436,37.73031],[127.05232,37.72817],[127.05231,37.72622],[127.05262,37.72623],[127.05229,37.72618],[127.05158,37.72444],[127.05204,37.72409],[127.05138,37.72408],[127.04991,37.72257],[127.04925,37.7187],[127.04952,37.71779],[127.04986,37.71815],[127.04965,37.71767],[127.05038,37.71669],[127.05094,37.71518],[127.05104,37.7142],[127.05048,37.71213],[127.05048,37.71102],[127.05216,37.70555],[127.05271,37.70524],[127.05226,37.70528],[127.05228,37.70487],[127.05104,37.70307],[127.05128,37.70285],[127.05094,37.70296],[127.04929,37.70147],[127.04872,37.69988],[127.04866,37.69806],[127.04922,37.69351],[127.05031,37.69095],[127.05028,37.68923],[127.04992,37.68832],[127.05174,37.68583],[127.05104,37.68614],[127.04986,37.68801],[127.05009,37.69042],[127.04901,37.69258],[127.0485,37.69626],[127.0446,37.69664],[127.04245,37.69636],[127.04147,37.69603],[127.04072,37.69549],[127.03909,37.6951],[127.03879,37.69506],[127.03828,37.69564],[127.03906,37.69512],[127.04066,37.69551],[127.04197,37.69626],[127.04356,37.69663],[127.04842,37.69651],[127.04819,37.69848],[127.04837,37.70036],[127.04895,37.70145],[127.05109,37.70405],[127.0495,37.705],[127.04855,37.70628],[127.04783,37.70663],[127.04654,37.70669],[127.04536,37.70609],[127.04248,37.70693],[127.04138,37.70653],[127.03983,37.70675],[127.04119,37.70666],[127.04252,37.707],[127.04364,37.70655],[127.0446,37.70652],[127.04547,37.70619],[127.04636,37.70674],[127.04775,37.70675],[127.04865,37.70637],[127.04963,37.70505],[127.05116,37.70423],[127.05158,37.70485],[127.05184,37.70575],[127.05153,37.70712],[127.05107,37.70715],[127.05144,37.70724],[127.05045,37.70984],[127.05034,37.71008],[127.04989,37.71011],[127.05031,37.71013],[127.05005,37.71131],[127.0498,37.71131],[127.05005,37.71137],[127.05029,37.71264],[127.04995,37.71278],[127.05031,37.71271],[127.05069,37.71466],[127.05055,37.71516],[127.05018,37.71511],[127.05053,37.7152],[127.0499,37.71698],[127.04909,37.71791],[127.04866,37.71785],[127.04906,37.71797],[127.04906,37.72047],[127.04868,37.72053],[127.04907,37.72051],[127.04957,37.72221],[127.04914,37.72229],[127.04959,37.72225],[127.05027,37.7236],[127.0496,37.72416],[127.04707,37.72523],[127.04589,37.7255],[127.04391,37.72555],[127.0439,37.7257],[127.04698,37.7254],[127.05059,37.72391],[127.0515,37.7251],[127.05201,37.72658],[127.05187,37.7271],[127.05018,37.72832],[127.04898,37.72875],[127.04779,37.72992],[127.04446,37.73045],[127.04188,37.73195],[127.03697,37.73773],[127.03627,37.73934],[127.03621,37.7409],[127.03593,37.74148],[127.03499,37.74222],[127.03407,37.74249],[127.03245,37.74265],[127.02832,37.74254],[127.02851,37.74144],[127.02792,37.73972],[127.0284,37.73929],[127.02848,37.73873],[127.02607,37.73591],[127.0259,37.73493],[127.02466,37.73406],[127.0243,37.73269],[127.02366,37.73225],[127.02232,37.73228],[127.02056,37.73183],[127.02031,37.73108],[127.02093,37.73079],[127.02156,37.72996],[127.02054,37.72914],[127.01933,37.72909],[127.01775,37.72814],[127.01607,37.72801],[127.01574,37.72773],[127.01592,37.72803],[127.01779,37.7282],[127.019,37.72906],[127.02029,37.72914],[127.0207,37.72963],[127.02144,37.72997],[127.02084,37.73072],[127.0202,37.73107],[127.02035,37.73177],[127.01837,37.7315],[127.0149,37.73051],[127.01847,37.73162],[127.02003,37.73177],[127.02233,37.73235],[127.02359,37.7323],[127.02416,37.73267],[127.02465,37.73417],[127.02567,37.73486],[127.02607,37.73596],[127.02701,37.73694],[127.02724,37.73761],[127.02837,37.73866],[127.02843,37.73905],[127.02783,37.73965],[127.02786,37.74024],[127.02848,37.7415],[127.02811,37.74267],[127.02762,37.74274],[127.02608,37.74217],[127.02444,37.74256],[127.02355,37.74249],[127.02288,37.74202],[127.02248,37.73999],[127.02263,37.73961],[127.02208,37.73901],[127.02107,37.73875],[127.02087,37.73851],[127.02131,37.73895],[127.01972,37.73986],[127.01786,37.73819],[127.01449,37.73671],[127.01408,37.73629],[127.01333,37.73619],[127.01311,37.73473],[127.01265,37.73451],[127.01315,37.73362],[127.01256,37.73437],[127.01304,37.73486],[127.01317,37.73618],[127.0117,37.73634],[127.01032,37.73774],[127.00994,37.73772],[127.00826,37.73671],[127.00613,37.73672]],[[127.05282,37.72875],[127.05287,37.72877],[127.05293,37.72882],[127.05294,37.72886],[127.05296,37.72889],[127.05301,37.72894],[127.05311,37.72903],[127.05326,37.72916],[127.05331,37.72922],[127.05332,37.72926],[127.05331,37.72929],[127.05331,37.72931],[127.0533,37.72931],[127.05327,37.7293],[127.0532,37.72927],[127.05307,37.72921],[127.05301,37.72917],[127.05292,37.72908],[127.05287,37.72903],[127.05286,37.72902],[127.05282,37.72898],[127.0528,37.72895],[127.05279,37.72895],[127.05279,37.72894],[127.05277,37.72892],[127.05274,37.72889],[127.05272,37.72887],[127.05272,37.72883],[127.05273,37.72879],[127.05276,37.72877],[127.05279,37.72875],[127.05282,37.72875]],[[127.02797,37.74272],[127.02797,37.74272],[127.02796,37.74272],[127.02796,37.74272],[127.02796,37.74271],[127.02796,37.74271],[127.02797,37.7427],[127.02799,37.74269],[127.02801,37.74268],[127.02802,37.74268],[127.02802,37.74268],[127.02803,37.74268],[127.02803,37.74268],[127.02803,37.74268],[127.02803,37.74269],[127.02803,37.74269],[127.02803,37.7427],[127.02803,37.7427],[127.02801,37.74272],[127.02799,37.74272],[127.02798,37.74272],[127.02797,37.74272]],[[127.05182,37.70497],[127.05182,37.70495],[127.05182,37.7049],[127.05183,37.70488],[127.05183,37.70487],[127.05185,37.70487],[127.05185,37.70488],[127.05187,37.70489],[127.05189,37.70494],[127.05189,37.70497],[127.05189,37.70498],[127.05188,37.70499],[127.05187,37.705],[127.05185,37.705],[127.05184,37.70499],[127.05183,37.70499],[127.05182,37.70497]],[[127.05193,37.70486],[127.05193,37.70483],[127.05193,37.70481],[127.05193,37.7048],[127.05192,37.70478],[127.05192,37.70476],[127.05195,37.7047],[127.05195,37.70469],[127.05196,37.70468],[127.05199,37.70469],[127.05204,37.70478],[127.05205,37.70479],[127.05205,37.70481],[127.05205,37.70481],[127.05204,37.70486],[127.05205,37.70486],[127.05205,37.70487],[127.05206,37.70488],[127.05206,37.70489],[127.05206,37.7049],[127.05205,37.70491],[127.052,37.70493],[127.05199,37.70494],[127.05198,37.70494],[127.05197,37.70495],[127.05196,37.70496],[127.05195,37.70496],[127.05194,37.70496],[127.05192,37.70492],[127.05191,37.7049],[127.05192,37.70489],[127.05193,37.70488],[127.05193,37.70486]],[[127.0516,37.70468],[127.05159,37.70468],[127.05158,37.70468],[127.05157,37.70467],[127.05154,37.70465],[127.05152,37.70464],[127.05151,37.70463],[127.0515,37.70461],[127.05148,37.7046],[127.05146,37.70458],[127.05144,37.70456],[127.05142,37.70454],[127.05141,37.70453],[127.05141,37.70451],[127.05139,37.70447],[127.05139,37.70446],[127.05138,37.70444],[127.05136,37.70443],[127.05135,37.70442],[127.05134,37.7044],[127.05133,37.70438],[127.05132,37.70437],[127.05131,37.70435],[127.0513,37.70431],[127.05128,37.70426],[127.05128,37.70423],[127.05127,37.7042],[127.05126,37.70419],[127.05125,37.70417],[127.05125,37.70416],[127.05125,37.70415],[127.05125,37.70415],[127.05125,37.70415],[127.05126,37.70415],[127.05129,37.70415],[127.05131,37.70415],[127.05132,37.70415],[127.05134,37.70416],[127.05136,37.70417],[127.05137,37.70417],[127.05138,37.70418],[127.0514,37.70421],[127.05142,37.70422],[127.05145,37.70424],[127.05146,37.70425],[127.05147,37.70427],[127.05148,37.70428],[127.0515,37.70431],[127.05151,37.70432],[127.05153,37.70435],[127.05155,37.70437],[127.05157,37.70439],[127.05159,37.70441],[127.0516,37.70443],[127.05161,37.70444],[127.05161,37.70445],[127.05162,37.70446],[127.05162,37.70448],[127.05162,37.7045],[127.05162,37.70453],[127.05162,37.70456],[127.05162,37.70458],[127.05162,37.70461],[127.05162,37.70464],[127.0516,37.70468]],[[127.05178,37.70489],[127.0518,37.70493],[127.0518,37.70497],[127.05179,37.70498],[127.05178,37.70498],[127.05177,37.70498],[127.05176,37.70498],[127.05174,37.70498],[127.05173,37.70497],[127.05172,37.70496],[127.05172,37.70495],[127.05172,37.70489],[127.05173,37.70486],[127.05174,37.70485],[127.05174,37.70484],[127.05175,37.70485],[127.05176,37.70486],[127.05178,37.70489]],[[127.05077,37.70335],[127.05081,37.70336],[127.05085,37.7034],[127.05086,37.70341],[127.05087,37.70342],[127.05092,37.70344],[127.05093,37.70344],[127.05094,37.70345],[127.05093,37.70346],[127.05093,37.70348],[127.05092,37.7035],[127.05092,37.70353],[127.05091,37.70356],[127.05091,37.70357],[127.0509,37.70358],[127.0509,37.70358],[127.05089,37.70359],[127.05087,37.70358],[127.05086,37.70357],[127.05084,37.70356],[127.05082,37.70352],[127.05081,37.70349],[127.05081,37.70348],[127.05081,37.70347],[127.05081,37.70345],[127.0508,37.70344],[127.05077,37.7034],[127.05076,37.70338],[127.05076,37.70337],[127.05076,37.70336],[127.05077,37.70336],[127.05077,37.70335]],[[127.05069,37.70321],[127.05067,37.7032],[127.05066,37.70321],[127.05065,37.70321],[127.05064,37.70321],[127.05063,37.7032],[127.0506,37.70319],[127.05053,37.70314],[127.05048,37.70309],[127.05047,37.70307],[127.05046,37.70305],[127.05047,37.70304],[127.05048,37.70304],[127.05049,37.70304],[127.0505,37.70305],[127.05055,37.7031],[127.0506,37.70314],[127.05061,37.70314],[127.05062,37.70314],[127.05062,37.70314],[127.05063,37.70313],[127.05064,37.70312],[127.05068,37.70313],[127.05075,37.70315],[127.05077,37.70316],[127.05079,37.70317],[127.05081,37.70319],[127.05084,37.70322],[127.05084,37.70325],[127.05084,37.70326],[127.05084,37.70327],[127.05083,37.70328],[127.05082,37.70328],[127.0508,37.70328],[127.05077,37.70326],[127.05071,37.70322],[127.05069,37.70321]],[[127.05071,37.70311],[127.05067,37.7031],[127.05056,37.70298],[127.05055,37.70294],[127.05054,37.70292],[127.05056,37.70291],[127.05057,37.70291],[127.05067,37.70296],[127.05077,37.70304],[127.05078,37.70306],[127.0508,37.70309],[127.0508,37.70311],[127.0508,37.70312],[127.05078,37.70312],[127.05075,37.70312],[127.05071,37.70311]],[[127.04855,37.69864],[127.04861,37.69989],[127.04841,37.69936],[127.04855,37.69864]]]]}},{"type":"Feature","id":"TN_RIVER_BT:WTR020000000032YL","properties":{"NF_ID":"WTR020000000032YL","source_layer":"TN_RIVER_BT","semantic":"channel","river_class":"지방하천","river_class_source":"중심선 공간조인","river_name":"부용천","river_code":"1025130","survey_method":"사진측량","admin_code":"41150"},"geometry":{"type":"Polygon","coordinates":[[[127.08582,37.74562],[127.08658,37.74553],[127.08892,37.74603],[127.08993,37.74591],[127.08993,37.74614],[127.08996,37.74591],[127.0907,37.74596],[127.09344,37.74665],[127.09085,37.74594],[127.08904,37.74594],[127.08652,37.74542],[127.08536,37.74565],[127.08494,37.74531],[127.08638,37.74137],[127.08802,37.73967],[127.08858,37.73775],[127.08828,37.73603],[127.08957,37.73257],[127.09127,37.73036],[127.09508,37.72816],[127.10107,37.72822],[127.10403,37.72791],[127.10514,37.72818],[127.10643,37.72959],[127.10932,37.73111],[127.10979,37.73246],[127.11028,37.73302],[127.10992,37.73464],[127.11075,37.73524],[127.11148,37.73686],[127.11315,37.73868],[127.11408,37.74045],[127.11788,37.74574],[127.11409,37.74033],[127.11327,37.73876],[127.11149,37.73672],[127.11089,37.73525],[127.11003,37.73458],[127.11044,37.73296],[127.10994,37.73235],[127.10957,37.73112],[127.10636,37.72942],[127.10509,37.72796],[127.102,37.72783],[127.10267,37.72527],[127.10352,37.72486],[127.10443,37.72331],[127.10443,37.72228],[127.10325,37.71957],[127.1037,37.71863],[127.10463,37.71849],[127.10443,37.71779],[127.10407,37.71762],[127.10422,37.71708],[127.10474,37.71705],[127.10417,37.71707],[127.10401,37.71762],[127.10441,37.71782],[127.10453,37.71854],[127.10371,37.71858],[127.10319,37.71765],[127.10303,37.7172],[127.10343,37.71579],[127.10327,37.71484],[127.1027,37.71369],[127.10184,37.71282],[127.10198,37.71132],[127.1016,37.71089],[127.10146,37.70999],[127.10089,37.70967],[127.10078,37.70839],[127.10034,37.70802],[127.10067,37.70845],[127.10079,37.70967],[127.10135,37.70994],[127.10158,37.71035],[127.10156,37.71088],[127.1019,37.71135],[127.10176,37.71272],[127.1031,37.7146],[127.10323,37.71564],[127.09981,37.71373],[127.09762,37.71322],[127.0967,37.71341],[127.09546,37.71429],[127.0948,37.7143],[127.09372,37.71355],[127.09402,37.71275],[127.09358,37.7119],[127.09431,37.71099],[127.09339,37.71216],[127.09243,37.71228],[127.09131,37.71207],[127.09367,37.71232],[127.09391,37.71282],[127.09363,37.7137],[127.09482,37.71434],[127.09562,37.71432],[127.09686,37.71348],[127.09792,37.71338],[127.09962,37.7137],[127.10132,37.71449],[127.10322,37.71586],[127.10294,37.71717],[127.10359,37.71843],[127.10306,37.71988],[127.10419,37.72215],[127.10432,37.72305],[127.10352,37.72468],[127.10258,37.72526],[127.10194,37.72748],[127.1015,37.72798],[127.09811,37.72821],[127.09619,37.72796],[127.09551,37.72565],[127.09898,37.72281],[127.09547,37.72566],[127.09601,37.72793],[127.09443,37.72822],[127.09113,37.73024],[127.08996,37.72882],[127.09105,37.73026],[127.09045,37.73115],[127.09006,37.73083],[127.08791,37.7302],[127.08769,37.72907],[127.08634,37.72746],[127.08524,37.72563],[127.08494,37.72459],[127.08435,37.72406],[127.08401,37.72332],[127.08468,37.72234],[127.08623,37.72142],[127.08594,37.72025],[127.08483,37.71931],[127.08338,37.7174],[127.08271,37.71716],[127.08215,37.71663],[127.08175,37.71665],[127.08335,37.71741],[127.08477,37.71932],[127.08585,37.72025],[127.08619,37.72137],[127.08468,37.72228],[127.08392,37.72334],[127.08487,37.72463],[127.08511,37.72559],[127.08637,37.72792],[127.08763,37.72917],[127.08777,37.73018],[127.09002,37.73088],[127.09033,37.73133],[127.08941,37.73259],[127.08823,37.73581],[127.08849,37.73773],[127.08792,37.73967],[127.08625,37.7414],[127.08474,37.7451],[127.08361,37.75],[127.08401,37.74934],[127.08463,37.74631],[127.08495,37.74586],[127.08582,37.74562]]]}},{"type":"Feature","id":"TN_RIVER_BT:WTR020000000032ZM","properties":{"NF_ID":"WTR020000000032ZM","source_layer":"TN_RIVER_BT","semantic":"channel","river_class":"지방하천","river_class_source":"중심선 공간조인","river_name":"민락천","river_code":"1025140","survey_method":"사진측량","admin_code":"41150"},"geometry":{"type":"Polygon","coordinates":[[[127.10497,37.74657],[127.10387,37.74665],[127.10252,37.74725],[127.0971,37.74776],[127.0946,37.74731],[127.09714,37.7478],[127.10119,37.74733],[127.10228,37.74738],[127.10389,37.74667],[127.10497,37.74658],[127.10537,37.74693],[127.10533,37.74775],[127.10654,37.74965],[127.10745,37.75],[127.10661,37.74967],[127.10536,37.74775],[127.10539,37.74694],[127.10497,37.74657]]]}},{"type":"Feature","id":"TN_RIVER_BT:WTR02000000003C52","properties":{"NF_ID":"WTR02000000003C52","source_layer":"TN_RIVER_BT","semantic":"channel","river_class":"소하천","river_class_source":"중심선 공간조인","survey_method":"사진측량","admin_code":"41150"},"geometry":{"type":"Polygon","coordinates":[[[127.05204,37.75413],[127.05198,37.75397],[127.05194,37.75398],[127.05195,37.754],[127.05199,37.75408],[127.05201,37.75418],[127.05202,37.7542],[127.05202,37.7542],[127.05203,37.7542],[127.05203,37.7542],[127.05204,37.75417],[127.05204,37.75413]]]}},{"type":"Feature","id":"TN_RIVER_BT:WTR02000000003C74","properties":{"NF_ID":"WTR02000000003C74","source_layer":"TN_RIVER_BT","semantic":"channel","river_class":"소하천","river_class_source":"중심선 공간조인","survey_method":"사진측량","admin_code":"41150"},"geometry":{"type":"Polygon","coordinates":[[[127.00939,37.7552],[127.00998,37.75521],[127.01191,37.75454],[127.01408,37.75481],[127.01456,37.75456],[127.01512,37.75459],[127.01557,37.75484],[127.01513,37.75503],[127.01581,37.75478],[127.0168,37.75476],[127.01702,37.75426],[127.01802,37.75385],[127.01837,37.75283],[127.02067,37.75215],[127.02191,37.75211],[127.02271,37.75165],[127.02191,37.75206],[127.02053,37.75213],[127.01928,37.75265],[127.01712,37.75277],[127.01529,37.75185],[127.01408,37.75033],[127.01335,37.75],[127.01396,37.75028],[127.01518,37.75188],[127.0159,37.75231],[127.01711,37.7528],[127.01822,37.75275],[127.0179,37.75384],[127.017,37.75415],[127.01672,37.75474],[127.01562,37.75476],[127.01471,37.75451],[127.01402,37.75477],[127.01186,37.7545],[127.00939,37.7552]]]}},{"type":"Feature","id":"TN_RIVER_BT:WTR02000000003CEB","properties":{"NF_ID":"WTR02000000003CEB","source_layer":"TN_RIVER_BT","semantic":"channel","river_class":"소하천","river_class_source":"중심선 공간조인","survey_method":"사진측량","admin_code":"41150"},"geometry":{"type":"Polygon","coordinates":[[[127.08931,37.75568],[127.09037,37.75584],[127.09064,37.75567],[127.08914,37.75571],[127.08871,37.75752],[127.08685,37.75886],[127.08877,37.75756],[127.08931,37.75568]]]}},{"type":"Feature","id":"TN_RIVER_BT:WTR02000000003CFC","properties":{"NF_ID":"WTR02000000003CFC","source_layer":"TN_RIVER_BT","semantic":"channel","river_class":"소하천","river_class_source":"중심선 공간조인","survey_method":"사진측량","admin_code":"41150"},"geometry":{"type":"Polygon","coordinates":[[[127.01958,37.75938],[127.01963,37.75937],[127.01976,37.75936],[127.01976,37.75935],[127.0195,37.75938],[127.01943,37.75938],[127.01942,37.75938],[127.0194,37.75937],[127.01939,37.75937],[127.01938,37.75936],[127.01937,37.75936],[127.01936,37.75937],[127.01935,37.75937],[127.01938,37.75939],[127.0194,37.75939],[127.01943,37.7594],[127.01945,37.7594],[127.01948,37.7594],[127.01958,37.75938]]]}},{"type":"Feature","id":"TN_RIVER_BT:WTR02000000003CGD","properties":{"NF_ID":"WTR02000000003CGD","source_layer":"TN_RIVER_BT","semantic":"channel","river_class":"소하천","river_class_source":"중심선 공간조인","survey_method":"사진측량","admin_code":"41150"},"geometry":{"type":"Polygon","coordinates":[[[127.12917,37.75998],[127.12923,37.75994],[127.1292,37.75992],[127.12915,37.75995],[127.12913,37.75996],[127.1291,37.75996],[127.12905,37.75995],[127.12903,37.75995],[127.129,37.75995],[127.12897,37.75996],[127.12895,37.75996],[127.12893,37.75996],[127.12891,37.75995],[127.1288,37.7599],[127.12877,37.75993],[127.12886,37.75998],[127.12893,37.76001],[127.12896,37.76001],[127.12898,37.76001],[127.12902,37.76001],[127.12909,37.76],[127.12912,37.76],[127.12917,37.75998]]]}},{"type":"Feature","id":"TN_RIVER_BT:WTR02000000003CHE","properties":{"NF_ID":"WTR02000000003CHE","source_layer":"TN_RIVER_BT","semantic":"channel","river_class":"소하천","river_class_source":"중심선 공간조인","survey_method":"사진측량","admin_code":"41150"},"geometry":{"type":"Polygon","coordinates":[[[127.07546,37.75941],[127.07555,37.76146],[127.07531,37.76225],[127.0756,37.76156],[127.07546,37.75941]]]}},{"type":"Feature","id":"TN_RIVER_BT:WTR02000000003CKH","properties":{"NF_ID":"WTR02000000003CKH","source_layer":"TN_RIVER_BT","semantic":"channel","river_class":"소하천","river_class_source":"중심선 공간조인","survey_method":"사진측량","admin_code":"41150"},"geometry":{"type":"Polygon","coordinates":[[[127.02685,37.76052],[127.02763,37.76079],[127.02723,37.76049],[127.02575,37.76076],[127.02527,37.76149],[127.02366,37.76268],[127.02313,37.76359],[127.02196,37.76412],[127.02312,37.76365],[127.0237,37.7627],[127.02531,37.76149],[127.02578,37.76077],[127.02685,37.76052]]]}},{"type":"Feature","id":"TN_RIVER_BT:WTR02000000003CRO","properties":{"NF_ID":"WTR02000000003CRO","source_layer":"TN_RIVER_BT","semantic":"channel","river_class":"지방하천","river_class_source":"중심선 공간조인","river_name":"부용천","river_code":"1025130","survey_method":"사진측량","admin_code":"41150"},"geometry":{"type":"Polygon","coordinates":[[[127.08954,37.76326],[127.09148,37.76448],[127.09295,37.76495],[127.09816,37.76803],[127.09639,37.76682],[127.09553,37.76657],[127.09507,37.76604],[127.09293,37.76485],[127.09145,37.76435],[127.08985,37.76333],[127.08848,37.76046],[127.08762,37.75971],[127.086,37.75886],[127.08649,37.75811],[127.08649,37.7575],[127.08711,37.75733],[127.08762,37.75668],[127.0886,37.75612],[127.08933,37.7545],[127.09005,37.75386],[127.08928,37.75452],[127.08858,37.7561],[127.08761,37.75662],[127.08708,37.7573],[127.08644,37.75747],[127.08626,37.75857],[127.08591,37.75884],[127.08377,37.75854],[127.08162,37.75754],[127.08008,37.75572],[127.07817,37.75468],[127.08208,37.75321],[127.08378,37.75],[127.0818,37.75327],[127.07795,37.75453],[127.07604,37.75376],[127.07394,37.75197],[127.07274,37.75128],[127.06752,37.75],[127.06668,37.75],[127.07318,37.7517],[127.07496,37.75313],[127.07505,37.75352],[127.07511,37.75326],[127.07655,37.7544],[127.07651,37.75416],[127.07779,37.7546],[127.08,37.75591],[127.08159,37.7577],[127.08285,37.75811],[127.08346,37.75861],[127.08613,37.75902],[127.08773,37.75994],[127.0884,37.76063],[127.08935,37.76237],[127.08951,37.7632],[127.0883,37.76373],[127.08832,37.76476],[127.0888,37.7655],[127.08897,37.76673],[127.08851,37.76722],[127.08759,37.76741],[127.08709,37.76816],[127.08767,37.76743],[127.08848,37.76729],[127.08901,37.76678],[127.08885,37.76549],[127.08839,37.76479],[127.08839,37.76384],[127.08954,37.76326]],[[127.07932,37.75418],[127.07934,37.75418],[127.07934,37.75418],[127.07935,37.75419],[127.07935,37.75419],[127.07934,37.7542],[127.07932,37.7542],[127.07915,37.75427],[127.07903,37.75431],[127.07899,37.75432],[127.07899,37.75432],[127.07898,37.75432],[127.07899,37.75432],[127.07899,37.75431],[127.0791,37.75426],[127.07918,37.75422],[127.07932,37.75418]],[[127.08075,37.75371],[127.08075,37.75371],[127.08074,37.75371],[127.08072,37.75371],[127.0807,37.75371],[127.0807,37.75371],[127.0807,37.75371],[127.0807,37.7537],[127.0807,37.7537],[127.08084,37.75365],[127.08093,37.75361],[127.08095,37.75361],[127.08097,37.75361],[127.08098,37.75361],[127.08098,37.75361],[127.08099,37.75361],[127.08099,37.75362],[127.08094,37.75366],[127.08077,37.75372],[127.08075,37.75371]]]}},{"type":"Feature","id":"TN_RIVER_BT:WTR02000000003CSP","properties":{"NF_ID":"WTR02000000003CSP","source_layer":"TN_RIVER_BT","semantic":"channel","river_class":"지방하천","river_class_source":"중심선 공간조인","river_name":"민락천","river_code":"1025140","survey_method":"사진측량","admin_code":"41150"},"geometry":{"type":"Polygon","coordinates":[[[127.12267,37.76883],[127.12232,37.76854],[127.12081,37.76815],[127.12087,37.76716],[127.11999,37.76665],[127.11792,37.76649],[127.11641,37.76569],[127.11506,37.76561],[127.11314,37.76503],[127.11293,37.7636],[127.11345,37.76297],[127.112,37.76091],[127.11202,37.75914],[127.11255,37.75815],[127.11213,37.7567],[127.11123,37.75491],[127.11016,37.75373],[127.11,37.7531],[127.10852,37.75256],[127.10782,37.75197],[127.10841,37.75021],[127.11212,37.75082],[127.11397,37.75277],[127.11508,37.75355],[127.11539,37.75463],[127.11626,37.75522],[127.1165,37.75623],[127.11769,37.75715],[127.11817,37.75815],[127.11933,37.75822],[127.12039,37.75725],[127.12088,37.75716],[127.12329,37.75788],[127.12415,37.75863],[127.12536,37.75897],[127.12561,37.75873],[127.12532,37.75889],[127.12479,37.7588],[127.12391,37.75842],[127.12337,37.75784],[127.12088,37.75711],[127.12024,37.7573],[127.11941,37.75813],[127.11824,37.75815],[127.11781,37.75719],[127.11655,37.7562],[127.1163,37.75522],[127.11541,37.7546],[127.11513,37.75356],[127.11438,37.75304],[127.11723,37.7524],[127.11913,37.75272],[127.12225,37.75248],[127.11912,37.75269],[127.11717,37.75238],[127.11436,37.75303],[127.11215,37.7508],[127.10722,37.75],[127.10831,37.75027],[127.10785,37.75216],[127.10994,37.75307],[127.11014,37.75375],[127.11118,37.75491],[127.11212,37.75679],[127.11247,37.75802],[127.11197,37.75914],[127.11194,37.76095],[127.11341,37.76297],[127.1129,37.76361],[127.11309,37.76503],[127.11509,37.76564],[127.11636,37.76571],[127.11787,37.76653],[127.12009,37.76671],[127.1208,37.76713],[127.12084,37.7682],[127.12267,37.76883]]]}},{"type":"Feature","id":"TN_RIVER_BT:WTR02000000003CWT","properties":{"NF_ID":"WTR02000000003CWT","source_layer":"TN_RIVER_BT","semantic":"channel","river_class":"소하천","river_class_source":"중심선 공간조인","survey_method":"사진측량","admin_code":"41150"},"geometry":{"type":"Polygon","coordinates":[[[127.10625,37.77214],[127.10563,37.77212],[127.10487,37.77149],[127.10397,37.77117],[127.10419,37.77029],[127.10389,37.76995],[127.10208,37.76954],[127.10132,37.769],[127.09918,37.7681],[127.10201,37.76955],[127.10396,37.77006],[127.10414,37.77039],[127.10372,37.77197],[127.10393,37.7712],[127.10484,37.77152],[127.10561,37.77214],[127.10695,37.77246],[127.10625,37.77214]]]}},{"type":"Feature","id":"TN_RIVER_BT:WTR02000000003E54","properties":{"NF_ID":"WTR02000000003E54","source_layer":"TN_RIVER_BT","semantic":"channel","river_class":"지방하천","river_class_source":"중심선 공간조인","river_name":"유양천","river_code":"1025100","survey_method":"사진측량","admin_code":"41150"},"geometry":{"type":"Polygon","coordinates":[[[127.04626,37.76472],[127.04551,37.76353],[127.04577,37.76349],[127.0452,37.76259],[127.04456,37.76033],[127.04536,37.75749],[127.04558,37.75547],[127.04719,37.75209],[127.04976,37.75],[127.04718,37.75186],[127.04558,37.75467],[127.04297,37.75746],[127.04186,37.75807],[127.04133,37.75897],[127.0401,37.75908],[127.03945,37.75882],[127.03813,37.75947],[127.03507,37.76035],[127.03813,37.75951],[127.03928,37.75897],[127.04134,37.75909],[127.04232,37.75784],[127.04296,37.75753],[127.04491,37.75525],[127.04554,37.75481],[127.0453,37.757],[127.0444,37.76043],[127.0453,37.76342],[127.04626,37.76472]]]}}]}