{"type":"FeatureCollection","features":[{"type":"Feature","id":"TN_RIVER_BNDRY:WTR0100000000QEWH","properties":{"NF_ID":"WTR0100000000QEWH","source_layer":"TN_RIVER_BNDRY","semantic":"zone","river_class":"국가하천","river_class_source":"중심선 공간조인","river_name":"한강","river_code":"1000010","survey_method":"사진측량","admin_code":"11440"},"geometry":{"type":"MultiPolygon","coordinates":[[[[126.94478,37.53404],[126.94459,37.53379],[126.94427,37.53417],[126.94478,37.53404]]],[[[126.91677,37.54143],[126.9109,37.54142],[126.91092,37.54382],[126.91273,37.5432],[126.91699,37.54252],[126.91958,37.54261],[126.92033,37.54284],[126.92039,37.54307],[126.91998,37.54347],[126.92054,37.54376],[126.92107,37.54336],[126.92111,37.54316],[126.92228,37.5437],[126.9244,37.54416],[126.9261,37.54412],[126.92685,37.54396],[126.92911,37.54306],[126.92953,37.54369],[126.92966,37.54328],[126.92949,37.54292],[126.93163,37.54212],[126.93389,37.54139],[126.93544,37.5416],[126.93667,37.54152],[126.93868,37.54048],[126.93929,37.54001],[126.94026,37.53887],[126.94181,37.53647],[126.94294,37.53505],[126.93856,37.53784],[126.9329,37.54053],[126.93034,37.54136],[126.92767,37.53908],[126.9271,37.53904],[126.92308,37.54045],[126.92283,37.54062],[126.92241,37.54143],[126.91677,37.54143]]]]}},{"type":"Feature","id":"TN_RIVER_BNDRY:WTR0100000000QG2P","properties":{"NF_ID":"WTR0100000000QG2P","source_layer":"TN_RIVER_BNDRY","semantic":"zone","river_class":"국가하천","river_class_source":"중심선 공간조인","river_name":"한강","river_code":"1000010","survey_method":"사진측량","admin_code":"11440"},"geometry":{"type":"Polygon","coordinates":[[[126.85623,37.56934],[126.85543,37.56994],[126.86035,37.57546],[126.86112,37.57497],[126.85623,37.56934]]]}},{"type":"Feature","id":"TN_RIVER_BNDRY:WTR0100000000QG3Q","properties":{"NF_ID":"WTR0100000000QG3Q","source_layer":"TN_RIVER_BNDRY","semantic":"zone","river_class":"국가하천","river_class_source":"중심선 공간조인","river_name":"한강","river_code":"1000010","survey_method":"사진측량","admin_code":"11440"},"geometry":{"type":"Polygon","coordinates":[[[126.87664,37.55822],[126.86895,37.56202],[126.86629,37.56305],[126.85624,37.56933],[126.86112,37.57497],[126.86178,37.57458],[126.86181,37.57423],[126.86204,37.57409],[126.86279,37.57469],[126.86295,37.5746],[126.86248,37.57383],[126.86384,37.57336],[126.86429,37.57306],[126.86464,37.57389],[126.86516,37.57455],[126.86465,37.57365],[126.86501,37.57391],[126.86554,37.57387],[126.86582,37.57415],[126.86558,37.57386],[126.86852,37.57283],[126.87858,37.56716],[126.87815,37.56428],[126.87664,37.55822]]]}},{"type":"Feature","id":"TN_RIVER_BNDRY:WTR0100000000QG4R","properties":{"NF_ID":"WTR0100000000QG4R","source_layer":"TN_RIVER_BNDRY","semantic":"zone","river_class":"지방하천","river_class_source":"중심선 공간조인","river_name":"향동천","river_code":"1025570","survey_method":"사진측량","admin_code":"11440"},"geometry":{"type":"Polygon","coordinates":[[[126.86186,37.57625],[126.86221,37.57639],[126.86232,37.57631],[126.86112,37.57497],[126.86035,37.57546],[126.86121,37.57576],[126.86186,37.57625]]]}},{"type":"Feature","id":"TN_RIVER_BNDRY:WTR0100000000QG5S","properties":{"NF_ID":"WTR0100000000QG5S","source_layer":"TN_RIVER_BNDRY","semantic":"zone","river_class":"국가하천","river_class_source":"중심선 공간조인","river_name":"한강","river_code":"1000010","survey_method":"사진측량","admin_code":"11440"},"geometry":{"type":"Polygon","coordinates":[[[126.85502,37.57026],[126.85363,37.57179],[126.85363,37.5738],[126.85929,37.57492],[126.85929,37.57524],[126.85997,37.57551],[126.86035,37.57546],[126.85543,37.56994],[126.85502,37.57026]]]}},{"type":"Feature","id":"TN_RIVER_BNDRY:WTR0100000000QHD1","properties":{"NF_ID":"WTR0100000000QHD1","source_layer":"TN_RIVER_BNDRY","semantic":"zone","river_class":"지방하천","river_class_source":"중심선 공간조인","river_name":"향동천","river_code":"1025570","survey_method":"사진측량","admin_code":"11440"},"geometry":{"type":"MultiPolygon","coordinates":[[[[126.87725,37.58512],[126.87727,37.58557],[126.87766,37.58626],[126.87847,37.58637],[126.87913,37.58677],[126.87959,37.58822],[126.87991,37.58877],[126.88005,37.58873],[126.87917,37.58667],[126.87878,37.58637],[126.87792,37.58614],[126.87725,37.58512]]],[[[126.87705,37.58424],[126.87675,37.58415],[126.87671,37.5846],[126.87716,37.5849],[126.87705,37.58424]]],[[[126.87666,37.58126],[126.87667,37.58163],[126.87705,37.58221],[126.87699,37.58339],[126.87727,37.58385],[126.87715,37.58233],[126.87682,37.58126],[126.87666,37.58126]]]]}},{"type":"Feature","id":"TN_RIVER_BNDRY:WTR0100000000QHH5","properties":{"NF_ID":"WTR0100000000QHH5","source_layer":"TN_RIVER_BNDRY","semantic":"zone","river_class":"국가하천","river_class_source":"중심선 공간조인","river_name":"한강","river_code":"1000010","survey_method":"사진측량","admin_code":"11440"},"geometry":{"type":"Polygon","coordinates":[[[126.91027,37.54142],[126.90673,37.54142],[126.90713,37.54615],[126.90947,37.54449],[126.91092,37.54382],[126.9109,37.54142],[126.91027,37.54142]]]}},{"type":"Feature","id":"TN_RIVER_BNDRY:WTR0100000000QJG6","properties":{"NF_ID":"WTR0100000000QJG6","source_layer":"TN_RIVER_BNDRY","semantic":"zone","river_class":"국가하천","river_class_source":"중심선 공간조인","river_name":"한강","river_code":"1000010","survey_method":"사진측량","admin_code":"11440"},"geometry":{"type":"Polygon","coordinates":[[[126.90484,37.54142],[126.9038,37.54263],[126.90219,37.54413],[126.90182,37.54503],[126.89894,37.54801],[126.89468,37.54939],[126.88826,37.55221],[126.88705,37.55296],[126.89199,37.55731],[126.89246,37.55659],[126.89544,37.55449],[126.89534,37.55426],[126.89559,37.55408],[126.89586,37.55419],[126.89603,37.55408],[126.90702,37.54641],[126.90713,37.54615],[126.90673,37.54142],[126.90484,37.54142]]]}},{"type":"Feature","id":"TN_RIVER_BNDRY:WTR0100000000QKI9","properties":{"NF_ID":"WTR0100000000QKI9","source_layer":"TN_RIVER_BNDRY","semantic":"zone","river_class":"소하천","river_class_source":"중심선 공간조인","river_name":"난지천","survey_method":"사진측량","admin_code":"11440"},"geometry":{"type":"Polygon","coordinates":[[[126.87644,37.57898],[126.87708,37.5789],[126.8772,37.57908],[126.87733,37.57902],[126.8787,37.57806],[126.87898,37.57806],[126.87903,37.57775],[126.88113,37.57655],[126.88254,37.57591],[126.88271,37.57596],[126.88274,37.57578],[126.88359,37.57536],[126.88409,37.57493],[126.88637,37.57379],[126.88768,37.57286],[126.88859,37.57066],[126.88933,37.57009],[126.89031,37.56886],[126.8911,37.5682],[126.89203,37.56704],[126.89265,37.56579],[126.89291,37.56559],[126.8927,37.56471],[126.89196,37.56402],[126.89213,37.56363],[126.89327,37.56304],[126.89414,37.56371],[126.89528,37.56392],[126.89561,37.56371],[126.89623,37.56372],[126.8966,37.56353],[126.89718,37.56274],[126.89662,37.56312],[126.89615,37.56293],[126.89576,37.56305],[126.89573,37.56285],[126.8954,37.56306],[126.89472,37.56315],[126.89464,37.56335],[126.89361,37.56309],[126.89321,37.56276],[126.89324,37.56297],[126.89205,37.56361],[126.89186,37.56409],[126.89253,37.56463],[126.8929,37.56547],[126.89263,37.56572],[126.89174,37.56737],[126.89083,37.56842],[126.89028,37.5688],[126.88924,37.57011],[126.88859,37.57057],[126.8882,37.57106],[126.88778,37.57125],[126.88783,37.57145],[126.88811,37.57156],[126.88813,37.57181],[126.88758,37.57288],[126.88629,37.57377],[126.88505,37.57426],[126.8835,37.57536],[126.88199,37.57619],[126.88071,37.57659],[126.87995,37.57727],[126.87898,37.57772],[126.87826,37.57828],[126.87644,37.57898]]]}},{"type":"Feature","id":"TN_RIVER_BNDRY:WTR0100000000QKJA","properties":{"NF_ID":"WTR0100000000QKJA","source_layer":"TN_RIVER_BNDRY","semantic":"zone","river_class":"지방하천","river_class_source":"중심선 공간조인","river_name":"향동천","river_code":"1025570","survey_method":"사진측량","admin_code":"11440"},"geometry":{"type":"MultiPolygon","coordinates":[[[[126.8688,37.57761],[126.87152,37.5781],[126.87291,37.57821],[126.87045,37.57759],[126.86929,37.57751],[126.8688,37.57761]]],[[[126.86425,37.57719],[126.86494,37.57747],[126.86787,37.57751],[126.86652,37.57665],[126.86491,37.57634],[126.86384,37.57703],[126.86425,37.57719]]]]}},{"type":"Feature","id":"TN_RIVER_BNDRY:WTR0100000000QKKB","properties":{"NF_ID":"WTR0100000000QKKB","source_layer":"TN_RIVER_BNDRY","semantic":"zone","river_class":"국가하천","river_class_source":"중심선 공간조인","river_name":"안양천","river_code":"1005380","survey_method":"사진측량","admin_code":"11440"},"geometry":{"type":"Polygon","coordinates":[[[126.87838,37.55733],[126.87672,37.55818],[126.87815,37.56428],[126.88058,37.56355],[126.87873,37.55716],[126.87838,37.55733]]]}},{"type":"Feature","id":"TN_RIVER_BNDRY:WTR0100000000QKLC","properties":{"NF_ID":"WTR0100000000QKLC","source_layer":"TN_RIVER_BNDRY","semantic":"zone","river_class":"국가하천","river_class_source":"중심선 공간조인","river_name":"한강","river_code":"1000010","survey_method":"사진측량","admin_code":"11440"},"geometry":{"type":"Polygon","coordinates":[[[126.88498,37.55399],[126.87873,37.55716],[126.88058,37.56355],[126.88081,37.56347],[126.88094,37.56357],[126.88113,37.56416],[126.8809,37.56343],[126.88366,37.56199],[126.88425,37.56208],[126.88483,37.56192],[126.88511,37.56168],[126.8848,37.56134],[126.88944,37.55867],[126.89028,37.55842],[126.88509,37.55394],[126.88498,37.55399]]]}},{"type":"Feature","id":"TN_RIVER_BNDRY:WTR0100000000QKMD","properties":{"NF_ID":"WTR0100000000QKMD","source_layer":"TN_RIVER_BNDRY","semantic":"zone","river_class":"국가하천","river_class_source":"중심선 공간조인","river_name":"한강","river_code":"1000010","survey_method":"사진측량","admin_code":"11440"},"geometry":{"type":"Polygon","coordinates":[[[126.88695,37.55301],[126.88509,37.55394],[126.89028,37.55842],[126.89199,37.55731],[126.88705,37.55296],[126.88695,37.55301]]]}},{"type":"Feature","id":"TN_RIVER_BNDRY:WTR0100000000QKNE","properties":{"NF_ID":"WTR0100000000QKNE","source_layer":"TN_RIVER_BNDRY","semantic":"zone","river_class":"지방하천","river_class_source":"중심선 공간조인","river_name":"홍제천","river_code":"1025350","survey_method":"사진측량","admin_code":"11440"},"geometry":{"type":"Polygon","coordinates":[[[126.89922,37.56179],[126.89519,37.56019],[126.89375,37.55951],[126.89262,37.55873],[126.89249,37.55881],[126.89251,37.55853],[126.89202,37.55788],[126.89199,37.55731],[126.89028,37.55842],[126.89154,37.55862],[126.89297,37.55956],[126.89813,37.56165],[126.89927,37.56232],[126.89922,37.56179]]]}},{"type":"Feature","id":"TN_RIVER_BNDRY:WTR0100000000QKOF","properties":{"NF_ID":"WTR0100000000QKOF","source_layer":"TN_RIVER_BNDRY","semantic":"zone","river_class":"지방하천","river_class_source":"중심선 공간조인","river_name":"불광천","river_code":"1025360","survey_method":"사진측량","admin_code":"11440"},"geometry":{"type":"Polygon","coordinates":[[[126.89959,37.56197],[126.89922,37.56179],[126.89927,37.56232],[126.89961,37.56236],[126.89959,37.56197]]]}},{"type":"Feature","id":"TN_RIVER_BNDRY:WTR0100000000QKPG","properties":{"NF_ID":"WTR0100000000QKPG","source_layer":"TN_RIVER_BNDRY","semantic":"zone","river_class":"지방하천","river_class_source":"중심선 공간조인","river_name":"불광천","river_code":"1025360","survey_method":"사진측량","admin_code":"11440"},"geometry":{"type":"Polygon","coordinates":[[[126.90208,37.57601],[126.9022,37.57592],[126.90055,37.57413],[126.90023,37.57345],[126.8998,37.5663],[126.89979,37.5656],[126.89991,37.5656],[126.89972,37.56519],[126.89961,37.56236],[126.89927,37.56232],[126.89947,37.56282],[126.89968,37.56632],[126.89945,37.56647],[126.89963,37.56649],[126.89965,37.56725],[126.89943,37.56727],[126.89965,37.56727],[126.8997,37.5678],[126.89986,37.57067],[126.89966,37.57069],[126.89986,37.57068],[126.8999,37.5712],[126.89986,37.57361],[126.90005,37.57402],[126.90023,37.57397],[126.90094,37.57481],[126.90085,37.57489],[126.90208,37.57601]]]}},{"type":"Feature","id":"TN_RIVER_BNDRY:WTR0100000000QKQH","properties":{"NF_ID":"WTR0100000000QKQH","source_layer":"TN_RIVER_BNDRY","semantic":"zone","river_class":"지방하천","river_class_source":"중심선 공간조인","river_name":"홍제천","river_code":"1025350","survey_method":"사진측량","admin_code":"11440"},"geometry":{"type":"Polygon","coordinates":[[[126.91671,37.56784],[126.91682,37.5678],[126.91641,37.5674],[126.9145,37.56634],[126.90041,37.56243],[126.89959,37.56197],[126.89961,37.56236],[126.89998,37.56235],[126.90095,37.56277],[126.91429,37.56645],[126.91594,37.56729],[126.91657,37.5679],[126.91671,37.56784]]]}}]}