{"type":"FeatureCollection","features":[{"type":"Feature","id":"TN_RIVER_BNDRY:WTR0100000002DWLD","properties":{"NF_ID":"WTR0100000002DWLD","admin_code":"12240","source_layer":"TN_RIVER_BNDRY","semantic":"zone","river_class":"소하천","river_class_source":"중심선 공간조인","river_name":"세동천","survey_method":"사진측량"},"geometry":{"type":"Polygon","coordinates":[[[126.83175,35.1098],[126.83028,35.10976],[126.82937,35.11034],[126.82892,35.11045],[126.82585,35.11522],[126.82902,35.11052],[126.82946,35.11046],[126.83037,35.10979],[126.83175,35.1098]]]}},{"type":"Feature","id":"TN_RIVER_BNDRY:WTR0100000002DWME","properties":{"NF_ID":"WTR0100000002DWME","admin_code":"12240","source_layer":"TN_RIVER_BNDRY","semantic":"zone","river_class":"소하천","river_class_source":"중심선 공간조인","river_name":"세동천","survey_method":"사진측량"},"geometry":{"type":"Polygon","coordinates":[[[126.83188,35.10976],[126.83253,35.10982],[126.8332,35.11016],[126.83433,35.10988],[126.83322,35.11014],[126.83256,35.10981],[126.83188,35.10976]]]}},{"type":"Feature","id":"TN_RIVER_BNDRY:WTR0100000002DWNF","properties":{"NF_ID":"WTR0100000002DWNF","admin_code":"12240","source_layer":"TN_RIVER_BNDRY","semantic":"zone","river_class":"소하천","river_class_source":"중심선 공간조인","river_name":"세동천","survey_method":"사진측량"},"geometry":{"type":"Polygon","coordinates":[[[126.83178,35.10975],[126.83188,35.10976],[126.83187,35.10974],[126.83186,35.10972],[126.83186,35.10971],[126.83188,35.10968],[126.83193,35.1096],[126.83192,35.10959],[126.83186,35.10966],[126.83182,35.10971],[126.83179,35.10974],[126.83178,35.10975]]]}},{"type":"Feature","id":"TN_RIVER_BNDRY:WTR0100000002DWOG","properties":{"NF_ID":"WTR0100000002DWOG","admin_code":"12240","source_layer":"TN_RIVER_BNDRY","semantic":"zone","river_class":"소하천","river_class_source":"중심선 공간조인","river_name":"세동천","survey_method":"사진측량"},"geometry":{"type":"Polygon","coordinates":[[[126.83188,35.10976],[126.83178,35.10975],[126.83175,35.1098],[126.83185,35.1098],[126.83188,35.10976]]]}},{"type":"Feature","id":"TN_RIVER_BNDRY:WTR0100000002DZNI","properties":{"NF_ID":"WTR0100000002DZNI","admin_code":"12240","source_layer":"TN_RIVER_BNDRY","semantic":"zone","river_class":"국가하천","river_class_source":"중심선 공간조인","river_name":"영산강","river_code":"5000010","survey_method":"사진측량"},"geometry":{"type":"Polygon","coordinates":[[[126.81834,35.1081],[126.81508,35.10656],[126.81325,35.1099],[126.81583,35.11113],[126.81834,35.1081]]]}},{"type":"Feature","id":"TN_RIVER_BNDRY:WTR0100000002DZOJ","properties":{"NF_ID":"WTR0100000002DZOJ","admin_code":"12240","source_layer":"TN_RIVER_BNDRY","semantic":"zone","river_class":"국가하천","river_class_source":"중심선 공간조인","river_name":"영산강","river_code":"5000010","survey_method":"사진측량"},"geometry":{"type":"Polygon","coordinates":[[[126.81835,35.1081],[126.81583,35.11113],[126.81626,35.11138],[126.81835,35.1081]]]}},{"type":"Feature","id":"TN_RIVER_BNDRY:WTR0100000002DZPK","properties":{"NF_ID":"WTR0100000002DZPK","admin_code":"12240","source_layer":"TN_RIVER_BNDRY","semantic":"zone","river_class":"소하천","river_class_source":"중심선 공간조인","survey_method":"사진측량"},"geometry":{"type":"Polygon","coordinates":[[[126.81699,35.10403],[126.81689,35.10398],[126.81687,35.104],[126.81697,35.10405],[126.81698,35.10405],[126.81699,35.10403]]]}},{"type":"Feature","id":"TN_RIVER_BNDRY:WTR0100000002DZQL","properties":{"NF_ID":"WTR0100000002DZQL","admin_code":"12240","source_layer":"TN_RIVER_BNDRY","semantic":"zone","river_class":"소하천","river_class_source":"중심선 공간조인","survey_method":"사진측량"},"geometry":{"type":"Polygon","coordinates":[[[126.81697,35.10405],[126.81687,35.104],[126.81507,35.10656],[126.81697,35.10405]]]}},{"type":"Feature","id":"TN_RIVER_BNDRY:WTR0100000002DZSN","properties":{"NF_ID":"WTR0100000002DZSN","admin_code":"12240","source_layer":"TN_RIVER_BNDRY","semantic":"zone","river_class":"소하천","river_class_source":"중심선 공간조인","survey_method":"사진측량"},"geometry":{"type":"Polygon","coordinates":[[[126.81834,35.1081],[126.81846,35.10797],[126.81881,35.10812],[126.81898,35.10792],[126.81867,35.10736],[126.81839,35.10764],[126.81853,35.10776],[126.81834,35.1081]]]}},{"type":"Feature","id":"TN_RIVER_BNDRY:WTR0100000002DZTO","properties":{"NF_ID":"WTR0100000002DZTO","admin_code":"12240","source_layer":"TN_RIVER_BNDRY","semantic":"zone","river_class":"소하천","river_class_source":"중심선 공간조인","survey_method":"사진측량"},"geometry":{"type":"Polygon","coordinates":[[[126.82175,35.11869],[126.82133,35.11861],[126.81964,35.11756],[126.81908,35.11741],[126.81892,35.11769],[126.81817,35.1172],[126.81789,35.1172],[126.81785,35.11734],[126.8175,35.11731],[126.81724,35.11682],[126.81698,35.11707],[126.81659,35.11708],[126.8166,35.1172],[126.81732,35.11716],[126.81744,35.11734],[126.81831,35.11749],[126.81904,35.11799],[126.82019,35.11827],[126.82113,35.11871],[126.82175,35.11869]]]}},{"type":"Feature","id":"TN_RIVER_BNDRY:WTR0100000002E0XU","properties":{"NF_ID":"WTR0100000002E0XU","admin_code":"12240","source_layer":"TN_RIVER_BNDRY","semantic":"zone","river_class":"국가하천","river_class_source":"중심선 공간조인","river_name":"영산강","river_code":"5000010","survey_method":"사진측량"},"geometry":{"type":"Polygon","coordinates":[[[126.81508,35.10656],[126.81307,35.10982],[126.81325,35.1099],[126.81508,35.10656]]]}},{"type":"Feature","id":"TN_RIVER_BNDRY:WTR0100000002E0YV","properties":{"NF_ID":"WTR0100000002E0YV","admin_code":"12240","source_layer":"TN_RIVER_BNDRY","semantic":"zone","river_class":"국가하천","river_class_source":"중심선 공간조인","river_name":"영산강","river_code":"5000010","survey_method":"사진측량"},"geometry":{"type":"Polygon","coordinates":[[[126.81507,35.10656],[126.80902,35.10368],[126.80543,35.10619],[126.80763,35.10752],[126.81307,35.10982],[126.81507,35.10656]]]}},{"type":"Feature","id":"TN_RIVER_BNDRY:WTR0100000002E0ZW","properties":{"NF_ID":"WTR0100000002E0ZW","admin_code":"12240","source_layer":"TN_RIVER_BNDRY","semantic":"zone","river_class":"소하천","river_class_source":"중심선 공간조인","survey_method":"사진측량"},"geometry":{"type":"Polygon","coordinates":[[[126.80543,35.10619],[126.80531,35.1061],[126.80479,35.10636],[126.80474,35.1069],[126.80493,35.10714],[126.80543,35.10619]]]}},{"type":"Feature","id":"TN_RIVER_BNDRY:WTR0100000002E10Y","properties":{"NF_ID":"WTR0100000002E10Y","admin_code":"12240","source_layer":"TN_RIVER_BNDRY","semantic":"zone","river_class":"국가하천","river_class_source":"중심선 공간조인","river_name":"영산강","river_code":"5000010","survey_method":"사진측량"},"geometry":{"type":"Polygon","coordinates":[[[126.80902,35.10368],[126.80753,35.10294],[126.80531,35.1061],[126.80543,35.10619],[126.80902,35.10368]]]}},{"type":"Feature","id":"TN_RIVER_BNDRY:WTR0100000002E153","properties":{"NF_ID":"WTR0100000002E153","admin_code":"12240","source_layer":"TN_RIVER_BNDRY","semantic":"zone","river_class":"소하천","river_class_source":"중심선 공간조인","survey_method":"사진측량"},"geometry":{"type":"Polygon","coordinates":[[[126.83581,35.15251],[126.83567,35.1523],[126.83564,35.15231],[126.83574,35.15247],[126.83586,35.15264],[126.83601,35.1528],[126.83603,35.1528],[126.83603,35.15279],[126.83589,35.15264],[126.83581,35.15251]]]}},{"type":"Feature","id":"TN_RIVER_BNDRY:WTR0100000002E164","properties":{"NF_ID":"WTR0100000002E164","admin_code":"12240","source_layer":"TN_RIVER_BNDRY","semantic":"zone","river_class":"지방하천","river_class_source":"중심선 공간조인","river_name":"서창천","river_code":"5020260","survey_method":"사진측량"},"geometry":{"type":"Polygon","coordinates":[[[126.83554,35.13171],[126.83346,35.13068],[126.83213,35.1304],[126.83206,35.1305],[126.83355,35.1308],[126.8354,35.13179],[126.83554,35.13171]]]}},{"type":"Feature","id":"TN_RIVER_BNDRY:WTR0100000002E175","properties":{"NF_ID":"WTR0100000002E175","admin_code":"12240","source_layer":"TN_RIVER_BNDRY","semantic":"zone","river_class":"지방하천","river_class_source":"중심선 공간조인","river_name":"서창천","river_code":"5020260","survey_method":"사진측량"},"geometry":{"type":"Polygon","coordinates":[[[126.83559,35.13177],[126.83554,35.13171],[126.8354,35.13179],[126.83547,35.13184],[126.83559,35.13177]]]}},{"type":"Feature","id":"TN_RIVER_BNDRY:WTR0100000002E186","properties":{"NF_ID":"WTR0100000002E186","admin_code":"12240","source_layer":"TN_RIVER_BNDRY","semantic":"zone","river_class":"소하천","river_class_source":"중심선 공간조인","survey_method":"사진측량"},"geometry":{"type":"Polygon","coordinates":[[[126.83554,35.13171],[126.83612,35.13185],[126.83627,35.13204],[126.83612,35.13181],[126.83554,35.13171]]]}},{"type":"Feature","id":"TN_RIVER_BNDRY:WTR0100000002E197","properties":{"NF_ID":"WTR0100000002E197","admin_code":"12240","source_layer":"TN_RIVER_BNDRY","semantic":"zone","river_class":"지방하천","river_class_source":"중심선 공간조인","river_name":"세하천","river_code":"5020270","survey_method":"사진측량"},"geometry":{"type":"Polygon","coordinates":[[[126.83194,35.13032],[126.83169,35.13027],[126.83166,35.13048],[126.83186,35.13049],[126.83194,35.13032]]]}},{"type":"Feature","id":"TN_RIVER_BNDRY:WTR0100000002E1A8","properties":{"NF_ID":"WTR0100000002E1A8","admin_code":"12240","source_layer":"TN_RIVER_BNDRY","semantic":"zone","river_class":"등급미확인","survey_method":"사진측량"},"geometry":{"type":"Polygon","coordinates":[[[126.83211,35.13035],[126.83194,35.13032],[126.83186,35.13049],[126.83211,35.13035]]]}},{"type":"Feature","id":"TN_RIVER_BNDRY:WTR0100000002E1B9","properties":{"NF_ID":"WTR0100000002E1B9","admin_code":"12240","source_layer":"TN_RIVER_BNDRY","semantic":"zone","river_class":"지방하천","river_class_source":"중심선 공간조인","river_name":"서창천","river_code":"5020260","survey_method":"사진측량"},"geometry":{"type":"Polygon","coordinates":[[[126.83213,35.1304],[126.83211,35.13035],[126.832,35.1305],[126.83206,35.1305],[126.83213,35.1304]]]}},{"type":"Feature","id":"TN_RIVER_BNDRY:WTR0100000002E1CA","properties":{"NF_ID":"WTR0100000002E1CA","admin_code":"12240","source_layer":"TN_RIVER_BNDRY","semantic":"zone","river_class":"소하천","river_class_source":"중심선 공간조인","survey_method":"사진측량"},"geometry":{"type":"Polygon","coordinates":[[[126.83211,35.13035],[126.83213,35.1304],[126.83235,35.13021],[126.83282,35.12985],[126.83325,35.12956],[126.83375,35.12929],[126.83409,35.12913],[126.83417,35.1291],[126.83417,35.1291],[126.83417,35.12909],[126.83415,35.12905],[126.83415,35.12905],[126.83412,35.12906],[126.83392,35.12916],[126.83366,35.12929],[126.83333,35.12947],[126.83296,35.12971],[126.83262,35.12996],[126.83231,35.1302],[126.83211,35.13035]]]}},{"type":"Feature","id":"TN_RIVER_BNDRY:WTR0100000002E1EC","properties":{"NF_ID":"WTR0100000002E1EC","admin_code":"12240","source_layer":"TN_RIVER_BNDRY","semantic":"zone","river_class":"지방하천","river_class_source":"중심선 공간조인","river_name":"광주천","river_code":"5010230","survey_method":"사진측량"},"geometry":{"type":"Polygon","coordinates":[[[126.88474,35.16895],[126.88391,35.16845],[126.88276,35.16907],[126.88134,35.16948],[126.87888,35.16985],[126.87736,35.16987],[126.87585,35.16962],[126.87311,35.16797],[126.87049,35.16718],[126.86851,35.16715],[126.86454,35.16799],[126.86333,35.16808],[126.85983,35.16759],[126.85721,35.16688],[126.8562,35.1662],[126.85477,35.16404],[126.85384,35.16298],[126.85197,35.16166],[126.8511,35.16125],[126.84991,35.16094],[126.84816,35.16083],[126.84811,35.16126],[126.84776,35.16125],[126.84763,35.16094],[126.84729,35.16075],[126.84348,35.16023],[126.83994,35.15886],[126.83855,35.15784],[126.83743,35.15665],[126.83579,35.15379],[126.83211,35.14964],[126.83151,35.14851],[126.83128,35.14728],[126.83026,35.1498],[126.83082,35.15025],[126.8311,35.15008],[126.83366,35.15282],[126.83496,35.15439],[126.83643,35.15701],[126.83792,35.15848],[126.84082,35.15996],[126.84313,35.16088],[126.84858,35.16156],[126.85059,35.16203],[126.85206,35.16267],[126.85378,35.1638],[126.85553,35.16637],[126.856,35.16689],[126.85669,35.16732],[126.85983,35.16817],[126.86293,35.16864],[126.86467,35.16852],[126.86862,35.16769],[126.87055,35.16774],[126.87279,35.16848],[126.87535,35.17014],[126.87738,35.17044],[126.87765,35.17072],[126.87843,35.17084],[126.88048,35.1707],[126.88274,35.17015],[126.88371,35.16979],[126.88474,35.16895]]]}},{"type":"Feature","id":"TN_RIVER_BNDRY:WTR0100000002E1FD","properties":{"NF_ID":"WTR0100000002E1FD","admin_code":"12240","source_layer":"TN_RIVER_BNDRY","semantic":"zone","river_class":"지방하천","river_class_source":"중심선 공간조인","river_name":"서창천","river_code":"5020260","survey_method":"사진측량"},"geometry":{"type":"Polygon","coordinates":[[[126.83559,35.13177],[126.83547,35.13184],[126.83567,35.13211],[126.83767,35.13329],[126.83947,35.13362],[126.84,35.13324],[126.83991,35.13208],[126.84012,35.13166],[126.84045,35.13144],[126.84133,35.13129],[126.84227,35.13021],[126.84498,35.12995],[126.84673,35.13031],[126.84741,35.1303],[126.8492,35.12959],[126.85011,35.12877],[126.85,35.12859],[126.849,35.12959],[126.84743,35.13024],[126.84678,35.13023],[126.84495,35.12988],[126.84225,35.13014],[126.84126,35.13123],[126.84043,35.13134],[126.84003,35.13158],[126.83981,35.13194],[126.83988,35.13324],[126.83941,35.13356],[126.83772,35.13322],[126.83698,35.13255],[126.83559,35.13177]]]}},{"type":"Feature","id":"TN_RIVER_BNDRY:WTR0100000002E2NM","properties":{"NF_ID":"WTR0100000002E2NM","admin_code":"12240","source_layer":"TN_RIVER_BNDRY","semantic":"zone","river_class":"국가하천","river_class_source":"중심선 공간조인","river_name":"영산강","river_code":"5000010","survey_method":"사진측량"},"geometry":{"type":"Polygon","coordinates":[[[126.82258,35.12889],[126.81981,35.12797],[126.8196,35.12856],[126.82237,35.12925],[126.82258,35.12889]]]}},{"type":"Feature","id":"TN_RIVER_BNDRY:WTR0100000002E2ON","properties":{"NF_ID":"WTR0100000002E2ON","admin_code":"12240","source_layer":"TN_RIVER_BNDRY","semantic":"zone","river_class":"국가하천","river_class_source":"중심선 공간조인","river_name":"영산강","river_code":"5000010","survey_method":"사진측량"},"geometry":{"type":"Polygon","coordinates":[[[126.82466,35.13442],[126.82426,35.13427],[126.82416,35.13437],[126.82291,35.13322],[126.8223,35.13208],[126.82191,35.13046],[126.82237,35.12925],[126.8196,35.12856],[126.81904,35.1291],[126.81832,35.12886],[126.8189,35.12909],[126.81833,35.13006],[126.81802,35.1312],[126.81809,35.13203],[126.81854,35.13312],[126.8198,35.1342],[126.82215,35.13577],[126.8219,35.13599],[126.82223,35.13585],[126.82258,35.13613],[126.82466,35.13442]]]}},{"type":"Feature","id":"TN_RIVER_BNDRY:WTR0100000002E7MQ","properties":{"NF_ID":"WTR0100000002E7MQ","admin_code":"12240","source_layer":"TN_RIVER_BNDRY","semantic":"zone","river_class":"소하천","river_class_source":"중심선 공간조인","survey_method":"사진측량"},"geometry":{"type":"Polygon","coordinates":[[[126.82328,35.09801],[126.82358,35.09729],[126.82393,35.09702],[126.82379,35.09678],[126.8227,35.09693],[126.82193,35.09775],[126.82188,35.09807],[126.82205,35.09773],[126.82212,35.09799],[126.82292,35.09814],[126.82328,35.09801]]]}},{"type":"Feature","id":"TN_RIVER_BNDRY:WTR0100000002EBU2","properties":{"NF_ID":"WTR0100000002EBU2","admin_code":"12240","source_layer":"TN_RIVER_BNDRY","semantic":"zone","river_class":"국가하천","river_class_source":"중심선 공간조인","river_name":"영산강","river_code":"5000010","survey_method":"사진측량"},"geometry":{"type":"Polygon","coordinates":[[[126.80405,35.09419],[126.7975,35.09547],[126.79775,35.09659],[126.79761,35.09651],[126.79753,35.09799],[126.80511,35.09958],[126.8045,35.09574],[126.80405,35.09419]]]}},{"type":"Feature","id":"TN_RIVER_BNDRY:WTR0100000002ED9J","properties":{"NF_ID":"WTR0100000002ED9J","admin_code":"12240","source_layer":"TN_RIVER_BNDRY","semantic":"zone","river_class":"소하천","river_class_source":"중심선 공간조인","survey_method":"사진측량"},"geometry":{"type":"Polygon","coordinates":[[[126.81689,35.10398],[126.80687,35.09908],[126.80633,35.09803],[126.80678,35.09756],[126.80636,35.09744],[126.80636,35.09653],[126.8044,35.09414],[126.80403,35.09412],[126.80429,35.09416],[126.80623,35.09656],[126.80621,35.09678],[126.80554,35.09684],[126.80562,35.09755],[126.80631,35.09804],[126.80684,35.0991],[126.81689,35.10398]]]}},{"type":"Feature","id":"TN_RIVER_BNDRY:WTR0100000002EDAK","properties":{"NF_ID":"WTR0100000002EDAK","admin_code":"12240","source_layer":"TN_RIVER_BNDRY","semantic":"zone","river_class":"소하천","river_class_source":"중심선 공간조인","survey_method":"사진측량"},"geometry":{"type":"Polygon","coordinates":[[[126.81689,35.10398],[126.81702,35.104],[126.81848,35.10191],[126.81963,35.10196],[126.82057,35.10147],[126.82156,35.09947],[126.82055,35.10145],[126.81964,35.10193],[126.81843,35.10183],[126.81689,35.10398]]]}},{"type":"Feature","id":"TN_RIVER_BNDRY:WTR0100000002EDFP","properties":{"NF_ID":"WTR0100000002EDFP","admin_code":"12240","source_layer":"TN_RIVER_BNDRY","semantic":"zone","river_class":"국가하천","river_class_source":"중심선 공간조인","river_name":"영산강","river_code":"5000010","survey_method":"사진측량"},"geometry":{"type":"Polygon","coordinates":[[[126.82581,35.11516],[126.82327,35.1116],[126.82273,35.11127],[126.82217,35.11058],[126.82142,35.1104],[126.81835,35.1081],[126.81626,35.11138],[126.81766,35.11224],[126.81915,35.1137],[126.82113,35.11673],[126.82581,35.11516]]]}},{"type":"Feature","id":"TN_RIVER_BNDRY:WTR0100000002EDGQ","properties":{"NF_ID":"WTR0100000002EDGQ","admin_code":"12240","source_layer":"TN_RIVER_BNDRY","semantic":"zone","river_class":"국가하천","river_class_source":"중심선 공간조인","river_name":"영산강","river_code":"5000010","survey_method":"사진측량"},"geometry":{"type":"Polygon","coordinates":[[[126.82617,35.11596],[126.82581,35.11516],[126.82113,35.11673],[126.82151,35.11762],[126.82617,35.11596]]]}},{"type":"Feature","id":"TN_RIVER_BNDRY:WTR0100000002EDIS","properties":{"NF_ID":"WTR0100000002EDIS","admin_code":"12240","source_layer":"TN_RIVER_BNDRY","semantic":"zone","river_class":"국가하천","river_class_source":"중심선 공간조인","river_name":"영산강","river_code":"5000010","survey_method":"사진측량"},"geometry":{"type":"Polygon","coordinates":[[[126.82668,35.11838],[126.82656,35.11722],[126.82617,35.11596],[126.82151,35.11762],[126.82174,35.11866],[126.82668,35.11838]]]}},{"type":"Feature","id":"TN_RIVER_BNDRY:WTR0100000002EDJT","properties":{"NF_ID":"WTR0100000002EDJT","admin_code":"12240","source_layer":"TN_RIVER_BNDRY","semantic":"zone","river_class":"국가하천","river_class_source":"중심선 공간조인","river_name":"영산강","river_code":"5000010","survey_method":"사진측량"},"geometry":{"type":"Polygon","coordinates":[[[126.82667,35.11866],[126.82668,35.11838],[126.82174,35.11866],[126.82667,35.11866]]]}},{"type":"Feature","id":"TN_RIVER_BNDRY:WTR0100000002EDNX","properties":{"NF_ID":"WTR0100000002EDNX","admin_code":"12240","source_layer":"TN_RIVER_BNDRY","semantic":"zone","river_class":"국가하천","river_class_source":"중심선 공간조인","river_name":"영산강","river_code":"5000010","survey_method":"사진측량"},"geometry":{"type":"Polygon","coordinates":[[[126.82667,35.11866],[126.82175,35.11869],[126.82202,35.11874],[126.82217,35.11901],[126.8218,35.12157],[126.82026,35.12573],[126.81981,35.12797],[126.82258,35.12889],[126.8262,35.12076],[126.82651,35.11988],[126.82667,35.11866]]]}},{"type":"Feature","id":"TN_RIVER_BNDRY:WTR0100000002EDOY","properties":{"NF_ID":"WTR0100000002EDOY","admin_code":"12240","source_layer":"TN_RIVER_BNDRY","semantic":"zone","river_class":"지방하천","river_class_source":"중심선 공간조인","river_name":"세하천","river_code":"5020270","survey_method":"사진측량"},"geometry":{"type":"Polygon","coordinates":[[[126.83169,35.13027],[126.83194,35.13032],[126.83374,35.12908],[126.83597,35.12819],[126.83821,35.12304],[126.84381,35.12075],[126.8472,35.1178],[126.84711,35.11773],[126.84664,35.11806],[126.84378,35.12052],[126.83803,35.12289],[126.83584,35.12799],[126.83346,35.12902],[126.83169,35.13027]]]}},{"type":"Feature","id":"TN_RIVER_BNDRY:WTR0100000002EDPZ","properties":{"NF_ID":"WTR0100000002EDPZ","admin_code":"12240","source_layer":"TN_RIVER_BNDRY","semantic":"zone","river_class":"지방하천","river_class_source":"중심선 공간조인","river_name":"서창천","river_code":"5020260","survey_method":"사진측량"},"geometry":{"type":"Polygon","coordinates":[[[126.83166,35.13048],[126.83169,35.13027],[126.82258,35.12889],[126.82237,35.12925],[126.83166,35.13048]]]}},{"type":"Feature","id":"TN_RIVER_BNDRY:WTR0100000002EDZ9","properties":{"NF_ID":"WTR0100000002EDZ9","admin_code":"12240","source_layer":"TN_RIVER_BNDRY","semantic":"zone","river_class":"국가하천","river_class_source":"중심선 공간조인","river_name":"영산강","river_code":"5000010","survey_method":"사진측량"},"geometry":{"type":"Polygon","coordinates":[[[126.82695,35.15461],[126.82437,35.15409],[126.82689,35.15476],[126.82695,35.15461]]]}},{"type":"Feature","id":"TN_RIVER_BNDRY:WTR0100000002EE1C","properties":{"NF_ID":"WTR0100000002EE1C","admin_code":"12240","source_layer":"TN_RIVER_BNDRY","semantic":"zone","river_class":"국가하천","river_class_source":"중심선 공간조인","river_name":"영산강","river_code":"5000010","survey_method":"사진측량"},"geometry":{"type":"Polygon","coordinates":[[[126.82746,35.16431],[126.82655,35.16213],[126.82612,35.15982],[126.825,35.15994],[126.82302,35.16055],[126.82261,35.16143],[126.8241,35.16499],[126.82746,35.16431]]]}}]}