{"type":"FeatureCollection","features":[{"type":"Feature","id":"TN_RIVER_BT:WTR0200000000IZNM","properties":{"NF_ID":"WTR0200000000IZNM","admin_code":"12850","source_layer":"TN_RIVER_BT","semantic":"channel","river_class":"등급미확인","survey_method":"사진측량"},"geometry":{"type":"Polygon","coordinates":[[[127.04872,34.32654],[127.0487,34.32653],[127.04868,34.32653],[127.04867,34.32654],[127.04869,34.32656],[127.04873,34.32655],[127.04872,34.32654]]]}},{"type":"Feature","id":"TN_RIVER_BT:WTR0200000000IZON","properties":{"NF_ID":"WTR0200000000IZON","admin_code":"12850","source_layer":"TN_RIVER_BT","semantic":"channel","river_class":"소하천","river_class_source":"중심선 공간조인","survey_method":"사진측량"},"geometry":{"type":"Polygon","coordinates":[[[127.04954,34.32647],[127.0495,34.32646],[127.04951,34.32647],[127.04952,34.32647],[127.04953,34.32648],[127.04953,34.32649],[127.04953,34.3265],[127.04953,34.32651],[127.04953,34.32651],[127.04956,34.32651],[127.04967,34.32653],[127.04973,34.32655],[127.04978,34.32657],[127.04982,34.32659],[127.04986,34.32661],[127.04994,34.32663],[127.04995,34.3266],[127.04992,34.32659],[127.04989,34.32658],[127.04984,34.32656],[127.04976,34.32652],[127.04972,34.32651],[127.04954,34.32647]]]}},{"type":"Feature","id":"TN_RIVER_BT:WTR0200000000IZPO","properties":{"NF_ID":"WTR0200000000IZPO","admin_code":"12850","source_layer":"TN_RIVER_BT","semantic":"channel","river_class":"소하천","river_class_source":"중심선 공간조인","survey_method":"사진측량"},"geometry":{"type":"Polygon","coordinates":[[[127.0605,34.33953],[127.0586,34.33943],[127.05777,34.33863],[127.05849,34.33945],[127.0605,34.33953]]]}},{"type":"Feature","id":"TN_RIVER_BT:WTR0200000000IZQP","properties":{"NF_ID":"WTR0200000000IZQP","admin_code":"12850","source_layer":"TN_RIVER_BT","semantic":"channel","river_class":"소하천","river_class_source":"중심선 공간조인","survey_method":"사진측량"},"geometry":{"type":"Polygon","coordinates":[[[127.03262,34.34439],[127.03261,34.34439],[127.0326,34.34439],[127.03258,34.34438],[127.03256,34.34438],[127.03252,34.34436],[127.03249,34.34435],[127.03248,34.34435],[127.03247,34.34434],[127.03246,34.34433],[127.03245,34.34432],[127.03245,34.34431],[127.03242,34.34439],[127.03246,34.3444],[127.0325,34.3444],[127.03251,34.3444],[127.03253,34.34441],[127.03255,34.34441],[127.03259,34.34443],[127.0326,34.34443],[127.03262,34.34444],[127.03262,34.34444],[127.03262,34.34444],[127.03264,34.3444],[127.03264,34.34439],[127.03262,34.34439]]]}},{"type":"Feature","id":"TN_RIVER_BT:WTR0200000000IZRQ","properties":{"NF_ID":"WTR0200000000IZRQ","admin_code":"12850","source_layer":"TN_RIVER_BT","semantic":"channel","river_class":"소하천","river_class_source":"중심선 공간조인","survey_method":"사진측량"},"geometry":{"type":"Polygon","coordinates":[[[127.03297,34.34483],[127.03377,34.34345],[127.03663,34.34316],[127.03377,34.34334],[127.03288,34.34476],[127.0326,34.34459],[127.0337,34.34537],[127.03448,34.34693],[127.03483,34.34853],[127.03459,34.34716],[127.03397,34.34579],[127.03368,34.34528],[127.03297,34.34483]]]}},{"type":"Feature","id":"TN_RIVER_BT:WTR0200000000IZTS","properties":{"NF_ID":"WTR0200000000IZTS","admin_code":"12850","source_layer":"TN_RIVER_BT","semantic":"channel","river_class":"소하천","river_class_source":"중심선 공간조인","survey_method":"사진측량"},"geometry":{"type":"Polygon","coordinates":[[[127.05793,34.35299],[127.0576,34.35305],[127.05961,34.3538],[127.05793,34.35299]]]}},{"type":"Feature","id":"TN_RIVER_BT:WTR0200000000IZUT","properties":{"NF_ID":"WTR0200000000IZUT","admin_code":"12850","source_layer":"TN_RIVER_BT","semantic":"channel","river_class":"소하천","river_class_source":"중심선 공간조인","survey_method":"사진측량"},"geometry":{"type":"Polygon","coordinates":[[[127.07295,34.35629],[127.07286,34.35627],[127.07285,34.35631],[127.07287,34.35633],[127.07312,34.35641],[127.07329,34.35646],[127.07342,34.35648],[127.0736,34.35651],[127.07373,34.35653],[127.07381,34.35654],[127.07389,34.35655],[127.07396,34.35657],[127.07399,34.35659],[127.074,34.35652],[127.07383,34.35651],[127.07376,34.35651],[127.07365,34.35649],[127.07352,34.35647],[127.0734,34.35646],[127.07336,34.35646],[127.07332,34.35644],[127.07317,34.3564],[127.07298,34.35634],[127.07295,34.35632],[127.07295,34.35632],[127.07295,34.35629]]]}},{"type":"Feature","id":"TN_RIVER_BT:WTR0200000000IZVU","properties":{"NF_ID":"WTR0200000000IZVU","admin_code":"12850","source_layer":"TN_RIVER_BT","semantic":"channel","river_class":"소하천","river_class_source":"중심선 공간조인","survey_method":"사진측량"},"geometry":{"type":"Polygon","coordinates":[[[127.03645,34.36762],[127.03641,34.36752],[127.0364,34.36753],[127.03639,34.36754],[127.03637,34.36754],[127.03636,34.36754],[127.03639,34.36767],[127.03642,34.36771],[127.03642,34.36771],[127.03643,34.36771],[127.03644,34.36772],[127.03638,34.36788],[127.03633,34.36797],[127.03624,34.3681],[127.03612,34.36828],[127.03603,34.36842],[127.03599,34.36845],[127.03599,34.36846],[127.03598,34.36848],[127.03596,34.3685],[127.03594,34.36853],[127.03592,34.36855],[127.03591,34.36857],[127.03591,34.36858],[127.03591,34.36859],[127.03591,34.3686],[127.03592,34.36862],[127.03593,34.36863],[127.03594,34.36865],[127.03594,34.36867],[127.03594,34.36869],[127.03594,34.36871],[127.03594,34.36873],[127.03594,34.36875],[127.03594,34.36878],[127.03593,34.3688],[127.03592,34.36882],[127.03591,34.36884],[127.0359,34.36886],[127.03588,34.36888],[127.03587,34.36889],[127.03585,34.3689],[127.03581,34.36893],[127.0358,34.36895],[127.03578,34.36896],[127.03576,34.36898],[127.03576,34.369],[127.03576,34.36901],[127.03576,34.36901],[127.03579,34.369],[127.03581,34.36899],[127.03582,34.36899],[127.03583,34.36896],[127.03583,34.36895],[127.03586,34.36893],[127.03587,34.36891],[127.03589,34.3689],[127.03591,34.36888],[127.03592,34.36886],[127.03594,34.36884],[127.03595,34.36882],[127.03595,34.36879],[127.03596,34.36877],[127.03596,34.36874],[127.03597,34.36872],[127.03597,34.36869],[127.03596,34.36867],[127.03596,34.36864],[127.03595,34.36862],[127.03594,34.3686],[127.03594,34.36859],[127.03594,34.36858],[127.03595,34.36856],[127.03596,34.36854],[127.03598,34.36852],[127.03601,34.36849],[127.03602,34.36847],[127.03603,34.36847],[127.03605,34.36843],[127.03613,34.3683],[127.03614,34.36827],[127.03625,34.36813],[127.03634,34.36799],[127.03641,34.36789],[127.03645,34.36777],[127.0365,34.36764],[127.0365,34.36764],[127.03649,34.36763],[127.03648,34.36763],[127.03646,34.36762],[127.03645,34.36762]]]}},{"type":"Feature","id":"TN_RIVER_BT:WTR0200000000IZWV","properties":{"NF_ID":"WTR0200000000IZWV","admin_code":"12850","source_layer":"TN_RIVER_BT","semantic":"channel","river_class":"소하천","river_class_source":"중심선 공간조인","survey_method":"사진측량"},"geometry":{"type":"Polygon","coordinates":[[[127.03584,34.36944],[127.03582,34.36944],[127.0358,34.36944],[127.0358,34.36945],[127.0358,34.36948],[127.0358,34.3695],[127.0358,34.36952],[127.0358,34.36954],[127.03579,34.36959],[127.03579,34.36961],[127.03579,34.36963],[127.03578,34.36966],[127.03578,34.36968],[127.03577,34.36969],[127.03576,34.36971],[127.03575,34.36973],[127.03574,34.36975],[127.03573,34.36977],[127.03573,34.36979],[127.03571,34.36986],[127.03571,34.36988],[127.03571,34.3699],[127.0357,34.36992],[127.03569,34.36997],[127.03568,34.36999],[127.03567,34.37001],[127.03567,34.37001],[127.03568,34.37],[127.03568,34.37],[127.03569,34.36999],[127.03569,34.36998],[127.0357,34.36998],[127.0357,34.36998],[127.0357,34.36997],[127.03571,34.36997],[127.03571,34.36997],[127.03571,34.36997],[127.03571,34.36997],[127.03572,34.36997],[127.03572,34.36996],[127.03572,34.36994],[127.03573,34.36992],[127.03573,34.3699],[127.03574,34.36988],[127.03574,34.36986],[127.03575,34.36981],[127.03575,34.36979],[127.03576,34.36977],[127.03576,34.36975],[127.03577,34.36974],[127.03578,34.36972],[127.03579,34.3697],[127.0358,34.36968],[127.03581,34.36966],[127.03581,34.36964],[127.03582,34.36962],[127.03582,34.3696],[127.03582,34.36956],[127.03583,34.36953],[127.03583,34.36951],[127.03583,34.36949],[127.03583,34.36947],[127.03583,34.36945],[127.03584,34.36944]]]}},{"type":"Feature","id":"TN_RIVER_BT:WTR0200000000IZXW","properties":{"NF_ID":"WTR0200000000IZXW","admin_code":"12850","source_layer":"TN_RIVER_BT","semantic":"channel","river_class":"소하천","river_class_source":"중심선 공간조인","survey_method":"사진측량"},"geometry":{"type":"Polygon","coordinates":[[[127.0276,34.37115],[127.02867,34.37113],[127.02788,34.37102],[127.02902,34.36475],[127.02843,34.36381],[127.0289,34.36488],[127.02754,34.36475],[127.02888,34.36494],[127.02823,34.36843],[127.02637,34.36823],[127.02819,34.36849],[127.02797,34.36984],[127.02681,34.36985],[127.02795,34.36991],[127.02775,34.37101],[127.02742,34.37112],[127.0276,34.37115]]]}},{"type":"Feature","id":"TN_RIVER_BT:WTR0200000000IZYX","properties":{"NF_ID":"WTR0200000000IZYX","admin_code":"12850","source_layer":"TN_RIVER_BT","semantic":"channel","river_class":"소하천","river_class_source":"중심선 공간조인","survey_method":"사진측량"},"geometry":{"type":"Polygon","coordinates":[[[127.02826,34.37167],[127.02827,34.37164],[127.02826,34.37165],[127.02824,34.37165],[127.02822,34.37165],[127.0282,34.37164],[127.02817,34.37176],[127.02825,34.37179],[127.02825,34.37178],[127.02825,34.37176],[127.02826,34.37174],[127.02826,34.3717],[127.02826,34.37167]]]}},{"type":"Feature","id":"TN_RIVER_BT:WTR0200000000IZZY","properties":{"NF_ID":"WTR0200000000IZZY","admin_code":"12850","source_layer":"TN_RIVER_BT","semantic":"channel","river_class":"소하천","river_class_source":"중심선 공간조인","survey_method":"사진측량"},"geometry":{"type":"Polygon","coordinates":[[[127.07962,34.42062],[127.07959,34.42062],[127.07958,34.42063],[127.07963,34.42063],[127.07964,34.42064],[127.07971,34.42073],[127.07972,34.42072],[127.07972,34.4207],[127.07973,34.42069],[127.07964,34.42063],[127.07962,34.42062]]]}},{"type":"Feature","id":"TN_RIVER_BT:WTR0200000000J001","properties":{"NF_ID":"WTR0200000000J001","admin_code":"12850","source_layer":"TN_RIVER_BT","semantic":"channel","river_class":"소하천","river_class_source":"중심선 공간조인","survey_method":"사진측량"},"geometry":{"type":"Polygon","coordinates":[[[127.06197,34.42172],[127.0617,34.42122],[127.06112,34.4212],[127.06178,34.42019],[127.06224,34.42031],[127.06342,34.42142],[127.06405,34.4226],[127.0635,34.4214],[127.06247,34.42031],[127.06139,34.42],[127.06156,34.42012],[127.061,34.42117],[127.06248,34.42216],[127.06283,34.42292],[127.06257,34.42221],[127.06197,34.42172]],[[127.06136,34.42133],[127.06137,34.42133],[127.06139,34.42134],[127.06142,34.42135],[127.06144,34.42137],[127.06145,34.42137],[127.06147,34.42137],[127.0615,34.42137],[127.06154,34.42136],[127.06157,34.42136],[127.06161,34.42135],[127.06164,34.42135],[127.06164,34.42136],[127.06165,34.42137],[127.06165,34.42139],[127.06164,34.42141],[127.06164,34.42143],[127.06165,34.42145],[127.06166,34.42147],[127.06168,34.4215],[127.06169,34.42151],[127.0617,34.42152],[127.06173,34.42152],[127.06173,34.42153],[127.06176,34.42157],[127.06178,34.42159],[127.06181,34.42161],[127.06183,34.42164],[127.06186,34.42165],[127.06188,34.42167],[127.06188,34.42168],[127.06189,34.42168],[127.06189,34.42169],[127.06188,34.4217],[127.06187,34.4217],[127.06186,34.4217],[127.06184,34.4217],[127.06181,34.42169],[127.06179,34.42167],[127.06176,34.42165],[127.06173,34.42163],[127.06171,34.4216],[127.06169,34.42158],[127.06166,34.42156],[127.06163,34.42154],[127.06161,34.42154],[127.06155,34.42151],[127.06152,34.4215],[127.06148,34.42149],[127.06145,34.42148],[127.06143,34.42146],[127.06142,34.42145],[127.06135,34.42139],[127.06134,34.42137],[127.06134,34.42135],[127.06134,34.42135],[127.06134,34.42134],[127.06135,34.42133],[127.06136,34.42133]]]}},{"type":"Feature","id":"TN_RIVER_BT:WTR0200000000J034","properties":{"NF_ID":"WTR0200000000J034","admin_code":"12850","source_layer":"TN_RIVER_BT","semantic":"channel","river_class":"소하천","river_class_source":"중심선 공간조인","survey_method":"사진측량"},"geometry":{"type":"Polygon","coordinates":[[[127.06498,34.43111],[127.06672,34.43088],[127.06489,34.43107],[127.06329,34.43082],[127.06011,34.42693],[127.06123,34.42616],[127.05885,34.42742],[127.0585,34.42727],[127.05885,34.42755],[127.06004,34.42698],[127.06322,34.43088],[127.06498,34.43111]]]}},{"type":"Feature","id":"TN_RIVER_BT:WTR0200000000J078","properties":{"NF_ID":"WTR0200000000J078","admin_code":"12850","source_layer":"TN_RIVER_BT","semantic":"channel","river_class":"소하천","river_class_source":"중심선 공간조인","survey_method":"사진측량"},"geometry":{"type":"Polygon","coordinates":[[[127.05082,34.43927],[127.0508,34.43858],[127.04903,34.43791],[127.04864,34.43686],[127.04954,34.43456],[127.04932,34.43322],[127.05162,34.42979],[127.05136,34.4299],[127.04882,34.42777],[127.04818,34.42771],[127.04765,34.42787],[127.04876,34.42779],[127.05129,34.42991],[127.0491,34.43319],[127.04926,34.4346],[127.04854,34.43691],[127.04883,34.43797],[127.05071,34.43871],[127.0509,34.43897],[127.05051,34.43953],[127.05082,34.43927]]]}},{"type":"Feature","id":"TN_RIVER_BT:WTR0200000000J09A","properties":{"NF_ID":"WTR0200000000J09A","admin_code":"12850","source_layer":"TN_RIVER_BT","semantic":"channel","river_class":"소하천","river_class_source":"중심선 공간조인","survey_method":"사진측량"},"geometry":{"type":"Polygon","coordinates":[[[127.0509,34.44421],[127.05261,34.4436],[127.05496,34.44319],[127.05674,34.44189],[127.05845,34.44131],[127.0589,34.44059],[127.06002,34.43972],[127.05887,34.44057],[127.05847,34.44123],[127.05679,34.44181],[127.05494,34.44313],[127.0523,34.44362],[127.05066,34.44421],[127.04945,34.4438],[127.05023,34.44418],[127.0509,34.44421]]]}},{"type":"Feature","id":"TN_RIVER_BT:WTR0200000000J0BC","properties":{"NF_ID":"WTR0200000000J0BC","admin_code":"12850","source_layer":"TN_RIVER_BT","semantic":"channel","river_class":"소하천","river_class_source":"중심선 공간조인","survey_method":"사진측량"},"geometry":{"type":"Polygon","coordinates":[[[127.05259,34.45065],[127.05258,34.45064],[127.05256,34.45064],[127.05256,34.45065],[127.05255,34.45066],[127.05255,34.45067],[127.05255,34.45069],[127.05255,34.45072],[127.05255,34.45073],[127.05255,34.45076],[127.05256,34.45078],[127.05258,34.45081],[127.05259,34.45082],[127.05261,34.45085],[127.05263,34.45087],[127.05264,34.4509],[127.05264,34.45092],[127.05265,34.45094],[127.05265,34.45096],[127.05265,34.451],[127.05264,34.45102],[127.05264,34.45104],[127.05264,34.45104],[127.05263,34.45107],[127.05263,34.45108],[127.05262,34.45112],[127.05264,34.45112],[127.05264,34.4511],[127.05265,34.45107],[127.05266,34.45104],[127.05266,34.45103],[127.05267,34.451],[127.05267,34.45098],[127.05268,34.45096],[127.05268,34.45094],[127.05267,34.45092],[127.05267,34.45089],[127.05265,34.45085],[127.05264,34.45083],[127.05263,34.45082],[127.05262,34.4508],[127.05261,34.45078],[127.0526,34.45077],[127.05259,34.45075],[127.05257,34.45072],[127.05257,34.4507],[127.05258,34.45068],[127.05259,34.45066],[127.05259,34.45065],[127.05259,34.45065]]]}},{"type":"Feature","id":"TN_RIVER_BT:WTR0200000000J0CD","properties":{"NF_ID":"WTR0200000000J0CD","admin_code":"12850","source_layer":"TN_RIVER_BT","semantic":"channel","river_class":"소하천","river_class_source":"중심선 공간조인","survey_method":"사진측량"},"geometry":{"type":"Polygon","coordinates":[[[127.03254,34.4513],[127.0328,34.45127],[127.03225,34.45114],[127.03203,34.45042],[127.03222,34.45114],[127.03254,34.4513]]]}},{"type":"Feature","id":"TN_RIVER_BT:WTR0200000000JWTQ","properties":{"NF_ID":"WTR0200000000JWTQ","admin_code":"12850","source_layer":"TN_RIVER_BT","semantic":"channel","river_class":"등급미확인","survey_method":"사진측량"},"geometry":{"type":"Polygon","coordinates":[[[126.89937,34.15623],[126.89939,34.15623],[126.89941,34.15623],[126.89942,34.15624],[126.89943,34.15625],[126.89945,34.15619],[126.89942,34.15619],[126.89937,34.15618],[126.89934,34.15618],[126.89932,34.15618],[126.89929,34.15625],[126.89932,34.15624],[126.89934,34.15623],[126.89937,34.15623]]]}},{"type":"Feature","id":"TN_RIVER_BT:WTR0200000000JWUR","properties":{"NF_ID":"WTR0200000000JWUR","admin_code":"12850","source_layer":"TN_RIVER_BT","semantic":"channel","river_class":"소하천","river_class_source":"중심선 공간조인","survey_method":"사진측량"},"geometry":{"type":"Polygon","coordinates":[[[126.89558,34.16196],[126.8959,34.16177],[126.89576,34.16135],[126.89623,34.16063],[126.89671,34.16038],[126.89669,34.15995],[126.89736,34.15975],[126.89737,34.15929],[126.89766,34.15902],[126.89803,34.15911],[126.89841,34.15888],[126.8987,34.15801],[126.89914,34.15773],[126.89889,34.15731],[126.89925,34.15636],[126.89883,34.15733],[126.89906,34.15774],[126.89867,34.15793],[126.8983,34.15891],[126.89768,34.15897],[126.89732,34.15931],[126.89733,34.1597],[126.89661,34.15996],[126.89664,34.16038],[126.89618,34.16061],[126.89573,34.16131],[126.89576,34.16182],[126.89476,34.16207],[126.89551,34.16195],[126.89555,34.16222],[126.89511,34.16248],[126.89511,34.16291],[126.89558,34.16196]]]}},{"type":"Feature","id":"TN_RIVER_BT:WTR0200000000JWVS","properties":{"NF_ID":"WTR0200000000JWVS","admin_code":"12850","source_layer":"TN_RIVER_BT","semantic":"channel","river_class":"소하천","river_class_source":"중심선 공간조인","survey_method":"사진측량"},"geometry":{"type":"Polygon","coordinates":[[[126.87258,34.16394],[126.87212,34.16392],[126.87255,34.16395],[126.87379,34.16491],[126.87258,34.16394]]]}},{"type":"Feature","id":"TN_RIVER_BT:WTR0200000000JWWT","properties":{"NF_ID":"WTR0200000000JWWT","admin_code":"12850","source_layer":"TN_RIVER_BT","semantic":"channel","river_class":"소하천","river_class_source":"중심선 공간조인","survey_method":"사진측량"},"geometry":{"type":"Polygon","coordinates":[[[126.87859,34.16785],[126.87911,34.16787],[126.87874,34.16778],[126.87722,34.16821],[126.8754,34.16934],[126.87753,34.1681],[126.87859,34.16785]]]}},{"type":"Feature","id":"TN_RIVER_BT:WTR0200000000JWXU","properties":{"NF_ID":"WTR0200000000JWXU","admin_code":"12850","source_layer":"TN_RIVER_BT","semantic":"channel","river_class":"소하천","river_class_source":"중심선 공간조인","survey_method":"사진측량"},"geometry":{"type":"Polygon","coordinates":[[[126.86973,34.16834],[126.87044,34.16889],[126.87081,34.16891],[126.86975,34.16828],[126.86961,34.16662],[126.86867,34.16619],[126.86959,34.16673],[126.86964,34.16829],[126.86939,34.16926],[126.86966,34.16968],[126.8695,34.17028],[126.87005,34.17117],[126.86954,34.17022],[126.86972,34.1697],[126.86948,34.1693],[126.86952,34.16866],[126.86973,34.16834]]]}},{"type":"Feature","id":"TN_RIVER_BT:WTR0200000000JWYV","properties":{"NF_ID":"WTR0200000000JWYV","admin_code":"12850","source_layer":"TN_RIVER_BT","semantic":"channel","river_class":"소하천","river_class_source":"중심선 공간조인","survey_method":"사진측량"},"geometry":{"type":"Polygon","coordinates":[[[126.85905,34.18219],[126.85886,34.18203],[126.85884,34.18205],[126.85889,34.1821],[126.85911,34.18229],[126.85942,34.18257],[126.85944,34.18255],[126.85944,34.18254],[126.85926,34.18237],[126.85905,34.18219]]]}},{"type":"Feature","id":"TN_RIVER_BT:WTR0200000000JWZW","properties":{"NF_ID":"WTR0200000000JWZW","admin_code":"12850","source_layer":"TN_RIVER_BT","semantic":"channel","river_class":"소하천","river_class_source":"중심선 공간조인","survey_method":"사진측량"},"geometry":{"type":"Polygon","coordinates":[[[126.85979,34.18306],[126.85977,34.18303],[126.85975,34.18304],[126.85978,34.18307],[126.85978,34.18308],[126.85978,34.18308],[126.85979,34.18307],[126.85979,34.18307],[126.85979,34.18307],[126.85979,34.18306]]]}},{"type":"Feature","id":"TN_RIVER_BT:WTR0200000000JX0Y","properties":{"NF_ID":"WTR0200000000JX0Y","admin_code":"12850","source_layer":"TN_RIVER_BT","semantic":"channel","river_class":"소하천","river_class_source":"중심선 공간조인","survey_method":"사진측량"},"geometry":{"type":"Polygon","coordinates":[[[126.90686,34.18436],[126.90701,34.1842],[126.90652,34.18382],[126.90652,34.18318],[126.90619,34.18291],[126.90394,34.18243],[126.90372,34.18186],[126.9039,34.18122],[126.90354,34.1803],[126.90445,34.17892],[126.90419,34.17781],[126.90452,34.17688],[126.90533,34.17657],[126.90555,34.17624],[126.90507,34.17488],[126.90461,34.17437],[126.90479,34.17324],[126.90533,34.1726],[126.90627,34.17212],[126.90636,34.17131],[126.90682,34.17104],[126.90635,34.17129],[126.90634,34.17182],[126.90601,34.17224],[126.90528,34.17259],[126.90474,34.17328],[126.90459,34.17438],[126.9055,34.17582],[126.9055,34.17628],[126.90527,34.17656],[126.90458,34.17672],[126.90414,34.17779],[126.90446,34.17864],[126.90352,34.18027],[126.90388,34.18122],[126.90381,34.18241],[126.90276,34.18157],[126.90162,34.18118],[126.8998,34.17923],[126.89881,34.17934],[126.89852,34.17864],[126.8963,34.17818],[126.8938,34.17876],[126.89335,34.17926],[126.89214,34.17973],[126.89118,34.17967],[126.8891,34.18015],[126.88812,34.18092],[126.88691,34.18134],[126.88618,34.18199],[126.88539,34.18202],[126.88507,34.18256],[126.88345,34.18257],[126.88508,34.18259],[126.88538,34.18207],[126.88622,34.18202],[126.88692,34.18137],[126.88818,34.18092],[126.88937,34.18008],[126.89121,34.17968],[126.89219,34.17974],[126.89339,34.17928],[126.89384,34.17881],[126.89643,34.17823],[126.89842,34.17869],[126.89878,34.17935],[126.89976,34.17927],[126.90035,34.18016],[126.90095,34.18039],[126.90134,34.18107],[126.90292,34.1818],[126.90367,34.1827],[126.90602,34.18299],[126.90644,34.18423],[126.90686,34.18436]]]}},{"type":"Feature","id":"TN_RIVER_BT:WTR0200000000JX1Z","properties":{"NF_ID":"WTR0200000000JX1Z","admin_code":"12850","source_layer":"TN_RIVER_BT","semantic":"channel","river_class":"소하천","river_class_source":"중심선 공간조인","survey_method":"사진측량"},"geometry":{"type":"Polygon","coordinates":[[[126.86374,34.19348],[126.86417,34.19353],[126.86436,34.19317],[126.86542,34.19257],[126.86551,34.19198],[126.86532,34.1926],[126.8641,34.19348],[126.86371,34.19345],[126.86298,34.19387],[126.86263,34.19443],[126.86195,34.19471],[126.86267,34.19452],[126.8629,34.19397],[126.86374,34.19348]]]}},{"type":"Feature","id":"TN_RIVER_BT:WTR0200000000JX20","properties":{"NF_ID":"WTR0200000000JX20","admin_code":"12850","source_layer":"TN_RIVER_BT","semantic":"channel","river_class":"소하천","river_class_source":"중심선 공간조인","survey_method":"사진측량"},"geometry":{"type":"Polygon","coordinates":[[[126.87044,34.20045],[126.87095,34.20055],[126.87159,34.20016],[126.87242,34.20021],[126.87286,34.19978],[126.87242,34.2002],[126.87162,34.20013],[126.87108,34.2005],[126.87032,34.20052],[126.87044,34.20109],[126.87003,34.20205],[126.8702,34.20334],[126.87005,34.20205],[126.87048,34.20115],[126.87044,34.20045]]]}},{"type":"Feature","id":"TN_RIVER_BT:WTR0200000000JX31","properties":{"NF_ID":"WTR0200000000JX31","admin_code":"12850","source_layer":"TN_RIVER_BT","semantic":"channel","river_class":"소하천","river_class_source":"중심선 공간조인","survey_method":"사진측량"},"geometry":{"type":"Polygon","coordinates":[[[126.90329,34.20476],[126.90364,34.2046],[126.90262,34.20464],[126.90329,34.20476]]]}},{"type":"Feature","id":"TN_RIVER_BT:WTR0200000000JX42","properties":{"NF_ID":"WTR0200000000JX42","admin_code":"12850","source_layer":"TN_RIVER_BT","semantic":"channel","river_class":"소하천","river_class_source":"중심선 공간조인","survey_method":"사진측량"},"geometry":{"type":"Polygon","coordinates":[[[126.89005,34.20766],[126.89165,34.20719],[126.89334,34.2072],[126.89492,34.2065],[126.89605,34.20654],[126.89689,34.20616],[126.89802,34.20605],[126.90081,34.20427],[126.90338,34.20395],[126.90381,34.20457],[126.90368,34.20364],[126.90274,34.20316],[126.90264,34.20268],[126.90228,34.20237],[126.90108,34.20157],[126.90058,34.20152],[126.90033,34.2009],[126.89889,34.19976],[126.89952,34.2002],[126.89972,34.20065],[126.90032,34.20094],[126.90054,34.20152],[126.90107,34.20161],[126.90265,34.20272],[126.90272,34.2032],[126.90356,34.20357],[126.90359,34.20391],[126.90083,34.20417],[126.8992,34.20509],[126.89861,34.20578],[126.8977,34.20608],[126.89697,34.20605],[126.89587,34.20649],[126.89485,34.20644],[126.89332,34.20715],[126.89169,34.20714],[126.88989,34.20763],[126.88738,34.20589],[126.88685,34.20468],[126.8862,34.20432],[126.88617,34.20286],[126.8868,34.20178],[126.8866,34.20174],[126.88611,34.20285],[126.88622,34.20441],[126.88676,34.20467],[126.88732,34.2059],[126.88925,34.20741],[126.89005,34.20766]]]}},{"type":"Feature","id":"TN_RIVER_BT:WTR0200000000JX53","properties":{"NF_ID":"WTR0200000000JX53","admin_code":"12850","source_layer":"TN_RIVER_BT","semantic":"channel","river_class":"소하천","river_class_source":"중심선 공간조인","survey_method":"사진측량"},"geometry":{"type":"Polygon","coordinates":[[[126.51874,34.12576],[126.51829,34.12662],[126.51829,34.12741],[126.51975,34.12855],[126.51979,34.12837],[126.51832,34.12743],[126.51832,34.12664],[126.51874,34.12576]]]}},{"type":"Feature","id":"TN_RIVER_BT:WTR0200000000JX64","properties":{"NF_ID":"WTR0200000000JX64","admin_code":"12850","source_layer":"TN_RIVER_BT","semantic":"channel","river_class":"소하천","river_class_source":"중심선 공간조인","survey_method":"사진측량"},"geometry":{"type":"Polygon","coordinates":[[[126.51625,34.12938],[126.5165,34.12927],[126.51595,34.12934],[126.51563,34.12906],[126.51625,34.12938]]]}},{"type":"Feature","id":"TN_RIVER_BT:WTR0200000000JX75","properties":{"NF_ID":"WTR0200000000JX75","admin_code":"12850","source_layer":"TN_RIVER_BT","semantic":"channel","river_class":"소하천","river_class_source":"중심선 공간조인","survey_method":"사진측량"},"geometry":{"type":"Polygon","coordinates":[[[126.66272,34.14737],[126.66382,34.14717],[126.66581,34.14594],[126.66653,34.1447],[126.66659,34.14366],[126.66777,34.1425],[126.66713,34.14288],[126.66618,34.14419],[126.66601,34.14423],[126.66596,34.14385],[126.66611,34.14425],[126.66654,34.14371],[126.66663,34.14418],[126.66579,34.1459],[126.66376,34.14718],[126.66243,34.14735],[126.66083,34.14682],[126.66042,34.14647],[126.65692,34.14617],[126.65553,34.14534],[126.6552,34.14549],[126.65548,34.14535],[126.65695,34.14621],[126.66029,34.14646],[126.66086,34.14687],[126.66272,34.14737]]]}},{"type":"Feature","id":"TN_RIVER_BT:WTR0200000000JX86","properties":{"NF_ID":"WTR0200000000JX86","admin_code":"12850","source_layer":"TN_RIVER_BT","semantic":"channel","river_class":"소하천","river_class_source":"중심선 공간조인","survey_method":"사진측량"},"geometry":{"type":"Polygon","coordinates":[[[126.57337,34.16166],[126.57333,34.16162],[126.57323,34.16169],[126.57322,34.1617],[126.57328,34.16175],[126.57328,34.16175],[126.57327,34.16173],[126.57337,34.16166]]]}},{"type":"Feature","id":"TN_RIVER_BT:WTR0200000000JX97","properties":{"NF_ID":"WTR0200000000JX97","admin_code":"12850","source_layer":"TN_RIVER_BT","semantic":"channel","river_class":"소하천","river_class_source":"중심선 공간조인","survey_method":"사진측량"},"geometry":{"type":"Polygon","coordinates":[[[126.57679,34.16164],[126.57471,34.15968],[126.57608,34.16106],[126.57454,34.16216],[126.57614,34.16113],[126.57729,34.16221],[126.57679,34.16164]]]}},{"type":"Feature","id":"TN_RIVER_BT:WTR0200000000JXA8","properties":{"NF_ID":"WTR0200000000JXA8","admin_code":"12850","source_layer":"TN_RIVER_BT","semantic":"channel","river_class":"등급미확인","survey_method":"사진측량"},"geometry":{"type":"Polygon","coordinates":[[[126.53459,34.16569],[126.5346,34.16565],[126.5346,34.16562],[126.5346,34.1656],[126.5346,34.16557],[126.5346,34.16555],[126.53461,34.16549],[126.53461,34.16543],[126.53461,34.16541],[126.53461,34.16537],[126.53461,34.16536],[126.53461,34.16534],[126.5346,34.16533],[126.53459,34.16532],[126.53458,34.16533],[126.53457,34.16534],[126.53457,34.16537],[126.53455,34.16542],[126.53455,34.16546],[126.53454,34.16552],[126.53453,34.16556],[126.53451,34.16562],[126.5345,34.16565],[126.5345,34.16566],[126.53451,34.16566],[126.53453,34.16566],[126.53455,34.16566],[126.53457,34.16566],[126.53458,34.16567],[126.53459,34.16568],[126.53459,34.16569]]]}},{"type":"Feature","id":"TN_RIVER_BT:WTR0200000000JXB9","properties":{"NF_ID":"WTR0200000000JXB9","admin_code":"12850","source_layer":"TN_RIVER_BT","semantic":"channel","river_class":"소하천","river_class_source":"중심선 공간조인","survey_method":"사진측량"},"geometry":{"type":"Polygon","coordinates":[[[126.53408,34.16675],[126.53461,34.16632],[126.53461,34.16587],[126.53447,34.16633],[126.53391,34.16673],[126.53408,34.16675]]]}},{"type":"Feature","id":"TN_RIVER_BT:WTR0200000000JXCA","properties":{"NF_ID":"WTR0200000000JXCA","admin_code":"12850","source_layer":"TN_RIVER_BT","semantic":"channel","river_class":"지방하천","river_class_source":"중심선 공간조인","river_name":"부황천","river_code":"4121400","survey_method":"사진측량"},"geometry":{"type":"Polygon","coordinates":[[[126.55705,34.16526],[126.55626,34.1644],[126.55487,34.16355],[126.55444,34.1622],[126.55369,34.1614],[126.5535,34.16018],[126.55217,34.15864],[126.55165,34.15681],[126.55079,34.15589],[126.55007,34.15417],[126.54953,34.15393],[126.54819,34.15394],[126.54732,34.15371],[126.54508,34.15254],[126.54392,34.15239],[126.54312,34.15162],[126.54413,34.14952],[126.54454,34.14949],[126.54493,34.14909],[126.54479,34.14852],[126.54509,34.14802],[126.54564,34.14757],[126.54605,34.14754],[126.54559,34.14748],[126.54507,34.148],[126.5447,34.14851],[126.54484,34.14914],[126.54371,34.14702],[126.54469,34.14923],[126.5441,34.14948],[126.54401,34.15002],[126.54298,34.15142],[126.54206,34.15077],[126.54078,34.1505],[126.53958,34.14967],[126.53942,34.14871],[126.53772,34.14838],[126.53769,34.14852],[126.5384,34.14846],[126.53943,34.14882],[126.53947,34.14967],[126.54085,34.15056],[126.54195,34.15078],[126.54388,34.15246],[126.54507,34.15265],[126.54634,34.15339],[126.54792,34.15394],[126.54958,34.154],[126.55002,34.1542],[126.55065,34.15584],[126.55148,34.15677],[126.55207,34.15867],[126.55345,34.16037],[126.55357,34.16139],[126.55437,34.16228],[126.55479,34.1637],[126.55616,34.1646],[126.55745,34.16595],[126.55781,34.16758],[126.55806,34.16752],[126.55773,34.16613],[126.55705,34.16526]]]}},{"type":"Feature","id":"TN_RIVER_BT:WTR0200000000JXDB","properties":{"NF_ID":"WTR0200000000JXDB","admin_code":"12850","source_layer":"TN_RIVER_BT","semantic":"channel","river_class":"소하천","river_class_source":"중심선 공간조인","survey_method":"사진측량"},"geometry":{"type":"Polygon","coordinates":[[[126.55457,34.16837],[126.55464,34.16829],[126.55468,34.16824],[126.55471,34.16823],[126.55471,34.16823],[126.55473,34.16824],[126.55485,34.16828],[126.55486,34.16825],[126.55475,34.16821],[126.55473,34.1682],[126.55472,34.1682],[126.55467,34.16822],[126.55465,34.16823],[126.55458,34.16834],[126.55457,34.16834],[126.55456,34.16835],[126.55454,34.16834],[126.55453,34.16834],[126.55452,34.16834],[126.55451,34.16835],[126.55451,34.16836],[126.55453,34.16838],[126.55454,34.16839],[126.55454,34.16839],[126.55455,34.16839],[126.55456,34.16838],[126.55457,34.16837]]]}},{"type":"Feature","id":"TN_RIVER_BT:WTR0200000000JXEC","properties":{"NF_ID":"WTR0200000000JXEC","admin_code":"12850","source_layer":"TN_RIVER_BT","semantic":"channel","river_class":"소하천","river_class_source":"중심선 공간조인","survey_method":"사진측량"},"geometry":{"type":"Polygon","coordinates":[[[126.55414,34.16948],[126.55224,34.16936],[126.55049,34.16858],[126.5522,34.16939],[126.55414,34.16948]]]}},{"type":"Feature","id":"TN_RIVER_BT:WTR0200000000JXFD","properties":{"NF_ID":"WTR0200000000JXFD","admin_code":"12850","source_layer":"TN_RIVER_BT","semantic":"channel","river_class":"소하천","river_class_source":"중심선 공간조인","survey_method":"사진측량"},"geometry":{"type":"Polygon","coordinates":[[[126.52438,34.17163],[126.52503,34.17182],[126.5243,34.17152],[126.52461,34.17112],[126.52458,34.17131],[126.52418,34.17126],[126.5242,34.17173],[126.5247,34.17254],[126.52438,34.17163]]]}},{"type":"Feature","id":"TN_RIVER_BT:WTR0200000000JXGE","properties":{"NF_ID":"WTR0200000000JXGE","admin_code":"12850","source_layer":"TN_RIVER_BT","semantic":"channel","river_class":"소하천","river_class_source":"중심선 공간조인","survey_method":"사진측량"},"geometry":{"type":"Polygon","coordinates":[[[126.6571,34.17284],[126.65734,34.17351],[126.6567,34.17431],[126.65738,34.17348],[126.6571,34.17284]]]}},{"type":"Feature","id":"TN_RIVER_BT:WTR0200000000JXHF","properties":{"NF_ID":"WTR0200000000JXHF","admin_code":"12850","source_layer":"TN_RIVER_BT","semantic":"channel","river_class":"소하천","river_class_source":"중심선 공간조인","survey_method":"사진측량"},"geometry":{"type":"Polygon","coordinates":[[[126.53079,34.1749],[126.53125,34.17458],[126.53123,34.17361],[126.53123,34.17453],[126.53081,34.17486],[126.5285,34.17424],[126.52956,34.17469],[126.53079,34.1749]]]}},{"type":"Feature","id":"TN_RIVER_BT:WTR0200000000JXIG","properties":{"NF_ID":"WTR0200000000JXIG","admin_code":"12850","source_layer":"TN_RIVER_BT","semantic":"channel","river_class":"소하천","river_class_source":"중심선 공간조인","survey_method":"사진측량"},"geometry":{"type":"Polygon","coordinates":[[[126.6561,34.17473],[126.65604,34.17504],[126.65571,34.17517],[126.65575,34.17573],[126.65522,34.17675],[126.65465,34.17749],[126.6547,34.17818],[126.6557,34.17958],[126.65473,34.17815],[126.65468,34.17748],[126.65576,34.17578],[126.65573,34.1752],[126.6561,34.17505],[126.6561,34.17473]]]}},{"type":"Feature","id":"TN_RIVER_BT:WTR0200000000JXJH","properties":{"NF_ID":"WTR0200000000JXJH","admin_code":"12850","source_layer":"TN_RIVER_BT","semantic":"channel","river_class":"소하천","river_class_source":"중심선 공간조인","survey_method":"사진측량"},"geometry":{"type":"Polygon","coordinates":[[[126.60954,34.18308],[126.60952,34.18294],[126.60949,34.18295],[126.60951,34.18309],[126.60951,34.18309],[126.60955,34.18308],[126.60954,34.18308],[126.60954,34.18308],[126.60954,34.18308]]]}},{"type":"Feature","id":"TN_RIVER_BT:WTR0200000000JXKI","properties":{"NF_ID":"WTR0200000000JXKI","admin_code":"12850","source_layer":"TN_RIVER_BT","semantic":"channel","river_class":"소하천","river_class_source":"중심선 공간조인","survey_method":"사진측량"},"geometry":{"type":"Polygon","coordinates":[[[126.57644,34.18559],[126.57561,34.18416],[126.57626,34.18323],[126.57769,34.18233],[126.57914,34.18189],[126.58007,34.18186],[126.58109,34.18221],[126.58211,34.18207],[126.58253,34.1818],[126.58105,34.18218],[126.58008,34.18184],[126.57916,34.18186],[126.57771,34.18227],[126.57623,34.18322],[126.57554,34.18415],[126.57644,34.18559]]]}},{"type":"Feature","id":"TN_RIVER_BT:WTR0200000000JXLJ","properties":{"NF_ID":"WTR0200000000JXLJ","admin_code":"12850","source_layer":"TN_RIVER_BT","semantic":"channel","river_class":"소하천","river_class_source":"중심선 공간조인","survey_method":"사진측량"},"geometry":{"type":"Polygon","coordinates":[[[126.57691,34.18644],[126.5769,34.18644],[126.57689,34.18644],[126.57688,34.18645],[126.57688,34.18646],[126.57691,34.18651],[126.57702,34.1867],[126.57709,34.18683],[126.57709,34.18684],[126.57709,34.18686],[126.57708,34.18688],[126.57711,34.1869],[126.57713,34.18688],[126.57713,34.18687],[126.57714,34.18686],[126.57714,34.18685],[126.57711,34.18678],[126.57697,34.18653],[126.57692,34.18645],[126.57691,34.18644]]]}},{"type":"Feature","id":"TN_RIVER_BT:WTR0200000000JXMK","properties":{"NF_ID":"WTR0200000000JXMK","admin_code":"12850","source_layer":"TN_RIVER_BT","semantic":"channel","river_class":"소하천","river_class_source":"중심선 공간조인","survey_method":"사진측량"},"geometry":{"type":"Polygon","coordinates":[[[126.58171,34.18752],[126.58372,34.18673],[126.58494,34.18679],[126.58514,34.18721],[126.58536,34.18717],[126.58494,34.18677],[126.58371,34.1867],[126.58163,34.18749],[126.5809,34.18613],[126.58188,34.18575],[126.58086,34.18611],[126.58029,34.18507],[126.57997,34.18443],[126.58083,34.1841],[126.58157,34.18392],[126.5832,34.18424],[126.58367,34.18396],[126.58318,34.18421],[126.58155,34.18389],[126.57997,34.18438],[126.57954,34.18366],[126.58171,34.18752]]]}},{"type":"Feature","id":"TN_RIVER_BT:WTR0200000000JXNL","properties":{"NF_ID":"WTR0200000000JXNL","admin_code":"12850","source_layer":"TN_RIVER_BT","semantic":"channel","river_class":"소하천","river_class_source":"중심선 공간조인","survey_method":"사진측량"},"geometry":{"type":"Polygon","coordinates":[[[126.57559,34.18829],[126.57537,34.18819],[126.57598,34.18717],[126.57666,34.18717],[126.57599,34.18708],[126.5753,34.18825],[126.57625,34.18858],[126.57559,34.18829]]]}},{"type":"Feature","id":"TN_RIVER_BT:WTR0200000000JXOM","properties":{"NF_ID":"WTR0200000000JXOM","admin_code":"12850","source_layer":"TN_RIVER_BT","semantic":"channel","river_class":"소하천","river_class_source":"중심선 공간조인","survey_method":"사진측량"},"geometry":{"type":"Polygon","coordinates":[[[126.58958,34.19115],[126.59086,34.19109],[126.59075,34.19087],[126.59067,34.19101],[126.58685,34.19117],[126.58895,34.19114],[126.58916,34.19138],[126.58927,34.19398],[126.58844,34.19914],[126.58939,34.19383],[126.58927,34.19129],[126.58958,34.19115]]]}},{"type":"Feature","id":"TN_RIVER_BT:WTR0200000000JXPN","properties":{"NF_ID":"WTR0200000000JXPN","admin_code":"12850","source_layer":"TN_RIVER_BT","semantic":"channel","river_class":"소하천","river_class_source":"중심선 공간조인","survey_method":"사진측량"},"geometry":{"type":"Polygon","coordinates":[[[126.51087,34.19859],[126.51105,34.19887],[126.51079,34.19957],[126.51109,34.19884],[126.51087,34.19859]]]}},{"type":"Feature","id":"TN_RIVER_BT:WTR0200000000JXQO","properties":{"NF_ID":"WTR0200000000JXQO","admin_code":"12850","source_layer":"TN_RIVER_BT","semantic":"channel","river_class":"소하천","river_class_source":"중심선 공간조인","survey_method":"사진측량"},"geometry":{"type":"Polygon","coordinates":[[[126.58055,34.20526],[126.58078,34.20525],[126.58101,34.20443],[126.58232,34.20346],[126.581,34.2044],[126.5808,34.20514],[126.58055,34.2051],[126.58055,34.20526]]]}},{"type":"Feature","id":"TN_RIVER_BT:WTR0200000000JXRP","properties":{"NF_ID":"WTR0200000000JXRP","admin_code":"12850","source_layer":"TN_RIVER_BT","semantic":"channel","river_class":"소하천","river_class_source":"중심선 공간조인","survey_method":"사진측량"},"geometry":{"type":"Polygon","coordinates":[[[126.5995,34.20204],[126.6006,34.20152],[126.60076,34.20161],[126.60329,34.19995],[126.60308,34.20008],[126.60304,34.19989],[126.60278,34.20033],[126.59938,34.20198],[126.59872,34.20192],[126.59669,34.20242],[126.59867,34.20196],[126.59937,34.20205],[126.59753,34.20804],[126.5995,34.20204]]]}},{"type":"Feature","id":"TN_RIVER_BT:WTR0200000000JXSQ","properties":{"NF_ID":"WTR0200000000JXSQ","admin_code":"12850","source_layer":"TN_RIVER_BT","semantic":"channel","river_class":"소하천","river_class_source":"중심선 공간조인","survey_method":"사진측량"},"geometry":{"type":"Polygon","coordinates":[[[126.60968,34.20155],[126.60888,34.20138],[126.6088,34.19874],[126.60862,34.19847],[126.60846,34.19864],[126.60881,34.20006],[126.60861,34.20144],[126.60959,34.20151],[126.60939,34.20996],[126.60968,34.20155]]]}},{"type":"Feature","id":"TN_RIVER_BT:WTR0200000000JXWU","properties":{"NF_ID":"WTR0200000000JXWU","admin_code":"12850","source_layer":"TN_RIVER_BT","semantic":"channel","river_class":"소하천","river_class_source":"중심선 공간조인","survey_method":"사진측량"},"geometry":{"type":"Polygon","coordinates":[[[126.85501,34.30877],[126.85437,34.30909],[126.85467,34.30994],[126.85443,34.30909],[126.85511,34.30888],[126.85501,34.30877]]]}},{"type":"Feature","id":"TN_RIVER_BT:WTR0200000000JXZX","properties":{"NF_ID":"WTR0200000000JXZX","admin_code":"12850","source_layer":"TN_RIVER_BT","semantic":"channel","river_class":"소하천","river_class_source":"중심선 공간조인","survey_method":"사진측량"},"geometry":{"type":"Polygon","coordinates":[[[126.88165,34.31357],[126.88161,34.31355],[126.88159,34.3136],[126.88162,34.31361],[126.88166,34.31363],[126.88169,34.31365],[126.88171,34.31369],[126.88172,34.3137],[126.88175,34.31371],[126.88179,34.31374],[126.88181,34.31375],[126.88185,34.31378],[126.88189,34.31387],[126.8819,34.31386],[126.88191,34.31382],[126.88191,34.31382],[126.8819,34.31379],[126.88188,34.31377],[126.88185,34.31373],[126.88184,34.31373],[126.88181,34.31372],[126.88175,34.3137],[126.88174,34.31369],[126.88172,34.31366],[126.88171,34.31362],[126.88169,34.31359],[126.88165,34.31357]]]}},{"type":"Feature","id":"TN_RIVER_BT:WTR0200000000JY0Z","properties":{"NF_ID":"WTR0200000000JY0Z","admin_code":"12850","source_layer":"TN_RIVER_BT","semantic":"channel","river_class":"소하천","river_class_source":"중심선 공간조인","survey_method":"사진측량"},"geometry":{"type":"Polygon","coordinates":[[[126.98458,34.31465],[126.98494,34.31304],[126.98557,34.31254],[126.98604,34.31177],[126.98686,34.3114],[126.98813,34.31029],[126.98946,34.31002],[126.98996,34.31038],[126.99036,34.31015],[126.98988,34.31031],[126.98949,34.31],[126.98883,34.31026],[126.98831,34.31018],[126.98682,34.31137],[126.98606,34.3117],[126.98476,34.31322],[126.98462,34.31451],[126.98438,34.31469],[126.98458,34.31465]]]}},{"type":"Feature","id":"TN_RIVER_BT:WTR0200000000JY10","properties":{"NF_ID":"WTR0200000000JY10","admin_code":"12850","source_layer":"TN_RIVER_BT","semantic":"channel","river_class":"소하천","river_class_source":"중심선 공간조인","survey_method":"사진측량"},"geometry":{"type":"Polygon","coordinates":[[[126.84349,34.32342],[126.84354,34.32339],[126.84356,34.32337],[126.84362,34.32331],[126.84363,34.32328],[126.84362,34.32325],[126.84362,34.32322],[126.8436,34.32317],[126.84357,34.3231],[126.84356,34.32306],[126.84356,34.32303],[126.84355,34.32292],[126.84355,34.32287],[126.84354,34.32288],[126.84354,34.32294],[126.84355,34.32309],[126.8436,34.3232],[126.8436,34.32324],[126.8436,34.32327],[126.84357,34.32331],[126.84354,34.32334],[126.84348,34.32338],[126.84346,34.32339],[126.84342,34.3234],[126.8434,34.32339],[126.8434,34.3234],[126.8434,34.3234],[126.8434,34.32342],[126.84338,34.32344],[126.84346,34.32343],[126.84349,34.32342]]]}},{"type":"Feature","id":"TN_RIVER_BT:WTR0200000000JY21","properties":{"NF_ID":"WTR0200000000JY21","admin_code":"12850","source_layer":"TN_RIVER_BT","semantic":"channel","river_class":"소하천","river_class_source":"중심선 공간조인","survey_method":"사진측량"},"geometry":{"type":"Polygon","coordinates":[[[126.97053,34.32525],[126.97089,34.32502],[126.9713,34.32509],[126.97102,34.32497],[126.97046,34.32523],[126.96929,34.32519],[126.96847,34.32476],[126.96742,34.32326],[126.96719,34.32205],[126.96631,34.32192],[126.96546,34.32099],[126.96554,34.32053],[126.96674,34.31995],[126.96744,34.31981],[126.96821,34.32005],[126.96892,34.31984],[126.96822,34.32],[126.96745,34.31977],[126.96683,34.31988],[126.96526,34.32066],[126.96295,34.32004],[126.96172,34.32009],[126.96096,34.32054],[126.95999,34.32022],[126.95955,34.3203],[126.96093,34.32061],[126.96173,34.32014],[126.96295,34.32008],[126.96507,34.32072],[126.96626,34.32194],[126.96712,34.32206],[126.96738,34.3233],[126.96847,34.3248],[126.96918,34.32519],[126.97053,34.32525]]]}},{"type":"Feature","id":"TN_RIVER_BT:WTR0200000000JY32","properties":{"NF_ID":"WTR0200000000JY32","admin_code":"12850","source_layer":"TN_RIVER_BT","semantic":"channel","river_class":"소하천","river_class_source":"중심선 공간조인","survey_method":"사진측량"},"geometry":{"type":"Polygon","coordinates":[[[126.81819,34.33049],[126.82033,34.32959],[126.82441,34.3284],[126.83089,34.32962],[126.82447,34.32827],[126.8202,34.32952],[126.81815,34.33041],[126.8164,34.33037],[126.81639,34.33004],[126.81604,34.32989],[126.81515,34.32871],[126.81658,34.32781],[126.81658,34.32753],[126.81607,34.32739],[126.81639,34.32785],[126.81509,34.32865],[126.81516,34.32907],[126.81637,34.33048],[126.81819,34.33049]]]}},{"type":"Feature","id":"TN_RIVER_BT:WTR0200000000JY43","properties":{"NF_ID":"WTR0200000000JY43","admin_code":"12850","source_layer":"TN_RIVER_BT","semantic":"channel","river_class":"소하천","river_class_source":"중심선 공간조인","survey_method":"사진측량"},"geometry":{"type":"Polygon","coordinates":[[[126.86582,34.33339],[126.86687,34.33268],[126.86874,34.33207],[126.87078,34.33107],[126.8723,34.3301],[126.87245,34.32837],[126.87288,34.32816],[126.87812,34.32801],[126.87852,34.3276],[126.87899,34.32609],[126.87851,34.32629],[126.87856,34.32728],[126.8781,34.32792],[126.87346,34.32803],[126.87248,34.32829],[126.87227,34.33006],[126.87071,34.33106],[126.86865,34.33207],[126.86685,34.33265],[126.86583,34.33335],[126.86512,34.3333],[126.86582,34.33339]]]}},{"type":"Feature","id":"TN_RIVER_BT:WTR0200000000JY54","properties":{"NF_ID":"WTR0200000000JY54","admin_code":"12850","source_layer":"TN_RIVER_BT","semantic":"channel","river_class":"소하천","river_class_source":"중심선 공간조인","survey_method":"사진측량"},"geometry":{"type":"Polygon","coordinates":[[[126.99632,34.32817],[126.99346,34.32693],[126.99626,34.32818],[126.99772,34.32967],[126.99841,34.33007],[126.99879,34.33086],[126.99941,34.33128],[126.99949,34.3334],[126.99844,34.33442],[126.99863,34.33451],[126.99951,34.3335],[126.9995,34.33137],[126.9988,34.33081],[126.99844,34.33006],[126.99632,34.32817]]]}},{"type":"Feature","id":"TN_RIVER_BT:WTR0200000000JY65","properties":{"NF_ID":"WTR0200000000JY65","admin_code":"12850","source_layer":"TN_RIVER_BT","semantic":"channel","river_class":"소하천","river_class_source":"중심선 공간조인","survey_method":"사진측량"},"geometry":{"type":"Polygon","coordinates":[[[126.76006,34.33461],[126.76006,34.3346],[126.76007,34.33461],[126.76007,34.3346],[126.76007,34.33458],[126.76006,34.33458],[126.76005,34.33458],[126.76003,34.3346],[126.75973,34.33489],[126.75975,34.33491],[126.7599,34.33475],[126.76004,34.33462],[126.76005,34.33461],[126.76006,34.33461]]]}},{"type":"Feature","id":"TN_RIVER_BT:WTR0200000000JY76","properties":{"NF_ID":"WTR0200000000JY76","admin_code":"12850","source_layer":"TN_RIVER_BT","semantic":"channel","river_class":"소하천","river_class_source":"중심선 공간조인","survey_method":"사진측량"},"geometry":{"type":"Polygon","coordinates":[[[126.85041,34.33624],[126.85174,34.33582],[126.85265,34.3349],[126.85265,34.33405],[126.85151,34.33303],[126.85107,34.32995],[126.85108,34.32921],[126.85184,34.32902],[126.85272,34.32824],[126.85143,34.32591],[126.85215,34.32429],[126.85215,34.32224],[126.85249,34.32159],[126.86001,34.3193],[126.86126,34.31921],[126.86196,34.3202],[126.86274,34.32046],[126.86358,34.32017],[126.86389,34.31955],[126.8633,34.32015],[126.86245,34.32028],[126.86203,34.32007],[126.86119,34.31896],[126.86066,34.31886],[126.85264,34.32143],[126.84873,34.32167],[126.85249,34.32148],[126.85206,34.32216],[126.85205,34.32431],[126.85136,34.32529],[126.85192,34.32483],[126.85134,34.3259],[126.85149,34.32644],[126.85188,34.32666],[126.85251,34.3277],[126.85265,34.32829],[126.85181,34.32897],[126.85102,34.32918],[126.85098,34.32963],[126.85146,34.33307],[126.85263,34.33414],[126.85256,34.33495],[126.85167,34.33581],[126.85014,34.33622],[126.84787,34.33572],[126.84727,34.33494],[126.84794,34.33578],[126.85041,34.33624]]]}},{"type":"Feature","id":"TN_RIVER_BT:WTR0200000000JY87","properties":{"NF_ID":"WTR0200000000JY87","admin_code":"12850","source_layer":"TN_RIVER_BT","semantic":"channel","river_class":"소하천","river_class_source":"중심선 공간조인","survey_method":"사진측량"},"geometry":{"type":"Polygon","coordinates":[[[126.98477,34.33793],[126.98528,34.33776],[126.98411,34.33789],[126.98295,34.33748],[126.98202,34.3367],[126.98196,34.33631],[126.98201,34.33675],[126.98296,34.33752],[126.98402,34.33791],[126.98477,34.33793]]]}},{"type":"Feature","id":"TN_RIVER_BT:WTR0200000000JY98","properties":{"NF_ID":"WTR0200000000JY98","admin_code":"12850","source_layer":"TN_RIVER_BT","semantic":"channel","river_class":"소하천","river_class_source":"중심선 공간조인","survey_method":"사진측량"},"geometry":{"type":"Polygon","coordinates":[[[126.83107,34.34371],[126.8318,34.34353],[126.83245,34.34365],[126.83265,34.3434],[126.83244,34.34361],[126.83184,34.34349],[126.83094,34.34369],[126.83,34.34348],[126.82945,34.3431],[126.82783,34.3411],[126.82587,34.33964],[126.82459,34.33955],[126.82416,34.3393],[126.82415,34.33841],[126.82401,34.3393],[126.82078,34.33922],[126.81907,34.33778],[126.82063,34.33919],[126.82047,34.33974],[126.82025,34.33993],[126.81986,34.33982],[126.81884,34.34023],[126.81801,34.34028],[126.81688,34.34102],[126.818,34.34033],[126.82001,34.33986],[126.82024,34.33997],[126.81969,34.34077],[126.82008,34.34124],[126.82079,34.34143],[126.82006,34.34117],[126.81977,34.34069],[126.82101,34.33926],[126.82411,34.33934],[126.82535,34.33974],[126.82577,34.33961],[126.8278,34.34114],[126.82944,34.34314],[126.82998,34.34352],[126.83107,34.34371]]]}},{"type":"Feature","id":"TN_RIVER_BT:WTR0200000000JYA9","properties":{"NF_ID":"WTR0200000000JYA9","admin_code":"12850","source_layer":"TN_RIVER_BT","semantic":"channel","river_class":"소하천","river_class_source":"중심선 공간조인","survey_method":"사진측량"},"geometry":{"type":"Polygon","coordinates":[[[126.90632,34.35777],[126.90701,34.35786],[126.90753,34.35747],[126.90739,34.35729],[126.90705,34.3578],[126.90624,34.35775],[126.90554,34.35824],[126.90632,34.35777]]]}},{"type":"Feature","id":"TN_RIVER_BT:WTR0200000000JYBA","properties":{"NF_ID":"WTR0200000000JYBA","admin_code":"12850","source_layer":"TN_RIVER_BT","semantic":"channel","river_class":"소하천","river_class_source":"중심선 공간조인","survey_method":"사진측량"},"geometry":{"type":"Polygon","coordinates":[[[126.92179,34.36433],[126.92153,34.36428],[126.92152,34.36428],[126.92147,34.36425],[126.92136,34.36423],[126.92131,34.36423],[126.9213,34.36423],[126.92126,34.36424],[126.92125,34.36425],[126.92125,34.36426],[126.92124,34.36427],[126.92125,34.36428],[126.92125,34.36429],[126.92127,34.3643],[126.92129,34.36431],[126.92132,34.36433],[126.92133,34.36434],[126.92134,34.36434],[126.92139,34.36434],[126.92155,34.36432],[126.92156,34.36432],[126.92165,34.36433],[126.92184,34.36436],[126.92192,34.36437],[126.92192,34.36435],[126.92191,34.36435],[126.92191,34.36435],[126.92186,34.36435],[126.92179,34.36433]]]}},{"type":"Feature","id":"TN_RIVER_BT:WTR0200000000JYCB","properties":{"NF_ID":"WTR0200000000JYCB","admin_code":"12850","source_layer":"TN_RIVER_BT","semantic":"channel","river_class":"소하천","river_class_source":"중심선 공간조인","survey_method":"사진측량"},"geometry":{"type":"Polygon","coordinates":[[[126.86975,34.36988],[126.86975,34.36988],[126.86961,34.37001],[126.86943,34.37045],[126.86945,34.37046],[126.86948,34.37046],[126.86951,34.37037],[126.86966,34.37001],[126.86976,34.36988],[126.86975,34.36988]]]}},{"type":"Feature","id":"TN_RIVER_BT:WTR0200000000JYDC","properties":{"NF_ID":"WTR0200000000JYDC","admin_code":"12850","source_layer":"TN_RIVER_BT","semantic":"channel","river_class":"소하천","river_class_source":"중심선 공간조인","survey_method":"사진측량"},"geometry":{"type":"Polygon","coordinates":[[[126.93287,34.37727],[126.93255,34.37719],[126.93319,34.37745],[126.93381,34.37894],[126.93373,34.37943],[126.93456,34.38117],[126.93376,34.37943],[126.93385,34.37892],[126.93339,34.37788],[126.93287,34.37727]]]}},{"type":"Feature","id":"TN_RIVER_BT:WTR0200000000JYED","properties":{"NF_ID":"WTR0200000000JYED","admin_code":"12850","source_layer":"TN_RIVER_BT","semantic":"channel","river_class":"소하천","river_class_source":"중심선 공간조인","survey_method":"사진측량"},"geometry":{"type":"Polygon","coordinates":[[[126.93458,34.38145],[126.93485,34.38226],[126.93564,34.38292],[126.93485,34.38222],[126.93458,34.38145]]]}},{"type":"Feature","id":"TN_RIVER_BT:WTR0200000000JYFE","properties":{"NF_ID":"WTR0200000000JYFE","admin_code":"12850","source_layer":"TN_RIVER_BT","semantic":"channel","river_class":"소하천","river_class_source":"중심선 공간조인","survey_method":"사진측량"},"geometry":{"type":"Polygon","coordinates":[[[126.88405,34.37375],[126.88418,34.37406],[126.88493,34.37443],[126.8856,34.3759],[126.88544,34.37717],[126.88604,34.37805],[126.88603,34.37872],[126.88635,34.37928],[126.88614,34.38032],[126.8867,34.3811],[126.88675,34.38202],[126.88806,34.38397],[126.88675,34.38199],[126.88671,34.38097],[126.88617,34.3803],[126.88639,34.37928],[126.88605,34.37869],[126.88607,34.37803],[126.88547,34.37715],[126.88566,34.37595],[126.88495,34.37439],[126.88405,34.37375]]]}},{"type":"Feature","id":"TN_RIVER_BT:WTR0200000000JYGF","properties":{"NF_ID":"WTR0200000000JYGF","admin_code":"12850","source_layer":"TN_RIVER_BT","semantic":"channel","river_class":"소하천","river_class_source":"중심선 공간조인","survey_method":"사진측량"},"geometry":{"type":"Polygon","coordinates":[[[126.88792,34.38436],[126.88798,34.38412],[126.88432,34.38318],[126.88537,34.38056],[126.87643,34.37806],[126.8787,34.37255],[126.86972,34.37002],[126.87007,34.3695],[126.86986,34.36831],[126.87005,34.36952],[126.86967,34.37004],[126.87001,34.37029],[126.86973,34.37067],[126.87044,34.37082],[126.87067,34.37046],[126.87851,34.37267],[126.87503,34.38125],[126.87513,34.38153],[126.87456,34.38217],[126.87344,34.38251],[126.87332,34.38336],[126.87212,34.38348],[126.87335,34.3834],[126.87347,34.38253],[126.87457,34.3822],[126.87515,34.38156],[126.87644,34.37811],[126.88527,34.3806],[126.88422,34.38319],[126.88787,34.38426],[126.8882,34.38523],[126.88792,34.38436]]]}},{"type":"Feature","id":"TN_RIVER_BT:WTR0200000000JYHG","properties":{"NF_ID":"WTR0200000000JYHG","admin_code":"12850","source_layer":"TN_RIVER_BT","semantic":"channel","river_class":"소하천","river_class_source":"중심선 공간조인","survey_method":"사진측량"},"geometry":{"type":"Polygon","coordinates":[[[126.93599,34.39117],[126.93587,34.39089],[126.93538,34.39124],[126.93095,34.39019],[126.93009,34.38677],[126.9313,34.38558],[126.93009,34.38661],[126.92974,34.38639],[126.92893,34.38651],[126.92815,34.38622],[126.92732,34.38643],[126.92615,34.38634],[126.92321,34.38695],[126.92635,34.38638],[126.9275,34.3865],[126.9282,34.38628],[126.92891,34.38656],[126.92987,34.38647],[126.93085,34.3901],[126.93058,34.39058],[126.93106,34.39028],[126.9345,34.39113],[126.93552,34.39129],[126.93592,34.39117],[126.93618,34.39203],[126.93599,34.39117]]]}},{"type":"Feature","id":"TN_RIVER_BT:WTR0200000000JYIH","properties":{"NF_ID":"WTR0200000000JYIH","admin_code":"12850","source_layer":"TN_RIVER_BT","semantic":"channel","river_class":"소하천","river_class_source":"중심선 공간조인","survey_method":"사진측량"},"geometry":{"type":"Polygon","coordinates":[[[126.90974,34.39273],[126.91078,34.39174],[126.91118,34.39167],[126.91153,34.39204],[126.91207,34.39181],[126.91151,34.39201],[126.91121,34.39165],[126.91076,34.39173],[126.90967,34.39273],[126.90894,34.39245],[126.90821,34.39141],[126.90718,34.39149],[126.90693,34.39125],[126.90583,34.391],[126.90525,34.39021],[126.90496,34.38872],[126.9042,34.38768],[126.90492,34.38873],[126.90523,34.39024],[126.9058,34.39101],[126.90691,34.39126],[126.90718,34.39151],[126.90817,34.39142],[126.90892,34.39246],[126.90974,34.39273]]]}},{"type":"Feature","id":"TN_RIVER_BT:WTR0200000000JYJI","properties":{"NF_ID":"WTR0200000000JYJI","admin_code":"12850","source_layer":"TN_RIVER_BT","semantic":"channel","river_class":"소하천","river_class_source":"중심선 공간조인","survey_method":"사진측량"},"geometry":{"type":"Polygon","coordinates":[[[126.8752,34.39266],[126.87512,34.3922],[126.87904,34.39065],[126.88073,34.38894],[126.87899,34.39064],[126.87509,34.39218],[126.87474,34.39152],[126.875,34.39248],[126.87482,34.39261],[126.8752,34.39266]]]}},{"type":"Feature","id":"TN_RIVER_BT:WTR0200000000JYKJ","properties":{"NF_ID":"WTR0200000000JYKJ","admin_code":"12850","source_layer":"TN_RIVER_BT","semantic":"channel","river_class":"소하천","river_class_source":"중심선 공간조인","survey_method":"사진측량"},"geometry":{"type":"Polygon","coordinates":[[[126.82928,34.39299],[126.8353,34.39298],[126.83595,34.39271],[126.83658,34.39193],[126.83644,34.39187],[126.83579,34.39263],[126.83519,34.39284],[126.82087,34.39281],[126.82087,34.39298],[126.82928,34.39299]]]}},{"type":"Feature","id":"TN_RIVER_BT:WTR0200000000JYLK","properties":{"NF_ID":"WTR0200000000JYLK","admin_code":"12850","source_layer":"TN_RIVER_BT","semantic":"channel","river_class":"소하천","river_class_source":"중심선 공간조인","survey_method":"사진측량"},"geometry":{"type":"Polygon","coordinates":[[[126.90265,34.39491],[126.90264,34.39481],[126.90263,34.39481],[126.90263,34.39491],[126.90265,34.39491],[126.90265,34.39491]]]}},{"type":"Feature","id":"TN_RIVER_BT:WTR0200000000JYML","properties":{"NF_ID":"WTR0200000000JYML","admin_code":"12850","source_layer":"TN_RIVER_BT","semantic":"channel","river_class":"소하천","river_class_source":"중심선 공간조인","survey_method":"사진측량"},"geometry":{"type":"Polygon","coordinates":[[[126.89118,34.397],[126.8915,34.39663],[126.89202,34.39663],[126.89189,34.39643],[126.89101,34.39699],[126.88837,34.39567],[126.89118,34.397]]]}},{"type":"Feature","id":"TN_RIVER_BT:WTR0200000000JYON","properties":{"NF_ID":"WTR0200000000JYON","admin_code":"12850","source_layer":"TN_RIVER_BT","semantic":"channel","river_class":"소하천","river_class_source":"중심선 공간조인","survey_method":"사진측량"},"geometry":{"type":"Polygon","coordinates":[[[126.78293,34.38617],[126.78007,34.38358],[126.77955,34.38199],[126.77932,34.38253],[126.77987,34.38348],[126.77917,34.38248],[126.77883,34.38263],[126.77835,34.38243],[126.77616,34.38329],[126.77353,34.38669],[126.77615,34.38336],[126.7774,34.38292],[126.77769,34.38262],[126.77921,34.38281],[126.77933,34.38303],[126.77886,34.38324],[126.7794,34.38308],[126.78226,34.38591],[126.77771,34.3919],[126.78232,34.38593],[126.78641,34.38941],[126.78957,34.39537],[126.78999,34.39655],[126.78986,34.39674],[126.79025,34.39687],[126.78674,34.38958],[126.78293,34.38617]]]}},{"type":"Feature","id":"TN_RIVER_BT:WTR0200000000JYPO","properties":{"NF_ID":"WTR0200000000JYPO","admin_code":"12850","source_layer":"TN_RIVER_BT","semantic":"channel","river_class":"소하천","river_class_source":"중심선 공간조인","survey_method":"사진측량"},"geometry":{"type":"Polygon","coordinates":[[[126.90259,34.39779],[126.90272,34.39694],[126.9033,34.39692],[126.9027,34.39692],[126.90266,34.39532],[126.90258,34.39779],[126.90039,34.39765],[126.90028,34.3951],[126.90034,34.39765],[126.89986,34.39764],[126.90251,34.39798],[126.90259,34.39779]]]}},{"type":"Feature","id":"TN_RIVER_BT:WTR0200000000JYQP","properties":{"NF_ID":"WTR0200000000JYQP","admin_code":"12850","source_layer":"TN_RIVER_BT","semantic":"channel","river_class":"소하천","river_class_source":"중심선 공간조인","survey_method":"사진측량"},"geometry":{"type":"Polygon","coordinates":[[[126.80016,34.39954],[126.79994,34.39945],[126.79991,34.39967],[126.8,34.39948],[126.80057,34.39968],[126.80016,34.39954]]]}},{"type":"Feature","id":"TN_RIVER_BT:WTR0200000000JYRQ","properties":{"NF_ID":"WTR0200000000JYRQ","admin_code":"12850","source_layer":"TN_RIVER_BT","semantic":"channel","river_class":"등급미확인","survey_method":"사진측량"},"geometry":{"type":"Polygon","coordinates":[[[126.85401,34.40517],[126.85401,34.40516],[126.85401,34.40516],[126.85399,34.40516],[126.85398,34.40516],[126.85397,34.40516],[126.85395,34.40516],[126.85393,34.40516],[126.85392,34.40516],[126.85391,34.40516],[126.85387,34.40514],[126.85385,34.40514],[126.8538,34.40513],[126.85378,34.40513],[126.85376,34.40513],[126.85375,34.40513],[126.85374,34.40513],[126.85373,34.40513],[126.85375,34.40517],[126.85376,34.40518],[126.85377,34.40519],[126.85379,34.4052],[126.85387,34.40523],[126.8539,34.40523],[126.85393,34.40524],[126.85394,34.40524],[126.85396,34.40523],[126.85398,34.40522],[126.854,34.40522],[126.85401,34.4052],[126.85401,34.40519],[126.85401,34.40518],[126.85401,34.40517],[126.85401,34.40517]]]}},{"type":"Feature","id":"TN_RIVER_BT:WTR0200000000JYSR","properties":{"NF_ID":"WTR0200000000JYSR","admin_code":"12850","source_layer":"TN_RIVER_BT","semantic":"channel","river_class":"소하천","river_class_source":"중심선 공간조인","survey_method":"사진측량"},"geometry":{"type":"Polygon","coordinates":[[[126.85417,34.40599],[126.85445,34.40599],[126.85433,34.4053],[126.85389,34.4054],[126.85314,34.40502],[126.85296,34.40481],[126.85328,34.40496],[126.85314,34.40479],[126.85246,34.40449],[126.85238,34.40385],[126.85223,34.40422],[126.85244,34.40453],[126.85415,34.40574],[126.85412,34.40588],[126.85346,34.40569],[126.85306,34.40582],[126.85276,34.40548],[126.85279,34.40573],[126.8537,34.40574],[126.85417,34.40599]]]}},{"type":"Feature","id":"TN_RIVER_BT:WTR0200000000JYTS","properties":{"NF_ID":"WTR0200000000JYTS","admin_code":"12850","source_layer":"TN_RIVER_BT","semantic":"channel","river_class":"소하천","river_class_source":"중심선 공간조인","survey_method":"사진측량"},"geometry":{"type":"Polygon","coordinates":[[[126.8478,34.40831],[126.84766,34.40819],[126.84853,34.40642],[126.84749,34.4082],[126.8478,34.40831]]]}},{"type":"Feature","id":"TN_RIVER_BT:WTR0200000000JYUT","properties":{"NF_ID":"WTR0200000000JYUT","admin_code":"12850","source_layer":"TN_RIVER_BT","semantic":"channel","river_class":"소하천","river_class_source":"중심선 공간조인","survey_method":"사진측량"},"geometry":{"type":"Polygon","coordinates":[[[126.7944,34.40898],[126.79438,34.40897],[126.79435,34.40898],[126.79437,34.40904],[126.79438,34.40907],[126.79439,34.40909],[126.7944,34.40911],[126.79442,34.40914],[126.79447,34.40917],[126.79454,34.40921],[126.79454,34.40919],[126.79454,34.40916],[126.79454,34.40913],[126.79455,34.40911],[126.79456,34.40911],[126.7945,34.40905],[126.79449,34.40904],[126.79447,34.40903],[126.79446,34.40902],[126.79444,34.40901],[126.79443,34.409],[126.7944,34.40898]]]}},{"type":"Feature","id":"TN_RIVER_BT:WTR0200000000JYVU","properties":{"NF_ID":"WTR0200000000JYVU","admin_code":"12850","source_layer":"TN_RIVER_BT","semantic":"channel","river_class":"지방하천","river_class_source":"중심선 공간조인","river_name":"청용천","river_code":"4121140","survey_method":"사진측량"},"geometry":{"type":"Polygon","coordinates":[[[126.82377,34.41903],[126.8211,34.41734],[126.81943,34.41558],[126.81845,34.41328],[126.81733,34.41174],[126.81774,34.41055],[126.81919,34.40911],[126.82087,34.4065],[126.82219,34.40509],[126.82177,34.40443],[126.81928,34.40327],[126.81831,34.4014],[126.81827,34.40003],[126.81824,34.40144],[126.81923,34.40338],[126.82164,34.40446],[126.82205,34.40508],[126.82071,34.40641],[126.81904,34.40898],[126.81757,34.41043],[126.81663,34.41266],[126.81604,34.41327],[126.81092,34.41423],[126.80881,34.4122],[126.80782,34.4117],[126.80642,34.41158],[126.80559,34.41182],[126.80355,34.41072],[126.80219,34.4104],[126.80123,34.40959],[126.80037,34.4102],[126.7989,34.41005],[126.79786,34.41084],[126.79728,34.41086],[126.79784,34.41089],[126.79889,34.41009],[126.80033,34.41024],[126.80127,34.40964],[126.80225,34.41045],[126.80357,34.41077],[126.80565,34.41189],[126.80644,34.4116],[126.80766,34.41169],[126.80865,34.41219],[126.81083,34.41434],[126.80795,34.41685],[126.80745,34.41764],[126.81088,34.41453],[126.81602,34.41352],[126.817,34.41299],[126.81801,34.41508],[126.82068,34.41841],[126.82236,34.41946],[126.82349,34.41981],[126.82371,34.42129],[126.8235,34.41921],[126.82377,34.41903]]]}},{"type":"Feature","id":"TN_RIVER_BT:WTR0200000000JYWV","properties":{"NF_ID":"WTR0200000000JYWV","admin_code":"12850","source_layer":"TN_RIVER_BT","semantic":"channel","river_class":"소하천","river_class_source":"중심선 공간조인","survey_method":"사진측량"},"geometry":{"type":"Polygon","coordinates":[[[126.79326,34.42493],[126.7919,34.42466],[126.79369,34.42521],[126.79326,34.42493]]]}},{"type":"Feature","id":"TN_RIVER_BT:WTR0200000000JYXW","properties":{"NF_ID":"WTR0200000000JYXW","admin_code":"12850","source_layer":"TN_RIVER_BT","semantic":"channel","river_class":"소하천","river_class_source":"중심선 공간조인","survey_method":"사진측량"},"geometry":{"type":"Polygon","coordinates":[[[126.8425,34.4261],[126.84296,34.42532],[126.84229,34.42605],[126.84146,34.42588],[126.8425,34.4261]]]}},{"type":"Feature","id":"TN_RIVER_BT:WTR0200000000JYYX","properties":{"NF_ID":"WTR0200000000JYYX","admin_code":"12850","source_layer":"TN_RIVER_BT","semantic":"channel","river_class":"소하천","river_class_source":"중심선 공간조인","survey_method":"사진측량"},"geometry":{"type":"Polygon","coordinates":[[[126.82034,34.42959],[126.82181,34.42938],[126.82287,34.42893],[126.82339,34.42838],[126.82497,34.42899],[126.82613,34.42691],[126.82627,34.42587],[126.82705,34.42505],[126.82698,34.4243],[126.82769,34.42252],[126.82594,34.42226],[126.82566,34.42273],[126.82593,34.42248],[126.82746,34.42268],[126.82757,34.42292],[126.82686,34.42422],[126.82694,34.42501],[126.82606,34.42605],[126.82607,34.42688],[126.82491,34.42892],[126.82338,34.42834],[126.82287,34.42888],[126.82175,34.42936],[126.81939,34.42956],[126.82034,34.42959]]]}},{"type":"Feature","id":"TN_RIVER_BT:WTR0200000000K057","properties":{"NF_ID":"WTR0200000000K057","admin_code":"12850","source_layer":"TN_RIVER_BT","semantic":"channel","river_class":"소하천","river_class_source":"중심선 공간조인","survey_method":"사진측량"},"geometry":{"type":"Polygon","coordinates":[[[126.74457,34.29639],[126.74408,34.29611],[126.74373,34.29623],[126.74457,34.29639]]]}},{"type":"Feature","id":"TN_RIVER_BT:WTR0200000000K079","properties":{"NF_ID":"WTR0200000000K079","admin_code":"12850","source_layer":"TN_RIVER_BT","semantic":"channel","river_class":"소하천","river_class_source":"중심선 공간조인","river_name":"망석천","survey_method":"사진측량"},"geometry":{"type":"Polygon","coordinates":[[[126.74231,34.30254],[126.7449,34.30393],[126.74526,34.30375],[126.74661,34.3039],[126.74717,34.30362],[126.74931,34.30395],[126.74717,34.3036],[126.74656,34.30389],[126.74525,34.30372],[126.74495,34.30392],[126.74251,34.30253],[126.74145,34.30238],[126.73825,34.3026],[126.73709,34.30247],[126.73818,34.30261],[126.7414,34.30239],[126.74226,34.30256],[126.74348,34.30438],[126.74339,34.30573],[126.7435,34.30436],[126.74231,34.30254]]]}},{"type":"Feature","id":"TN_RIVER_BT:WTR0200000000K08A","properties":{"NF_ID":"WTR0200000000K08A","admin_code":"12850","source_layer":"TN_RIVER_BT","semantic":"channel","river_class":"소하천","river_class_source":"중심선 공간조인","river_name":"중도천","survey_method":"사진측량"},"geometry":{"type":"Polygon","coordinates":[[[126.73001,34.30543],[126.73001,34.30437],[126.73043,34.30358],[126.73012,34.30295],[126.73165,34.30268],[126.73166,34.30293],[126.73262,34.30262],[126.73232,34.30273],[126.73175,34.30213],[126.73178,34.30156],[126.73144,34.30238],[126.73116,34.30249],[126.73131,34.30211],[126.73078,34.30233],[126.73106,34.30258],[126.73052,34.30269],[126.73084,34.30202],[126.73037,34.30268],[126.7233,34.30407],[126.72166,34.30332],[126.71878,34.30275],[126.71593,34.30129],[126.71384,34.30141],[126.71592,34.3013],[126.71878,34.30279],[126.72153,34.30332],[126.72328,34.30415],[126.73001,34.30294],[126.73033,34.30357],[126.72989,34.30453],[126.72998,34.30567],[126.72937,34.30606],[126.72956,34.30633],[126.73001,34.30543]]]}},{"type":"Feature","id":"TN_RIVER_BT:WTR0200000000K09B","properties":{"NF_ID":"WTR0200000000K09B","admin_code":"12850","source_layer":"TN_RIVER_BT","semantic":"channel","river_class":"소하천","river_class_source":"중심선 공간조인","survey_method":"사진측량"},"geometry":{"type":"Polygon","coordinates":[[[126.6827,34.30675],[126.68267,34.30674],[126.68257,34.30686],[126.68266,34.30689],[126.68276,34.30696],[126.68287,34.30682],[126.6827,34.30675]]]}},{"type":"Feature","id":"TN_RIVER_BT:WTR0200000000K0AC","properties":{"NF_ID":"WTR0200000000K0AC","admin_code":"12850","source_layer":"TN_RIVER_BT","semantic":"channel","river_class":"소하천","river_class_source":"중심선 공간조인","survey_method":"사진측량"},"geometry":{"type":"Polygon","coordinates":[[[126.70336,34.30768],[126.70352,34.30748],[126.70327,34.3076],[126.70078,34.30568],[126.70252,34.3036],[126.70238,34.30294],[126.70122,34.30269],[126.70091,34.30224],[126.7012,34.30184],[126.70008,34.30067],[126.69989,34.29995],[126.69793,34.2983],[126.69776,34.29791],[126.69604,34.29779],[126.69592,34.29791],[126.6962,34.29796],[126.69774,34.29795],[126.69789,34.29831],[126.69986,34.29994],[126.70006,34.30068],[126.70114,34.30184],[126.70088,34.30226],[126.70119,34.30271],[126.7023,34.30295],[126.70244,34.3036],[126.70071,34.30562],[126.69967,34.3049],[126.698,34.30537],[126.69727,34.30593],[126.69433,34.30669],[126.69726,34.30597],[126.69802,34.30539],[126.69968,34.30493],[126.70336,34.30768]]]}},{"type":"Feature","id":"TN_RIVER_BT:WTR0200000000K0BD","properties":{"NF_ID":"WTR0200000000K0BD","admin_code":"12850","source_layer":"TN_RIVER_BT","semantic":"channel","river_class":"소하천","river_class_source":"중심선 공간조인","survey_method":"사진측량"},"geometry":{"type":"Polygon","coordinates":[[[126.72767,34.31126],[126.72757,34.31122],[126.72755,34.31121],[126.72753,34.31121],[126.72751,34.31121],[126.72749,34.31121],[126.72748,34.31121],[126.72741,34.31123],[126.72737,34.31124],[126.72733,34.31124],[126.7273,34.31124],[126.72728,34.31124],[126.72723,34.31124],[126.72721,34.31123],[126.7272,34.31123],[126.7272,34.31123],[126.72708,34.31125],[126.72704,34.31125],[126.72702,34.31125],[126.72702,34.31125],[126.72701,34.31125],[126.72698,34.31124],[126.72692,34.31123],[126.72685,34.3112],[126.72667,34.31111],[126.72665,34.31113],[126.72681,34.31121],[126.72688,34.31123],[126.72693,34.31125],[126.727,34.31127],[126.72703,34.31127],[126.72704,34.31127],[126.72705,34.31127],[126.72707,34.31127],[126.72708,34.31127],[126.72718,34.31126],[126.7272,34.31126],[126.72722,34.31126],[126.72731,34.31126],[126.72735,34.31126],[126.72736,34.31126],[126.72738,34.31126],[126.72745,34.31124],[126.72751,34.31123],[126.72753,34.31123],[126.72757,34.31124],[126.72758,34.31125],[126.72765,34.31128],[126.72776,34.31129],[126.72785,34.31129],[126.72786,34.31129],[126.72787,34.31129],[126.72789,34.3113],[126.72794,34.31131],[126.72796,34.31131],[126.72795,34.3113],[126.72789,34.31129],[126.72783,34.31128],[126.72774,34.31128],[126.72773,34.31128],[126.72771,34.31127],[126.72767,34.31126]]]}},{"type":"Feature","id":"TN_RIVER_BT:WTR0200000000K0GI","properties":{"NF_ID":"WTR0200000000K0GI","admin_code":"12850","source_layer":"TN_RIVER_BT","semantic":"channel","river_class":"소하천","river_class_source":"중심선 공간조인","survey_method":"사진측량"},"geometry":{"type":"Polygon","coordinates":[[[126.67554,34.31851],[126.67554,34.3185],[126.67553,34.31851],[126.67552,34.31851],[126.67551,34.31852],[126.6755,34.31853],[126.67546,34.31856],[126.67545,34.31858],[126.67544,34.31859],[126.67542,34.31864],[126.67541,34.31865],[126.6754,34.31866],[126.67536,34.3187],[126.67533,34.31873],[126.67533,34.31873],[126.67539,34.31869],[126.67543,34.31865],[126.67544,34.31864],[126.67545,34.31862],[126.67547,34.31858],[126.67548,34.31857],[126.67553,34.31853],[126.67554,34.31852],[126.67554,34.31851],[126.67554,34.31851]]]}},{"type":"Feature","id":"TN_RIVER_BT:WTR0200000000K0HJ","properties":{"NF_ID":"WTR0200000000K0HJ","admin_code":"12850","source_layer":"TN_RIVER_BT","semantic":"channel","river_class":"소하천","river_class_source":"중심선 공간조인","river_name":"도암천","survey_method":"사진측량"},"geometry":{"type":"Polygon","coordinates":[[[126.72224,34.31606],[126.72243,34.31577],[126.72351,34.31575],[126.72383,34.31556],[126.72378,34.31515],[126.72551,34.31252],[126.72552,34.3116],[126.72638,34.31091],[126.72656,34.31105],[126.7266,34.30988],[126.72637,34.31076],[126.72552,34.31156],[126.72543,34.31256],[126.72375,34.31515],[126.72374,34.31562],[126.72241,34.31576],[126.722,34.31604],[126.72116,34.31612],[126.72075,34.31649],[126.7191,34.31671],[126.7176,34.31759],[126.7171,34.31727],[126.71632,34.31731],[126.71712,34.31729],[126.71759,34.31762],[126.71912,34.31672],[126.72075,34.31652],[126.72123,34.31611],[126.72223,34.31596],[126.72197,34.31673],[126.72216,34.31805],[126.72387,34.31986],[126.72295,34.31892],[126.72273,34.31838],[126.72218,34.31801],[126.72201,34.31675],[126.72224,34.31606]]]}},{"type":"Feature","id":"TN_RIVER_BT:WTR0200000000K0IK","properties":{"NF_ID":"WTR0200000000K0IK","admin_code":"12850","source_layer":"TN_RIVER_BT","semantic":"channel","river_class":"소하천","river_class_source":"중심선 공간조인","survey_method":"사진측량"},"geometry":{"type":"Polygon","coordinates":[[[126.67669,34.31957],[126.67762,34.32004],[126.67589,34.31907],[126.67666,34.31956],[126.67512,34.32145],[126.67669,34.31957]]]}},{"type":"Feature","id":"TN_RIVER_BT:WTR0200000000K0JL","properties":{"NF_ID":"WTR0200000000K0JL","admin_code":"12850","source_layer":"TN_RIVER_BT","semantic":"channel","river_class":"소하천","river_class_source":"중심선 공간조인","survey_method":"사진측량"},"geometry":{"type":"Polygon","coordinates":[[[126.68988,34.31494],[126.69,34.31477],[126.69098,34.31517],[126.69004,34.31475],[126.69115,34.31307],[126.69446,34.3145],[126.69118,34.31304],[126.69332,34.30967],[126.70498,34.31472],[126.70704,34.3154],[126.70519,34.31478],[126.69335,34.30962],[126.6952,34.30673],[126.69622,34.30645],[126.70515,34.3103],[126.70508,34.31],[126.70502,34.31019],[126.6963,34.30634],[126.69501,34.30665],[126.69376,34.30858],[126.69353,34.3085],[126.69355,34.30893],[126.69319,34.30951],[126.69299,34.30941],[126.69313,34.30959],[126.68551,34.32159],[126.68988,34.31494]]]}},{"type":"Feature","id":"TN_RIVER_BT:WTR0200000000K0LN","properties":{"NF_ID":"WTR0200000000K0LN","admin_code":"12850","source_layer":"TN_RIVER_BT","semantic":"channel","river_class":"소하천","river_class_source":"중심선 공간조인","river_name":"소가용천","survey_method":"사진측량"},"geometry":{"type":"Polygon","coordinates":[[[126.72724,34.32437],[126.72826,34.32416],[126.72933,34.32302],[126.73037,34.32302],[126.73102,34.32224],[126.73205,34.32206],[126.7331,34.32106],[126.73334,34.32021],[126.73548,34.31895],[126.73747,34.31845],[126.73888,34.31763],[126.74091,34.31692],[126.74226,34.31749],[126.74284,34.31864],[126.74275,34.31802],[126.74228,34.31743],[126.74099,34.31684],[126.74002,34.31733],[126.73879,34.31762],[126.73752,34.3184],[126.73554,34.31892],[126.73392,34.3197],[126.73328,34.32022],[126.73308,34.32105],[126.73217,34.32195],[126.73104,34.3222],[126.73038,34.32299],[126.72929,34.32302],[126.72862,34.32384],[126.72775,34.32434],[126.72716,34.32435],[126.72694,34.32376],[126.72669,34.32372],[126.72724,34.32437]]]}},{"type":"Feature","id":"TN_RIVER_BT:WTR0200000000K0MO","properties":{"NF_ID":"WTR0200000000K0MO","admin_code":"12850","source_layer":"TN_RIVER_BT","semantic":"channel","river_class":"소하천","river_class_source":"중심선 공간조인","river_name":"대가용천","survey_method":"사진측량"},"geometry":{"type":"Polygon","coordinates":[[[126.72228,34.32778],[126.72372,34.32756],[126.72527,34.32821],[126.72587,34.32807],[126.72667,34.3282],[126.72819,34.32773],[126.73004,34.32754],[126.73188,34.32763],[126.73316,34.3271],[126.73521,34.32716],[126.73721,34.3264],[126.73804,34.32665],[126.73721,34.32638],[126.7352,34.32714],[126.73325,34.32705],[126.7318,34.32761],[126.73004,34.32751],[126.7282,34.3277],[126.72656,34.32818],[126.72527,34.32819],[126.72421,34.3276],[126.72355,34.32752],[126.72212,34.32779],[126.72056,34.32892],[126.72228,34.32778]]]}},{"type":"Feature","id":"TN_RIVER_BT:WTR0200000000K0OQ","properties":{"NF_ID":"WTR0200000000K0OQ","admin_code":"12850","source_layer":"TN_RIVER_BT","semantic":"channel","river_class":"지방하천","river_class_source":"중심선 공간조인","river_name":"대신천","river_code":"4121360","survey_method":"사진측량"},"geometry":{"type":"Polygon","coordinates":[[[126.68891,34.32454],[126.6905,34.32526],[126.69102,34.32523],[126.69218,34.32467],[126.69418,34.32317],[126.6959,34.3208],[126.69674,34.32003],[126.69727,34.31897],[126.69751,34.31899],[126.69797,34.31971],[126.69891,34.32028],[126.69963,34.32143],[126.69937,34.32233],[126.69951,34.32332],[126.69875,34.32531],[126.69917,34.32712],[126.69987,34.32771],[126.69963,34.32861],[126.7002,34.32926],[126.69989,34.33013],[126.70014,34.33067],[126.69938,34.33189],[126.69962,34.33181],[126.7002,34.33067],[126.69993,34.3302],[126.70025,34.32932],[126.69965,34.32853],[126.69994,34.32772],[126.69922,34.3271],[126.69885,34.3253],[126.69959,34.32325],[126.69945,34.32236],[126.69971,34.32145],[126.699,34.32028],[126.69802,34.31966],[126.69749,34.31883],[126.69876,34.31825],[126.6996,34.31982],[126.70161,34.32178],[126.70238,34.32297],[126.70269,34.32586],[126.70137,34.32777],[126.70155,34.32899],[126.70189,34.32954],[126.70172,34.33029],[126.70209,34.33085],[126.7024,34.33097],[126.70176,34.33036],[126.70192,34.32954],[126.7016,34.32901],[126.70142,34.32774],[126.70272,34.32589],[126.70245,34.32302],[126.7018,34.32197],[126.70254,34.32203],[126.70422,34.3229],[126.7056,34.32516],[126.7074,34.32656],[126.70674,34.32583],[126.70557,34.32509],[126.70425,34.32289],[126.70256,34.32202],[126.70176,34.3219],[126.70086,34.32109],[126.69964,34.31977],[126.69883,34.31807],[126.69715,34.31881],[126.69655,34.31993],[126.69385,34.32318],[126.69198,34.32453],[126.69083,34.32503],[126.69037,34.32499],[126.68776,34.32366],[126.68648,34.3236],[126.68565,34.32391],[126.68466,34.3236],[126.68407,34.32263],[126.68449,34.32171],[126.68495,34.32113],[126.68511,34.32125],[126.68569,34.32037],[126.68535,34.32043],[126.68474,34.31999],[126.68522,34.32028],[126.68525,34.32056],[126.68314,34.32395],[126.68264,34.32432],[126.68167,34.32456],[126.67957,34.32643],[126.67942,34.32755],[126.67909,34.3279],[126.67947,34.32754],[126.67966,34.32642],[126.6817,34.3246],[126.68306,34.32409],[126.6837,34.32324],[126.68516,34.32411],[126.68578,34.32419],[126.68651,34.3239],[126.68751,34.3239],[126.68873,34.32441],[126.68798,34.32578],[126.68658,34.32712],[126.68593,34.3287],[126.68525,34.32902],[126.6844,34.33033],[126.6844,34.33093],[126.68375,34.33159],[126.68374,34.33246],[126.68382,34.33159],[126.68448,34.33094],[126.68446,34.33035],[126.68527,34.32911],[126.68597,34.32875],[126.68668,34.32707],[126.68751,34.32644],[126.68891,34.32454]]]}},{"type":"Feature","id":"TN_RIVER_BT:WTR0200000000K0SU","properties":{"NF_ID":"WTR0200000000K0SU","admin_code":"12850","source_layer":"TN_RIVER_BT","semantic":"channel","river_class":"소하천","river_class_source":"중심선 공간조인","survey_method":"사진측량"},"geometry":{"type":"Polygon","coordinates":[[[126.66675,34.33324],[126.66627,34.33272],[126.66496,34.33249],[126.66321,34.3314],[126.66249,34.33134],[126.66229,34.33094],[126.66077,34.3304],[126.66038,34.32976],[126.65958,34.32984],[126.65895,34.3291],[126.65939,34.32948],[126.65963,34.33026],[126.65967,34.32992],[126.6603,34.32978],[126.66077,34.33044],[126.66225,34.33097],[126.6625,34.33139],[126.66324,34.33146],[126.66365,34.33186],[126.66441,34.33203],[126.66494,34.33253],[126.66628,34.33278],[126.6677,34.33424],[126.66675,34.33324]]]}},{"type":"Feature","id":"TN_RIVER_BT:WTR0200000000K0VX","properties":{"NF_ID":"WTR0200000000K0VX","admin_code":"12850","source_layer":"TN_RIVER_BT","semantic":"channel","river_class":"지방하천","river_class_source":"중심선 공간조인","river_name":"대구미천","river_code":"4121350","survey_method":"사진측량"},"geometry":{"type":"Polygon","coordinates":[[[126.69629,34.33728],[126.69628,34.33728],[126.69627,34.33728],[126.69626,34.33729],[126.69625,34.3373],[126.6962,34.33734],[126.69618,34.33739],[126.69613,34.3375],[126.69611,34.33757],[126.69607,34.33766],[126.69607,34.33768],[126.69606,34.33771],[126.69603,34.33777],[126.69601,34.33785],[126.696,34.33787],[126.69598,34.33793],[126.69598,34.33794],[126.69598,34.33794],[126.69609,34.33797],[126.6961,34.33797],[126.6961,34.33797],[126.6961,34.33796],[126.69613,34.33789],[126.69613,34.33788],[126.69613,34.33787],[126.69613,34.33786],[126.69613,34.33784],[126.69612,34.3378],[126.69612,34.33778],[126.69612,34.33777],[126.69612,34.33776],[126.69613,34.3377],[126.69613,34.33768],[126.69616,34.3376],[126.69617,34.33759],[126.69619,34.33753],[126.69624,34.33742],[126.69627,34.33735],[126.69627,34.33734],[126.69629,34.33732],[126.6963,34.33731],[126.6963,34.3373],[126.6963,34.3373],[126.6963,34.33729],[126.6963,34.33728],[126.69629,34.33728]]]}},{"type":"Feature","id":"TN_RIVER_BT:WTR0200000000K0WY","properties":{"NF_ID":"WTR0200000000K0WY","admin_code":"12850","source_layer":"TN_RIVER_BT","semantic":"channel","river_class":"지방하천","river_class_source":"중심선 공간조인","river_name":"죽청천","river_code":"4121340","survey_method":"사진측량"},"geometry":{"type":"Polygon","coordinates":[[[126.7186,34.34307],[126.71758,34.34258],[126.71695,34.34265],[126.71757,34.34262],[126.7186,34.34307]]]}},{"type":"Feature","id":"TN_RIVER_BT:WTR0200000000K0Y0","properties":{"NF_ID":"WTR0200000000K0Y0","admin_code":"12850","source_layer":"TN_RIVER_BT","semantic":"channel","river_class":"지방하천","river_class_source":"중심선 공간조인","river_name":"삼두천","river_code":"4121370","survey_method":"사진측량"},"geometry":{"type":"Polygon","coordinates":[[[126.65883,34.34638],[126.65981,34.34595],[126.66134,34.3464],[126.66171,34.34631],[126.66132,34.34637],[126.66115,34.34624],[126.66138,34.3461],[126.66112,34.34622],[126.65982,34.34592],[126.65865,34.34636],[126.65764,34.34608],[126.65683,34.34495],[126.65563,34.34517],[126.65377,34.34445],[126.65169,34.34452],[126.64957,34.34534],[126.64539,34.3447],[126.64942,34.3454],[126.65176,34.34455],[126.65379,34.34451],[126.65555,34.34522],[126.65681,34.34499],[126.65761,34.34612],[126.65883,34.34638]]]}},{"type":"Feature","id":"TN_RIVER_BT:WTR0200000000K0Z1","properties":{"NF_ID":"WTR0200000000K0Z1","admin_code":"12850","source_layer":"TN_RIVER_BT","semantic":"channel","river_class":"지방하천","river_class_source":"중심선 공간조인","river_name":"군외천","river_code":"4121380","survey_method":"사진측량"},"geometry":{"type":"Polygon","coordinates":[[[126.67369,34.34646],[126.67524,34.34549],[126.67573,34.34461],[126.67626,34.34436],[126.67568,34.3446],[126.67521,34.34547],[126.67369,34.34646]]]}},{"type":"Feature","id":"TN_RIVER_BT:WTR0200000000K114","properties":{"NF_ID":"WTR0200000000K114","admin_code":"12850","source_layer":"TN_RIVER_BT","semantic":"channel","river_class":"지방하천","river_class_source":"중심선 공간조인","river_name":"죽청천","river_code":"4121340","survey_method":"사진측량"},"geometry":{"type":"Polygon","coordinates":[[[126.73774,34.34775],[126.73823,34.34756],[126.73701,34.34769],[126.73556,34.34723],[126.73312,34.34697],[126.73173,34.34625],[126.72885,34.34526],[126.72681,34.34415],[126.72383,34.34386],[126.7235,34.34318],[126.72174,34.34278],[126.7222,34.34199],[126.72169,34.34276],[126.72099,34.34254],[126.71984,34.34306],[126.71929,34.3428],[126.71972,34.34316],[126.72102,34.3426],[126.7234,34.34321],[126.72378,34.3439],[126.72673,34.34419],[126.72893,34.34537],[126.73152,34.34623],[126.733,34.34696],[126.73548,34.34729],[126.73699,34.34779],[126.73774,34.34775]]]}},{"type":"Feature","id":"TN_RIVER_BT:WTR0200000000K147","properties":{"NF_ID":"WTR0200000000K147","admin_code":"12850","source_layer":"TN_RIVER_BT","semantic":"channel","river_class":"소하천","river_class_source":"중심선 공간조인","survey_method":"사진측량"},"geometry":{"type":"Polygon","coordinates":[[[126.72551,34.35617],[126.72718,34.3558],[126.72793,34.35518],[126.73173,34.35395],[126.729,34.35494],[126.72807,34.35487],[126.72819,34.35501],[126.72716,34.35575],[126.7253,34.35616],[126.72358,34.35555],[126.72321,34.35441],[126.72277,34.3541],[126.72262,34.35426],[126.72314,34.35442],[126.72339,34.3555],[126.72235,34.35593],[126.72341,34.35554],[126.72426,34.35598],[126.72551,34.35617]]]}},{"type":"Feature","id":"TN_RIVER_BT:WTR0200000000K18B","properties":{"NF_ID":"WTR0200000000K18B","admin_code":"12850","source_layer":"TN_RIVER_BT","semantic":"channel","river_class":"지방하천","river_class_source":"중심선 공간조인","river_name":"군외천","river_code":"4121380","survey_method":"사진측량"},"geometry":{"type":"Polygon","coordinates":[[[126.66563,34.35991],[126.66613,34.35996],[126.66655,34.35935],[126.66805,34.35851],[126.66905,34.35767],[126.67075,34.35828],[126.6717,34.35798],[126.67319,34.35834],[126.67377,34.35815],[126.67574,34.35826],[126.67752,34.35798],[126.67845,34.35724],[126.67859,34.35672],[126.67927,34.356],[126.67824,34.35734],[126.67756,34.35787],[126.67647,34.35815],[126.67373,34.3581],[126.67313,34.3583],[126.67171,34.35794],[126.67066,34.3582],[126.66905,34.35763],[126.66985,34.35519],[126.67174,34.35244],[126.67149,34.35076],[126.67234,34.35002],[126.67219,34.34783],[126.67258,34.34689],[126.67345,34.34644],[126.67255,34.34681],[126.67215,34.34779],[126.67237,34.34957],[126.67218,34.3501],[126.67145,34.35068],[126.67166,34.35245],[126.66976,34.3552],[126.66908,34.35748],[126.66602,34.35969],[126.66388,34.36031],[126.66398,34.3605],[126.66563,34.35991]]]}},{"type":"Feature","id":"TN_RIVER_BT:WTR0200000000K19C","properties":{"NF_ID":"WTR0200000000K19C","admin_code":"12850","source_layer":"TN_RIVER_BT","semantic":"channel","river_class":"소하천","river_class_source":"중심선 공간조인","survey_method":"사진측량"},"geometry":{"type":"Polygon","coordinates":[[[126.72835,34.36324],[126.72913,34.36214],[126.72879,34.3623],[126.72844,34.36321],[126.72712,34.36274],[126.72468,34.36314],[126.72708,34.36278],[126.72835,34.36324]]]}},{"type":"Feature","id":"TN_RIVER_BT:WTR0200000000K1AD","properties":{"NF_ID":"WTR0200000000K1AD","admin_code":"12850","source_layer":"TN_RIVER_BT","semantic":"channel","river_class":"지방하천","river_class_source":"중심선 공간조인","river_name":"대야천","river_code":"4121330","survey_method":"사진측량"},"geometry":{"type":"Polygon","coordinates":[[[126.7043,34.36329],[126.70459,34.36303],[126.70519,34.36296],[126.70455,34.36299],[126.70406,34.36329],[126.7033,34.36293],[126.70257,34.36301],[126.70121,34.36243],[126.70072,34.36191],[126.6991,34.36193],[126.69857,34.36253],[126.69699,34.36179],[126.69624,34.36188],[126.69699,34.36183],[126.69857,34.36256],[126.69885,34.3625],[126.6991,34.36197],[126.70074,34.36195],[126.70126,34.3625],[126.70218,34.36292],[126.70333,34.36297],[126.7043,34.36329]]]}},{"type":"Feature","id":"TN_RIVER_BT:WTR0200000000K1DG","properties":{"NF_ID":"WTR0200000000K1DG","admin_code":"12850","source_layer":"TN_RIVER_BT","semantic":"channel","river_class":"소하천","river_class_source":"중심선 공간조인","survey_method":"사진측량"},"geometry":{"type":"Polygon","coordinates":[[[126.73203,34.36584],[126.73199,34.36582],[126.73199,34.36583],[126.73198,34.36586],[126.73196,34.36592],[126.73194,34.36593],[126.73198,34.36594],[126.73199,34.36592],[126.73202,34.36584],[126.73203,34.36584]]]}},{"type":"Feature","id":"TN_RIVER_BT:WTR0200000000K1EH","properties":{"NF_ID":"WTR0200000000K1EH","admin_code":"12850","source_layer":"TN_RIVER_BT","semantic":"channel","river_class":"소하천","river_class_source":"중심선 공간조인","survey_method":"사진측량"},"geometry":{"type":"Polygon","coordinates":[[[126.64534,34.36697],[126.64485,34.36685],[126.64485,34.36659],[126.65016,34.36502],[126.65051,34.36309],[126.65106,34.3624],[126.65134,34.36236],[126.65166,34.36129],[126.65219,34.36051],[126.65164,34.36126],[126.65132,34.36235],[126.65106,34.36236],[126.65049,34.36306],[126.6505,34.36373],[126.65012,34.36425],[126.65016,34.36493],[126.64876,34.36522],[126.64845,34.36558],[126.64663,34.36594],[126.64474,34.36673],[126.64375,34.36641],[126.64303,34.36504],[126.64563,34.3642],[126.64634,34.36571],[126.64564,34.36418],[126.64302,34.36501],[126.64292,34.36357],[126.64405,34.36234],[126.64289,34.36357],[126.64303,34.36524],[126.64362,34.36607],[126.64368,34.36665],[126.64455,34.36685],[126.64455,34.36701],[126.64459,34.36687],[126.64534,34.36697]],[[126.64377,34.36646],[126.64377,34.36646],[126.64383,34.36647],[126.64421,34.36659],[126.64445,34.36665],[126.64458,34.36667],[126.64462,34.36668],[126.64463,34.36669],[126.64464,34.3667],[126.64464,34.36671],[126.64463,34.36674],[126.64462,34.36675],[126.64461,34.36676],[126.6446,34.36677],[126.64459,34.36677],[126.64457,34.36677],[126.64435,34.36671],[126.64404,34.36663],[126.64377,34.36656],[126.64375,34.36655],[126.64374,34.36654],[126.64374,34.36654],[126.64374,34.36652],[126.64374,34.3665],[126.64375,34.36648],[126.64375,34.36647],[126.64376,34.36647],[126.64377,34.36646]]]}},{"type":"Feature","id":"TN_RIVER_BT:WTR0200000000K1GJ","properties":{"NF_ID":"WTR0200000000K1GJ","admin_code":"12850","source_layer":"TN_RIVER_BT","semantic":"channel","river_class":"소하천","river_class_source":"중심선 공간조인","survey_method":"사진측량"},"geometry":{"type":"Polygon","coordinates":[[[126.71717,34.369],[126.71663,34.36908],[126.71711,34.36901],[126.71858,34.36967],[126.71717,34.369]]]}},{"type":"Feature","id":"TN_RIVER_BT:WTR0200000000K1IL","properties":{"NF_ID":"WTR0200000000K1IL","admin_code":"12850","source_layer":"TN_RIVER_BT","semantic":"channel","river_class":"지방하천","river_class_source":"중심선 공간조인","river_name":"대야천","river_code":"4121330","survey_method":"사진측량"},"geometry":{"type":"Polygon","coordinates":[[[126.7307,34.37443],[126.73042,34.37397],[126.72776,34.37338],[126.72558,34.37212],[126.7245,34.37208],[126.7233,34.37128],[126.7224,34.37011],[126.72071,34.37013],[126.71792,34.36761],[126.71589,34.36753],[126.71329,34.36655],[126.71022,34.36619],[126.70996,34.3658],[126.70989,34.3662],[126.71356,34.36671],[126.71401,34.36705],[126.71597,34.36763],[126.71804,34.36778],[126.72062,34.37025],[126.72241,34.37017],[126.7231,34.37124],[126.7244,34.37213],[126.72523,34.37203],[126.7277,34.37346],[126.7307,34.37443]],[[126.73063,34.37433],[126.73061,34.37432],[126.73057,34.37431],[126.73052,34.37429],[126.73048,34.37428],[126.73044,34.37428],[126.7304,34.37427],[126.73039,34.37427],[126.73038,34.37426],[126.73038,34.37425],[126.73038,34.37424],[126.73038,34.37423],[126.73039,34.37422],[126.73039,34.37421],[126.73041,34.37421],[126.73044,34.3742],[126.73048,34.37419],[126.7305,34.37419],[126.73054,34.3742],[126.7306,34.37422],[126.73062,34.37422],[126.73065,34.37424],[126.73066,34.37424],[126.73068,34.37427],[126.73069,34.37429],[126.73068,34.3743],[126.73068,34.37432],[126.73067,34.37433],[126.73065,34.37433],[126.73064,34.37433],[126.73063,34.37433]],[[126.7303,34.37424],[126.73029,34.37424],[126.73027,34.37424],[126.73025,34.37423],[126.73022,34.37423],[126.73018,34.37423],[126.73008,34.3742],[126.72992,34.37416],[126.72972,34.37411],[126.7297,34.3741],[126.72969,34.3741],[126.72969,34.37409],[126.7297,34.37408],[126.7297,34.37407],[126.7297,34.37406],[126.72971,34.37405],[126.7297,34.37404],[126.7297,34.37402],[126.72971,34.37401],[126.72972,34.37401],[126.72973,34.37402],[126.72974,34.37402],[126.72991,34.37405],[126.72999,34.37408],[126.73001,34.37408],[126.73004,34.37408],[126.73006,34.37409],[126.73016,34.3741],[126.73033,34.37412],[126.73036,34.37412],[126.73037,34.37413],[126.73037,34.37414],[126.73036,34.37415],[126.73034,34.37419],[126.73031,34.37423],[126.7303,34.37424]]]}},{"type":"Feature","id":"TN_RIVER_BT:WTR0200000000K1KN","properties":{"NF_ID":"WTR0200000000K1KN","admin_code":"12850","source_layer":"TN_RIVER_BT","semantic":"channel","river_class":"소하천","river_class_source":"중심선 공간조인","survey_method":"사진측량"},"geometry":{"type":"Polygon","coordinates":[[[126.71548,34.37265],[126.71446,34.37377],[126.71378,34.37404],[126.71358,34.3746],[126.71295,34.37522],[126.71358,34.37465],[126.71385,34.37405],[126.7145,34.37379],[126.71548,34.37265]]]}},{"type":"Feature","id":"TN_RIVER_BT:WTR0200000000K1LO","properties":{"NF_ID":"WTR0200000000K1LO","admin_code":"12850","source_layer":"TN_RIVER_BT","semantic":"channel","river_class":"지방하천","river_class_source":"중심선 공간조인","river_name":"군외천","river_code":"4121380","survey_method":"사진측량"},"geometry":{"type":"Polygon","coordinates":[[[126.6521,34.37467],[126.65443,34.37338],[126.65595,34.37166],[126.65711,34.36949],[126.65696,34.36849],[126.65745,34.36717],[126.65924,34.36568],[126.65949,34.36474],[126.65916,34.3644],[126.65908,34.36352],[126.65951,34.3627],[126.65897,34.36337],[126.65891,34.36459],[126.6593,34.36478],[126.65921,34.36533],[126.65729,34.3672],[126.6569,34.36853],[126.65696,34.36939],[126.65596,34.37086],[126.65569,34.37174],[126.65404,34.37338],[126.65167,34.37463],[126.64702,34.37426],[126.64585,34.37304],[126.64437,34.37246],[126.64253,34.3706],[126.64245,34.37079],[126.6444,34.37262],[126.6459,34.37342],[126.64705,34.37445],[126.65015,34.37455],[126.65151,34.37483],[126.6521,34.37467]]]}},{"type":"Feature","id":"TN_RIVER_BT:WTR0200000000K1OR","properties":{"NF_ID":"WTR0200000000K1OR","admin_code":"12850","source_layer":"TN_RIVER_BT","semantic":"channel","river_class":"지방하천","river_class_source":"중심선 공간조인","river_name":"신학천","river_code":"4121390","survey_method":"사진측량"},"geometry":{"type":"Polygon","coordinates":[[[126.65874,34.37677],[126.65976,34.37618],[126.66049,34.3766],[126.66086,34.37656],[126.66205,34.37588],[126.66269,34.375],[126.66423,34.37502],[126.66274,34.37494],[126.662,34.37584],[126.66069,34.37656],[126.65978,34.37614],[126.65856,34.37675],[126.6579,34.37642],[126.65638,34.37634],[126.65556,34.37596],[126.65441,34.37587],[126.65308,34.37689],[126.65236,34.37698],[126.65108,34.37773],[126.65014,34.3773],[126.64964,34.3773],[126.64805,34.37816],[126.64599,34.3776],[126.64451,34.37856],[126.64314,34.37903],[126.64146,34.37842],[126.64054,34.37838],[126.64332,34.37907],[126.64464,34.37859],[126.6458,34.37777],[126.64661,34.37777],[126.64804,34.37823],[126.64975,34.37737],[126.65109,34.37777],[126.65177,34.37727],[126.65311,34.37691],[126.65426,34.37595],[126.6552,34.37594],[126.65637,34.37638],[126.65794,34.37649],[126.66087,34.3775],[126.66187,34.37923],[126.6649,34.38109],[126.6649,34.38143],[126.66496,34.38108],[126.66189,34.37917],[126.66091,34.37748],[126.65874,34.37677]]]}},{"type":"Feature","id":"TN_RIVER_BT:WTR0200000000K1PS","properties":{"NF_ID":"WTR0200000000K1PS","admin_code":"12850","source_layer":"TN_RIVER_BT","semantic":"channel","river_class":"소하천","river_class_source":"중심선 공간조인","survey_method":"사진측량"},"geometry":{"type":"Polygon","coordinates":[[[126.70552,34.38097],[126.70618,34.38181],[126.70586,34.38277],[126.70622,34.3818],[126.70552,34.38097]]]}},{"type":"Feature","id":"TN_RIVER_BT:WTR0200000000K1SV","properties":{"NF_ID":"WTR0200000000K1SV","admin_code":"12850","source_layer":"TN_RIVER_BT","semantic":"channel","river_class":"지방하천","river_class_source":"중심선 공간조인","river_name":"영흥천","river_code":"4121310","survey_method":"사진측량"},"geometry":{"type":"Polygon","coordinates":[[[126.67682,34.38121],[126.67666,34.384],[126.67696,34.38172],[126.67682,34.38121]]]}},{"type":"Feature","id":"TN_RIVER_BT:WTR0200000000K1UX","properties":{"NF_ID":"WTR0200000000K1UX","admin_code":"12850","source_layer":"TN_RIVER_BT","semantic":"channel","river_class":"지방하천","river_class_source":"중심선 공간조인","river_name":"영흥천","river_code":"4121310","survey_method":"사진측량"},"geometry":{"type":"Polygon","coordinates":[[[126.67968,34.3868],[126.68005,34.38668],[126.67942,34.38677],[126.67749,34.38635],[126.67738,34.38572],[126.67729,34.38623],[126.67755,34.3864],[126.67968,34.3868]]]}},{"type":"Feature","id":"TN_RIVER_BT:WTR0200000000K1VY","properties":{"NF_ID":"WTR0200000000K1VY","admin_code":"12850","source_layer":"TN_RIVER_BT","semantic":"channel","river_class":"소하천","river_class_source":"중심선 공간조인","survey_method":"사진측량"},"geometry":{"type":"Polygon","coordinates":[[[126.67528,34.39012],[126.67532,34.39011],[126.67537,34.39011],[126.67542,34.39006],[126.67549,34.39001],[126.67554,34.38998],[126.6756,34.38995],[126.67564,34.38993],[126.67569,34.38991],[126.67584,34.38988],[126.67588,34.38988],[126.67588,34.38989],[126.67603,34.38984],[126.6761,34.38982],[126.67624,34.3898],[126.67626,34.38979],[126.67624,34.38977],[126.67605,34.38979],[126.67592,34.3898],[126.67586,34.38981],[126.67575,34.38984],[126.67559,34.3899],[126.67541,34.39],[126.67537,34.39003],[126.67533,34.39008],[126.67531,34.3901],[126.67528,34.39012]]]}},{"type":"Feature","id":"TN_RIVER_BT:WTR0200000000K1WZ","properties":{"NF_ID":"WTR0200000000K1WZ","admin_code":"12850","source_layer":"TN_RIVER_BT","semantic":"channel","river_class":"소하천","river_class_source":"중심선 공간조인","survey_method":"사진측량"},"geometry":{"type":"Polygon","coordinates":[[[126.67518,34.39011],[126.67518,34.39011],[126.67512,34.39012],[126.67513,34.39012],[126.6751,34.39021],[126.67515,34.39022],[126.67515,34.39024],[126.67515,34.39024],[126.67518,34.39011]]]}},{"type":"Feature","id":"TN_RIVER_BT:WTR0200000000K1Y1","properties":{"NF_ID":"WTR0200000000K1Y1","admin_code":"12850","source_layer":"TN_RIVER_BT","semantic":"channel","river_class":"소하천","river_class_source":"중심선 공간조인","survey_method":"사진측량"},"geometry":{"type":"Polygon","coordinates":[[[126.70556,34.39626],[126.70466,34.39538],[126.70328,34.39218],[126.70496,34.38651],[126.7062,34.38567],[126.70623,34.38528],[126.70615,34.38566],[126.7049,34.38648],[126.7032,34.39218],[126.70469,34.39561],[126.70512,34.39614],[126.70556,34.39626]]]}},{"type":"Feature","id":"TN_RIVER_BT:WTR0200000000K226","properties":{"NF_ID":"WTR0200000000K226","admin_code":"12850","source_layer":"TN_RIVER_BT","semantic":"channel","river_class":"지방하천","river_class_source":"중심선 공간조인","river_name":"영풍천","river_code":"4121320","survey_method":"사진측량"},"geometry":{"type":"Polygon","coordinates":[[[126.69472,34.38816],[126.6931,34.38798],[126.6919,34.38714],[126.69129,34.38625],[126.69137,34.38567],[126.69068,34.38504],[126.69112,34.38423],[126.69048,34.38333],[126.69083,34.38291],[126.69062,34.38029],[126.69019,34.37935],[126.68941,34.37858],[126.68946,34.37793],[126.68911,34.37716],[126.68834,34.37632],[126.68864,34.37694],[126.68908,34.37721],[126.68942,34.378],[126.68936,34.3786],[126.69,34.37923],[126.69054,34.38027],[126.69074,34.38288],[126.6903,34.38337],[126.69105,34.38429],[126.69057,34.38512],[126.69133,34.38582],[126.69119,34.38623],[126.69178,34.38702],[126.69026,34.38735],[126.69173,34.38712],[126.69326,34.38815],[126.69455,34.38818],[126.69491,34.38863],[126.69725,34.38985],[126.69784,34.39041],[126.69807,34.39144],[126.69732,34.39264],[126.69821,34.39497],[126.69783,34.39681],[126.69855,34.39825],[126.69879,34.39825],[126.69791,34.39669],[126.69832,34.39473],[126.69742,34.39263],[126.6981,34.39149],[126.69809,34.39066],[126.69744,34.38992],[126.69587,34.38919],[126.69472,34.38816]]]}}]}