{"type":"FeatureCollection","features":[{"type":"Feature","id":"TN_RIVER_BT:WTR02000000002Y2K","properties":{"NF_ID":"WTR02000000002Y2K","source_layer":"TN_RIVER_BT","semantic":"channel","river_class":"소하천","river_class_source":"중심선 공간조인","survey_method":"사진측량","admin_code":"11290"},"geometry":{"type":"Polygon","coordinates":[[[127.00491,37.59608],[127.00491,37.59607],[127.00489,37.59607],[127.00489,37.59607],[127.00489,37.59609],[127.00489,37.59611],[127.00489,37.59612],[127.00489,37.59613],[127.00489,37.59615],[127.0049,37.59618],[127.0049,37.5962],[127.00491,37.59621],[127.00491,37.59623],[127.00493,37.59626],[127.00493,37.59628],[127.00496,37.59632],[127.00497,37.59636],[127.00497,37.59634],[127.00497,37.59632],[127.00495,37.59628],[127.00494,37.59625],[127.00493,37.59622],[127.00492,37.59621],[127.00492,37.59619],[127.00491,37.59617],[127.00491,37.59615],[127.00491,37.59614],[127.00491,37.59613],[127.00491,37.59611],[127.00491,37.5961],[127.00491,37.59608]]]}},{"type":"Feature","id":"TN_RIVER_BT:WTR02000000002Y8Q","properties":{"NF_ID":"WTR02000000002Y8Q","source_layer":"TN_RIVER_BT","semantic":"channel","river_class":"소하천","river_class_source":"중심선 공간조인","survey_method":"사진측량","admin_code":"11290"},"geometry":{"type":"Polygon","coordinates":[[[127.00717,37.6008],[127.0065,37.60085],[127.00575,37.60036],[127.00646,37.60086],[127.00697,37.60075],[127.00737,37.60113],[127.00717,37.6008]]]}},{"type":"Feature","id":"TN_RIVER_BT:WTR02000000002YAS","properties":{"NF_ID":"WTR02000000002YAS","source_layer":"TN_RIVER_BT","semantic":"channel","river_class":"지방하천","river_class_source":"중심선 공간조인","river_name":"정릉천","river_code":"1025290","survey_method":"사진측량","admin_code":"11290"},"geometry":{"type":"Polygon","coordinates":[[[127.03809,37.60243],[127.03876,37.60237],[127.04023,37.60112],[127.04034,37.60073],[127.03936,37.60161],[127.03839,37.6021],[127.03388,37.60269],[127.03329,37.60297],[127.03809,37.60243]]]}},{"type":"Feature","id":"TN_RIVER_BT:WTR02000000002YBT","properties":{"NF_ID":"WTR02000000002YBT","source_layer":"TN_RIVER_BT","semantic":"channel","river_class":"소하천","river_class_source":"중심선 공간조인","survey_method":"사진측량","admin_code":"11290"},"geometry":{"type":"Polygon","coordinates":[[[127.00748,37.60123],[127.00722,37.60138],[127.00687,37.6027],[127.00591,37.603],[127.0069,37.60272],[127.00748,37.60123]]]}},{"type":"Feature","id":"TN_RIVER_BT:WTR02000000002YFX","properties":{"NF_ID":"WTR02000000002YFX","source_layer":"TN_RIVER_BT","semantic":"channel","river_class":"소하천","river_class_source":"중심선 공간조인","survey_method":"사진측량","admin_code":"11290"},"geometry":{"type":"Polygon","coordinates":[[[127.04935,37.60367],[127.04955,37.6041],[127.04937,37.60431],[127.0496,37.60411],[127.04935,37.60367]]]}},{"type":"Feature","id":"TN_RIVER_BT:WTR02000000002YGY","properties":{"NF_ID":"WTR02000000002YGY","source_layer":"TN_RIVER_BT","semantic":"channel","river_class":"소하천","river_class_source":"중심선 공간조인","survey_method":"사진측량","admin_code":"11290"},"geometry":{"type":"Polygon","coordinates":[[[127.05538,37.60533],[127.05606,37.60527],[127.05664,37.60467],[127.05732,37.60448],[127.05666,37.60465],[127.0551,37.60436],[127.05494,37.60467],[127.05516,37.60445],[127.05574,37.60443],[127.05662,37.60467],[127.05614,37.60522],[127.05538,37.60533]]]}},{"type":"Feature","id":"TN_RIVER_BT:WTR02000000002YHZ","properties":{"NF_ID":"WTR02000000002YHZ","source_layer":"TN_RIVER_BT","semantic":"channel","river_class":"소하천","river_class_source":"중심선 공간조인","survey_method":"사진측량","admin_code":"11290"},"geometry":{"type":"Polygon","coordinates":[[[127.00614,37.60754],[127.00722,37.60704],[127.00772,37.60641],[127.00659,37.60734],[127.00532,37.60771],[127.00475,37.60838],[127.00544,37.6077],[127.00614,37.60754]]]}},{"type":"Feature","id":"TN_RIVER_BT:WTR02000000002YI0","properties":{"NF_ID":"WTR02000000002YI0","source_layer":"TN_RIVER_BT","semantic":"channel","river_class":"소하천","river_class_source":"중심선 공간조인","survey_method":"사진측량","admin_code":"11290"},"geometry":{"type":"Polygon","coordinates":[[[127.00947,37.60975],[127.00948,37.60972],[127.00945,37.60972],[127.00939,37.60969],[127.00931,37.60966],[127.00921,37.60964],[127.00919,37.60964],[127.00915,37.60964],[127.00912,37.60964],[127.00904,37.60964],[127.00898,37.60961],[127.00894,37.60957],[127.00893,37.60958],[127.00892,37.60962],[127.009,37.60965],[127.00909,37.60967],[127.00914,37.60968],[127.00918,37.60968],[127.00927,37.60969],[127.00939,37.60973],[127.0094,37.60974],[127.00947,37.60975]]]}},{"type":"Feature","id":"TN_RIVER_BT:WTR02000000002YK2","properties":{"NF_ID":"WTR02000000002YK2","source_layer":"TN_RIVER_BT","semantic":"channel","river_class":"소하천","river_class_source":"중심선 공간조인","survey_method":"사진측량","admin_code":"11290"},"geometry":{"type":"Polygon","coordinates":[[[127.02392,37.61018],[127.02398,37.61016],[127.024,37.61017],[127.02403,37.61017],[127.02405,37.61017],[127.02412,37.61015],[127.02414,37.61015],[127.02415,37.61015],[127.02415,37.61015],[127.02415,37.61015],[127.02414,37.61015],[127.0241,37.61015],[127.02407,37.61015],[127.02404,37.61016],[127.02401,37.61015],[127.02398,37.61015],[127.02395,37.61015],[127.0239,37.61017],[127.02386,37.61018],[127.02384,37.61019],[127.02378,37.61019],[127.0237,37.61019],[127.02365,37.6102],[127.02362,37.6102],[127.02357,37.6102],[127.02353,37.6102],[127.02352,37.6102],[127.02352,37.61022],[127.02351,37.61024],[127.02351,37.61025],[127.02349,37.61027],[127.02349,37.61028],[127.02348,37.61029],[127.02349,37.6103],[127.02351,37.6103],[127.02351,37.61028],[127.02352,37.61024],[127.02354,37.61021],[127.02356,37.61021],[127.0237,37.6102],[127.02378,37.6102],[127.02384,37.6102],[127.02387,37.61019],[127.0239,37.61018],[127.02392,37.61018]]]}},{"type":"Feature","id":"TN_RIVER_BT:WTR02000000002YSA","properties":{"NF_ID":"WTR02000000002YSA","source_layer":"TN_RIVER_BT","semantic":"channel","river_class":"소하천","river_class_source":"중심선 공간조인","survey_method":"사진측량","admin_code":"11290"},"geometry":{"type":"Polygon","coordinates":[[[127.00002,37.61577],[127.0,37.61576],[127.0,37.61578],[127.00001,37.61578],[127.00006,37.6158],[127.00011,37.61582],[127.00017,37.61583],[127.00022,37.61584],[127.00023,37.61585],[127.00027,37.61586],[127.00034,37.6159],[127.0004,37.61594],[127.00048,37.61597],[127.00053,37.616],[127.00059,37.61603],[127.00067,37.61607],[127.00078,37.61612],[127.00082,37.61614],[127.00086,37.61615],[127.00091,37.61617],[127.00095,37.61618],[127.00101,37.6162],[127.00105,37.61622],[127.0011,37.61624],[127.00114,37.61626],[127.00119,37.61627],[127.00123,37.61629],[127.00127,37.6163],[127.00129,37.6163],[127.0013,37.61631],[127.0013,37.61632],[127.00131,37.61634],[127.00133,37.61637],[127.00135,37.6164],[127.00137,37.61643],[127.00139,37.61642],[127.00136,37.61638],[127.00134,37.61634],[127.00132,37.61632],[127.00132,37.6163],[127.00131,37.6163],[127.00129,37.61629],[127.00125,37.61627],[127.00117,37.61625],[127.00112,37.61623],[127.00106,37.6162],[127.00101,37.61618],[127.00096,37.61617],[127.00091,37.61615],[127.00086,37.61614],[127.00081,37.61612],[127.00072,37.61608],[127.00065,37.61604],[127.00056,37.61599],[127.00046,37.61594],[127.00036,37.61589],[127.00027,37.61585],[127.00021,37.61582],[127.0001,37.6158],[127.00006,37.61579],[127.00002,37.61577]]]}},{"type":"Feature","id":"TN_RIVER_BT:WTR02000000002YUC","properties":{"NF_ID":"WTR02000000002YUC","source_layer":"TN_RIVER_BT","semantic":"channel","river_class":"지방하천","river_class_source":"중심선 공간조인","river_name":"정릉천","river_code":"1025290","survey_method":"사진측량","admin_code":"11290"},"geometry":{"type":"Polygon","coordinates":[[[127.00065,37.61684],[127.00182,37.61643],[127.00306,37.61639],[127.00399,37.61589],[127.0036,37.6164],[127.00439,37.61564],[127.00577,37.61528],[127.006,37.61328],[127.00798,37.61217],[127.00794,37.61113],[127.00863,37.61031],[127.00949,37.60577],[127.00925,37.60613],[127.00837,37.60613],[127.00925,37.60623],[127.00924,37.60765],[127.00853,37.61034],[127.00794,37.61094],[127.00798,37.61211],[127.00593,37.61329],[127.00573,37.61516],[127.00429,37.61561],[127.00306,37.61637],[127.00181,37.61641],[127.00091,37.6168],[127.0,37.6167],[127.00065,37.61684]],[[127.00931,37.60662],[127.00932,37.60662],[127.00933,37.60662],[127.00934,37.60662],[127.00935,37.60663],[127.00936,37.60663],[127.00937,37.60664],[127.00937,37.60664],[127.00938,37.60666],[127.00938,37.60667],[127.00939,37.60668],[127.00939,37.6067],[127.00939,37.60673],[127.00939,37.60679],[127.00938,37.60687],[127.00938,37.60694],[127.00937,37.60696],[127.00937,37.60698],[127.00937,37.60702],[127.00936,37.60707],[127.00936,37.60713],[127.00935,37.60718],[127.00934,37.60725],[127.00933,37.60728],[127.00933,37.60731],[127.00932,37.60733],[127.00932,37.60735],[127.00932,37.60735],[127.00931,37.60736],[127.00931,37.60736],[127.0093,37.60736],[127.00929,37.60737],[127.00928,37.60737],[127.00926,37.60737],[127.00925,37.60736],[127.00924,37.60736],[127.00924,37.60735],[127.00924,37.60735],[127.00923,37.60734],[127.00923,37.60733],[127.00922,37.6073],[127.00922,37.60726],[127.00921,37.60718],[127.00921,37.60713],[127.00921,37.60706],[127.00921,37.607],[127.00922,37.60694],[127.00923,37.60687],[127.00924,37.60679],[127.00924,37.60673],[127.00925,37.60668],[127.00926,37.60666],[127.00926,37.60665],[127.00926,37.60664],[127.00926,37.60663],[127.00926,37.60663],[127.00927,37.60662],[127.00928,37.60662],[127.00929,37.60662],[127.0093,37.60662],[127.00931,37.60662]]]}},{"type":"Feature","id":"TN_RIVER_BT:WTR02000000002YZH","properties":{"NF_ID":"WTR02000000002YZH","source_layer":"TN_RIVER_BT","semantic":"channel","river_class":"소하천","river_class_source":"중심선 공간조인","survey_method":"사진측량","admin_code":"11290"},"geometry":{"type":"Polygon","coordinates":[[[127.00738,37.6214],[127.00738,37.62139],[127.00738,37.62138],[127.00737,37.62139],[127.00737,37.62139],[127.00736,37.62139],[127.00736,37.6214],[127.00733,37.62142],[127.00732,37.62145],[127.00731,37.62145],[127.00731,37.62146],[127.0073,37.62147],[127.00729,37.62149],[127.00728,37.62151],[127.00726,37.62153],[127.00725,37.62155],[127.00724,37.62157],[127.00723,37.62158],[127.00722,37.62159],[127.00722,37.6216],[127.00721,37.62161],[127.0072,37.62162],[127.00718,37.62164],[127.00717,37.62165],[127.00717,37.62165],[127.00717,37.62165],[127.00717,37.62165],[127.00717,37.62165],[127.00718,37.62166],[127.00718,37.62166],[127.00718,37.62166],[127.00718,37.62166],[127.00719,37.62165],[127.00719,37.62165],[127.0072,37.62164],[127.00721,37.62162],[127.00722,37.62161],[127.00723,37.6216],[127.00724,37.62159],[127.00725,37.62158],[127.00726,37.62157],[127.00727,37.62155],[127.0073,37.62152],[127.0073,37.62151],[127.00731,37.62151],[127.00731,37.6215],[127.00732,37.62149],[127.00733,37.62148],[127.00733,37.62148],[127.00733,37.62147],[127.00735,37.62144],[127.00737,37.62142],[127.00737,37.62141],[127.00738,37.62141],[127.00738,37.6214],[127.00739,37.6214],[127.00738,37.6214]]]}},{"type":"Feature","id":"TN_RIVER_BT:WTR02000000002Z0J","properties":{"NF_ID":"WTR02000000002Z0J","source_layer":"TN_RIVER_BT","semantic":"channel","river_class":"소하천","river_class_source":"중심선 공간조인","survey_method":"사진측량","admin_code":"11290"},"geometry":{"type":"Polygon","coordinates":[[[127.00254,37.6187],[127.0025,37.62022],[127.00212,37.62067],[127.00225,37.62202],[127.00213,37.62071],[127.00252,37.62022],[127.00254,37.6187]]]}},{"type":"Feature","id":"TN_RIVER_BT:WTR0200000000306R","properties":{"NF_ID":"WTR0200000000306R","source_layer":"TN_RIVER_BT","semantic":"channel","river_class":"지방하천","river_class_source":"중심선 공간조인","river_name":"우이천","river_code":"1025220","survey_method":"사진측량","admin_code":"11290"},"geometry":{"type":"MultiPolygon","coordinates":[[[[127.06021,37.61597],[127.06023,37.61595],[127.06017,37.61598],[127.06021,37.61597]]],[[[127.05789,37.61721],[127.05804,37.61713],[127.05807,37.61711],[127.05828,37.61701],[127.05832,37.61698],[127.05836,37.61696],[127.05838,37.61695],[127.05849,37.61689],[127.05859,37.61682],[127.05882,37.61667],[127.05883,37.61667],[127.05846,37.61684],[127.05822,37.61696],[127.05815,37.617],[127.05795,37.61715],[127.05785,37.61723],[127.05789,37.61721]]],[[[127.05215,37.62209],[127.05222,37.62203],[127.05225,37.62201],[127.05226,37.622],[127.05233,37.62193],[127.05244,37.62184],[127.05252,37.62177],[127.05258,37.62171],[127.05262,37.62168],[127.05271,37.62161],[127.05273,37.62158],[127.05276,37.62155],[127.05282,37.62149],[127.05283,37.62147],[127.05288,37.62142],[127.05292,37.62137],[127.05298,37.62131],[127.05308,37.6212],[127.05316,37.62112],[127.05321,37.62106],[127.05325,37.62102],[127.05326,37.62101],[127.05331,37.62096],[127.05336,37.6209],[127.05339,37.62087],[127.05343,37.62082],[127.0535,37.62076],[127.05352,37.62073],[127.05365,37.62055],[127.05365,37.62054],[127.05368,37.62051],[127.05363,37.62055],[127.05342,37.62074],[127.05318,37.62098],[127.05301,37.62116],[127.05295,37.62117],[127.05292,37.62116],[127.0529,37.62116],[127.05289,37.62116],[127.05287,37.62118],[127.05287,37.62119],[127.05287,37.62119],[127.05289,37.6212],[127.05291,37.62121],[127.05292,37.62122],[127.05293,37.62124],[127.05293,37.62124],[127.05292,37.62125],[127.05291,37.62126],[127.05274,37.62144],[127.05245,37.62176],[127.05224,37.622],[127.05223,37.622],[127.05221,37.622],[127.05217,37.62199],[127.05212,37.62198],[127.05212,37.62198],[127.05212,37.62198],[127.05211,37.62199],[127.05211,37.62199],[127.05211,37.622],[127.05214,37.62201],[127.05217,37.62202],[127.05218,37.62202],[127.05219,37.62203],[127.05219,37.62203],[127.05219,37.62203],[127.05219,37.62205],[127.05217,37.62207],[127.0521,37.62213],[127.05215,37.62209]]],[[[127.05113,37.62316],[127.05116,37.62313],[127.05117,37.62313],[127.05126,37.62307],[127.05127,37.62306],[127.05128,37.62306],[127.05131,37.62303],[127.05138,37.62295],[127.05138,37.62295],[127.05139,37.62294],[127.05143,37.6229],[127.0515,37.62284],[127.05158,37.62276],[127.05165,37.6227],[127.0517,37.62264],[127.05176,37.62257],[127.05189,37.62247],[127.05195,37.62242],[127.052,37.62239],[127.05202,37.62238],[127.05216,37.62224],[127.05218,37.62221],[127.05211,37.62217],[127.0521,37.62217],[127.05208,37.62216],[127.05184,37.6224],[127.05154,37.62271],[127.05122,37.62305],[127.0511,37.62318],[127.05113,37.62316]]]]}},{"type":"Feature","id":"TN_RIVER_BT:WTR0200000000332Q","properties":{"NF_ID":"WTR0200000000332Q","source_layer":"TN_RIVER_BT","semantic":"channel","river_class":"국가하천","river_class_source":"중심선 공간조인","river_name":"한강","river_code":"1000010","survey_method":"사진측량","admin_code":"11290"},"geometry":{"type":"MultiPolygon","coordinates":[[[[127.02444,37.57921],[127.02367,37.57965],[127.02242,37.58198],[127.02022,37.58746],[127.0157,37.59095],[127.01419,37.59129],[127.013,37.59114],[127.01191,37.59057],[127.01082,37.58952],[127.00829,37.5878],[127.00756,37.5877],[127.00666,37.58816],[127.00769,37.58775],[127.00815,37.58779],[127.01071,37.58951],[127.0119,37.59063],[127.01337,37.59128],[127.01431,37.5913],[127.01569,37.59098],[127.01711,37.59016],[127.02037,37.58737],[127.02191,37.58311],[127.02392,37.5795],[127.02444,37.57921]]],[[[127.04075,37.59564],[127.03861,37.59126],[127.0404,37.59573],[127.04073,37.59964],[127.04095,37.59966],[127.04109,37.59777],[127.04075,37.59564]]],[[[127.07106,37.60762],[127.07092,37.6076],[127.07092,37.60763],[127.07092,37.60764],[127.07093,37.60764],[127.07099,37.60764],[127.07099,37.60764],[127.07101,37.60764],[127.07106,37.60762],[127.07106,37.60762]]],[[[127.07118,37.6147],[127.07171,37.61351],[127.07116,37.60872],[127.07106,37.61353],[127.06913,37.61451],[127.06794,37.61465],[127.06532,37.61407],[127.06551,37.61427],[127.06793,37.61479],[127.06888,37.61472],[127.06902,37.61488],[127.06969,37.61442],[127.07085,37.61424],[127.07118,37.6147]]]]}},{"type":"Feature","id":"TN_RIVER_BT:WTR02000000004CQO","properties":{"NF_ID":"WTR02000000004CQO","source_layer":"TN_RIVER_BT","semantic":"channel","river_class":"소하천","river_class_source":"중심선 공간조인","survey_method":"사진측량","admin_code":"11290"},"geometry":{"type":"Polygon","coordinates":[[[126.98643,37.59534],[126.98569,37.59502],[126.98542,37.59452],[126.98568,37.59505],[126.98643,37.59534]]]}},{"type":"Feature","id":"TN_RIVER_BT:WTR02000000004CRP","properties":{"NF_ID":"WTR02000000004CRP","source_layer":"TN_RIVER_BT","semantic":"channel","river_class":"소하천","river_class_source":"중심선 공간조인","survey_method":"사진측량","admin_code":"11290"},"geometry":{"type":"Polygon","coordinates":[[[126.98938,37.59561],[126.99024,37.59527],[126.98938,37.59559],[126.98854,37.59556],[126.98938,37.59561]]]}},{"type":"Feature","id":"TN_RIVER_BT:WTR02000000004CVT","properties":{"NF_ID":"WTR02000000004CVT","source_layer":"TN_RIVER_BT","semantic":"channel","river_class":"소하천","river_class_source":"중심선 공간조인","survey_method":"사진측량","admin_code":"11290"},"geometry":{"type":"Polygon","coordinates":[[[126.99915,37.59658],[126.99929,37.59626],[126.99897,37.59606],[126.99915,37.59658]]]}},{"type":"Feature","id":"TN_RIVER_BT:WTR02000000004D0Z","properties":{"NF_ID":"WTR02000000004D0Z","source_layer":"TN_RIVER_BT","semantic":"channel","river_class":"소하천","river_class_source":"중심선 공간조인","survey_method":"사진측량","admin_code":"11290"},"geometry":{"type":"Polygon","coordinates":[[[126.98357,37.5969],[126.9851,37.5959],[126.98773,37.59541],[126.98506,37.59587],[126.98494,37.59564],[126.98495,37.596],[126.98443,37.59616],[126.98255,37.59782],[126.98357,37.5969]]]}},{"type":"Feature","id":"TN_RIVER_BT:WTR02000000004D21","properties":{"NF_ID":"WTR02000000004D21","source_layer":"TN_RIVER_BT","semantic":"channel","river_class":"소하천","river_class_source":"중심선 공간조인","survey_method":"사진측량","admin_code":"11290"},"geometry":{"type":"Polygon","coordinates":[[[126.99398,37.59879],[126.99391,37.59878],[126.99391,37.59879],[126.99391,37.5988],[126.99392,37.59881],[126.99393,37.59883],[126.99393,37.59884],[126.99395,37.59886],[126.99396,37.59886],[126.99398,37.59888],[126.99398,37.59889],[126.99398,37.5989],[126.99398,37.59891],[126.99398,37.59892],[126.99403,37.59893],[126.99404,37.59891],[126.99404,37.59891],[126.99405,37.59889],[126.99404,37.59888],[126.99404,37.59887],[126.99403,37.59886],[126.99402,37.59885],[126.994,37.59884],[126.99399,37.59884],[126.99399,37.59883],[126.99398,37.59881],[126.99398,37.5988],[126.99398,37.59879]]]}},{"type":"Feature","id":"TN_RIVER_BT:WTR02000000004DFE","properties":{"NF_ID":"WTR02000000004DFE","source_layer":"TN_RIVER_BT","semantic":"channel","river_class":"소하천","river_class_source":"중심선 공간조인","survey_method":"사진측량","admin_code":"11290"},"geometry":{"type":"Polygon","coordinates":[[[126.99096,37.60202],[126.99099,37.60199],[126.99098,37.60199],[126.99094,37.60201],[126.99094,37.60201],[126.9909,37.60199],[126.99085,37.60196],[126.99084,37.60194],[126.99082,37.60193],[126.9908,37.60193],[126.99079,37.60193],[126.99078,37.60193],[126.99073,37.60195],[126.99066,37.60198],[126.9906,37.60201],[126.99058,37.60202],[126.9905,37.60205],[126.99052,37.60206],[126.99059,37.60203],[126.99061,37.60202],[126.99066,37.602],[126.99076,37.60194],[126.99077,37.60194],[126.99078,37.60194],[126.9908,37.60194],[126.99082,37.60194],[126.99083,37.60195],[126.99089,37.60199],[126.99094,37.60201],[126.99093,37.60204],[126.99092,37.60204],[126.99089,37.60206],[126.99089,37.60206],[126.99087,37.6021],[126.99088,37.6021],[126.9909,37.60207],[126.99091,37.60207],[126.99094,37.60204],[126.99094,37.60203],[126.99096,37.60202]]]}},{"type":"Feature","id":"TN_RIVER_BT:WTR02000000004DIH","properties":{"NF_ID":"WTR02000000004DIH","source_layer":"TN_RIVER_BT","semantic":"channel","river_class":"소하천","river_class_source":"중심선 공간조인","survey_method":"사진측량","admin_code":"11290"},"geometry":{"type":"Polygon","coordinates":[[[126.99877,37.6032],[126.9987,37.60318],[126.99868,37.60323],[126.99866,37.60329],[126.99863,37.60336],[126.9986,37.60342],[126.99857,37.6035],[126.99857,37.60352],[126.99862,37.60352],[126.99864,37.60346],[126.99867,37.60336],[126.99869,37.60328],[126.99872,37.60324],[126.99874,37.60322],[126.99877,37.6032]]]}},{"type":"Feature","id":"TN_RIVER_BT:WTR02000000004E33","properties":{"NF_ID":"WTR02000000004E33","source_layer":"TN_RIVER_BT","semantic":"channel","river_class":"소하천","river_class_source":"중심선 공간조인","survey_method":"사진측량","admin_code":"11290"},"geometry":{"type":"Polygon","coordinates":[[[126.99339,37.60665],[126.99245,37.60642],[126.99203,37.60654],[126.99246,37.60643],[126.99339,37.60665]]]}},{"type":"Feature","id":"TN_RIVER_BT:WTR02000000004E55","properties":{"NF_ID":"WTR02000000004E55","source_layer":"TN_RIVER_BT","semantic":"channel","river_class":"소하천","river_class_source":"중심선 공간조인","survey_method":"사진측량","admin_code":"11290"},"geometry":{"type":"Polygon","coordinates":[[[126.99603,37.60719],[126.99487,37.60689],[126.99538,37.60717],[126.99603,37.60719]]]}},{"type":"Feature","id":"TN_RIVER_BT:WTR02000000004E66","properties":{"NF_ID":"WTR02000000004E66","source_layer":"TN_RIVER_BT","semantic":"channel","river_class":"소하천","river_class_source":"중심선 공간조인","survey_method":"사진측량","admin_code":"11290"},"geometry":{"type":"Polygon","coordinates":[[[126.99175,37.6071],[126.99172,37.6071],[126.99174,37.60711],[126.99176,37.60711],[126.99178,37.60712],[126.99179,37.60712],[126.99181,37.60712],[126.99183,37.60712],[126.99185,37.60712],[126.99186,37.60712],[126.99188,37.60712],[126.99192,37.60713],[126.99198,37.60715],[126.99199,37.60715],[126.992,37.60716],[126.99201,37.60716],[126.99213,37.60721],[126.99216,37.60722],[126.99219,37.60724],[126.9922,37.60724],[126.99221,37.60725],[126.99222,37.60726],[126.99223,37.60727],[126.99223,37.60728],[126.99224,37.60729],[126.99225,37.6073],[126.99226,37.60731],[126.99227,37.60732],[126.99227,37.60733],[126.99228,37.60732],[126.99228,37.60732],[126.99228,37.60731],[126.99227,37.6073],[126.99226,37.60728],[126.99225,37.60727],[126.99224,37.60726],[126.99223,37.60725],[126.99222,37.60724],[126.99221,37.60723],[126.99215,37.60721],[126.99214,37.6072],[126.99201,37.60716],[126.99201,37.60715],[126.992,37.60715],[126.99198,37.60714],[126.99192,37.60713],[126.99188,37.60712],[126.99185,37.60711],[126.99184,37.60711],[126.99181,37.60711],[126.99178,37.60711],[126.99175,37.6071]]]}},{"type":"Feature","id":"TN_RIVER_BT:WTR02000000004EAA","properties":{"NF_ID":"WTR02000000004EAA","source_layer":"TN_RIVER_BT","semantic":"channel","river_class":"소하천","river_class_source":"중심선 공간조인","survey_method":"사진측량","admin_code":"11290"},"geometry":{"type":"Polygon","coordinates":[[[126.99856,37.60835],[126.99854,37.60832],[126.9985,37.60834],[126.99848,37.60836],[126.99846,37.60838],[126.99844,37.6084],[126.99841,37.60842],[126.99839,37.60844],[126.99837,37.60845],[126.99835,37.60847],[126.99833,37.60849],[126.99831,37.60851],[126.99828,37.60856],[126.99826,37.60857],[126.99823,37.60859],[126.99821,37.60861],[126.99818,37.60862],[126.99814,37.60864],[126.99812,37.60865],[126.99809,37.60866],[126.99805,37.60867],[126.99797,37.6087],[126.99791,37.60871],[126.99789,37.60872],[126.99788,37.60872],[126.99775,37.60876],[126.99791,37.60876],[126.99794,37.60875],[126.99798,37.60874],[126.99801,37.60872],[126.99808,37.60869],[126.99811,37.60868],[126.99813,37.60867],[126.99815,37.60866],[126.99818,37.60865],[126.99821,37.60863],[126.99824,37.60861],[126.99827,37.60859],[126.9983,37.60856],[126.99833,37.60854],[126.99836,37.60851],[126.99838,37.60849],[126.99843,37.60844],[126.99845,37.60842],[126.99848,37.6084],[126.9985,37.60838],[126.99854,37.60836],[126.99856,37.60835]]]}},{"type":"Feature","id":"TN_RIVER_BT:WTR02000000004ECC","properties":{"NF_ID":"WTR02000000004ECC","source_layer":"TN_RIVER_BT","semantic":"channel","river_class":"소하천","river_class_source":"중심선 공간조인","survey_method":"사진측량","admin_code":"11290"},"geometry":{"type":"Polygon","coordinates":[[[126.99343,37.60868],[126.9934,37.60867],[126.99339,37.60867],[126.99339,37.60867],[126.99339,37.60868],[126.9934,37.60868],[126.99341,37.60869],[126.99344,37.60871],[126.99345,37.60872],[126.99347,37.60873],[126.99349,37.60875],[126.99351,37.60878],[126.99354,37.60881],[126.99361,37.60885],[126.99366,37.60887],[126.99376,37.60894],[126.99377,37.60893],[126.99375,37.6089],[126.99371,37.60888],[126.99366,37.60884],[126.99354,37.60878],[126.9935,37.60873],[126.99346,37.6087],[126.99343,37.60868]]]}},{"type":"Feature","id":"TN_RIVER_BT:WTR02000000004EEE","properties":{"NF_ID":"WTR02000000004EEE","source_layer":"TN_RIVER_BT","semantic":"channel","river_class":"소하천","river_class_source":"중심선 공간조인","survey_method":"사진측량","admin_code":"11290"},"geometry":{"type":"Polygon","coordinates":[[[126.99602,37.60928],[126.99598,37.609],[126.99642,37.60871],[126.99764,37.6088],[126.9964,37.6087],[126.99568,37.60944],[126.99596,37.60927],[126.99618,37.60949],[126.99602,37.60928]]]}},{"type":"Feature","id":"TN_RIVER_BT:WTR02000000004EOO","properties":{"NF_ID":"WTR02000000004EOO","source_layer":"TN_RIVER_BT","semantic":"channel","river_class":"소하천","river_class_source":"중심선 공간조인","survey_method":"사진측량","admin_code":"11290"},"geometry":{"type":"Polygon","coordinates":[[[126.99339,37.6105],[126.99338,37.61046],[126.99329,37.61053],[126.99327,37.61056],[126.99327,37.61056],[126.99319,37.61065],[126.99311,37.61071],[126.99301,37.61079],[126.99293,37.61083],[126.99295,37.61085],[126.99296,37.61084],[126.99297,37.61084],[126.99298,37.61083],[126.99299,37.61083],[126.99301,37.61082],[126.99315,37.61071],[126.99321,37.61067],[126.99329,37.61058],[126.99329,37.61057],[126.99333,37.61054],[126.99338,37.6105],[126.99339,37.6105]]]}},{"type":"Feature","id":"TN_RIVER_BT:WTR02000000004EQQ","properties":{"NF_ID":"WTR02000000004EQQ","source_layer":"TN_RIVER_BT","semantic":"channel","river_class":"소하천","river_class_source":"중심선 공간조인","survey_method":"사진측량","admin_code":"11290"},"geometry":{"type":"Polygon","coordinates":[[[126.99276,37.61097],[126.99275,37.61096],[126.9927,37.61099],[126.99269,37.61099],[126.99265,37.61103],[126.99255,37.61114],[126.99248,37.61122],[126.99244,37.61126],[126.99242,37.6113],[126.99242,37.6113],[126.99244,37.6113],[126.99247,37.61126],[126.99251,37.61123],[126.99256,37.61118],[126.99261,37.61113],[126.99264,37.6111],[126.99266,37.61107],[126.99268,37.61105],[126.99272,37.611],[126.99273,37.61099],[126.99276,37.61097]]]}},{"type":"Feature","id":"TN_RIVER_BT:WTR02000000004ERR","properties":{"NF_ID":"WTR02000000004ERR","source_layer":"TN_RIVER_BT","semantic":"channel","river_class":"소하천","river_class_source":"중심선 공간조인","survey_method":"사진측량","admin_code":"11290"},"geometry":{"type":"Polygon","coordinates":[[[126.98915,37.61149],[126.98917,37.61149],[126.98924,37.6115],[126.98926,37.6115],[126.98928,37.61149],[126.9893,37.61148],[126.98933,37.61147],[126.98937,37.61147],[126.98937,37.61147],[126.98934,37.61147],[126.98932,37.61147],[126.98927,37.61148],[126.98917,37.61147],[126.98911,37.61149],[126.98909,37.61149],[126.98906,37.61148],[126.98903,37.61147],[126.989,37.61146],[126.98898,37.61145],[126.98893,37.61141],[126.98891,37.6114],[126.98891,37.6114],[126.98889,37.6114],[126.98885,37.61141],[126.98888,37.61141],[126.98891,37.61142],[126.98895,37.61144],[126.98898,37.61146],[126.98904,37.61149],[126.98907,37.61149],[126.98908,37.6115],[126.9891,37.6115],[126.98913,37.6115],[126.98915,37.61149]]]}},{"type":"Feature","id":"TN_RIVER_BT:WTR02000000004EZZ","properties":{"NF_ID":"WTR02000000004EZZ","source_layer":"TN_RIVER_BT","semantic":"channel","river_class":"소하천","river_class_source":"중심선 공간조인","survey_method":"사진측량","admin_code":"11290"},"geometry":{"type":"Polygon","coordinates":[[[126.99391,37.61336],[126.99431,37.61314],[126.99441,37.61264],[126.99383,37.61344],[126.99306,37.61358],[126.99309,37.61405],[126.99309,37.61366],[126.99391,37.61336]]]}},{"type":"Feature","id":"TN_RIVER_BT:WTR02000000004F89","properties":{"NF_ID":"WTR02000000004F89","source_layer":"TN_RIVER_BT","semantic":"channel","river_class":"소하천","river_class_source":"중심선 공간조인","survey_method":"사진측량","admin_code":"11290"},"geometry":{"type":"Polygon","coordinates":[[[126.99987,37.61571],[126.99987,37.61571],[126.99987,37.61571],[126.99986,37.61573],[126.99986,37.61573],[126.99986,37.61573],[127.0,37.61578],[127.0,37.61576],[126.99987,37.61571]]]}},{"type":"Feature","id":"TN_RIVER_BT:WTR02000000004FBC","properties":{"NF_ID":"WTR02000000004FBC","source_layer":"TN_RIVER_BT","semantic":"channel","river_class":"지방하천","river_class_source":"중심선 공간조인","river_name":"정릉천","river_code":"1025290","survey_method":"사진측량","admin_code":"11290"},"geometry":{"type":"Polygon","coordinates":[[[126.99772,37.61783],[126.99904,37.6176],[126.99916,37.61683],[127.0,37.6167],[126.99914,37.61676],[126.99902,37.61751],[126.9981,37.61784],[126.9977,37.61777],[126.99693,37.61831],[126.99772,37.61783]]]}},{"type":"Feature","id":"TN_RIVER_BT:WTR02000000004FJK","properties":{"NF_ID":"WTR02000000004FJK","source_layer":"TN_RIVER_BT","semantic":"channel","river_class":"지방하천","river_class_source":"중심선 공간조인","river_name":"정릉천","river_code":"1025290","survey_method":"사진측량","admin_code":"11290"},"geometry":{"type":"Polygon","coordinates":[[[126.99501,37.62027],[126.9955,37.62028],[126.99563,37.61999],[126.99544,37.62022],[126.99373,37.62054],[126.99312,37.62164],[126.99363,37.62076],[126.99501,37.62027]]]}}]}