{"type":"FeatureCollection","features":[{"type":"Feature","id":"TN_RIVER_BT:WTR0200000000AQVD","properties":{"NF_ID":"WTR0200000000AQVD","source_layer":"TN_RIVER_BT","semantic":"channel","river_class":"소하천","river_class_source":"중심선 공간조인","survey_method":"사진측량","admin_code":"26380"},"geometry":{"type":"Polygon","coordinates":[[[129.01273,35.09165],[129.0126,35.09153],[129.01194,35.092],[129.01273,35.09165]]]}},{"type":"Feature","id":"TN_RIVER_BT:WTR0200000000AQXF","properties":{"NF_ID":"WTR0200000000AQXF","source_layer":"TN_RIVER_BT","semantic":"channel","river_class":"소하천","river_class_source":"중심선 공간조인","survey_method":"사진측량","admin_code":"26380"},"geometry":{"type":"Polygon","coordinates":[[[129.00024,35.1016],[129.00021,35.10156],[129.00019,35.10157],[129.0002,35.10159],[129.00021,35.10161],[129.00023,35.10163],[129.00024,35.10164],[129.00027,35.10165],[129.00027,35.10165],[129.0003,35.10166],[129.00033,35.10167],[129.00035,35.10168],[129.00038,35.10168],[129.00041,35.10169],[129.00045,35.1017],[129.0005,35.10171],[129.00056,35.10173],[129.00058,35.10171],[129.00054,35.1017],[129.00051,35.10169],[129.00046,35.10167],[129.00042,35.10167],[129.00036,35.10166],[129.00034,35.10165],[129.00028,35.10163],[129.00026,35.10161],[129.00024,35.1016]]]}},{"type":"Feature","id":"TN_RIVER_BT:WTR0200000000BURE","properties":{"NF_ID":"WTR0200000000BURE","source_layer":"TN_RIVER_BT","semantic":"channel","river_class":"소하천","river_class_source":"중심선 공간조인","survey_method":"사진측량","admin_code":"26380"},"geometry":{"type":"MultiPolygon","coordinates":[[[[128.96362,35.0477],[128.96356,35.04773],[128.96351,35.04776],[128.96346,35.04779],[128.96344,35.04781],[128.96341,35.04784],[128.96341,35.04784],[128.96344,35.04781],[128.96346,35.04779],[128.96351,35.04776],[128.96356,35.04773],[128.96362,35.0477],[128.96362,35.0477],[128.96362,35.0477]]],[[[128.9638,35.04763],[128.96379,35.04763],[128.96377,35.04764],[128.96374,35.04765],[128.96372,35.04766],[128.96369,35.04767],[128.96369,35.04767],[128.96369,35.04767],[128.96372,35.04766],[128.96374,35.04765],[128.96377,35.04764],[128.96379,35.04763],[128.9638,35.04763],[128.96382,35.04762],[128.9638,35.04763]]],[[[128.96434,35.04748],[128.96431,35.04749],[128.96426,35.0475],[128.96421,35.04751],[128.96415,35.04752],[128.9641,35.04754],[128.96406,35.04755],[128.96403,35.04756],[128.96398,35.04757],[128.96392,35.04759],[128.96385,35.04761],[128.96383,35.04762],[128.96385,35.04761],[128.96392,35.04759],[128.96398,35.04757],[128.96403,35.04756],[128.96406,35.04755],[128.9641,35.04754],[128.96415,35.04752],[128.96421,35.04751],[128.96426,35.0475],[128.96431,35.04749],[128.96434,35.04748],[128.96434,35.04748],[128.96434,35.04748]]],[[[128.96452,35.04739],[128.96514,35.04714],[128.96556,35.0466],[128.96654,35.04621],[128.9679,35.04485],[128.96832,35.04394],[128.96765,35.0431],[128.96822,35.04392],[128.96801,35.04459],[128.96642,35.04624],[128.96553,35.04656],[128.96452,35.04739]]],[[[128.9645,35.04736],[128.96451,35.04736],[128.96447,35.04737],[128.9645,35.04736]]],[[[128.964,35.0475],[128.96402,35.0475],[128.964,35.0475],[128.96398,35.04751],[128.964,35.0475]]],[[[128.96377,35.04758],[128.96382,35.04756],[128.96373,35.04759],[128.96377,35.04758]]],[[[128.96356,35.04765],[128.96357,35.04765],[128.96356,35.04765],[128.96355,35.04765],[128.96356,35.04765]]]]}},{"type":"Feature","id":"TN_RIVER_BT:WTR0200000000BUYL","properties":{"NF_ID":"WTR0200000000BUYL","source_layer":"TN_RIVER_BT","semantic":"channel","river_class":"소하천","river_class_source":"중심선 공간조인","survey_method":"사진측량","admin_code":"26380"},"geometry":{"type":"MultiPolygon","coordinates":[[[[128.95372,35.07238],[128.95321,35.07229],[128.95275,35.07221],[128.95274,35.07224],[128.95281,35.07224],[128.95313,35.07229],[128.95367,35.07238],[128.95381,35.0724],[128.95385,35.07241],[128.95372,35.07238]]],[[[128.95701,35.07297],[128.95681,35.07294],[128.95633,35.07285],[128.95545,35.07267],[128.95527,35.07265],[128.95486,35.07258],[128.95462,35.07254],[128.95409,35.07245],[128.95432,35.07249],[128.95462,35.07255],[128.95505,35.07263],[128.95507,35.07267],[128.95507,35.07268],[128.95509,35.07268],[128.95509,35.07267],[128.95513,35.07264],[128.95539,35.07269],[128.95549,35.0727],[128.95631,35.07285],[128.95633,35.07285],[128.95701,35.07297],[128.95723,35.07301],[128.95701,35.07297]]],[[[128.95774,35.07314],[128.95772,35.07313],[128.95769,35.07311],[128.95767,35.0731],[128.95769,35.07311],[128.95772,35.07313],[128.95774,35.07314],[128.95775,35.07315],[128.95774,35.07314]]],[[[128.9578,35.07323],[128.95779,35.07322],[128.9578,35.07323],[128.9578,35.07325],[128.9578,35.07323]]],[[[128.95808,35.07338],[128.95808,35.07338],[128.95808,35.07338],[128.95808,35.07337],[128.95808,35.07337],[128.95808,35.07338]]],[[[128.95809,35.07336],[128.95808,35.07337],[128.95809,35.07336],[128.95809,35.07335],[128.95809,35.07336]]],[[[128.95813,35.07329],[128.95795,35.07345],[128.95823,35.07346],[128.95813,35.07329]]],[[[128.95821,35.07304],[128.95822,35.07305],[128.95822,35.07306],[128.95822,35.07307],[128.95822,35.07308],[128.95821,35.0731],[128.95819,35.07311],[128.95815,35.07312],[128.95812,35.07314],[128.95812,35.07316],[128.95815,35.07322],[128.95815,35.07322],[128.95816,35.07321],[128.95818,35.0732],[128.95819,35.07319],[128.95819,35.07318],[128.9582,35.07316],[128.9582,35.07315],[128.9582,35.07312],[128.95822,35.07311],[128.95825,35.07311],[128.95826,35.07311],[128.95827,35.07311],[128.95828,35.07311],[128.95828,35.07311],[128.95829,35.07311],[128.95829,35.0731],[128.9583,35.07309],[128.95829,35.07309],[128.95828,35.07308],[128.95821,35.07303],[128.9582,35.07303],[128.95821,35.07304]]],[[[128.95794,35.07286],[128.95794,35.07289],[128.95797,35.07291],[128.95818,35.07301],[128.95814,35.07298],[128.95799,35.07291],[128.95794,35.07287],[128.95794,35.07286],[128.95794,35.07286]]],[[[128.95328,35.07214],[128.95377,35.07222],[128.95402,35.07226],[128.95468,35.07239],[128.95511,35.07246],[128.95532,35.07249],[128.95558,35.07253],[128.95614,35.07263],[128.95673,35.07274],[128.95686,35.07276],[128.9569,35.07277],[128.95741,35.07285],[128.95764,35.07289],[128.95769,35.0729],[128.95772,35.0729],[128.95774,35.0729],[128.95779,35.0729],[128.95782,35.07289],[128.95785,35.07287],[128.95787,35.07286],[128.9579,35.07284],[128.95791,35.07283],[128.95792,35.07283],[128.95792,35.07283],[128.95791,35.07283],[128.95791,35.07283],[128.95788,35.07284],[128.9578,35.07288],[128.95779,35.07289],[128.95777,35.07289],[128.95771,35.07289],[128.95753,35.07286],[128.95699,35.07277],[128.95664,35.07271],[128.95624,35.07264],[128.95577,35.07256],[128.95544,35.0725],[128.95522,35.07246],[128.95484,35.07238],[128.95413,35.07226],[128.9538,35.0722],[128.9538,35.07215],[128.95378,35.07215],[128.95377,35.07215],[128.95375,35.07219],[128.95343,35.07214],[128.95286,35.07204],[128.9528,35.07202],[128.95279,35.07205],[128.95328,35.07214]]]]}},{"type":"Feature","id":"TN_RIVER_BT:WTR0200000000BV1P","properties":{"NF_ID":"WTR0200000000BV1P","source_layer":"TN_RIVER_BT","semantic":"channel","river_class":"소하천","river_class_source":"중심선 공간조인","survey_method":"사진측량","admin_code":"26380"},"geometry":{"type":"Polygon","coordinates":[[[128.95774,35.08174],[128.95797,35.0812],[128.95767,35.08104],[128.9509,35.07929],[128.95074,35.07991],[128.95774,35.08174]]]}},{"type":"Feature","id":"TN_RIVER_BT:WTR0200000000BVAY","properties":{"NF_ID":"WTR0200000000BVAY","source_layer":"TN_RIVER_BT","semantic":"channel","river_class":"소하천","river_class_source":"중심선 공간조인","survey_method":"사진측량","admin_code":"26380"},"geometry":{"type":"Polygon","coordinates":[[[128.96221,35.09102],[128.96196,35.09084],[128.96235,35.09121],[128.96248,35.09208],[128.96221,35.09102]]]}},{"type":"Feature","id":"TN_RIVER_BT:WTR0200000000BVE2","properties":{"NF_ID":"WTR0200000000BVE2","source_layer":"TN_RIVER_BT","semantic":"channel","river_class":"소하천","river_class_source":"중심선 공간조인","survey_method":"사진측량","admin_code":"26380"},"geometry":{"type":"Polygon","coordinates":[[[128.93603,35.09982],[128.93548,35.09838],[128.93559,35.09806],[128.93419,35.09839],[128.93542,35.09827],[128.93603,35.09982]]]}},{"type":"Feature","id":"TN_RIVER_BT:WTR0200000000BVF3","properties":{"NF_ID":"WTR0200000000BVF3","source_layer":"TN_RIVER_BT","semantic":"channel","river_class":"소하천","river_class_source":"중심선 공간조인","survey_method":"사진측량","admin_code":"26380"},"geometry":{"type":"Polygon","coordinates":[[[128.94639,35.10066],[128.94599,35.09969],[128.94623,35.09909],[128.94665,35.09915],[128.94686,35.09948],[128.94696,35.09882],[128.94682,35.09919],[128.94619,35.09902],[128.94606,35.09762],[128.94676,35.09718],[128.9467,35.097],[128.94571,35.09676],[128.94396,35.09591],[128.94225,35.09562],[128.94081,35.09312],[128.94066,35.0932],[128.94209,35.09572],[128.94237,35.09592],[128.94366,35.09601],[128.94278,35.09605],[128.94385,35.09627],[128.94562,35.09717],[128.94578,35.09926],[128.9458,35.0991],[128.94598,35.09919],[128.9458,35.09982],[128.94642,35.10191],[128.94631,35.10226],[128.94652,35.10237],[128.94655,35.10201],[128.94627,35.10118],[128.94639,35.10066]],[[128.94608,35.10085],[128.94605,35.10085],[128.94604,35.10084],[128.94604,35.10082],[128.94604,35.10081],[128.94604,35.10074],[128.94604,35.1007],[128.94603,35.10059],[128.94602,35.10042],[128.94601,35.1003],[128.94601,35.10027],[128.94601,35.10025],[128.946,35.10024],[128.946,35.10023],[128.94599,35.10021],[128.94595,35.10018],[128.94593,35.10016],[128.94593,35.10015],[128.94592,35.10012],[128.94592,35.1001],[128.94592,35.10009],[128.94593,35.10009],[128.94594,35.10009],[128.94595,35.10009],[128.946,35.10012],[128.94605,35.10016],[128.94608,35.10021],[128.94609,35.10023],[128.94609,35.10026],[128.9461,35.10027],[128.9461,35.10034],[128.9461,35.10054],[128.94609,35.1007],[128.94609,35.10084],[128.94609,35.10085],[128.94608,35.10085]],[[128.94599,35.10007],[128.94594,35.10004],[128.9459,35.10003],[128.9459,35.10001],[128.94589,35.1],[128.94589,35.1],[128.9459,35.09999],[128.9459,35.09998],[128.9459,35.09997],[128.94591,35.09997],[128.94594,35.09997],[128.94599,35.1],[128.94602,35.10002],[128.94607,35.10007],[128.94607,35.1001],[128.94607,35.10011],[128.94607,35.10012],[128.94606,35.10012],[128.94605,35.10011],[128.94599,35.10007]],[[128.94582,35.09763],[128.94583,35.09763],[128.94584,35.09764],[128.94586,35.09766],[128.9459,35.0979],[128.94591,35.09797],[128.94592,35.09802],[128.94592,35.09806],[128.94592,35.09809],[128.94592,35.09814],[128.94588,35.09839],[128.94588,35.09843],[128.94588,35.09847],[128.94587,35.09853],[128.94587,35.09857],[128.94587,35.09863],[128.94587,35.09866],[128.94586,35.09877],[128.94586,35.09879],[128.94585,35.09879],[128.94584,35.0988],[128.94583,35.0988],[128.94582,35.09879],[128.94581,35.09877],[128.9458,35.09875],[128.94579,35.09874],[128.94579,35.09871],[128.94579,35.09869],[128.94578,35.09865],[128.94578,35.09863],[128.94578,35.0986],[128.94578,35.0985],[128.94578,35.09847],[128.94577,35.0983],[128.94577,35.09816],[128.94577,35.09801],[128.94578,35.09783],[128.94578,35.0978],[128.94578,35.09774],[128.94578,35.09772],[128.94578,35.09769],[128.94578,35.09766],[128.94579,35.09764],[128.9458,35.09763],[128.94581,35.09763],[128.94582,35.09763]],[[128.94426,35.09622],[128.94556,35.09691],[128.94421,35.09636],[128.94426,35.09622]],[[128.94408,35.09615],[128.9441,35.09616],[128.94412,35.09618],[128.94412,35.09619],[128.94412,35.0962],[128.94412,35.0962],[128.94412,35.09621],[128.94411,35.09622],[128.94409,35.09622],[128.94405,35.09622],[128.94403,35.09622],[128.94402,35.09621],[128.94401,35.0962],[128.94401,35.0962],[128.94402,35.09618],[128.94403,35.09617],[128.94404,35.09616],[128.94406,35.09616],[128.94408,35.09615]]]}},{"type":"Feature","id":"TN_RIVER_BT:WTR0200000000BVI6","properties":{"NF_ID":"WTR0200000000BVI6","source_layer":"TN_RIVER_BT","semantic":"channel","river_class":"소하천","river_class_source":"중심선 공간조인","survey_method":"사진측량","admin_code":"26380"},"geometry":{"type":"MultiPolygon","coordinates":[[[[128.95629,35.10367],[128.95705,35.10361],[128.95791,35.10389],[128.95798,35.10359],[128.95729,35.10333],[128.95627,35.10347],[128.95629,35.10367]]],[[[128.95627,35.10347],[128.95624,35.10347],[128.95624,35.10347],[128.95627,35.10347]]]]}},{"type":"Feature","id":"TN_RIVER_BT:WTR0200000000BVJ7","properties":{"NF_ID":"WTR0200000000BVJ7","source_layer":"TN_RIVER_BT","semantic":"channel","river_class":"지방하천","river_class_source":"중심선 공간조인","river_name":"괴정천","river_code":"2621180","survey_method":"사진측량","admin_code":"26380"},"geometry":{"type":"Polygon","coordinates":[[[128.95638,35.10447],[128.95642,35.10485],[128.95807,35.10528],[128.96331,35.10503],[128.96318,35.10479],[128.95772,35.1049],[128.95638,35.10447]]]}},{"type":"Feature","id":"TN_RIVER_BT:WTR0200000000BVRF","properties":{"NF_ID":"WTR0200000000BVRF","source_layer":"TN_RIVER_BT","semantic":"channel","river_class":"소하천","river_class_source":"중심선 공간조인","survey_method":"사진측량","admin_code":"26380"},"geometry":{"type":"Polygon","coordinates":[[[128.98229,35.10979],[128.98171,35.10975],[128.98029,35.1091],[128.97961,35.1091],[128.98319,35.11011],[128.98369,35.1109],[128.98322,35.11005],[128.98229,35.10979]]]}},{"type":"Feature","id":"TN_RIVER_BT:WTR0200000000BW3S","properties":{"NF_ID":"WTR0200000000BW3S","source_layer":"TN_RIVER_BT","semantic":"channel","river_class":"소하천","river_class_source":"중심선 공간조인","survey_method":"사진측량","admin_code":"26380"},"geometry":{"type":"Polygon","coordinates":[[[128.98803,35.11533],[128.98829,35.1153],[128.98731,35.11497],[128.98607,35.11289],[128.98544,35.11262],[128.98514,35.11189],[128.98407,35.11127],[128.98506,35.11187],[128.98544,35.11269],[128.986,35.11289],[128.98727,35.11503],[128.9879,35.1153],[128.98764,35.11596],[128.98826,35.11658],[128.98852,35.11766],[128.9883,35.11655],[128.98771,35.11593],[128.98803,35.11533]],[[128.98623,35.11326],[128.98624,35.11326],[128.98625,35.11326],[128.98626,35.11327],[128.98627,35.11327],[128.98628,35.11328],[128.9863,35.11331],[128.9863,35.11334],[128.9863,35.11336],[128.98629,35.11337],[128.98629,35.11338],[128.98626,35.11338],[128.98625,35.11339],[128.98624,35.11339],[128.98622,35.11338],[128.98621,35.11338],[128.98618,35.11334],[128.98617,35.11333],[128.98617,35.11332],[128.98617,35.11329],[128.98618,35.11328],[128.98619,35.11328],[128.9862,35.11327],[128.98621,35.11327],[128.98623,35.11326]]]}},{"type":"Feature","id":"TN_RIVER_BT:WTR0200000000C3MJ","properties":{"NF_ID":"WTR0200000000C3MJ","source_layer":"TN_RIVER_BT","semantic":"channel","river_class":"국가하천","river_class_source":"중심선 공간조인","river_name":"서낙동강","river_code":"2400010","survey_method":"사진측량","admin_code":"26380"},"geometry":{"type":"MultiPolygon","coordinates":[[[[128.95051,35.10724],[128.9505,35.10723],[128.9505,35.10723],[128.95051,35.10725],[128.95051,35.10724]]],[[[128.95604,35.10644],[128.95051,35.10725],[128.95062,35.10797],[128.95022,35.10816],[128.95126,35.11365],[128.9499,35.10794],[128.94953,35.10799],[128.94934,35.10773],[128.94939,35.10803],[128.94893,35.1081],[128.95024,35.11416],[128.95177,35.11696],[128.95215,35.12137],[128.95131,35.12062],[128.94963,35.11974],[128.94978,35.11966],[128.94949,35.11929],[128.94919,35.11917],[128.94911,35.11933],[128.94843,35.11892],[128.9476,35.11786],[128.94563,35.11653],[128.94323,35.11396],[128.94163,35.11284],[128.94147,35.11235],[128.94083,35.11229],[128.93968,35.11146],[128.93965,35.1108],[128.93914,35.1099],[128.93875,35.10982],[128.9384,35.10886],[128.93837,35.1092],[128.93527,35.10994],[128.935,35.11125],[128.93585,35.11231],[128.93817,35.11412],[128.94204,35.11909],[128.94578,35.12188],[128.94778,35.1227],[128.95126,35.12901],[128.95308,35.13128],[128.95675,35.13511],[128.95941,35.13663],[128.96223,35.13683],[128.96223,35.13561],[128.96128,35.13271],[128.96057,35.13105],[128.9586,35.12775],[128.95746,35.1243],[128.95758,35.12209],[128.95819,35.11887],[128.95944,35.11771],[128.96009,35.11929],[128.95787,35.11257],[128.95669,35.1072],[128.95626,35.10718],[128.95604,35.10644]]]]}}]}