{"type":"FeatureCollection","features":[{"type":"Feature","id":"TN_RIVER_BT:WTR0200000000AS4O","properties":{"NF_ID":"WTR0200000000AS4O","admin_code":"26350","source_layer":"TN_RIVER_BT","semantic":"channel","river_class":"소하천","river_class_source":"중심선 공간조인","survey_method":"사진측량"},"geometry":{"type":"Polygon","coordinates":[[[129.1533,35.17098],[129.1534,35.17093],[129.15341,35.17092],[129.15342,35.17092],[129.15344,35.17089],[129.15344,35.17088],[129.15344,35.17086],[129.15344,35.17085],[129.15342,35.17084],[129.15342,35.17085],[129.15341,35.17086],[129.1534,35.17087],[129.15336,35.17091],[129.15334,35.17092],[129.15333,35.17093],[129.15332,35.17093],[129.15331,35.17094],[129.15326,35.17096],[129.15324,35.17096],[129.15322,35.17096],[129.15317,35.17096],[129.15311,35.17096],[129.1531,35.17096],[129.15309,35.17097],[129.15308,35.17097],[129.15308,35.17097],[129.15307,35.17097],[129.15307,35.17098],[129.15306,35.171],[129.15305,35.17102],[129.15304,35.1711],[129.15304,35.17113],[129.15304,35.17113],[129.15304,35.17114],[129.15305,35.17114],[129.15305,35.17114],[129.15306,35.17113],[129.15306,35.17112],[129.15308,35.17109],[129.15308,35.17108],[129.1531,35.17105],[129.15311,35.17105],[129.15311,35.17104],[129.15313,35.17103],[129.15318,35.17102],[129.1532,35.17101],[129.15321,35.171],[129.1533,35.17098]]]}},{"type":"Feature","id":"TN_RIVER_BT:WTR0200000000AS6Q","properties":{"NF_ID":"WTR0200000000AS6Q","admin_code":"26350","source_layer":"TN_RIVER_BT","semantic":"channel","river_class":"소하천","river_class_source":"중심선 공간조인","survey_method":"사진측량"},"geometry":{"type":"Polygon","coordinates":[[[129.14304,35.17258],[129.14295,35.17254],[129.14293,35.17259],[129.14293,35.1726],[129.1431,35.17263],[129.14328,35.17265],[129.1434,35.17265],[129.14339,35.1726],[129.14306,35.17258],[129.14304,35.17258]]]}},{"type":"Feature","id":"TN_RIVER_BT:WTR0200000000AS7R","properties":{"NF_ID":"WTR0200000000AS7R","admin_code":"26350","source_layer":"TN_RIVER_BT","semantic":"channel","river_class":"소하천","river_class_source":"중심선 공간조인","survey_method":"사진측량"},"geometry":{"type":"Polygon","coordinates":[[[129.1458,35.17259],[129.14551,35.1725],[129.14536,35.17249],[129.14534,35.17248],[129.14522,35.17251],[129.14522,35.17253],[129.14535,35.17251],[129.14539,35.17251],[129.14577,35.1726],[129.14581,35.17261],[129.14586,35.17262],[129.1458,35.17259]]]}},{"type":"Feature","id":"TN_RIVER_BT:WTR0200000000AS9T","properties":{"NF_ID":"WTR0200000000AS9T","admin_code":"26350","source_layer":"TN_RIVER_BT","semantic":"channel","river_class":"소하천","river_class_source":"중심선 공간조인","survey_method":"사진측량"},"geometry":{"type":"Polygon","coordinates":[[[129.14865,35.17312],[129.14747,35.17312],[129.14851,35.17304],[129.1491,35.17391],[129.15003,35.1745],[129.15084,35.17582],[129.15006,35.17445],[129.14912,35.17387],[129.14865,35.17312]]]}},{"type":"Feature","id":"TN_RIVER_BT:WTR0200000000ASAU","properties":{"NF_ID":"WTR0200000000ASAU","admin_code":"26350","source_layer":"TN_RIVER_BT","semantic":"channel","river_class":"소하천","river_class_source":"중심선 공간조인","survey_method":"사진측량"},"geometry":{"type":"Polygon","coordinates":[[[129.1308,35.1761],[129.13074,35.17608],[129.1307,35.17611],[129.13072,35.17613],[129.13076,35.17615],[129.13081,35.17616],[129.13105,35.17617],[129.13139,35.17621],[129.1314,35.1762],[129.1314,35.1762],[129.1314,35.17619],[129.1314,35.17619],[129.13131,35.17617],[129.1311,35.17614],[129.13086,35.17611],[129.13082,35.17611],[129.1308,35.1761]]]}},{"type":"Feature","id":"TN_RIVER_BT:WTR0200000000ASCW","properties":{"NF_ID":"WTR0200000000ASCW","admin_code":"26350","source_layer":"TN_RIVER_BT","semantic":"channel","river_class":"소하천","river_class_source":"중심선 공간조인","survey_method":"사진측량"},"geometry":{"type":"Polygon","coordinates":[[[129.12985,35.17631],[129.13037,35.17599],[129.12972,35.1763],[129.12923,35.17593],[129.12985,35.17631]]]}},{"type":"Feature","id":"TN_RIVER_BT:WTR0200000000ASDX","properties":{"NF_ID":"WTR0200000000ASDX","admin_code":"26350","source_layer":"TN_RIVER_BT","semantic":"channel","river_class":"소하천","river_class_source":"중심선 공간조인","survey_method":"사진측량"},"geometry":{"type":"Polygon","coordinates":[[[129.13957,35.17087],[129.13963,35.17046],[129.13955,35.17115],[129.14019,35.17309],[129.14103,35.17449],[129.14181,35.17732],[129.14263,35.17886],[129.14226,35.17771],[129.14184,35.17728],[129.14104,35.17449],[129.14018,35.17302],[129.13957,35.17087]]]}},{"type":"Feature","id":"TN_RIVER_BT:WTR0200000000ASEY","properties":{"NF_ID":"WTR0200000000ASEY","admin_code":"26350","source_layer":"TN_RIVER_BT","semantic":"channel","river_class":"지방하천","river_class_source":"중심선 공간조인","river_name":"춘천","river_code":"2620950","survey_method":"사진측량"},"geometry":{"type":"Polygon","coordinates":[[[129.17148,35.17315],[129.17255,35.173],[129.17328,35.17247],[129.17347,35.17179],[129.17337,35.17015],[129.17423,35.16851],[129.17337,35.16975],[129.17326,35.17244],[129.17283,35.17284],[129.17185,35.17288],[129.17141,35.17312],[129.16932,35.1757],[129.16914,35.17665],[129.16813,35.17833],[129.16698,35.17887],[129.16641,35.17984],[129.16659,35.17987],[129.16692,35.17899],[129.16831,35.17821],[129.16852,35.17752],[129.16918,35.17665],[129.16936,35.17575],[129.17148,35.17315]],[[129.17202,35.17293],[129.17256,35.17296],[129.17154,35.17311],[129.17202,35.17293]]]}},{"type":"Feature","id":"TN_RIVER_BT:WTR0200000000ASG0","properties":{"NF_ID":"WTR0200000000ASG0","admin_code":"26350","source_layer":"TN_RIVER_BT","semantic":"channel","river_class":"소하천","river_class_source":"중심선 공간조인","survey_method":"사진측량"},"geometry":{"type":"Polygon","coordinates":[[[129.17506,35.18184],[129.17505,35.18181],[129.17484,35.18185],[129.17461,35.1819],[129.17442,35.18193],[129.17421,35.18196],[129.17394,35.18199],[129.17394,35.18202],[129.17414,35.182],[129.17439,35.18197],[129.17457,35.18194],[129.17478,35.1819],[129.17506,35.18184]]]}},{"type":"Feature","id":"TN_RIVER_BT:WTR0200000000ASK4","properties":{"NF_ID":"WTR0200000000ASK4","admin_code":"26350","source_layer":"TN_RIVER_BT","semantic":"channel","river_class":"소하천","river_class_source":"중심선 공간조인","survey_method":"사진측량"},"geometry":{"type":"Polygon","coordinates":[[[129.13086,35.18593],[129.13083,35.18592],[129.13077,35.18591],[129.13072,35.18589],[129.13068,35.18588],[129.13064,35.18587],[129.13061,35.18586],[129.13058,35.18586],[129.13056,35.18586],[129.13046,35.18588],[129.13032,35.18589],[129.13007,35.1859],[129.12998,35.18591],[129.12989,35.18593],[129.12984,35.18593],[129.12983,35.18593],[129.12964,35.18587],[129.12962,35.18587],[129.1296,35.18588],[129.12959,35.18588],[129.12958,35.18588],[129.12954,35.18587],[129.12953,35.1859],[129.12962,35.18594],[129.12971,35.18596],[129.12979,35.18597],[129.12988,35.18597],[129.13009,35.18596],[129.13044,35.18594],[129.1305,35.18594],[129.13058,35.18593],[129.13065,35.18593],[129.13069,35.18593],[129.13074,35.18594],[129.13079,35.18594],[129.13087,35.18599],[129.13089,35.18599],[129.13089,35.18598],[129.13089,35.18597],[129.13089,35.18597],[129.13089,35.18596],[129.13088,35.18596],[129.13086,35.18593]]]}},{"type":"Feature","id":"TN_RIVER_BT:WTR0200000000ASL5","properties":{"NF_ID":"WTR0200000000ASL5","admin_code":"26350","source_layer":"TN_RIVER_BT","semantic":"channel","river_class":"지방하천","river_class_source":"중심선 공간조인","river_name":"춘천","river_code":"2620950","survey_method":"사진측량"},"geometry":{"type":"Polygon","coordinates":[[[129.16194,35.18728],[129.16282,35.18731],[129.16269,35.18609],[129.16439,35.18541],[129.16532,35.18278],[129.16614,35.18186],[129.16638,35.18118],[129.16621,35.18106],[129.166,35.18179],[129.16524,35.18272],[129.16486,35.18418],[129.16422,35.18543],[129.16295,35.18581],[129.16258,35.18612],[129.16275,35.18727],[129.16171,35.18726],[129.16108,35.18786],[129.16132,35.1894],[129.16056,35.19004],[129.1601,35.19112],[129.1607,35.19002],[129.16141,35.18939],[129.16106,35.188],[129.16194,35.18728]]]}},{"type":"Feature","id":"TN_RIVER_BT:WTR0200000000ASP9","properties":{"NF_ID":"WTR0200000000ASP9","admin_code":"26350","source_layer":"TN_RIVER_BT","semantic":"channel","river_class":"소하천","river_class_source":"중심선 공간조인","survey_method":"사진측량"},"geometry":{"type":"Polygon","coordinates":[[[129.13762,35.20116],[129.13759,35.20116],[129.13758,35.20116],[129.13754,35.20122],[129.13748,35.2013],[129.13744,35.20133],[129.13744,35.20133],[129.13734,35.20137],[129.13729,35.2014],[129.13731,35.20143],[129.1374,35.20138],[129.13749,35.20132],[129.13754,35.2013],[129.13754,35.20129],[129.1376,35.20119],[129.13762,35.20116]]]}},{"type":"Feature","id":"TN_RIVER_BT:WTR0200000000ASQA","properties":{"NF_ID":"WTR0200000000ASQA","admin_code":"26350","source_layer":"TN_RIVER_BT","semantic":"channel","river_class":"소하천","river_class_source":"중심선 공간조인","survey_method":"사진측량"},"geometry":{"type":"Polygon","coordinates":[[[129.1279,35.20187],[129.12759,35.20165],[129.1269,35.202],[129.12645,35.20181],[129.12606,35.20201],[129.1265,35.20186],[129.12691,35.20207],[129.12757,35.20173],[129.12799,35.20216],[129.1279,35.20187]]]}},{"type":"Feature","id":"TN_RIVER_BT:WTR0200000000ASRB","properties":{"NF_ID":"WTR0200000000ASRB","admin_code":"26350","source_layer":"TN_RIVER_BT","semantic":"channel","river_class":"소하천","river_class_source":"중심선 공간조인","survey_method":"사진측량"},"geometry":{"type":"Polygon","coordinates":[[[129.13704,35.20269],[129.13765,35.20226],[129.13835,35.20229],[129.1376,35.20223],[129.13689,35.20269],[129.13595,35.20259],[129.13704,35.20269]]]}},{"type":"Feature","id":"TN_RIVER_BT:WTR0200000000ASSC","properties":{"NF_ID":"WTR0200000000ASSC","admin_code":"26350","source_layer":"TN_RIVER_BT","semantic":"channel","river_class":"소하천","river_class_source":"중심선 공간조인","survey_method":"사진측량"},"geometry":{"type":"Polygon","coordinates":[[[129.13093,35.20289],[129.13144,35.20236],[129.13079,35.20289],[129.13019,35.20263],[129.13035,35.20288],[129.13093,35.20289]]]}},{"type":"Feature","id":"TN_RIVER_BT:WTR0200000000AT4P","properties":{"NF_ID":"WTR0200000000AT4P","admin_code":"26350","source_layer":"TN_RIVER_BT","semantic":"channel","river_class":"지방하천","river_class_source":"중심선 공간조인","river_name":"석대천","river_code":"2621050","survey_method":"사진측량"},"geometry":{"type":"Polygon","coordinates":[[[129.12164,35.2158],[129.12145,35.21566],[129.12139,35.21572],[129.12154,35.21583],[129.12173,35.21598],[129.12194,35.21614],[129.12197,35.21613],[129.12196,35.21604],[129.12185,35.21595],[129.12164,35.2158]]]}},{"type":"Feature","id":"TN_RIVER_BT:WTR0200000000AT8T","properties":{"NF_ID":"WTR0200000000AT8T","admin_code":"26350","source_layer":"TN_RIVER_BT","semantic":"channel","river_class":"소하천","river_class_source":"중심선 공간조인","survey_method":"사진측량"},"geometry":{"type":"Polygon","coordinates":[[[129.15607,35.21995],[129.15673,35.2198],[129.156,35.21991],[129.15504,35.21967],[129.15516,35.21943],[129.1568,35.21799],[129.15724,35.21718],[129.1579,35.21701],[129.15713,35.21719],[129.15685,35.21787],[129.15492,35.21967],[129.15394,35.21988],[129.15535,35.21969],[129.15607,35.21995]]]}},{"type":"Feature","id":"TN_RIVER_BT:WTR0200000000ATEZ","properties":{"NF_ID":"WTR0200000000ATEZ","admin_code":"26350","source_layer":"TN_RIVER_BT","semantic":"channel","river_class":"소하천","river_class_source":"중심선 공간조인","survey_method":"사진측량"},"geometry":{"type":"Polygon","coordinates":[[[129.12747,35.22123],[129.12748,35.22087],[129.12767,35.22088],[129.1274,35.22081],[129.12747,35.22123]]]}},{"type":"Feature","id":"TN_RIVER_BT:WTR0200000000ATI3","properties":{"NF_ID":"WTR0200000000ATI3","admin_code":"26350","source_layer":"TN_RIVER_BT","semantic":"channel","river_class":"소하천","river_class_source":"중심선 공간조인","survey_method":"사진측량"},"geometry":{"type":"Polygon","coordinates":[[[129.14259,35.22239],[129.14257,35.22236],[129.14249,35.22241],[129.14245,35.22244],[129.14242,35.22245],[129.14241,35.22247],[129.14241,35.22248],[129.14241,35.22249],[129.14241,35.22251],[129.14241,35.22255],[129.14241,35.22257],[129.1424,35.22258],[129.14239,35.2226],[129.14238,35.22262],[129.14236,35.22263],[129.14233,35.22265],[129.14227,35.22266],[129.14227,35.22267],[129.14227,35.22267],[129.14227,35.22267],[129.14227,35.22268],[129.14227,35.22269],[129.14227,35.22278],[129.14227,35.22279],[129.14227,35.2228],[129.14227,35.22281],[129.14226,35.22281],[129.14219,35.22288],[129.14217,35.22291],[129.14214,35.22295],[129.14212,35.22297],[129.1421,35.22304],[129.14208,35.22306],[129.14213,35.22308],[129.14215,35.22298],[129.1422,35.22291],[129.14221,35.22289],[129.14227,35.22285],[129.14228,35.22283],[129.14228,35.22282],[129.14229,35.22282],[129.1423,35.22281],[129.1423,35.2228],[129.1423,35.22279],[129.1423,35.22277],[129.1423,35.22275],[129.14229,35.22273],[129.14229,35.22272],[129.14229,35.2227],[129.14229,35.22269],[129.1423,35.22268],[129.1423,35.22268],[129.14232,35.22267],[129.14233,35.22267],[129.14235,35.22266],[129.14239,35.22264],[129.14241,35.22263],[129.14243,35.2226],[129.14243,35.2226],[129.14244,35.22258],[129.14244,35.22257],[129.14243,35.22254],[129.14243,35.22251],[129.14243,35.2225],[129.14243,35.22249],[129.14243,35.22248],[129.14243,35.22247],[129.14244,35.22246],[129.14247,35.22244],[129.14251,35.22241],[129.14259,35.22239]]]}},{"type":"Feature","id":"TN_RIVER_BT:WTR0200000000ATO9","properties":{"NF_ID":"WTR0200000000ATO9","admin_code":"26350","source_layer":"TN_RIVER_BT","semantic":"channel","river_class":"지방하천","river_class_source":"중심선 공간조인","river_name":"석대천","river_code":"2621050","survey_method":"사진측량"},"geometry":{"type":"Polygon","coordinates":[[[129.14937,35.22982],[129.14789,35.22934],[129.1475,35.22894],[129.14749,35.22662],[129.14637,35.22528],[129.1463,35.22332],[129.14604,35.22281],[129.14342,35.22076],[129.14226,35.21905],[129.1412,35.2185],[129.1373,35.21834],[129.13403,35.21796],[129.13137,35.2184],[129.1258,35.21771],[129.12344,35.21691],[129.12343,35.21712],[129.12402,35.21715],[129.12525,35.2177],[129.13028,35.21838],[129.13178,35.21849],[129.1346,35.21812],[129.14071,35.21859],[129.14167,35.2189],[129.14287,35.22002],[129.14307,35.22062],[129.14599,35.22286],[129.14629,35.22545],[129.14724,35.22628],[129.14738,35.22676],[129.14722,35.22869],[129.14786,35.22942],[129.14937,35.22982]]]}},{"type":"Feature","id":"TN_RIVER_BT:WTR0200000000ATRC","properties":{"NF_ID":"WTR0200000000ATRC","admin_code":"26350","source_layer":"TN_RIVER_BT","semantic":"channel","river_class":"소하천","river_class_source":"중심선 공간조인","survey_method":"사진측량"},"geometry":{"type":"Polygon","coordinates":[[[129.14639,35.23206],[129.14784,35.232],[129.14634,35.23205],[129.14577,35.2326],[129.14639,35.23206]]]}},{"type":"Feature","id":"TN_RIVER_BT:WTR0200000000ATYJ","properties":{"NF_ID":"WTR0200000000ATYJ","admin_code":"26350","source_layer":"TN_RIVER_BT","semantic":"channel","river_class":"소하천","river_class_source":"중심선 공간조인","survey_method":"사진측량"},"geometry":{"type":"Polygon","coordinates":[[[129.14312,35.23582],[129.14382,35.23488],[129.14365,35.23433],[129.14412,35.23387],[129.14362,35.23433],[129.14379,35.23484],[129.14349,35.23535],[129.14311,35.23578],[129.14273,35.23585],[129.1428,35.23612],[129.14276,35.23588],[129.14312,35.23582]]]}},{"type":"Feature","id":"TN_RIVER_BT:WTR0200000000AU0M","properties":{"NF_ID":"WTR0200000000AU0M","admin_code":"26350","source_layer":"TN_RIVER_BT","semantic":"channel","river_class":"소하천","river_class_source":"중심선 공간조인","survey_method":"사진측량"},"geometry":{"type":"Polygon","coordinates":[[[129.14204,35.23706],[129.142,35.23706],[129.14201,35.23715],[129.14202,35.23723],[129.14203,35.23727],[129.14205,35.23732],[129.14208,35.23737],[129.14209,35.23743],[129.14209,35.23745],[129.14208,35.23748],[129.14204,35.23754],[129.14199,35.23763],[129.14194,35.23771],[129.14191,35.23776],[129.14189,35.23783],[129.1419,35.23787],[129.14191,35.23791],[129.14193,35.23794],[129.14194,35.23796],[129.14196,35.23796],[129.14198,35.23795],[129.14195,35.23791],[129.14194,35.23787],[129.14194,35.23782],[129.14195,35.23779],[129.14194,35.23778],[129.14198,35.23771],[129.14202,35.23765],[129.14205,35.23761],[129.14207,35.23757],[129.14211,35.23749],[129.14213,35.23744],[129.14213,35.2374],[129.14209,35.23732],[129.14206,35.23723],[129.14205,35.23718],[129.14205,35.23713],[129.14204,35.23706]]]}}]}