{"type":"FeatureCollection","features":[{"type":"Feature","id":"TN_RIVER_BT:WTR02000000003ZQA","properties":{"NF_ID":"WTR02000000003ZQA","source_layer":"TN_RIVER_BT","semantic":"channel","river_class":"소하천","river_class_source":"중심선 공간조인","survey_method":"사진측량","admin_code":"41170"},"geometry":{"type":"Polygon","coordinates":[[[126.90389,37.37176],[126.90323,37.3716],[126.90177,37.37171],[126.9,37.37138],[126.90174,37.37173],[126.90323,37.37162],[126.90399,37.3718],[126.90441,37.37261],[126.90389,37.37176]]]}},{"type":"Feature","id":"TN_RIVER_BT:WTR02000000003ZXH","properties":{"NF_ID":"WTR02000000003ZXH","source_layer":"TN_RIVER_BT","semantic":"channel","river_class":"소하천","river_class_source":"중심선 공간조인","survey_method":"사진측량","admin_code":"41170"},"geometry":{"type":"Polygon","coordinates":[[[126.93972,37.37871],[126.93972,37.37871],[126.9397,37.37872],[126.93975,37.37875],[126.93977,37.37874],[126.93972,37.37871]]]}},{"type":"Feature","id":"TN_RIVER_BT:WTR0200000000404Q","properties":{"NF_ID":"WTR0200000000404Q","source_layer":"TN_RIVER_BT","semantic":"channel","river_class":"소하천","river_class_source":"중심선 공간조인","survey_method":"사진측량","admin_code":"41170"},"geometry":{"type":"Polygon","coordinates":[[[126.90097,37.38287],[126.89973,37.38129],[126.90076,37.38276],[126.90146,37.38311],[126.90177,37.38414],[126.9015,37.38308],[126.90097,37.38287]]]}},{"type":"Feature","id":"TN_RIVER_BT:WTR0200000000406S","properties":{"NF_ID":"WTR0200000000406S","source_layer":"TN_RIVER_BT","semantic":"channel","river_class":"소하천","river_class_source":"중심선 공간조인","survey_method":"사진측량","admin_code":"41170"},"geometry":{"type":"Polygon","coordinates":[[[126.92171,37.38323],[126.92164,37.38461],[126.92189,37.38385],[126.92171,37.38323]]]}},{"type":"Feature","id":"TN_RIVER_BT:WTR0200000000407T","properties":{"NF_ID":"WTR0200000000407T","source_layer":"TN_RIVER_BT","semantic":"channel","river_class":"소하천","river_class_source":"중심선 공간조인","survey_method":"사진측량","admin_code":"41170"},"geometry":{"type":"Polygon","coordinates":[[[126.90082,37.38436],[126.9008,37.38434],[126.90079,37.38436],[126.90071,37.38443],[126.90066,37.38447],[126.90062,37.38453],[126.90049,37.38457],[126.90049,37.38459],[126.90063,37.38454],[126.90071,37.38445],[126.9008,37.38437],[126.90082,37.38436]]]}},{"type":"Feature","id":"TN_RIVER_BT:WTR0200000000409V","properties":{"NF_ID":"WTR0200000000409V","source_layer":"TN_RIVER_BT","semantic":"channel","river_class":"소하천","river_class_source":"중심선 공간조인","survey_method":"사진측량","admin_code":"41170"},"geometry":{"type":"Polygon","coordinates":[[[126.90375,37.38436],[126.90537,37.38502],[126.90519,37.38477],[126.90375,37.38436]]]}},{"type":"Feature","id":"TN_RIVER_BT:WTR020000000040AW","properties":{"NF_ID":"WTR020000000040AW","source_layer":"TN_RIVER_BT","semantic":"channel","river_class":"소하천","river_class_source":"중심선 공간조인","survey_method":"사진측량","admin_code":"41170"},"geometry":{"type":"Polygon","coordinates":[[[126.91,37.38506],[126.90993,37.38502],[126.90987,37.38501],[126.90986,37.385],[126.90984,37.38499],[126.90984,37.38498],[126.90984,37.38499],[126.90984,37.385],[126.90983,37.385],[126.90981,37.38503],[126.90985,37.38503],[126.90988,37.38503],[126.90994,37.38506],[126.91,37.38509],[126.91001,37.38509],[126.91007,37.38511],[126.91013,37.38514],[126.91019,37.38517],[126.91026,37.38521],[126.91028,37.38519],[126.91024,37.38517],[126.91023,37.38516],[126.91017,37.38513],[126.91014,37.38512],[126.91009,37.38509],[126.91005,37.38507],[126.91,37.38506],[126.91,37.38506]]]}},{"type":"Feature","id":"TN_RIVER_BT:WTR020000000040G2","properties":{"NF_ID":"WTR020000000040G2","source_layer":"TN_RIVER_BT","semantic":"channel","river_class":"소하천","river_class_source":"중심선 공간조인","survey_method":"사진측량","admin_code":"41170"},"geometry":{"type":"Polygon","coordinates":[[[126.91393,37.3871],[126.91432,37.38872],[126.91406,37.39003],[126.91435,37.38873],[126.91393,37.3871]]]}},{"type":"Feature","id":"TN_RIVER_BT:WTR020000000040J5","properties":{"NF_ID":"WTR020000000040J5","source_layer":"TN_RIVER_BT","semantic":"channel","river_class":"소하천","river_class_source":"중심선 공간조인","survey_method":"사진측량","admin_code":"41170"},"geometry":{"type":"Polygon","coordinates":[[[126.95906,37.39034],[126.95862,37.39038],[126.95853,37.39093],[126.95873,37.39034],[126.95904,37.39034],[126.95914,37.39062],[126.95884,37.39104],[126.95914,37.39076],[126.95906,37.39034]]]}},{"type":"Feature","id":"TN_RIVER_BT:WTR020000000040K6","properties":{"NF_ID":"WTR020000000040K6","source_layer":"TN_RIVER_BT","semantic":"channel","river_class":"지방하천","river_class_source":"중심선 공간조인","river_name":"수암천","river_code":"1025460","survey_method":"사진측량","admin_code":"41170"},"geometry":{"type":"Polygon","coordinates":[[[126.91,37.39062],[126.91014,37.38993],[126.90915,37.38726],[126.90716,37.386],[126.90668,37.38519],[126.90788,37.38449],[126.90866,37.38303],[126.90956,37.3828],[126.90988,37.38211],[126.91188,37.38135],[126.90992,37.38193],[126.90952,37.38276],[126.90863,37.38301],[126.90692,37.3826],[126.90657,37.38227],[126.90703,37.38046],[126.90616,37.37912],[126.90517,37.37838],[126.90514,37.37785],[126.90582,37.37671],[126.90499,37.37531],[126.90527,37.37438],[126.90492,37.37356],[126.90489,37.37173],[126.90577,37.37064],[126.90605,37.36851],[126.90529,37.36746],[126.90415,37.36668],[126.90346,37.36657],[126.90314,37.36611],[126.90191,37.36538],[126.9018,37.36478],[126.90212,37.36448],[126.90173,37.36473],[126.90137,37.36394],[126.90038,37.36296],[126.9014,37.36406],[126.90185,37.36511],[126.90166,37.36527],[126.90304,37.36612],[126.90338,37.36658],[126.9041,37.3667],[126.90532,37.36754],[126.90599,37.36848],[126.90573,37.3706],[126.90488,37.37166],[126.90494,37.37284],[126.90366,37.37306],[126.90272,37.37289],[126.90143,37.37315],[126.90029,37.37304],[126.9014,37.37316],[126.90262,37.3729],[126.90367,37.37308],[126.90453,37.37282],[126.90495,37.3729],[126.90489,37.37352],[126.90524,37.3744],[126.90497,37.3753],[126.90579,37.37668],[126.90505,37.37825],[126.90615,37.37917],[126.9069,37.3804],[126.90639,37.38199],[126.90662,37.38245],[126.90845,37.38311],[126.9079,37.38433],[126.9068,37.38494],[126.90656,37.38544],[126.90717,37.3861],[126.90903,37.38718],[126.91008,37.39001],[126.90958,37.39181],[126.91,37.39062]],[[126.90713,37.38601],[126.90713,37.38601],[126.90715,37.38602],[126.90717,37.38603],[126.9072,37.38607],[126.90722,37.38608],[126.90724,37.38609],[126.90724,37.3861],[126.90723,37.3861],[126.90722,37.3861],[126.90722,37.3861],[126.90717,37.38606],[126.90714,37.38604],[126.90713,37.38604],[126.90712,37.38602],[126.90712,37.38602],[126.90712,37.38601],[126.90713,37.38601]]]}},{"type":"Feature","id":"TN_RIVER_BT:WTR020000000040RD","properties":{"NF_ID":"WTR020000000040RD","source_layer":"TN_RIVER_BT","semantic":"channel","river_class":"소하천","river_class_source":"중심선 공간조인","survey_method":"사진측량","admin_code":"41170"},"geometry":{"type":"Polygon","coordinates":[[[126.93434,37.39457],[126.9343,37.39455],[126.9343,37.39455],[126.93429,37.39455],[126.93429,37.39455],[126.93428,37.39455],[126.93428,37.39455],[126.93427,37.39455],[126.93425,37.39455],[126.93423,37.39456],[126.93423,37.39456],[126.93423,37.39456],[126.93423,37.39456],[126.93422,37.39455],[126.93422,37.39455],[126.93422,37.39455],[126.93421,37.39454],[126.93421,37.39453],[126.93421,37.39453],[126.9342,37.39451],[126.93419,37.3945],[126.93419,37.39449],[126.93419,37.39449],[126.93418,37.39449],[126.93418,37.39448],[126.93418,37.39448],[126.93417,37.39448],[126.93417,37.39447],[126.93417,37.39446],[126.93416,37.39446],[126.93416,37.39445],[126.93415,37.39444],[126.93414,37.39443],[126.93413,37.39442],[126.93413,37.39442],[126.9341,37.3944],[126.93409,37.39439],[126.93408,37.39438],[126.93406,37.39437],[126.93403,37.39435],[126.93402,37.39434],[126.93397,37.3943],[126.93395,37.39429],[126.93393,37.39427],[126.93389,37.39424],[126.93389,37.39423],[126.93386,37.39422],[126.93386,37.39421],[126.93384,37.39419],[126.93382,37.39417],[126.93381,37.39417],[126.9338,37.39416],[126.9338,37.39416],[126.93379,37.39415],[126.93379,37.39415],[126.93378,37.39415],[126.93378,37.39415],[126.93377,37.39415],[126.93377,37.39415],[126.93377,37.39415],[126.93376,37.39416],[126.93376,37.39416],[126.93376,37.39416],[126.93376,37.39416],[126.93376,37.39417],[126.93375,37.39417],[126.93375,37.39418],[126.93376,37.39418],[126.93376,37.39419],[126.93376,37.39419],[126.93376,37.3942],[126.93377,37.3942],[126.93377,37.3942],[126.93377,37.3942],[126.93378,37.3942],[126.93379,37.39421],[126.93381,37.39421],[126.93382,37.39421],[126.93383,37.39421],[126.93384,37.39422],[126.93385,37.39422],[126.93385,37.39423],[126.93386,37.39423],[126.93387,37.39424],[126.93388,37.39424],[126.93389,37.39426],[126.9339,37.39427],[126.93393,37.39429],[126.93395,37.39431],[126.93398,37.39433],[126.934,37.39435],[126.93404,37.39437],[126.93404,37.39438],[126.93406,37.39439],[126.93407,37.3944],[126.9341,37.39441],[126.9341,37.39441],[126.93411,37.39442],[126.93411,37.39442],[126.93412,37.39443],[126.93413,37.39445],[126.93415,37.39448],[126.93416,37.39448],[126.93417,37.3945],[126.93418,37.3945],[126.93418,37.39451],[126.93418,37.39452],[126.93421,37.39456],[126.93421,37.39457],[126.93421,37.39457],[126.93421,37.39457],[126.93422,37.39457],[126.93422,37.39457],[126.93423,37.39458],[126.93423,37.39458],[126.93424,37.39457],[126.93424,37.39457],[126.93425,37.39457],[126.93426,37.39457],[126.93427,37.39457],[126.93428,37.39457],[126.93428,37.39457],[126.93429,37.39457],[126.93429,37.39457],[126.9343,37.39457],[126.93432,37.39458],[126.93434,37.39459],[126.93434,37.39459],[126.93434,37.39459],[126.93435,37.3946],[126.93435,37.39461],[126.93436,37.39461],[126.93436,37.39462],[126.93436,37.39462],[126.93436,37.39463],[126.93436,37.39464],[126.93436,37.39465],[126.93436,37.39465],[126.93436,37.39466],[126.93437,37.39466],[126.93437,37.39467],[126.93438,37.39468],[126.93438,37.39469],[126.93439,37.39469],[126.9344,37.3947],[126.9344,37.3947],[126.93441,37.3947],[126.93442,37.39471],[126.93445,37.39471],[126.93446,37.39472],[126.93447,37.39472],[126.93449,37.39472],[126.9345,37.39473],[126.9345,37.39473],[126.93451,37.39472],[126.93451,37.39472],[126.93451,37.39472],[126.93451,37.39472],[126.93451,37.39472],[126.93451,37.39471],[126.93451,37.39471],[126.93451,37.39471],[126.9345,37.39471],[126.9345,37.39471],[126.93448,37.3947],[126.93448,37.3947],[126.93447,37.39469],[126.93446,37.39469],[126.93446,37.39468],[126.93445,37.39467],[126.93444,37.39467],[126.93444,37.39467],[126.93443,37.39466],[126.93442,37.39466],[126.93441,37.39466],[126.93441,37.39466],[126.93441,37.39465],[126.9344,37.39465],[126.9344,37.39464],[126.93439,37.39464],[126.93439,37.39463],[126.93438,37.39462],[126.93438,37.39461],[126.93437,37.39461],[126.93437,37.3946],[126.93436,37.39459],[126.93435,37.39458],[126.93434,37.39458],[126.93434,37.39457]]]}},{"type":"Feature","id":"TN_RIVER_BT:WTR020000000040XJ","properties":{"NF_ID":"WTR020000000040XJ","source_layer":"TN_RIVER_BT","semantic":"channel","river_class":"지방하천","river_class_source":"중심선 공간조인","river_name":"수암천","river_code":"1025460","survey_method":"사진측량","admin_code":"41170"},"geometry":{"type":"Polygon","coordinates":[[[126.91764,37.39915],[126.9167,37.39867],[126.91467,37.39582],[126.91115,37.39393],[126.91008,37.39377],[126.9092,37.39304],[126.90922,37.3924],[126.90915,37.39302],[126.91004,37.39382],[126.91113,37.39399],[126.91464,37.39586],[126.91668,37.39872],[126.9189,37.39973],[126.91973,37.40035],[126.9189,37.39969],[126.91764,37.39915]]]}},{"type":"Feature","id":"TN_RIVER_BT:WTR0200000000413Q","properties":{"NF_ID":"WTR0200000000413Q","source_layer":"TN_RIVER_BT","semantic":"channel","river_class":"등급미확인","survey_method":"사진측량","admin_code":"41170"},"geometry":{"type":"Polygon","coordinates":[[[126.89539,37.40522],[126.89548,37.40519],[126.89559,37.40513],[126.89567,37.4051],[126.89566,37.40509],[126.89565,37.40509],[126.89554,37.40513],[126.89549,37.40515],[126.8954,37.40518],[126.89536,37.40519],[126.89534,37.40519],[126.8953,37.40519],[126.89528,37.40525],[126.8953,37.40525],[126.89534,37.40524],[126.89539,37.40522]]]}},{"type":"Feature","id":"TN_RIVER_BT:WTR0200000000414R","properties":{"NF_ID":"WTR0200000000414R","source_layer":"TN_RIVER_BT","semantic":"channel","river_class":"소하천","river_class_source":"중심선 공간조인","survey_method":"사진측량","admin_code":"41170"},"geometry":{"type":"Polygon","coordinates":[[[126.93969,37.40621],[126.93972,37.4062],[126.93976,37.40619],[126.93976,37.40618],[126.93976,37.40617],[126.93977,37.40617],[126.93977,37.40616],[126.93977,37.40615],[126.93977,37.40613],[126.9398,37.4061],[126.93982,37.4061],[126.93983,37.40609],[126.93985,37.40609],[126.93986,37.40609],[126.93988,37.40608],[126.9399,37.40608],[126.93993,37.40608],[126.93995,37.40608],[126.93997,37.40607],[126.94,37.40607],[126.94003,37.40605],[126.94008,37.40602],[126.94011,37.40601],[126.94018,37.406],[126.94021,37.406],[126.94023,37.406],[126.94026,37.406],[126.9403,37.40601],[126.94031,37.40601],[126.94034,37.40601],[126.94037,37.406],[126.94042,37.40598],[126.94046,37.40596],[126.94048,37.40595],[126.9405,37.40595],[126.94053,37.40596],[126.94055,37.40596],[126.94059,37.40597],[126.94061,37.40598],[126.94061,37.40598],[126.94063,37.40598],[126.94064,37.40597],[126.94067,37.40597],[126.9407,37.40596],[126.94071,37.40596],[126.94072,37.40596],[126.94076,37.40597],[126.94084,37.40599],[126.94089,37.40599],[126.94094,37.40599],[126.941,37.40598],[126.94102,37.40598],[126.94102,37.40598],[126.94103,37.40597],[126.94103,37.40597],[126.94103,37.40596],[126.94104,37.40596],[126.94104,37.40595],[126.94104,37.40595],[126.94106,37.40595],[126.94106,37.40595],[126.94107,37.40595],[126.94107,37.40595],[126.94108,37.40595],[126.94109,37.40597],[126.9411,37.40596],[126.94108,37.40594],[126.94107,37.40593],[126.94105,37.40593],[126.94104,37.40593],[126.94104,37.40593],[126.94103,37.40593],[126.94103,37.40593],[126.94103,37.40594],[126.94103,37.40594],[126.94103,37.40595],[126.94102,37.40595],[126.94101,37.40596],[126.94099,37.40596],[126.94098,37.40597],[126.94097,37.40597],[126.94095,37.40597],[126.94091,37.40598],[126.9409,37.40598],[126.94088,37.40597],[126.94087,37.40597],[126.94081,37.40596],[126.94072,37.40595],[126.9407,37.40595],[126.9407,37.40595],[126.94069,37.40595],[126.94065,37.40596],[126.94063,37.40596],[126.94063,37.40596],[126.94061,37.40596],[126.9406,37.40596],[126.94058,37.40596],[126.94057,37.40595],[126.94053,37.40594],[126.9405,37.40594],[126.94048,37.40594],[126.94047,37.40594],[126.94045,37.40595],[126.94041,37.40597],[126.94037,37.40598],[126.94035,37.40599],[126.94033,37.40599],[126.94032,37.40599],[126.9403,37.40599],[126.94029,37.40599],[126.94027,37.40599],[126.94024,37.40599],[126.94021,37.40599],[126.94019,37.40599],[126.94015,37.40599],[126.94009,37.40601],[126.94005,37.40603],[126.94001,37.40605],[126.93998,37.40606],[126.93995,37.40607],[126.93982,37.40608],[126.93979,37.40609],[126.93976,37.40611],[126.93975,37.40612],[126.93973,37.40614],[126.93968,37.40618],[126.93965,37.4062],[126.93966,37.40621],[126.93967,37.40621],[126.93967,37.40621],[126.93969,37.40621]]]}},{"type":"Feature","id":"TN_RIVER_BT:WTR0200000000415S","properties":{"NF_ID":"WTR0200000000415S","source_layer":"TN_RIVER_BT","semantic":"channel","river_class":"등급미확인","survey_method":"사진측량","admin_code":"41170"},"geometry":{"type":"Polygon","coordinates":[[[126.88358,37.40556],[126.88304,37.40554],[126.88412,37.40578],[126.88463,37.40627],[126.88415,37.40575],[126.88358,37.40556]]]}},{"type":"Feature","id":"TN_RIVER_BT:WTR0200000000416T","properties":{"NF_ID":"WTR0200000000416T","source_layer":"TN_RIVER_BT","semantic":"channel","river_class":"등급미확인","survey_method":"사진측량","admin_code":"41170"},"geometry":{"type":"Polygon","coordinates":[[[126.88012,37.40602],[126.88023,37.40579],[126.88098,37.40588],[126.88023,37.40578],[126.87998,37.40628],[126.88012,37.40602]]]}},{"type":"Feature","id":"TN_RIVER_BT:WTR020000000041BY","properties":{"NF_ID":"WTR020000000041BY","source_layer":"TN_RIVER_BT","semantic":"channel","river_class":"소하천","river_class_source":"중심선 공간조인","survey_method":"사진측량","admin_code":"41170"},"geometry":{"type":"Polygon","coordinates":[[[126.93118,37.40771],[126.93121,37.40771],[126.93123,37.40771],[126.93127,37.40771],[126.93136,37.40771],[126.93139,37.40771],[126.9314,37.40772],[126.93142,37.40772],[126.93146,37.40772],[126.93148,37.40773],[126.93151,37.40773],[126.93153,37.40774],[126.93153,37.40773],[126.93151,37.40772],[126.9315,37.40771],[126.93147,37.40771],[126.93145,37.4077],[126.93142,37.4077],[126.9314,37.4077],[126.93134,37.4077],[126.93127,37.4077],[126.93124,37.4077],[126.9312,37.40769],[126.93118,37.40769],[126.93114,37.40769],[126.9311,37.40769],[126.93106,37.40769],[126.93094,37.4077],[126.93082,37.40773],[126.93079,37.40773],[126.93086,37.40773],[126.9309,37.40773],[126.93093,37.40773],[126.93096,37.40772],[126.93098,37.40772],[126.931,37.40772],[126.93102,37.40772],[126.93105,37.40772],[126.93107,37.40771],[126.93112,37.40771],[126.93116,37.40771],[126.93118,37.40771]]]}},{"type":"Feature","id":"TN_RIVER_BT:WTR020000000041E1","properties":{"NF_ID":"WTR020000000041E1","source_layer":"TN_RIVER_BT","semantic":"channel","river_class":"지방하천","river_class_source":"중심선 공간조인","river_name":"갈현천","river_code":"1025450","survey_method":"사진측량","admin_code":"41170"},"geometry":{"type":"MultiPolygon","coordinates":[[[[126.97739,37.40385],[126.97739,37.40385],[126.97738,37.40385],[126.97739,37.40386],[126.97739,37.40385]]],[[[126.97838,37.40562],[126.97842,37.40558],[126.97841,37.4055],[126.9784,37.40547],[126.97841,37.40547],[126.97841,37.40547],[126.97844,37.40547],[126.97846,37.40547],[126.97847,37.40546],[126.97847,37.40546],[126.97847,37.40546],[126.97847,37.40545],[126.97843,37.40534],[126.97835,37.40521],[126.97834,37.40517],[126.97831,37.4051],[126.9783,37.40509],[126.97829,37.40507],[126.97826,37.40503],[126.97823,37.405],[126.97815,37.40485],[126.97814,37.40484],[126.97813,37.40483],[126.97812,37.40482],[126.9781,37.40481],[126.97809,37.4048],[126.97807,37.40479],[126.97806,37.40478],[126.97805,37.40477],[126.97802,37.40474],[126.97801,37.40472],[126.97799,37.40469],[126.97797,37.40466],[126.97795,37.40462],[126.97793,37.40459],[126.97791,37.40456],[126.97789,37.40453],[126.97789,37.40451],[126.97788,37.4045],[126.97787,37.40449],[126.97787,37.40447],[126.97786,37.40445],[126.97786,37.40443],[126.97787,37.40442],[126.97787,37.40439],[126.97786,37.40438],[126.97785,37.40436],[126.97783,37.40434],[126.97782,37.40431],[126.9778,37.40429],[126.97776,37.40423],[126.97768,37.40419],[126.97772,37.40422],[126.97774,37.40425],[126.97777,37.40428],[126.97779,37.40431],[126.97781,37.40434],[126.97783,37.40437],[126.97784,37.40439],[126.97784,37.4044],[126.97784,37.40441],[126.97783,37.40443],[126.97783,37.40444],[126.97783,37.40445],[126.97783,37.40446],[126.97784,37.40449],[126.97792,37.4046],[126.97804,37.40481],[126.97805,37.40481],[126.97806,37.40481],[126.97807,37.40482],[126.97808,37.40483],[126.9781,37.40484],[126.97811,37.40486],[126.97813,37.40489],[126.97814,37.40491],[126.97817,37.40496],[126.97817,37.405],[126.97817,37.40504],[126.97818,37.40505],[126.97821,37.40513],[126.97824,37.40518],[126.97829,37.40525],[126.9783,37.40528],[126.97831,37.40531],[126.97832,37.40533],[126.97833,37.40535],[126.97833,37.40537],[126.97834,37.40539],[126.97834,37.40543],[126.97834,37.40543],[126.97834,37.40544],[126.97834,37.40544],[126.97834,37.40545],[126.97834,37.40545],[126.97835,37.40549],[126.97836,37.40551],[126.97838,37.40562],[126.97838,37.40562]]]]}},{"type":"Feature","id":"TN_RIVER_BT:WTR020000000041F2","properties":{"NF_ID":"WTR020000000041F2","source_layer":"TN_RIVER_BT","semantic":"channel","river_class":"소하천","river_class_source":"중심선 공간조인","survey_method":"사진측량","admin_code":"41170"},"geometry":{"type":"Polygon","coordinates":[[[126.94292,37.40786],[126.94311,37.40857],[126.9427,37.40929],[126.94313,37.40859],[126.94292,37.40786]]]}},{"type":"Feature","id":"TN_RIVER_BT:WTR020000000041G3","properties":{"NF_ID":"WTR020000000041G3","source_layer":"TN_RIVER_BT","semantic":"channel","river_class":"소하천","river_class_source":"중심선 공간조인","survey_method":"사진측량","admin_code":"41170"},"geometry":{"type":"Polygon","coordinates":[[[126.93334,37.40782],[126.93263,37.40805],[126.93303,37.40964],[126.93268,37.40808],[126.93334,37.40782]]]}},{"type":"Feature","id":"TN_RIVER_BT:WTR020000000041H4","properties":{"NF_ID":"WTR020000000041H4","source_layer":"TN_RIVER_BT","semantic":"channel","river_class":"소하천","river_class_source":"중심선 공간조인","survey_method":"사진측량","admin_code":"41170"},"geometry":{"type":"Polygon","coordinates":[[[126.96143,37.40843],[126.96098,37.40813],[126.9625,37.4098],[126.96143,37.40843]]]}},{"type":"Feature","id":"TN_RIVER_BT:WTR020000000041J6","properties":{"NF_ID":"WTR020000000041J6","source_layer":"TN_RIVER_BT","semantic":"channel","river_class":"등급미확인","survey_method":"사진측량","admin_code":"41170"},"geometry":{"type":"Polygon","coordinates":[[[126.92032,37.40981],[126.92079,37.40925],[126.92145,37.40933],[126.92078,37.40925],[126.92028,37.40981],[126.91873,37.40906],[126.92032,37.40981]]]}},{"type":"Feature","id":"TN_RIVER_BT:WTR020000000041K7","properties":{"NF_ID":"WTR020000000041K7","source_layer":"TN_RIVER_BT","semantic":"channel","river_class":"등급미확인","survey_method":"사진측량","admin_code":"41170"},"geometry":{"type":"Polygon","coordinates":[[[126.90192,37.40983],[126.90192,37.40983],[126.90191,37.40983],[126.9019,37.40983],[126.9019,37.40983],[126.90189,37.40984],[126.90188,37.40984],[126.90187,37.40986],[126.90186,37.40987],[126.90185,37.40988],[126.90184,37.40988],[126.9018,37.4099],[126.90164,37.40996],[126.90158,37.40999],[126.90156,37.41],[126.90155,37.41],[126.90154,37.41002],[126.90154,37.41002],[126.90153,37.41003],[126.90153,37.41003],[126.90153,37.41005],[126.90152,37.41007],[126.90152,37.4101],[126.90151,37.41013],[126.9015,37.41015],[126.90149,37.41016],[126.90146,37.41019],[126.90141,37.41022],[126.90134,37.41027],[126.90137,37.4103],[126.90137,37.41029],[126.90144,37.41024],[126.90153,37.41017],[126.90153,37.41017],[126.90153,37.41017],[126.90154,37.41016],[126.90154,37.41015],[126.90155,37.41008],[126.90155,37.41004],[126.90155,37.41004],[126.90156,37.41003],[126.90157,37.41001],[126.90158,37.41],[126.90159,37.41],[126.90162,37.40999],[126.90174,37.40994],[126.90181,37.40991],[126.90184,37.4099],[126.90186,37.40989],[126.90186,37.40989],[126.90187,37.40988],[126.90188,37.40988],[126.90189,37.40987],[126.90189,37.40987],[126.9019,37.40986],[126.9019,37.40985],[126.90191,37.40985],[126.90191,37.40984],[126.90192,37.40984],[126.90192,37.40983],[126.90192,37.40983]]]}},{"type":"Feature","id":"TN_RIVER_BT:WTR020000000041L8","properties":{"NF_ID":"WTR020000000041L8","source_layer":"TN_RIVER_BT","semantic":"channel","river_class":"등급미확인","survey_method":"사진측량","admin_code":"41170"},"geometry":{"type":"Polygon","coordinates":[[[126.92174,37.41031],[126.92174,37.41031],[126.92168,37.41031],[126.92167,37.41034],[126.92171,37.41037],[126.92171,37.41037],[126.92173,37.41038],[126.92179,37.41039],[126.92184,37.4104],[126.92185,37.41039],[126.92185,37.41038],[126.92185,37.41038],[126.92184,37.41037],[126.92181,37.41034],[126.92179,37.41033],[126.92174,37.41031]]]}},{"type":"Feature","id":"TN_RIVER_BT:WTR020000000041M9","properties":{"NF_ID":"WTR020000000041M9","source_layer":"TN_RIVER_BT","semantic":"channel","river_class":"등급미확인","survey_method":"사진측량","admin_code":"41170"},"geometry":{"type":"Polygon","coordinates":[[[126.90081,37.41035],[126.90078,37.41031],[126.90073,37.41032],[126.90073,37.41032],[126.90065,37.41033],[126.90061,37.41033],[126.90057,37.41033],[126.90054,37.41033],[126.90053,37.41033],[126.90053,37.41033],[126.90053,37.41033],[126.90052,37.41032],[126.90051,37.41032],[126.90049,37.4103],[126.90046,37.41031],[126.90049,37.41035],[126.90055,37.41037],[126.90057,37.41037],[126.90058,37.41037],[126.90065,37.41036],[126.90073,37.41036],[126.90076,37.41036],[126.90079,37.41035],[126.90081,37.41035]]]}},{"type":"Feature","id":"TN_RIVER_BT:WTR020000000041OB","properties":{"NF_ID":"WTR020000000041OB","source_layer":"TN_RIVER_BT","semantic":"channel","river_class":"소하천","river_class_source":"중심선 공간조인","survey_method":"사진측량","admin_code":"41170"},"geometry":{"type":"Polygon","coordinates":[[[126.89343,37.41125],[126.89397,37.41099],[126.89394,37.41037],[126.89395,37.411],[126.89343,37.41125]]]}},{"type":"Feature","id":"TN_RIVER_BT:WTR020000000041PC","properties":{"NF_ID":"WTR020000000041PC","source_layer":"TN_RIVER_BT","semantic":"channel","river_class":"소하천","river_class_source":"중심선 공간조인","survey_method":"사진측량","admin_code":"41170"},"geometry":{"type":"Polygon","coordinates":[[[126.96118,37.40862],[126.96273,37.41019],[126.96324,37.41178],[126.96274,37.41017],[126.96118,37.40862]]]}},{"type":"Feature","id":"TN_RIVER_BT:WTR020000000041QD","properties":{"NF_ID":"WTR020000000041QD","source_layer":"TN_RIVER_BT","semantic":"channel","river_class":"등급미확인","survey_method":"사진측량","admin_code":"41170"},"geometry":{"type":"Polygon","coordinates":[[[126.91937,37.4115],[126.91936,37.4115],[126.9193,37.4117],[126.91932,37.4117],[126.91937,37.41151],[126.91937,37.4115]]]}},{"type":"Feature","id":"TN_RIVER_BT:WTR020000000041RE","properties":{"NF_ID":"WTR020000000041RE","source_layer":"TN_RIVER_BT","semantic":"channel","river_class":"등급미확인","survey_method":"사진측량","admin_code":"41170"},"geometry":{"type":"Polygon","coordinates":[[[126.91885,37.41123],[126.91884,37.41123],[126.91881,37.41127],[126.91873,37.41139],[126.91869,37.41144],[126.91869,37.41153],[126.91869,37.41162],[126.91869,37.41173],[126.91869,37.4118],[126.9187,37.4118],[126.9187,37.41173],[126.9187,37.41163],[126.9187,37.41153],[126.9187,37.41144],[126.91874,37.41139],[126.91882,37.41128],[126.91885,37.41123]]]}},{"type":"Feature","id":"TN_RIVER_BT:WTR020000000041SF","properties":{"NF_ID":"WTR020000000041SF","source_layer":"TN_RIVER_BT","semantic":"channel","river_class":"소하천","river_class_source":"중심선 공간조인","survey_method":"사진측량","admin_code":"41170"},"geometry":{"type":"Polygon","coordinates":[[[126.88466,37.41166],[126.88464,37.41163],[126.88459,37.4116],[126.88459,37.4116],[126.88461,37.4116],[126.8846,37.41159],[126.88459,37.41156],[126.88448,37.41148],[126.8844,37.41143],[126.88441,37.41141],[126.8844,37.4114],[126.88438,37.41141],[126.88436,37.4114],[126.88435,37.4114],[126.88438,37.41142],[126.88444,37.41146],[126.88451,37.41151],[126.88458,37.41156],[126.88458,37.41157],[126.88458,37.41157],[126.88458,37.41158],[126.88458,37.41159],[126.88459,37.4116],[126.8846,37.41161],[126.88461,37.41162],[126.88463,37.41165],[126.88466,37.41166]]]}},{"type":"Feature","id":"TN_RIVER_BT:WTR020000000041UH","properties":{"NF_ID":"WTR020000000041UH","source_layer":"TN_RIVER_BT","semantic":"channel","river_class":"소하천","river_class_source":"중심선 공간조인","survey_method":"사진측량","admin_code":"41170"},"geometry":{"type":"Polygon","coordinates":[[[126.9628,37.41265],[126.96302,37.41289],[126.96286,37.41244],[126.96358,37.41158],[126.96307,37.41074],[126.96304,37.4097],[126.96299,37.41077],[126.9635,37.41156],[126.96281,37.4123],[126.96283,37.41309],[126.9628,37.41265]]]}},{"type":"Feature","id":"TN_RIVER_BT:WTR020000000041VI","properties":{"NF_ID":"WTR020000000041VI","source_layer":"TN_RIVER_BT","semantic":"channel","river_class":"소하천","river_class_source":"중심선 공간조인","survey_method":"사진측량","admin_code":"41170"},"geometry":{"type":"Polygon","coordinates":[[[126.94989,37.411],[126.94877,37.41011],[126.94908,37.40865],[126.94865,37.40999],[126.94979,37.41107],[126.94939,37.41206],[126.94905,37.41229],[126.9491,37.41319],[126.9491,37.4123],[126.94989,37.411]]]}},{"type":"Feature","id":"TN_RIVER_BT:WTR020000000041XK","properties":{"NF_ID":"WTR020000000041XK","source_layer":"TN_RIVER_BT","semantic":"channel","river_class":"소하천","river_class_source":"중심선 공간조인","survey_method":"사진측량","admin_code":"41170"},"geometry":{"type":"Polygon","coordinates":[[[126.95366,37.41389],[126.95471,37.41385],[126.95322,37.41387],[126.9518,37.41294],[126.95319,37.41387],[126.95366,37.41389]]]}},{"type":"Feature","id":"TN_RIVER_BT:WTR020000000041YL","properties":{"NF_ID":"WTR020000000041YL","source_layer":"TN_RIVER_BT","semantic":"channel","river_class":"소하천","river_class_source":"중심선 공간조인","survey_method":"사진측량","admin_code":"41170"},"geometry":{"type":"Polygon","coordinates":[[[126.95734,37.4143],[126.95759,37.41417],[126.95715,37.41424],[126.95734,37.4143]]]}},{"type":"Feature","id":"TN_RIVER_BT:WTR020000000041ZM","properties":{"NF_ID":"WTR020000000041ZM","source_layer":"TN_RIVER_BT","semantic":"channel","river_class":"등급미확인","survey_method":"사진측량","admin_code":"41170"},"geometry":{"type":"Polygon","coordinates":[[[126.92111,37.41416],[126.92098,37.41407],[126.92098,37.41407],[126.92097,37.41408],[126.92094,37.41413],[126.92094,37.41413],[126.92094,37.41413],[126.92096,37.41415],[126.92104,37.4142],[126.92105,37.41421],[126.92106,37.4142],[126.92111,37.41417],[126.92111,37.41417],[126.92111,37.41416]]]}},{"type":"Feature","id":"TN_RIVER_BT:WTR0200000000422Q","properties":{"NF_ID":"WTR0200000000422Q","source_layer":"TN_RIVER_BT","semantic":"channel","river_class":"등급미확인","survey_method":"사진측량","admin_code":"41170"},"geometry":{"type":"Polygon","coordinates":[[[126.92076,37.41448],[126.92069,37.41447],[126.92066,37.41448],[126.92069,37.4145],[126.92074,37.41454],[126.92075,37.41455],[126.92077,37.41455],[126.92077,37.41455],[126.92078,37.41455],[126.92079,37.41455],[126.9208,37.41455],[126.92081,37.41455],[126.92083,37.41455],[126.92083,37.41455],[126.92083,37.41454],[126.92082,37.41454],[126.9208,37.41453],[126.92076,37.41449],[126.92076,37.41448]]]}},{"type":"Feature","id":"TN_RIVER_BT:WTR0200000000425T","properties":{"NF_ID":"WTR0200000000425T","source_layer":"TN_RIVER_BT","semantic":"channel","river_class":"소하천","river_class_source":"중심선 공간조인","survey_method":"사진측량","admin_code":"41170"},"geometry":{"type":"Polygon","coordinates":[[[126.8982,37.41481],[126.8982,37.41481],[126.89819,37.41482],[126.89817,37.41484],[126.89814,37.41486],[126.89813,37.41487],[126.89812,37.41488],[126.89811,37.41489],[126.89811,37.4149],[126.8981,37.41492],[126.8981,37.41492],[126.8981,37.41496],[126.8981,37.41497],[126.89809,37.41498],[126.89809,37.41499],[126.89808,37.41499],[126.89807,37.415],[126.89806,37.41501],[126.89805,37.41502],[126.89804,37.41503],[126.89803,37.41503],[126.89802,37.41504],[126.898,37.41505],[126.89799,37.41505],[126.89797,37.41506],[126.89795,37.41507],[126.89794,37.41508],[126.89793,37.41509],[126.89791,37.41511],[126.8979,37.41512],[126.89789,37.41512],[126.89788,37.41513],[126.89786,37.41514],[126.89785,37.41514],[126.89783,37.41515],[126.89782,37.41516],[126.89781,37.41517],[126.8978,37.41518],[126.89779,37.41519],[126.89778,37.4152],[126.89778,37.41521],[126.89777,37.41522],[126.89776,37.41523],[126.89775,37.41524],[126.89774,37.41525],[126.89773,37.41526],[126.89772,37.41527],[126.89771,37.41528],[126.8977,37.41529],[126.89767,37.41533],[126.89768,37.41533],[126.89772,37.41529],[126.89773,37.41528],[126.89774,37.41527],[126.89775,37.41527],[126.89777,37.41524],[126.89778,37.41523],[126.89779,37.41522],[126.89779,37.41521],[126.8978,37.4152],[126.89782,37.41518],[126.89783,37.41517],[126.89783,37.41517],[126.89784,37.41516],[126.89787,37.41515],[126.89788,37.41514],[126.89789,37.41514],[126.8979,37.41513],[126.89791,37.41513],[126.89792,37.41511],[126.89793,37.41511],[126.89795,37.4151],[126.89796,37.41509],[126.89798,37.41507],[126.89798,37.41507],[126.898,37.41506],[126.89805,37.41503],[126.89806,37.41503],[126.89807,37.41502],[126.89808,37.41501],[126.89809,37.415],[126.89809,37.415],[126.89811,37.41497],[126.89812,37.41497],[126.89812,37.41496],[126.89812,37.41495],[126.89812,37.41494],[126.89812,37.41493],[126.89812,37.41492],[126.89813,37.41489],[126.89813,37.41489],[126.89814,37.41488],[126.89815,37.41487],[126.89815,37.41486],[126.89818,37.41483],[126.89819,37.41482],[126.8982,37.41482],[126.8982,37.41481]]]}},{"type":"Feature","id":"TN_RIVER_BT:WTR0200000000427V","properties":{"NF_ID":"WTR0200000000427V","source_layer":"TN_RIVER_BT","semantic":"channel","river_class":"등급미확인","survey_method":"사진측량","admin_code":"41170"},"geometry":{"type":"Polygon","coordinates":[[[126.91969,37.41653],[126.91978,37.41652],[126.91982,37.41652],[126.91987,37.41652],[126.91991,37.41651],[126.91993,37.4165],[126.91996,37.41648],[126.91998,37.41646],[126.92,37.41644],[126.92001,37.41643],[126.92003,37.4164],[126.92004,37.41637],[126.92004,37.41636],[126.92005,37.41633],[126.92004,37.41626],[126.92003,37.41622],[126.92003,37.4162],[126.92004,37.41617],[126.92007,37.41613],[126.92009,37.41611],[126.92012,37.41609],[126.92014,37.41607],[126.92017,37.41606],[126.92022,37.41606],[126.92026,37.41605],[126.92031,37.41606],[126.9203,37.41603],[126.92027,37.41604],[126.92024,37.41604],[126.92021,37.41604],[126.92017,37.41604],[126.92014,37.41605],[126.92012,37.41606],[126.92009,37.41609],[126.92005,37.41612],[126.92004,37.41614],[126.92002,37.41616],[126.92002,37.41618],[126.92001,37.41621],[126.92001,37.41623],[126.92002,37.41631],[126.92002,37.41636],[126.92002,37.41638],[126.92001,37.4164],[126.92,37.41641],[126.91998,37.41643],[126.91995,37.41646],[126.91992,37.41649],[126.91991,37.41649],[126.91988,37.4165],[126.91986,37.4165],[126.91964,37.41651],[126.91962,37.41651],[126.91962,37.41653],[126.91969,37.41653]]]}},{"type":"Feature","id":"TN_RIVER_BT:WTR0200000000428W","properties":{"NF_ID":"WTR0200000000428W","source_layer":"TN_RIVER_BT","semantic":"channel","river_class":"소하천","river_class_source":"중심선 공간조인","survey_method":"사진측량","admin_code":"41170"},"geometry":{"type":"Polygon","coordinates":[[[126.89565,37.41664],[126.89681,37.41645],[126.89739,37.4159],[126.8961,37.4143],[126.89736,37.41592],[126.8968,37.41642],[126.89565,37.41664]]]}},{"type":"Feature","id":"TN_RIVER_BT:WTR0200000000429X","properties":{"NF_ID":"WTR0200000000429X","source_layer":"TN_RIVER_BT","semantic":"channel","river_class":"등급미확인","survey_method":"사진측량","admin_code":"41170"},"geometry":{"type":"Polygon","coordinates":[[[126.9245,37.41614],[126.9245,37.41614],[126.92447,37.41615],[126.9244,37.41619],[126.92435,37.41624],[126.92434,37.41625],[126.92431,37.41628],[126.92427,37.41633],[126.92424,37.41638],[126.92422,37.41642],[126.92419,37.41648],[126.92418,37.41653],[126.92417,37.41656],[126.92414,37.4166],[126.92413,37.41662],[126.92411,37.41664],[126.9241,37.41665],[126.9241,37.41667],[126.92409,37.41667],[126.92409,37.4167],[126.92409,37.41673],[126.9241,37.41679],[126.92409,37.41682],[126.92408,37.41686],[126.92408,37.41689],[126.92407,37.41691],[126.92407,37.41692],[126.92407,37.41692],[126.92405,37.41695],[126.92402,37.41698],[126.92399,37.41701],[126.92396,37.41705],[126.92393,37.41709],[126.92391,37.41712],[126.92387,37.41715],[126.92382,37.41721],[126.92376,37.41726],[126.92376,37.41728],[126.92375,37.41729],[126.92378,37.41729],[126.92379,37.41729],[126.92382,37.41727],[126.92388,37.4172],[126.9239,37.41719],[126.92395,37.41714],[126.92396,37.41712],[126.92399,37.41708],[126.92401,37.41705],[126.92406,37.41701],[126.92409,37.41698],[126.9241,37.41697],[126.92411,37.41696],[126.92412,37.41694],[126.92414,37.41691],[126.92415,37.41687],[126.92415,37.41684],[126.92415,37.41682],[126.92414,37.41679],[126.92413,37.41677],[126.92412,37.41675],[126.92412,37.41673],[126.92412,37.41671],[126.92411,37.4167],[126.92411,37.4167],[126.92411,37.41668],[126.92411,37.41668],[126.92411,37.41667],[126.92412,37.41666],[126.92412,37.41665],[126.92412,37.41665],[126.92414,37.41663],[126.92416,37.41661],[126.92416,37.41661],[126.92419,37.41656],[126.92421,37.41652],[126.92423,37.41647],[126.92426,37.41642],[126.92428,37.41637],[126.92428,37.41637],[126.92432,37.4163],[126.92436,37.41626],[126.92439,37.41622],[126.92443,37.41619],[126.92447,37.41616],[126.9245,37.41615],[126.9245,37.41615],[126.9245,37.41614]]]}},{"type":"Feature","id":"TN_RIVER_BT:WTR020000000042C0","properties":{"NF_ID":"WTR020000000042C0","source_layer":"TN_RIVER_BT","semantic":"channel","river_class":"등급미확인","survey_method":"사진측량","admin_code":"41170"},"geometry":{"type":"Polygon","coordinates":[[[126.92377,37.41738],[126.92374,37.41738],[126.92372,37.41745],[126.9237,37.4175],[126.92369,37.41755],[126.92366,37.41758],[126.92363,37.41761],[126.9236,37.41764],[126.92359,37.41765],[126.92362,37.41767],[126.92363,37.41765],[126.92367,37.41763],[126.9237,37.41759],[126.92372,37.41756],[126.92374,37.41753],[126.92375,37.41749],[126.92376,37.41745],[126.92377,37.41743],[126.92377,37.41738]]]}},{"type":"Feature","id":"TN_RIVER_BT:WTR020000000042F3","properties":{"NF_ID":"WTR020000000042F3","source_layer":"TN_RIVER_BT","semantic":"channel","river_class":"소하천","river_class_source":"중심선 공간조인","survey_method":"사진측량","admin_code":"41170"},"geometry":{"type":"Polygon","coordinates":[[[126.9256,37.41867],[126.9256,37.41867],[126.92559,37.41867],[126.92558,37.41868],[126.92557,37.41869],[126.92556,37.41871],[126.92556,37.41873],[126.92555,37.41875],[126.92554,37.41877],[126.92554,37.41879],[126.92553,37.41881],[126.92553,37.41883],[126.92552,37.41886],[126.92552,37.41887],[126.92551,37.41889],[126.92551,37.41891],[126.92551,37.41893],[126.9255,37.41895],[126.9255,37.41896],[126.92544,37.41914],[126.92542,37.41916],[126.9254,37.41922],[126.92538,37.41925],[126.92535,37.41931],[126.92531,37.41938],[126.9253,37.41939],[126.92529,37.41942],[126.92524,37.41949],[126.92524,37.41949],[126.92522,37.4195],[126.92521,37.41951],[126.92523,37.41952],[126.92525,37.41951],[126.92526,37.41949],[126.92529,37.41945],[126.92531,37.41941],[126.92534,37.41936],[126.92538,37.4193],[126.92542,37.41923],[126.92545,37.41919],[126.92548,37.41915],[126.9255,37.41912],[126.92551,37.4191],[126.92554,37.41898],[126.92556,37.4189],[126.92558,37.41879],[126.9256,37.41868],[126.9256,37.41867],[126.9256,37.41867]]]}},{"type":"Feature","id":"TN_RIVER_BT:WTR020000000042I6","properties":{"NF_ID":"WTR020000000042I6","source_layer":"TN_RIVER_BT","semantic":"channel","river_class":"등급미확인","survey_method":"사진측량","admin_code":"41170"},"geometry":{"type":"Polygon","coordinates":[[[126.91852,37.42027],[126.91837,37.4201],[126.91835,37.42011],[126.9185,37.42027],[126.91862,37.4204],[126.91862,37.42043],[126.91862,37.42044],[126.91867,37.4204],[126.91865,37.42039],[126.91852,37.42027]]]}},{"type":"Feature","id":"TN_RIVER_BT:WTR020000000042J7","properties":{"NF_ID":"WTR020000000042J7","source_layer":"TN_RIVER_BT","semantic":"channel","river_class":"소하천","river_class_source":"중심선 공간조인","survey_method":"사진측량","admin_code":"41170"},"geometry":{"type":"Polygon","coordinates":[[[126.94102,37.42056],[126.94099,37.42055],[126.94098,37.42054],[126.94095,37.42055],[126.94094,37.42055],[126.94092,37.42055],[126.94091,37.42055],[126.94091,37.42055],[126.94089,37.42055],[126.94087,37.42055],[126.94085,37.42053],[126.94083,37.42051],[126.94082,37.4205],[126.94081,37.4205],[126.94079,37.4205],[126.94074,37.4205],[126.94072,37.4205],[126.9407,37.42049],[126.94066,37.42045],[126.94062,37.42043],[126.94055,37.42038],[126.94049,37.42035],[126.94045,37.42033],[126.9404,37.42032],[126.94037,37.42032],[126.94035,37.42032],[126.94035,37.42033],[126.94034,37.42035],[126.94034,37.42037],[126.94034,37.42039],[126.94035,37.42038],[126.94035,37.42037],[126.94035,37.42036],[126.94037,37.42034],[126.94038,37.42033],[126.94041,37.42033],[126.94042,37.42034],[126.94047,37.42035],[126.94052,37.42037],[126.94057,37.42041],[126.94061,37.42044],[126.94064,37.42045],[126.94066,37.42047],[126.94068,37.42049],[126.94071,37.4205],[126.94073,37.42051],[126.94076,37.42051],[126.94082,37.42052],[126.94083,37.42052],[126.94084,37.42053],[126.94086,37.42055],[126.94088,37.42056],[126.9409,37.42056],[126.94092,37.42056],[126.94096,37.42056],[126.94098,37.42056],[126.94102,37.42056],[126.94102,37.42056]]]}},{"type":"Feature","id":"TN_RIVER_BT:WTR020000000042OC","properties":{"NF_ID":"WTR020000000042OC","source_layer":"TN_RIVER_BT","semantic":"channel","river_class":"소하천","river_class_source":"중심선 공간조인","survey_method":"사진측량","admin_code":"41170"},"geometry":{"type":"Polygon","coordinates":[[[126.92791,37.42067],[126.92787,37.42067],[126.92787,37.4207],[126.92786,37.42072],[126.92786,37.42073],[126.92786,37.42075],[126.92787,37.42077],[126.92787,37.4208],[126.92787,37.42082],[126.92788,37.42084],[126.92789,37.42086],[126.92789,37.42088],[126.92789,37.4209],[126.92789,37.42092],[126.92789,37.42094],[126.9279,37.42096],[126.9279,37.42098],[126.92789,37.421],[126.92787,37.42101],[126.92787,37.42103],[126.92786,37.42105],[126.92785,37.42107],[126.92785,37.42109],[126.92785,37.42111],[126.92785,37.42113],[126.92784,37.42116],[126.92784,37.42118],[126.92783,37.4212],[126.92782,37.42122],[126.92782,37.42124],[126.92781,37.42126],[126.92781,37.42128],[126.9278,37.4213],[126.9278,37.42132],[126.92779,37.42134],[126.92779,37.42136],[126.92778,37.42138],[126.92778,37.42139],[126.92778,37.42141],[126.92777,37.42143],[126.92777,37.42146],[126.92777,37.42148],[126.92777,37.42149],[126.92776,37.42152],[126.92775,37.42154],[126.92774,37.42155],[126.92773,37.42157],[126.92772,37.42159],[126.92772,37.42161],[126.92771,37.42163],[126.92772,37.42164],[126.92773,37.42163],[126.92774,37.42161],[126.92775,37.42159],[126.92776,37.42157],[126.92778,37.42156],[126.92779,37.42154],[126.9278,37.42152],[126.9278,37.4215],[126.92781,37.42148],[126.9278,37.42146],[126.9278,37.42144],[126.9278,37.42142],[126.9278,37.42139],[126.92781,37.42137],[126.92781,37.42135],[126.92782,37.42133],[126.92782,37.42131],[126.92783,37.42129],[126.92783,37.42126],[126.92784,37.42124],[126.92785,37.42122],[126.92786,37.42121],[126.92787,37.42119],[126.92787,37.42117],[126.92787,37.42114],[126.92788,37.42112],[126.92788,37.4211],[126.92788,37.42108],[126.92788,37.42106],[126.92788,37.42104],[126.92789,37.42102],[126.9279,37.42101],[126.92792,37.42099],[126.92792,37.42097],[126.92792,37.42095],[126.92792,37.42093],[126.92792,37.42091],[126.92792,37.42089],[126.92793,37.42087],[126.92793,37.42085],[126.92792,37.42084],[126.92791,37.42082],[126.92791,37.4208],[126.9279,37.42078],[126.9279,37.42076],[126.9279,37.42074],[126.9279,37.42072],[126.9279,37.4207],[126.92791,37.42067]]]}},{"type":"Feature","id":"TN_RIVER_BT:WTR020000000042PD","properties":{"NF_ID":"WTR020000000042PD","source_layer":"TN_RIVER_BT","semantic":"channel","river_class":"등급미확인","survey_method":"사진측량","admin_code":"41170"},"geometry":{"type":"Polygon","coordinates":[[[126.92278,37.42],[126.92315,37.42193],[126.92323,37.42139],[126.92278,37.42]]]}},{"type":"Feature","id":"TN_RIVER_BT:WTR020000000042RF","properties":{"NF_ID":"WTR020000000042RF","source_layer":"TN_RIVER_BT","semantic":"channel","river_class":"등급미확인","survey_method":"사진측량","admin_code":"41170"},"geometry":{"type":"Polygon","coordinates":[[[126.91867,37.42056],[126.91866,37.42049],[126.91864,37.42051],[126.91865,37.42057],[126.9187,37.42072],[126.91871,37.42074],[126.91887,37.42092],[126.91899,37.42101],[126.91901,37.42103],[126.91908,37.42127],[126.91913,37.4214],[126.91919,37.42147],[126.91921,37.42152],[126.91926,37.42159],[126.9193,37.42164],[126.91932,37.42165],[126.91933,37.42165],[126.91935,37.42165],[126.91936,37.42166],[126.91938,37.42171],[126.91942,37.42178],[126.91947,37.42184],[126.91948,37.42186],[126.91949,37.42187],[126.91949,37.42189],[126.9195,37.42191],[126.91952,37.42197],[126.91952,37.42199],[126.91952,37.422],[126.91952,37.42202],[126.91951,37.42205],[126.91951,37.42206],[126.91951,37.42209],[126.91954,37.4221],[126.91954,37.42206],[126.91956,37.42203],[126.91956,37.42201],[126.91956,37.42194],[126.91956,37.42192],[126.91955,37.42189],[126.91953,37.42184],[126.91952,37.42183],[126.91951,37.4218],[126.9195,37.42179],[126.91949,37.42178],[126.91948,37.42177],[126.91947,37.42176],[126.91945,37.42173],[126.91943,37.42171],[126.9194,37.42169],[126.9194,37.42167],[126.91939,37.42165],[126.91937,37.42163],[126.91931,37.42159],[126.91923,37.4215],[126.91923,37.4215],[126.91922,37.42146],[126.91916,37.42138],[126.91911,37.42126],[126.91903,37.42102],[126.91902,37.42101],[126.9189,37.42092],[126.91874,37.42073],[126.91872,37.42071],[126.91867,37.42056]]]}},{"type":"Feature","id":"TN_RIVER_BT:WTR020000000042UI","properties":{"NF_ID":"WTR020000000042UI","source_layer":"TN_RIVER_BT","semantic":"channel","river_class":"소하천","river_class_source":"중심선 공간조인","survey_method":"사진측량","admin_code":"41170"},"geometry":{"type":"Polygon","coordinates":[[[126.93273,37.41857],[126.93259,37.41945],[126.93328,37.42079],[126.93273,37.42187],[126.93306,37.42248],[126.93276,37.42184],[126.93331,37.42082],[126.93307,37.41991],[126.93265,37.41952],[126.93273,37.41857]]]}},{"type":"Feature","id":"TN_RIVER_BT:WTR020000000042VJ","properties":{"NF_ID":"WTR020000000042VJ","source_layer":"TN_RIVER_BT","semantic":"channel","river_class":"소하천","river_class_source":"중심선 공간조인","survey_method":"사진측량","admin_code":"41170"},"geometry":{"type":"Polygon","coordinates":[[[126.89524,37.42217],[126.89522,37.42215],[126.89522,37.42215],[126.895,37.42228],[126.89487,37.42235],[126.89488,37.42236],[126.895,37.4223],[126.89523,37.42217],[126.89524,37.42217]]]}},{"type":"Feature","id":"TN_RIVER_BT:WTR020000000042XL","properties":{"NF_ID":"WTR020000000042XL","source_layer":"TN_RIVER_BT","semantic":"channel","river_class":"소하천","river_class_source":"중심선 공간조인","survey_method":"사진측량","admin_code":"41170"},"geometry":{"type":"Polygon","coordinates":[[[126.89676,37.42252],[126.89676,37.42252],[126.89677,37.42252],[126.89677,37.42252],[126.89679,37.42253],[126.89679,37.42253],[126.89683,37.42251],[126.89683,37.4225],[126.89682,37.42249],[126.89682,37.42249],[126.89683,37.42249],[126.89685,37.42248],[126.89687,37.42246],[126.89687,37.42246],[126.89688,37.42245],[126.89687,37.42245],[126.89687,37.42245],[126.89687,37.42245],[126.89687,37.42245],[126.89685,37.42246],[126.89685,37.42246],[126.89684,37.42247],[126.89683,37.42247],[126.89675,37.42251],[126.89669,37.42253],[126.89657,37.42258],[126.89649,37.42262],[126.89649,37.42262],[126.89649,37.42263],[126.89649,37.42263],[126.89658,37.42259],[126.89664,37.42256],[126.89665,37.42256],[126.89668,37.42255],[126.89671,37.42255],[126.89671,37.42255],[126.89671,37.42254],[126.89671,37.42254],[126.89675,37.42252],[126.89676,37.42252]]]}},{"type":"Feature","id":"TN_RIVER_BT:WTR0200000000432R","properties":{"NF_ID":"WTR0200000000432R","source_layer":"TN_RIVER_BT","semantic":"channel","river_class":"등급미확인","survey_method":"사진측량","admin_code":"41170"},"geometry":{"type":"Polygon","coordinates":[[[126.9062,37.42338],[126.90744,37.42124],[126.90922,37.41897],[126.90743,37.42123],[126.9062,37.42338]]]}},{"type":"Feature","id":"TN_RIVER_BT:WTR0200000000433S","properties":{"NF_ID":"WTR0200000000433S","source_layer":"TN_RIVER_BT","semantic":"channel","river_class":"소하천","river_class_source":"중심선 공간조인","survey_method":"사진측량","admin_code":"41170"},"geometry":{"type":"Polygon","coordinates":[[[126.89602,37.42461],[126.89601,37.42461],[126.89601,37.42462],[126.896,37.42463],[126.89599,37.42465],[126.89599,37.42466],[126.89599,37.42468],[126.89599,37.4247],[126.89601,37.42475],[126.89602,37.42475],[126.89603,37.42475],[126.89604,37.42475],[126.89604,37.42474],[126.89604,37.42472],[126.89604,37.42471],[126.89604,37.4247],[126.89604,37.42469],[126.89603,37.42468],[126.89603,37.42467],[126.89603,37.42465],[126.89603,37.42464],[126.89603,37.42463],[126.89603,37.42462],[126.89603,37.42462],[126.89602,37.42461]]]}},{"type":"Feature","id":"TN_RIVER_BT:WTR0200000000434T","properties":{"NF_ID":"WTR0200000000434T","source_layer":"TN_RIVER_BT","semantic":"channel","river_class":"등급미확인","survey_method":"사진측량","admin_code":"41170"},"geometry":{"type":"Polygon","coordinates":[[[126.90511,37.42476],[126.9051,37.42476],[126.90508,37.42479],[126.90502,37.4249],[126.905,37.42494],[126.90498,37.42499],[126.90497,37.425],[126.90497,37.425],[126.90488,37.42515],[126.90474,37.4254],[126.90468,37.42551],[126.90462,37.42564],[126.90457,37.42571],[126.90448,37.42583],[126.90448,37.42583],[126.90446,37.42586],[126.90438,37.42601],[126.90423,37.42629],[126.90411,37.42651],[126.90399,37.42672],[126.90392,37.42685],[126.90392,37.42685],[126.90398,37.42675],[126.90411,37.42651],[126.90423,37.4263],[126.90436,37.42607],[126.90447,37.42587],[126.90449,37.42583],[126.90449,37.42583],[126.90457,37.42572],[126.90463,37.42564],[126.90469,37.42552],[126.90475,37.42541],[126.90483,37.42527],[126.90498,37.425],[126.90498,37.425],[126.90499,37.42499],[126.905,37.42496],[126.90503,37.4249],[126.90509,37.4248],[126.90511,37.42476],[126.90511,37.42476]]]}},{"type":"Feature","id":"TN_RIVER_BT:WTR0200000000436V","properties":{"NF_ID":"WTR0200000000436V","source_layer":"TN_RIVER_BT","semantic":"channel","river_class":"소하천","river_class_source":"중심선 공간조인","survey_method":"사진측량","admin_code":"41170"},"geometry":{"type":"Polygon","coordinates":[[[126.91381,37.42772],[126.9136,37.42754],[126.91375,37.42771],[126.91345,37.42769],[126.91381,37.42772]]]}},{"type":"Feature","id":"TN_RIVER_BT:WTR0200000000438X","properties":{"NF_ID":"WTR0200000000438X","source_layer":"TN_RIVER_BT","semantic":"channel","river_class":"소하천","river_class_source":"중심선 공간조인","survey_method":"사진측량","admin_code":"41170"},"geometry":{"type":"Polygon","coordinates":[[[126.905,37.42851],[126.90506,37.42832],[126.90505,37.42832],[126.905,37.42849],[126.90496,37.42861],[126.90492,37.42874],[126.90492,37.42874],[126.90492,37.42876],[126.90493,37.42874],[126.90493,37.42874],[126.90497,37.42861],[126.905,37.42851]]]}},{"type":"Feature","id":"TN_RIVER_BT:WTR0200000000439Y","properties":{"NF_ID":"WTR0200000000439Y","source_layer":"TN_RIVER_BT","semantic":"channel","river_class":"소하천","river_class_source":"중심선 공간조인","survey_method":"사진측량","admin_code":"41170"},"geometry":{"type":"Polygon","coordinates":[[[126.91381,37.42835],[126.9138,37.42832],[126.91377,37.42834],[126.91378,37.42837],[126.91379,37.4284],[126.91382,37.42845],[126.91385,37.42854],[126.9139,37.42868],[126.91394,37.42879],[126.91397,37.42888],[126.91401,37.42899],[126.91402,37.429],[126.91403,37.42901],[126.91412,37.42907],[126.91419,37.42912],[126.9142,37.42913],[126.9142,37.42913],[126.91421,37.42918],[126.91424,37.42919],[126.91424,37.42915],[126.91424,37.42911],[126.91423,37.42911],[126.91413,37.42905],[126.91405,37.429],[126.91404,37.42899],[126.91404,37.42898],[126.91402,37.42893],[126.91398,37.42882],[126.91396,37.42875],[126.91393,37.42867],[126.91388,37.42855],[126.91384,37.42844],[126.91381,37.42835]]]}},{"type":"Feature","id":"TN_RIVER_BT:WTR020000000043B0","properties":{"NF_ID":"WTR020000000043B0","source_layer":"TN_RIVER_BT","semantic":"channel","river_class":"소하천","river_class_source":"중심선 공간조인","survey_method":"사진측량","admin_code":"41170"},"geometry":{"type":"Polygon","coordinates":[[[126.91432,37.42982],[126.91429,37.42982],[126.91428,37.42989],[126.91429,37.42995],[126.91429,37.43],[126.91429,37.43],[126.91431,37.43008],[126.91434,37.43008],[126.91433,37.43],[126.91433,37.42998],[126.91433,37.42993],[126.91433,37.42987],[126.91432,37.42982]]]}},{"type":"Feature","id":"TN_RIVER_BT:WTR020000000043G5","properties":{"NF_ID":"WTR020000000043G5","source_layer":"TN_RIVER_BT","semantic":"channel","river_class":"소하천","river_class_source":"중심선 공간조인","survey_method":"사진측량","admin_code":"41170"},"geometry":{"type":"Polygon","coordinates":[[[126.91515,37.43089],[126.91515,37.43088],[126.91514,37.43088],[126.91514,37.43089],[126.91509,37.43102],[126.91503,37.43114],[126.915,37.43121],[126.91494,37.43134],[126.91495,37.43134],[126.915,37.43123],[126.91504,37.43115],[126.91509,37.43102],[126.91515,37.43089]]]}},{"type":"Feature","id":"TN_RIVER_BT:WTR020000000043MB","properties":{"NF_ID":"WTR020000000043MB","source_layer":"TN_RIVER_BT","semantic":"channel","river_class":"지방하천","river_class_source":"중심선 공간조인","river_name":"삼막천","river_code":"1025480","survey_method":"사진측량","admin_code":"41170"},"geometry":{"type":"Polygon","coordinates":[[[126.92602,37.43816],[126.92498,37.43799],[126.92356,37.43669],[126.92207,37.43597],[126.92202,37.43465],[126.91997,37.43296],[126.92067,37.43392],[126.9219,37.43467],[126.92197,37.43599],[126.9233,37.43672],[126.92346,37.4375],[126.92356,37.43686],[126.92491,37.43809],[126.92571,37.43812],[126.9265,37.43852],[126.92602,37.43816]]]}},{"type":"Feature","id":"TN_RIVER_BT:WTR020000000045ZQ","properties":{"NF_ID":"WTR020000000045ZQ","source_layer":"TN_RIVER_BT","semantic":"channel","river_class":"국가하천","river_class_source":"중심선 공간조인","river_name":"안양천","river_code":"1005380","survey_method":"사진측량","admin_code":"41170"},"geometry":{"type":"MultiPolygon","coordinates":[[[[126.94568,37.3739],[126.94648,37.37495],[126.9461,37.3743],[126.94623,37.37395],[126.94603,37.37405],[126.94575,37.37374],[126.94568,37.3739]]],[[[126.94883,37.36885],[126.94883,37.36885],[126.94839,37.36911],[126.94829,37.36916],[126.94808,37.36925],[126.94798,37.36929],[126.94792,37.36932],[126.94786,37.36941],[126.94789,37.3694],[126.94791,37.36939],[126.94791,37.36939],[126.94792,37.36939],[126.94792,37.36938],[126.94791,37.36938],[126.94791,37.36937],[126.94791,37.36937],[126.94791,37.36937],[126.94791,37.36936],[126.94791,37.36936],[126.94792,37.36936],[126.94793,37.36937],[126.94793,37.36937],[126.94794,37.36937],[126.94794,37.36937],[126.94795,37.36937],[126.94796,37.36936],[126.94797,37.36935],[126.94797,37.36935],[126.94798,37.36934],[126.94798,37.36934],[126.94799,37.36934],[126.948,37.36934],[126.948,37.36935],[126.948,37.36935],[126.948,37.36935],[126.948,37.36935],[126.94796,37.36938],[126.94795,37.36939],[126.94794,37.36939],[126.94792,37.36942],[126.94792,37.36942],[126.94791,37.36943],[126.94789,37.36944],[126.94787,37.36946],[126.94785,37.36947],[126.94784,37.36947],[126.94782,37.36948],[126.9478,37.36949],[126.9478,37.36949],[126.9478,37.3695],[126.94776,37.36958],[126.94782,37.36954],[126.94793,37.36949],[126.94803,37.36942],[126.94809,37.36938],[126.94815,37.36935],[126.94819,37.36931],[126.94825,37.36925],[126.9483,37.3692],[126.94833,37.36918],[126.94836,37.36917],[126.94838,37.36917],[126.9484,37.36916],[126.94841,37.36916],[126.94842,37.36916],[126.94845,37.36914],[126.94858,37.36905],[126.94873,37.36897],[126.94879,37.36893],[126.94882,37.3689],[126.94889,37.36884],[126.9489,37.36883],[126.94883,37.36885]]],[[[126.95038,37.36767],[126.9504,37.36768],[126.95043,37.36766],[126.95041,37.36765],[126.95038,37.36767]]],[[[126.95379,37.36613],[126.95353,37.36595],[126.95206,37.3661],[126.95104,37.36666],[126.95089,37.36708],[126.95207,37.36626],[126.95379,37.36613]]],[[[126.89621,37.42613],[126.89756,37.42692],[126.89751,37.43005],[126.89983,37.4345],[126.90031,37.43643],[126.90022,37.43661],[126.90009,37.43623],[126.90007,37.4379],[126.90071,37.43714],[126.90089,37.43556],[126.90063,37.43594],[126.90005,37.43386],[126.89785,37.43007],[126.89794,37.42824],[126.89846,37.42752],[126.8983,37.42728],[126.89838,37.42765],[126.89776,37.42837],[126.8986,37.42386],[126.89803,37.42165],[126.89622,37.41866],[126.89583,37.41852],[126.89459,37.41691],[126.89495,37.41665],[126.89455,37.41687],[126.89209,37.4143],[126.89164,37.41286],[126.89138,37.41311],[126.89076,37.41112],[126.89107,37.41019],[126.89186,37.40972],[126.8925,37.40973],[126.89191,37.40969],[126.89446,37.40766],[126.89533,37.40431],[126.89607,37.40363],[126.89732,37.4034],[126.90325,37.40507],[126.90686,37.40764],[126.90697,37.40807],[126.90702,37.40771],[126.91161,37.40886],[126.91286,37.40942],[126.91314,37.413],[126.91067,37.41562],[126.9112,37.41648],[126.90938,37.41877],[126.9104,37.41755],[126.91106,37.42084],[126.91315,37.42373],[126.91335,37.42455],[126.91423,37.42527],[126.91455,37.4261],[126.9144,37.4264],[126.91459,37.42627],[126.91504,37.42704],[126.91605,37.42767],[126.91635,37.42952],[126.91805,37.43069],[126.91906,37.4321],[126.9199,37.4328],[126.91751,37.43019],[126.91862,37.43019],[126.91907,37.43039],[126.91951,37.42972],[126.91904,37.43038],[126.9186,37.43017],[126.91747,37.43018],[126.91643,37.42954],[126.91621,37.42891],[126.91639,37.4283],[126.9161,37.42767],[126.91481,37.42673],[126.91426,37.42525],[126.91337,37.42449],[126.91331,37.4237],[126.91223,37.42252],[126.91117,37.42081],[126.91046,37.41766],[126.91133,37.41642],[126.91082,37.41565],[126.9132,37.41302],[126.9154,37.41422],[126.91586,37.41625],[126.91882,37.41829],[126.91841,37.41903],[126.91844,37.41952],[126.91844,37.41902],[126.91891,37.41834],[126.91997,37.41861],[126.92136,37.41862],[126.92517,37.41999],[126.92502,37.42118],[126.92585,37.42199],[126.92645,37.42351],[126.9259,37.42199],[126.92505,37.42116],[126.92536,37.42001],[126.92702,37.42038],[126.9285,37.42043],[126.93027,37.41973],[126.93103,37.41854],[126.93347,37.41815],[126.93468,37.41869],[126.935,37.41922],[126.93584,37.41952],[126.93604,37.42023],[126.93662,37.4209],[126.9361,37.42019],[126.93597,37.41953],[126.93777,37.41982],[126.94033,37.42093],[126.94235,37.42026],[126.94333,37.4202],[126.94417,37.4206],[126.94448,37.42125],[126.94502,37.42168],[126.94595,37.42191],[126.94708,37.42182],[126.94786,37.42213],[126.9482,37.42267],[126.948,37.42312],[126.94815,37.42351],[126.94738,37.42485],[126.94711,37.42598],[126.94809,37.42669],[126.94768,37.42726],[126.94756,37.42798],[126.94848,37.42903],[126.94805,37.42999],[126.94827,37.43044],[126.94797,37.43091],[126.94872,37.43137],[126.948,37.43498],[126.94752,37.43577],[126.94799,37.43668],[126.94767,37.43739],[126.94832,37.4378],[126.94778,37.43746],[126.94804,37.4367],[126.94757,37.43578],[126.94805,37.43502],[126.94801,37.43449],[126.94864,37.43274],[126.94877,37.43131],[126.94801,37.43085],[126.94831,37.43049],[126.94813,37.42999],[126.9486,37.42906],[126.94769,37.42805],[126.94815,37.42655],[126.94741,37.42616],[126.94722,37.42571],[126.94824,37.4236],[126.94834,37.4217],[126.94929,37.42136],[126.94944,37.42094],[126.9502,37.42074],[126.94937,37.4209],[126.94926,37.42132],[126.94872,37.42124],[126.9482,37.42162],[126.94676,37.42156],[126.94597,37.42178],[126.94471,37.42128],[126.94426,37.42052],[126.94353,37.4201],[126.94261,37.42009],[126.94041,37.42084],[126.93761,37.41964],[126.93568,37.41943],[126.935,37.41912],[126.9345,37.41843],[126.93361,37.41813],[126.93106,37.41849],[126.93026,37.41957],[126.92837,37.42037],[126.9251,37.41991],[126.92466,37.41953],[126.92152,37.41861],[126.91923,37.41838],[126.91616,37.41644],[126.91549,37.41421],[126.9133,37.41301],[126.91301,37.40966],[126.91338,37.40943],[126.91587,37.41007],[126.91723,37.40976],[126.92119,37.40614],[126.92155,37.40624],[126.92134,37.40601],[126.92176,37.40567],[126.9239,37.40435],[126.92422,37.40447],[126.92411,37.4042],[126.92469,37.40379],[126.92504,37.40389],[126.9249,37.40362],[126.92809,37.40098],[126.92858,37.40059],[126.92893,37.40071],[126.92872,37.40048],[126.93002,37.39936],[126.93028,37.39944],[126.93015,37.39919],[126.93164,37.39738],[126.93255,37.39729],[126.93293,37.39709],[126.93204,37.3973],[126.93314,37.39675],[126.93784,37.39469],[126.93869,37.3949],[126.94574,37.39881],[126.94582,37.39913],[126.94594,37.39894],[126.94738,37.40013],[126.94744,37.39997],[126.94867,37.40029],[126.94993,37.4008],[126.95333,37.40086],[126.95711,37.40216],[126.96112,37.40174],[126.96332,37.40184],[126.9647,37.40207],[126.96494,37.40234],[126.96506,37.4022],[126.96655,37.40272],[126.96844,37.4029],[126.97001,37.40226],[126.97034,37.40232],[126.97007,37.40222],[126.97148,37.4015],[126.9729,37.3989],[126.97336,37.39854],[126.97976,37.39587],[126.98059,37.39582],[126.98036,37.39567],[126.98128,37.39519],[126.98193,37.39441],[126.98101,37.39535],[126.97757,37.39665],[126.97756,37.39647],[126.97738,37.39686],[126.97332,37.3983],[126.97269,37.3989],[126.97196,37.40067],[126.97142,37.40136],[126.97006,37.4021],[126.9681,37.40275],[126.96651,37.40263],[126.96439,37.40181],[126.9634,37.4017],[126.96379,37.40153],[126.95991,37.40177],[126.95996,37.4016],[126.95906,37.40194],[126.95737,37.40203],[126.95621,37.40164],[126.9564,37.40147],[126.95577,37.40154],[126.95328,37.4007],[126.95034,37.40063],[126.95041,37.4004],[126.9501,37.40061],[126.94753,37.39987],[126.94623,37.39882],[126.94519,37.39833],[126.94538,37.39823],[126.94512,37.39828],[126.94356,37.39749],[126.94278,37.39703],[126.94287,37.39683],[126.94264,37.39694],[126.94198,37.39654],[126.94207,37.39641],[126.94163,37.39642],[126.93845,37.39451],[126.93994,37.3935],[126.9411,37.39189],[126.94133,37.39189],[126.94146,37.39023],[126.94173,37.39015],[126.94148,37.3902],[126.94091,37.38792],[126.94138,37.38571],[126.94078,37.38494],[126.93934,37.38177],[126.93937,37.38046],[126.94175,37.37893],[126.94479,37.37746],[126.94618,37.37645],[126.94697,37.3756],[126.94676,37.37556],[126.94565,37.37677],[126.9438,37.37801],[126.94164,37.37881],[126.93949,37.3801],[126.93905,37.38066],[126.93892,37.38051],[126.93961,37.38278],[126.93937,37.38275],[126.93965,37.38285],[126.9413,37.38606],[126.94074,37.38796],[126.94056,37.38792],[126.94132,37.39029],[126.94075,37.39214],[126.94011,37.3932],[126.93886,37.39405],[126.93593,37.39523],[126.93577,37.39505],[126.93582,37.39527],[126.93546,37.39551],[126.93181,37.39705],[126.93097,37.39772],[126.93074,37.39759],[126.93096,37.39781],[126.92907,37.39977],[126.92432,37.40364],[126.92137,37.40553],[126.91698,37.40949],[126.91636,37.40951],[126.91659,37.409],[126.92064,37.40406],[126.921,37.40314],[126.92073,37.40387],[126.91608,37.40964],[126.91523,37.40967],[126.91018,37.40818],[126.91075,37.40799],[126.91014,37.40816],[126.90966,37.40802],[126.90969,37.40772],[126.90949,37.40799],[126.90688,37.40728],[126.90401,37.40507],[126.90431,37.40493],[126.90399,37.40504],[126.89885,37.40344],[126.89814,37.40346],[126.89846,37.40318],[126.89922,37.40109],[126.89908,37.39932],[126.89828,37.39854],[126.89558,37.39791],[126.89789,37.39845],[126.89867,37.39889],[126.89904,37.39951],[126.89913,37.40108],[126.89821,37.40335],[126.89671,37.4033],[126.89554,37.40382],[126.89521,37.40424],[126.89416,37.40771],[126.89331,37.40833],[126.89296,37.40802],[126.89324,37.40837],[126.89183,37.40917],[126.89036,37.41056],[126.88898,37.40921],[126.8885,37.40812],[126.88854,37.40729],[126.88784,37.40677],[126.88676,37.40653],[126.88648,37.40627],[126.88673,37.40657],[126.88787,37.40682],[126.88854,37.40736],[126.88864,37.40895],[126.89023,37.4106],[126.89074,37.41183],[126.89075,37.41225],[126.8904,37.41232],[126.89077,37.41228],[126.89122,37.41341],[126.89309,37.41595],[126.89289,37.41614],[126.89324,37.41607],[126.89349,37.41636],[126.89325,37.41651],[126.89362,37.41646],[126.89585,37.41901],[126.89563,37.41911],[126.89596,37.41917],[126.89645,37.4197],[126.89642,37.41987],[126.89627,37.41972],[126.89739,37.42149],[126.89809,37.42387],[126.89818,37.42341],[126.89818,37.42493],[126.89794,37.42501],[126.8976,37.42682],[126.89621,37.42613]],[[126.89781,37.42692],[126.89782,37.42692],[126.89783,37.42693],[126.89784,37.42695],[126.89784,37.42697],[126.89785,37.42698],[126.89785,37.42699],[126.89784,37.42701],[126.89783,37.42701],[126.89783,37.427],[126.89783,37.42698],[126.89783,37.42697],[126.89783,37.42697],[126.89782,37.42698],[126.89779,37.42706],[126.89778,37.4271],[126.89778,37.42717],[126.89778,37.42719],[126.89779,37.4272],[126.89781,37.4272],[126.89782,37.42719],[126.89783,37.42717],[126.89785,37.42717],[126.89785,37.42717],[126.89786,37.42718],[126.89785,37.42722],[126.89785,37.42724],[126.89784,37.42724],[126.89783,37.42725],[126.89783,37.42725],[126.89783,37.42727],[126.89785,37.42731],[126.89785,37.42733],[126.89785,37.42734],[126.89783,37.42735],[126.89782,37.42735],[126.89778,37.42734],[126.89773,37.42728],[126.89769,37.42723],[126.89768,37.42722],[126.89767,37.42721],[126.89768,37.42718],[126.89768,37.42714],[126.89772,37.42706],[126.89776,37.42699],[126.8978,37.42692],[126.89781,37.42692]],[[126.89788,37.42714],[126.89788,37.42713],[126.89787,37.42712],[126.89786,37.42712],[126.89785,37.42713],[126.89785,37.42714],[126.89784,37.42713],[126.89784,37.42712],[126.89785,37.42709],[126.89784,37.42708],[126.89784,37.42706],[126.89784,37.42704],[126.89785,37.42701],[126.89786,37.427],[126.89787,37.42699],[126.89788,37.42697],[126.89789,37.42687],[126.8979,37.42686],[126.89791,37.42685],[126.89799,37.42683],[126.898,37.42684],[126.89801,37.4269],[126.898,37.42699],[126.898,37.42704],[126.89799,37.42706],[126.89796,37.42712],[126.89795,37.42714],[126.89795,37.42716],[126.89796,37.42718],[126.89796,37.4272],[126.89795,37.42721],[126.89794,37.42722],[126.89792,37.42721],[126.8979,37.42719],[126.89788,37.42718],[126.89788,37.42714]],[[126.89792,37.42663],[126.89794,37.42664],[126.89795,37.42666],[126.89796,37.42666],[126.89799,37.42667],[126.898,37.42666],[126.89802,37.42665],[126.89803,37.42664],[126.89805,37.42663],[126.89806,37.42664],[126.89807,37.42664],[126.89808,37.42665],[126.89808,37.42667],[126.89807,37.42668],[126.89796,37.42668],[126.89792,37.42668],[126.8979,37.42667],[126.89789,37.42667],[126.89789,37.42665],[126.89791,37.42663],[126.89792,37.42663]],[[126.89845,37.4238],[126.89846,37.4238],[126.89847,37.42381],[126.8985,37.42391],[126.8985,37.42393],[126.8985,37.42394],[126.89849,37.42395],[126.89848,37.42396],[126.89847,37.42396],[126.89845,37.42396],[126.89842,37.42392],[126.8984,37.42385],[126.89841,37.42382],[126.89841,37.42381],[126.89842,37.4238],[126.89843,37.4238],[126.89845,37.4238]],[[126.89741,37.42158],[126.89742,37.42158],[126.89742,37.42159],[126.89748,37.4217],[126.89749,37.42171],[126.8975,37.42171],[126.8975,37.4217],[126.89749,37.42164],[126.89748,37.4216],[126.89748,37.42159],[126.89748,37.42159],[126.89749,37.42159],[126.89749,37.42159],[126.8975,37.42159],[126.89751,37.42161],[126.89753,37.42166],[126.89755,37.4217],[126.89758,37.42175],[126.89759,37.42177],[126.89759,37.42178],[126.8976,37.42179],[126.89761,37.4218],[126.89761,37.4218],[126.89762,37.42182],[126.89766,37.4219],[126.89766,37.42192],[126.89766,37.42193],[126.89766,37.42194],[126.89765,37.42194],[126.89764,37.42194],[126.89763,37.42194],[126.89762,37.42193],[126.8976,37.42191],[126.89756,37.42186],[126.89755,37.42184],[126.89753,37.42183],[126.89749,37.42179],[126.89748,37.42178],[126.89747,37.42178],[126.89744,37.42172],[126.89742,37.42168],[126.89741,37.42164],[126.8974,37.42158],[126.8974,37.42158],[126.89741,37.42158]],[[126.89718,37.42091],[126.89718,37.42091],[126.89719,37.42092],[126.89719,37.42093],[126.89722,37.42099],[126.89723,37.42103],[126.89723,37.42103],[126.89723,37.42104],[126.89723,37.42104],[126.89722,37.42104],[126.89721,37.42103],[126.89719,37.42101],[126.89718,37.421],[126.89717,37.42099],[126.89717,37.42099],[126.89717,37.42098],[126.89717,37.42093],[126.89717,37.42092],[126.89717,37.42092],[126.89717,37.42091],[126.89718,37.42091]],[[126.89187,37.4093],[126.89189,37.4093],[126.8919,37.4093],[126.89195,37.40933],[126.89198,37.40935],[126.89198,37.40936],[126.89199,37.40937],[126.89199,37.40939],[126.89198,37.4094],[126.89198,37.4094],[126.89189,37.40945],[126.8918,37.4095],[126.89174,37.40952],[126.89172,37.40952],[126.8917,37.40953],[126.89169,37.40952],[126.89168,37.40952],[126.89169,37.40949],[126.89171,37.40946],[126.89182,37.40934],[126.89185,37.40931],[126.89185,37.4093],[126.89186,37.4093],[126.89187,37.4093]],[[126.89752,37.40335],[126.89755,37.40336],[126.89758,37.40337],[126.8976,37.40339],[126.89763,37.40341],[126.89766,37.40343],[126.89768,37.40345],[126.89771,37.40346],[126.89774,37.40347],[126.89776,37.40348],[126.89778,37.4035],[126.89779,37.40351],[126.89778,37.40352],[126.89777,37.40352],[126.89774,37.40351],[126.89772,37.40349],[126.8977,37.40349],[126.89767,37.40348],[126.89765,37.40347],[126.89763,37.40347],[126.89763,37.40346],[126.89763,37.40346],[126.89756,37.40344],[126.89754,37.40342],[126.89751,37.40341],[126.89747,37.4034],[126.89745,37.40339],[126.89743,37.40338],[126.89742,37.40337],[126.89742,37.40337],[126.89745,37.40336],[126.89749,37.40336],[126.89752,37.40335]],[[126.89742,37.39831],[126.89746,37.39831],[126.8975,37.39831],[126.8978,37.39838],[126.89781,37.39838],[126.89782,37.39839],[126.89783,37.39839],[126.89784,37.39839],[126.89785,37.3984],[126.89786,37.39841],[126.89786,37.39841],[126.89787,37.39841],[126.89787,37.39842],[126.89786,37.39842],[126.89772,37.39839],[126.8977,37.39839],[126.89736,37.39832],[126.89735,37.39832],[126.89736,37.39831],[126.89737,37.39831],[126.8974,37.39831],[126.89742,37.39831]],[[126.94038,37.39275],[126.94039,37.39275],[126.94039,37.39275],[126.94039,37.39276],[126.94039,37.39276],[126.94039,37.39276],[126.94039,37.39277],[126.94038,37.39277],[126.94038,37.39278],[126.94038,37.39278],[126.94038,37.39279],[126.94037,37.3928],[126.94037,37.3928],[126.94037,37.39281],[126.94036,37.39284],[126.94036,37.39284],[126.94035,37.39286],[126.94034,37.39286],[126.94034,37.39287],[126.94034,37.39288],[126.94033,37.39289],[126.94031,37.39292],[126.9403,37.39293],[126.9403,37.39293],[126.9403,37.39294],[126.9403,37.39295],[126.94029,37.39296],[126.94029,37.39296],[126.94029,37.39297],[126.94028,37.39299],[126.94028,37.393],[126.94027,37.39302],[126.94027,37.39304],[126.94026,37.39304],[126.94022,37.3931],[126.94022,37.39311],[126.94021,37.39312],[126.9402,37.39313],[126.94019,37.39314],[126.94018,37.39315],[126.94018,37.39315],[126.94017,37.39315],[126.94017,37.39315],[126.94016,37.39315],[126.94016,37.39315],[126.94016,37.39315],[126.94016,37.39315],[126.94016,37.39315],[126.94015,37.39315],[126.94015,37.39314],[126.94016,37.39313],[126.94016,37.39311],[126.94016,37.3931],[126.94015,37.39309],[126.94015,37.39308],[126.94015,37.39307],[126.94016,37.39306],[126.94017,37.39304],[126.94018,37.393],[126.94018,37.39299],[126.94019,37.39297],[126.9402,37.39297],[126.9402,37.39296],[126.94021,37.39295],[126.94021,37.39295],[126.94022,37.39292],[126.94023,37.39292],[126.94023,37.39291],[126.94023,37.3929],[126.94026,37.39287],[126.94026,37.39287],[126.94028,37.39285],[126.94028,37.39285],[126.94029,37.39284],[126.9403,37.39283],[126.94031,37.39282],[126.94033,37.39279],[126.94033,37.39278],[126.94033,37.39278],[126.94034,37.39278],[126.94034,37.39278],[126.94035,37.39277],[126.94035,37.39277],[126.94035,37.39277],[126.94036,37.39276],[126.94037,37.39276],[126.94037,37.39275],[126.94038,37.39275],[126.94038,37.39275],[126.94038,37.39275]],[[126.9409,37.38744],[126.94091,37.38744],[126.94091,37.38745],[126.94091,37.38746],[126.94092,37.38748],[126.94092,37.38751],[126.94092,37.38753],[126.94091,37.38754],[126.94091,37.38755],[126.9409,37.38755],[126.94089,37.38756],[126.94089,37.38756],[126.94088,37.38755],[126.94088,37.38755],[126.94088,37.38754],[126.94088,37.38753],[126.94088,37.38752],[126.94089,37.38748],[126.94089,37.38745],[126.94089,37.38745],[126.9409,37.38745],[126.9409,37.38744],[126.9409,37.38744]],[[126.94094,37.38728],[126.94095,37.38729],[126.94095,37.38729],[126.94095,37.3873],[126.94095,37.38731],[126.94092,37.38738],[126.94091,37.38739],[126.9409,37.38739],[126.9409,37.38739],[126.94089,37.38739],[126.94089,37.38738],[126.94088,37.38737],[126.94088,37.38736],[126.94088,37.38734],[126.94089,37.38732],[126.94092,37.38729],[126.94093,37.38728],[126.94094,37.38728]],[[126.94513,37.37709],[126.94514,37.37709],[126.94515,37.3771],[126.94516,37.3771],[126.94516,37.37711],[126.94517,37.37713],[126.94517,37.37713],[126.94517,37.37713],[126.94517,37.37714],[126.94517,37.37715],[126.94517,37.37715],[126.94516,37.37716],[126.94515,37.37716],[126.94512,37.37717],[126.94509,37.37718],[126.945,37.37724],[126.945,37.37724],[126.94499,37.37724],[126.94499,37.37724],[126.94498,37.37724],[126.94498,37.37723],[126.94498,37.37722],[126.94499,37.37721],[126.945,37.37719],[126.945,37.37718],[126.94501,37.37717],[126.94503,37.37716],[126.94506,37.37715],[126.94513,37.37709]],[[126.94348,37.39751],[126.94347,37.39751],[126.94347,37.3975],[126.94346,37.3975],[126.94346,37.3975],[126.94345,37.3975],[126.94345,37.39749],[126.94344,37.39748],[126.94343,37.39748],[126.94342,37.39748],[126.94342,37.39748],[126.94342,37.39747],[126.94341,37.39747],[126.9434,37.39745],[126.9434,37.39744],[126.9434,37.39744],[126.9434,37.39744],[126.94341,37.39743],[126.94341,37.39743],[126.94342,37.39743],[126.94342,37.39743],[126.94342,37.39743],[126.94343,37.39743],[126.94343,37.39743],[126.94344,37.39743],[126.94345,37.39744],[126.94347,37.39745],[126.94348,37.39746],[126.94349,37.39746],[126.94349,37.39747],[126.9435,37.39747],[126.9435,37.39748],[126.9435,37.39748],[126.9435,37.39749],[126.9435,37.39749],[126.9435,37.3975],[126.9435,37.3975],[126.94349,37.3975],[126.94349,37.3975],[126.94349,37.39751],[126.94348,37.39751],[126.94348,37.39751]],[[126.91902,37.43194],[126.919,37.43194],[126.91899,37.43193],[126.91899,37.43191],[126.91896,37.43184],[126.91894,37.43178],[126.91893,37.43175],[126.91893,37.43172],[126.91892,37.43171],[126.9189,37.4317],[126.91889,37.43169],[126.91888,37.43168],[126.91889,37.43167],[126.9189,37.43166],[126.91891,37.43166],[126.91892,37.43166],[126.91895,37.43167],[126.91895,37.43167],[126.91895,37.43168],[126.91896,37.43171],[126.91897,37.43175],[126.91898,37.4318],[126.91901,37.43185],[126.91902,37.43188],[126.91903,37.43191],[126.91903,37.43193],[126.91902,37.43194]],[[126.91943,37.43234],[126.91939,37.43232],[126.91935,37.4323],[126.91934,37.4323],[126.91933,37.43229],[126.91932,37.43228],[126.91931,37.43227],[126.91929,37.43226],[126.91927,37.43224],[126.91926,37.43223],[126.91926,37.43222],[126.91927,37.43222],[126.91928,37.43222],[126.9193,37.43223],[126.91934,37.43226],[126.91938,37.43229],[126.91942,37.43231],[126.91944,37.43232],[126.91945,37.43233],[126.91945,37.43234],[126.91943,37.43234]]]]}}]}