{"type":"FeatureCollection","features":[{"type":"Feature","id":"TN_RIVER_BT:WTR02000000002O08","properties":{"NF_ID":"WTR02000000002O08","source_layer":"TN_RIVER_BT","semantic":"channel","river_class":"소하천","river_class_source":"중심선 공간조인","survey_method":"사진측량","admin_code":"11710"},"geometry":{"type":"Polygon","coordinates":[[[127.12066,37.47757],[127.12067,37.47756],[127.12067,37.47755],[127.12066,37.47755],[127.12063,37.47756],[127.12063,37.47756],[127.12057,37.47753],[127.12047,37.47749],[127.12045,37.47752],[127.12053,37.47756],[127.12061,37.4776],[127.12062,37.47761],[127.12063,37.47761],[127.12063,37.47761],[127.12066,37.47758],[127.12066,37.47757]]]}},{"type":"Feature","id":"TN_RIVER_BT:WTR02000000002O9H","properties":{"NF_ID":"WTR02000000002O9H","source_layer":"TN_RIVER_BT","semantic":"channel","river_class":"소하천","river_class_source":"중심선 공간조인","survey_method":"사진측량","admin_code":"11710"},"geometry":{"type":"Polygon","coordinates":[[[127.14804,37.48303],[127.1475,37.48279],[127.14592,37.48277],[127.14546,37.48257],[127.14404,37.48266],[127.14372,37.48245],[127.14304,37.48272],[127.14158,37.4823],[127.13983,37.48211],[127.13903,37.4816],[127.13768,37.47986],[127.1345,37.4787],[127.13773,37.47993],[127.13843,37.48062],[127.1391,37.48191],[127.13974,37.48219],[127.14152,37.48234],[127.14311,37.48276],[127.14372,37.48255],[127.14546,37.48259],[127.14804,37.48303]]]}},{"type":"Feature","id":"TN_RIVER_BT:WTR02000000002OIQ","properties":{"NF_ID":"WTR02000000002OIQ","source_layer":"TN_RIVER_BT","semantic":"channel","river_class":"소하천","river_class_source":"중심선 공간조인","survey_method":"사진측량","admin_code":"11710"},"geometry":{"type":"Polygon","coordinates":[[[127.09802,37.49688],[127.10246,37.49523],[127.10267,37.49555],[127.10251,37.49602],[127.10268,37.49555],[127.10233,37.49504],[127.10317,37.49459],[127.10226,37.49501],[127.10243,37.49524],[127.10207,37.49547],[127.09802,37.49688]]]}},{"type":"Feature","id":"TN_RIVER_BT:WTR02000000002OKS","properties":{"NF_ID":"WTR02000000002OKS","source_layer":"TN_RIVER_BT","semantic":"channel","river_class":"소하천","river_class_source":"중심선 공간조인","survey_method":"사진측량","admin_code":"11710"},"geometry":{"type":"Polygon","coordinates":[[[127.15763,37.49856],[127.15823,37.49825],[127.15763,37.49843],[127.1567,37.49829],[127.15763,37.49856]],[[127.1575,37.49856],[127.15692,37.49838],[127.15782,37.49844],[127.1575,37.49856]]]}},{"type":"Feature","id":"TN_RIVER_BT:WTR02000000002OLT","properties":{"NF_ID":"WTR02000000002OLT","source_layer":"TN_RIVER_BT","semantic":"channel","river_class":"소하천","river_class_source":"중심선 공간조인","survey_method":"사진측량","admin_code":"11710"},"geometry":{"type":"Polygon","coordinates":[[[127.16068,37.49905],[127.16067,37.49903],[127.16054,37.49909],[127.16041,37.49915],[127.16027,37.4992],[127.16006,37.49928],[127.1599,37.49937],[127.15988,37.49938],[127.15977,37.49939],[127.15978,37.49942],[127.1599,37.4994],[127.16006,37.49931],[127.16023,37.49924],[127.16035,37.4992],[127.16047,37.49916],[127.16068,37.49905]]]}},{"type":"Feature","id":"TN_RIVER_BT:WTR02000000002OMU","properties":{"NF_ID":"WTR02000000002OMU","source_layer":"TN_RIVER_BT","semantic":"channel","river_class":"지방하천","river_class_source":"중심선 공간조인","river_name":"세곡천","river_code":"1023990","survey_method":"사진측량","admin_code":"11710"},"geometry":{"type":"MultiPolygon","coordinates":[[[[127.1257,37.46932],[127.12552,37.46943],[127.12537,37.46952],[127.12531,37.46955],[127.1253,37.46956],[127.12528,37.46957],[127.12534,37.46955],[127.12544,37.46952],[127.12549,37.46949],[127.12561,37.46942],[127.12574,37.46931],[127.12581,37.46924],[127.1257,37.46932]]],[[[127.12683,37.46859],[127.12668,37.46862],[127.12667,37.46863],[127.12658,37.46868],[127.12651,37.46871],[127.12645,37.46875],[127.12637,37.46879],[127.12632,37.46884],[127.12624,37.46891],[127.12684,37.46859],[127.12683,37.46859]]],[[[127.08944,37.49819],[127.0832,37.5],[127.0848,37.5],[127.08558,37.4996],[127.0867,37.49963],[127.08882,37.49892],[127.08958,37.49842],[127.08944,37.49819]],[[127.08674,37.49926],[127.08641,37.49921],[127.08648,37.49904],[127.0877,37.49885],[127.08732,37.49917],[127.08674,37.49926]],[[127.08802,37.49884],[127.08913,37.49847],[127.08887,37.49871],[127.08802,37.49884]]],[[[127.10785,37.48911],[127.10605,37.49149],[127.10493,37.49211],[127.10512,37.49176],[127.10044,37.4941],[127.09963,37.49491],[127.10016,37.4943],[127.09983,37.4944],[127.09888,37.49518],[127.09389,37.49708],[127.09024,37.49796],[127.09143,37.49807],[127.09741,37.49615],[127.10074,37.49471],[127.10115,37.49508],[127.10086,37.49466],[127.10133,37.49428],[127.10171,37.49428],[127.10197,37.49459],[127.10163,37.49406],[127.10179,37.49391],[127.10284,37.49339],[127.10367,37.49346],[127.10598,37.49194],[127.10725,37.49087],[127.10704,37.49097],[127.10746,37.49005],[127.10806,37.48949],[127.10765,37.48986],[127.10785,37.48947],[127.10943,37.48788],[127.1125,37.4839],[127.11271,37.48256],[127.11324,37.48164],[127.11404,37.48116],[127.11533,37.47985],[127.11653,37.47797],[127.11779,37.47797],[127.12105,37.47705],[127.12621,37.47626],[127.12927,37.47635],[127.13183,37.47726],[127.13048,37.47664],[127.12898,37.47626],[127.12612,37.47622],[127.12097,37.47703],[127.11784,37.4779],[127.11641,37.47787],[127.11857,37.47562],[127.11958,37.4736],[127.11911,37.47422],[127.11933,37.47375],[127.12191,37.47032],[127.12383,37.47006],[127.12516,37.46962],[127.12204,37.47015],[127.12227,37.46949],[127.12283,37.46918],[127.1232,37.46792],[127.11844,37.4744],[127.11845,37.47498],[127.11771,37.47616],[127.11659,37.47711],[127.11701,37.47632],[127.11536,37.47849],[127.11563,37.47846],[127.11514,37.47955],[127.11376,37.48065],[127.11297,37.48172],[127.11185,37.48347],[127.11206,37.48358],[127.11205,37.48417],[127.11001,37.48627],[127.10939,37.48741],[127.10881,37.48775],[127.10785,37.48911]],[[127.09986,37.49491],[127.10159,37.49377],[127.1008,37.49458],[127.10001,37.49503],[127.09975,37.49506],[127.09986,37.49491]],[[127.10038,37.49481],[127.10038,37.49481],[127.10039,37.49481],[127.10039,37.49482],[127.10039,37.49482],[127.10038,37.49483],[127.10038,37.49483],[127.10037,37.49484],[127.10036,37.49485],[127.1003,37.49488],[127.1002,37.49493],[127.1002,37.49493],[127.1002,37.49493],[127.1002,37.49492],[127.1002,37.49491],[127.10022,37.49488],[127.10027,37.49484],[127.10036,37.49481],[127.10037,37.49481],[127.10038,37.49481]],[[127.10143,37.4941],[127.10144,37.49411],[127.10146,37.49412],[127.10146,37.49413],[127.10146,37.49413],[127.10146,37.49414],[127.10146,37.49415],[127.10146,37.49415],[127.10145,37.49416],[127.10141,37.49418],[127.10128,37.49423],[127.10127,37.49423],[127.10125,37.49423],[127.10124,37.49423],[127.10124,37.49423],[127.10123,37.49423],[127.10123,37.49422],[127.10123,37.4942],[127.10124,37.49418],[127.10126,37.49416],[127.10137,37.49411],[127.10139,37.49411],[127.10143,37.4941]],[[127.10336,37.49337],[127.1036,37.49318],[127.10305,37.49328],[127.10421,37.49289],[127.10336,37.49337]],[[127.10418,37.49269],[127.10418,37.49269],[127.10418,37.4927],[127.10415,37.49271],[127.10412,37.49272],[127.10411,37.49273],[127.1041,37.49274],[127.1041,37.49274],[127.10411,37.49275],[127.10412,37.49275],[127.10413,37.49276],[127.10413,37.49276],[127.10412,37.49277],[127.1041,37.49278],[127.10409,37.49278],[127.10407,37.49278],[127.10404,37.49278],[127.10401,37.49278],[127.10398,37.49279],[127.10397,37.49279],[127.10396,37.49279],[127.10395,37.49278],[127.10395,37.49278],[127.10396,37.49277],[127.10397,37.49276],[127.104,37.49274],[127.10401,37.49273],[127.10402,37.49272],[127.10403,37.49271],[127.10404,37.4927],[127.10405,37.4927],[127.10408,37.49269],[127.10418,37.49269]],[[127.11234,37.48363],[127.11238,37.48363],[127.11239,37.48364],[127.1124,37.48365],[127.11241,37.48368],[127.1124,37.48372],[127.11239,37.48374],[127.11236,37.48379],[127.11235,37.48381],[127.11233,37.48384],[127.11233,37.48385],[127.11233,37.48386],[127.11232,37.48387],[127.1123,37.48388],[127.11229,37.48389],[127.11228,37.48389],[127.11227,37.48389],[127.11227,37.48388],[127.11228,37.48387],[127.11229,37.48384],[127.1123,37.48383],[127.1123,37.48382],[127.1123,37.48382],[127.1123,37.48381],[127.11229,37.4838],[127.11228,37.4838],[127.11228,37.48377],[127.11228,37.48376],[127.11229,37.48372],[127.11231,37.48365],[127.11232,37.48364],[127.11234,37.48363]],[[127.11361,37.48118],[127.11364,37.48118],[127.11366,37.4812],[127.11366,37.48122],[127.11365,37.48124],[127.11361,37.48128],[127.11353,37.48134],[127.11343,37.48144],[127.11331,37.48155],[127.11328,37.48156],[127.11326,37.48156],[127.11325,37.48155],[127.11324,37.48154],[127.11324,37.48154],[127.11324,37.48152],[127.11324,37.48151],[127.11324,37.48149],[127.11326,37.48146],[127.11328,37.48143],[127.11331,37.4814],[127.11341,37.48128],[127.11344,37.48125],[127.11345,37.48123],[127.11347,37.48122],[127.11353,37.4812],[127.11356,37.48119],[127.11359,37.48119],[127.11361,37.48118]],[[127.12313,37.47],[127.12311,37.46999],[127.1231,37.46999],[127.12308,37.46999],[127.12306,37.46999],[127.12304,37.46999],[127.12303,37.47],[127.12302,37.47],[127.12301,37.46999],[127.123,37.46999],[127.12301,37.46998],[127.12303,37.46997],[127.12305,37.46995],[127.12307,37.46994],[127.12309,37.46992],[127.12311,37.46991],[127.12313,37.46991],[127.12315,37.4699],[127.12317,37.4699],[127.1232,37.4699],[127.12322,37.4699],[127.12324,37.4699],[127.12326,37.46991],[127.12329,37.46992],[127.12332,37.46992],[127.12335,37.46992],[127.12338,37.46992],[127.12342,37.46992],[127.12344,37.46993],[127.12346,37.46993],[127.12347,37.46994],[127.12348,37.46995],[127.12348,37.46997],[127.12348,37.46998],[127.12347,37.47],[127.12346,37.47001],[127.12345,37.47003],[127.12344,37.47003],[127.12343,37.47004],[127.12336,37.47005],[127.12332,37.47005],[127.12329,37.47005],[127.12327,37.47005],[127.12325,37.47005],[127.12323,37.47004],[127.12321,37.47004],[127.12319,37.47004],[127.12318,37.47003],[127.12316,37.47002],[127.12315,37.47001],[127.12313,37.47]]]]}},{"type":"Feature","id":"TN_RIVER_BT:WTR02000000002OOW","properties":{"NF_ID":"WTR02000000002OOW","source_layer":"TN_RIVER_BT","semantic":"channel","river_class":"지방하천","river_class_source":"중심선 공간조인","river_name":"성내천","river_code":"1024910","survey_method":"사진측량","admin_code":"11710"},"geometry":{"type":"Polygon","coordinates":[[[127.14256,37.49924],[127.14505,37.4993],[127.14626,37.5],[127.14532,37.49931],[127.14306,37.49918],[127.14225,37.49925],[127.1406,37.5],[127.14256,37.49924]]]}},{"type":"Feature","id":"TN_RIVER_BT:WTR02000000002WO4","properties":{"NF_ID":"WTR02000000002WO4","source_layer":"TN_RIVER_BT","semantic":"channel","river_class":"소하천","river_class_source":"중심선 공간조인","survey_method":"사진측량","admin_code":"11710"},"geometry":{"type":"Polygon","coordinates":[[[127.12313,37.52572],[127.12307,37.52555],[127.12112,37.52559],[127.119,37.52508],[127.12121,37.52562],[127.12313,37.52572]]]}},{"type":"Feature","id":"TN_RIVER_BT:WTR02000000002WP5","properties":{"NF_ID":"WTR02000000002WP5","source_layer":"TN_RIVER_BT","semantic":"channel","river_class":"소하천","river_class_source":"중심선 공간조인","survey_method":"사진측량","admin_code":"11710"},"geometry":{"type":"Polygon","coordinates":[[[127.1225,37.52567],[127.12121,37.52563],[127.11889,37.52508],[127.12102,37.52566],[127.12246,37.52572],[127.12103,37.52666],[127.1225,37.52567]]]}},{"type":"Feature","id":"TN_RIVER_BT:WTR0200000000330O","properties":{"NF_ID":"WTR0200000000330O","source_layer":"TN_RIVER_BT","semantic":"channel","river_class":"지방하천","river_class_source":"중심선 공간조인","river_name":"성내천","river_code":"1024910","survey_method":"사진측량","admin_code":"11710"},"geometry":{"type":"Polygon","coordinates":[[[127.14626,37.5],[127.14678,37.5008],[127.14749,37.50111],[127.14683,37.50075],[127.14626,37.5]]]}},{"type":"Feature","id":"TN_RIVER_BT:WTR0200000000332Q","properties":{"NF_ID":"WTR0200000000332Q","source_layer":"TN_RIVER_BT","semantic":"channel","river_class":"국가하천","river_class_source":"중심선 공간조인","river_name":"한강","river_code":"1000010","survey_method":"사진측량","admin_code":"11710"},"geometry":{"type":"MultiPolygon","coordinates":[[[[127.0756,37.5022],[127.071,37.50262],[127.06962,37.50403],[127.06867,37.51207],[127.06884,37.51213],[127.06767,37.51987],[127.06748,37.52458],[127.06866,37.52387],[127.07695,37.52251],[127.07997,37.52295],[127.08563,37.52476],[127.09014,37.52701],[127.10828,37.54141],[127.10924,37.54317],[127.1131,37.54317],[127.11304,37.54298],[127.11553,37.54226],[127.11029,37.53565],[127.10697,37.52981],[127.10172,37.52479],[127.10034,37.52411],[127.10203,37.52416],[127.10322,37.52383],[127.1045,37.52402],[127.10474,37.52429],[127.10494,37.52399],[127.1059,37.524],[127.10625,37.52429],[127.10652,37.52401],[127.1109,37.52398],[127.11433,37.52424],[127.11464,37.52399],[127.11588,37.52408],[127.11672,37.52391],[127.11879,37.52407],[127.12097,37.52516],[127.12174,37.52492],[127.12419,37.52503],[127.12678,37.52392],[127.12764,37.52307],[127.12796,37.52182],[127.12907,37.52001],[127.12948,37.51835],[127.13016,37.51766],[127.13468,37.51593],[127.13825,37.51539],[127.14274,37.51424],[127.14343,37.51388],[127.13823,37.51538],[127.1352,37.51575],[127.13349,37.51619],[127.13618,37.5107],[127.13705,37.50199],[127.13729,37.50168],[127.1406,37.5],[127.13737,37.50155],[127.13688,37.50211],[127.13612,37.51067],[127.13346,37.51607],[127.12976,37.51785],[127.12929,37.51858],[127.12893,37.52012],[127.1278,37.52194],[127.12753,37.52299],[127.12698,37.52313],[127.12651,37.52271],[127.12675,37.52348],[127.12412,37.52488],[127.1207,37.52493],[127.11934,37.52378],[127.11874,37.52359],[127.11836,37.52301],[127.11824,37.52349],[127.1177,37.52376],[127.10478,37.52378],[127.10358,37.52377],[127.10351,37.5229],[127.10346,37.52374],[127.10189,37.52405],[127.10122,37.52365],[127.10021,37.52375],[127.09999,37.52365],[127.10021,37.5236],[127.09846,37.52314],[127.09842,37.52292],[127.0978,37.5228],[127.0941,37.52076],[127.09168,37.51969],[127.08926,37.51911],[127.08447,37.51852],[127.07931,37.5186],[127.06808,37.52034],[127.06769,37.52005],[127.06775,37.51932],[127.06948,37.50684],[127.07011,37.50402],[127.07158,37.50296],[127.07303,37.50257],[127.07381,37.50276],[127.0756,37.5022]],[[127.09812,37.5229],[127.09818,37.5229],[127.09824,37.52292],[127.09827,37.52292],[127.09829,37.52292],[127.09832,37.52294],[127.09834,37.52296],[127.09836,37.52297],[127.09836,37.52301],[127.09835,37.52304],[127.0983,37.52305],[127.09825,37.52304],[127.09819,37.52302],[127.09813,37.523],[127.09808,37.52297],[127.09806,37.52295],[127.09804,37.52293],[127.09805,37.52292],[127.09807,37.52291],[127.0981,37.5229],[127.09812,37.5229]],[[127.07202,37.5028],[127.07201,37.5028],[127.072,37.5028],[127.072,37.5028],[127.07199,37.5028],[127.07199,37.5028],[127.07198,37.5028],[127.07197,37.5028],[127.07197,37.5028],[127.07196,37.5028],[127.07196,37.50279],[127.07196,37.50279],[127.07196,37.50278],[127.07196,37.50278],[127.07197,37.50278],[127.07198,37.50277],[127.07198,37.50277],[127.07199,37.50276],[127.072,37.50276],[127.072,37.50275],[127.07201,37.50275],[127.07202,37.50274],[127.07203,37.50274],[127.07204,37.50274],[127.07205,37.50273],[127.07206,37.50273],[127.07207,37.50273],[127.07208,37.50272],[127.07209,37.50272],[127.0721,37.50272],[127.07211,37.50272],[127.07212,37.50272],[127.07214,37.50272],[127.07215,37.50272],[127.07216,37.50272],[127.07217,37.50272],[127.07218,37.50271],[127.07219,37.50271],[127.0722,37.50271],[127.07221,37.50271],[127.07223,37.50271],[127.07224,37.50271],[127.07225,37.50271],[127.07226,37.50271],[127.07227,37.50271],[127.07228,37.50271],[127.07229,37.50271],[127.0723,37.50271],[127.07231,37.50271],[127.07231,37.50271],[127.07232,37.50271],[127.07232,37.50272],[127.07232,37.50272],[127.07232,37.50272],[127.07232,37.50273],[127.07231,37.50273],[127.07231,37.50274],[127.0723,37.50274],[127.07229,37.50274],[127.07229,37.50275],[127.07228,37.50275],[127.07227,37.50275],[127.07226,37.50276],[127.07226,37.50276],[127.07225,37.50277],[127.07224,37.50277],[127.07224,37.50277],[127.07223,37.50278],[127.07223,37.50278],[127.07222,37.50279],[127.07222,37.5028],[127.07221,37.5028],[127.07221,37.50281],[127.0722,37.50281],[127.0722,37.50281],[127.07219,37.50282],[127.07219,37.50282],[127.07218,37.50282],[127.0721,37.50283],[127.0721,37.50283],[127.07209,37.50283],[127.07208,37.50283],[127.07207,37.50283],[127.07207,37.50283],[127.07206,37.50283],[127.07205,37.50283],[127.07205,37.50282],[127.07204,37.50282],[127.07204,37.50282],[127.07204,37.50281],[127.07203,37.50281],[127.07203,37.5028],[127.07202,37.5028],[127.07202,37.5028]],[[127.13296,37.51645],[127.13297,37.51645],[127.13298,37.51646],[127.133,37.51647],[127.13302,37.51649],[127.13304,37.5165],[127.13305,37.51652],[127.13305,37.51654],[127.13304,37.51655],[127.13304,37.51656],[127.13304,37.51656],[127.13303,37.51657],[127.13302,37.51657],[127.133,37.51658],[127.13294,37.5166],[127.13288,37.51662],[127.13275,37.51666],[127.13272,37.51667],[127.13266,37.51671],[127.13249,37.51678],[127.13245,37.5168],[127.13241,37.5168],[127.13238,37.51679],[127.13235,37.51677],[127.13234,37.51674],[127.13236,37.51671],[127.13242,37.51668],[127.13249,37.51666],[127.13261,37.51663],[127.13265,37.51662],[127.13267,37.51661],[127.1327,37.51659],[127.13283,37.51651],[127.13287,37.51648],[127.13291,37.51647],[127.13293,37.51646],[127.13294,37.51646],[127.13296,37.51645]],[[127.13346,37.51625],[127.13368,37.5163],[127.13339,37.5164],[127.13346,37.51625]]],[[[127.07711,37.50203],[127.07713,37.50209],[127.07721,37.50234],[127.07729,37.50238],[127.07732,37.50237],[127.07737,37.50232],[127.07733,37.50225],[127.07727,37.50206],[127.07725,37.50201],[127.07723,37.50199],[127.07711,37.50203]]],[[[127.07767,37.50185],[127.07767,37.50187],[127.07766,37.5019],[127.07768,37.50193],[127.07774,37.5021],[127.07778,37.50222],[127.07784,37.50228],[127.07791,37.50227],[127.07794,37.50219],[127.07789,37.50205],[127.07783,37.50188],[127.07781,37.50184],[127.0778,37.50182],[127.07779,37.50181],[127.07767,37.50185]]],[[[127.0832,37.5],[127.07822,37.50167],[127.07835,37.50209],[127.07837,37.50162],[127.08221,37.50093],[127.08313,37.50045],[127.0846,37.50019],[127.0848,37.5],[127.08356,37.50016],[127.0839,37.5],[127.0832,37.5]]]]}}]}