{"type":"FeatureCollection","features":[{"type":"Feature","id":"SGG:47110","geometry":{"type":"MultiPolygon","coordinates":[[[[129.58513,36.02066],[129.58484,36.02038],[129.58479,36.02037],[129.58513,36.02066]]],[[[129.42045,35.88246],[129.41995,35.88231],[129.41993,35.88173],[129.42051,35.88158],[129.42019,35.88061],[129.42096,35.88051],[129.42138,35.87791],[129.42002,35.87707],[129.4181,35.87761],[129.41742,35.8775],[129.41661,35.87729],[129.41654,35.87689],[129.41479,35.87633],[129.41402,35.87493],[129.41313,35.87434],[129.41278,35.87265],[129.41214,35.8725],[129.4114,35.87122],[129.41039,35.87052],[129.40989,35.86895],[129.40994,35.86733],[129.41011,35.86695],[129.41117,35.86639],[129.40991,35.86548],[129.41026,35.86389],[129.40956,35.86306],[129.41049,35.86248],[129.41053,35.86144],[129.40828,35.85976],[129.40705,35.85784],[129.40301,35.85831],[129.40176,35.85728],[129.40074,35.85741],[129.40002,35.85786],[129.39895,35.85784],[129.39815,35.85841],[129.39683,35.85743],[129.39684,35.85703],[129.39468,35.85658],[129.3938,35.85667],[129.39385,35.85876],[129.39274,35.86003],[129.3931,35.86126],[129.39251,35.86226],[129.39147,35.86253],[129.39155,35.86315],[129.3912,35.86335],[129.39008,35.86308],[129.38979,35.86261],[129.38865,35.86227],[129.38779,35.86305],[129.38513,35.86333],[129.38494,35.86294],[129.38386,35.86254],[129.38157,35.86329],[129.3794,35.8645],[129.37816,35.86432],[129.37528,35.86319],[129.37389,35.86219],[129.37388,35.8613],[129.37285,35.86127],[129.37195,35.86076],[129.36872,35.86288],[129.36866,35.86429],[129.368,35.86505],[129.3673,35.86413],[129.36694,35.86398],[129.36614,35.86436],[129.36556,35.86394],[129.36423,35.86457],[129.36351,35.8645],[129.36171,35.86502],[129.36011,35.86457],[129.35955,35.86481],[129.35945,35.86624],[129.36022,35.86765],[129.35881,35.86845],[129.3584,35.86915],[129.35701,35.87016],[129.35672,35.87154],[129.35529,35.87266],[129.35674,35.87416],[129.36061,35.87424],[129.3614,35.87472],[129.36109,35.8752],[129.36286,35.87548],[129.36326,35.87592],[129.36324,35.87671],[129.36368,35.87661],[129.364,35.87757],[129.36368,35.87937],[129.36395,35.88046],[129.36586,35.88175],[129.36415,35.8821],[129.36298,35.88301],[129.36324,35.88388],[129.36281,35.88456],[129.36283,35.88621],[129.3626,35.88722],[129.36181,35.88756],[129.36184,35.8883],[129.36028,35.88779],[129.35949,35.88662],[129.3584,35.88619],[129.3555,35.88701],[129.35459,35.88667],[129.35382,35.88687],[129.35322,35.88809],[129.35356,35.88917],[129.35086,35.89143],[129.3503,35.89053],[129.35051,35.89009],[129.34917,35.88822],[129.34838,35.88793],[129.34677,35.88858],[129.3437,35.88809],[129.34031,35.89026],[129.3392,35.89032],[129.33828,35.89221],[129.33751,35.89259],[129.33776,35.89374],[129.33878,35.8947],[129.33618,35.89687],[129.33584,35.8978],[129.33605,35.89914],[129.33367,35.90007],[129.33338,35.90105],[129.33442,35.90282],[129.33347,35.90567],[129.33406,35.90644],[129.33379,35.90714],[129.33394,35.91128],[129.33579,35.91202],[129.33511,35.91353],[129.33662,35.91616],[129.33513,35.9188],[129.33529,35.91932],[129.33431,35.91958],[129.33421,35.92052],[129.33289,35.92166],[129.33287,35.92272],[129.32999,35.92538],[129.32961,35.92658],[129.33041,35.92768],[129.33185,35.92842],[129.33267,35.92954],[129.33269,35.93056],[129.33153,35.93209],[129.3314,35.93353],[129.33052,35.93443],[129.32957,35.93467],[129.3292,35.93643],[129.32849,35.93709],[129.32835,35.93806],[129.32771,35.93886],[129.32717,35.93914],[129.32366,35.93886],[129.32266,35.93997],[129.32312,35.94057],[129.32285,35.94097],[129.32219,35.94104],[129.32228,35.94157],[129.32143,35.94168],[129.32107,35.94227],[129.31916,35.94267],[129.31921,35.94364],[129.3176,35.94513],[129.31685,35.94633],[129.31715,35.9475],[129.31781,35.94808],[129.31741,35.94967],[129.31841,35.95051],[129.31949,35.95054],[129.32037,35.95366],[129.31882,35.95457],[129.31945,35.95573],[129.31921,35.95617],[129.31982,35.95677],[129.31993,35.95816],[129.31855,35.95812],[129.31745,35.95891],[129.31519,35.95977],[129.31406,35.96191],[129.31389,35.96314],[129.31204,35.96654],[129.31223,35.9683],[129.31133,35.96929],[129.30909,35.96911],[129.30805,35.96967],[129.3084,35.97044],[129.30742,35.9723],[129.30702,35.9725],[129.30687,35.97383],[129.3054,35.97615],[129.30456,35.97693],[129.30504,35.9784],[129.30466,35.97928],[129.30225,35.98129],[129.3011,35.9849],[129.30145,35.98567],[129.30306,35.98626],[129.30281,35.98704],[129.30406,35.98942],[129.30498,35.99018],[129.30498,35.99073],[129.30462,35.99065],[129.30428,35.99137],[129.3039,35.99151],[129.30362,35.99123],[129.30324,35.99165],[129.30328,35.99201],[129.30421,35.9926],[129.3039,35.99293],[129.30446,35.99458],[129.30334,35.99511],[129.29967,35.9945],[129.29454,35.99418],[129.29451,35.99467],[129.29299,35.99501],[129.29266,35.99575],[129.294,35.99514],[129.29714,35.99544],[129.29821,35.99687],[129.29854,36.00179],[129.2971,36.0021],[129.29554,36.00361],[129.29659,36.00482],[129.2962,36.00624],[129.29667,36.00652],[129.29675,36.00753],[129.29577,36.00916],[129.29541,36.01071],[129.29466,36.01019],[129.29423,36.01063],[129.29382,36.01292],[129.29253,36.01368],[129.29274,36.0145],[129.2917,36.0147],[129.2916,36.01559],[129.28911,36.01682],[129.28884,36.01839],[129.28839,36.01929],[129.28744,36.01961],[129.28748,36.02012],[129.28572,36.02066],[129.28532,36.02127],[129.28481,36.02144],[129.28365,36.02346],[129.28291,36.02355],[129.28179,36.02312],[129.28023,36.02342],[129.27854,36.02482],[129.27809,36.02574],[129.27847,36.02625],[129.27716,36.02695],[129.27682,36.02868],[129.27856,36.02994],[129.27824,36.0305],[129.27856,36.03179],[129.27945,36.03261],[129.27855,36.03405],[129.27998,36.036],[129.28052,36.03923],[129.28116,36.03964],[129.28162,36.0414],[129.28248,36.04187],[129.28265,36.04229],[129.28288,36.04299],[129.28237,36.04356],[129.2831,36.04423],[129.28267,36.0455],[129.28418,36.04643],[129.28436,36.04722],[129.28358,36.04858],[129.28388,36.04929],[129.28377,36.05042],[129.283,36.05112],[129.28289,36.0544],[129.28104,36.05611],[129.28021,36.05751],[129.28324,36.06066],[129.28289,36.06121],[129.28299,36.06199],[129.28526,36.06164],[129.2862,36.06186],[129.28649,36.06435],[129.28537,36.06566],[129.28485,36.06693],[129.28506,36.06822],[129.28647,36.07001],[129.28507,36.07123],[129.28505,36.07182],[129.28316,36.07289],[129.28272,36.0737],[129.28105,36.0747],[129.28029,36.07461],[129.27942,36.075],[129.27935,36.0757],[129.27758,36.07664],[129.2762,36.07916],[129.273,36.0797],[129.27174,36.0794],[129.26991,36.07943],[129.26997,36.0788],[129.2695,36.07812],[129.26844,36.0775],[129.26702,36.07693],[129.26444,36.07668],[129.26325,36.07515],[129.26142,36.0748],[129.25998,36.07462],[129.25878,36.07497],[129.25733,36.07436],[129.25657,36.07446],[129.25479,36.07501],[129.25425,36.07576],[129.25084,36.07305],[129.24794,36.07358],[129.24831,36.07376],[129.248,36.07366],[129.24779,36.07351],[129.24818,36.07587],[129.24732,36.075],[129.24679,36.0737],[129.24485,36.0718],[129.24436,36.07061],[129.24416,36.06976],[129.24445,36.06828],[129.2436,36.06675],[129.24387,36.06568],[129.24181,36.06267],[129.2419,36.05907],[129.23925,36.05635],[129.23885,36.05438],[129.23903,36.05304],[129.23826,36.05241],[129.23618,36.0517],[129.2347,36.04929],[129.23298,36.0492],[129.23178,36.04964],[129.23008,36.04872],[129.22962,36.04792],[129.22736,36.04793],[129.22573,36.04632],[129.22502,36.04487],[129.22374,36.04379],[129.21797,36.04283],[129.20794,36.04284],[129.20386,36.0433],[129.20114,36.04113],[129.1975,36.04059],[129.19408,36.03665],[129.19078,36.03471],[129.18961,36.03355],[129.18909,36.03233],[129.18395,36.02898],[129.18329,36.02885],[129.18124,36.02754],[129.17842,36.02743],[129.17629,36.03168],[129.17645,36.03238],[129.17839,36.03429],[129.17817,36.04077],[129.17569,36.04218],[129.17722,36.04509],[129.17728,36.04594],[129.17634,36.04778],[129.174,36.04805],[129.17198,36.04898],[129.17044,36.04894],[129.17025,36.05064],[129.17057,36.05201],[129.17004,36.05332],[129.16697,36.05386],[129.16559,36.05437],[129.1647,36.05516],[129.1547,36.0545],[129.15133,36.05483],[129.14904,36.05665],[129.1486,36.0581],[129.1472,36.05819],[129.14574,36.05692],[129.14406,36.05715],[129.14284,36.05802],[129.14079,36.05863],[129.13987,36.05999],[129.13891,36.06076],[129.13713,36.06105],[129.13612,36.0622],[129.1374,36.06447],[129.13608,36.06634],[129.13468,36.06707],[129.13359,36.06827],[129.13495,36.07258],[129.13487,36.07411],[129.1308,36.07702],[129.128,36.08064],[129.12742,36.08079],[129.12423,36.08014],[129.12202,36.0792],[129.12076,36.07936],[129.12036,36.07901],[129.11901,36.07884],[129.11741,36.07985],[129.1155,36.07954],[129.11482,36.07972],[129.11236,36.07905],[129.11194,36.07932],[129.11136,36.08064],[129.11189,36.08111],[129.1121,36.08202],[129.11092,36.08327],[129.10925,36.08379],[129.10816,36.08487],[129.1075,36.08513],[129.10634,36.08504],[129.10514,36.08547],[129.10468,36.08628],[129.10264,36.08767],[129.10053,36.0904],[129.09786,36.09257],[129.09765,36.0939],[129.09492,36.09506],[129.09397,36.09621],[129.09437,36.09741],[129.09427,36.09889],[129.09323,36.10001],[129.09299,36.10073],[129.09355,36.10422],[129.09433,36.10454],[129.09457,36.10521],[129.09663,36.10607],[129.09729,36.1059],[129.09948,36.10632],[129.09947,36.10698],[129.10247,36.111],[129.10375,36.11194],[129.10518,36.11405],[129.10413,36.11575],[129.10417,36.11689],[129.10235,36.11773],[129.10137,36.11853],[129.09849,36.12188],[129.09557,36.12133],[129.09487,36.12054],[129.09312,36.12063],[129.09206,36.12033],[129.09054,36.11956],[129.08917,36.11825],[129.08643,36.11799],[129.08587,36.11754],[129.08433,36.11799],[129.08274,36.11736],[129.08255,36.11759],[129.08101,36.11759],[129.07874,36.1124],[129.07882,36.1115],[129.07851,36.11141],[129.07615,36.11375],[129.07098,36.11409],[129.07006,36.11602],[129.06809,36.11789],[129.06875,36.11991],[129.06638,36.12297],[129.06675,36.12373],[129.06456,36.12573],[129.06377,36.12605],[129.06179,36.12806],[129.0609,36.1287],[129.06022,36.12882],[129.05937,36.1296],[129.05952,36.13018],[129.06277,36.1323],[129.06392,36.13366],[129.06454,36.13501],[129.06459,36.1369],[129.06306,36.13872],[129.06363,36.14092],[129.06328,36.14296],[129.06294,36.14338],[129.06174,36.14379],[129.05906,36.14435],[129.05675,36.14584],[129.05538,36.14628],[129.05401,36.14796],[129.05377,36.14925],[129.04923,36.14938],[129.04732,36.15026],[129.04414,36.15427],[129.04434,36.15597],[129.04125,36.15614],[129.0364,36.15553],[129.03397,36.15721],[129.0307,36.15888],[129.02752,36.15912],[129.02645,36.15965],[129.02461,36.15902],[129.02397,36.15969],[129.01952,36.16036],[129.01321,36.16268],[129.01275,36.16366],[129.00729,36.16362],[129.00674,36.1633],[129.00577,36.1635],[129.00315,36.16551],[129.00216,36.16567],[129.00114,36.16647],[129.00009,36.16628],[128.99941,36.16694],[128.99903,36.16685],[128.99773,36.16769],[128.99663,36.16747],[128.9939,36.16822],[128.98949,36.16811],[128.99006,36.16987],[128.99106,36.1708],[128.99134,36.17198],[128.99064,36.17522],[128.9962,36.17796],[128.99717,36.1789],[128.99804,36.17873],[129.00118,36.17959],[129.00204,36.17908],[129.00321,36.17913],[129.00453,36.17875],[129.00741,36.17948],[129.00955,36.17887],[129.0108,36.17947],[129.01744,36.1805],[129.01835,36.18129],[129.02178,36.18311],[129.02532,36.18263],[129.02666,36.18338],[129.0275,36.18481],[129.02749,36.18729],[129.02828,36.19028],[129.02758,36.19273],[129.02815,36.19643],[129.03001,36.19783],[129.03181,36.19817],[129.03239,36.2003],[129.03226,36.20182],[129.03262,36.2036],[129.03549,36.20345],[129.0352,36.208],[129.03537,36.21011],[129.03598,36.21091],[129.03567,36.21191],[129.03588,36.21321],[129.03721,36.21499],[129.03724,36.2156],[129.03947,36.21928],[129.04204,36.222],[129.04389,36.22246],[129.04495,36.2216],[129.04685,36.22261],[129.04761,36.22235],[129.04892,36.22245],[129.04971,36.22336],[129.05073,36.22245],[129.05141,36.22233],[129.0527,36.22323],[129.05659,36.22397],[129.05811,36.22354],[129.06003,36.22232],[129.06224,36.22015],[129.06346,36.22013],[129.06491,36.21952],[129.06559,36.22091],[129.06533,36.22413],[129.06428,36.22519],[129.06585,36.22707],[129.06793,36.22888],[129.0696,36.22947],[129.07093,36.22865],[129.07333,36.22941],[129.07397,36.22982],[129.07395,36.23074],[129.07502,36.23165],[129.07653,36.23194],[129.07757,36.23263],[129.07836,36.23258],[129.07911,36.23324],[129.08087,36.23398],[129.08186,36.23499],[129.08213,36.23591],[129.08087,36.23583],[129.08026,36.23749],[129.07935,36.2382],[129.0791,36.23907],[129.07817,36.24008],[129.07823,36.24149],[129.07883,36.24268],[129.07864,36.24375],[129.07815,36.2447],[129.0768,36.24464],[129.07576,36.24547],[129.07583,36.24607],[129.07501,36.24768],[129.07584,36.2491],[129.07571,36.25009],[129.07431,36.25103],[129.07362,36.25228],[129.07268,36.25229],[129.07216,36.25142],[129.07025,36.25104],[129.06869,36.25171],[129.06711,36.25341],[129.06557,36.25392],[129.06377,36.25312],[129.06379,36.25252],[129.06298,36.25209],[129.06203,36.25216],[129.06072,36.25325],[129.05957,36.25324],[129.05602,36.25575],[129.05559,36.25749],[129.05357,36.25959],[129.05339,36.26089],[129.05241,36.26227],[129.05295,36.26381],[129.05232,36.26563],[129.05668,36.26838],[129.05778,36.26859],[129.05939,36.2706],[129.06019,36.27096],[129.06199,36.2705],[129.06298,36.27163],[129.06664,36.27212],[129.06779,36.27263],[129.07043,36.27117],[129.07373,36.27349],[129.07499,36.27383],[129.07844,36.27701],[129.08018,36.27727],[129.08334,36.27668],[129.08526,36.27461],[129.08888,36.27234],[129.08928,36.27173],[129.08975,36.27224],[129.09164,36.27289],[129.0932,36.27439],[129.0966,36.27159],[129.09895,36.27069],[129.09941,36.26914],[129.09883,36.26786],[129.10054,36.26677],[129.10243,36.26476],[129.10642,36.26734],[129.10895,36.26654],[129.11188,36.26427],[129.11437,36.2645],[129.11476,36.26505],[129.11702,36.266],[129.11964,36.2642],[129.12084,36.26374],[129.12168,36.26172],[129.12272,36.26165],[129.12422,36.26269],[129.12561,36.26286],[129.12618,36.26407],[129.12807,36.26383],[129.12947,36.26295],[129.13281,36.26205],[129.13343,36.26144],[129.13326,36.26064],[129.13378,36.25896],[129.13368,36.25819],[129.13642,36.25654],[129.13751,36.25509],[129.13755,36.25296],[129.13689,36.25208],[129.137,36.25033],[129.13967,36.24916],[129.13952,36.24791],[129.14036,36.24719],[129.14147,36.24704],[129.14225,36.24571],[129.14554,36.24344],[129.14687,36.24151],[129.14659,36.24053],[129.14722,36.23916],[129.14825,36.23839],[129.14971,36.23829],[129.15089,36.23748],[129.15274,36.23525],[129.1556,36.23476],[129.16192,36.23285],[129.16588,36.23208],[129.16551,36.23069],[129.16608,36.22929],[129.16956,36.22664],[129.16987,36.22562],[129.17098,36.2248],[129.17277,36.22535],[129.17551,36.22709],[129.178,36.22754],[129.17854,36.22847],[129.18023,36.22904],[129.1809,36.23001],[129.18225,36.2304],[129.1846,36.23246],[129.18658,36.23329],[129.18712,36.23473],[129.1879,36.23534],[129.18926,36.23578],[129.19038,36.23669],[129.19047,36.23778],[129.19208,36.23966],[129.19194,36.24066],[129.19276,36.24122],[129.1944,36.24358],[129.19737,36.24412],[129.19789,36.24473],[129.19925,36.24703],[129.19818,36.24818],[129.19853,36.2496],[129.20124,36.25077],[129.20465,36.25639],[129.20604,36.25735],[129.20551,36.26181],[129.20637,36.26318],[129.20708,36.26369],[129.2066,36.26487],[129.20704,36.26544],[129.20714,36.26672],[129.21043,36.26817],[129.21268,36.26747],[129.21361,36.26747],[129.21336,36.27143],[129.21421,36.27202],[129.21715,36.27171],[129.21853,36.27221],[129.21979,36.27227],[129.22093,36.27334],[129.22263,36.27335],[129.22473,36.27476],[129.22676,36.27702],[129.22645,36.27805],[129.22716,36.27877],[129.22634,36.28326],[129.22361,36.28528],[129.22107,36.28781],[129.22193,36.28892],[129.22343,36.28933],[129.22477,36.29013],[129.22541,36.29101],[129.22516,36.29207],[129.22564,36.29307],[129.22559,36.29433],[129.22787,36.29503],[129.22857,36.29593],[129.2272,36.29801],[129.22503,36.29833],[129.22363,36.30027],[129.22349,36.30185],[129.22519,36.30531],[129.23129,36.30861],[129.23057,36.30993],[129.23103,36.31073],[129.23198,36.31125],[129.23211,36.3132],[129.23448,36.31419],[129.23648,36.31441],[129.23646,36.31655],[129.23793,36.31722],[129.23884,36.31802],[129.23991,36.31797],[129.24082,36.31881],[129.24306,36.31748],[129.2439,36.31782],[129.24678,36.31791],[129.24878,36.31878],[129.25352,36.32305],[129.25604,36.3238],[129.25889,36.32291],[129.26042,36.322],[129.26214,36.32176],[129.26332,36.32093],[129.26665,36.32077],[129.26686,36.32465],[129.26755,36.32551],[129.26869,36.3256],[129.26895,36.32607],[129.26899,36.32732],[129.26797,36.33011],[129.26757,36.33018],[129.26764,36.33071],[129.26928,36.33144],[129.27094,36.33311],[129.27111,36.33276],[129.27005,36.33175],[129.27088,36.32998],[129.27143,36.32981],[129.27236,36.32866],[129.27474,36.32764],[129.27917,36.32972],[129.28037,36.32935],[129.28201,36.32978],[129.28261,36.33123],[129.28447,36.33246],[129.2849,36.33331],[129.28644,36.33337],[129.28747,36.33166],[129.28975,36.3293],[129.2905,36.32803],[129.29268,36.32673],[129.29516,36.32611],[129.29773,36.32387],[129.29867,36.32154],[129.29884,36.31923],[129.29782,36.31863],[129.29807,36.3159],[129.29766,36.31474],[129.29828,36.30998],[129.29781,36.30906],[129.29604,36.30744],[129.29196,36.3062],[129.29189,36.30197],[129.29134,36.30122],[129.29033,36.30094],[129.28961,36.29913],[129.28518,36.29769],[129.285,36.29653],[129.28557,36.29505],[129.28648,36.29393],[129.28813,36.28822],[129.28808,36.28757],[129.28647,36.28637],[129.28725,36.28476],[129.28963,36.2827],[129.29088,36.28038],[129.29092,36.27938],[129.29207,36.27869],[129.29318,36.27725],[129.29336,36.27652],[129.29479,36.27608],[129.29576,36.27505],[129.29653,36.27505],[129.3002,36.27369],[129.30025,36.27139],[129.30151,36.27092],[129.30291,36.2696],[129.30412,36.26787],[129.30814,36.26808],[129.3098,36.26931],[129.31054,36.26924],[129.31333,36.27143],[129.31468,36.27143],[129.31568,36.27183],[129.31855,36.2705],[129.32118,36.27015],[129.32286,36.26933],[129.32452,36.26916],[129.32544,36.26936],[129.32775,36.26904],[129.32812,36.26757],[129.32863,36.2675],[129.33032,36.26801],[129.33233,36.26728],[129.33301,36.26733],[129.33525,36.26899],[129.33617,36.26803],[129.3369,36.26793],[129.33922,36.26656],[129.33986,36.26671],[129.34167,36.26827],[129.34267,36.26835],[129.34248,36.26881],[129.34286,36.27003],[129.34445,36.27051],[129.34629,36.27016],[129.34732,36.27116],[129.34766,36.27078],[129.34863,36.27061],[129.35099,36.27087],[129.3535,36.27306],[129.35439,36.27319],[129.35577,36.27304],[129.35564,36.27232],[129.3588,36.27168],[129.35905,36.2722],[129.36642,36.26858],[129.3696,36.26844],[129.37246,36.26766],[129.37603,36.2682],[129.37607,36.26683],[129.37549,36.26562],[129.37506,36.26382],[129.37569,36.26118],[129.37635,36.26056],[129.37664,36.25942],[129.37616,36.25931],[129.37605,36.26048],[129.37543,36.26105],[129.3751,36.26195],[129.3746,36.26023],[129.3748,36.25982],[129.37564,36.25991],[129.37569,36.25969],[129.37453,36.25929],[129.37469,36.25894],[129.37437,36.25844],[129.37463,36.25792],[129.37416,36.25727],[129.37416,36.25667],[129.37305,36.25538],[129.37293,36.25493],[129.37594,36.24933],[129.37927,36.24462],[129.37964,36.24464],[129.37978,36.24406],[129.38119,36.24282],[129.38178,36.24301],[129.38178,36.24267],[129.38282,36.24318],[129.38227,36.24242],[129.38253,36.24232],[129.38224,36.24133],[129.38316,36.24123],[129.38328,36.24212],[129.38285,36.24225],[129.38327,36.24228],[129.38342,36.24335],[129.3836,36.24265],[129.38325,36.24119],[129.38351,36.24115],[129.38347,36.24157],[129.3838,36.24195],[129.3836,36.24158],[129.38388,36.24176],[129.38386,36.24128],[129.38411,36.24147],[129.38444,36.24097],[129.38474,36.241],[129.38517,36.2395],[129.38635,36.24001],[129.38724,36.23984],[129.38711,36.23964],[129.38639,36.23986],[129.38527,36.23938],[129.3853,36.23878],[129.38528,36.23904],[129.3848,36.23896],[129.3849,36.23815],[129.38586,36.23922],[129.38656,36.23929],[129.38524,36.23822],[129.38464,36.23591],[129.38503,36.23605],[129.38442,36.23556],[129.38477,36.23568],[129.38485,36.23542],[129.38324,36.23281],[129.38348,36.23119],[129.38315,36.23132],[129.38298,36.23275],[129.38344,36.23328],[129.38344,36.23392],[129.3832,36.23346],[129.38253,36.23316],[129.3827,36.23296],[129.38241,36.23313],[129.38123,36.2322],[129.3812,36.2317],[129.38253,36.23158],[129.38121,36.23142],[129.38094,36.23027],[129.38176,36.22769],[129.3836,36.22472],[129.38409,36.2244],[129.38433,36.22441],[129.38475,36.22468],[129.38456,36.22411],[129.38506,36.22436],[129.38479,36.2244],[129.38498,36.22461],[129.38617,36.22434],[129.38617,36.22401],[129.38648,36.22407],[129.38632,36.2237],[129.38672,36.22385],[129.38688,36.22314],[129.38641,36.22275],[129.38735,36.22241],[129.38812,36.22127],[129.38784,36.22121],[129.38711,36.2222],[129.38688,36.22183],[129.38681,36.2222],[129.38607,36.22212],[129.38599,36.22155],[129.38727,36.22146],[129.38625,36.22144],[129.38643,36.22116],[129.3859,36.22068],[129.38613,36.22039],[129.38585,36.21968],[129.38621,36.21958],[129.38587,36.21919],[129.38615,36.21924],[129.38626,36.21891],[129.38585,36.21813],[129.3862,36.21809],[129.38656,36.21748],[129.38546,36.21587],[129.38547,36.21507],[129.38585,36.2151],[129.38568,36.21431],[129.38429,36.21354],[129.38421,36.2122],[129.38283,36.21143],[129.38264,36.2108],[129.38252,36.21081],[129.38115,36.20932],[129.38082,36.20927],[129.38193,36.21059],[129.3814,36.21033],[129.38145,36.21056],[129.38106,36.21057],[129.38117,36.21015],[129.38088,36.2104],[129.38027,36.2101],[129.38068,36.20969],[129.38019,36.21003],[129.37987,36.20997],[129.37946,36.20938],[129.37995,36.20996],[129.37956,36.20935],[129.37984,36.20919],[129.37876,36.20929],[129.3782,36.20851],[129.37759,36.20843],[129.37821,36.20711],[129.37795,36.2069],[129.37765,36.20747],[129.37621,36.20688],[129.37741,36.2075],[129.37726,36.20806],[129.37668,36.20833],[129.37648,36.20799],[129.37584,36.20788],[129.37578,36.20816],[129.375,36.20805],[129.37504,36.20734],[129.37486,36.20803],[129.37406,36.20808],[129.37256,36.20702],[129.37173,36.20411],[129.37188,36.20009],[129.37319,36.19555],[129.37533,36.19183],[129.37705,36.18974],[129.37883,36.18914],[129.37877,36.18886],[129.37975,36.18823],[129.37999,36.18754],[129.38151,36.18611],[129.3828,36.18564],[129.38371,36.18597],[129.38465,36.18503],[129.38637,36.18551],[129.38495,36.18498],[129.38543,36.18408],[129.38722,36.18371],[129.38833,36.18425],[129.38724,36.18484],[129.38679,36.18596],[129.38638,36.18621],[129.38659,36.18642],[129.38746,36.18497],[129.38817,36.18454],[129.38914,36.18488],[129.39117,36.18439],[129.39182,36.18395],[129.39274,36.18205],[129.39345,36.1814],[129.39341,36.18078],[129.39419,36.1803],[129.394,36.18012],[129.3934,36.18054],[129.39361,36.17991],[129.39323,36.18037],[129.3928,36.17994],[129.39311,36.17989],[129.39281,36.1798],[129.39325,36.17894],[129.39374,36.17912],[129.39381,36.17977],[129.39408,36.17977],[129.39369,36.17896],[129.39389,36.17871],[129.39355,36.17863],[129.39401,36.17836],[129.39387,36.17722],[129.39441,36.17694],[129.39501,36.17599],[129.39533,36.17616],[129.39543,36.17563],[129.39511,36.17546],[129.39544,36.17556],[129.39605,36.17399],[129.39676,36.17357],[129.39655,36.17344],[129.39596,36.17385],[129.39565,36.1747],[129.39531,36.1747],[129.39516,36.17364],[129.39585,36.17361],[129.39517,36.17342],[129.39515,36.17245],[129.39536,36.17192],[129.39617,36.17147],[129.3967,36.17201],[129.39648,36.17143],[129.39702,36.17134],[129.39726,36.1721],[129.39686,36.17265],[129.39724,36.17267],[129.39744,36.17151],[129.39707,36.17101],[129.39749,36.1713],[129.39779,36.17118],[129.39715,36.17089],[129.39764,36.17072],[129.39794,36.17011],[129.39759,36.17003],[129.39723,36.17057],[129.39721,36.1699],[129.39757,36.16979],[129.39742,36.16968],[129.39787,36.16852],[129.39808,36.16833],[129.39765,36.16731],[129.39822,36.1668],[129.39943,36.16717],[129.39818,36.16653],[129.3989,36.16592],[129.39918,36.16633],[129.39896,36.16659],[129.39966,36.16657],[129.39937,36.1661],[129.39996,36.16646],[129.40004,36.16551],[129.40041,36.1657],[129.40072,36.1654],[129.40062,36.1648],[129.39986,36.16478],[129.40002,36.16447],[129.39961,36.16451],[129.39978,36.16421],[129.39933,36.16344],[129.39822,36.16242],[129.39777,36.16086],[129.39821,36.16025],[129.39878,36.16051],[129.39894,36.15982],[129.39992,36.1597],[129.39974,36.15956],[129.40022,36.15919],[129.39957,36.15905],[129.40001,36.15904],[129.39959,36.15889],[129.39992,36.15866],[129.39902,36.15853],[129.3988,36.15767],[129.39826,36.15741],[129.39852,36.15603],[129.39982,36.15472],[129.40095,36.15505],[129.40067,36.1547],[129.40149,36.15435],[129.40171,36.15353],[129.40147,36.1535],[129.40138,36.15425],[129.40094,36.15411],[129.401,36.15435],[129.40043,36.15444],[129.40036,36.15404],[129.40118,36.15366],[129.40104,36.15348],[129.40054,36.15369],[129.39957,36.15212],[129.39968,36.15253],[129.39749,36.14832],[129.3978,36.14792],[129.39716,36.14584],[129.39754,36.14523],[129.39795,36.14512],[129.39818,36.14536],[129.39809,36.14471],[129.39751,36.14413],[129.39832,36.14422],[129.39836,36.14372],[129.39778,36.1437],[129.39704,36.14246],[129.39729,36.14338],[129.39694,36.14377],[129.39575,36.14313],[129.39663,36.14265],[129.39521,36.14227],[129.39522,36.14042],[129.39703,36.13821],[129.39813,36.13809],[129.39787,36.13683],[129.39833,36.13668],[129.39838,36.13637],[129.39774,36.13571],[129.39765,36.13512],[129.40027,36.13238],[129.40567,36.12778],[129.40615,36.12774],[129.4127,36.12294],[129.41683,36.12043],[129.42362,36.11504],[129.42917,36.11229],[129.43062,36.11216],[129.4312,36.11365],[129.43706,36.11361],[129.43977,36.11254],[129.44014,36.11276],[129.43969,36.11234],[129.43699,36.1134],[129.43224,36.11316],[129.43224,36.11208],[129.43205,36.11244],[129.43124,36.11244],[129.43123,36.11164],[129.43223,36.11182],[129.43223,36.11067],[129.43964,36.11065],[129.43964,36.11085],[129.44116,36.11196],[129.43973,36.11082],[129.43964,36.09451],[129.43636,36.09448],[129.43633,36.09277],[129.42628,36.09282],[129.42821,36.09533],[129.42901,36.09533],[129.42903,36.09641],[129.42762,36.09634],[129.42691,36.09587],[129.42711,36.09544],[129.42284,36.09143],[129.42185,36.08999],[129.42044,36.08923],[129.42073,36.08783],[129.42039,36.08793],[129.42016,36.08871],[129.41962,36.0888],[129.41892,36.08949],[129.41967,36.08865],[129.42019,36.08853],[129.41893,36.08774],[129.41758,36.08523],[129.41709,36.08158],[129.41795,36.07923],[129.41985,36.07655],[129.41798,36.07372],[129.41533,36.0733],[129.4143,36.07246],[129.41308,36.07213],[129.4121,36.07096],[129.41131,36.0712],[129.41219,36.07112],[129.41288,36.07221],[129.41169,36.07263],[129.41134,36.07199],[129.41167,36.07168],[129.41152,36.07156],[129.41123,36.072],[129.41159,36.07266],[129.41115,36.07308],[129.4104,36.07307],[129.40873,36.07273],[129.40756,36.07209],[129.40602,36.06985],[129.40577,36.07002],[129.40695,36.07128],[129.40561,36.07161],[129.40499,36.07105],[129.40571,36.07051],[129.40457,36.07114],[129.40157,36.06971],[129.40058,36.06878],[129.39955,36.066],[129.39798,36.06422],[129.39604,36.06307],[129.39208,36.06306],[129.3898,36.06251],[129.38953,36.06204],[129.38784,36.06133],[129.38726,36.0616],[129.38793,36.0615],[129.38949,36.06235],[129.38798,36.06322],[129.38751,36.06321],[129.38674,36.06232],[129.38696,36.0621],[129.38658,36.06233],[129.38755,36.06343],[129.38718,36.0638],[129.38496,36.06383],[129.38286,36.06282],[129.38037,36.06046],[129.37878,36.0575],[129.37816,36.05483],[129.37816,36.05248],[129.38159,36.05077],[129.3832,36.0478],[129.38442,36.04708],[129.38492,36.04581],[129.38453,36.04594],[129.38423,36.04691],[129.38303,36.04763],[129.38247,36.04862],[129.38217,36.04851],[129.38022,36.05093],[129.37621,36.05189],[129.37433,36.05154],[129.37281,36.05077],[129.37259,36.04987],[129.37414,36.0496],[129.3762,36.04996],[129.37712,36.04652],[129.38005,36.04703],[129.38014,36.04669],[129.38117,36.04692],[129.38015,36.04658],[129.38024,36.04625],[129.37753,36.04579],[129.37685,36.04406],[129.3769,36.04258],[129.37911,36.03751],[129.38006,36.03781],[129.37913,36.03745],[129.37995,36.03586],[129.38093,36.03648],[129.38116,36.03614],[129.37999,36.03581],[129.3806,36.03483],[129.38081,36.03491],[129.38098,36.03427],[129.38209,36.03471],[129.38115,36.03426],[129.38163,36.03343],[129.38362,36.03175],[129.38638,36.03288],[129.38336,36.03156],[129.38327,36.03116],[129.38579,36.02849],[129.39012,36.03045],[129.40138,36.03873],[129.41182,36.03572],[129.41182,36.03601],[129.40175,36.03898],[129.40063,36.03868],[129.40141,36.03909],[129.4316,36.03031],[129.43183,36.02728],[129.41969,36.02651],[129.41856,36.02685],[129.41837,36.02642],[129.40822,36.02936],[129.40831,36.02958],[129.40762,36.02979],[129.40724,36.02945],[129.40762,36.02923],[129.40087,36.0215],[129.40063,36.02164],[129.3972,36.02077],[129.39231,36.01222],[129.39496,36.01093],[129.39714,36.01416],[129.40104,36.01381],[129.40264,36.01258],[129.40264,36.01228],[129.40493,36.01424],[129.40677,36.01387],[129.40599,36.01316],[129.4062,36.01299],[129.40387,36.01134],[129.40702,36.0089],[129.40971,36.0112],[129.4101,36.01605],[129.41275,36.0163],[129.4124,36.01182],[129.4157,36.01216],[129.41606,36.01665],[129.41829,36.01686],[129.41796,36.01284],[129.42124,36.01316],[129.42129,36.01365],[129.42133,36.01334],[129.42247,36.01345],[129.42255,36.01443],[129.42141,36.01449],[129.42131,36.01401],[129.42134,36.01454],[129.422,36.01452],[129.42232,36.01887],[129.42298,36.01886],[129.42306,36.01984],[129.42358,36.01982],[129.42388,36.02232],[129.42306,36.0112],[129.41538,36.00594],[129.41414,36.00458],[129.41496,36.00408],[129.41648,36.00565],[129.42342,36.01018],[129.42431,36.01045],[129.41772,36.00636],[129.41747,36.00498],[129.41793,36.00518],[129.41808,36.00618],[129.41889,36.00421],[129.41998,36.00365],[129.42138,36.00153],[129.42125,36.00131],[129.42337,35.99989],[129.42909,35.99713],[129.43373,35.99537],[129.44354,35.99213],[129.44578,35.99163],[129.45114,35.99152],[129.45611,35.99314],[129.45664,35.99517],[129.4576,35.9961],[129.45762,35.99657],[129.45679,35.99661],[129.45658,35.99675],[129.45779,35.99666],[129.45794,35.99772],[129.45741,35.99831],[129.45578,35.99725],[129.45728,35.99863],[129.45673,35.99905],[129.4566,35.99981],[129.45543,36.00002],[129.45551,36.00031],[129.45643,36.00009],[129.45877,36.00339],[129.46205,36.00423],[129.46226,36.00485],[129.46431,36.00603],[129.46544,36.00709],[129.46525,36.00724],[129.46607,36.00821],[129.46633,36.00822],[129.46634,36.00779],[129.46694,36.00807],[129.46565,36.00853],[129.46714,36.00827],[129.46963,36.00997],[129.473,36.01145],[129.47499,36.01318],[129.47504,36.01365],[129.47573,36.01334],[129.47624,36.01358],[129.47484,36.01409],[129.47497,36.01427],[129.47665,36.01376],[129.4776,36.01437],[129.47754,36.01461],[129.48086,36.01502],[129.48176,36.01548],[129.48187,36.01619],[129.48253,36.01653],[129.48507,36.01613],[129.48676,36.01621],[129.48727,36.01721],[129.48729,36.01679],[129.48763,36.01683],[129.487,36.01665],[129.48708,36.01628],[129.48765,36.01626],[129.48761,36.01659],[129.48789,36.01622],[129.48859,36.01641],[129.48811,36.01662],[129.48882,36.01682],[129.48855,36.01711],[129.48718,36.0178],[129.48921,36.01683],[129.49143,36.01838],[129.49069,36.0189],[129.491,36.01903],[129.49195,36.01805],[129.49189,36.01829],[129.49416,36.01967],[129.49484,36.0208],[129.49545,36.02112],[129.49583,36.02196],[129.49551,36.02314],[129.49622,36.02328],[129.49593,36.02384],[129.49685,36.0232],[129.49882,36.02349],[129.50114,36.02427],[129.50226,36.02495],[129.50282,36.02569],[129.50227,36.02615],[129.50323,36.02569],[129.50349,36.02639],[129.50316,36.02715],[129.5019,36.02662],[129.50327,36.02746],[129.50363,36.02881],[129.50313,36.03077],[129.5034,36.03145],[129.50291,36.03177],[129.50345,36.03163],[129.50425,36.03349],[129.50381,36.03319],[129.50401,36.03349],[129.50359,36.03369],[129.50228,36.03187],[129.50187,36.03199],[129.50332,36.03366],[129.50327,36.03427],[129.50482,36.03707],[129.50608,36.03764],[129.50853,36.03975],[129.51038,36.04016],[129.51334,36.04235],[129.51427,36.04259],[129.51537,36.04333],[129.51563,36.04408],[129.51519,36.0444],[129.5159,36.0443],[129.51562,36.04477],[129.51607,36.0447],[129.51591,36.04556],[129.51448,36.04442],[129.51556,36.04555],[129.51546,36.04597],[129.51683,36.04627],[129.51786,36.04789],[129.51933,36.04871],[129.52012,36.05082],[129.52168,36.05137],[129.52288,36.05232],[129.52278,36.05317],[129.52338,36.05439],[129.52302,36.0552],[129.52371,36.05551],[129.52391,36.05599],[129.52473,36.05593],[129.52414,36.05695],[129.52514,36.05794],[129.52597,36.05774],[129.52572,36.05812],[129.52629,36.05831],[129.52681,36.0576],[129.52785,36.05782],[129.52956,36.05721],[129.53008,36.05662],[129.53071,36.05648],[129.53171,36.05675],[129.53348,36.05789],[129.53341,36.05916],[129.53239,36.05931],[129.53314,36.05931],[129.5333,36.05993],[129.53262,36.06029],[129.5319,36.05925],[129.53164,36.0594],[129.53246,36.06059],[129.53231,36.06144],[129.53343,36.06185],[129.53456,36.06184],[129.53583,36.06267],[129.5361,36.06469],[129.53758,36.06619],[129.53773,36.06673],[129.53824,36.06694],[129.53779,36.06607],[129.53854,36.06598],[129.53978,36.06675],[129.54005,36.06737],[129.53921,36.0677],[129.53855,36.06744],[129.53846,36.06765],[129.53895,36.06791],[129.54037,36.06757],[129.54081,36.06898],[129.54046,36.07236],[129.54101,36.0733],[129.5435,36.07456],[129.5436,36.07508],[129.54364,36.07463],[129.5445,36.07475],[129.54454,36.0751],[129.54372,36.07549],[129.54484,36.07532],[129.54545,36.07603],[129.54572,36.07826],[129.54591,36.07801],[129.54601,36.0782],[129.54563,36.07896],[129.54585,36.07971],[129.54535,36.08056],[129.5451,36.08017],[129.54485,36.08035],[129.54554,36.08096],[129.54524,36.08108],[129.54591,36.08171],[129.54718,36.08489],[129.549,36.08511],[129.55,36.08492],[129.55115,36.08566],[129.55176,36.08562],[129.55006,36.08475],[129.55041,36.08447],[129.55084,36.08474],[129.55112,36.08446],[129.55091,36.08431],[129.55143,36.08421],[129.55215,36.08445],[129.5525,36.08541],[129.5526,36.0849],[129.55327,36.08474],[129.55561,36.08608],[129.5562,36.08563],[129.55721,36.08558],[129.55808,36.08425],[129.55936,36.08368],[129.55889,36.08243],[129.55947,36.08145],[129.55976,36.08145],[129.55923,36.08206],[129.5592,36.08241],[129.55928,36.08269],[129.5593,36.08213],[129.55985,36.08149],[129.56103,36.08179],[129.56306,36.08067],[129.56277,36.08043],[129.56083,36.08158],[129.55981,36.08031],[129.55979,36.07996],[129.56195,36.07833],[129.56314,36.07867],[129.56318,36.07974],[129.56347,36.07864],[129.56404,36.07908],[129.56546,36.07921],[129.5689,36.07828],[129.56932,36.07839],[129.56919,36.07813],[129.56994,36.07807],[129.56961,36.07782],[129.56984,36.07765],[129.57029,36.07786],[129.5695,36.07616],[129.57009,36.0736],[129.56972,36.07114],[129.56907,36.06942],[129.57016,36.06869],[129.57046,36.06811],[129.56967,36.06883],[129.56926,36.0688],[129.56926,36.06825],[129.56902,36.06821],[129.56888,36.0689],[129.56839,36.06867],[129.56835,36.0679],[129.56949,36.06715],[129.56937,36.06785],[129.56961,36.06789],[129.57005,36.06751],[129.56964,36.06686],[129.57046,36.06635],[129.57124,36.06634],[129.57156,36.06647],[129.57157,36.0666],[129.57168,36.06641],[129.57223,36.06627],[129.5722,36.06606],[129.57307,36.06409],[129.57412,36.06357],[129.57462,36.06373],[129.57438,36.06327],[129.57489,36.06235],[129.57528,36.06235],[129.57501,36.0616],[129.5751,36.06124],[129.57547,36.06129],[129.57517,36.06101],[129.57554,36.05992],[129.57613,36.05905],[129.57653,36.05889],[129.57659,36.05909],[129.57683,36.05882],[129.57656,36.05871],[129.57642,36.05825],[129.57729,36.05729],[129.57731,36.05573],[129.57753,36.05555],[129.57725,36.0553],[129.57724,36.05383],[129.57768,36.05384],[129.57743,36.05341],[129.57774,36.05307],[129.57733,36.05203],[129.5779,36.05154],[129.5789,36.05206],[129.57888,36.05184],[129.57949,36.05189],[129.57941,36.05151],[129.57899,36.05162],[129.57809,36.05057],[129.57805,36.05007],[129.57854,36.0496],[129.57827,36.04949],[129.57758,36.05019],[129.57716,36.04988],[129.57722,36.04917],[129.57761,36.04877],[129.57871,36.04882],[129.57919,36.04897],[129.57943,36.04949],[129.57944,36.04907],[129.58,36.04891],[129.58066,36.04817],[129.58093,36.04829],[129.58122,36.04776],[129.58166,36.04829],[129.58228,36.04813],[129.58209,36.048],[129.58263,36.04781],[129.5826,36.04739],[129.58361,36.04628],[129.58343,36.04574],[129.58283,36.0463],[129.58329,36.04578],[129.58305,36.04512],[129.58225,36.04501],[129.58127,36.04406],[129.58149,36.04383],[129.58073,36.04301],[129.58024,36.0412],[129.5791,36.04023],[129.58023,36.03932],[129.57911,36.03991],[129.57877,36.03979],[129.57892,36.03904],[129.57942,36.0387],[129.58067,36.03865],[129.58062,36.03903],[129.58091,36.03908],[129.58082,36.038],[129.58112,36.03725],[129.58159,36.03715],[129.58103,36.03688],[129.58138,36.03656],[129.58051,36.03661],[129.58028,36.03618],[129.57975,36.03635],[129.57994,36.03611],[129.57964,36.03628],[129.57972,36.03603],[129.57815,36.03578],[129.5774,36.03502],[129.57761,36.03481],[129.57713,36.03388],[129.57764,36.03268],[129.57876,36.03211],[129.58144,36.03248],[129.58128,36.03218],[129.5818,36.03212],[129.58193,36.03155],[129.58249,36.03157],[129.5823,36.03119],[129.58258,36.0311],[129.5822,36.03068],[129.58249,36.0299],[129.58188,36.02816],[129.57845,36.02721],[129.57851,36.02589],[129.57887,36.02545],[129.57841,36.02585],[129.57828,36.02679],[129.57763,36.02669],[129.57734,36.02564],[129.57837,36.02544],[129.57765,36.02536],[129.57721,36.02457],[129.57772,36.0238],[129.57867,36.02364],[129.57846,36.02335],[129.57887,36.02286],[129.58018,36.02285],[129.58008,36.02259],[129.58041,36.02254],[129.57999,36.02234],[129.5801,36.02181],[129.58098,36.02134],[129.58153,36.02033],[129.58269,36.01979],[129.58281,36.0194],[129.58258,36.0194],[129.58239,36.01897],[129.58276,36.01705],[129.5838,36.01712],[129.58467,36.01683],[129.58394,36.01645],[129.58399,36.01613],[129.58381,36.01623],[129.58278,36.01604],[129.58318,36.01562],[129.5825,36.01563],[129.58122,36.01509],[129.58099,36.01402],[129.58166,36.01408],[129.58157,36.01366],[129.5809,36.01309],[129.58024,36.01326],[129.57935,36.01271],[129.57928,36.01156],[129.57901,36.01167],[129.57904,36.01272],[129.57826,36.01272],[129.5785,36.01231],[129.57825,36.01206],[129.57879,36.01184],[129.57874,36.01161],[129.57802,36.01196],[129.57734,36.01175],[129.5772,36.00997],[129.57801,36.00921],[129.57842,36.00935],[129.57808,36.00912],[129.57843,36.00837],[129.57821,36.00728],[129.57793,36.00731],[129.57793,36.00801],[129.5772,36.00802],[129.57621,36.00755],[129.57679,36.0072],[129.57585,36.00703],[129.57593,36.00679],[129.57735,36.00719],[129.57618,36.00676],[129.57606,36.00636],[129.576,36.00668],[129.5748,36.00283],[129.57347,36.00194],[129.57452,36.00293],[129.57434,36.00396],[129.57375,36.00397],[129.57343,36.00302],[129.57336,36.00356],[129.57297,36.00367],[129.57137,36.00323],[129.57075,36.00257],[129.57059,36.00171],[129.57155,36.00131],[129.57046,36.00141],[129.57055,36.001],[129.57116,36.00078],[129.57267,36.00134],[129.56972,36.00024],[129.56901,35.99947],[129.56889,35.99899],[129.56926,35.9986],[129.56862,35.99759],[129.56869,35.99791],[129.56798,35.99829],[129.56662,35.99729],[129.56611,35.99579],[129.56642,35.9952],[129.56668,35.99525],[129.56644,35.9949],[129.56691,35.99485],[129.56708,35.99433],[129.56704,35.99408],[129.56646,35.99402],[129.567,35.99383],[129.56652,35.9933],[129.56692,35.99259],[129.56824,35.99154],[129.56727,35.98996],[129.56628,35.98973],[129.5656,35.98909],[129.56542,35.98924],[129.566,35.98981],[129.56521,35.99028],[129.56413,35.99017],[129.56257,35.9895],[129.5613,35.98949],[129.55787,35.98675],[129.55787,35.98557],[129.55765,35.98661],[129.55718,35.98699],[129.56029,35.98952],[129.55988,35.98984],[129.5596,35.98957],[129.55925,35.9898],[129.55953,35.99008],[129.55832,35.99087],[129.55643,35.99068],[129.55557,35.98998],[129.55635,35.98934],[129.55579,35.98889],[129.55516,35.9894],[129.55254,35.98729],[129.55193,35.98559],[129.55272,35.98503],[129.55308,35.98536],[129.55333,35.98519],[129.55298,35.98485],[129.55414,35.98402],[129.55391,35.98382],[129.55324,35.98429],[129.55303,35.98409],[129.5537,35.98362],[129.55351,35.98311],[129.55395,35.98276],[129.55823,35.9842],[129.56024,35.98581],[129.56061,35.98555],[129.55853,35.98415],[129.55806,35.98286],[129.55663,35.98227],[129.55623,35.98145],[129.55649,35.98086],[129.55624,35.9807],[129.55589,35.98094],[129.55515,35.98027],[129.55508,35.9805],[129.55494,35.98042],[129.55567,35.97969],[129.55489,35.98037],[129.5547,35.9802],[129.55451,35.98015],[129.55464,35.98034],[129.55398,35.9803],[129.55389,35.98008],[129.55487,35.97977],[129.55352,35.98],[129.55251,35.97986],[129.55183,35.97909],[129.55149,35.9778],[129.55169,35.97697],[129.55197,35.97675],[129.55175,35.97663],[129.55252,35.9753],[129.55323,35.97486],[129.55283,35.97429],[129.55304,35.97312],[129.55276,35.97311],[129.5526,35.97436],[129.55181,35.97406],[129.55138,35.97339],[129.55184,35.97301],[129.55185,35.97244],[129.55325,35.97186],[129.5539,35.97058],[129.55379,35.97045],[129.55381,35.97025],[129.55433,35.96813],[129.5532,35.96729],[129.5508,35.96674],[129.55046,35.96575],[129.55034,35.96647],[129.54968,35.96611],[129.54982,35.96594],[129.54944,35.96608],[129.55031,35.96665],[129.54896,35.96665],[129.54853,35.966],[129.549,35.96587],[129.54835,35.96576],[129.54839,35.96533],[129.54794,35.9653],[129.54796,35.96506],[129.54932,35.96565],[129.5495,35.96551],[129.54805,35.96488],[129.54829,35.9644],[129.54784,35.96473],[129.54731,35.96413],[129.5476,35.96291],[129.5497,35.96263],[129.5493,35.96194],[129.54976,35.96165],[129.54985,35.96091],[129.55072,35.96068],[129.54972,35.95993],[129.55024,35.95989],[129.54854,35.95921],[129.54845,35.95861],[129.54776,35.95801],[129.54799,35.95769],[129.54708,35.95752],[129.54671,35.95617],[129.54711,35.95608],[129.54665,35.956],[129.54695,35.9558],[129.54648,35.95538],[129.54651,35.95522],[129.5469,35.95515],[129.54691,35.95506],[129.5465,35.95513],[129.54618,35.95457],[129.54629,35.95365],[129.54766,35.95253],[129.5479,35.95248],[129.54807,35.95258],[129.54811,35.9525],[129.54832,35.95263],[129.54871,35.95202],[129.55055,35.95173],[129.55108,35.95193],[129.55122,35.95141],[129.54873,35.95181],[129.5483,35.9517],[129.54786,35.95106],[129.54658,35.95198],[129.54513,35.95083],[129.5452,35.95134],[129.54561,35.95122],[129.54645,35.95214],[129.54529,35.95313],[129.54483,35.95288],[129.54441,35.95101],[129.54434,35.95178],[129.54303,35.95157],[129.54326,35.94992],[129.54373,35.94941],[129.54308,35.94974],[129.54307,35.94904],[129.54281,35.94889],[129.54273,35.95019],[129.54231,35.95032],[129.54025,35.94987],[129.53895,35.94803],[129.53898,35.94697],[129.54007,35.94646],[129.53954,35.94549],[129.53711,35.94502],[129.53661,35.94471],[129.53662,35.94399],[129.53636,35.94371],[129.53647,35.94455],[129.53551,35.94438],[129.5352,35.94385],[129.53535,35.9429],[129.5364,35.94329],[129.53597,35.94275],[129.53462,35.94224],[129.53477,35.9418],[129.53446,35.94212],[129.53418,35.94191],[129.5341,35.94095],[129.53465,35.93999],[129.53377,35.93904],[129.53386,35.9385],[129.53307,35.93741],[129.53357,35.93715],[129.53372,35.93616],[129.53323,35.93581],[129.53208,35.93627],[129.52965,35.9352],[129.52944,35.93383],[129.53102,35.93189],[129.5302,35.93155],[129.52818,35.9317],[129.52724,35.93128],[129.52577,35.9313],[129.52579,35.93164],[129.52721,35.93149],[129.52824,35.93214],[129.52813,35.93313],[129.52608,35.93366],[129.52607,35.93253],[129.52568,35.93249],[129.52582,35.93324],[129.52499,35.9335],[129.52335,35.93346],[129.52215,35.93298],[129.52057,35.93147],[129.51906,35.92903],[129.51841,35.92595],[129.51861,35.92013],[129.51977,35.91825],[129.52105,35.91803],[129.52042,35.91779],[129.52052,35.91747],[129.52076,35.91732],[129.52107,35.91771],[129.52092,35.91737],[129.52125,35.91719],[129.52163,35.91755],[129.52132,35.91833],[129.52159,35.91844],[129.52189,35.91748],[129.5214,35.91708],[129.52254,35.91648],[129.52303,35.91673],[129.5237,35.91659],[129.52411,35.91546],[129.52301,35.91488],[129.52316,35.91425],[129.52394,35.91435],[129.52513,35.91363],[129.52492,35.91348],[129.52383,35.91422],[129.52308,35.91405],[129.52284,35.91346],[129.52342,35.91266],[129.52391,35.9124],[129.52401,35.91262],[129.52444,35.91254],[129.5244,35.91226],[129.52497,35.91234],[129.52487,35.91278],[129.52453,35.91278],[129.52483,35.91285],[129.52455,35.91312],[129.52477,35.9132],[129.52563,35.91063],[129.5267,35.91033],[129.52622,35.91012],[129.52645,35.90966],[129.5268,35.9103],[129.52742,35.91047],[129.5269,35.91016],[129.52717,35.90906],[129.52597,35.90859],[129.52576,35.90808],[129.52613,35.90706],[129.52674,35.90664],[129.52711,35.90652],[129.52773,35.90705],[129.52811,35.90666],[129.52741,35.90552],[129.52748,35.90493],[129.52936,35.90481],[129.52901,35.90436],[129.52824,35.90485],[129.52822,35.90461],[129.5281,35.90481],[129.52775,35.90466],[129.52804,35.90424],[129.52848,35.90442],[129.52825,35.90418],[129.52862,35.90355],[129.52942,35.90414],[129.53018,35.90427],[129.53015,35.90455],[129.53085,35.90463],[129.53048,35.90391],[129.53134,35.90353],[129.53124,35.90284],[129.53229,35.90288],[129.53271,35.90248],[129.53219,35.90156],[129.53305,35.90116],[129.53351,35.9015],[129.534,35.90108],[129.53364,35.90082],[129.53414,35.9003],[129.53386,35.89921],[129.53436,35.89911],[129.53267,35.89848],[129.53218,35.89865],[129.53173,35.89821],[129.53065,35.8981],[129.53057,35.89836],[129.52979,35.89764],[129.52945,35.89784],[129.52974,35.898],[129.52873,35.89778],[129.52872,35.89755],[129.52858,35.8978],[129.52808,35.89639],[129.52787,35.89652],[129.52824,35.89756],[129.52764,35.89792],[129.52715,35.89778],[129.52655,35.89719],[129.52722,35.89686],[129.52642,35.897],[129.52621,35.89669],[129.52645,35.89647],[129.52532,35.89591],[129.52502,35.89505],[129.52522,35.88958],[129.52621,35.8876],[129.52791,35.8864],[129.52955,35.88638],[129.53057,35.88527],[129.53029,35.88517],[129.52937,35.88626],[129.52843,35.88628],[129.52866,35.88584],[129.52901,35.88585],[129.52842,35.88551],[129.52845,35.8851],[129.52973,35.88537],[129.52878,35.88495],[129.52876,35.88387],[129.52927,35.88354],[129.52753,35.88153],[129.52818,35.87563],[129.52773,35.87566],[129.52721,35.88125],[129.52634,35.88118],[129.52464,35.88179],[129.52252,35.88178],[129.52261,35.88043],[129.52239,35.88043],[129.52241,35.88178],[129.52041,35.88176],[129.51899,35.87975],[129.5189,35.87775],[129.52137,35.87774],[129.52172,35.87802],[129.52222,35.87767],[129.51989,35.87767],[129.51879,35.87605],[129.51884,35.87367],[129.52063,35.87218],[129.52249,35.87289],[129.52231,35.87244],[129.52287,35.87203],[129.52341,35.87207],[129.52392,35.87254],[129.52408,35.8719],[129.52512,35.87122],[129.52744,35.87106],[129.52883,35.87197],[129.53009,35.87173],[129.52954,35.87165],[129.52939,35.87127],[129.52918,35.87174],[129.52876,35.87184],[129.52821,35.87132],[129.52926,35.87097],[129.52931,35.87061],[129.5301,35.87097],[129.5298,35.8709],[129.53001,35.87123],[129.53031,35.871],[129.53141,35.87134],[129.53166,35.87172],[129.53227,35.87169],[129.53217,35.87133],[129.53305,35.87162],[129.53314,35.87123],[129.53373,35.87125],[129.53378,35.87089],[129.53473,35.87076],[129.53416,35.87048],[129.53378,35.86979],[129.53375,35.86862],[129.5343,35.86836],[129.53263,35.86725],[129.53244,35.86682],[129.53122,35.86633],[129.52986,35.86507],[129.52737,35.86383],[129.52674,35.86294],[129.52643,35.86196],[129.52665,35.86103],[129.52754,35.86039],[129.52794,35.86053],[129.52761,35.86116],[129.52787,35.86125],[129.52826,35.8603],[129.52862,35.8604],[129.52867,35.86019],[129.52834,35.85977],[129.52756,35.8596],[129.52694,35.85991],[129.52615,35.85952],[129.52583,35.85831],[129.52517,35.85757],[129.52469,35.85527],[129.52496,35.85451],[129.52546,35.85428],[129.52515,35.85376],[129.52578,35.85342],[129.52562,35.85317],[129.52527,35.85338],[129.5254,35.85305],[129.52443,35.85305],[129.52457,35.8527],[129.52422,35.8529],[129.52406,35.85253],[129.52362,35.85262],[129.52324,35.85215],[129.52115,35.8519],[129.51967,35.85091],[129.51872,35.84837],[129.51906,35.84629],[129.51848,35.8459],[129.51868,35.84572],[129.51897,35.84607],[129.51901,35.84582],[129.51816,35.84471],[129.51894,35.84395],[129.51804,35.84447],[129.51774,35.84431],[129.51758,35.84397],[129.51849,35.84384],[129.51786,35.8438],[129.51755,35.84335],[129.5178,35.84217],[129.5145,35.84022],[129.51235,35.83964],[129.51142,35.83893],[129.50783,35.83834],[129.50765,35.83898],[129.50628,35.83921],[129.50563,35.84009],[129.50471,35.84031],[129.50402,35.84011],[129.50211,35.84071],[129.50111,35.83998],[129.50038,35.83988],[129.49884,35.84026],[129.49871,35.84058],[129.49799,35.84083],[129.49753,35.84169],[129.49579,35.84155],[129.49386,35.8431],[129.49226,35.84285],[129.49014,35.84341],[129.48886,35.8447],[129.48753,35.84545],[129.48598,35.84811],[129.48434,35.85013],[129.48174,35.85152],[129.48034,35.85315],[129.47883,35.85269],[129.47805,35.85188],[129.47645,35.85136],[129.47521,35.85011],[129.4736,35.85029],[129.47227,35.84981],[129.47036,35.84996],[129.46835,35.85126],[129.46795,35.85123],[129.46619,35.84922],[129.46556,35.8493],[129.46495,35.84872],[129.46091,35.84922],[129.45852,35.84706],[129.45586,35.84712],[129.45521,35.84684],[129.4534,35.84777],[129.45235,35.84786],[129.45071,35.84914],[129.4499,35.84918],[129.45015,35.84999],[129.4492,35.851],[129.44897,35.85174],[129.44939,35.85226],[129.44885,35.85236],[129.44845,35.85284],[129.44852,35.85403],[129.44803,35.8551],[129.44911,35.8576],[129.44874,35.85808],[129.44715,35.85761],[129.44704,35.85833],[129.4463,35.85856],[129.446,35.85898],[129.44649,35.86088],[129.44529,35.86286],[129.44532,35.8638],[129.44651,35.86519],[129.44626,35.86582],[129.44534,35.86678],[129.44314,35.86709],[129.44213,35.86811],[129.44072,35.86878],[129.4398,35.8726],[129.4371,35.8751],[129.43772,35.87685],[129.4367,35.87912],[129.43606,35.87905],[129.43478,35.88002],[129.4341,35.87962],[129.43104,35.88026],[129.43008,35.88013],[129.42949,35.88148],[129.42812,35.88166],[129.42816,35.88277],[129.42741,35.88349],[129.42601,35.88365],[129.42531,35.88422],[129.42204,35.88367],[129.42127,35.88405],[129.42045,35.88246]]],[[[129.58376,36.0161],[129.58374,36.01615],[129.5838,36.01615],[129.58376,36.0161]]],[[[129.5844,36.04578],[129.58425,36.04554],[129.58393,36.04555],[129.58397,36.04574],[129.5844,36.04578]]],[[[129.58299,36.01774],[129.58333,36.01783],[129.58318,36.01771],[129.58299,36.01774]]],[[[129.58325,36.01964],[129.58335,36.01955],[129.58305,36.01947],[129.58325,36.01964]]],[[[129.58366,36.03209],[129.58372,36.03214],[129.58367,36.03208],[129.58366,36.03209]]],[[[129.58328,36.01973],[129.58318,36.01972],[129.58311,36.01981],[129.58328,36.01973]]],[[[129.58356,36.0321],[129.58366,36.03215],[129.58365,36.03209],[129.58356,36.0321]]],[[[129.58322,36.02002],[129.58307,36.01988],[129.58295,36.01995],[129.58322,36.02002]]],[[[129.58349,36.03213],[129.58359,36.03223],[129.58365,36.03222],[129.58349,36.03213]]],[[[129.5832,36.02018],[129.58322,36.02027],[129.58325,36.02023],[129.5832,36.02018]]],[[[129.58306,36.01812],[129.58313,36.018],[129.58292,36.018],[129.58306,36.01812]]],[[[129.5834,36.03198],[129.58346,36.03204],[129.58346,36.03198],[129.5834,36.03198]]],[[[129.58297,36.01952],[129.583,36.01947],[129.58293,36.01949],[129.58297,36.01952]]],[[[129.58291,36.01973],[129.58294,36.01965],[129.58285,36.01967],[129.58291,36.01973]]],[[[129.58338,36.03186],[129.58323,36.03164],[129.58297,36.03162],[129.58312,36.03189],[129.58338,36.03186]]],[[[129.58295,36.01988],[129.58298,36.0199],[129.58301,36.01988],[129.58295,36.01988]]],[[[129.58338,36.03198],[129.58328,36.03192],[129.58324,36.03196],[129.58338,36.03198]]],[[[129.58288,36.02052],[129.58278,36.02054],[129.58291,36.02056],[129.58288,36.02052]]],[[[129.58282,36.01948],[129.58285,36.01951],[129.58287,36.01951],[129.58282,36.01948]]],[[[129.58268,36.01919],[129.58269,36.01924],[129.58272,36.01919],[129.58268,36.01919]]],[[[129.58266,36.01927],[129.58266,36.01933],[129.58268,36.01932],[129.58266,36.01927]]],[[[129.58263,36.02008],[129.58258,36.02003],[129.58258,36.02007],[129.58263,36.02008]]],[[[129.5824,36.01387],[129.58236,36.01392],[129.58241,36.01392],[129.5824,36.01387]]],[[[129.58286,36.03134],[129.58293,36.0314],[129.58296,36.03137],[129.58286,36.03134]]],[[[129.58248,36.02004],[129.58247,36.01998],[129.58243,36.01998],[129.58248,36.02004]]],[[[129.58231,36.02055],[129.58242,36.02045],[129.58227,36.02046],[129.58231,36.02055]]],[[[129.58221,36.0137],[129.58221,36.01375],[129.58225,36.01376],[129.58221,36.0137]]],[[[129.58278,36.03144],[129.58248,36.03133],[129.58244,36.03142],[129.58278,36.03144]]],[[[129.58234,36.02057],[129.58235,36.0206],[129.58237,36.0206],[129.58234,36.02057]]],[[[129.58244,36.03048],[129.58237,36.03066],[129.58264,36.03058],[129.58244,36.03048]]],[[[129.58207,36.01377],[129.58194,36.01329],[129.58171,36.01324],[129.58169,36.01367],[129.58207,36.01377]]],[[[129.58199,36.02109],[129.58198,36.02116],[129.58204,36.02116],[129.58199,36.02109]]],[[[129.58212,36.0284],[129.58214,36.02851],[129.58222,36.0284],[129.58212,36.0284]]],[[[129.58149,36.01482],[129.5815,36.0147],[129.58141,36.01471],[129.58149,36.01482]]],[[[129.58253,36.0447],[129.58229,36.04475],[129.58226,36.04489],[129.58253,36.0447]]],[[[129.58146,36.01423],[129.58145,36.01429],[129.58152,36.01427],[129.58146,36.01423]]],[[[129.58142,36.01448],[129.58135,36.01457],[129.58149,36.01458],[129.58142,36.01448]]],[[[129.58131,36.01435],[129.58135,36.01446],[129.58145,36.01442],[129.58131,36.01435]]],[[[129.58163,36.02141],[129.58155,36.02149],[129.58163,36.02152],[129.58163,36.02141]]],[[[129.58221,36.04457],[129.58227,36.04467],[129.5823,36.04457],[129.58221,36.04457]]],[[[129.58142,36.02142],[129.58129,36.02142],[129.58144,36.02148],[129.58142,36.02142]]],[[[129.58133,36.02161],[129.58143,36.02168],[129.58143,36.02168],[129.58133,36.02161]]],[[[129.58117,36.01433],[129.58115,36.01437],[129.58119,36.01435],[129.58117,36.01433]]],[[[129.5813,36.02148],[129.58117,36.02148],[129.5813,36.02154],[129.5813,36.02148]]],[[[129.58129,36.02163],[129.58128,36.02166],[129.58131,36.02166],[129.58129,36.02163]]],[[[129.58116,36.03795],[129.58156,36.03815],[129.58165,36.03774],[129.58116,36.03795]]],[[[129.58113,36.02157],[129.58102,36.02162],[129.58114,36.02168],[129.58113,36.02157]]],[[[129.58109,36.02175],[129.58096,36.02163],[129.58093,36.02163],[129.58109,36.02175]]],[[[129.58088,36.02159],[129.58081,36.0216],[129.58081,36.0216],[129.58088,36.02159]]],[[[129.58081,36.02165],[129.58083,36.02169],[129.58084,36.02169],[129.58081,36.02165]]],[[[129.58071,36.02162],[129.58067,36.02166],[129.5807,36.02166],[129.58071,36.02162]]],[[[129.58037,36.02226],[129.58042,36.02233],[129.58044,36.02232],[129.58037,36.02226]]],[[[129.58037,36.02237],[129.58038,36.02242],[129.58043,36.02242],[129.58037,36.02237]]],[[[129.58034,36.02204],[129.58037,36.02208],[129.58038,36.02204],[129.58034,36.02204]]],[[[129.58021,36.02233],[129.58022,36.02236],[129.58023,36.02236],[129.58021,36.02233]]],[[[129.58068,36.04197],[129.58068,36.04182],[129.58057,36.04188],[129.58068,36.04197]]],[[[129.58011,36.022],[129.5801,36.02204],[129.58013,36.02204],[129.58011,36.022]]],[[[129.57974,36.01278],[129.57962,36.01281],[129.57974,36.01283],[129.57974,36.01278]]],[[[129.57952,36.01268],[129.57951,36.01263],[129.57944,36.01268],[129.57952,36.01268]]],[[[129.57851,36.00864],[129.57886,36.00846],[129.57856,36.00831],[129.57851,36.00864]]],[[[129.57851,36.00921],[129.5785,36.00933],[129.57859,36.00934],[129.57851,36.00921]]],[[[129.57835,36.0091],[129.57845,36.00916],[129.57847,36.00916],[129.57835,36.0091]]],[[[129.57915,36.03222],[129.57922,36.03226],[129.57916,36.03219],[129.57915,36.03222]]],[[[129.57842,36.00902],[129.57841,36.00906],[129.57844,36.00904],[129.57842,36.00902]]],[[[129.57832,36.00896],[129.5783,36.00899],[129.57834,36.00898],[129.57832,36.00896]]],[[[129.57823,36.00962],[129.57828,36.0097],[129.57829,36.0097],[129.57823,36.00962]]],[[[129.57826,36.00971],[129.57806,36.00966],[129.57826,36.00972],[129.57826,36.00971]]],[[[129.57789,36.00341],[129.57796,36.00347],[129.578,36.00347],[129.57789,36.00341]]],[[[129.5774,36.01027],[129.57743,36.01032],[129.57747,36.0103],[129.5774,36.01027]]],[[[129.57707,36.00321],[129.5771,36.00306],[129.57702,36.00313],[129.57707,36.00321]]],[[[129.57738,36.01018],[129.57742,36.01022],[129.57744,36.01021],[129.57738,36.01018]]],[[[129.57817,36.03536],[129.57811,36.0356],[129.57814,36.03563],[129.57817,36.03536]]],[[[129.57705,36.00345],[129.57685,36.00323],[129.57645,36.00328],[129.57653,36.00348],[129.57705,36.00345]]],[[[129.57802,36.03513],[129.57805,36.03517],[129.57804,36.03509],[129.57802,36.03513]]],[[[129.57698,36.00301],[129.57696,36.00311],[129.57698,36.00311],[129.57698,36.00301]]],[[[129.57685,36.00364],[129.57693,36.00383],[129.57698,36.00381],[129.57685,36.00364]]],[[[129.57594,36.00397],[129.57683,36.00384],[129.57622,36.00341],[129.57556,36.00369],[129.57594,36.00397]]],[[[129.57753,36.05487],[129.5776,36.05484],[129.57753,36.05481],[129.57753,36.05487]]],[[[129.57747,36.0559],[129.57738,36.05582],[129.57754,36.05607],[129.57747,36.0559]]],[[[129.57746,36.05621],[129.57757,36.05628],[129.57748,36.05617],[129.57746,36.05621]]],[[[129.57741,36.05488],[129.57743,36.05502],[129.57748,36.05506],[129.57741,36.05488]]],[[[129.57736,36.05701],[129.57747,36.05716],[129.57752,36.0571],[129.57736,36.05701]]],[[[129.57747,36.05749],[129.57729,36.05772],[129.57732,36.05775],[129.57747,36.05749]]],[[[129.57712,36.05788],[129.57698,36.05788],[129.57703,36.05793],[129.57712,36.05788]]],[[[129.57702,36.05815],[129.57682,36.05816],[129.577,36.0582],[129.57702,36.05815]]],[[[129.57664,36.05841],[129.57664,36.05869],[129.57676,36.05863],[129.57664,36.05841]]],[[[129.57589,36.05992],[129.57598,36.05995],[129.57596,36.05991],[129.57589,36.05992]]],[[[129.57523,36.0614],[129.57539,36.06167],[129.57542,36.06169],[129.57523,36.0614]]],[[[129.57522,36.06174],[129.57535,36.06186],[129.57522,36.06163],[129.57522,36.06174]]],[[[129.57452,36.06379],[129.57458,36.06387],[129.57467,36.0638],[129.57452,36.06379]]],[[[129.57437,36.06381],[129.57434,36.06392],[129.57447,36.06397],[129.57437,36.06381]]],[[[129.57148,36.00038],[129.57158,36.00007],[129.57139,36.0001],[129.57148,36.00038]]],[[[129.57261,36.06525],[129.57263,36.06546],[129.57292,36.06559],[129.57261,36.06525]]],[[[129.57076,36.00038],[129.57071,36.00042],[129.57077,36.00042],[129.57076,36.00038]]],[[[129.57276,36.06684],[129.57283,36.06671],[129.57276,36.06671],[129.57276,36.06684]]],[[[129.57254,36.06634],[129.57247,36.06649],[129.5725,36.06653],[129.57254,36.06634]]],[[[129.57244,36.06593],[129.57238,36.066],[129.57248,36.06604],[129.57244,36.06593]]],[[[129.57207,36.06679],[129.57242,36.06673],[129.57225,36.06656],[129.57207,36.06679]]],[[[129.57201,36.06695],[129.57222,36.06693],[129.57212,36.06684],[129.57201,36.06695]]],[[[129.57189,36.06646],[129.57199,36.06652],[129.57188,36.06643],[129.57189,36.06646]]],[[[129.57146,36.06647],[129.57132,36.06648],[129.57145,36.06656],[129.57146,36.06647]]],[[[129.5708,36.07777],[129.57068,36.0776],[129.57063,36.0777],[129.5708,36.07777]]],[[[129.5705,36.07783],[129.57049,36.07771],[129.57031,36.07799],[129.5705,36.07783]]],[[[129.57008,36.06707],[129.5702,36.06712],[129.5701,36.06703],[129.57008,36.06707]]],[[[129.57025,36.07908],[129.57049,36.07903],[129.57043,36.07894],[129.57025,36.07908]]],[[[129.57016,36.07179],[129.57019,36.07188],[129.57024,36.07186],[129.57016,36.07179]]],[[[129.57014,36.0773],[129.5703,36.07709],[129.57004,36.07701],[129.57014,36.0773]]],[[[129.57014,36.07541],[129.57005,36.07547],[129.57014,36.07549],[129.57014,36.07541]]],[[[129.5671,35.99472],[129.56743,35.99461],[129.56721,35.99427],[129.5671,35.99472]]],[[[129.56993,36.07635],[129.57,36.07652],[129.57007,36.07651],[129.56993,36.07635]]],[[[129.56959,36.06975],[129.56954,36.06981],[129.56958,36.06983],[129.56959,36.06975]]],[[[129.56973,36.07823],[129.56977,36.07834],[129.56982,36.07829],[129.56973,36.07823]]],[[[129.56971,36.07841],[129.56973,36.07852],[129.56981,36.07847],[129.56971,36.07841]]],[[[129.56973,36.07867],[129.5698,36.07877],[129.56982,36.07875],[129.56973,36.07867]]],[[[129.56967,36.07876],[129.56974,36.07886],[129.56982,36.07882],[129.56967,36.07876]]],[[[129.56948,36.07836],[129.56954,36.07843],[129.56954,36.07835],[129.56948,36.07836]]],[[[129.5695,36.07883],[129.56941,36.07897],[129.56943,36.07897],[129.5695,36.07883]]],[[[129.56916,36.07863],[129.56895,36.07866],[129.56908,36.07875],[129.56916,36.07863]]],[[[129.56847,36.07855],[129.56822,36.07857],[129.5683,36.07906],[129.56844,36.07902],[129.56847,36.07855]]],[[[129.56733,36.07887],[129.56723,36.07888],[129.56732,36.07889],[129.56733,36.07887]]],[[[129.56656,36.07984],[129.56645,36.0797],[129.56639,36.07979],[129.56656,36.07984]]],[[[129.5662,36.07985],[129.56609,36.07977],[129.5661,36.07986],[129.5662,36.07985]]],[[[129.56592,36.07955],[129.56599,36.07962],[129.566,36.07956],[129.56592,36.07955]]],[[[129.56257,35.98931],[129.56238,35.98927],[129.56255,35.98938],[129.56257,35.98931]]],[[[129.56205,35.98915],[129.56216,35.98901],[129.56188,35.98911],[129.56205,35.98915]]],[[[129.56506,36.07926],[129.56512,36.07927],[129.56506,36.07925],[129.56506,36.07926]]],[[[129.56491,36.07937],[129.56497,36.07943],[129.56495,36.07935],[129.56491,36.07937]]],[[[129.56198,35.98924],[129.56197,35.9893],[129.56199,35.9893],[129.56198,35.98924]]],[[[129.56355,36.08119],[129.56371,36.08139],[129.56454,36.08021],[129.5644,36.0802],[129.56355,36.08119]]],[[[129.55807,35.98263],[129.55808,35.98278],[129.55816,35.98281],[129.55807,35.98263]]],[[[129.56059,36.08434],[129.56042,36.08401],[129.56018,36.08391],[129.56013,36.08415],[129.56059,36.08434]]],[[[129.56024,36.08365],[129.56019,36.08388],[129.56043,36.08385],[129.56024,36.08365]]],[[[129.55662,35.98126],[129.55667,35.98114],[129.55659,35.98102],[129.55662,35.98126]]],[[[129.55644,35.98159],[129.55662,35.9815],[129.55642,35.98148],[129.55644,35.98159]]],[[[129.55972,36.08324],[129.55967,36.08313],[129.55958,36.0831],[129.55972,36.08324]]],[[[129.55954,36.08308],[129.55946,36.0829],[129.55939,36.08289],[129.55954,36.08308]]],[[[129.55936,36.08288],[129.55935,36.08273],[129.5593,36.08271],[129.55936,36.08288]]],[[[129.5552,35.9802],[129.55535,35.98037],[129.55557,35.98037],[129.5552,35.9802]]],[[[129.55461,35.96919],[129.55465,35.96926],[129.55467,35.9692],[129.55461,35.96919]]],[[[129.5545,35.97478],[129.55444,35.9749],[129.55459,35.97484],[129.5545,35.97478]]],[[[129.55796,36.08469],[129.55804,36.08473],[129.55798,36.08468],[129.55796,36.08469]]],[[[129.5531,35.95123],[129.55354,35.95087],[129.55275,35.95102],[129.5531,35.95123]]],[[[129.55795,36.09125],[129.5578,36.09129],[129.55795,36.0913],[129.55795,36.09125]]],[[[129.55387,35.97041],[129.55388,35.97049],[129.55393,35.97048],[129.55387,35.97041]]],[[[129.55393,35.97468],[129.55392,35.97477],[129.55395,35.9747],[129.55393,35.97468]]],[[[129.55333,35.96707],[129.55328,35.96723],[129.55343,35.96714],[129.55333,35.96707]]],[[[129.55336,35.97194],[129.55342,35.97198],[129.55344,35.97192],[129.55336,35.97194]]],[[[129.55256,35.95094],[129.5526,35.9512],[129.55269,35.95119],[129.55256,35.95094]]],[[[129.55352,35.97974],[129.55349,35.97987],[129.55361,35.97996],[129.55352,35.97974]]],[[[129.5533,35.97232],[129.55324,35.97241],[129.5533,35.97242],[129.5533,35.97232]]],[[[129.5531,35.96717],[129.55278,35.96698],[129.5526,35.96708],[129.5531,35.96717]]],[[[129.55222,35.96686],[129.55229,35.96674],[129.55217,35.96681],[129.55222,35.96686]]],[[[129.55599,36.08656],[129.55595,36.08671],[129.55609,36.08672],[129.55599,36.08656]]],[[[129.55247,35.97585],[129.55245,35.9759],[129.55251,35.97589],[129.55247,35.97585]]],[[[129.55246,35.97751],[129.55242,35.97726],[129.55224,35.97741],[129.55246,35.97751]]],[[[129.55162,35.95155],[129.55161,35.95151],[129.55153,35.95141],[129.55152,35.95154],[129.55162,35.95155]]],[[[129.55156,35.95164],[129.55149,35.95165],[129.55148,35.95167],[129.55156,35.95164]]],[[[129.55145,35.95146],[129.55142,35.9515],[129.55144,35.9515],[129.55145,35.95146]]],[[[129.55171,35.97707],[129.55208,35.97697],[129.55226,35.97697],[129.55205,35.97685],[129.55171,35.97707]]],[[[129.55138,35.95163],[129.55142,35.9515],[129.55126,35.95145],[129.55138,35.95163]]],[[[129.55572,36.08624],[129.55561,36.08634],[129.55572,36.08639],[129.55572,36.08624]]],[[[129.55216,35.97744],[129.55219,35.97726],[129.55206,35.97736],[129.55216,35.97744]]],[[[129.55209,35.97717],[129.55208,35.97727],[129.55222,35.97719],[129.55209,35.97717]]],[[[129.55197,35.97738],[129.55188,35.97736],[129.55184,35.97738],[129.55197,35.97738]]],[[[129.5519,35.97806],[129.55179,35.97813],[129.55187,35.97817],[129.5519,35.97806]]],[[[129.55074,35.952],[129.55066,35.95186],[129.55055,35.95183],[129.55074,35.952]]],[[[129.55075,35.95133],[129.55072,35.95138],[129.55073,35.95138],[129.55075,35.95133]]],[[[129.5505,35.95202],[129.5506,35.95193],[129.55055,35.95191],[129.5505,35.95202]]],[[[129.55002,35.95206],[129.55008,35.95198],[129.55002,35.95198],[129.55002,35.95206]]],[[[129.54963,35.95206],[129.54991,35.95205],[129.54982,35.95199],[129.54963,35.95206]]],[[[129.54961,35.95219],[129.54965,35.95215],[129.54962,35.95214],[129.54961,35.95219]]],[[[129.54857,35.95159],[129.54859,35.95164],[129.5486,35.95163],[129.54857,35.95159]]],[[[129.54839,35.95154],[129.54838,35.95157],[129.5484,35.95157],[129.54839,35.95154]]],[[[129.54827,35.95109],[129.54835,35.95091],[129.54821,35.95084],[129.54827,35.95109]]],[[[129.54828,35.95086],[129.54819,35.95078],[129.54815,35.95082],[129.54828,35.95086]]],[[[129.54839,35.95393],[129.5484,35.95395],[129.54841,35.95394],[129.54839,35.95393]]],[[[129.54821,35.95385],[129.54824,35.95387],[129.54824,35.95385],[129.54821,35.95385]]],[[[129.54804,35.95272],[129.54812,35.9527],[129.54804,35.95266],[129.54804,35.95272]]],[[[129.54815,35.95329],[129.54799,35.95328],[129.54811,35.95345],[129.54815,35.95329]]],[[[129.5479,35.9525],[129.54787,35.95255],[129.54792,35.95254],[129.5479,35.9525]]],[[[129.54773,35.95271],[129.54773,35.95266],[129.54772,35.95266],[129.54773,35.95271]]],[[[129.54767,35.95526],[129.54747,35.95499],[129.54715,35.95519],[129.54767,35.95526]]],[[[129.54441,35.95099],[129.54443,35.95084],[129.54435,35.95078],[129.54441,35.95099]]],[[[129.54779,36.08518],[129.54791,36.08518],[129.54778,36.08514],[129.54779,36.08518]]],[[[129.54605,36.08362],[129.54616,36.08361],[129.54607,36.08358],[129.54605,36.08362]]],[[[129.5458,36.08288],[129.54571,36.08305],[129.5458,36.08308],[129.5458,36.08288]]],[[[129.54538,36.07764],[129.54545,36.07765],[129.5454,36.07761],[129.54538,36.07764]]],[[[129.5451,36.07697],[129.54517,36.07696],[129.54512,36.07692],[129.5451,36.07697]]],[[[129.545,36.07665],[129.54493,36.07664],[129.545,36.07679],[129.545,36.07665]]],[[[129.54037,36.06983],[129.54044,36.06982],[129.54038,36.0698],[129.54037,36.06983]]],[[[129.54023,36.06879],[129.54029,36.06884],[129.54032,36.06879],[129.54023,36.06879]]],[[[129.53992,36.06876],[129.54012,36.06864],[129.53989,36.06862],[129.53992,36.06876]]],[[[129.53994,36.07317],[129.53994,36.07334],[129.53999,36.07332],[129.53994,36.07317]]],[[[129.53963,36.06856],[129.53972,36.06869],[129.53974,36.06859],[129.53963,36.06856]]],[[[129.53975,36.06984],[129.53969,36.06992],[129.53977,36.06996],[129.53975,36.06984]]],[[[129.53957,36.0709],[129.53952,36.07093],[129.53958,36.07093],[129.53957,36.0709]]],[[[129.53871,36.07077],[129.53871,36.07089],[129.53875,36.07078],[129.53871,36.07077]]],[[[129.53815,36.07187],[129.53813,36.07212],[129.5384,36.07223],[129.53815,36.07187]]],[[[129.5375,36.06624],[129.53747,36.06642],[129.53753,36.06643],[129.5375,36.06624]]],[[[129.53739,36.06806],[129.53743,36.06816],[129.53743,36.06806],[129.53739,36.06806]]],[[[129.53721,36.06637],[129.53726,36.06649],[129.53732,36.06639],[129.53721,36.06637]]],[[[129.53731,36.06664],[129.53723,36.06672],[129.53731,36.06673],[129.53731,36.06664]]],[[[129.5371,36.06796],[129.53722,36.0681],[129.53719,36.06794],[129.5371,36.06796]]],[[[129.53718,36.06826],[129.53701,36.06834],[129.53716,36.06841],[129.53718,36.06826]]],[[[129.53694,36.0679],[129.53701,36.06795],[129.53701,36.0679],[129.53694,36.0679]]],[[[129.5369,36.06839],[129.53696,36.06846],[129.53697,36.06838],[129.5369,36.06839]]],[[[129.53678,36.06748],[129.5368,36.06759],[129.53685,36.06755],[129.53678,36.06748]]],[[[129.53651,36.06576],[129.53657,36.06579],[129.53656,36.06574],[129.53651,36.06576]]],[[[129.53642,36.06806],[129.53624,36.0682],[129.5363,36.06824],[129.53642,36.06806]]],[[[129.5356,36.06537],[129.53569,36.06545],[129.53572,36.06543],[129.5356,36.06537]]],[[[129.53553,36.06497],[129.53561,36.06501],[129.53561,36.06497],[129.53553,36.06497]]],[[[129.53337,36.06206],[129.53325,36.06212],[129.53333,36.06216],[129.53337,36.06206]]],[[[129.53333,36.06225],[129.53324,36.06228],[129.5333,36.06231],[129.53333,36.06225]]],[[[129.53254,36.06183],[129.5326,36.0618],[129.53255,36.06179],[129.53254,36.06183]]],[[[129.53234,36.05734],[129.53242,36.05737],[129.53242,36.05734],[129.53234,36.05734]]],[[[129.5324,36.06163],[129.53245,36.06178],[129.5325,36.0618],[129.5324,36.06163]]],[[[129.53242,36.06176],[129.53232,36.06167],[129.53232,36.06176],[129.53242,36.06176]]],[[[129.53194,36.06134],[129.53205,36.06137],[129.53197,36.06132],[129.53194,36.06134]]],[[[129.532,36.06218],[129.53205,36.06225],[129.53207,36.06222],[129.532,36.06218]]],[[[129.53177,36.06186],[129.53179,36.06192],[129.53181,36.06191],[129.53177,36.06186]]],[[[129.53026,36.05662],[129.53041,36.0567],[129.53042,36.05669],[129.53026,36.05662]]],[[[129.52424,36.05847],[129.52417,36.0581],[129.52378,36.05823],[129.52424,36.05847]]],[[[129.52427,36.0574],[129.52411,36.05763],[129.52416,36.0577],[129.52427,36.0574]]],[[[129.52289,36.05545],[129.52283,36.05571],[129.52287,36.05573],[129.52289,36.05545]]],[[[129.5198,36.05071],[129.51992,36.051],[129.52,36.05103],[129.5198,36.05071]]],[[[129.51332,36.04241],[129.51329,36.04256],[129.51335,36.04255],[129.51332,36.04241]]],[[[129.43958,36.11813],[129.46439,36.09805],[129.46422,36.08933],[129.46462,36.08934],[129.46462,36.08912],[129.46385,36.08929],[129.464,36.09776],[129.46351,36.09849],[129.43958,36.11813]]],[[[129.41471,36.02133],[129.41839,36.019],[129.41463,36.02124],[129.41471,36.02133]]],[[[129.40785,36.01862],[129.40471,36.01992],[129.40477,36.02002],[129.40873,36.0186],[129.40785,36.01862]]],[[[129.40376,36.15529],[129.40431,36.15446],[129.40404,36.15412],[129.40304,36.15479],[129.40376,36.15529]]],[[[129.4027,36.15497],[129.40326,36.15566],[129.40359,36.15546],[129.40296,36.15491],[129.4027,36.15497]]],[[[129.40261,36.15544],[129.4025,36.15575],[129.40287,36.15618],[129.40306,36.15553],[129.40261,36.15544]]],[[[129.40282,36.16004],[129.40248,36.15982],[129.40233,36.15987],[129.40265,36.1602],[129.40282,36.16004]]],[[[129.40216,36.1598],[129.4022,36.15972],[129.40207,36.15978],[129.40216,36.1598]]],[[[129.40069,36.16563],[129.40058,36.16558],[129.40056,36.16565],[129.40069,36.16563]]],[[[129.40049,36.16588],[129.40022,36.16582],[129.40047,36.16596],[129.40049,36.16588]]],[[[129.40027,36.15952],[129.40016,36.15959],[129.40018,36.15965],[129.40027,36.15952]]],[[[129.40029,36.16445],[129.40012,36.1645],[129.40016,36.16456],[129.40029,36.16445]]],[[[129.40007,36.16626],[129.40014,36.16628],[129.40016,36.1662],[129.40007,36.16626]]],[[[129.39971,36.16216],[129.39978,36.16223],[129.39973,36.16214],[129.39971,36.16216]]],[[[129.39966,36.16215],[129.39953,36.16226],[129.39967,36.16231],[129.39966,36.16215]]],[[[129.39958,36.16355],[129.39963,36.16359],[129.39965,36.16355],[129.39958,36.16355]]],[[[129.39953,36.16376],[129.39955,36.1637],[129.39953,36.16369],[129.39953,36.16376]]],[[[129.39929,36.1582],[129.39907,36.15768],[129.39912,36.15835],[129.39929,36.1582]]],[[[129.39848,36.13658],[129.39852,36.1365],[129.39847,36.13647],[129.39848,36.13658]]],[[[129.39841,36.13672],[129.39852,36.13678],[129.39851,36.13673],[129.39841,36.13672]]],[[[129.39852,36.13742],[129.39823,36.13759],[129.39845,36.13766],[129.39852,36.13742]]],[[[129.39903,36.16029],[129.39907,36.16047],[129.39917,36.16032],[129.39903,36.16029]]],[[[129.39826,36.137],[129.39842,36.13713],[129.39839,36.13699],[129.39826,36.137]]],[[[129.39815,36.13774],[129.39839,36.13792],[129.39822,36.13765],[129.39815,36.13774]]],[[[129.39899,36.16263],[129.39897,36.16269],[129.39902,36.16267],[129.39899,36.16263]]],[[[129.3981,36.13593],[129.39817,36.13589],[129.3981,36.13588],[129.3981,36.13593]]],[[[129.39825,36.14488],[129.39836,36.14501],[129.39835,36.1449],[129.39825,36.14488]]],[[[129.39807,36.13586],[129.39803,36.13589],[129.39807,36.13588],[129.39807,36.13586]]],[[[129.39871,36.16276],[129.39871,36.16281],[129.39878,36.16276],[129.39871,36.16276]]],[[[129.39786,36.14669],[129.39797,36.14674],[129.39787,36.14664],[129.39786,36.14669]]],[[[129.39778,36.14166],[129.39776,36.1416],[129.39775,36.14168],[129.39778,36.14166]]],[[[129.39795,36.14684],[129.39774,36.14681],[129.39766,36.14681],[129.39788,36.1469],[129.39795,36.14684]]],[[[129.3976,36.14673],[129.3977,36.14662],[129.39753,36.14659],[129.3976,36.14673]]],[[[129.39769,36.14639],[129.39774,36.14634],[129.39765,36.14634],[129.39769,36.14639]]],[[[129.39773,36.14659],[129.39774,36.14655],[129.39768,36.14656],[129.39773,36.14659]]],[[[129.39835,36.16868],[129.39825,36.16876],[129.39841,36.16872],[129.39835,36.16868]]],[[[129.39753,36.14652],[129.39754,36.14647],[129.39752,36.14648],[129.39753,36.14652]]],[[[129.39805,36.16881],[129.3982,36.16882],[129.39803,36.16879],[129.39805,36.16881]]],[[[129.39786,36.16902],[129.39808,36.16895],[129.39785,36.16887],[129.39786,36.16902]]],[[[129.39798,36.1696],[129.39801,36.16944],[129.39775,36.16961],[129.39798,36.1696]]],[[[129.3979,36.16878],[129.39799,36.16869],[129.39792,36.16865],[129.3979,36.16878]]],[[[129.39524,36.17251],[129.39532,36.17263],[129.39527,36.17243],[129.39524,36.17251]]],[[[129.3868,36.03313],[129.38652,36.03294],[129.38649,36.03293],[129.3868,36.03313]]],[[[129.3847,36.21286],[129.38543,36.21248],[129.38456,36.2117],[129.38435,36.21189],[129.3847,36.21286]]],[[[129.38371,36.18647],[129.38368,36.18634],[129.38358,36.18636],[129.38371,36.18647]]],[[[129.38356,36.1861],[129.38362,36.18624],[129.38371,36.18612],[129.38356,36.1861]]],[[[129.38428,36.22453],[129.38449,36.22462],[129.38425,36.22445],[129.38428,36.22453]]],[[[129.38452,36.23471],[129.38451,36.23447],[129.38427,36.23439],[129.38452,36.23471]]],[[[129.38415,36.2342],[129.38434,36.23435],[129.38409,36.23393],[129.38415,36.2342]]],[[[129.38239,36.21051],[129.38239,36.21047],[129.38235,36.21048],[129.38239,36.21051]]],[[[129.38155,36.1874],[129.38163,36.18734],[129.38156,36.18732],[129.38155,36.1874]]],[[[129.38231,36.21039],[129.3822,36.21042],[129.38231,36.21042],[129.38231,36.21039]]],[[[129.38186,36.24284],[129.38194,36.24288],[129.38187,36.24279],[129.38186,36.24284]]],[[[129.37968,36.18885],[129.37954,36.18883],[129.37954,36.1889],[129.37968,36.18885]]],[[[129.37986,36.24432],[129.37994,36.24435],[129.37991,36.24431],[129.37986,36.24432]]],[[[129.37626,36.26598],[129.37607,36.26577],[129.37589,36.26594],[129.37626,36.26598]]],[[[129.37572,36.26571],[129.37571,36.26581],[129.37581,36.26571],[129.37572,36.26571]]],[[[129.37491,36.25926],[129.37502,36.25941],[129.37505,36.25927],[129.37491,36.25926]]],[[[129.37458,36.25921],[129.37471,36.25924],[129.3747,36.2592],[129.37458,36.25921]]],[[[129.37348,36.25549],[129.37353,36.25564],[129.37368,36.25578],[129.37348,36.25549]]],[[[129.37355,36.25545],[129.3736,36.25547],[129.37358,36.25542],[129.37355,36.25545]]],[[[129.37327,36.25539],[129.3733,36.25552],[129.37343,36.25543],[129.37327,36.25539]]]]},"properties":{"id":"SGG:47110","layer":"L3","admin_code":"47110","name":"경상북도 포항시","sido":"경상북도","sgg":"포항시","provisional":false,"source":"통계청 행정동 경계(BND_ADM_DONG_PG, 2025-06-30) 를 시군구로 합침","source_kind":"derived","derived_from":"행정동 경계 union · 20 m 단순화"}}]}