{"type":"FeatureCollection","features":[{"type":"Feature","id":"SGG:27260","geometry":{"type":"MultiPolygon","coordinates":[[[[128.6398,35.80294],[128.63771,35.80353],[128.63588,35.80286],[128.63452,35.80369],[128.63165,35.80345],[128.62914,35.80254],[128.62634,35.80504],[128.62309,35.80586],[128.62358,35.80547],[128.62196,35.8055],[128.62051,35.80599],[128.61992,35.80584],[128.62012,35.8056],[128.61692,35.80275],[128.61639,35.80358],[128.61364,35.80439],[128.60928,35.80463],[128.60519,35.80537],[128.6024,35.8063],[128.59843,35.80569],[128.59756,35.80599],[128.59712,35.80673],[128.59486,35.8074],[128.59285,35.80876],[128.59148,35.80927],[128.59216,35.80963],[128.59195,35.81036],[128.59232,35.81127],[128.5943,35.81309],[128.59817,35.8143],[128.59862,35.81492],[128.59983,35.81479],[128.60068,35.8157],[128.60185,35.81858],[128.60421,35.82252],[128.60425,35.8236],[128.60479,35.82432],[128.6046,35.82525],[128.60495,35.8268],[128.60541,35.82675],[128.60549,35.82715],[128.60602,35.82711],[128.60619,35.82757],[128.60684,35.82715],[128.60766,35.8271],[128.60765,35.82855],[128.60624,35.83208],[128.60572,35.83536],[128.60644,35.83911],[128.60699,35.83913],[128.6074,35.84002],[128.60753,35.84253],[128.60808,35.84474],[128.6078,35.84712],[128.60884,35.85328],[128.60813,35.85563],[128.60814,35.85945],[128.60867,35.86079],[128.60936,35.86067],[128.60933,35.86143],[128.60999,35.86249],[128.6129,35.86407],[128.61423,35.8664],[128.61409,35.86739],[128.61466,35.86814],[128.62976,35.86665],[128.63415,35.87164],[128.63899,35.8731],[128.64495,35.87661],[128.64508,35.87643],[128.6497,35.87814],[128.64955,35.8784],[128.65066,35.87851],[128.65205,35.87808],[128.65442,35.87648],[128.65566,35.87607],[128.65904,35.87659],[128.65936,35.87643],[128.6594,35.87681],[128.66082,35.87467],[128.66227,35.87378],[128.66495,35.87283],[128.66736,35.87243],[128.67198,35.87289],[128.67289,35.87323],[128.67311,35.87383],[128.6743,35.87384],[128.67578,35.87331],[128.67771,35.87087],[128.67989,35.86669],[128.68038,35.86419],[128.68002,35.86214],[128.68197,35.86037],[128.68265,35.86081],[128.68602,35.85897],[128.68866,35.8595],[128.69168,35.85881],[128.69781,35.85872],[128.69921,35.85783],[128.70156,35.85783],[128.70306,35.85752],[128.7075,35.85825],[128.70857,35.85933],[128.71143,35.86082],[128.71461,35.86079],[128.71549,35.86128],[128.71857,35.86048],[128.72411,35.85994],[128.72462,35.85883],[128.72591,35.85794],[128.7256,35.85773],[128.72435,35.858],[128.72305,35.85787],[128.72267,35.85716],[128.72187,35.85695],[128.72266,35.85604],[128.72274,35.85545],[128.72416,35.85481],[128.72545,35.85377],[128.72489,35.85301],[128.72536,35.85275],[128.72556,35.8502],[128.72687,35.84721],[128.72673,35.84443],[128.7262,35.84394],[128.72635,35.84256],[128.72493,35.84073],[128.72436,35.84044],[128.72406,35.83943],[128.72409,35.8384],[128.7252,35.83651],[128.72507,35.83605],[128.7218,35.83467],[128.72042,35.83602],[128.71977,35.83606],[128.71832,35.83546],[128.71781,35.83414],[128.71698,35.8342],[128.71693,35.83393],[128.7148,35.83273],[128.71412,35.83179],[128.71129,35.82954],[128.71037,35.82843],[128.71032,35.82781],[128.70981,35.82781],[128.70864,35.82657],[128.70857,35.82337],[128.70906,35.8216],[128.71214,35.81938],[128.71389,35.81751],[128.71412,35.81538],[128.71481,35.81462],[128.71463,35.81357],[128.71571,35.811],[128.71584,35.80935],[128.71758,35.80809],[128.71752,35.80684],[128.71685,35.80664],[128.71606,35.80528],[128.71433,35.80476],[128.71305,35.80503],[128.71016,35.80425],[128.70777,35.80249],[128.70773,35.80019],[128.70387,35.79931],[128.70263,35.7986],[128.70167,35.79755],[128.70063,35.79695],[128.70031,35.79544],[128.69981,35.79505],[128.69747,35.79435],[128.69653,35.79458],[128.69554,35.7953],[128.69456,35.79678],[128.69284,35.79696],[128.69126,35.79569],[128.69089,35.79419],[128.68977,35.79276],[128.68728,35.7923],[128.68519,35.79098],[128.68205,35.78997],[128.6809,35.79138],[128.68094,35.79201],[128.67977,35.79257],[128.67959,35.79299],[128.6776,35.79293],[128.6749,35.79517],[128.67433,35.7947],[128.6732,35.79484],[128.67275,35.79527],[128.67061,35.79503],[128.67006,35.79536],[128.6692,35.79522],[128.66892,35.79544],[128.66913,35.79606],[128.66846,35.79685],[128.66659,35.79739],[128.66477,35.79755],[128.66449,35.79789],[128.6612,35.79851],[128.66004,35.79843],[128.65911,35.79798],[128.65874,35.79838],[128.65758,35.79816],[128.65616,35.79889],[128.65349,35.79926],[128.65251,35.79982],[128.6519,35.80061],[128.6513,35.80283],[128.64955,35.80294],[128.64918,35.80328],[128.64663,35.80248],[128.64471,35.80223],[128.64353,35.8024],[128.64271,35.80212],[128.64092,35.80228],[128.6398,35.80294]]]]},"properties":{"id":"SGG:27260","layer":"L3","admin_code":"27260","name":"대구광역시 수성구","sido":"대구광역시","sgg":"수성구","provisional":false,"source":"통계청 행정동 경계(BND_ADM_DONG_PG, 2025-06-30) 를 시군구로 합침","source_kind":"derived","derived_from":"행정동 경계 union · 20 m 단순화"}}]}