{"type":"FeatureCollection","features":[{"type":"Feature","id":"SGG:12750","geometry":{"type":"MultiPolygon","coordinates":[[[[127.47959,34.78721],[127.47995,34.78703],[127.47999,34.78682],[127.47959,34.78721]]],[[[127.47976,34.7874],[127.47955,34.78738],[127.4796,34.78751],[127.47976,34.7874]]],[[[127.47973,34.78755],[127.4797,34.7876],[127.47974,34.78755],[127.47973,34.78755]]],[[[127.4789,34.78944],[127.47935,34.78859],[127.47762,34.78937],[127.47788,34.78957],[127.4789,34.78944]]],[[[127.47177,34.7938],[127.47481,34.79296],[127.47609,34.792],[127.47636,34.79134],[127.47561,34.79098],[127.47582,34.79063],[127.47535,34.79096],[127.47321,34.79135],[127.47224,34.7927],[127.47143,34.79334],[127.4711,34.79327],[127.47177,34.7938]]],[[[127.47472,34.78406],[127.47597,34.78197],[127.47575,34.78172],[127.47363,34.78275],[127.47256,34.78226],[127.47249,34.78153],[127.47112,34.78293],[127.47154,34.78338],[127.4714,34.784],[127.47164,34.78366],[127.47296,34.78361],[127.47371,34.78442],[127.47472,34.78406]]],[[[127.47045,34.78515],[127.47092,34.78426],[127.46993,34.78419],[127.4696,34.78444],[127.46979,34.78499],[127.46995,34.78524],[127.47045,34.78515]]],[[[127.46261,34.80524],[127.46443,34.80478],[127.46494,34.80406],[127.46588,34.80148],[127.46707,34.80026],[127.46696,34.80002],[127.46779,34.79912],[127.46769,34.79864],[127.46942,34.79683],[127.47053,34.79461],[127.47035,34.79399],[127.47037,34.79461],[127.46969,34.79513],[127.46884,34.79552],[127.46796,34.79553],[127.46794,34.79472],[127.46884,34.79437],[127.46949,34.79359],[127.46801,34.79392],[127.46721,34.79315],[127.46661,34.79335],[127.4667,34.79362],[127.4645,34.79345],[127.46497,34.79206],[127.46449,34.79178],[127.46455,34.79149],[127.46526,34.79127],[127.46552,34.79082],[127.46584,34.79085],[127.46607,34.79144],[127.46694,34.791],[127.46676,34.7903],[127.46585,34.7903],[127.4655,34.78999],[127.46632,34.78887],[127.46772,34.78917],[127.46832,34.78974],[127.46889,34.78955],[127.46991,34.78809],[127.47024,34.78683],[127.47003,34.78667],[127.46927,34.78746],[127.46819,34.78744],[127.4671,34.78687],[127.46696,34.78559],[127.46563,34.78593],[127.46259,34.7886],[127.46276,34.78993],[127.46218,34.79112],[127.46124,34.79117],[127.46086,34.79169],[127.45975,34.79155],[127.45853,34.79011],[127.45942,34.78871],[127.4603,34.78822],[127.46128,34.78648],[127.46145,34.78563],[127.46099,34.78464],[127.46125,34.78394],[127.46101,34.78356],[127.45867,34.78666],[127.45858,34.78762],[127.45937,34.78869],[127.4585,34.79004],[127.45757,34.78994],[127.4557,34.79051],[127.45456,34.79032],[127.45348,34.78989],[127.45255,34.78883],[127.45341,34.78692],[127.45459,34.78607],[127.45488,34.78504],[127.45449,34.78449],[127.45445,34.78345],[127.45304,34.78346],[127.4535,34.78302],[127.45431,34.78285],[127.45447,34.78248],[127.45198,34.78121],[127.45228,34.78038],[127.45335,34.78047],[127.45423,34.7802],[127.45291,34.77882],[127.45193,34.77873],[127.45116,34.77909],[127.45074,34.77971],[127.44948,34.77983],[127.44729,34.7806],[127.44551,34.78006],[127.44555,34.77952],[127.44512,34.77955],[127.44482,34.7791],[127.44312,34.77912],[127.44222,34.77827],[127.44134,34.77807],[127.44215,34.77834],[127.44316,34.77936],[127.44293,34.77974],[127.44018,34.77924],[127.43964,34.77891],[127.43986,34.77934],[127.43893,34.78021],[127.4392,34.78051],[127.4405,34.78077],[127.44137,34.78055],[127.44238,34.78106],[127.44375,34.78075],[127.44425,34.78104],[127.44487,34.78194],[127.44426,34.78229],[127.44395,34.7834],[127.44337,34.78374],[127.44422,34.78547],[127.44488,34.78607],[127.44475,34.78553],[127.4465,34.78519],[127.44922,34.78808],[127.44937,34.79058],[127.44763,34.79174],[127.44732,34.79284],[127.44632,34.79439],[127.44708,34.79474],[127.44715,34.79443],[127.44892,34.79407],[127.44973,34.79483],[127.45002,34.79569],[127.44956,34.7961],[127.44976,34.79722],[127.4488,34.79795],[127.44878,34.79831],[127.44992,34.7985],[127.45034,34.79788],[127.45132,34.79736],[127.45145,34.79696],[127.45072,34.79661],[127.45054,34.79576],[127.45178,34.79466],[127.45172,34.79414],[127.45287,34.79311],[127.45328,34.79201],[127.45474,34.79214],[127.45482,34.7927],[127.45533,34.79316],[127.455,34.794],[127.45575,34.79437],[127.45628,34.79343],[127.45688,34.79353],[127.45763,34.79313],[127.45834,34.79317],[127.45882,34.79266],[127.46004,34.79262],[127.46113,34.79333],[127.46158,34.79468],[127.46139,34.79679],[127.46099,34.79701],[127.46104,34.79752],[127.46043,34.79839],[127.45984,34.79856],[127.45972,34.7989],[127.46043,34.79981],[127.45994,34.80059],[127.46065,34.80153],[127.46025,34.80223],[127.46148,34.80348],[127.46165,34.80392],[127.46133,34.80435],[127.46162,34.80471],[127.46261,34.80524]]],[[[127.45603,34.76766],[127.45436,34.76707],[127.45376,34.76735],[127.45402,34.76942],[127.45462,34.76918],[127.45502,34.76828],[127.45603,34.76766]]],[[[127.44975,34.80846],[127.45049,34.80918],[127.45071,34.81113],[127.45113,34.81154],[127.4518,34.81162],[127.45171,34.8108],[127.45128,34.81063],[127.45042,34.80884],[127.44975,34.80846]]],[[[127.44725,34.79866],[127.44778,34.79825],[127.4484,34.79781],[127.44779,34.7976],[127.44714,34.79801],[127.44725,34.79866]]],[[[127.44807,34.77595],[127.44792,34.77548],[127.4477,34.77545],[127.44745,34.7758],[127.44807,34.77595]]],[[[127.44301,34.8102],[127.44352,34.81068],[127.44406,34.81034],[127.4448,34.80814],[127.44471,34.80757],[127.44367,34.80707],[127.44367,34.80677],[127.44291,34.80728],[127.44107,34.8074],[127.43837,34.80884],[127.43746,34.80794],[127.43705,34.80799],[127.43815,34.80889],[127.4373,34.80925],[127.43624,34.80918],[127.43669,34.81027],[127.4392,34.81128],[127.44049,34.81115],[127.44234,34.81018],[127.44301,34.8102]]],[[[127.43818,34.77457],[127.43914,34.77442],[127.43908,34.77406],[127.43845,34.77416],[127.43818,34.77457]]],[[[127.43198,34.77738],[127.43663,34.77651],[127.43726,34.77536],[127.43511,34.77454],[127.43268,34.77513],[127.43175,34.77561],[127.43143,34.77625],[127.43198,34.77738]]],[[[127.41716,34.78545],[127.41867,34.78499],[127.41935,34.78443],[127.42075,34.78511],[127.42191,34.7846],[127.42224,34.78478],[127.42332,34.78458],[127.42389,34.78423],[127.42367,34.7831],[127.42444,34.78238],[127.42651,34.78307],[127.42663,34.78354],[127.42597,34.78437],[127.42628,34.78492],[127.42609,34.78551],[127.42689,34.78559],[127.42735,34.78491],[127.42965,34.78367],[127.42911,34.783],[127.42901,34.7823],[127.42931,34.78191],[127.42855,34.78155],[127.42751,34.78154],[127.42749,34.78068],[127.42917,34.77999],[127.43045,34.7801],[127.43089,34.77954],[127.42981,34.77932],[127.42919,34.77954],[127.4272,34.7791],[127.42527,34.77951],[127.42437,34.77922],[127.42224,34.78041],[127.4185,34.78118],[127.41787,34.78177],[127.417,34.78101],[127.41735,34.78165],[127.41685,34.78189],[127.41701,34.78216],[127.41753,34.78198],[127.41757,34.78315],[127.418,34.78332],[127.41798,34.78375],[127.41649,34.7841],[127.41643,34.78456],[127.4159,34.78476],[127.41596,34.78575],[127.4152,34.78649],[127.41568,34.78668],[127.41716,34.78545]]],[[[127.42908,34.81341],[127.42901,34.81356],[127.42919,34.81366],[127.42908,34.81341]]],[[[127.17541,34.69212],[127.17556,34.69073],[127.17509,34.69237],[127.17297,34.69251],[127.17255,34.69241],[127.17238,34.69199],[127.1724,34.69246],[127.17161,34.69281],[127.17137,34.6925],[127.17201,34.69186],[127.17131,34.69209],[127.17109,34.69167],[127.17102,34.69209],[127.17054,34.69193],[127.17056,34.69224],[127.16918,34.69253],[127.16723,34.69205],[127.16689,34.69181],[127.16692,34.69135],[127.16592,34.69128],[127.16617,34.69115],[127.16221,34.69174],[127.15818,34.69178],[127.15269,34.69301],[127.15155,34.6929],[127.15138,34.69355],[127.15172,34.69385],[127.1511,34.69361],[127.14956,34.69404],[127.14886,34.69388],[127.14838,34.69331],[127.1472,34.69393],[127.14656,34.69318],[127.14477,34.69346],[127.14424,34.69306],[127.14328,34.69316],[127.14299,34.69213],[127.1433,34.69184],[127.14272,34.69211],[127.1432,34.69332],[127.14233,34.69377],[127.14184,34.69366],[127.14245,34.69391],[127.1423,34.6943],[127.14097,34.69457],[127.14037,34.69578],[127.13941,34.69664],[127.13939,34.69759],[127.13817,34.69865],[127.13727,34.69887],[127.13594,34.70016],[127.13624,34.70051],[127.1353,34.70164],[127.13275,34.7019],[127.12953,34.70287],[127.12971,34.70434],[127.12901,34.70506],[127.12885,34.70687],[127.12825,34.7059],[127.12861,34.7056],[127.12884,34.70421],[127.12835,34.70308],[127.1257,34.7011],[127.12501,34.70103],[127.12605,34.6996],[127.12484,34.70111],[127.12417,34.70145],[127.12271,34.69947],[127.12192,34.69892],[127.12142,34.69901],[127.12123,34.69841],[127.11923,34.69696],[127.11801,34.69553],[127.11891,34.6947],[127.11788,34.69542],[127.11708,34.6946],[127.11696,34.69422],[127.11759,34.69362],[127.1168,34.69423],[127.11478,34.69376],[127.11413,34.69427],[127.11436,34.69343],[127.11301,34.69101],[127.11226,34.68804],[127.11097,34.68649],[127.11019,34.68449],[127.11058,34.68315],[127.11046,34.68216],[127.11155,34.67945],[127.10983,34.68155],[127.10902,34.68149],[127.10959,34.6796],[127.11016,34.67922],[127.11154,34.67902],[127.11011,34.67912],[127.10979,34.67931],[127.10855,34.67897],[127.107,34.67795],[127.10682,34.67678],[127.10288,34.67627],[127.10114,34.67551],[127.1008,34.6759],[127.10086,34.67556],[127.09915,34.67468],[127.09827,34.67348],[127.09836,34.67221],[127.09784,34.67168],[127.09984,34.66949],[127.10033,34.66944],[127.09994,34.66917],[127.09766,34.67161],[127.09536,34.66962],[127.09692,34.66752],[127.09682,34.66721],[127.09512,34.66971],[127.09482,34.66974],[127.0938,34.66879],[127.09451,34.66958],[127.09315,34.66996],[127.08669,34.66926],[127.08622,34.66967],[127.08603,34.66857],[127.08464,34.66819],[127.08408,34.66757],[127.085,34.66708],[127.08658,34.66457],[127.08486,34.66702],[127.08441,34.66722],[127.08299,34.66515],[127.08428,34.66457],[127.08575,34.66467],[127.08427,34.66434],[127.08244,34.66519],[127.08172,34.66488],[127.08077,34.66557],[127.07749,34.66501],[127.07525,34.66421],[127.07489,34.66378],[127.07318,34.66302],[127.07255,34.66237],[127.07274,34.66168],[127.07203,34.66117],[127.07115,34.66134],[127.06973,34.6625],[127.06853,34.66283],[127.06692,34.66379],[127.06621,34.66378],[127.06729,34.66227],[127.06439,34.66045],[127.06176,34.65612],[127.06147,34.65435],[127.0617,34.65327],[127.06309,34.65258],[127.06363,34.654],[127.06346,34.65256],[127.06413,34.65211],[127.06342,34.65141],[127.06236,34.65131],[127.06046,34.65053],[127.06027,34.65005],[127.06129,34.64894],[127.06204,34.64888],[127.06117,34.64881],[127.06006,34.64999],[127.05892,34.64961],[127.05859,34.64902],[127.05698,34.64798],[127.05583,34.6463],[127.05569,34.64527],[127.05466,34.64462],[127.0531,34.64183],[127.05151,34.6408],[127.05127,34.63976],[127.0502,34.63948],[127.04858,34.63815],[127.04811,34.63742],[127.04797,34.63623],[127.04614,34.63497],[127.04564,34.63665],[127.04561,34.63881],[127.04459,34.64123],[127.04513,34.64251],[127.04621,34.64381],[127.04618,34.64447],[127.04535,34.64542],[127.04507,34.64791],[127.044,34.64867],[127.04386,34.64936],[127.0425,34.65088],[127.04241,34.65336],[127.04202,34.65418],[127.04029,34.65598],[127.039,34.65645],[127.03882,34.65695],[127.03743,34.65769],[127.03725,34.6585],[127.03558,34.65966],[127.03391,34.66029],[127.03335,34.66096],[127.03163,34.66198],[127.03022,34.66243],[127.03025,34.66344],[127.02968,34.66479],[127.02976,34.66698],[127.02847,34.66875],[127.02903,34.66993],[127.02748,34.67159],[127.02714,34.6733],[127.02649,34.674],[127.02644,34.67505],[127.02525,34.67546],[127.02385,34.67778],[127.02232,34.67843],[127.02105,34.68058],[127.01915,34.68115],[127.01877,34.6817],[127.01796,34.68145],[127.01593,34.6817],[127.01324,34.68085],[127.01026,34.68139],[127.00766,34.6803],[127.00685,34.68042],[127.00549,34.68004],[127.00484,34.68048],[127.00258,34.67987],[127.00081,34.68053],[126.99881,34.68053],[126.99723,34.68145],[126.9958,34.68174],[126.99414,34.68164],[126.99169,34.68206],[126.98882,34.68312],[126.98783,34.68155],[126.98641,34.68246],[126.9849,34.68231],[126.98364,34.68267],[126.98056,34.68267],[126.97901,34.68307],[126.97851,34.68467],[126.98007,34.68675],[126.98077,34.68723],[126.98048,34.68929],[126.97986,34.69064],[126.9779,34.69265],[126.97747,34.69516],[126.97423,34.69682],[126.97397,34.69736],[126.97493,34.7],[126.97464,34.70182],[126.97416,34.70292],[126.97198,34.70536],[126.97184,34.70805],[126.97317,34.70998],[126.97505,34.71109],[126.97629,34.71039],[126.97981,34.7099],[126.98187,34.71085],[126.98289,34.71168],[126.98594,34.71551],[126.98827,34.71736],[126.98882,34.72071],[126.99093,34.722],[126.99297,34.72405],[126.99406,34.72389],[126.99507,34.72411],[126.99802,34.7253],[126.99966,34.72685],[127.00184,34.7281],[127.0046,34.73038],[127.00586,34.73156],[127.00666,34.73304],[127.00865,34.73483],[127.00971,34.73537],[127.01167,34.73449],[127.01322,34.73445],[127.0135,34.73537],[127.0154,34.73663],[127.0141,34.7378],[127.01502,34.73902],[127.0166,34.74234],[127.01618,34.74285],[127.01639,34.74351],[127.01704,34.74401],[127.01748,34.74542],[127.02045,34.74846],[127.01989,34.74929],[127.01959,34.75063],[127.01745,34.75317],[127.01652,34.75293],[127.0143,34.75442],[127.01622,34.75666],[127.0163,34.75845],[127.01594,34.75876],[127.01565,34.76089],[127.01515,34.76108],[127.01443,34.76087],[127.01429,34.76124],[127.01538,34.76214],[127.01541,34.76251],[127.01353,34.763],[127.01274,34.76364],[127.01388,34.76372],[127.01575,34.76483],[127.01488,34.76468],[127.01372,34.76507],[127.01392,34.76671],[127.01215,34.76908],[127.0123,34.76983],[127.01192,34.77052],[127.0132,34.77152],[127.01443,34.77146],[127.01798,34.77205],[127.01984,34.77188],[127.02375,34.77308],[127.02447,34.77578],[127.02448,34.77751],[127.02393,34.7786],[127.02077,34.77989],[127.02059,34.78036],[127.0184,34.78161],[127.01783,34.78234],[127.01818,34.78362],[127.01781,34.78477],[127.01611,34.7869],[127.01569,34.79021],[127.01577,34.79075],[127.01659,34.79068],[127.0168,34.79116],[127.01705,34.79228],[127.01667,34.79436],[127.0172,34.79459],[127.0181,34.79639],[127.01778,34.79769],[127.01899,34.79843],[127.01901,34.80002],[127.01966,34.80014],[127.01841,34.80107],[127.01948,34.80253],[127.01898,34.80269],[127.02044,34.80541],[127.02204,34.80993],[127.02137,34.8106],[127.02156,34.81155],[127.02083,34.81179],[127.02097,34.81235],[127.02047,34.81287],[127.02248,34.81623],[127.02181,34.81732],[127.02156,34.81876],[127.02144,34.82092],[127.02182,34.82234],[127.024,34.82199],[127.0257,34.82254],[127.02687,34.82256],[127.02734,34.82231],[127.02846,34.82342],[127.02935,34.82377],[127.03065,34.82338],[127.03135,34.82365],[127.03176,34.82559],[127.03097,34.82733],[127.03184,34.82788],[127.03119,34.82889],[127.03117,34.83041],[127.03061,34.83127],[127.0307,34.83271],[127.0313,34.83435],[127.03337,34.83661],[127.03692,34.83752],[127.03745,34.83815],[127.03772,34.8377],[127.04044,34.83847],[127.04377,34.83871],[127.04516,34.8394],[127.04594,34.84047],[127.04892,34.84077],[127.05007,34.84152],[127.05365,34.84249],[127.05447,34.84308],[127.05455,34.84493],[127.05527,34.84613],[127.05859,34.84709],[127.06072,34.84695],[127.06217,34.85],[127.06197,34.85134],[127.06249,34.85228],[127.06269,34.8541],[127.06221,34.85594],[127.06231,34.85893],[127.06323,34.86058],[127.06305,34.86106],[127.06568,34.86311],[127.06583,34.86368],[127.06662,34.86319],[127.06873,34.86378],[127.06965,34.86542],[127.0709,34.86592],[127.07223,34.86732],[127.07552,34.86664],[127.07625,34.86687],[127.07705,34.86798],[127.0785,34.86809],[127.08011,34.86869],[127.08048,34.86913],[127.08257,34.86864],[127.08353,34.86906],[127.08485,34.86911],[127.08623,34.87105],[127.08917,34.87221],[127.08973,34.87317],[127.0899,34.87374],[127.089,34.87614],[127.08817,34.87713],[127.08864,34.8782],[127.08866,34.88036],[127.0866,34.88302],[127.08726,34.88372],[127.08872,34.8843],[127.08885,34.88501],[127.08722,34.88621],[127.0862,34.88659],[127.08602,34.88737],[127.0855,34.88741],[127.08425,34.88898],[127.08298,34.88961],[127.08198,34.89181],[127.08203,34.89254],[127.08486,34.89392],[127.08552,34.89603],[127.0845,34.89871],[127.08341,34.89894],[127.08341,34.89978],[127.0822,34.90127],[127.08154,34.90297],[127.08064,34.9036],[127.08023,34.90443],[127.07999,34.90535],[127.08117,34.90634],[127.08121,34.90725],[127.08223,34.9093],[127.08135,34.91029],[127.0815,34.91074],[127.08074,34.91271],[127.07922,34.91416],[127.08015,34.91473],[127.08056,34.9157],[127.08044,34.91677],[127.08153,34.9186],[127.08136,34.92053],[127.08239,34.92593],[127.0851,34.92656],[127.08699,34.92791],[127.08796,34.93074],[127.08875,34.93194],[127.08893,34.93347],[127.08985,34.93559],[127.09049,34.93635],[127.09154,34.93691],[127.09251,34.93659],[127.09669,34.93631],[127.0974,34.93739],[127.09929,34.93719],[127.10079,34.9377],[127.10154,34.93921],[127.10314,34.93991],[127.1044,34.94118],[127.1059,34.94209],[127.10705,34.94446],[127.10835,34.94415],[127.10942,34.94436],[127.10998,34.94643],[127.11158,34.94705],[127.11284,34.94862],[127.11605,34.9508],[127.11693,34.95172],[127.11623,34.95278],[127.11639,34.95338],[127.11565,34.95403],[127.11438,34.95443],[127.11457,34.9575],[127.11655,34.95788],[127.12231,34.96057],[127.12259,34.96194],[127.12326,34.96287],[127.12581,34.96393],[127.1259,34.96471],[127.12555,34.96539],[127.12583,34.96568],[127.12592,34.9676],[127.12697,34.96772],[127.12786,34.96846],[127.12893,34.96781],[127.13143,34.96726],[127.1347,34.96506],[127.13616,34.96552],[127.13933,34.96536],[127.13945,34.96493],[127.14061,34.96406],[127.14135,34.96434],[127.14215,34.96382],[127.14453,34.96325],[127.14614,34.96433],[127.14736,34.96421],[127.14814,34.96467],[127.15198,34.96478],[127.15371,34.96523],[127.1553,34.96654],[127.15559,34.96756],[127.15888,34.96915],[127.16218,34.96892],[127.16737,34.97104],[127.16826,34.97169],[127.16864,34.97275],[127.17005,34.97225],[127.17118,34.9729],[127.17227,34.97304],[127.17269,34.97339],[127.17266,34.97433],[127.17321,34.97503],[127.17307,34.9758],[127.17386,34.977],[127.17487,34.97724],[127.17526,34.97763],[127.17563,34.97746],[127.17588,34.97787],[127.17757,34.97649],[127.17718,34.97624],[127.17956,34.97385],[127.18083,34.97181],[127.1835,34.96914],[127.18338,34.96839],[127.18496,34.96803],[127.18661,34.96826],[127.18775,34.96782],[127.18905,34.96786],[127.19047,34.96881],[127.19111,34.97112],[127.19068,34.97258],[127.19057,34.97581],[127.19092,34.97879],[127.18891,34.97956],[127.18876,34.98098],[127.18922,34.98159],[127.18982,34.98173],[127.19011,34.98258],[127.19173,34.98385],[127.19287,34.98529],[127.19626,34.98707],[127.19821,34.98752],[127.19812,34.98724],[127.19995,34.98649],[127.20136,34.98455],[127.2039,34.97664],[127.20498,34.97501],[127.20562,34.97437],[127.20676,34.97419],[127.20904,34.97302],[127.20901,34.97142],[127.20818,34.97093],[127.20625,34.97054],[127.20549,34.96882],[127.20369,34.96746],[127.20521,34.96566],[127.20607,34.96505],[127.20718,34.96481],[127.20787,34.96404],[127.20905,34.96122],[127.20986,34.95993],[127.21093,34.95917],[127.21062,34.95821],[127.2125,34.95834],[127.21361,34.95774],[127.21485,34.95788],[127.21652,34.95694],[127.21904,34.95722],[127.21963,34.95707],[127.21978,34.9565],[127.22124,34.9554],[127.22201,34.95186],[127.22265,34.9511],[127.22268,34.95047],[127.22387,34.94928],[127.22479,34.9472],[127.22439,34.94626],[127.2247,34.94508],[127.22393,34.94429],[127.22357,34.94283],[127.2238,34.93991],[127.22649,34.93787],[127.22872,34.93714],[127.22902,34.93675],[127.22976,34.93649],[127.23041,34.93676],[127.23123,34.93656],[127.23186,34.93674],[127.23232,34.93644],[127.2327,34.93554],[127.23234,34.93437],[127.23375,34.93357],[127.23463,34.93229],[127.23568,34.92947],[127.23723,34.928],[127.23694,34.92714],[127.23644,34.92677],[127.23657,34.92551],[127.23827,34.92408],[127.23906,34.92249],[127.24044,34.92113],[127.2393,34.92103],[127.23725,34.9199],[127.23466,34.92009],[127.23336,34.91952],[127.23202,34.91764],[127.23224,34.91644],[127.23286,34.91615],[127.23225,34.91563],[127.23128,34.91231],[127.23019,34.91129],[127.23035,34.91043],[127.22938,34.90924],[127.22944,34.90798],[127.22995,34.90752],[127.22981,34.90652],[127.22777,34.90489],[127.22862,34.90349],[127.22857,34.9015],[127.22776,34.90147],[127.22613,34.90031],[127.22542,34.89934],[127.2249,34.89928],[127.22637,34.89795],[127.22679,34.896],[127.2274,34.89498],[127.22915,34.89548],[127.23229,34.89484],[127.23302,34.89432],[127.23458,34.89408],[127.2352,34.89428],[127.23612,34.89395],[127.23739,34.89299],[127.23749,34.89235],[127.23962,34.88956],[127.24084,34.88887],[127.24122,34.8876],[127.24231,34.88739],[127.24281,34.88667],[127.24619,34.88552],[127.24687,34.88572],[127.24772,34.88654],[127.24951,34.88586],[127.25141,34.88581],[127.25201,34.88446],[127.25251,34.88413],[127.2532,34.88417],[127.2562,34.88533],[127.25714,34.88526],[127.25734,34.88565],[127.2583,34.88586],[127.25829,34.88681],[127.25945,34.88836],[127.25961,34.88961],[127.26152,34.89069],[127.26261,34.89214],[127.26371,34.89045],[127.2649,34.88935],[127.2679,34.88967],[127.27089,34.8908],[127.27207,34.89024],[127.27389,34.89007],[127.27582,34.89065],[127.27756,34.89229],[127.28025,34.8931],[127.28288,34.89728],[127.28451,34.89783],[127.28632,34.89766],[127.28657,34.89837],[127.28768,34.89928],[127.29072,34.90035],[127.29051,34.90063],[127.29193,34.90169],[127.29291,34.90083],[127.29482,34.90054],[127.29964,34.9018],[127.30254,34.90038],[127.30452,34.9024],[127.30651,34.90304],[127.3089,34.90021],[127.31353,34.89704],[127.3152,34.89482],[127.31598,34.89485],[127.31648,34.89452],[127.31667,34.89291],[127.31637,34.89136],[127.31806,34.89021],[127.31911,34.89004],[127.32139,34.88847],[127.32196,34.88842],[127.32365,34.8874],[127.32337,34.88632],[127.32392,34.88576],[127.32473,34.88378],[127.32482,34.88252],[127.32617,34.88384],[127.32819,34.8847],[127.32808,34.88583],[127.33012,34.88707],[127.33103,34.88818],[127.33336,34.88849],[127.33586,34.88983],[127.33697,34.88641],[127.33586,34.8848],[127.33703,34.88388],[127.33644,34.88294],[127.3365,34.88244],[127.33774,34.88024],[127.33907,34.87955],[127.33918,34.87801],[127.34035,34.87763],[127.33982,34.87651],[127.33971,34.87512],[127.33901,34.87406],[127.33892,34.87189],[127.33958,34.87039],[127.33746,34.86857],[127.33738,34.86783],[127.33894,34.86818],[127.34195,34.86724],[127.3426,34.86632],[127.3432,34.86653],[127.34415,34.86594],[127.34512,34.86639],[127.3458,34.8663],[127.34721,34.86709],[127.34941,34.86725],[127.35047,34.8678],[127.35291,34.86694],[127.35411,34.86596],[127.35412,34.86464],[127.35636,34.86424],[127.35803,34.86435],[127.36085,34.86598],[127.36211,34.8673],[127.36385,34.86773],[127.36678,34.86768],[127.36696,34.8652],[127.36751,34.86428],[127.36727,34.8624],[127.36835,34.86201],[127.36979,34.86035],[127.37181,34.85959],[127.3728,34.85817],[127.37432,34.85699],[127.37515,34.8557],[127.37661,34.85537],[127.37898,34.85243],[127.37868,34.85137],[127.37749,34.85056],[127.37727,34.84983],[127.37944,34.84739],[127.37886,34.8463],[127.37875,34.84453],[127.38029,34.8427],[127.38112,34.84297],[127.38256,34.84174],[127.38338,34.84148],[127.38718,34.84158],[127.38898,34.84105],[127.38962,34.84045],[127.39118,34.84046],[127.39203,34.83979],[127.39446,34.84035],[127.39722,34.84229],[127.39882,34.84229],[127.39962,34.84305],[127.39935,34.84319],[127.39942,34.8442],[127.40147,34.84324],[127.40177,34.84275],[127.40556,34.84204],[127.40616,34.8411],[127.40844,34.84001],[127.40913,34.84008],[127.41028,34.83952],[127.41051,34.8387],[127.41162,34.83851],[127.41185,34.83759],[127.41329,34.83677],[127.41406,34.8356],[127.41591,34.8343],[127.41645,34.8323],[127.41614,34.83157],[127.41639,34.83099],[127.41692,34.83102],[127.41756,34.8299],[127.41723,34.82957],[127.4175,34.82892],[127.418,34.82896],[127.41739,34.82864],[127.4126,34.82775],[127.41104,34.82759],[127.41073,34.82785],[127.40712,34.82721],[127.4071,34.82686],[127.40469,34.82651],[127.40083,34.8251],[127.40046,34.8255],[127.39931,34.8252],[127.39887,34.82616],[127.39757,34.82516],[127.396,34.82521],[127.39552,34.82607],[127.39361,34.82717],[127.39029,34.82776],[127.38994,34.82804],[127.39034,34.82841],[127.38985,34.82905],[127.38922,34.82875],[127.38939,34.82829],[127.38903,34.82829],[127.38902,34.82865],[127.38865,34.82842],[127.38973,34.82915],[127.38944,34.83006],[127.38759,34.83214],[127.3868,34.83388],[127.38435,34.83573],[127.38385,34.83585],[127.38368,34.83558],[127.38358,34.83602],[127.38175,34.83672],[127.38031,34.83691],[127.38015,34.8377],[127.37926,34.83667],[127.37298,34.83621],[127.36925,34.83522],[127.36775,34.83516],[127.35834,34.8379],[127.35687,34.83871],[127.35501,34.84048],[127.35352,34.83944],[127.35367,34.83799],[127.35418,34.83691],[127.35699,34.83586],[127.35784,34.83523],[127.35961,34.83531],[127.36182,34.83383],[127.36217,34.83331],[127.36673,34.8311],[127.37051,34.83057],[127.37085,34.83009],[127.37236,34.8297],[127.37404,34.82965],[127.37712,34.82799],[127.38224,34.82671],[127.383,34.82673],[127.38499,34.82434],[127.38496,34.82355],[127.38546,34.8225],[127.38629,34.82253],[127.39073,34.81774],[127.39205,34.81455],[127.39429,34.81454],[127.39558,34.81406],[127.39757,34.81646],[127.39841,34.81675],[127.39976,34.81662],[127.40018,34.81708],[127.40068,34.81696],[127.40059,34.81665],[127.40427,34.81506],[127.40515,34.81513],[127.40597,34.81471],[127.40707,34.81469],[127.4076,34.81524],[127.40981,34.81568],[127.41051,34.81557],[127.41069,34.81521],[127.4108,34.81551],[127.41183,34.81553],[127.41191,34.81527],[127.41087,34.81501],[127.41138,34.81419],[127.41232,34.81459],[127.41248,34.81521],[127.41242,34.81453],[127.41145,34.81412],[127.41142,34.81366],[127.41197,34.81311],[127.41263,34.81294],[127.41396,34.81325],[127.41523,34.81256],[127.4159,34.81295],[127.41585,34.81255],[127.41709,34.81225],[127.41817,34.81251],[127.41795,34.81185],[127.41853,34.81128],[127.42027,34.81174],[127.4211,34.81252],[127.42099,34.81287],[127.42139,34.8126],[127.42258,34.81286],[127.42289,34.81253],[127.42318,34.8127],[127.42383,34.81447],[127.4249,34.81589],[127.4248,34.81637],[127.42584,34.8161],[127.42645,34.81551],[127.42616,34.81517],[127.42669,34.81407],[127.42739,34.81382],[127.42738,34.81434],[127.42879,34.81354],[127.42711,34.81292],[127.4269,34.8114],[127.42725,34.81125],[127.42627,34.81109],[127.42637,34.81125],[127.42557,34.81137],[127.42364,34.81102],[127.42247,34.80975],[127.42246,34.80889],[127.4204,34.80892],[127.4193,34.80944],[127.41798,34.80937],[127.41777,34.808],[127.41606,34.80717],[127.41516,34.80514],[127.41377,34.80421],[127.41375,34.80364],[127.4128,34.80257],[127.41215,34.80253],[127.4117,34.80208],[127.41057,34.80227],[127.41038,34.80187],[127.40792,34.80163],[127.40679,34.8022],[127.40655,34.80264],[127.40581,34.80166],[127.40276,34.79991],[127.40254,34.79931],[127.40323,34.79878],[127.40282,34.79822],[127.40144,34.79814],[127.40066,34.79864],[127.39678,34.79725],[127.3963,34.79733],[127.39598,34.79661],[127.39515,34.79672],[127.39447,34.79561],[127.3944,34.79461],[127.39483,34.79419],[127.3964,34.79378],[127.39524,34.79208],[127.39538,34.7916],[127.39664,34.7917],[127.39531,34.79151],[127.3948,34.79065],[127.39538,34.7901],[127.39643,34.78972],[127.39682,34.78991],[127.39707,34.7897],[127.39746,34.7893],[127.3973,34.78913],[127.3968,34.78982],[127.39629,34.78958],[127.39665,34.78902],[127.39708,34.78903],[127.39665,34.78887],[127.39604,34.7898],[127.39544,34.79001],[127.39494,34.79031],[127.39474,34.79058],[127.39476,34.79104],[127.39373,34.79116],[127.39301,34.79087],[127.3923,34.79182],[127.39078,34.79126],[127.39117,34.7902],[127.39067,34.78948],[127.38976,34.78992],[127.38812,34.79],[127.38779,34.7904],[127.38724,34.79049],[127.38703,34.79009],[127.38588,34.7905],[127.38474,34.79179],[127.38596,34.79236],[127.38605,34.79354],[127.38642,34.79403],[127.38624,34.79504],[127.38646,34.79554],[127.38685,34.79564],[127.38682,34.79691],[127.38656,34.79758],[127.38527,34.79815],[127.3847,34.79942],[127.38384,34.80025],[127.38356,34.80178],[127.38388,34.80267],[127.38132,34.80321],[127.38099,34.80391],[127.38117,34.80455],[127.38055,34.80558],[127.37959,34.80528],[127.37701,34.80645],[127.37643,34.80635],[127.37181,34.80753],[127.36887,34.8113],[127.36811,34.81176],[127.36741,34.81295],[127.36616,34.81403],[127.36601,34.81503],[127.36377,34.81686],[127.36286,34.81714],[127.36005,34.81581],[127.35922,34.81615],[127.35739,34.81627],[127.35679,34.81686],[127.35669,34.81752],[127.35484,34.81884],[127.3542,34.82293],[127.35294,34.82417],[127.35256,34.82538],[127.34954,34.82547],[127.34836,34.82513],[127.34711,34.82517],[127.34652,34.8262],[127.34549,34.82619],[127.34509,34.8268],[127.34359,34.82719],[127.34298,34.82772],[127.34056,34.82774],[127.33794,34.82446],[127.33579,34.82453],[127.33265,34.82385],[127.33078,34.82405],[127.32974,34.82373],[127.32766,34.8223],[127.3251,34.81942],[127.32379,34.81664],[127.32035,34.81342],[127.31862,34.81081],[127.31563,34.81144],[127.31424,34.81131],[127.31254,34.812],[127.31014,34.81061],[127.30895,34.81047],[127.30686,34.81123],[127.3034,34.80941],[127.2986,34.80946],[127.29779,34.80914],[127.29589,34.81003],[127.29121,34.81071],[127.29102,34.81025],[127.28952,34.80941],[127.28905,34.80777],[127.28791,34.80763],[127.28747,34.80715],[127.28662,34.80717],[127.28629,34.80624],[127.28631,34.804],[127.28521,34.80328],[127.28463,34.8023],[127.28464,34.80146],[127.28395,34.80081],[127.28371,34.79938],[127.28109,34.79829],[127.28044,34.79667],[127.28035,34.79461],[127.27673,34.79261],[127.27484,34.79226],[127.27418,34.79093],[127.27199,34.79062],[127.27013,34.78907],[127.26998,34.78844],[127.26783,34.78781],[127.26626,34.78653],[127.26214,34.78718],[127.26194,34.78751],[127.26108,34.7876],[127.26103,34.78801],[127.26002,34.78798],[127.25974,34.78851],[127.25891,34.78853],[127.25881,34.78891],[127.25775,34.78889],[127.25709,34.78805],[127.25481,34.78917],[127.2485,34.78971],[127.24804,34.78815],[127.24737,34.77813],[127.24617,34.77687],[127.2425,34.77458],[127.23998,34.7704],[127.23959,34.76484],[127.24083,34.76484],[127.24071,34.75981],[127.23116,34.75803],[127.23106,34.75761],[127.23141,34.75725],[127.23098,34.7575],[127.23081,34.75796],[127.22931,34.75759],[127.22944,34.75732],[127.20965,34.73805],[127.2114,34.73733],[127.2093,34.73791],[127.20899,34.73759],[127.20972,34.73696],[127.20978,34.73638],[127.21019,34.73653],[127.20996,34.736],[127.21121,34.73626],[127.21136,34.73659],[127.21132,34.73621],[127.21013,34.73564],[127.21133,34.73262],[127.21089,34.72915],[127.21238,34.72817],[127.21281,34.72819],[127.21234,34.72801],[127.21082,34.72908],[127.21022,34.7289],[127.2085,34.7247],[127.20675,34.72335],[127.20609,34.72241],[127.20563,34.72063],[127.20621,34.71949],[127.20591,34.71865],[127.20484,34.71745],[127.20324,34.71638],[127.20246,34.7151],[127.20178,34.7147],[127.20232,34.71409],[127.20165,34.7146],[127.20048,34.7141],[127.20051,34.71272],[127.1997,34.71265],[127.19938,34.71196],[127.2003,34.71074],[127.19951,34.71057],[127.19942,34.71088],[127.19902,34.71095],[127.19824,34.71053],[127.19794,34.70888],[127.19812,34.70736],[127.19769,34.70627],[127.19949,34.70481],[127.1988,34.70356],[127.19823,34.7034],[127.19746,34.70356],[127.1987,34.70363],[127.1993,34.70469],[127.19754,34.70623],[127.1934,34.70544],[127.19255,34.70462],[127.19183,34.70449],[127.19046,34.70363],[127.19034,34.70264],[127.1892,34.70071],[127.18937,34.6995],[127.18839,34.69869],[127.18834,34.69792],[127.18734,34.69698],[127.1871,34.69618],[127.1878,34.69494],[127.18802,34.69494],[127.18895,34.69462],[127.18894,34.69454],[127.188,34.69491],[127.18777,34.69476],[127.18684,34.69618],[127.18498,34.69536],[127.18505,34.69506],[127.18472,34.69569],[127.18412,34.69557],[127.18474,34.69449],[127.18707,34.69442],[127.18449,34.69444],[127.18266,34.69406],[127.18173,34.69353],[127.18048,34.69338],[127.17986,34.69287],[127.18018,34.69246],[127.1785,34.69223],[127.17785,34.6917],[127.17541,34.69212]]],[[[127.42779,34.80276],[127.42761,34.8033],[127.42793,34.80349],[127.42839,34.80305],[127.42779,34.80276]]],[[[127.42434,34.79857],[127.42418,34.79872],[127.42438,34.79878],[127.42434,34.79857]]],[[[127.42378,34.79749],[127.42358,34.79704],[127.42282,34.79731],[127.42289,34.79764],[127.42348,34.79786],[127.42378,34.79749]]],[[[127.42258,34.80206],[127.42254,34.80215],[127.4226,34.80214],[127.42258,34.80206]]],[[[127.4216,34.79842],[127.42141,34.79867],[127.42178,34.79896],[127.42232,34.79881],[127.42212,34.79847],[127.4216,34.79842]]],[[[127.42185,34.80179],[127.4221,34.80155],[127.42167,34.8017],[127.42185,34.80179]]],[[[127.42097,34.79011],[127.42034,34.79003],[127.41994,34.79044],[127.42082,34.79059],[127.42097,34.79011]]],[[[127.41652,34.78124],[127.41656,34.78135],[127.4166,34.78127],[127.41652,34.78124]]],[[[127.41575,34.78173],[127.41631,34.78165],[127.41654,34.78139],[127.41575,34.78173]]],[[[127.41639,34.78114],[127.41637,34.78127],[127.41641,34.78115],[127.41639,34.78114]]],[[[127.40898,34.78665],[127.40987,34.78648],[127.40988,34.78616],[127.40922,34.78622],[127.40898,34.78665]]],[[[127.4036,34.78148],[127.40299,34.78132],[127.40279,34.78181],[127.4036,34.78148]]],[[[127.14814,34.69317],[127.14821,34.69284],[127.14784,34.693],[127.14814,34.69317]]],[[[127.09698,34.66666],[127.1,34.66876],[127.10029,34.66881],[127.09698,34.66666]]]]},"properties":{"id":"SGG:12750","layer":"L3","admin_code":"12750","name":"전남광주통합특별시 보성군","sido":"전남광주통합특별시","sgg":"보성군","provisional":false,"source":"통계청 행정동 경계(BND_ADM_DONG_PG, 2025-06-30) 를 시군구로 합침","source_kind":"derived","derived_from":"행정동 경계 union · 20 m 단순화"}}]}