{"type":"FeatureCollection","features":[{"type":"Feature","id":"SGG:44200","geometry":{"type":"MultiPolygon","coordinates":[[[[127.04911,36.70331],[127.04853,36.70153],[127.04604,36.69931],[127.04536,36.69805],[127.04318,36.69607],[127.0415,36.69545],[127.04084,36.69449],[127.03749,36.69242],[127.02947,36.6895],[127.0266,36.68664],[127.02545,36.68451],[127.02217,36.68072],[127.02191,36.67868],[127.01954,36.67717],[127.01995,36.67528],[127.01831,36.67482],[127.01565,36.67243],[127.01525,36.67069],[127.01572,36.66867],[127.01502,36.66745],[127.01542,36.66646],[127.01315,36.66403],[127.01192,36.66344],[127.01117,36.66207],[127.01116,36.66137],[127.01162,36.66082],[127.0107,36.66043],[127.00846,36.65824],[127.00836,36.65727],[127.00918,36.65714],[127.00939,36.65628],[127.00865,36.65561],[127.00751,36.65518],[127.00724,36.6542],[127.00621,36.65287],[127.00512,36.65246],[127.00372,36.65262],[127.00353,36.65195],[127.00272,36.65125],[127.00173,36.65158],[127.0009,36.65147],[126.99975,36.65211],[126.99839,36.65185],[126.99813,36.65149],[126.99553,36.65085],[126.99323,36.64867],[126.99192,36.64861],[126.99026,36.64902],[126.98945,36.64872],[126.9876,36.65009],[126.98728,36.65083],[126.98524,36.65096],[126.98473,36.65177],[126.98288,36.65192],[126.98251,36.65173],[126.9818,36.65253],[126.9781,36.65363],[126.97817,36.65411],[126.97735,36.65588],[126.97811,36.65745],[126.97784,36.65937],[126.97861,36.66091],[126.97697,36.66251],[126.97695,36.66313],[126.97565,36.66374],[126.97495,36.66468],[126.97517,36.66523],[126.97451,36.6666],[126.97222,36.66852],[126.97139,36.67012],[126.97048,36.67073],[126.96999,36.67273],[126.96881,36.67396],[126.96852,36.67659],[126.96876,36.67709],[126.96767,36.67925],[126.96815,36.68105],[126.96768,36.68186],[126.96793,36.68276],[126.96757,36.68341],[126.96782,36.68659],[126.97234,36.69086],[126.96954,36.69397],[126.96484,36.69605],[126.96132,36.69673],[126.96043,36.69759],[126.95902,36.6973],[126.95703,36.69802],[126.9562,36.69873],[126.95472,36.6989],[126.95242,36.70253],[126.9513,36.70322],[126.95027,36.70337],[126.94998,36.70377],[126.94644,36.70273],[126.94485,36.70312],[126.94378,36.70295],[126.94245,36.70164],[126.94122,36.70145],[126.93993,36.70277],[126.93872,36.70343],[126.93356,36.70209],[126.93325,36.70276],[126.93101,36.70338],[126.93052,36.70382],[126.92979,36.70387],[126.92893,36.7045],[126.92839,36.70454],[126.9248,36.70158],[126.92199,36.70075],[126.92052,36.70144],[126.91967,36.70243],[126.9169,36.70327],[126.9157,36.70339],[126.91464,36.70314],[126.91329,36.70387],[126.91163,36.70368],[126.91107,36.70388],[126.90972,36.70247],[126.90786,36.70221],[126.9075,36.70178],[126.90678,36.70161],[126.90219,36.70227],[126.90198,36.70452],[126.9025,36.70479],[126.90286,36.70654],[126.90318,36.70679],[126.90319,36.70788],[126.90446,36.70936],[126.90543,36.70959],[126.90334,36.7115],[126.90266,36.71164],[126.90304,36.71337],[126.90292,36.71473],[126.90234,36.71506],[126.90106,36.71684],[126.89957,36.71674],[126.89904,36.71703],[126.89888,36.71866],[126.89947,36.7194],[126.89931,36.72026],[126.89834,36.72159],[126.89821,36.72252],[126.89872,36.72301],[126.89794,36.72357],[126.8962,36.72395],[126.89552,36.72447],[126.89437,36.72451],[126.89311,36.72399],[126.89207,36.72448],[126.88867,36.72776],[126.88854,36.72948],[126.88663,36.73144],[126.8848,36.73137],[126.87976,36.7296],[126.87647,36.72904],[126.87497,36.72818],[126.874,36.72874],[126.87151,36.72798],[126.87012,36.72873],[126.86681,36.72945],[126.86502,36.73199],[126.86371,36.73207],[126.8629,36.73403],[126.86315,36.73577],[126.86265,36.73654],[126.86003,36.73792],[126.86001,36.73862],[126.85929,36.73944],[126.85931,36.74119],[126.85877,36.74213],[126.85742,36.74297],[126.85678,36.7441],[126.85736,36.7445],[126.85873,36.7446],[126.85826,36.74597],[126.85903,36.74659],[126.85898,36.74704],[126.85702,36.74801],[126.85638,36.74804],[126.85579,36.74863],[126.85418,36.74805],[126.85327,36.74818],[126.85277,36.74876],[126.85198,36.74857],[126.85092,36.74917],[126.85004,36.74906],[126.848,36.75042],[126.84795,36.7525],[126.84723,36.75325],[126.84592,36.75347],[126.84402,36.75296],[126.84186,36.75166],[126.84105,36.75207],[126.84118,36.75228],[126.83899,36.75303],[126.83842,36.75353],[126.83795,36.75395],[126.83723,36.75692],[126.83798,36.76063],[126.83625,36.76002],[126.83431,36.76022],[126.8328,36.76068],[126.83087,36.76208],[126.83218,36.76215],[126.83111,36.76445],[126.83094,36.7664],[126.83116,36.76625],[126.8312,36.76792],[126.8321,36.77016],[126.83092,36.77108],[126.83052,36.77099],[126.82956,36.77141],[126.82909,36.77239],[126.82969,36.77461],[126.83056,36.77513],[126.831,36.77591],[126.83222,36.77603],[126.83331,36.78373],[126.83544,36.7864],[126.83678,36.7873],[126.8398,36.78838],[126.84271,36.78884],[126.84776,36.78898],[126.85336,36.78863],[126.85649,36.78944],[126.85873,36.79206],[126.85906,36.79404],[126.8579,36.80056],[126.85029,36.81201],[126.84826,36.81691],[126.84604,36.81958],[126.8438,36.82144],[126.84366,36.82251],[126.83725,36.83033],[126.83691,36.83123],[126.83655,36.84231],[126.83854,36.85304],[126.83901,36.85393],[126.83889,36.8547],[126.83969,36.85609],[126.83938,36.85615],[126.83928,36.85685],[126.84315,36.8776],[126.84492,36.88434],[126.84783,36.88361],[126.84909,36.88357],[126.85288,36.88256],[126.8531,36.88228],[126.86278,36.88001],[126.86216,36.88094],[126.86238,36.8811],[126.86341,36.88015],[126.86538,36.88135],[126.86915,36.88279],[126.88155,36.88632],[126.88118,36.88743],[126.88166,36.88632],[126.88262,36.88679],[126.88407,36.887],[126.90357,36.88811],[126.90589,36.88869],[126.90724,36.88948],[126.90717,36.88982],[126.90766,36.8897],[126.91005,36.89116],[126.91126,36.89287],[126.91139,36.89362],[126.911,36.89376],[126.91132,36.89396],[126.90961,36.90159],[126.91032,36.90168],[126.91674,36.90621],[126.93963,36.91733],[126.9542,36.92057],[126.96524,36.92383],[126.97375,36.92586],[126.97978,36.92821],[126.98555,36.93249],[126.99153,36.93351],[126.99312,36.93456],[126.99518,36.93536],[126.99821,36.93472],[126.99969,36.93378],[127.00079,36.9336],[127.00263,36.93363],[127.00372,36.93516],[127.00455,36.93508],[127.00641,36.93415],[127.00738,36.93417],[127.00711,36.93557],[127.0098,36.93591],[127.01058,36.93578],[127.01111,36.93454],[127.01176,36.93419],[127.01355,36.93461],[127.01502,36.93542],[127.01557,36.93539],[127.01911,36.93359],[127.02083,36.9346],[127.02132,36.93362],[127.02085,36.93235],[127.02099,36.93162],[127.02179,36.93077],[127.02412,36.93036],[127.0258,36.92875],[127.0271,36.92892],[127.0282,36.92854],[127.0298,36.92889],[127.03041,36.92826],[127.03104,36.92809],[127.03345,36.92873],[127.03389,36.92942],[127.03474,36.92973],[127.03468,36.93047],[127.03633,36.93082],[127.03652,36.9315],[127.03738,36.93233],[127.04134,36.93255],[127.04375,36.93373],[127.04593,36.93321],[127.04758,36.93322],[127.04892,36.93399],[127.04951,36.93385],[127.05,36.93431],[127.05278,36.93527],[127.05384,36.93694],[127.05437,36.93704],[127.05471,36.93758],[127.05606,36.93748],[127.05687,36.93695],[127.0585,36.9374],[127.05939,36.9382],[127.05931,36.93908],[127.06237,36.93974],[127.06549,36.94193],[127.06796,36.94216],[127.06852,36.94168],[127.06836,36.94026],[127.06863,36.93997],[127.06981,36.93996],[127.07155,36.94068],[127.07277,36.94056],[127.07371,36.93992],[127.07359,36.93896],[127.07456,36.93803],[127.07473,36.93593],[127.077,36.9349],[127.07812,36.9339],[127.0794,36.93374],[127.07984,36.93304],[127.07967,36.93258],[127.08037,36.93201],[127.07999,36.93134],[127.08037,36.93025],[127.08236,36.92783],[127.08463,36.92546],[127.08588,36.92504],[127.08605,36.92463],[127.0875,36.92427],[127.08785,36.92354],[127.08765,36.9227],[127.08939,36.92069],[127.08964,36.91988],[127.08898,36.91848],[127.09105,36.91733],[127.09203,36.91478],[127.09311,36.91372],[127.09374,36.91363],[127.09393,36.91309],[127.09408,36.91111],[127.09335,36.91038],[127.09339,36.90919],[127.09274,36.90825],[127.09285,36.90872],[127.09095,36.90875],[127.08749,36.90735],[127.08606,36.90464],[127.0848,36.90404],[127.08464,36.9034],[127.08474,36.9019],[127.08607,36.9023],[127.08653,36.90214],[127.08718,36.90128],[127.08817,36.90093],[127.08942,36.89984],[127.09174,36.89431],[127.09295,36.89361],[127.09198,36.8932],[127.09191,36.89237],[127.09045,36.89104],[127.08882,36.89059],[127.08832,36.89002],[127.08754,36.88977],[127.08815,36.88972],[127.08857,36.88744],[127.09039,36.88545],[127.09104,36.88226],[127.09017,36.8822],[127.08984,36.8813],[127.08877,36.88066],[127.08877,36.8797],[127.08791,36.87928],[127.088,36.87812],[127.08706,36.87755],[127.08631,36.87584],[127.0876,36.87465],[127.08719,36.87404],[127.08796,36.87191],[127.08771,36.87069],[127.08871,36.86752],[127.08869,36.86604],[127.08785,36.86458],[127.08766,36.86326],[127.08722,36.86299],[127.08742,36.86186],[127.08853,36.8619],[127.08913,36.86126],[127.09097,36.86088],[127.09357,36.86189],[127.09627,36.86175],[127.09664,36.86215],[127.0992,36.86206],[127.09943,36.86103],[127.10275,36.86152],[127.10338,36.86088],[127.10457,36.86107],[127.10561,36.85992],[127.10645,36.86024],[127.10718,36.86016],[127.10718,36.85953],[127.10985,36.85718],[127.10964,36.85677],[127.11049,36.85498],[127.11018,36.85357],[127.1077,36.85116],[127.10745,36.84906],[127.10532,36.84609],[127.10377,36.84454],[127.10274,36.84467],[127.10189,36.8443],[127.10195,36.84251],[127.09978,36.84173],[127.09816,36.84017],[127.09825,36.8379],[127.09989,36.83737],[127.10114,36.83793],[127.10275,36.83745],[127.10396,36.83756],[127.10437,36.83831],[127.10485,36.83832],[127.10532,36.83786],[127.10562,36.83649],[127.10308,36.83395],[127.1025,36.83239],[127.10087,36.83165],[127.10088,36.83064],[127.10173,36.82862],[127.1006,36.82727],[127.10215,36.8252],[127.10204,36.82438],[127.10167,36.82375],[127.1015,36.82195],[127.10031,36.8195],[127.09866,36.81696],[127.09693,36.81569],[127.09659,36.81496],[127.09664,36.81447],[127.09801,36.81289],[127.09853,36.81054],[127.09781,36.80867],[127.09782,36.80602],[127.09619,36.80499],[127.09673,36.80131],[127.09627,36.80002],[127.09581,36.7999],[127.0961,36.79926],[127.09417,36.79726],[127.09438,36.79584],[127.09581,36.79459],[127.09687,36.79489],[127.09771,36.79447],[127.09728,36.79377],[127.098,36.79244],[127.09973,36.79273],[127.09893,36.79425],[127.10049,36.7945],[127.10052,36.79513],[127.10124,36.79584],[127.1012,36.79715],[127.10228,36.7979],[127.10286,36.79879],[127.1038,36.79911],[127.10375,36.79953],[127.10542,36.79976],[127.10616,36.79903],[127.10672,36.79698],[127.10826,36.79728],[127.10934,36.79791],[127.11104,36.79728],[127.1108,36.79662],[127.11103,36.79527],[127.11031,36.79301],[127.11123,36.79271],[127.11087,36.79112],[127.11144,36.79004],[127.11234,36.78939],[127.11306,36.78745],[127.11368,36.78713],[127.11323,36.78635],[127.11333,36.78484],[127.11283,36.78478],[127.11249,36.78374],[127.11295,36.78366],[127.11264,36.78272],[127.11439,36.78116],[127.11673,36.78084],[127.11759,36.78046],[127.11796,36.77983],[127.11731,36.77807],[127.11822,36.7777],[127.11841,36.777],[127.11908,36.77636],[127.11938,36.77493],[127.11877,36.77413],[127.11866,36.77319],[127.11902,36.77234],[127.11971,36.77186],[127.1194,36.76881],[127.11836,36.76797],[127.11931,36.767],[127.11933,36.76649],[127.11799,36.76356],[127.11653,36.76288],[127.11431,36.76299],[127.11344,36.762],[127.1126,36.76201],[127.11178,36.76101],[127.11014,36.76054],[127.10963,36.75945],[127.10857,36.75904],[127.106,36.7599],[127.10542,36.75845],[127.10345,36.75898],[127.10221,36.75871],[127.09835,36.76021],[127.09552,36.7607],[127.09518,36.76013],[127.09476,36.76012],[127.09289,36.76105],[127.09208,36.76103],[127.0918,36.75992],[127.09213,36.75927],[127.09267,36.75906],[127.09573,36.75917],[127.09632,36.75631],[127.09839,36.75563],[127.09708,36.75342],[127.09648,36.75308],[127.09673,36.75244],[127.09611,36.75144],[127.09515,36.75113],[127.09383,36.74999],[127.09229,36.74921],[127.09127,36.74906],[127.0889,36.75065],[127.08815,36.75012],[127.08726,36.75014],[127.08653,36.74926],[127.08669,36.74883],[127.08791,36.74796],[127.08853,36.74602],[127.0883,36.74505],[127.08626,36.7446],[127.08545,36.74253],[127.08569,36.74118],[127.0874,36.74014],[127.08537,36.73885],[127.08456,36.73757],[127.08316,36.73628],[127.08117,36.73311],[127.08134,36.73236],[127.08045,36.73037],[127.08059,36.72929],[127.08339,36.72818],[127.08279,36.72729],[127.08312,36.72602],[127.08441,36.72448],[127.08469,36.72236],[127.08176,36.72096],[127.07996,36.71835],[127.07941,36.71625],[127.07941,36.71392],[127.07975,36.7133],[127.07914,36.71265],[127.07891,36.71145],[127.07928,36.71011],[127.07843,36.71022],[127.07659,36.70949],[127.07465,36.70985],[127.0736,36.70914],[127.07343,36.70863],[127.07229,36.70814],[127.06844,36.70903],[127.06457,36.70925],[127.06289,36.70852],[127.06245,36.70877],[127.05849,36.70835],[127.05597,36.70562],[127.05356,36.70497],[127.05183,36.70482],[127.04911,36.70331]]]]},"properties":{"id":"SGG:44200","layer":"L3","admin_code":"44200","name":"충청남도 아산시","sido":"충청남도","sgg":"아산시","provisional":false,"source":"통계청 행정동 경계(BND_ADM_DONG_PG, 2025-06-30) 를 시군구로 합침","source_kind":"derived","derived_from":"행정동 경계 union · 20 m 단순화"}}]}