{"type":"FeatureCollection","features":[{"type":"Feature","id":"SGG:47900","geometry":{"type":"MultiPolygon","coordinates":[[[[128.35826,36.5325],[128.3583,36.53049],[128.35728,36.52947],[128.35382,36.52709],[128.35103,36.52727],[128.34997,36.52693],[128.34753,36.52759],[128.34614,36.52645],[128.34448,36.52568],[128.34311,36.52566],[128.34281,36.52519],[128.34168,36.5251],[128.34103,36.52434],[128.34071,36.52373],[128.34096,36.52289],[128.34269,36.52139],[128.34368,36.5211],[128.34354,36.52013],[128.34556,36.51414],[128.34491,36.51359],[128.3444,36.51242],[128.34235,36.51014],[128.34168,36.50981],[128.34196,36.5069],[128.34072,36.50584],[128.34118,36.50498],[128.34055,36.50451],[128.33972,36.50278],[128.33729,36.5011],[128.3365,36.49962],[128.33598,36.49937],[128.33622,36.49873],[128.33801,36.49742],[128.33824,36.49692],[128.33596,36.49517],[128.33713,36.49167],[128.33803,36.49131],[128.33875,36.48988],[128.33791,36.48877],[128.336,36.48864],[128.33576,36.48804],[128.33394,36.48668],[128.33131,36.4855],[128.32976,36.4826],[128.32755,36.48108],[128.32757,36.47997],[128.32671,36.47869],[128.32476,36.4772],[128.32347,36.47516],[128.32209,36.47545],[128.32095,36.4745],[128.32012,36.47196],[128.32046,36.47137],[128.31834,36.4711],[128.31791,36.47059],[128.31458,36.47076],[128.31272,36.46911],[128.31154,36.46862],[128.31048,36.4672],[128.30863,36.46381],[128.31026,36.46289],[128.31078,36.46209],[128.31073,36.46155],[128.31174,36.461],[128.31351,36.45459],[128.30875,36.45439],[128.30772,36.45622],[128.30685,36.45637],[128.30482,36.45755],[128.30343,36.45941],[128.30327,36.46023],[128.30009,36.46239],[128.29964,36.46347],[128.29549,36.46505],[128.29319,36.46467],[128.29223,36.46291],[128.29118,36.46184],[128.28883,36.46195],[128.28554,36.46314],[128.28449,36.46261],[128.28058,36.46355],[128.27912,36.46466],[128.27854,36.46672],[128.27834,36.46918],[128.27918,36.47184],[128.27712,36.47256],[128.27488,36.47454],[128.27274,36.47535],[128.27266,36.47585],[128.27222,36.47567],[128.27154,36.47598],[128.27102,36.47722],[128.26931,36.47687],[128.26745,36.47756],[128.26507,36.47585],[128.26205,36.47698],[128.26415,36.47953],[128.26632,36.48315],[128.26633,36.48373],[128.2679,36.48488],[128.26967,36.48549],[128.2703,36.48678],[128.26976,36.49019],[128.26868,36.49125],[128.26744,36.49397],[128.26716,36.49623],[128.26615,36.49756],[128.26587,36.50201],[128.26437,36.50712],[128.26472,36.51073],[128.26552,36.51198],[128.2666,36.51631],[128.26937,36.51702],[128.27085,36.51922],[128.26976,36.52282],[128.26974,36.52642],[128.26859,36.52791],[128.26797,36.53579],[128.26751,36.53722],[128.26608,36.53719],[128.26608,36.53843],[128.26315,36.54155],[128.26175,36.54234],[128.26339,36.54236],[128.26316,36.5444],[128.26351,36.54535],[128.2621,36.54612],[128.263,36.5476],[128.26294,36.54906],[128.26498,36.55196],[128.26796,36.55165],[128.26904,36.55217],[128.2721,36.55235],[128.28579,36.55246],[128.29138,36.55165],[128.29402,36.55198],[128.29565,36.55262],[128.29694,36.55352],[128.29576,36.55507],[128.29646,36.55502],[128.29648,36.55589],[128.2936,36.55907],[128.2956,36.56476],[128.29534,36.56531],[128.29499,36.56499],[128.29471,36.56567],[128.29569,36.56574],[128.2951,36.56983],[128.29584,36.57526],[128.29587,36.57833],[128.29393,36.5791],[128.29064,36.57926],[128.288,36.5781],[128.28556,36.57773],[128.28555,36.57878],[128.2824,36.58648],[128.28217,36.58798],[128.2802,36.59086],[128.27846,36.59247],[128.27524,36.59662],[128.27154,36.5992],[128.27028,36.60078],[128.26857,36.60152],[128.26556,36.60409],[128.26359,36.60494],[128.26294,36.60568],[128.26276,36.60755],[128.2612,36.60812],[128.26177,36.60928],[128.26064,36.61145],[128.26156,36.61148],[128.26349,36.6105],[128.26647,36.60963],[128.26759,36.60953],[128.26834,36.6099],[128.27025,36.60944],[128.27147,36.60985],[128.27224,36.60951],[128.27275,36.61156],[128.27234,36.61202],[128.27231,36.61294],[128.27165,36.61338],[128.26997,36.61376],[128.27,36.61494],[128.27073,36.61514],[128.27211,36.61408],[128.27258,36.61411],[128.27343,36.61435],[128.27327,36.61559],[128.27551,36.61588],[128.27743,36.61542],[128.27874,36.61632],[128.28185,36.61631],[128.28302,36.61691],[128.28374,36.61762],[128.28437,36.61915],[128.28734,36.62114],[128.28756,36.62251],[128.28641,36.62311],[128.28715,36.62479],[128.28643,36.62615],[128.28679,36.62674],[128.28676,36.62784],[128.28769,36.62845],[128.28862,36.62973],[128.29112,36.62911],[128.29439,36.62992],[128.29472,36.63022],[128.29487,36.63169],[128.29559,36.63166],[128.29622,36.63222],[128.29747,36.63217],[128.2986,36.63403],[128.29877,36.635],[128.29834,36.63589],[128.30037,36.6363],[128.30055,36.63596],[128.30455,36.63592],[128.305,36.63752],[128.30652,36.63772],[128.30699,36.63809],[128.30855,36.63972],[128.30834,36.64052],[128.30957,36.64093],[128.30978,36.64155],[128.30917,36.64327],[128.30964,36.64442],[128.30893,36.64522],[128.309,36.64593],[128.30855,36.64634],[128.30946,36.64815],[128.3085,36.64909],[128.30903,36.64934],[128.30865,36.64962],[128.30866,36.65044],[128.30787,36.65202],[128.30826,36.65306],[128.30824,36.65458],[128.30899,36.6561],[128.30992,36.65607],[128.31124,36.65672],[128.3128,36.65659],[128.31328,36.65686],[128.31545,36.65679],[128.3159,36.65699],[128.3175,36.65591],[128.31944,36.65637],[128.31997,36.65612],[128.31879,36.65504],[128.31861,36.65318],[128.32006,36.64977],[128.32062,36.64959],[128.32054,36.64896],[128.3213,36.64901],[128.32185,36.64829],[128.32163,36.64675],[128.3193,36.64527],[128.3193,36.64472],[128.32001,36.6441],[128.32269,36.64444],[128.32381,36.64501],[128.32531,36.64408],[128.32697,36.64461],[128.32743,36.64407],[128.32883,36.6435],[128.32938,36.64245],[128.3303,36.64185],[128.33166,36.64206],[128.33204,36.64184],[128.33385,36.64208],[128.33441,36.64319],[128.335,36.6433],[128.33517,36.64378],[128.33596,36.64388],[128.33661,36.64445],[128.33734,36.64546],[128.33695,36.6463],[128.33825,36.64662],[128.33867,36.64708],[128.3396,36.64737],[128.34009,36.64725],[128.34004,36.64654],[128.34158,36.64651],[128.3424,36.64573],[128.34459,36.6459],[128.34598,36.64635],[128.34755,36.64632],[128.34824,36.6476],[128.34841,36.64954],[128.34957,36.65005],[128.35048,36.65219],[128.34969,36.65412],[128.34871,36.65476],[128.34761,36.6546],[128.34653,36.65485],[128.34566,36.65583],[128.34489,36.65586],[128.34379,36.65537],[128.34255,36.65589],[128.34155,36.65593],[128.34048,36.65658],[128.33968,36.65761],[128.33796,36.65801],[128.33737,36.65846],[128.33615,36.65818],[128.33545,36.65854],[128.33481,36.66032],[128.33507,36.66123],[128.33374,36.6617],[128.33444,36.66228],[128.33458,36.66385],[128.33423,36.66539],[128.3331,36.66677],[128.33198,36.66713],[128.33183,36.66745],[128.33048,36.66736],[128.32863,36.66776],[128.32669,36.66905],[128.32623,36.67034],[128.32569,36.67039],[128.32506,36.67107],[128.32445,36.67392],[128.3219,36.6762],[128.32159,36.67704],[128.32042,36.67829],[128.3237,36.68053],[128.32558,36.68238],[128.32473,36.6834],[128.32633,36.68462],[128.32817,36.68391],[128.3336,36.68779],[128.33356,36.68892],[128.33442,36.69076],[128.33499,36.69167],[128.33593,36.692],[128.3369,36.69364],[128.33442,36.69474],[128.33402,36.69604],[128.33318,36.69654],[128.33092,36.69665],[128.33061,36.69738],[128.33128,36.69768],[128.33113,36.69927],[128.3325,36.70083],[128.33279,36.70163],[128.33361,36.70195],[128.33492,36.70362],[128.33547,36.70607],[128.33436,36.70719],[128.33627,36.71059],[128.3356,36.71244],[128.33581,36.71313],[128.33446,36.71443],[128.33431,36.71579],[128.33331,36.71736],[128.33209,36.71822],[128.33205,36.71936],[128.33154,36.7204],[128.33169,36.72182],[128.3331,36.72213],[128.3347,36.72329],[128.33474,36.72439],[128.3343,36.72548],[128.33322,36.72627],[128.33291,36.72753],[128.33354,36.73059],[128.33333,36.73308],[128.33238,36.73499],[128.33277,36.73566],[128.33484,36.7367],[128.33705,36.73638],[128.33829,36.73796],[128.33872,36.74041],[128.33907,36.74086],[128.34214,36.74058],[128.34296,36.74023],[128.35135,36.74109],[128.35256,36.74086],[128.35755,36.74111],[128.35891,36.74093],[128.35992,36.74017],[128.36173,36.74071],[128.3618,36.74322],[128.36401,36.74491],[128.36532,36.74652],[128.36731,36.74795],[128.36836,36.7505],[128.36909,36.75116],[128.36922,36.75203],[128.36821,36.75284],[128.36811,36.75502],[128.36495,36.75663],[128.36342,36.76021],[128.36333,36.76132],[128.36417,36.76158],[128.36576,36.76276],[128.36572,36.7637],[128.36657,36.76443],[128.367,36.76543],[128.36682,36.76636],[128.36777,36.7676],[128.36764,36.76897],[128.36669,36.76932],[128.36522,36.77154],[128.36487,36.77273],[128.36504,36.77331],[128.3645,36.77438],[128.3646,36.77526],[128.36477,36.77631],[128.3658,36.77673],[128.36618,36.77724],[128.36589,36.77773],[128.36692,36.78199],[128.36667,36.78365],[128.36711,36.78452],[128.36907,36.78651],[128.36996,36.78976],[128.36905,36.79197],[128.37205,36.79625],[128.37191,36.79751],[128.37004,36.80089],[128.3684,36.80208],[128.37275,36.80541],[128.37331,36.80767],[128.37455,36.80827],[128.37539,36.8092],[128.37638,36.8095],[128.37771,36.81097],[128.37865,36.8111],[128.38126,36.81388],[128.3848,36.81381],[128.38763,36.81436],[128.3921,36.8144],[128.39436,36.81487],[128.39963,36.81287],[128.40199,36.81268],[128.40341,36.81214],[128.40607,36.81192],[128.40819,36.81227],[128.41297,36.81127],[128.41553,36.81229],[128.42048,36.81151],[128.42114,36.81181],[128.42525,36.81478],[128.42593,36.8159],[128.42604,36.81837],[128.42748,36.81926],[128.42801,36.82087],[128.42996,36.82246],[128.43116,36.82295],[128.43205,36.82407],[128.43361,36.82762],[128.43319,36.82891],[128.43432,36.8329],[128.43411,36.83414],[128.43935,36.83632],[128.4415,36.8376],[128.44246,36.83911],[128.44245,36.84029],[128.44703,36.84365],[128.44716,36.84616],[128.44876,36.84742],[128.44899,36.84861],[128.45016,36.84849],[128.45114,36.84777],[128.45326,36.84698],[128.45653,36.84653],[128.45933,36.8454],[128.46007,36.84605],[128.46276,36.84695],[128.4655,36.84488],[128.4703,36.84259],[128.47284,36.84052],[128.47379,36.84028],[128.47438,36.83971],[128.47444,36.83856],[128.47551,36.83772],[128.47925,36.8357],[128.47988,36.83582],[128.48159,36.83468],[128.4821,36.83232],[128.48198,36.83146],[128.48262,36.82985],[128.48152,36.82842],[128.48094,36.82686],[128.47931,36.82643],[128.47892,36.82485],[128.47754,36.82395],[128.47746,36.82326],[128.47683,36.82269],[128.47705,36.82121],[128.47664,36.81948],[128.47588,36.81818],[128.47501,36.8176],[128.47318,36.81742],[128.47288,36.81028],[128.47165,36.8069],[128.47184,36.80629],[128.47117,36.80352],[128.47215,36.80141],[128.47305,36.80099],[128.47442,36.79945],[128.4744,36.79888],[128.47492,36.79814],[128.47498,36.79623],[128.47544,36.79548],[128.47529,36.79471],[128.47606,36.79378],[128.47612,36.78955],[128.47544,36.78837],[128.47619,36.78775],[128.47653,36.78662],[128.47603,36.78565],[128.47602,36.78438],[128.47551,36.784],[128.47572,36.78355],[128.47423,36.78173],[128.47475,36.78011],[128.47432,36.7796],[128.47445,36.77785],[128.47505,36.77664],[128.47761,36.77614],[128.48087,36.77691],[128.48218,36.77694],[128.48469,36.776],[128.4865,36.77462],[128.48823,36.77381],[128.48985,36.77347],[128.49084,36.77129],[128.49365,36.77093],[128.49516,36.77009],[128.49577,36.76944],[128.49703,36.7667],[128.49682,36.76628],[128.49886,36.76546],[128.49934,36.7647],[128.50037,36.7649],[128.50074,36.76608],[128.50214,36.76624],[128.50298,36.76571],[128.50439,36.76541],[128.5045,36.76499],[128.50639,36.76382],[128.5068,36.76402],[128.50895,36.76383],[128.50914,36.76417],[128.51129,36.76509],[128.51313,36.76683],[128.51333,36.76755],[128.51476,36.76872],[128.51557,36.76932],[128.51627,36.7691],[128.51667,36.76927],[128.51797,36.7715],[128.52059,36.77192],[128.52271,36.77031],[128.52517,36.77016],[128.52613,36.77083],[128.52842,36.77061],[128.52968,36.77077],[128.5312,36.77155],[128.53191,36.77162],[128.53196,36.77247],[128.53283,36.77268],[128.53289,36.77294],[128.53666,36.77353],[128.53773,36.77297],[128.53833,36.77154],[128.53945,36.7708],[128.53918,36.77034],[128.53939,36.76922],[128.54077,36.76874],[128.5414,36.76785],[128.54266,36.76717],[128.54494,36.76656],[128.54669,36.76758],[128.54703,36.76702],[128.54756,36.76684],[128.54888,36.7678],[128.54952,36.76876],[128.55133,36.76911],[128.55181,36.76857],[128.55175,36.76561],[128.55312,36.76432],[128.5539,36.76268],[128.55529,36.76231],[128.55638,36.7609],[128.55704,36.76084],[128.55765,36.76116],[128.55825,36.76047],[128.55851,36.76057],[128.55815,36.76002],[128.55863,36.75988],[128.55976,36.76077],[128.56096,36.76048],[128.56211,36.75844],[128.56203,36.758],[128.56303,36.75691],[128.56293,36.75524],[128.5637,36.75444],[128.56475,36.75414],[128.56537,36.75273],[128.56608,36.75241],[128.56609,36.75175],[128.56522,36.75012],[128.5664,36.74911],[128.56591,36.74806],[128.56625,36.74752],[128.56834,36.74669],[128.56869,36.74629],[128.56838,36.74586],[128.56869,36.74511],[128.56912,36.74506],[128.56936,36.74438],[128.56986,36.74418],[128.57031,36.7431],[128.57041,36.74334],[128.5712,36.74302],[128.57,36.74048],[128.56942,36.74007],[128.56917,36.73908],[128.57063,36.73663],[128.57019,36.73567],[128.57247,36.7362],[128.57383,36.73578],[128.57532,36.73462],[128.57538,36.73416],[128.57599,36.73399],[128.5759,36.73336],[128.5752,36.73282],[128.57641,36.73333],[128.57691,36.73249],[128.57753,36.73231],[128.57777,36.73244],[128.57682,36.73312],[128.5765,36.73389],[128.57695,36.73438],[128.57691,36.73388],[128.57841,36.73218],[128.57715,36.73191],[128.57684,36.73109],[128.57663,36.73015],[128.57743,36.72893],[128.57674,36.72737],[128.57722,36.72708],[128.57662,36.72675],[128.577,36.72616],[128.58073,36.72359],[128.5819,36.72355],[128.58351,36.72421],[128.58446,36.72369],[128.58475,36.72165],[128.58321,36.7198],[128.58262,36.71751],[128.58299,36.71701],[128.58258,36.71663],[128.58278,36.71483],[128.5839,36.71317],[128.58339,36.7121],[128.58364,36.7116],[128.58335,36.71125],[128.58339,36.70936],[128.58435,36.70893],[128.58542,36.70921],[128.58627,36.7089],[128.58699,36.70753],[128.58978,36.70469],[128.58921,36.70365],[128.58974,36.70271],[128.58935,36.70132],[128.59082,36.70098],[128.59084,36.69952],[128.59046,36.69957],[128.59067,36.69835],[128.59421,36.69682],[128.59706,36.69815],[128.59843,36.69732],[128.59938,36.69734],[128.60219,36.69618],[128.60352,36.69422],[128.60469,36.69386],[128.60494,36.69317],[128.60891,36.69302],[128.60883,36.69151],[128.60951,36.69071],[128.61052,36.69021],[128.60944,36.68788],[128.60967,36.6865],[128.61044,36.68503],[128.61026,36.68455],[128.60784,36.68377],[128.60659,36.68218],[128.6038,36.68114],[128.60123,36.67911],[128.60134,36.67807],[128.6022,36.6769],[128.60363,36.6758],[128.60343,36.67441],[128.60531,36.67209],[128.6041,36.66763],[128.60448,36.66432],[128.60426,36.66286],[128.6057,36.66216],[128.60531,36.66022],[128.60553,36.65948],[128.60486,36.65778],[128.60515,36.65687],[128.60464,36.65578],[128.60478,36.65296],[128.60427,36.65244],[128.60084,36.65087],[128.59925,36.65064],[128.59906,36.65185],[128.59759,36.65261],[128.59576,36.65245],[128.59423,36.65172],[128.59266,36.65027],[128.58949,36.65093],[128.58882,36.65058],[128.58823,36.65071],[128.5863,36.65038],[128.58525,36.64982],[128.58472,36.64901],[128.58387,36.64897],[128.58092,36.6475],[128.58083,36.64701],[128.57925,36.64906],[128.5781,36.64987],[128.57677,36.6491],[128.57419,36.64893],[128.57372,36.64849],[128.57206,36.64801],[128.57155,36.64833],[128.57072,36.64812],[128.57052,36.64775],[128.56877,36.64723],[128.56883,36.64653],[128.56856,36.6464],[128.56676,36.6464],[128.56588,36.64526],[128.56604,36.64456],[128.56542,36.64382],[128.5654,36.64323],[128.56634,36.64136],[128.56585,36.64022],[128.5629,36.63966],[128.56088,36.63829],[128.56023,36.63715],[128.5591,36.63644],[128.55885,36.63593],[128.55535,36.63532],[128.55513,36.63592],[128.55285,36.63666],[128.55224,36.63553],[128.5516,36.63538],[128.55143,36.63495],[128.54905,36.63461],[128.54817,36.63407],[128.54678,36.63233],[128.54509,36.63195],[128.54318,36.63229],[128.54027,36.63375],[128.53899,36.63398],[128.53793,36.6338],[128.53713,36.63278],[128.53616,36.63274],[128.53604,36.63235],[128.53456,36.63166],[128.53339,36.62995],[128.53297,36.6302],[128.53133,36.63002],[128.53086,36.6288],[128.52863,36.62862],[128.52814,36.62812],[128.5268,36.62856],[128.5265,36.62824],[128.52486,36.62854],[128.5247,36.62781],[128.52389,36.62709],[128.52371,36.62569],[128.52429,36.62253],[128.52344,36.62159],[128.52356,36.62125],[128.52161,36.61981],[128.52196,36.61952],[128.52409,36.61964],[128.52582,36.61862],[128.52649,36.61879],[128.5282,36.61855],[128.52825,36.61876],[128.52909,36.61852],[128.52956,36.61641],[128.53032,36.61619],[128.53129,36.61533],[128.53269,36.61524],[128.53298,36.61555],[128.53351,36.61461],[128.53443,36.61418],[128.5349,36.61355],[128.53478,36.61311],[128.53395,36.61279],[128.53319,36.61092],[128.53278,36.61069],[128.53302,36.60791],[128.53253,36.60706],[128.53057,36.60641],[128.52909,36.60644],[128.52866,36.60584],[128.529,36.60521],[128.53009,36.60451],[128.52961,36.6041],[128.52999,36.60394],[128.52969,36.6034],[128.52992,36.60245],[128.52949,36.60138],[128.52862,36.60117],[128.52815,36.6006],[128.5263,36.60035],[128.52535,36.60145],[128.52455,36.60095],[128.52357,36.6008],[128.52261,36.60099],[128.52096,36.6021],[128.51715,36.60117],[128.51611,36.60153],[128.51573,36.60205],[128.51484,36.60212],[128.51263,36.60039],[128.51194,36.60065],[128.51143,36.60137],[128.50908,36.60153],[128.50654,36.60212],[128.50593,36.60393],[128.50605,36.60539],[128.50499,36.60614],[128.50492,36.60672],[128.50334,36.6068],[128.49765,36.6033],[128.49483,36.60016],[128.49393,36.59978],[128.49328,36.59855],[128.49239,36.59577],[128.49329,36.59505],[128.49258,36.5937],[128.49278,36.59225],[128.4921,36.59188],[128.49189,36.59048],[128.49099,36.58883],[128.49199,36.58667],[128.49365,36.58576],[128.49577,36.58535],[128.49681,36.58585],[128.49862,36.5854],[128.49908,36.58448],[128.49577,36.5825],[128.49632,36.58084],[128.49613,36.57992],[128.49579,36.57974],[128.49577,36.57786],[128.49482,36.5776],[128.49307,36.57616],[128.49377,36.57506],[128.49398,36.57336],[128.49377,36.57291],[128.49328,36.57312],[128.493,36.57075],[128.49238,36.57004],[128.4926,36.56954],[128.48323,36.5682],[128.47389,36.56394],[128.47353,36.56432],[128.47225,36.56306],[128.47182,36.56332],[128.47087,36.56299],[128.46752,36.56292],[128.46793,36.56186],[128.46859,36.56124],[128.46867,36.56043],[128.46802,36.55988],[128.46642,36.55956],[128.46512,36.55971],[128.46333,36.55928],[128.46267,36.55765],[128.4619,36.55822],[128.46088,36.55772],[128.46157,36.55606],[128.45954,36.55572],[128.45764,36.55609],[128.45573,36.55472],[128.45556,36.55416],[128.45739,36.55312],[128.45873,36.55315],[128.45913,36.55248],[128.45939,36.55158],[128.4582,36.55014],[128.4564,36.55022],[128.45764,36.54766],[128.45962,36.54727],[128.45968,36.54676],[128.46045,36.54649],[128.46205,36.54286],[128.46349,36.54236],[128.4638,36.54192],[128.46366,36.54148],[128.46454,36.54139],[128.46459,36.53827],[128.45691,36.53824],[128.45601,36.5379],[128.45344,36.53649],[128.45338,36.53515],[128.44789,36.53147],[128.44233,36.52909],[128.44016,36.52855],[128.43678,36.52395],[128.43632,36.52247],[128.4367,36.52251],[128.43679,36.52215],[128.43805,36.52242],[128.4377,36.52208],[128.43163,36.52159],[128.4278,36.52007],[128.42835,36.52036],[128.42732,36.52101],[128.42429,36.52061],[128.42258,36.52098],[128.42005,36.52203],[128.41938,36.52296],[128.41447,36.52106],[128.41273,36.52008],[128.40892,36.51673],[128.40388,36.5137],[128.40267,36.51272],[128.40269,36.51184],[128.40003,36.51008],[128.39323,36.5075],[128.3894,36.50681],[128.38668,36.50608],[128.38417,36.50493],[128.37553,36.503],[128.37394,36.50365],[128.37276,36.50451],[128.37067,36.50706],[128.3697,36.50893],[128.36953,36.51075],[128.37085,36.51619],[128.37071,36.51672],[128.36822,36.51902],[128.36791,36.52161],[128.36795,36.52698],[128.36655,36.52947],[128.36289,36.53152],[128.36033,36.53242],[128.35826,36.5325]]]]},"properties":{"id":"SGG:47900","layer":"L3","admin_code":"47900","name":"경상북도 예천군","sido":"경상북도","sgg":"예천군","provisional":false,"source":"통계청 행정동 경계(BND_ADM_DONG_PG, 2025-06-30) 를 시군구로 합침","source_kind":"derived","derived_from":"행정동 경계 union · 20 m 단순화"}}]}