{"type":"FeatureCollection","features":[{"type":"Feature","id":"SGG:47250","geometry":{"type":"MultiPolygon","coordinates":[[[[128.15398,36.29436],[128.15393,36.29298],[128.14906,36.28896],[128.14725,36.28871],[128.14559,36.28923],[128.14386,36.28825],[128.14333,36.2869],[128.13993,36.2864],[128.13951,36.28517],[128.13821,36.28404],[128.13808,36.2833],[128.13724,36.28249],[128.13697,36.2806],[128.13719,36.28039],[128.13733,36.28126],[128.13729,36.28029],[128.13767,36.27992],[128.13684,36.27968],[128.13568,36.27701],[128.13478,36.27635],[128.13436,36.274],[128.13384,36.27363],[128.13444,36.27286],[128.13324,36.27159],[128.13302,36.27027],[128.13328,36.26979],[128.13278,36.26779],[128.13398,36.26688],[128.13583,36.26385],[128.13726,36.26286],[128.13755,36.26162],[128.13653,36.25929],[128.13677,36.25817],[128.13655,36.25728],[128.13703,36.25667],[128.13574,36.25437],[128.13373,36.25327],[128.13155,36.25301],[128.13114,36.25124],[128.12853,36.25173],[128.12752,36.2522],[128.12456,36.25263],[128.12364,36.25243],[128.12233,36.25266],[128.12163,36.25313],[128.12058,36.25317],[128.12034,36.25297],[128.12108,36.25205],[128.12043,36.25187],[128.11996,36.25114],[128.11957,36.25016],[128.11974,36.24871],[128.12139,36.24622],[128.11982,36.24446],[128.11914,36.24306],[128.11692,36.24227],[128.11579,36.24224],[128.11389,36.24093],[128.11361,36.24021],[128.11264,36.23958],[128.11242,36.23876],[128.11095,36.23817],[128.10996,36.23732],[128.10873,36.23716],[128.10796,36.23835],[128.10806,36.24002],[128.10761,36.23995],[128.10525,36.24088],[128.10366,36.24257],[128.10248,36.24312],[128.10162,36.24511],[128.10178,36.24552],[128.10022,36.24678],[128.09952,36.24907],[128.09896,36.24924],[128.09815,36.25074],[128.09665,36.25227],[128.09483,36.25185],[128.09411,36.25213],[128.09266,36.25214],[128.09142,36.25373],[128.09077,36.25289],[128.08872,36.25184],[128.08889,36.25092],[128.08775,36.24915],[128.08544,36.24769],[128.08496,36.24757],[128.08353,36.24802],[128.08249,36.24599],[128.07981,36.24427],[128.07928,36.24318],[128.07966,36.24252],[128.07914,36.24248],[128.07888,36.24193],[128.07819,36.2419],[128.07716,36.24135],[128.0752,36.24221],[128.07385,36.24186],[128.07262,36.24279],[128.0711,36.24319],[128.07012,36.24286],[128.06667,36.24289],[128.06442,36.24505],[128.06094,36.24667],[128.06043,36.24544],[128.0587,36.24508],[128.05748,36.24434],[128.0573,36.2436],[128.05325,36.24401],[128.05244,36.24439],[128.05042,36.24425],[128.0496,36.24488],[128.0495,36.2455],[128.0473,36.24741],[128.04702,36.24868],[128.04618,36.24968],[128.04667,36.25051],[128.04645,36.25173],[128.04551,36.25232],[128.04685,36.25478],[128.04735,36.25655],[128.0464,36.25677],[128.0436,36.2584],[128.04078,36.25859],[128.03741,36.26013],[128.0361,36.26033],[128.03374,36.26153],[128.0323,36.26192],[128.03181,36.26169],[128.03133,36.262],[128.03114,36.26312],[128.03001,36.26452],[128.02897,36.26499],[128.02814,36.26476],[128.02692,36.26535],[128.02622,36.2679],[128.01903,36.26729],[128.01815,36.26775],[128.0156,36.2683],[128.01517,36.26943],[128.01134,36.27195],[128.01032,36.27215],[128.00829,36.27171],[128.00758,36.27087],[128.00553,36.26991],[128.00469,36.26995],[128.00422,36.26898],[128.00325,36.26808],[128.00163,36.26745],[128.00123,36.26681],[128.00048,36.26644],[127.9984,36.26841],[127.99752,36.26799],[127.99628,36.26813],[127.99441,36.26744],[127.99316,36.26655],[127.99262,36.26554],[127.99186,36.26524],[127.99172,36.26415],[127.99053,36.26338],[127.98902,36.26331],[127.98777,36.26385],[127.98708,36.26373],[127.98626,36.26305],[127.98393,36.26284],[127.98115,36.26371],[127.97868,36.26092],[127.97765,36.26062],[127.97672,36.25929],[127.97796,36.25731],[127.97792,36.25664],[127.97864,36.25608],[127.97832,36.25459],[127.97199,36.25213],[127.97056,36.2504],[127.96812,36.25033],[127.9658,36.25187],[127.96482,36.25318],[127.96248,36.25206],[127.96017,36.25237],[127.95945,36.25327],[127.95794,36.25412],[127.95735,36.25512],[127.95631,36.25545],[127.95541,36.25674],[127.95461,36.25722],[127.94925,36.25665],[127.94834,36.25748],[127.94825,36.25871],[127.94867,36.26042],[127.94816,36.26229],[127.94848,36.26313],[127.94781,36.26464],[127.94787,36.26627],[127.94736,36.26724],[127.94578,36.26703],[127.9449,36.26723],[127.9428,36.26673],[127.94225,36.26729],[127.93958,36.2681],[127.93872,36.26885],[127.93793,36.26906],[127.93714,36.27004],[127.93693,36.27111],[127.93439,36.27256],[127.93378,36.27592],[127.93266,36.27674],[127.93194,36.27673],[127.93091,36.27801],[127.92648,36.27868],[127.92553,36.27952],[127.92353,36.27871],[127.91843,36.28022],[127.9155,36.28187],[127.91153,36.28319],[127.90811,36.28551],[127.90712,36.28649],[127.90557,36.29122],[127.90637,36.29269],[127.90611,36.29531],[127.90544,36.297],[127.90563,36.2986],[127.90429,36.30145],[127.90288,36.301],[127.89846,36.29758],[127.89477,36.29371],[127.89357,36.29265],[127.8921,36.29193],[127.89175,36.29112],[127.88991,36.28924],[127.88683,36.28371],[127.88585,36.2802],[127.8836,36.27642],[127.88264,36.27375],[127.87643,36.27579],[127.87045,36.27658],[127.86824,36.27634],[127.86739,36.2766],[127.86484,36.27563],[127.8637,36.27625],[127.86087,36.27708],[127.86008,36.27646],[127.85539,36.27529],[127.85291,36.27388],[127.85232,36.27383],[127.85099,36.27446],[127.85087,36.27477],[127.8514,36.27546],[127.85059,36.27693],[127.85088,36.27797],[127.84952,36.28119],[127.85024,36.2821],[127.85028,36.28312],[127.84943,36.28547],[127.84976,36.28637],[127.84948,36.28646],[127.84918,36.2888],[127.84666,36.29142],[127.84565,36.29369],[127.84581,36.2968],[127.84647,36.2978],[127.84686,36.30076],[127.84508,36.3032],[127.84516,36.30438],[127.84447,36.30542],[127.84328,36.30614],[127.84266,36.30738],[127.84157,36.30821],[127.84148,36.31],[127.84282,36.31207],[127.84465,36.31335],[127.84424,36.31505],[127.84532,36.31638],[127.84577,36.31812],[127.84661,36.31804],[127.84885,36.31896],[127.84919,36.31976],[127.85039,36.32025],[127.85071,36.32081],[127.85151,36.32401],[127.85123,36.32673],[127.85202,36.32734],[127.85216,36.32816],[127.85186,36.32891],[127.85258,36.33004],[127.85203,36.33041],[127.85282,36.33196],[127.85361,36.33175],[127.8546,36.33064],[127.8567,36.33128],[127.85686,36.33193],[127.86035,36.33369],[127.86189,36.33308],[127.86153,36.33552],[127.86243,36.33627],[127.86431,36.33536],[127.86576,36.33558],[127.86596,36.33703],[127.86781,36.33729],[127.86845,36.33883],[127.86999,36.33987],[127.87015,36.34094],[127.87071,36.34175],[127.87015,36.34349],[127.87194,36.3441],[127.87363,36.34511],[127.87461,36.34504],[127.87545,36.34559],[127.87599,36.34533],[127.87706,36.34568],[127.8789,36.3453],[127.87933,36.34495],[127.88042,36.34536],[127.88134,36.34507],[127.88261,36.34592],[127.88278,36.34774],[127.88371,36.34905],[127.88512,36.34911],[127.88551,36.35016],[127.88505,36.35246],[127.88564,36.3547],[127.88953,36.35631],[127.89084,36.35657],[127.89088,36.35893],[127.89127,36.35969],[127.89023,36.36123],[127.88833,36.36276],[127.88653,36.36361],[127.88586,36.36488],[127.88595,36.36559],[127.88541,36.36603],[127.88522,36.36889],[127.88386,36.36987],[127.88367,36.37064],[127.87981,36.37138],[127.88047,36.37237],[127.88202,36.37304],[127.8831,36.37417],[127.88365,36.37572],[127.88313,36.37736],[127.88417,36.38001],[127.8822,36.38205],[127.88084,36.38217],[127.88042,36.38278],[127.8792,36.38336],[127.87878,36.38496],[127.87825,36.38562],[127.87856,36.38643],[127.87572,36.39059],[127.87482,36.39104],[127.87153,36.39074],[127.87115,36.39121],[127.87003,36.39158],[127.86913,36.39154],[127.86855,36.3911],[127.86672,36.39163],[127.86464,36.39147],[127.86364,36.39269],[127.8629,36.39297],[127.86301,36.39356],[127.86568,36.39418],[127.86631,36.39476],[127.86561,36.3956],[127.86582,36.39643],[127.86528,36.39678],[127.86527,36.39809],[127.8646,36.39855],[127.86391,36.39978],[127.8643,36.40158],[127.86387,36.40304],[127.86463,36.40326],[127.86734,36.40313],[127.8681,36.40363],[127.86951,36.40364],[127.87011,36.40425],[127.87093,36.40433],[127.87216,36.40506],[127.87332,36.40611],[127.87367,36.40657],[127.87322,36.40955],[127.87469,36.41123],[127.87539,36.41131],[127.87569,36.41435],[127.87707,36.41572],[127.87907,36.41661],[127.88097,36.42004],[127.88228,36.42086],[127.88271,36.42217],[127.88272,36.42435],[127.87851,36.42437],[127.87778,36.42394],[127.87455,36.42405],[127.87368,36.42385],[127.87299,36.42428],[127.8738,36.42615],[127.87486,36.42707],[127.87545,36.42707],[127.8756,36.428],[127.87523,36.42897],[127.87547,36.42967],[127.87478,36.43096],[127.87512,36.43286],[127.8746,36.43334],[127.8745,36.43472],[127.87335,36.43636],[127.87358,36.43765],[127.87424,36.43831],[127.87224,36.44079],[127.87142,36.44104],[127.87139,36.44157],[127.87261,36.44167],[127.87313,36.44225],[127.87376,36.44473],[127.87342,36.44539],[127.87392,36.44729],[127.87477,36.44882],[127.87738,36.44939],[127.87832,36.45049],[127.87858,36.45236],[127.87924,36.45294],[127.87968,36.45407],[127.87879,36.45513],[127.87898,36.45774],[127.87984,36.4582],[127.88071,36.46052],[127.88196,36.46184],[127.88023,36.46487],[127.87906,36.46575],[127.87837,36.46708],[127.88082,36.46852],[127.88022,36.47123],[127.88096,36.4723],[127.88032,36.474],[127.88238,36.47587],[127.88194,36.47776],[127.88131,36.47839],[127.88062,36.48063],[127.87868,36.48127],[127.87738,36.48243],[127.87528,36.48317],[127.87609,36.48837],[127.88036,36.48997],[127.87975,36.49129],[127.88047,36.49327],[127.88201,36.49316],[127.88524,36.49364],[127.8862,36.493],[127.88734,36.49327],[127.88802,36.49295],[127.88871,36.49314],[127.89024,36.49486],[127.89285,36.49601],[127.89486,36.49836],[127.89761,36.49848],[127.89867,36.49928],[127.90082,36.50002],[127.90088,36.50117],[127.90132,36.5019],[127.90463,36.50402],[127.90634,36.50694],[127.90614,36.50802],[127.90533,36.50845],[127.90535,36.50898],[127.90422,36.50961],[127.90318,36.51101],[127.90239,36.51307],[127.90305,36.51488],[127.90339,36.51727],[127.90209,36.5185],[127.90137,36.51871],[127.90107,36.51946],[127.90217,36.52071],[127.90113,36.52299],[127.90127,36.52418],[127.90091,36.52501],[127.90145,36.5264],[127.9026,36.52745],[127.90246,36.52807],[127.89959,36.52936],[127.89896,36.53028],[127.89635,36.5312],[127.89452,36.53028],[127.89297,36.53052],[127.8905,36.5325],[127.88918,36.53308],[127.88872,36.53369],[127.88768,36.53349],[127.88334,36.5349],[127.87901,36.53471],[127.87675,36.53647],[127.87596,36.53672],[127.87512,36.54001],[127.87441,36.54086],[127.87291,36.54184],[127.87048,36.54282],[127.87094,36.54399],[127.87098,36.54554],[127.87238,36.54873],[127.87299,36.55133],[127.87281,36.55298],[127.87199,36.55431],[127.87032,36.55915],[127.86908,36.55981],[127.86647,36.56042],[127.86602,36.56181],[127.86456,36.56401],[127.86022,36.56592],[127.86042,36.56795],[127.85744,36.56955],[127.85236,36.57115],[127.84889,36.57091],[127.84483,36.56911],[127.84326,36.56898],[127.84262,36.57054],[127.84015,36.57014],[127.83868,36.57043],[127.83707,36.5701],[127.83611,36.57052],[127.83541,36.5722],[127.83421,36.57312],[127.83016,36.57428],[127.82912,36.57326],[127.8277,36.57079],[127.82736,36.57152],[127.82447,36.57091],[127.82362,36.57177],[127.8219,36.57254],[127.82155,36.5731],[127.81818,36.57468],[127.81741,36.57591],[127.81681,36.5759],[127.81675,36.5773],[127.8162,36.57808],[127.81535,36.57768],[127.81297,36.57951],[127.81134,36.57945],[127.81033,36.57996],[127.80924,36.5799],[127.80902,36.58039],[127.80809,36.58015],[127.80589,36.58148],[127.8049,36.58139],[127.80414,36.58347],[127.80346,36.5836],[127.80298,36.58429],[127.8016,36.58449],[127.80061,36.58532],[127.80048,36.58615],[127.79848,36.58644],[127.79848,36.58727],[127.79958,36.58855],[127.79943,36.58953],[127.79855,36.5908],[127.79763,36.59128],[127.79759,36.5919],[127.79659,36.59266],[127.79615,36.59526],[127.79723,36.59705],[127.79694,36.59785],[127.79711,36.59905],[127.79743,36.6003],[127.79847,36.60208],[127.79918,36.60238],[127.80198,36.60185],[127.80319,36.60214],[127.80464,36.60328],[127.80648,36.60365],[127.80835,36.6058],[127.81207,36.60758],[127.81431,36.60744],[127.81594,36.60824],[127.81857,36.6083],[127.82086,36.61054],[127.8213,36.61143],[127.821,36.61331],[127.82212,36.61292],[127.82204,36.61266],[127.82274,36.61234],[127.82399,36.61237],[127.82489,36.61178],[127.82665,36.61142],[127.82753,36.61077],[127.82906,36.61156],[127.82994,36.61262],[127.83108,36.61248],[127.83229,36.61276],[127.83437,36.61116],[127.83524,36.61118],[127.83745,36.61009],[127.83766,36.60937],[127.83907,36.60885],[127.83964,36.60893],[127.8407,36.60829],[127.84542,36.61091],[127.84726,36.61112],[127.8498,36.61312],[127.85161,36.61325],[127.85519,36.61188],[127.8583,36.61353],[127.85573,36.61758],[127.8538,36.61821],[127.85301,36.61803],[127.85119,36.61835],[127.84981,36.61958],[127.84982,36.62117],[127.84884,36.62218],[127.84798,36.6239],[127.84784,36.62494],[127.8506,36.62915],[127.85056,36.63125],[127.84675,36.63399],[127.84809,36.63418],[127.84891,36.63463],[127.85082,36.63455],[127.85137,36.63477],[127.85211,36.63579],[127.8528,36.63545],[127.85303,36.63481],[127.85426,36.63467],[127.85507,36.63492],[127.85658,36.63447],[127.85944,36.63541],[127.86129,36.63556],[127.86197,36.6361],[127.86224,36.63711],[127.86307,36.63768],[127.86353,36.6407],[127.86541,36.64129],[127.86714,36.64344],[127.86711,36.64413],[127.87013,36.64552],[127.8697,36.64691],[127.86987,36.64882],[127.87233,36.65025],[127.87344,36.6522],[127.87394,36.65505],[127.87496,36.65546],[127.87575,36.6562],[127.88002,36.65675],[127.88012,36.65509],[127.88117,36.65301],[127.88221,36.64882],[127.88235,36.6465],[127.8832,36.64531],[127.88397,36.64474],[127.88424,36.64491],[127.8849,36.64424],[127.88493,36.64278],[127.88588,36.64207],[127.88767,36.64141],[127.88895,36.64041],[127.88932,36.63955],[127.88927,36.63693],[127.8881,36.63547],[127.8879,36.63464],[127.88875,36.63341],[127.88866,36.63098],[127.88965,36.62935],[127.89089,36.62867],[127.8938,36.62837],[127.89705,36.62676],[127.89818,36.62662],[127.90079,36.62705],[127.90149,36.62755],[127.90224,36.62759],[127.90344,36.62735],[127.90577,36.62591],[127.90859,36.62593],[127.90921,36.62471],[127.90837,36.62355],[127.90863,36.62217],[127.91044,36.61912],[127.9118,36.61454],[127.91392,36.61222],[127.91816,36.6094],[127.9188,36.60868],[127.91849,36.60685],[127.91872,36.60343],[127.91996,36.60112],[127.92122,36.60164],[127.92395,36.60202],[127.9249,36.59824],[127.92833,36.59456],[127.93094,36.59277],[127.9313,36.59217],[127.93227,36.59197],[127.93284,36.59114],[127.93236,36.58888],[127.93321,36.58516],[127.93319,36.58302],[127.9313,36.58063],[127.93055,36.57758],[127.93146,36.57687],[127.93238,36.57537],[127.93406,36.57485],[127.93413,36.57343],[127.93483,36.57211],[127.93648,36.57078],[127.93715,36.57079],[127.93653,36.57067],[127.93693,36.56964],[127.93605,36.5669],[127.9365,36.56444],[127.93353,36.56094],[127.9336,36.55909],[127.93283,36.55798],[127.93407,36.55713],[127.93487,36.55577],[127.93493,36.55467],[127.93569,36.5541],[127.93742,36.5537],[127.94003,36.55114],[127.93991,36.5488],[127.93745,36.5473],[127.93615,36.54558],[127.9357,36.54442],[127.9372,36.54098],[127.93777,36.53762],[127.93278,36.5368],[127.93028,36.53602],[127.93105,36.53455],[127.93086,36.53401],[127.93182,36.53226],[127.93344,36.53143],[127.93452,36.52952],[127.93619,36.52918],[127.93653,36.52819],[127.93899,36.52707],[127.93965,36.52634],[127.94442,36.52553],[127.95281,36.52311],[127.95813,36.52441],[127.95859,36.5239],[127.95836,36.5231],[127.96,36.52156],[127.96009,36.52076],[127.96067,36.52081],[127.96109,36.52052],[127.96086,36.52078],[127.96233,36.51979],[127.96512,36.51892],[127.96727,36.51714],[127.96798,36.51701],[127.96893,36.5163],[127.97077,36.51601],[127.97196,36.51534],[127.97294,36.51547],[127.97414,36.5147],[127.9751,36.51456],[127.97694,36.51302],[127.97959,36.51386],[127.97982,36.51534],[127.97807,36.51854],[127.97845,36.5192],[127.97821,36.51979],[127.97923,36.52202],[127.97896,36.52286],[127.97975,36.52331],[127.98011,36.52426],[127.97983,36.52511],[127.98117,36.5275],[127.9809,36.52903],[127.97854,36.53144],[127.97764,36.53306],[127.97875,36.5341],[127.98061,36.53494],[127.9809,36.53623],[127.98054,36.53677],[127.98048,36.53834],[127.97851,36.5433],[127.98043,36.5442],[127.98202,36.54542],[127.98299,36.54572],[127.98514,36.5447],[127.98607,36.54489],[127.98792,36.54465],[127.98932,36.54507],[127.99124,36.54459],[127.99287,36.54497],[127.99376,36.54604],[127.99537,36.54661],[127.99657,36.54765],[127.99726,36.54863],[127.99753,36.54979],[127.99896,36.54961],[128.0017,36.55016],[128.00239,36.54983],[128.00473,36.55066],[128.00643,36.55035],[128.00756,36.54918],[128.00952,36.54908],[128.01043,36.54817],[128.01159,36.54817],[128.01224,36.547],[128.01398,36.54666],[128.01437,36.54579],[128.01567,36.54499],[128.0158,36.54449],[128.01651,36.54395],[128.0176,36.54513],[128.01892,36.54528],[128.02049,36.54462],[128.02332,36.54464],[128.02532,36.54589],[128.02625,36.54569],[128.02692,36.54619],[128.0275,36.54744],[128.03639,36.5477],[128.03774,36.54826],[128.0386,36.5479],[128.04054,36.54825],[128.04235,36.54812],[128.04204,36.54789],[128.04376,36.54738],[128.04461,36.5468],[128.04716,36.54645],[128.04806,36.54659],[128.04895,36.54628],[128.04943,36.54649],[128.05196,36.54593],[128.05406,36.54621],[128.05489,36.54704],[128.05596,36.54742],[128.05514,36.54966],[128.05631,36.55024],[128.05675,36.5533],[128.05752,36.55405],[128.05851,36.55423],[128.05836,36.55484],[128.05893,36.55528],[128.05893,36.55575],[128.05812,36.55681],[128.05926,36.55735],[128.05915,36.55786],[128.05956,36.55844],[128.06058,36.55919],[128.06171,36.56067],[128.06298,36.56145],[128.06622,36.56142],[128.06466,36.56336],[128.06367,36.56696],[128.06133,36.56908],[128.0612,36.56944],[128.06155,36.56989],[128.06112,36.57079],[128.06129,36.57154],[128.06058,36.57339],[128.06061,36.57422],[128.05997,36.57465],[128.0593,36.57435],[128.05875,36.57457],[128.05814,36.57554],[128.05859,36.57623],[128.05851,36.57695],[128.05666,36.57876],[128.05754,36.57973],[128.05798,36.58188],[128.05636,36.58245],[128.05643,36.58278],[128.05768,36.58426],[128.05737,36.58556],[128.0586,36.58591],[128.05966,36.58689],[128.06235,36.58724],[128.06238,36.58771],[128.0619,36.58782],[128.06144,36.58858],[128.06328,36.58906],[128.06469,36.58898],[128.0658,36.59076],[128.06653,36.591],[128.06831,36.59272],[128.06839,36.59346],[128.06899,36.59422],[128.06858,36.59619],[128.06926,36.59654],[128.07053,36.59802],[128.07211,36.59885],[128.07148,36.59997],[128.07194,36.60225],[128.07151,36.60532],[128.07573,36.60605],[128.07709,36.60699],[128.07882,36.60745],[128.08149,36.60692],[128.08272,36.60772],[128.08369,36.6094],[128.08418,36.60915],[128.08546,36.6092],[128.08615,36.60931],[128.08675,36.6098],[128.08958,36.60873],[128.09068,36.60886],[128.09208,36.60839],[128.09534,36.60891],[128.09799,36.60839],[128.09816,36.60873],[128.09883,36.60872],[128.09992,36.60827],[128.10163,36.60866],[128.10439,36.60688],[128.10527,36.60663],[128.1067,36.60759],[128.10815,36.60787],[128.10938,36.60958],[128.11231,36.61093],[128.11196,36.6163],[128.1124,36.61658],[128.11277,36.61778],[128.11239,36.61891],[128.11325,36.61908],[128.1157,36.62098],[128.1197,36.62193],[128.12106,36.62009],[128.12537,36.61919],[128.12709,36.61627],[128.12704,36.6157],[128.13267,36.6134],[128.13613,36.61297],[128.1372,36.61119],[128.13899,36.61073],[128.14257,36.60837],[128.14435,36.60824],[128.1453,36.6077],[128.14531,36.60642],[128.14693,36.60499],[128.14723,36.60404],[128.14707,36.60323],[128.14841,36.60236],[128.14954,36.60122],[128.1496,36.60074],[128.15034,36.60042],[128.15084,36.59968],[128.15172,36.59933],[128.15434,36.60046],[128.1552,36.60018],[128.15615,36.60038],[128.15826,36.60024],[128.16156,36.5985],[128.16131,36.59801],[128.16198,36.59726],[128.16211,36.59655],[128.16276,36.59649],[128.16423,36.59737],[128.16473,36.59685],[128.16588,36.5967],[128.16728,36.59704],[128.17105,36.59696],[128.17275,36.59577],[128.17496,36.5969],[128.17675,36.59642],[128.17746,36.59537],[128.17712,36.5936],[128.17757,36.59303],[128.17747,36.59229],[128.17941,36.5912],[128.18008,36.59012],[128.17935,36.58713],[128.17955,36.58616],[128.18105,36.58502],[128.17887,36.58398],[128.17784,36.58413],[128.18032,36.58262],[128.18125,36.58167],[128.18314,36.58117],[128.1843,36.58192],[128.18839,36.58307],[128.18899,36.58361],[128.19028,36.58379],[128.19146,36.58322],[128.19274,36.58326],[128.1939,36.58279],[128.1947,36.58173],[128.19803,36.58116],[128.19905,36.58],[128.20072,36.57961],[128.2016,36.57874],[128.2067,36.57852],[128.20729,36.57829],[128.20784,36.57717],[128.20767,36.57609],[128.20602,36.57483],[128.20561,36.57379],[128.20615,36.57221],[128.21195,36.5732],[128.21566,36.57259],[128.21762,36.57264],[128.21929,36.57509],[128.21962,36.57094],[128.22036,36.5696],[128.21864,36.56731],[128.21653,36.56247],[128.21703,36.55887],[128.21857,36.55731],[128.21684,36.55707],[128.21744,36.55493],[128.21763,36.55244],[128.21758,36.55132],[128.21637,36.54771],[128.21637,36.54557],[128.21704,36.54413],[128.21681,36.54173],[128.21705,36.53946],[128.2223,36.53471],[128.2278,36.53337],[128.23015,36.53167],[128.23575,36.53005],[128.24274,36.53302],[128.24689,36.5333],[128.24837,36.53453],[128.25245,36.53527],[128.25959,36.53446],[128.26167,36.53358],[128.26366,36.5319],[128.26516,36.53188],[128.26674,36.53271],[128.26797,36.53579],[128.26859,36.52791],[128.26974,36.52642],[128.26976,36.52282],[128.27085,36.51922],[128.26937,36.51702],[128.2666,36.51631],[128.26552,36.51198],[128.26472,36.51073],[128.26437,36.50712],[128.26587,36.50201],[128.26615,36.49756],[128.26716,36.49623],[128.26744,36.49397],[128.26868,36.49125],[128.26976,36.49019],[128.2703,36.48678],[128.26967,36.48549],[128.2679,36.48488],[128.26633,36.48373],[128.26632,36.48315],[128.26415,36.47953],[128.26205,36.47698],[128.26507,36.47585],[128.26745,36.47756],[128.26931,36.47687],[128.27102,36.47722],[128.27154,36.47598],[128.27222,36.47567],[128.27266,36.47585],[128.27274,36.47535],[128.27488,36.47454],[128.27712,36.47256],[128.27918,36.47184],[128.27834,36.46918],[128.27854,36.46672],[128.27912,36.46466],[128.28058,36.46355],[128.28449,36.46261],[128.28554,36.46314],[128.28883,36.46195],[128.29118,36.46184],[128.29223,36.46291],[128.29319,36.46467],[128.29549,36.46505],[128.29964,36.46347],[128.30009,36.46239],[128.30327,36.46023],[128.30343,36.45941],[128.30482,36.45755],[128.30685,36.45637],[128.30772,36.45622],[128.30875,36.45439],[128.31351,36.45459],[128.31404,36.45408],[128.31388,36.45247],[128.31481,36.45165],[128.31629,36.45095],[128.31772,36.44905],[128.31848,36.44681],[128.31981,36.44595],[128.32187,36.44566],[128.32335,36.44474],[128.32369,36.44434],[128.32362,36.4432],[128.3259,36.44032],[128.32546,36.43858],[128.32627,36.43801],[128.32651,36.43693],[128.3249,36.43605],[128.32276,36.43301],[128.32164,36.43225],[128.32287,36.43038],[128.32302,36.42765],[128.32182,36.42576],[128.32175,36.42359],[128.32336,36.42401],[128.32685,36.42407],[128.32888,36.42367],[128.32974,36.42341],[128.33027,36.4223],[128.33141,36.42125],[128.33354,36.42113],[128.33396,36.42068],[128.33412,36.42015],[128.33376,36.42013],[128.33247,36.41878],[128.3329,36.41682],[128.33241,36.41635],[128.33303,36.41524],[128.33336,36.41239],[128.33407,36.41105],[128.33305,36.41059],[128.33487,36.4102],[128.33724,36.40877],[128.33855,36.40741],[128.33904,36.40495],[128.33716,36.40274],[128.33576,36.40209],[128.33451,36.40058],[128.33333,36.40033],[128.33331,36.39976],[128.33271,36.39938],[128.33362,36.39822],[128.33356,36.39785],[128.3324,36.39656],[128.33243,36.39542],[128.33107,36.39437],[128.32992,36.39122],[128.32936,36.39068],[128.32933,36.38904],[128.32677,36.38677],[128.32663,36.38616],[128.32417,36.38551],[128.32314,36.3855],[128.32141,36.38636],[128.3175,36.38763],[128.31721,36.38671],[128.31478,36.38367],[128.31444,36.38203],[128.31488,36.38244],[128.31201,36.37535],[128.31132,36.37512],[128.31142,36.37134],[128.31187,36.36894],[128.31034,36.36415],[128.30778,36.36136],[128.30724,36.36305],[128.30422,36.36082],[128.29974,36.35678],[128.2967,36.35268],[128.29441,36.35128],[128.29204,36.35052],[128.28768,36.3463],[128.28211,36.34627],[128.28209,36.34901],[128.27734,36.35012],[128.27727,36.35158],[128.27814,36.35374],[128.27891,36.35378],[128.27771,36.35739],[128.27486,36.35975],[128.27003,36.36195],[128.26767,36.36097],[128.26389,36.36102],[128.26108,36.36153],[128.2584,36.36247],[128.25631,36.36049],[128.25312,36.3595],[128.25284,36.35851],[128.25096,36.35705],[128.25203,36.35397],[128.25131,36.35132],[128.24981,36.35153],[128.24662,36.35016],[128.24477,36.34808],[128.24454,36.34636],[128.24398,36.34654],[128.24377,36.346],[128.24406,36.34582],[128.2428,36.34568],[128.24217,36.34468],[128.24174,36.34256],[128.24047,36.34099],[128.24054,36.34044],[128.23896,36.33869],[128.23687,36.3352],[128.23547,36.33388],[128.23261,36.33301],[128.23192,36.33163],[128.23183,36.329],[128.23231,36.32704],[128.2309,36.3266],[128.23175,36.3194],[128.23087,36.31746],[128.2308,36.3149],[128.2298,36.31032],[128.22872,36.30773],[128.22896,36.30709],[128.22954,36.30669],[128.22926,36.30535],[128.2295,36.30476],[128.22873,36.30413],[128.2289,36.30315],[128.22546,36.30371],[128.22502,36.30409],[128.22533,36.305],[128.2249,36.30554],[128.22236,36.30692],[128.22193,36.30661],[128.21942,36.3072],[128.21836,36.307],[128.21657,36.30537],[128.21455,36.3056],[128.21364,36.30534],[128.21281,36.3048],[128.2117,36.30306],[128.20999,36.30199],[128.20877,36.30073],[128.20822,36.3007],[128.20717,36.29915],[128.20559,36.29866],[128.20433,36.29883],[128.19869,36.29789],[128.19696,36.29834],[128.19633,36.29916],[128.19425,36.30034],[128.19194,36.29959],[128.18985,36.30076],[128.1886,36.30067],[128.18802,36.29929],[128.18492,36.29735],[128.17981,36.29847],[128.17888,36.29828],[128.17836,36.29778],[128.17726,36.29767],[128.17344,36.29811],[128.17229,36.29847],[128.17211,36.29912],[128.17134,36.29961],[128.16958,36.29989],[128.16771,36.29923],[128.16752,36.29858],[128.16652,36.2978],[128.16489,36.29705],[128.1641,36.29716],[128.16331,36.29687],[128.16182,36.29738],[128.16107,36.29695],[128.15882,36.29684],[128.15858,36.29626],[128.1575,36.29541],[128.15639,36.29506],[128.15485,36.29527],[128.15398,36.29436]]]]},"properties":{"id":"SGG:47250","layer":"L3","admin_code":"47250","name":"경상북도 상주시","sido":"경상북도","sgg":"상주시","provisional":false,"source":"통계청 행정동 경계(BND_ADM_DONG_PG, 2025-06-30) 를 시군구로 합침","source_kind":"derived","derived_from":"행정동 경계 union · 20 m 단순화"}}]}