{"type":"FeatureCollection","features":[{"type":"Feature","id":"SGG:51750","geometry":{"type":"MultiPolygon","coordinates":[[[[128.82147,37.17564],[128.82459,37.17546],[128.82542,37.1749],[128.82642,37.17471],[128.82809,37.17488],[128.83011,37.176],[128.83349,37.17573],[128.83482,37.1744],[128.83562,37.17274],[128.83712,37.17166],[128.83739,37.17066],[128.83823,37.17061],[128.83936,37.16953],[128.84001,37.16857],[128.84011,37.16748],[128.84153,37.16774],[128.84155,37.1671],[128.84283,37.16716],[128.8455,37.16648],[128.84598,37.16703],[128.84757,37.16718],[128.84896,37.16681],[128.85039,37.16689],[128.85087,37.16731],[128.85267,37.16772],[128.85768,37.16793],[128.85954,37.1685],[128.86046,37.16822],[128.86133,37.16856],[128.86328,37.16846],[128.86521,37.16953],[128.86706,37.16937],[128.86843,37.16836],[128.8701,37.16812],[128.87202,37.16731],[128.87867,37.16784],[128.88031,37.16866],[128.8823,37.16836],[128.88372,37.16892],[128.88485,37.16884],[128.88649,37.16784],[128.8863,37.16641],[128.88668,37.16531],[128.88816,37.16442],[128.88899,37.16289],[128.89079,37.16227],[128.89188,37.16059],[128.89241,37.15886],[128.89202,37.15688],[128.89253,37.15606],[128.89248,37.15481],[128.89304,37.15379],[128.89317,37.15209],[128.89503,37.15136],[128.89756,37.15085],[128.89832,37.15019],[128.89825,37.14912],[128.90053,37.14708],[128.89738,37.14717],[128.894,37.14623],[128.89251,37.1447],[128.89068,37.14412],[128.88818,37.14107],[128.88781,37.13837],[128.88692,37.13632],[128.88697,37.13429],[128.88763,37.13266],[128.88724,37.13255],[128.88762,37.13253],[128.88763,37.13213],[128.88809,37.13189],[128.88803,37.13022],[128.88902,37.12878],[128.88863,37.12705],[128.88924,37.12471],[128.88881,37.12419],[128.88751,37.12345],[128.88632,37.12174],[128.88447,37.1213],[128.8832,37.12021],[128.88309,37.11946],[128.8819,37.1194],[128.87963,37.1187],[128.87919,37.11724],[128.87847,37.11655],[128.8776,37.11654],[128.87759,37.11593],[128.87615,37.11459],[128.87444,37.11385],[128.87238,37.11417],[128.87046,37.11363],[128.87027,37.11275],[128.86948,37.11247],[128.86932,37.11212],[128.86944,37.10979],[128.86819,37.10897],[128.86716,37.10886],[128.86762,37.10783],[128.86817,37.10725],[128.86879,37.10711],[128.87048,37.10796],[128.87269,37.10786],[128.87422,37.10834],[128.87528,37.10819],[128.87715,37.10669],[128.87814,37.10492],[128.8788,37.10447],[128.8819,37.10413],[128.88351,37.10299],[128.88646,37.10258],[128.88741,37.10171],[128.88645,37.09859],[128.88655,37.09726],[128.88734,37.09562],[128.88783,37.09546],[128.88792,37.09365],[128.88827,37.09336],[128.88856,37.09171],[128.88634,37.08934],[128.88605,37.08962],[128.88565,37.08936],[128.885,37.08403],[128.88417,37.08368],[128.88214,37.08144],[128.88092,37.08056],[128.8756,37.07847],[128.87454,37.0786],[128.87508,37.07749],[128.87482,37.07547],[128.87552,37.07443],[128.87557,37.07328],[128.87641,37.07202],[128.87932,37.07015],[128.88047,37.06898],[128.88372,37.0672],[128.88531,37.06586],[128.8857,37.06595],[128.88538,37.06456],[128.88615,37.06378],[128.88662,37.06249],[128.88839,37.06169],[128.89162,37.06204],[128.89416,37.06347],[128.89529,37.06363],[128.89613,37.06426],[128.89617,37.06474],[128.89876,37.06666],[128.90132,37.06679],[128.90512,37.06597],[128.91032,37.06832],[128.91042,37.06613],[128.90686,37.06485],[128.90555,37.06397],[128.90486,37.06204],[128.90141,37.05971],[128.8993,37.05874],[128.89807,37.0576],[128.8968,37.05506],[128.89711,37.0543],[128.89698,37.05057],[128.89769,37.04975],[128.89741,37.04796],[128.89788,37.04597],[128.89642,37.04452],[128.89479,37.04525],[128.89284,37.04748],[128.89168,37.0477],[128.88927,37.04939],[128.8892,37.04975],[128.88734,37.05036],[128.88517,37.05024],[128.88431,37.05118],[128.88168,37.05194],[128.88097,37.05183],[128.87854,37.05326],[128.8779,37.05186],[128.87835,37.05086],[128.87712,37.04904],[128.87725,37.04782],[128.87684,37.04608],[128.87566,37.04475],[128.87248,37.04395],[128.87032,37.04495],[128.86971,37.04555],[128.86737,37.04621],[128.86714,37.04691],[128.86595,37.04794],[128.86463,37.04803],[128.86365,37.0487],[128.85898,37.04966],[128.85699,37.04892],[128.85252,37.05034],[128.85108,37.0502],[128.8504,37.05073],[128.84687,37.05161],[128.84611,37.05228],[128.84606,37.05293],[128.84392,37.05462],[128.84371,37.05575],[128.84402,37.05717],[128.84065,37.05936],[128.84067,37.0604],[128.83998,37.06167],[128.83811,37.06331],[128.83595,37.06594],[128.83296,37.06731],[128.83167,37.0674],[128.83093,37.07017],[128.83126,37.07411],[128.83208,37.07508],[128.82938,37.07846],[128.82841,37.0789],[128.82635,37.07883],[128.82435,37.07785],[128.81943,37.07703],[128.81762,37.07777],[128.81531,37.078],[128.81437,37.07847],[128.81257,37.07871],[128.81052,37.07779],[128.808,37.07576],[128.80566,37.07721],[128.80521,37.07713],[128.80381,37.07794],[128.80219,37.07771],[128.79997,37.07897],[128.80048,37.08003],[128.80011,37.08128],[128.80153,37.08435],[128.80109,37.0856],[128.79942,37.08694],[128.78581,37.08785],[128.78269,37.09144],[128.78162,37.09177],[128.78128,37.09227],[128.78028,37.09234],[128.77643,37.08978],[128.77668,37.08879],[128.77359,37.08751],[128.77784,37.08328],[128.77793,37.07893],[128.77541,37.07865],[128.77423,37.07735],[128.77134,37.07635],[128.77099,37.07563],[128.77008,37.07523],[128.76982,37.07396],[128.76858,37.07271],[128.76883,37.07077],[128.76841,37.06961],[128.76839,37.06781],[128.76723,37.0668],[128.76708,37.06597],[128.76536,37.06403],[128.76475,37.06355],[128.76015,37.06676],[128.75808,37.06908],[128.75815,37.06972],[128.75751,37.07001],[128.75718,37.07001],[128.75643,37.06829],[128.75657,37.06708],[128.75526,37.06622],[128.75582,37.06497],[128.75525,37.06445],[128.75475,37.06279],[128.75406,37.06194],[128.75469,37.06114],[128.75455,37.05975],[128.75317,37.05811],[128.75258,37.05786],[128.75232,37.05593],[128.75302,37.05372],[128.75464,37.05279],[128.75448,37.05238],[128.75519,37.05016],[128.75664,37.04909],[128.75725,37.04758],[128.7591,37.047],[128.76001,37.04549],[128.76068,37.04537],[128.76061,37.04505],[128.76142,37.04444],[128.76168,37.04269],[128.7622,37.04179],[128.76187,37.04021],[128.76254,37.03786],[128.76218,37.03616],[128.75978,37.03562],[128.75455,37.03196],[128.75376,37.02783],[128.7528,37.02821],[128.75098,37.0281],[128.74973,37.0289],[128.74908,37.02886],[128.74521,37.03238],[128.74451,37.03344],[128.74311,37.03392],[128.74322,37.03449],[128.74057,37.0367],[128.73953,37.03714],[128.73894,37.03791],[128.73819,37.03797],[128.73583,37.03975],[128.73462,37.04023],[128.73311,37.04052],[128.732,37.04038],[128.73012,37.04113],[128.72746,37.04103],[128.72588,37.04235],[128.72225,37.0425],[128.71867,37.04375],[128.71501,37.04279],[128.71275,37.04265],[128.71152,37.0419],[128.7091,37.03936],[128.70632,37.04009],[128.70506,37.04012],[128.70413,37.04092],[128.7004,37.04083],[128.69684,37.04424],[128.69671,37.04529],[128.69527,37.04619],[128.6945,37.04741],[128.69217,37.04947],[128.68907,37.05305],[128.6871,37.05256],[128.68667,37.05218],[128.68539,37.05215],[128.68373,37.05144],[128.68288,37.05314],[128.68061,37.05383],[128.67976,37.05579],[128.67752,37.05701],[128.67688,37.05806],[128.67632,37.05815],[128.67565,37.05885],[128.67313,37.05898],[128.67192,37.05859],[128.67031,37.05944],[128.66927,37.0594],[128.66731,37.06026],[128.66428,37.0609],[128.66191,37.06104],[128.65941,37.06035],[128.6574,37.06117],[128.65601,37.06446],[128.65308,37.06571],[128.65216,37.06543],[128.6506,37.06583],[128.64822,37.06768],[128.64696,37.06809],[128.64593,37.0691],[128.64467,37.06905],[128.64267,37.07076],[128.64046,37.07104],[128.6391,37.07066],[128.6374,37.07226],[128.63631,37.07196],[128.63436,37.0707],[128.63353,37.07232],[128.62821,37.07516],[128.62822,37.07652],[128.6273,37.07747],[128.62775,37.08049],[128.62828,37.08133],[128.62456,37.08443],[128.62395,37.0858],[128.62264,37.0874],[128.62065,37.08583],[128.61766,37.08514],[128.61754,37.08423],[128.61503,37.08188],[128.61402,37.08124],[128.61202,37.08068],[128.6113,37.07982],[128.6105,37.08008],[128.60992,37.07991],[128.60797,37.07751],[128.60701,37.07677],[128.6064,37.07667],[128.60594,37.0768],[128.60493,37.07797],[128.60513,37.07918],[128.60488,37.07936],[128.60341,37.07882],[128.60298,37.07838],[128.60164,37.07845],[128.60101,37.07887],[128.60069,37.07955],[128.60086,37.08082],[128.60201,37.0822],[128.60162,37.08306],[128.59913,37.08307],[128.59959,37.08258],[128.59922,37.08209],[128.59827,37.08247],[128.5969,37.08242],[128.59504,37.08154],[128.59398,37.08086],[128.59403,37.0797],[128.59357,37.07884],[128.5931,37.07839],[128.59185,37.07816],[128.59083,37.07837],[128.59016,37.07915],[128.58868,37.07998],[128.58709,37.07997],[128.58445,37.0807],[128.5832,37.08075],[128.58173,37.08167],[128.58042,37.08142],[128.57971,37.0816],[128.57441,37.08132],[128.57419,37.08212],[128.57334,37.08296],[128.57223,37.08383],[128.57037,37.08447],[128.57091,37.08622],[128.56918,37.08671],[128.56741,37.08824],[128.56484,37.08866],[128.56331,37.08965],[128.5617,37.09024],[128.55864,37.08867],[128.55668,37.08723],[128.55385,37.08659],[128.55046,37.08655],[128.54975,37.08619],[128.5471,37.08728],[128.54532,37.0877],[128.54447,37.08759],[128.54156,37.08903],[128.53813,37.08963],[128.53775,37.09],[128.53683,37.09014],[128.53557,37.09187],[128.53517,37.09302],[128.5354,37.09383],[128.53416,37.09708],[128.53414,37.09811],[128.53117,37.10001],[128.52771,37.10153],[128.52494,37.10146],[128.52184,37.10309],[128.52073,37.10224],[128.51933,37.10228],[128.51843,37.10189],[128.51552,37.10325],[128.51447,37.10135],[128.51365,37.10603],[128.5122,37.10943],[128.51119,37.11087],[128.51076,37.11395],[128.51013,37.11396],[128.50667,37.11544],[128.50607,37.11629],[128.50342,37.11849],[128.50299,37.11967],[128.49833,37.12374],[128.49655,37.12579],[128.49561,37.12562],[128.49385,37.1246],[128.49262,37.12461],[128.491,37.12382],[128.48953,37.12172],[128.48945,37.12101],[128.48685,37.12007],[128.48556,37.11777],[128.48452,37.11741],[128.48404,37.11648],[128.48239,37.11496],[128.48176,37.11418],[128.48187,37.1127],[128.48087,37.11169],[128.47928,37.11133],[128.47781,37.11015],[128.47322,37.11016],[128.4723,37.10984],[128.46817,37.11021],[128.46618,37.10992],[128.46632,37.10972],[128.46236,37.11046],[128.46167,37.11016],[128.4612,37.11047],[128.45805,37.11028],[128.45673,37.11068],[128.45531,37.11185],[128.45252,37.11172],[128.45084,37.11236],[128.45029,37.11222],[128.44836,37.11014],[128.44666,37.10902],[128.44645,37.10829],[128.44532,37.10747],[128.4448,37.10627],[128.44269,37.10924],[128.43982,37.10996],[128.43614,37.11199],[128.43514,37.11148],[128.43555,37.10951],[128.43058,37.10675],[128.43007,37.10531],[128.43012,37.10367],[128.4247,37.10246],[128.42306,37.10325],[128.42259,37.10473],[128.42262,37.10689],[128.42216,37.10779],[128.42257,37.10939],[128.42216,37.11016],[128.42356,37.11224],[128.42105,37.1137],[128.42075,37.11494],[128.41989,37.1163],[128.42002,37.118],[128.41847,37.11981],[128.41615,37.12082],[128.41514,37.12025],[128.41311,37.12101],[128.41195,37.12198],[128.41104,37.12213],[128.40729,37.12638],[128.40575,37.12699],[128.396,37.12859],[128.39683,37.12937],[128.39703,37.13007],[128.3979,37.13062],[128.39809,37.13165],[128.40079,37.13333],[128.40088,37.13409],[128.40179,37.13481],[128.40132,37.13543],[128.40187,37.13678],[128.40147,37.1376],[128.40182,37.13852],[128.40338,37.13914],[128.40366,37.13962],[128.40241,37.14155],[128.40087,37.14688],[128.40035,37.1473],[128.39967,37.14733],[128.39934,37.14774],[128.39848,37.14773],[128.39637,37.14857],[128.39608,37.14935],[128.39563,37.14944],[128.39533,37.14999],[128.39537,37.15054],[128.39419,37.15147],[128.39353,37.15139],[128.39318,37.15173],[128.39321,37.15253],[128.39253,37.15339],[128.3928,37.1548],[128.39107,37.15512],[128.38876,37.15462],[128.38834,37.15525],[128.38613,37.15648],[128.38608,37.15688],[128.38435,37.15812],[128.3837,37.15821],[128.38332,37.1566],[128.38222,37.15594],[128.38185,37.15522],[128.38147,37.15599],[128.38051,37.15499],[128.37875,37.15469],[128.37877,37.15384],[128.37809,37.15308],[128.37816,37.15174],[128.37708,37.15167],[128.37672,37.1517],[128.37583,37.15331],[128.37413,37.15349],[128.36931,37.15512],[128.36839,37.15444],[128.36789,37.15443],[128.36535,37.15764],[128.36442,37.15763],[128.36446,37.15624],[128.36258,37.15394],[128.36217,37.1527],[128.35972,37.15022],[128.35828,37.15228],[128.35559,37.1536],[128.35398,37.15567],[128.35151,37.15741],[128.3508,37.15757],[128.35051,37.15703],[128.34875,37.15699],[128.34822,37.15651],[128.34763,37.1565],[128.34704,37.15718],[128.34538,37.1561],[128.34502,37.15632],[128.34343,37.15631],[128.34259,37.15594],[128.34201,37.15621],[128.34139,37.15739],[128.34049,37.15809],[128.33896,37.15775],[128.33848,37.15814],[128.33709,37.15785],[128.3355,37.15725],[128.33475,37.15652],[128.33446,37.15598],[128.33491,37.15512],[128.33347,37.15248],[128.33305,37.15256],[128.33067,37.15034],[128.32922,37.15201],[128.32784,37.15301],[128.32747,37.15294],[128.32704,37.15109],[128.32613,37.14995],[128.32599,37.14911],[128.32473,37.14807],[128.32444,37.14796],[128.32306,37.14851],[128.32202,37.14922],[128.31979,37.14726],[128.31853,37.14784],[128.31672,37.14756],[128.31211,37.145],[128.31111,37.14578],[128.30952,37.14493],[128.30932,37.1428],[128.3074,37.14064],[128.30588,37.13953],[128.30636,37.13753],[128.30099,37.13595],[128.30073,37.13527],[128.29834,37.13419],[128.29623,37.13411],[128.29571,37.13603],[128.2939,37.13767],[128.29267,37.1393],[128.29062,37.13985],[128.28889,37.14123],[128.28654,37.14188],[128.28558,37.14245],[128.28497,37.14237],[128.28469,37.14315],[128.28185,37.14307],[128.27993,37.14246],[128.27759,37.14416],[128.27672,37.14614],[128.27526,37.14647],[128.27329,37.14763],[128.27226,37.14895],[128.27227,37.15116],[128.27059,37.15423],[128.26724,37.15603],[128.2662,37.15603],[128.26592,37.15787],[128.26444,37.16042],[128.26632,37.16127],[128.27039,37.16177],[128.27005,37.16488],[128.27072,37.16636],[128.2732,37.16835],[128.27367,37.16964],[128.27499,37.17021],[128.27592,37.17106],[128.27645,37.17228],[128.2763,37.17268],[128.27842,37.17213],[128.28111,37.1734],[128.28243,37.17179],[128.28782,37.1713],[128.28968,37.17015],[128.29215,37.17046],[128.29587,37.17155],[128.29807,37.17166],[128.29729,37.17403],[128.2973,37.17615],[128.29606,37.17846],[128.29562,37.18329],[128.29765,37.18366],[128.29992,37.18358],[128.30264,37.18662],[128.30599,37.18707],[128.30639,37.18626],[128.30766,37.186],[128.30841,37.18654],[128.30866,37.18747],[128.31049,37.18734],[128.3111,37.18984],[128.3142,37.19],[128.31299,37.19114],[128.31371,37.19333],[128.31285,37.19505],[128.31339,37.19678],[128.31404,37.19669],[128.31506,37.19712],[128.31508,37.19676],[128.3188,37.19644],[128.31951,37.196],[128.32176,37.19555],[128.32185,37.19666],[128.3215,37.19758],[128.32244,37.19835],[128.3247,37.19748],[128.32492,37.197],[128.32574,37.19693],[128.32639,37.19729],[128.32746,37.1985],[128.3275,37.1996],[128.32964,37.20226],[128.32969,37.2032],[128.32924,37.20427],[128.3287,37.20461],[128.32876,37.20607],[128.32988,37.2078],[128.32985,37.20965],[128.33055,37.21174],[128.33292,37.21453],[128.3334,37.21579],[128.32999,37.21624],[128.32897,37.21682],[128.32879,37.21662],[128.32707,37.21681],[128.32476,37.21821],[128.32383,37.21923],[128.32101,37.21936],[128.32006,37.21986],[128.31868,37.22165],[128.31632,37.22245],[128.31659,37.22339],[128.31404,37.22269],[128.3137,37.222],[128.3126,37.22146],[128.31015,37.21926],[128.30914,37.21746],[128.30795,37.21711],[128.30485,37.21724],[128.30367,37.21683],[128.30138,37.2169],[128.30125,37.21658],[128.29998,37.21624],[128.29886,37.21609],[128.29704,37.21634],[128.29608,37.21599],[128.29498,37.216],[128.29469,37.21563],[128.29365,37.21595],[128.29128,37.2146],[128.28985,37.21505],[128.28818,37.21507],[128.28465,37.21167],[128.28395,37.21018],[128.28253,37.21027],[128.28044,37.20943],[128.27854,37.2101],[128.27479,37.20965],[128.27286,37.20986],[128.27102,37.20878],[128.2684,37.20792],[128.26704,37.20909],[128.26651,37.2106],[128.26169,37.21412],[128.25979,37.21641],[128.25884,37.21823],[128.25798,37.22124],[128.25722,37.22195],[128.256,37.22146],[128.25536,37.22184],[128.25519,37.22215],[128.25625,37.22186],[128.25711,37.22241],[128.25395,37.22507],[128.25393,37.22595],[128.25263,37.22714],[128.25265,37.22798],[128.25194,37.22822],[128.25093,37.22958],[128.25022,37.22974],[128.24812,37.22895],[128.24431,37.22654],[128.24372,37.22701],[128.24234,37.22732],[128.24179,37.22716],[128.24132,37.22759],[128.24092,37.22744],[128.2404,37.22844],[128.23912,37.22906],[128.23758,37.22888],[128.23742,37.22932],[128.23565,37.22864],[128.23446,37.22734],[128.23368,37.22754],[128.23302,37.22702],[128.23174,37.22701],[128.22924,37.22757],[128.2285,37.22803],[128.22829,37.22905],[128.22862,37.23018],[128.22718,37.23122],[128.22681,37.23235],[128.22623,37.23284],[128.22435,37.23294],[128.22402,37.23389],[128.22363,37.23391],[128.22284,37.23533],[128.22283,37.23632],[128.22197,37.23729],[128.22185,37.23811],[128.22031,37.2403],[128.21768,37.24082],[128.21581,37.24177],[128.21479,37.24184],[128.21461,37.24237],[128.21502,37.24361],[128.21465,37.24607],[128.21202,37.24536],[128.21024,37.24579],[128.20814,37.24796],[128.2078,37.24882],[128.20859,37.2489],[128.20932,37.25012],[128.20957,37.25436],[128.21135,37.25774],[128.21158,37.25939],[128.2121,37.25977],[128.21194,37.26078],[128.21307,37.26206],[128.21279,37.26348],[128.21249,37.26365],[128.21293,37.26384],[128.21301,37.26614],[128.2115,37.2672],[128.21138,37.26779],[128.21178,37.26945],[128.21145,37.27057],[128.21177,37.27315],[128.21074,37.27507],[128.21276,37.27564],[128.21407,37.27688],[128.21568,37.27738],[128.21655,37.27725],[128.21689,37.27782],[128.21785,37.27757],[128.21846,37.27856],[128.21789,37.27953],[128.21692,37.2803],[128.21675,37.28137],[128.21617,37.28219],[128.21643,37.28322],[128.21508,37.28538],[128.21491,37.28665],[128.2145,37.28689],[128.21412,37.28815],[128.21288,37.28882],[128.21154,37.2887],[128.21007,37.28894],[128.20852,37.28874],[128.20774,37.28813],[128.20657,37.28783],[128.20555,37.28938],[128.20441,37.29018],[128.20345,37.28988],[128.20143,37.29124],[128.19975,37.29357],[128.19936,37.29478],[128.19785,37.29655],[128.19608,37.29742],[128.19446,37.29728],[128.19156,37.29582],[128.19162,37.2944],[128.19025,37.29346],[128.18809,37.29284],[128.187,37.29303],[128.18551,37.29236],[128.18453,37.29226],[128.18267,37.29289],[128.17882,37.29186],[128.17837,37.29141],[128.17765,37.28912],[128.17852,37.28761],[128.17909,37.2854],[128.17875,37.28346],[128.17769,37.28245],[128.17811,37.28095],[128.17783,37.27952],[128.17417,37.27905],[128.17328,37.27921],[128.17163,37.27795],[128.17079,37.27771],[128.17016,37.27792],[128.16969,37.27722],[128.16797,37.27621],[128.16467,37.27539],[128.16393,37.27486],[128.16341,37.27392],[128.16026,37.27368],[128.15935,37.27386],[128.15854,37.27317],[128.1571,37.27323],[128.15246,37.27225],[128.1502,37.27256],[128.14599,37.27212],[128.14256,37.27104],[128.13885,37.27149],[128.13833,37.27182],[128.1368,37.2718],[128.13137,37.27448],[128.12862,37.27472],[128.12741,37.27434],[128.12555,37.27522],[128.12468,37.27515],[128.12384,37.27463],[128.12141,37.27222],[128.1174,37.27264],[128.11662,37.27226],[128.11555,37.27248],[128.11459,37.27349],[128.11545,37.27651],[128.1142,37.2783],[128.11309,37.27828],[128.11042,37.27924],[128.10989,37.28066],[128.11044,37.28243],[128.11007,37.28321],[128.10896,37.28384],[128.10854,37.28617],[128.10913,37.28848],[128.10786,37.28968],[128.10716,37.29276],[128.10895,37.2967],[128.10857,37.29878],[128.10998,37.30001],[128.11116,37.30038],[128.11255,37.30129],[128.11377,37.30151],[128.11587,37.30322],[128.11802,37.30404],[128.11806,37.30438],[128.11699,37.3054],[128.11656,37.30677],[128.11567,37.30763],[128.11473,37.31005],[128.11462,37.31211],[128.11543,37.31317],[128.11493,37.31565],[128.11588,37.31823],[128.11712,37.31909],[128.11758,37.31992],[128.11963,37.32076],[128.11993,37.32141],[128.11949,37.32307],[128.12064,37.32404],[128.12353,37.32494],[128.12591,37.3265],[128.12843,37.32759],[128.12946,37.32847],[128.12998,37.32838],[128.13089,37.32885],[128.13154,37.32885],[128.1334,37.32839],[128.13522,37.32718],[128.13557,37.32622],[128.13625,37.32586],[128.13693,37.32595],[128.13917,37.32506],[128.14111,37.32518],[128.14183,37.32486],[128.14385,37.32482],[128.14667,37.32295],[128.14841,37.32408],[128.14897,37.32556],[128.15067,37.327],[128.15268,37.32727],[128.15841,37.32363],[128.16129,37.32301],[128.16255,37.32306],[128.16313,37.32342],[128.1636,37.32335],[128.16498,37.32218],[128.16637,37.32215],[128.1667,37.32183],[128.16784,37.3221],[128.17038,37.32352],[128.1714,37.32476],[128.173,37.32501],[128.17261,37.32857],[128.16959,37.33453],[128.1682,37.33616],[128.16855,37.33644],[128.16766,37.3376],[128.16803,37.33805],[128.16918,37.33915],[128.16961,37.33884],[128.17268,37.33862],[128.17349,37.3378],[128.17422,37.33796],[128.17525,37.3375],[128.17593,37.33758],[128.17665,37.33812],[128.17908,37.33854],[128.18033,37.3395],[128.1818,37.33888],[128.18387,37.33932],[128.18474,37.34034],[128.18615,37.34089],[128.18654,37.34143],[128.18555,37.34277],[128.18521,37.34468],[128.1855,37.34594],[128.1851,37.34687],[128.18543,37.34812],[128.18457,37.34894],[128.1845,37.35036],[128.18488,37.35129],[128.18427,37.35224],[128.18394,37.3541],[128.18306,37.35524],[128.184,37.35724],[128.18395,37.35839],[128.18467,37.35911],[128.18544,37.35938],[128.18206,37.36345],[128.18188,37.36491],[128.18142,37.36527],[128.18157,37.36737],[128.18094,37.36912],[128.17914,37.37067],[128.17863,37.37183],[128.17893,37.3728],[128.17831,37.37356],[128.17804,37.37506],[128.17805,37.37653],[128.18013,37.37826],[128.18028,37.38087],[128.1807,37.38098],[128.18119,37.38186],[128.18011,37.38295],[128.18027,37.38338],[128.17928,37.38586],[128.17981,37.38723],[128.18053,37.38797],[128.18225,37.38872],[128.18274,37.38963],[128.18419,37.39012],[128.18484,37.39091],[128.18491,37.39241],[128.18523,37.3927],[128.18744,37.39282],[128.18902,37.39153],[128.19223,37.39116],[128.1933,37.38974],[128.19346,37.39032],[128.19583,37.39078],[128.20061,37.39097],[128.20159,37.39137],[128.20281,37.39264],[128.2037,37.39289],[128.20458,37.39368],[128.20811,37.39499],[128.2105,37.3947],[128.21324,37.39392],[128.21395,37.39286],[128.21576,37.39286],[128.22075,37.39423],[128.22525,37.39251],[128.22869,37.38989],[128.22926,37.38969],[128.23265,37.38982],[128.23416,37.38929],[128.23492,37.38846],[128.23618,37.38794],[128.24093,37.3913],[128.24321,37.3943],[128.2447,37.39562],[128.24716,37.39486],[128.24863,37.39367],[128.25065,37.39388],[128.25163,37.39348],[128.25379,37.39324],[128.25593,37.39579],[128.25615,37.39676],[128.25725,37.3981],[128.25775,37.39942],[128.25761,37.40179],[128.25847,37.40396],[128.26032,37.4063],[128.26366,37.40716],[128.26442,37.40795],[128.26548,37.40844],[128.26787,37.40889],[128.26986,37.40867],[128.27146,37.40896],[128.27252,37.40846],[128.27343,37.4084],[128.27483,37.40741],[128.27679,37.40732],[128.27844,37.40652],[128.28141,37.40689],[128.28282,37.40666],[128.28378,37.40619],[128.28417,37.40515],[128.28504,37.40474],[128.29231,37.40205],[128.29327,37.40213],[128.29433,37.40101],[128.29381,37.39991],[128.29403,37.39837],[128.29341,37.39678],[128.29454,37.39394],[128.29665,37.39124],[128.29751,37.3887],[128.30284,37.38847],[128.30474,37.38731],[128.30701,37.38683],[128.30879,37.38389],[128.31187,37.38329],[128.31685,37.37792],[128.31841,37.37933],[128.31942,37.37965],[128.32121,37.37854],[128.32271,37.37861],[128.32594,37.37807],[128.32721,37.37611],[128.32711,37.37565],[128.32499,37.37396],[128.32342,37.37132],[128.32379,37.37052],[128.32356,37.3701],[128.32142,37.36773],[128.3207,37.36754],[128.32025,37.36666],[128.32062,37.36634],[128.3207,37.36554],[128.31951,37.36434],[128.31977,37.36122],[128.31929,37.36012],[128.31773,37.35928],[128.31722,37.35572],[128.31678,37.35525],[128.31648,37.35349],[128.31688,37.35228],[128.31738,37.35208],[128.31911,37.34955],[128.32024,37.34891],[128.32165,37.34736],[128.32166,37.34666],[128.32205,37.34633],[128.32194,37.34509],[128.32277,37.34374],[128.32174,37.34223],[128.32198,37.34041],[128.32115,37.33921],[128.32209,37.33601],[128.32196,37.33553],[128.32352,37.33372],[128.32342,37.33216],[128.32385,37.33178],[128.32428,37.32945],[128.32426,37.32704],[128.32365,37.32389],[128.32448,37.32137],[128.32482,37.32087],[128.32548,37.32148],[128.32914,37.32258],[128.33038,37.32261],[128.33174,37.32137],[128.33451,37.32012],[128.33686,37.31678],[128.33902,37.31473],[128.34313,37.31171],[128.352,37.30925],[128.35631,37.30895],[128.35759,37.30857],[128.35814,37.3071],[128.35763,37.30594],[128.36014,37.30544],[128.36301,37.30172],[128.36294,37.30108],[128.36349,37.30041],[128.36382,37.29911],[128.36546,37.29791],[128.36897,37.2963],[128.36946,37.29517],[128.37107,37.29438],[128.37165,37.29335],[128.3711,37.29232],[128.37121,37.29162],[128.37187,37.29124],[128.37555,37.28992],[128.37669,37.28993],[128.37716,37.28939],[128.37949,37.28881],[128.38091,37.28869],[128.38271,37.28895],[128.38633,37.29124],[128.38779,37.2911],[128.38878,37.29134],[128.38876,37.29185],[128.39021,37.29308],[128.39296,37.29445],[128.39446,37.29594],[128.39715,37.29727],[128.40015,37.29707],[128.40095,37.29603],[128.40268,37.29515],[128.40393,37.2952],[128.40609,37.29401],[128.40695,37.29453],[128.40846,37.29429],[128.40885,37.29466],[128.40935,37.29606],[128.4081,37.29941],[128.40733,37.2997],[128.40566,37.3016],[128.40603,37.30357],[128.40703,37.30494],[128.40663,37.30542],[128.40897,37.30649],[128.41044,37.30757],[128.41076,37.30873],[128.4097,37.3092],[128.40822,37.31087],[128.40735,37.3113],[128.40674,37.31445],[128.406,37.31608],[128.40531,37.31662],[128.40469,37.32085],[128.4067,37.32278],[128.40596,37.32379],[128.40664,37.32491],[128.40833,37.32635],[128.40874,37.32713],[128.4099,37.32809],[128.40992,37.32854],[128.41144,37.3295],[128.41196,37.33038],[128.41121,37.33409],[128.41287,37.33702],[128.41172,37.33857],[128.41396,37.33939],[128.41726,37.34181],[128.41808,37.34282],[128.41899,37.34337],[128.42059,37.34366],[128.42169,37.34319],[128.42504,37.34295],[128.42717,37.34221],[128.42971,37.33982],[128.43249,37.33973],[128.43309,37.33919],[128.43561,37.33956],[128.43834,37.3389],[128.43997,37.33804],[128.44113,37.33809],[128.44203,37.33748],[128.44402,37.33693],[128.4472,37.33766],[128.4487,37.33762],[128.45029,37.33638],[128.45198,37.33566],[128.45282,37.33569],[128.45397,37.33374],[128.45374,37.33287],[128.45401,37.3321],[128.45606,37.33071],[128.45938,37.32721],[128.45966,37.3261],[128.46303,37.32418],[128.46377,37.32225],[128.46366,37.32098],[128.46471,37.31935],[128.46331,37.31834],[128.46439,37.31703],[128.46443,37.31654],[128.46273,37.31533],[128.46129,37.31265],[128.46115,37.31126],[128.46247,37.30849],[128.46471,37.30668],[128.46604,37.30655],[128.46903,37.3071],[128.4706,37.30691],[128.47233,37.30622],[128.47307,37.30623],[128.47614,37.30427],[128.47717,37.30423],[128.47993,37.30287],[128.48135,37.30259],[128.48402,37.30252],[128.48536,37.30292],[128.48735,37.30257],[128.48847,37.30275],[128.48973,37.30244],[128.49297,37.30232],[128.49669,37.3034],[128.49712,37.30315],[128.49753,37.30216],[128.49758,37.30029],[128.49826,37.29895],[128.49815,37.29817],[128.50008,37.29579],[128.50023,37.29324],[128.50087,37.29299],[128.50048,37.29082],[128.50088,37.28929],[128.50214,37.28951],[128.50502,37.28875],[128.50878,37.28878],[128.50893,37.28927],[128.5097,37.28953],[128.51075,37.28894],[128.51099,37.28836],[128.51198,37.28821],[128.51293,37.2874],[128.51758,37.28758],[128.51843,37.28802],[128.51885,37.2878],[128.51935,37.28799],[128.51982,37.28762],[128.52117,37.28797],[128.52136,37.28867],[128.52251,37.28985],[128.52599,37.28981],[128.5272,37.29027],[128.52902,37.29248],[128.5327,37.28955],[128.53447,37.28579],[128.53593,37.28388],[128.53695,37.28478],[128.5377,37.28495],[128.53805,37.28472],[128.53994,37.28529],[128.54134,37.28648],[128.54323,37.28562],[128.54497,37.2874],[128.54939,37.28916],[128.55253,37.28919],[128.55643,37.28852],[128.55942,37.2861],[128.56179,37.28311],[128.56237,37.28177],[128.56453,37.27927],[128.5665,37.27882],[128.57083,37.28063],[128.57213,37.28073],[128.57365,37.28035],[128.57474,37.27972],[128.57587,37.27761],[128.57647,37.2751],[128.57709,37.27438],[128.57728,37.27468],[128.57827,37.27321],[128.579,37.27116],[128.57773,37.26885],[128.57602,37.26828],[128.57579,37.26887],[128.57499,37.26863],[128.57065,37.27104],[128.56826,37.27088],[128.56596,37.26671],[128.56573,37.26365],[128.56492,37.26061],[128.56488,37.25808],[128.56588,37.25326],[128.56665,37.25314],[128.56765,37.25235],[128.56764,37.25182],[128.56809,37.25159],[128.56956,37.24927],[128.57104,37.24826],[128.57529,37.2463],[128.57674,37.24511],[128.57668,37.24226],[128.57618,37.23968],[128.57669,37.23781],[128.57561,37.23576],[128.57625,37.23322],[128.57598,37.23272],[128.57682,37.22953],[128.57683,37.22798],[128.57803,37.22672],[128.57815,37.22514],[128.57761,37.22426],[128.57735,37.22227],[128.5779,37.22195],[128.57852,37.22063],[128.57921,37.22002],[128.58228,37.22141],[128.58396,37.22127],[128.58465,37.2215],[128.58621,37.22115],[128.5883,37.22006],[128.58959,37.21871],[128.5907,37.21843],[128.59161,37.21766],[128.59776,37.21522],[128.60023,37.21278],[128.60116,37.21416],[128.60267,37.21456],[128.6038,37.21762],[128.60437,37.21828],[128.60619,37.2176],[128.60951,37.21864],[128.61122,37.21822],[128.61475,37.21818],[128.61612,37.21696],[128.61926,37.21863],[128.62059,37.21739],[128.62057,37.2156],[128.62237,37.21451],[128.62252,37.21339],[128.62207,37.21173],[128.62117,37.2106],[128.61987,37.21003],[128.61876,37.20822],[128.61844,37.20682],[128.61754,37.20599],[128.62019,37.20539],[128.62063,37.20443],[128.62226,37.20422],[128.62279,37.20095],[128.62422,37.2005],[128.62442,37.20002],[128.62639,37.19925],[128.62707,37.1984],[128.62763,37.19858],[128.62908,37.19576],[128.63036,37.19647],[128.63122,37.19742],[128.63233,37.19729],[128.63348,37.19662],[128.63397,37.19507],[128.63382,37.19425],[128.63505,37.19295],[128.63574,37.1916],[128.63552,37.18778],[128.63701,37.18666],[128.63768,37.18659],[128.63855,37.18602],[128.63914,37.18469],[128.64207,37.1824],[128.6465,37.18183],[128.65149,37.18353],[128.65528,37.18585],[128.6603,37.18677],[128.66296,37.18615],[128.66506,37.18632],[128.66639,37.18686],[128.66767,37.18561],[128.66817,37.18552],[128.66969,37.18612],[128.67089,37.18623],[128.67168,37.18722],[128.6727,37.18706],[128.67376,37.1863],[128.67437,37.18628],[128.67447,37.18658],[128.67676,37.18707],[128.67896,37.18633],[128.68032,37.18633],[128.6813,37.18586],[128.68172,37.18517],[128.68251,37.18492],[128.68507,37.18561],[128.68775,37.18486],[128.68799,37.18435],[128.69076,37.18514],[128.69305,37.18451],[128.69439,37.18457],[128.69698,37.18617],[128.69756,37.1877],[128.6989,37.18841],[128.69918,37.19001],[128.7014,37.19072],[128.70662,37.19058],[128.70968,37.19079],[128.71055,37.19202],[128.71155,37.19243],[128.71248,37.19243],[128.71505,37.19502],[128.71603,37.1956],[128.71723,37.19584],[128.7187,37.19557],[128.72274,37.19702],[128.72528,37.19845],[128.72752,37.19753],[128.72903,37.19729],[128.73012,37.19769],[128.73189,37.19766],[128.73324,37.19865],[128.73337,37.20029],[128.7344,37.20138],[128.73543,37.20164],[128.73653,37.20324],[128.73797,37.20455],[128.74127,37.20699],[128.74246,37.20762],[128.74384,37.2078],[128.74556,37.20906],[128.74675,37.21084],[128.74789,37.21116],[128.74876,37.21195],[128.75061,37.21183],[128.7516,37.21142],[128.75431,37.21158],[128.75856,37.20882],[128.75923,37.2079],[128.76477,37.20598],[128.76516,37.20536],[128.76829,37.20316],[128.76883,37.20325],[128.77173,37.20219],[128.77423,37.20256],[128.77457,37.2019],[128.77915,37.20071],[128.77978,37.20017],[128.78305,37.2006],[128.78456,37.19815],[128.78531,37.19786],[128.7907,37.19765],[128.79209,37.19692],[128.79269,37.19704],[128.79389,37.19659],[128.79533,37.19654],[128.79703,37.19601],[128.79694,37.19537],[128.7985,37.19463],[128.80065,37.1941],[128.80239,37.1922],[128.80571,37.19082],[128.80584,37.19038],[128.80648,37.19001],[128.80752,37.19085],[128.80936,37.19059],[128.80972,37.18922],[128.81145,37.18665],[128.81205,37.1862],[128.81516,37.18525],[128.81661,37.18308],[128.81958,37.1773],[128.82034,37.17616],[128.82147,37.17564]]]]},"properties":{"id":"SGG:51750","layer":"L3","admin_code":"51750","name":"강원특별자치도 영월군","sido":"강원특별자치도","sgg":"영월군","provisional":false,"source":"통계청 행정동 경계(BND_ADM_DONG_PG, 2025-06-30) 를 시군구로 합침","source_kind":"derived","derived_from":"행정동 경계 union · 20 m 단순화"}}]}