{"type":"FeatureCollection","features":[{"type":"Feature","id":"SGG:41830","geometry":{"type":"MultiPolygon","coordinates":[[[[127.50684,37.44042],[127.50493,37.43874],[127.50369,37.43696],[127.49968,37.43589],[127.49881,37.43497],[127.49794,37.43321],[127.49692,37.4323],[127.48955,37.43364],[127.48705,37.43322],[127.48271,37.42998],[127.48218,37.42916],[127.48192,37.42738],[127.47981,37.42402],[127.47322,37.42229],[127.46912,37.42395],[127.46948,37.42412],[127.46868,37.42529],[127.46876,37.42597],[127.46794,37.42642],[127.46698,37.42655],[127.46549,37.42724],[127.46367,37.42677],[127.46262,37.42689],[127.46088,37.4275],[127.45781,37.42797],[127.45683,37.42845],[127.45549,37.42844],[127.45341,37.42943],[127.45236,37.42962],[127.44986,37.43136],[127.44889,37.43143],[127.44829,37.43246],[127.4476,37.4327],[127.44671,37.4326],[127.4445,37.4335],[127.44354,37.43359],[127.44248,37.43428],[127.44144,37.43441],[127.44064,37.43417],[127.43819,37.43472],[127.43554,37.4344],[127.43355,37.43599],[127.42876,37.43648],[127.42696,37.43763],[127.42552,37.43774],[127.42461,37.43857],[127.42281,37.43945],[127.41997,37.43754],[127.417,37.43413],[127.41572,37.43336],[127.415,37.43208],[127.40976,37.4314],[127.40723,37.43015],[127.40711,37.42912],[127.40568,37.42845],[127.40325,37.42556],[127.40263,37.4252],[127.40126,37.42181],[127.40027,37.42142],[127.39929,37.42163],[127.39835,37.42279],[127.39845,37.42367],[127.3973,37.42494],[127.39568,37.42614],[127.39235,37.42747],[127.39208,37.42793],[127.39076,37.42807],[127.39012,37.42897],[127.3893,37.42926],[127.38925,37.43071],[127.38782,37.43203],[127.38622,37.43274],[127.38406,37.43492],[127.3839,37.43637],[127.38435,37.43705],[127.38292,37.44082],[127.3827,37.442],[127.38293,37.4427],[127.38252,37.44324],[127.38175,37.44366],[127.37967,37.44386],[127.37846,37.44345],[127.37668,37.44437],[127.37581,37.44447],[127.37568,37.44476],[127.37482,37.44449],[127.37239,37.44497],[127.37231,37.44606],[127.3729,37.44703],[127.37295,37.44876],[127.37238,37.44974],[127.37246,37.45185],[127.37083,37.45354],[127.37084,37.45399],[127.36916,37.45516],[127.36782,37.45659],[127.36798,37.45722],[127.3714,37.45635],[127.37255,37.45784],[127.3747,37.45839],[127.37525,37.45812],[127.37798,37.45875],[127.37958,37.4584],[127.38312,37.4585],[127.38544,37.45999],[127.38508,37.46104],[127.38515,37.46161],[127.3856,37.46185],[127.38547,37.46284],[127.38679,37.46441],[127.38751,37.46605],[127.38674,37.46807],[127.38667,37.47016],[127.3887,37.47427],[127.38885,37.47535],[127.3875,37.47813],[127.38634,37.47851],[127.38633,37.47956],[127.38662,37.4798],[127.38582,37.48152],[127.38377,37.48353],[127.38375,37.48461],[127.3834,37.48477],[127.38367,37.48557],[127.38327,37.48564],[127.38387,37.48621],[127.38352,37.48639],[127.3834,37.48725],[127.38184,37.48736],[127.38038,37.49004],[127.38211,37.4949],[127.38295,37.49548],[127.38374,37.49556],[127.38532,37.49632],[127.38664,37.49726],[127.3843,37.49968],[127.38452,37.50012],[127.3829,37.50169],[127.38153,37.504],[127.37918,37.50659],[127.37836,37.50859],[127.37528,37.5132],[127.37261,37.51997],[127.36936,37.52476],[127.36795,37.5257],[127.36404,37.53058],[127.36024,37.53264],[127.35523,37.53481],[127.34961,37.53586],[127.34381,37.53571],[127.34042,37.53474],[127.33519,37.53476],[127.33145,37.53541],[127.32602,37.5356],[127.32324,37.5345],[127.31668,37.52936],[127.31497,37.52852],[127.31295,37.52849],[127.30893,37.52713],[127.30932,37.5207],[127.30903,37.52005],[127.30764,37.51954],[127.30676,37.51951],[127.30633,37.52022],[127.30592,37.52187],[127.30669,37.52982],[127.31043,37.54041],[127.31492,37.54757],[127.31864,37.55184],[127.3226,37.55719],[127.32415,37.55866],[127.3315,37.57112],[127.3334,37.57498],[127.33398,37.57715],[127.33645,37.58085],[127.33643,37.5822],[127.3374,37.58423],[127.33811,37.5849],[127.34182,37.5931],[127.34253,37.59574],[127.34286,37.59951],[127.34396,37.60395],[127.34537,37.61303],[127.3502,37.62453],[127.35335,37.62896],[127.35818,37.63428],[127.36315,37.63678],[127.36732,37.64052],[127.37078,37.64571],[127.37135,37.64681],[127.37151,37.64765],[127.37124,37.64767],[127.37325,37.6476],[127.37443,37.64882],[127.37742,37.65026],[127.37822,37.65117],[127.37951,37.65121],[127.37993,37.65164],[127.38206,37.65083],[127.38308,37.65101],[127.3853,37.65056],[127.38726,37.65165],[127.38812,37.65157],[127.39074,37.65045],[127.39315,37.6506],[127.39433,37.65106],[127.3964,37.65114],[127.39695,37.65094],[127.39811,37.6513],[127.39901,37.65098],[127.39977,37.65168],[127.39981,37.65293],[127.4012,37.65508],[127.40116,37.65562],[127.40292,37.65623],[127.40395,37.65733],[127.40584,37.65772],[127.40697,37.65833],[127.40733,37.6596],[127.40804,37.65992],[127.40954,37.6603],[127.41154,37.66025],[127.41372,37.66116],[127.414,37.66176],[127.41591,37.66326],[127.42045,37.66328],[127.42236,37.66395],[127.42296,37.66477],[127.4251,37.66558],[127.42696,37.6694],[127.42815,37.67079],[127.42869,37.66964],[127.42994,37.66956],[127.43112,37.66809],[127.43197,37.66815],[127.43251,37.66782],[127.43356,37.6662],[127.43613,37.66394],[127.43981,37.66199],[127.44147,37.65965],[127.43994,37.65886],[127.43909,37.6577],[127.43852,37.65769],[127.43762,37.65636],[127.4366,37.65559],[127.43644,37.65504],[127.43485,37.65372],[127.43643,37.6527],[127.43638,37.65232],[127.4369,37.65189],[127.43758,37.65171],[127.4371,37.64978],[127.43808,37.6481],[127.4411,37.64668],[127.44125,37.64552],[127.44021,37.64504],[127.44052,37.64407],[127.44411,37.64377],[127.44608,37.64251],[127.44782,37.64197],[127.44881,37.64118],[127.45019,37.64101],[127.4542,37.64141],[127.45511,37.64091],[127.45592,37.63965],[127.4543,37.6381],[127.45627,37.63588],[127.45643,37.63452],[127.45599,37.63362],[127.45724,37.63242],[127.45811,37.62982],[127.45882,37.6288],[127.46129,37.6273],[127.46156,37.62625],[127.46242,37.62509],[127.46424,37.6252],[127.46853,37.62483],[127.46972,37.62361],[127.46977,37.62295],[127.47043,37.62287],[127.471,37.62198],[127.47148,37.62054],[127.47129,37.61905],[127.47181,37.61857],[127.47229,37.61689],[127.472,37.61611],[127.47289,37.61552],[127.47174,37.61458],[127.47181,37.61317],[127.47122,37.61134],[127.47207,37.61075],[127.47181,37.60929],[127.4731,37.60805],[127.47316,37.60738],[127.47203,37.60197],[127.47229,37.59864],[127.47157,37.59743],[127.47201,37.59643],[127.46963,37.5925],[127.47053,37.58874],[127.46936,37.58708],[127.46966,37.58503],[127.47034,37.58381],[127.47004,37.58209],[127.47041,37.58001],[127.47168,37.57918],[127.47274,37.57809],[127.47284,37.57757],[127.47503,37.57674],[127.47625,37.57696],[127.47816,37.57672],[127.48121,37.57535],[127.48342,37.57481],[127.48559,37.57522],[127.4883,37.5748],[127.48918,37.57372],[127.49505,37.57202],[127.49709,37.57115],[127.49759,37.57125],[127.49852,37.57232],[127.5008,37.57326],[127.50221,37.57338],[127.50355,37.57456],[127.50653,37.57527],[127.50694,37.57636],[127.50786,37.57676],[127.51118,37.57654],[127.51691,37.58099],[127.51729,37.58151],[127.51654,37.58162],[127.5171,37.58233],[127.51933,37.58381],[127.51904,37.58503],[127.52189,37.58638],[127.5245,37.58671],[127.52623,37.58633],[127.52765,37.58655],[127.52838,37.58587],[127.52948,37.58563],[127.53139,37.58626],[127.53289,37.58548],[127.53346,37.58597],[127.53487,37.58569],[127.53598,37.58581],[127.53815,37.58435],[127.53841,37.58485],[127.53894,37.58473],[127.53945,37.58506],[127.5429,37.58481],[127.54692,37.58572],[127.54795,37.58548],[127.54908,37.58594],[127.55337,37.58668],[127.55421,37.58497],[127.55493,37.58459],[127.55992,37.58349],[127.56155,37.58767],[127.56049,37.59152],[127.55969,37.59227],[127.55936,37.59459],[127.56152,37.59702],[127.56211,37.59912],[127.5629,37.59942],[127.5626,37.60068],[127.56286,37.60172],[127.56268,37.60461],[127.5654,37.60592],[127.56681,37.60809],[127.56912,37.60806],[127.56955,37.60843],[127.57016,37.60948],[127.56994,37.61056],[127.57047,37.61336],[127.56744,37.61561],[127.56691,37.61754],[127.56523,37.61973],[127.56336,37.62026],[127.56225,37.62093],[127.56175,37.62204],[127.5597,37.62287],[127.5596,37.62457],[127.56001,37.62578],[127.55951,37.62685],[127.56017,37.62747],[127.5594,37.6285],[127.56016,37.62984],[127.56197,37.63056],[127.56468,37.63316],[127.56723,37.6329],[127.56885,37.63206],[127.56971,37.63232],[127.57142,37.632],[127.57315,37.63253],[127.57375,37.63315],[127.57456,37.63305],[127.57537,37.63361],[127.57792,37.63282],[127.58065,37.6334],[127.58287,37.63472],[127.58349,37.63559],[127.58326,37.64013],[127.58421,37.64096],[127.58486,37.6423],[127.58597,37.64285],[127.5883,37.64298],[127.59151,37.64363],[127.59178,37.64428],[127.59293,37.64497],[127.59597,37.64547],[127.59661,37.64581],[127.59715,37.64662],[127.59882,37.64688],[127.5995,37.64773],[127.60031,37.64786],[127.60175,37.65017],[127.60219,37.65154],[127.60334,37.65115],[127.60497,37.65122],[127.60661,37.65081],[127.6074,37.65018],[127.60903,37.64988],[127.61001,37.64763],[127.61081,37.64742],[127.61163,37.64657],[127.61274,37.64612],[127.61279,37.64561],[127.61384,37.64589],[127.6155,37.64703],[127.61683,37.64669],[127.61796,37.64602],[127.61903,37.64324],[127.61977,37.64293],[127.6218,37.64283],[127.62198,37.64214],[127.62117,37.64007],[127.62157,37.63957],[127.6219,37.63957],[127.62394,37.64213],[127.62541,37.64299],[127.62644,37.64308],[127.62765,37.64254],[127.62886,37.64093],[127.63089,37.63936],[127.63179,37.63923],[127.63341,37.64001],[127.63415,37.63994],[127.63443,37.63954],[127.63378,37.63791],[127.63371,37.63596],[127.63483,37.63539],[127.63621,37.63586],[127.63771,37.63575],[127.63886,37.63503],[127.63895,37.63441],[127.6385,37.6334],[127.63943,37.63264],[127.64132,37.63244],[127.64439,37.63297],[127.64699,37.63274],[127.64692,37.6306],[127.64736,37.629],[127.6486,37.62712],[127.64949,37.62465],[127.65153,37.62294],[127.65339,37.62231],[127.65565,37.6223],[127.65741,37.62256],[127.66171,37.62432],[127.663,37.62424],[127.66385,37.6238],[127.6644,37.62293],[127.66473,37.62024],[127.66549,37.6192],[127.6665,37.6187],[127.66752,37.61725],[127.66991,37.6162],[127.6724,37.61427],[127.6742,37.61362],[127.6753,37.61223],[127.67709,37.61144],[127.67943,37.60941],[127.68338,37.60823],[127.68331,37.60766],[127.68594,37.60636],[127.68669,37.60451],[127.68738,37.60419],[127.68816,37.60438],[127.68917,37.60419],[127.68968,37.60339],[127.69163,37.60204],[127.69168,37.60133],[127.69364,37.60099],[127.69434,37.60125],[127.69619,37.60079],[127.69712,37.59875],[127.70084,37.59612],[127.70039,37.59561],[127.70052,37.59531],[127.69912,37.59472],[127.69926,37.59436],[127.69823,37.59368],[127.69837,37.59277],[127.69743,37.59185],[127.6982,37.59141],[127.6982,37.59089],[127.69911,37.59057],[127.69944,37.59007],[127.70174,37.5895],[127.70217,37.58909],[127.70269,37.58918],[127.7051,37.58843],[127.70635,37.5884],[127.70726,37.58677],[127.7079,37.58635],[127.70871,37.58649],[127.70948,37.58706],[127.71159,37.58749],[127.71367,37.589],[127.71441,37.58847],[127.71589,37.58807],[127.71879,37.58932],[127.71984,37.58946],[127.72127,37.59033],[127.72173,37.59019],[127.72313,37.59063],[127.72376,37.59012],[127.72508,37.59007],[127.72682,37.58906],[127.72799,37.58959],[127.7295,37.58959],[127.73234,37.58827],[127.73287,37.5885],[127.73764,37.5881],[127.7394,37.58709],[127.74044,37.58731],[127.74154,37.58796],[127.74286,37.58774],[127.74397,37.58801],[127.7447,37.58788],[127.74753,37.58995],[127.74956,37.59069],[127.75141,37.59054],[127.75315,37.59178],[127.75411,37.59206],[127.75502,37.59154],[127.7561,37.5895],[127.75706,37.58932],[127.75798,37.58681],[127.7599,37.58701],[127.76128,37.58759],[127.7622,37.58675],[127.76462,37.58585],[127.76485,37.58506],[127.76649,37.58357],[127.76657,37.58267],[127.76732,37.58264],[127.76905,37.58174],[127.77148,37.58195],[127.77323,37.58099],[127.77397,37.5811],[127.77474,37.58084],[127.77608,37.58005],[127.7792,37.57996],[127.78444,37.57812],[127.78786,37.57891],[127.78836,37.57959],[127.79008,37.58061],[127.79013,37.58121],[127.791,37.582],[127.79132,37.58364],[127.79264,37.58505],[127.7929,37.58529],[127.79408,37.58525],[127.79558,37.58427],[127.79735,37.58397],[127.79828,37.58322],[127.79998,37.58277],[127.7999,37.58232],[127.80103,37.58146],[127.80075,37.58097],[127.80301,37.57949],[127.80425,37.57913],[127.80487,37.57506],[127.80563,37.57409],[127.80771,37.57371],[127.80909,37.57377],[127.80961,37.57345],[127.81035,37.57198],[127.81042,37.57047],[127.81124,37.56987],[127.81101,37.5691],[127.81261,37.56847],[127.81299,37.56736],[127.8135,37.56702],[127.81321,37.56677],[127.81352,37.56624],[127.81415,37.56601],[127.81377,37.56527],[127.81413,37.56415],[127.81573,37.56364],[127.81607,37.56389],[127.81704,37.56374],[127.81751,37.56281],[127.81896,37.56323],[127.81932,37.56292],[127.82061,37.5628],[127.82137,37.56339],[127.82339,37.5631],[127.82377,37.56183],[127.82507,37.56128],[127.8259,37.56131],[127.82623,37.56071],[127.82704,37.56061],[127.828,37.56126],[127.82885,37.56102],[127.8307,37.56123],[127.83125,37.56068],[127.83175,37.56082],[127.83232,37.56157],[127.83428,37.56059],[127.83636,37.56041],[127.83685,37.5599],[127.83951,37.55922],[127.84035,37.55812],[127.84039,37.55679],[127.84209,37.55579],[127.84476,37.55358],[127.848,37.55245],[127.84811,37.55033],[127.84762,37.54952],[127.84514,37.54773],[127.84532,37.54656],[127.84497,37.54569],[127.84592,37.54465],[127.84595,37.54409],[127.84304,37.54192],[127.84202,37.5389],[127.8396,37.53906],[127.83889,37.53846],[127.8373,37.53819],[127.83363,37.53921],[127.83213,37.53826],[127.83191,37.53763],[127.83055,37.53801],[127.83009,37.53747],[127.82904,37.53736],[127.82827,37.53664],[127.82569,37.53787],[127.82253,37.53846],[127.82075,37.53784],[127.81755,37.53724],[127.81709,37.53741],[127.81637,37.53703],[127.81512,37.53717],[127.81367,37.53797],[127.81197,37.53756],[127.81006,37.53806],[127.80958,37.53786],[127.8096,37.53701],[127.80623,37.53492],[127.80674,37.53354],[127.80633,37.53288],[127.80647,37.53117],[127.80501,37.53016],[127.80234,37.52928],[127.79996,37.52931],[127.79778,37.52852],[127.79634,37.52858],[127.79632,37.52718],[127.79549,37.52653],[127.79504,37.52489],[127.79623,37.52405],[127.7964,37.52311],[127.79357,37.52196],[127.79329,37.52136],[127.79208,37.52072],[127.79195,37.52002],[127.78879,37.51855],[127.78778,37.51715],[127.78712,37.51498],[127.7855,37.51331],[127.7837,37.51214],[127.78112,37.51306],[127.77871,37.51072],[127.77874,37.51009],[127.77675,37.50809],[127.77597,37.5081],[127.77485,37.50666],[127.77179,37.50519],[127.76971,37.5054],[127.76736,37.50367],[127.76645,37.5037],[127.76544,37.50276],[127.76466,37.50266],[127.75991,37.50331],[127.75989,37.50035],[127.7603,37.49876],[127.7596,37.49812],[127.75948,37.49686],[127.75942,37.49542],[127.76003,37.49289],[127.75979,37.49248],[127.76019,37.49222],[127.76212,37.49272],[127.76404,37.49192],[127.7653,37.49307],[127.76744,37.49261],[127.76818,37.49217],[127.76873,37.49257],[127.76929,37.49236],[127.7701,37.49269],[127.77135,37.49176],[127.77272,37.49201],[127.77469,37.49175],[127.7751,37.49032],[127.77612,37.48952],[127.77607,37.48854],[127.77802,37.48802],[127.78019,37.48865],[127.78155,37.48541],[127.78139,37.48412],[127.78189,37.48373],[127.7819,37.48213],[127.78217,37.48168],[127.7837,37.48143],[127.78371,37.48059],[127.78471,37.47991],[127.78452,37.4793],[127.78485,37.47869],[127.78559,37.47862],[127.78615,37.47804],[127.78757,37.47764],[127.78776,37.47642],[127.78958,37.4748],[127.79108,37.47486],[127.79133,37.47428],[127.7924,37.47408],[127.79374,37.47313],[127.79471,37.47328],[127.79515,37.47258],[127.79583,37.47269],[127.79671,37.47234],[127.79757,37.47254],[127.79832,37.47222],[127.79979,37.47238],[127.80097,37.47004],[127.80071,37.46786],[127.80008,37.46732],[127.79943,37.46556],[127.7979,37.46492],[127.79762,37.46401],[127.79647,37.46372],[127.79627,37.46304],[127.79672,37.46271],[127.79657,37.45977],[127.79791,37.45872],[127.79723,37.4569],[127.79736,37.45644],[127.79818,37.45611],[127.79849,37.45525],[127.79814,37.45489],[127.79938,37.45177],[127.79894,37.45106],[127.79939,37.45058],[127.79913,37.45026],[127.79946,37.44902],[127.79889,37.44862],[127.7993,37.4478],[127.79937,37.44582],[127.79882,37.44505],[127.79889,37.44343],[127.79839,37.44259],[127.79949,37.4401],[127.79936,37.43929],[127.79993,37.4387],[127.8009,37.43842],[127.802,37.43717],[127.80169,37.4364],[127.80208,37.43543],[127.80335,37.43433],[127.80308,37.43329],[127.80387,37.43195],[127.80342,37.43156],[127.80333,37.43089],[127.80401,37.42885],[127.80338,37.4285],[127.80247,37.42859],[127.80231,37.42729],[127.79895,37.42731],[127.79752,37.42688],[127.79606,37.42519],[127.79502,37.42498],[127.79456,37.4244],[127.79473,37.42367],[127.79364,37.42251],[127.79386,37.42164],[127.79351,37.42048],[127.79377,37.42018],[127.79218,37.41845],[127.79158,37.41444],[127.79179,37.41416],[127.79143,37.41289],[127.79067,37.41204],[127.79089,37.41141],[127.79032,37.41022],[127.79024,37.40859],[127.78959,37.40815],[127.78959,37.40698],[127.78782,37.40533],[127.78803,37.4048],[127.78748,37.40293],[127.78797,37.40201],[127.78783,37.40113],[127.78719,37.40051],[127.78628,37.40021],[127.78627,37.39971],[127.78509,37.39888],[127.78364,37.39867],[127.78453,37.39551],[127.78312,37.39359],[127.78168,37.39304],[127.78409,37.38883],[127.78358,37.38861],[127.78274,37.38713],[127.78037,37.38683],[127.77969,37.386],[127.77862,37.38575],[127.77845,37.38494],[127.77666,37.38333],[127.7767,37.38089],[127.7759,37.37986],[127.77579,37.37896],[127.77743,37.37647],[127.77745,37.37568],[127.77668,37.37468],[127.7778,37.37323],[127.77769,37.37291],[127.77894,37.37077],[127.77737,37.37123],[127.77353,37.3699],[127.77298,37.37006],[127.76978,37.3694],[127.76918,37.36963],[127.76708,37.36953],[127.76597,37.36987],[127.76287,37.36998],[127.76163,37.36945],[127.76001,37.36821],[127.7596,37.36706],[127.75899,37.36741],[127.75676,37.36701],[127.75486,37.36812],[127.75288,37.36849],[127.75226,37.36946],[127.75046,37.3694],[127.74937,37.36896],[127.74816,37.36926],[127.74573,37.36889],[127.74198,37.37032],[127.74107,37.37162],[127.73971,37.37207],[127.73881,37.37151],[127.73813,37.37228],[127.73484,37.37416],[127.7341,37.37431],[127.73391,37.37478],[127.73261,37.3754],[127.73212,37.37606],[127.73097,37.37576],[127.72987,37.37624],[127.72843,37.37519],[127.72853,37.37394],[127.7271,37.37349],[127.72623,37.37295],[127.72584,37.37229],[127.72415,37.37156],[127.72311,37.372],[127.72048,37.37171],[127.71984,37.37128],[127.7181,37.37141],[127.71636,37.37006],[127.71371,37.3707],[127.71304,37.37131],[127.71021,37.37221],[127.70911,37.37102],[127.70736,37.36986],[127.70706,37.37042],[127.70475,37.3721],[127.7022,37.37296],[127.70159,37.37347],[127.70125,37.37405],[127.70171,37.37592],[127.70117,37.37696],[127.70125,37.37759],[127.70071,37.37774],[127.70015,37.37925],[127.70043,37.37966],[127.70311,37.38074],[127.70374,37.38422],[127.70341,37.38467],[127.70402,37.38601],[127.7031,37.38837],[127.70357,37.38893],[127.70372,37.39091],[127.70425,37.3921],[127.70524,37.39326],[127.70637,37.39364],[127.7078,37.39467],[127.70937,37.3949],[127.70969,37.39588],[127.7135,37.3983],[127.71433,37.39841],[127.71435,37.39904],[127.71481,37.39944],[127.71442,37.40148],[127.71514,37.4021],[127.714,37.40358],[127.71411,37.4049],[127.71298,37.40519],[127.71286,37.40559],[127.71146,37.40626],[127.71074,37.40611],[127.71046,37.4075],[127.70988,37.40765],[127.70891,37.40981],[127.70809,37.41031],[127.70601,37.40976],[127.70476,37.40878],[127.70377,37.40853],[127.70326,37.40803],[127.70186,37.40787],[127.70091,37.40715],[127.69999,37.40764],[127.69889,37.40753],[127.69783,37.40624],[127.69788,37.40556],[127.695,37.40304],[127.69407,37.40283],[127.69308,37.40187],[127.69205,37.40183],[127.69148,37.40111],[127.68995,37.40149],[127.68843,37.40116],[127.68683,37.39889],[127.68398,37.39822],[127.68449,37.40319],[127.68424,37.4032],[127.68486,37.4061],[127.68653,37.406],[127.68661,37.40877],[127.68745,37.4097],[127.68802,37.4118],[127.68719,37.41235],[127.68623,37.41244],[127.68558,37.41346],[127.68345,37.41428],[127.68274,37.41429],[127.68081,37.41348],[127.67999,37.41243],[127.67902,37.413],[127.67771,37.41249],[127.67621,37.41291],[127.67374,37.41198],[127.66964,37.41235],[127.66794,37.41164],[127.66739,37.41263],[127.66618,37.41347],[127.66567,37.41436],[127.66287,37.41544],[127.66043,37.4158],[127.65829,37.41684],[127.65762,37.41646],[127.65535,37.41337],[127.65429,37.41301],[127.65387,37.41157],[127.65296,37.41054],[127.65325,37.40903],[127.65235,37.40794],[127.64738,37.40485],[127.64585,37.40477],[127.64327,37.40586],[127.64222,37.4068],[127.64222,37.40788],[127.64021,37.40898],[127.6399,37.40981],[127.63711,37.41111],[127.63651,37.41234],[127.6358,37.41272],[127.63535,37.41346],[127.63188,37.4135],[127.63149,37.41306],[127.62993,37.41295],[127.62877,37.41345],[127.62807,37.41324],[127.62643,37.41359],[127.62591,37.41271],[127.62394,37.41139],[127.62315,37.4102],[127.6213,37.40977],[127.62047,37.40925],[127.6192,37.41066],[127.61887,37.41231],[127.61817,37.41282],[127.61767,37.41383],[127.6156,37.41439],[127.61512,37.41499],[127.61408,37.41449],[127.61362,37.4156],[127.6134,37.41539],[127.61293,37.41563],[127.61101,37.41556],[127.61056,37.41618],[127.60987,37.41628],[127.60879,37.41702],[127.60918,37.41794],[127.60897,37.41842],[127.60848,37.41836],[127.60775,37.41883],[127.60603,37.41842],[127.60541,37.41857],[127.60406,37.41973],[127.6018,37.41992],[127.60139,37.42101],[127.60057,37.42118],[127.59428,37.42074],[127.59383,37.42023],[127.59203,37.42105],[127.59109,37.42224],[127.59043,37.4223],[127.58879,37.42212],[127.58809,37.42104],[127.58727,37.42112],[127.58712,37.42003],[127.58769,37.41964],[127.58836,37.41736],[127.58802,37.41657],[127.58634,37.41596],[127.58612,37.41552],[127.58639,37.41462],[127.58448,37.41388],[127.58378,37.41501],[127.58379,37.41611],[127.58302,37.41694],[127.58255,37.41649],[127.58178,37.41675],[127.57949,37.4159],[127.57813,37.41444],[127.57743,37.41416],[127.57647,37.41426],[127.57556,37.41383],[127.57523,37.41305],[127.57331,37.41272],[127.57184,37.41168],[127.57067,37.41359],[127.5684,37.41325],[127.56848,37.4128],[127.56565,37.41119],[127.56528,37.41126],[127.56431,37.41398],[127.56338,37.4145],[127.5634,37.41516],[127.56283,37.41568],[127.56199,37.41528],[127.56027,37.41525],[127.55829,37.41639],[127.55631,37.41673],[127.55457,37.41602],[127.55421,37.41444],[127.55157,37.41429],[127.5506,37.41142],[127.54762,37.41148],[127.54697,37.41049],[127.54396,37.41019],[127.5433,37.40987],[127.54227,37.41112],[127.54155,37.41141],[127.53662,37.4117],[127.53609,37.41436],[127.53453,37.41885],[127.53138,37.42587],[127.52958,37.42882],[127.52786,37.43069],[127.52527,37.43283],[127.51913,37.43647],[127.51151,37.43812],[127.50684,37.44042]]]]},"properties":{"id":"SGG:41830","layer":"L3","admin_code":"41830","name":"경기도 양평군","sido":"경기도","sgg":"양평군","provisional":false,"source":"통계청 행정동 경계(BND_ADM_DONG_PG, 2025-06-30) 를 시군구로 합침","source_kind":"derived","derived_from":"행정동 경계 union · 20 m 단순화"}}]}