{"type":"FeatureCollection","features":[{"type":"Feature","id":"SGG:27230","geometry":{"type":"MultiPolygon","coordinates":[[[[128.58829,35.87749],[128.58,35.87913],[128.58184,35.8851],[128.5762,35.88749],[128.55478,35.89091],[128.55179,35.894],[128.55215,35.89405],[128.55179,35.89422],[128.55235,35.89429],[128.55228,35.89458],[128.55326,35.89545],[128.55189,35.89722],[128.54639,35.89499],[128.54379,35.89453],[128.54088,35.89352],[128.53877,35.89151],[128.5383,35.88984],[128.53616,35.88645],[128.53392,35.88567],[128.52888,35.88596],[128.52645,35.88831],[128.52205,35.89044],[128.51882,35.89179],[128.51518,35.89248],[128.51329,35.89324],[128.50775,35.89323],[128.50696,35.89293],[128.50571,35.89161],[128.50517,35.89128],[128.50483,35.89145],[128.50463,35.89339],[128.50585,35.89668],[128.50544,35.89753],[128.50465,35.89801],[128.50471,35.89873],[128.50486,35.89933],[128.50597,35.90039],[128.50561,35.90214],[128.50512,35.90281],[128.50574,35.90325],[128.50676,35.9049],[128.50691,35.9061],[128.50819,35.90755],[128.50894,35.9079],[128.51012,35.90993],[128.51188,35.9104],[128.51346,35.91152],[128.51408,35.91154],[128.51501,35.911],[128.5169,35.91184],[128.51714,35.91258],[128.51887,35.9139],[128.52001,35.91545],[128.52233,35.91657],[128.52316,35.91757],[128.52306,35.91926],[128.52452,35.92036],[128.52486,35.9213],[128.5256,35.92201],[128.5258,35.92292],[128.52671,35.92273],[128.52864,35.92367],[128.52946,35.92359],[128.53067,35.92904],[128.5321,35.93101],[128.53374,35.93237],[128.53352,35.93245],[128.53375,35.93479],[128.53438,35.93534],[128.53439,35.937],[128.53528,35.93838],[128.53471,35.93963],[128.53478,35.94184],[128.53428,35.94232],[128.53408,35.94446],[128.53336,35.94552],[128.53402,35.94608],[128.53353,35.94777],[128.53381,35.94833],[128.53365,35.94918],[128.53301,35.94953],[128.53255,35.95054],[128.53322,35.95369],[128.53481,35.95838],[128.53348,35.96088],[128.53282,35.96126],[128.53089,35.96156],[128.5305,35.96199],[128.52942,35.96594],[128.5292,35.9688],[128.52774,35.9715],[128.52818,35.97324],[128.52665,35.97545],[128.52895,35.9772],[128.52828,35.97901],[128.52835,35.98035],[128.53124,35.98056],[128.53422,35.97923],[128.53612,35.97944],[128.53728,35.9775],[128.53794,35.97703],[128.53919,35.97657],[128.54042,35.97657],[128.541,35.97597],[128.54349,35.97477],[128.54366,35.97317],[128.54624,35.96895],[128.54634,35.96634],[128.54667,35.96567],[128.54858,35.96386],[128.54933,35.96232],[128.55057,35.96246],[128.55332,35.96076],[128.55369,35.96256],[128.55618,35.96692],[128.55595,35.96884],[128.5562,35.96977],[128.55665,35.96976],[128.5563,35.97146],[128.55707,35.97223],[128.56039,35.97304],[128.56166,35.97253],[128.56349,35.97303],[128.56471,35.97294],[128.56568,35.97373],[128.56567,35.97492],[128.57284,35.97831],[128.5743,35.97782],[128.57856,35.97843],[128.58124,35.97805],[128.58234,35.97825],[128.58331,35.97785],[128.58322,35.97728],[128.5851,35.97796],[128.58736,35.97939],[128.58799,35.97898],[128.59016,35.97924],[128.59087,35.98008],[128.59304,35.98084],[128.59293,35.98336],[128.59612,35.98455],[128.6035,35.98601],[128.60338,35.98782],[128.60626,35.9871],[128.60987,35.98501],[128.61293,35.98254],[128.61486,35.97957],[128.61498,35.97812],[128.61803,35.977],[128.61924,35.97597],[128.61912,35.97546],[128.61974,35.9748],[128.61988,35.97405],[128.6184,35.97201],[128.6183,35.97057],[128.62038,35.96909],[128.62153,35.96699],[128.62295,35.96596],[128.62326,35.96548],[128.62215,35.96342],[128.62253,35.96217],[128.62516,35.9607],[128.6267,35.95813],[128.62656,35.95656],[128.62539,35.95583],[128.62429,35.95464],[128.62462,35.95318],[128.62345,35.95229],[128.6237,35.95027],[128.62325,35.94959],[128.62316,35.94844],[128.6235,35.94719],[128.62332,35.94619],[128.62509,35.94617],[128.62658,35.94537],[128.6266,35.93952],[128.62498,35.93832],[128.62553,35.93621],[128.62518,35.93555],[128.62656,35.93391],[128.627,35.93285],[128.62825,35.9319],[128.62856,35.9303],[128.62754,35.92962],[128.62919,35.92962],[128.62901,35.92925],[128.63128,35.92752],[128.63187,35.92596],[128.6326,35.91675],[128.63227,35.91242],[128.63071,35.91002],[128.62811,35.90739],[128.62693,35.90419],[128.62746,35.90325],[128.62789,35.90113],[128.62752,35.90093],[128.62863,35.89897],[128.62893,35.89731],[128.63174,35.89403],[128.63165,35.89312],[128.62794,35.88946],[128.62675,35.89035],[128.62216,35.89243],[128.6174,35.88931],[128.616,35.88745],[128.61528,35.88542],[128.61395,35.88478],[128.61179,35.88193],[128.61172,35.8808],[128.60961,35.87875],[128.60701,35.87758],[128.60663,35.87693],[128.60779,35.87663],[128.60837,35.87582],[128.60867,35.87614],[128.61062,35.87497],[128.60729,35.87399],[128.6044,35.87379],[128.60008,35.87502],[128.59654,35.87549],[128.59638,35.87501],[128.59486,35.87532],[128.59462,35.87604],[128.58829,35.87728],[128.58829,35.87749]]]]},"properties":{"id":"SGG:27230","layer":"L3","admin_code":"27230","name":"대구광역시 북구","sido":"대구광역시","sgg":"북구","provisional":false,"source":"통계청 행정동 경계(BND_ADM_DONG_PG, 2025-06-30) 를 시군구로 합침","source_kind":"derived","derived_from":"행정동 경계 union · 20 m 단순화"}}]}