{"type":"FeatureCollection","features":[{"type":"Feature","id":"SGG:31110","geometry":{"type":"MultiPolygon","coordinates":[[[[129.33134,35.55039],[129.32597,35.5496],[129.32287,35.54981],[129.31495,35.55066],[129.30716,35.55289],[129.30588,35.55282],[129.3049,35.55251],[129.30322,35.55136],[129.30329,35.54707],[129.30283,35.54646],[129.30118,35.54559],[129.29586,35.5449],[129.29467,35.54519],[129.29342,35.54593],[129.29167,35.54631],[129.2899,35.54779],[129.28831,35.5497],[129.28404,35.55117],[129.28037,35.55316],[129.27486,35.55412],[129.27259,35.55343],[129.27084,35.55342],[129.26856,35.55438],[129.26643,35.55606],[129.26223,35.5608],[129.26118,35.56133],[129.25889,35.56153],[129.25801,35.56452],[129.25818,35.56569],[129.25683,35.56709],[129.25732,35.56921],[129.25836,35.57004],[129.25781,35.57097],[129.25791,35.57209],[129.25755,35.57262],[129.2578,35.57394],[129.25853,35.57437],[129.25974,35.57427],[129.25887,35.57645],[129.25925,35.57764],[129.25878,35.57835],[129.25798,35.5787],[129.25683,35.57857],[129.25606,35.57991],[129.25542,35.58015],[129.25483,35.58196],[129.25549,35.58356],[129.25485,35.58538],[129.25379,35.58613],[129.25429,35.58691],[129.25412,35.58818],[129.2532,35.58845],[129.2526,35.58929],[129.25273,35.59026],[129.25509,35.58948],[129.25589,35.58987],[129.25622,35.58952],[129.25673,35.58962],[129.25945,35.58752],[129.26178,35.587],[129.26242,35.58653],[129.26392,35.58646],[129.26471,35.58616],[129.26523,35.58546],[129.2656,35.58562],[129.26632,35.58523],[129.26661,35.58617],[129.26749,35.58712],[129.27063,35.58739],[129.27421,35.58602],[129.27846,35.58542],[129.28306,35.58414],[129.2831,35.58383],[129.28168,35.58415],[129.28078,35.58109],[129.28236,35.58037],[129.28243,35.57992],[129.28338,35.57938],[129.28366,35.57861],[129.28564,35.57794],[129.28674,35.57787],[129.28728,35.57817],[129.28889,35.5779],[129.29081,35.57856],[129.29265,35.57709],[129.29454,35.57613],[129.29384,35.57741],[129.29384,35.57942],[129.29214,35.5821],[129.29269,35.58367],[129.29346,35.58444],[129.29387,35.58543],[129.29262,35.58754],[129.29153,35.58852],[129.29102,35.59201],[129.29024,35.59229],[129.29045,35.59325],[129.29147,35.59269],[129.29414,35.59226],[129.29513,35.59254],[129.29616,35.59367],[129.29777,35.59429],[129.3036,35.59412],[129.30398,35.59315],[129.30552,35.59242],[129.30498,35.59159],[129.3059,35.59025],[129.30662,35.58992],[129.30732,35.58908],[129.3087,35.5893],[129.30958,35.58903],[129.31099,35.58965],[129.31242,35.59122],[129.31736,35.59428],[129.31958,35.59388],[129.3211,35.59448],[129.32226,35.59575],[129.32252,35.59784],[129.32398,35.59864],[129.32459,35.59865],[129.32663,35.59771],[129.32988,35.59888],[129.33144,35.59906],[129.33194,35.59789],[129.33111,35.59661],[129.331,35.59574],[129.33316,35.59421],[129.33435,35.59379],[129.33565,35.59402],[129.33919,35.59577],[129.34181,35.59621],[129.34572,35.59604],[129.34844,35.59528],[129.34855,35.59313],[129.34804,35.59344],[129.34803,35.59295],[129.34869,35.59191],[129.34859,35.58876],[129.3482,35.58876],[129.34853,35.58271],[129.34925,35.58008],[129.35155,35.57663],[129.35216,35.57484],[129.352,35.56807],[129.35304,35.56565],[129.35368,35.56265],[129.35322,35.56026],[129.35019,35.5589],[129.34931,35.55794],[129.35059,35.55397],[129.34955,35.55212],[129.35097,35.55048],[129.35191,35.54855],[129.34999,35.54952],[129.34932,35.54963],[129.34932,35.54941],[129.34821,35.54982],[129.34812,35.54925],[129.34632,35.5497],[129.34251,35.54906],[129.3404,35.54906],[129.33134,35.55039]]]]},"properties":{"id":"SGG:31110","layer":"L3","admin_code":"31110","name":"울산광역시 중구","sido":"울산광역시","sgg":"중구","provisional":false,"source":"통계청 행정동 경계(BND_ADM_DONG_PG, 2025-06-30) 를 시군구로 합침","source_kind":"derived","derived_from":"행정동 경계 union · 20 m 단순화"}}]}