{"type":"FeatureCollection","features":[{"type":"Feature","id":"SGG:41390","geometry":{"type":"MultiPolygon","coordinates":[[[[126.69131,37.33578],[126.69161,37.33708],[126.69122,37.33928],[126.68988,37.33954],[126.68982,37.34003],[126.68573,37.34112],[126.68711,37.34506],[126.68604,37.34541],[126.68572,37.34495],[126.68538,37.34503],[126.68555,37.34564],[126.6822,37.34626],[126.68206,37.34712],[126.6835,37.34724],[126.68233,37.347],[126.68243,37.34646],[126.6842,37.34605],[126.68446,37.34659],[126.68434,37.34609],[126.68565,37.34578],[126.68586,37.34633],[126.68622,37.34622],[126.6861,37.34571],[126.68725,37.34554],[126.68855,37.34878],[126.69266,37.34826],[126.69193,37.34973],[126.69222,37.34981],[126.69269,37.34825],[126.69298,37.34824],[126.69368,37.3494],[126.69355,37.34835],[126.70141,37.35044],[126.70136,37.35132],[126.70013,37.35186],[126.70015,37.35248],[126.70244,37.35095],[126.7032,37.35125],[126.70043,37.35365],[126.70071,37.3548],[126.70837,37.36289],[126.70822,37.36335],[126.70856,37.36372],[126.70885,37.36358],[126.71436,37.36945],[126.71532,37.37009],[126.71473,37.37083],[126.71575,37.37054],[126.71577,37.37098],[126.71632,37.3712],[126.71612,37.37152],[126.71695,37.3718],[126.71737,37.37275],[126.72056,37.37577],[126.72215,37.37791],[126.72232,37.37778],[126.72414,37.37958],[126.72816,37.38427],[126.73097,37.38657],[126.73263,37.38634],[126.74207,37.38259],[126.74436,37.38635],[126.74421,37.38672],[126.74456,37.38662],[126.74567,37.38768],[126.74504,37.3887],[126.74577,37.38918],[126.74499,37.38879],[126.74385,37.38662],[126.74209,37.38446],[126.74005,37.38528],[126.7409,37.387],[126.73748,37.38834],[126.73522,37.3872],[126.73434,37.38777],[126.73392,37.38862],[126.73404,37.3895],[126.73472,37.39044],[126.73949,37.3953],[126.73925,37.3959],[126.73978,37.39521],[126.74376,37.39827],[126.74441,37.39849],[126.75686,37.39685],[126.76213,37.3974],[126.76273,37.39697],[126.76372,37.39447],[126.76234,37.3911],[126.763,37.39091],[126.76432,37.39411],[126.77279,37.39414],[126.77719,37.39186],[126.77743,37.39242],[126.77888,37.39317],[126.77986,37.39481],[126.78311,37.39189],[126.78427,37.39159],[126.78471,37.39097],[126.78322,37.38918],[126.78204,37.38861],[126.78228,37.38843],[126.78373,37.38953],[126.78429,37.38931],[126.78389,37.38966],[126.78509,37.39092],[126.78483,37.39154],[126.7861,37.39293],[126.78951,37.39547],[126.79124,37.39334],[126.79188,37.39311],[126.79022,37.39515],[126.79034,37.39598],[126.79005,37.39639],[126.79024,37.39698],[126.79214,37.39696],[126.7894,37.39714],[126.78936,37.39756],[126.79008,37.39791],[126.79024,37.39833],[126.78901,37.39973],[126.78893,37.40199],[126.789,37.40251],[126.79075,37.40238],[126.79207,37.40299],[126.79149,37.40335],[126.7908,37.40275],[126.78978,37.40278],[126.7892,37.403],[126.78887,37.40381],[126.7903,37.40477],[126.79031,37.40421],[126.79046,37.40486],[126.79199,37.4053],[126.79153,37.4056],[126.7886,37.40425],[126.78837,37.40207],[126.78737,37.40231],[126.78667,37.40297],[126.78601,37.40289],[126.78736,37.40688],[126.78813,37.40793],[126.7877,37.40794],[126.7871,37.40695],[126.78592,37.40304],[126.78633,37.40236],[126.78874,37.40164],[126.78853,37.39928],[126.78976,37.39833],[126.78855,37.39765],[126.78846,37.3965],[126.78955,37.39595],[126.78601,37.39356],[126.78448,37.39214],[126.78352,37.39228],[126.78275,37.39296],[126.78318,37.39385],[126.78289,37.39402],[126.78287,37.39366],[126.7825,37.39331],[126.78279,37.39399],[126.78229,37.39335],[126.78014,37.39523],[126.77932,37.39502],[126.77815,37.39351],[126.77634,37.39415],[126.77466,37.39429],[126.77351,37.39536],[126.77201,37.39594],[126.77155,37.39592],[126.77163,37.39525],[126.77123,37.3951],[126.76824,37.39527],[126.76648,37.39496],[126.76629,37.3954],[126.7669,37.39644],[126.76642,37.3974],[126.76385,37.39932],[126.75052,37.40067],[126.749,37.40359],[126.75115,37.40695],[126.75108,37.40784],[126.7514,37.40727],[126.7534,37.40709],[126.7536,37.40752],[126.75317,37.40981],[126.75361,37.41245],[126.7554,37.41344],[126.75459,37.41494],[126.7557,37.4153],[126.75436,37.41751],[126.75505,37.41821],[126.75325,37.4227],[126.75441,37.42311],[126.75498,37.4227],[126.75602,37.4241],[126.75738,37.42485],[126.75838,37.42501],[126.75868,37.4258],[126.75843,37.42646],[126.75898,37.4269],[126.7595,37.42693],[126.75975,37.42656],[126.76055,37.42631],[126.76246,37.42696],[126.76217,37.42635],[126.76453,37.42603],[126.76732,37.42671],[126.76921,37.42751],[126.76968,37.42866],[126.77076,37.42981],[126.77109,37.4315],[126.76957,37.43162],[126.769,37.432],[126.77071,37.4337],[126.77114,37.43477],[126.7712,37.43648],[126.77046,37.4378],[126.76978,37.44082],[126.76927,37.44139],[126.7694,37.44218],[126.76854,37.44332],[126.76749,37.44341],[126.76828,37.44356],[126.77111,37.44641],[126.77033,37.4475],[126.77097,37.4488],[126.77374,37.45052],[126.77902,37.45102],[126.78,37.45339],[126.78001,37.45445],[126.78043,37.45498],[126.77806,37.457],[126.77737,37.45716],[126.77777,37.4591],[126.77884,37.4597],[126.77853,37.46204],[126.77774,37.46279],[126.77982,37.46583],[126.77952,37.46602],[126.77966,37.46684],[126.77919,37.46778],[126.77943,37.4683],[126.77787,37.47002],[126.7782,37.4718],[126.7804,37.47149],[126.7843,37.47239],[126.78434,37.47126],[126.78515,37.47002],[126.78785,37.46924],[126.78787,37.46686],[126.78921,37.46564],[126.79243,37.46529],[126.79475,37.46573],[126.79647,37.46403],[126.79734,37.46403],[126.79883,37.46458],[126.801,37.46379],[126.80087,37.46291],[126.80237,37.46269],[126.80311,37.46173],[126.8038,37.46155],[126.8054,37.46169],[126.80656,37.46212],[126.8089,37.46213],[126.80893,37.4617],[126.81148,37.45988],[126.81183,37.45882],[126.81218,37.45921],[126.8126,37.45922],[126.81341,37.45874],[126.81331,37.46023],[126.81445,37.4604],[126.81554,37.46097],[126.81771,37.45918],[126.81976,37.45949],[126.82082,37.45861],[126.82318,37.45838],[126.82384,37.45931],[126.82551,37.45906],[126.8261,37.45948],[126.82857,37.45956],[126.82915,37.45858],[126.82915,37.45774],[126.83218,37.45902],[126.83308,37.4603],[126.83445,37.4599],[126.83625,37.45809],[126.83687,37.45807],[126.83746,37.45852],[126.83819,37.4583],[126.83833,37.45812],[126.83796,37.45806],[126.83821,37.4573],[126.83775,37.45734],[126.83757,37.45657],[126.83666,37.45601],[126.83856,37.45547],[126.83804,37.45391],[126.83832,37.45314],[126.83804,37.45249],[126.83892,37.45201],[126.8385,37.45159],[126.83769,37.45174],[126.83759,37.45144],[126.8379,37.45057],[126.83855,37.45076],[126.8395,37.4505],[126.83933,37.4498],[126.83805,37.44937],[126.83831,37.44877],[126.83868,37.44907],[126.83895,37.44888],[126.83952,37.44745],[126.83934,37.44696],[126.83867,37.44749],[126.8383,37.44704],[126.83851,37.44658],[126.83788,37.44454],[126.83816,37.44401],[126.83776,37.44334],[126.83778,37.44303],[126.83842,37.44282],[126.83748,37.44246],[126.8379,37.44106],[126.83727,37.44053],[126.83822,37.43966],[126.83752,37.43806],[126.83785,37.43691],[126.83839,37.43663],[126.83889,37.4368],[126.83978,37.43658],[126.84145,37.43469],[126.84156,37.43371],[126.84063,37.43333],[126.84018,37.43172],[126.84069,37.43077],[126.84186,37.42993],[126.84182,37.42617],[126.84295,37.42565],[126.8454,37.42288],[126.84466,37.42074],[126.84512,37.41907],[126.846,37.41788],[126.84535,37.41652],[126.84579,37.41447],[126.84624,37.41395],[126.84637,37.41234],[126.84718,37.41138],[126.84899,37.41063],[126.84953,37.41061],[126.8494,37.41089],[126.85039,37.40977],[126.85068,37.40969],[126.8504,37.41019],[126.85133,37.40911],[126.85291,37.4083],[126.853,37.40718],[126.854,37.4063],[126.85413,37.40521],[126.85505,37.40411],[126.85506,37.40348],[126.85615,37.40326],[126.85748,37.40225],[126.85917,37.40179],[126.86219,37.40153],[126.8704,37.40218],[126.87473,37.40162],[126.87704,37.40196],[126.8771,37.40044],[126.87767,37.39979],[126.87759,37.39714],[126.87795,37.39656],[126.87542,37.3957],[126.87539,37.39542],[126.87588,37.3948],[126.87591,37.39395],[126.87663,37.39337],[126.87708,37.39007],[126.87729,37.38961],[126.87813,37.3892],[126.87787,37.38716],[126.87868,37.38615],[126.87937,37.38326],[126.88024,37.38268],[126.87986,37.38164],[126.88051,37.3809],[126.88113,37.37906],[126.88164,37.37592],[126.88066,37.37595],[126.88093,37.37512],[126.87953,37.37373],[126.87614,37.37212],[126.87518,37.37001],[126.87277,37.3681],[126.87231,37.36717],[126.86833,37.36432],[126.868,37.36439],[126.86741,37.36364],[126.86614,37.36361],[126.86564,37.36235],[126.86503,37.36186],[126.85704,37.36057],[126.85583,37.35945],[126.85098,37.36104],[126.85039,37.36169],[126.84939,37.36417],[126.84827,37.36477],[126.84718,37.36415],[126.84495,37.36369],[126.84401,37.36311],[126.84183,37.36314],[126.84147,37.36279],[126.84164,37.36322],[126.8406,37.36371],[126.8389,37.36286],[126.83725,37.36378],[126.83665,37.36296],[126.83491,37.3625],[126.83468,37.36219],[126.83272,37.36227],[126.83201,37.36167],[126.82998,37.36225],[126.83014,37.36249],[126.82892,37.36362],[126.82713,37.36445],[126.82594,37.36452],[126.82522,37.36575],[126.82428,37.36591],[126.82374,37.36482],[126.82294,37.36474],[126.82149,37.36387],[126.82046,37.36183],[126.81936,37.36169],[126.81871,37.36107],[126.81876,37.36015],[126.81829,37.35925],[126.81656,37.35772],[126.81666,37.35661],[126.81628,37.35545],[126.81463,37.35697],[126.81354,37.35722],[126.81206,37.35643],[126.8115,37.35562],[126.81053,37.3556],[126.80952,37.35506],[126.80754,37.35569],[126.80517,37.35291],[126.8052,37.3533],[126.80472,37.3531],[126.80388,37.35327],[126.80369,37.35365],[126.80126,37.35443],[126.80057,37.35407],[126.79997,37.35458],[126.79816,37.35412],[126.79679,37.35339],[126.79618,37.3545],[126.79541,37.35507],[126.79431,37.35385],[126.7917,37.35252],[126.79029,37.35027],[126.79112,37.34654],[126.79219,37.34451],[126.79318,37.34357],[126.79103,37.34244],[126.78905,37.33982],[126.78816,37.33914],[126.78554,37.3381],[126.78441,37.33676],[126.78397,37.33755],[126.7841,37.33908],[126.78355,37.34036],[126.78195,37.3406],[126.78154,37.34017],[126.77879,37.34065],[126.77646,37.34203],[126.77402,37.34141],[126.77379,37.3422],[126.77236,37.34318],[126.7703,37.34199],[126.76913,37.3417],[126.76803,37.34271],[126.7671,37.34271],[126.76484,37.34241],[126.76311,37.34082],[126.76061,37.34113],[126.7576,37.338],[126.74972,37.33356],[126.74758,37.3257],[126.74763,37.32483],[126.74655,37.32472],[126.73854,37.32967],[126.72167,37.31226],[126.71978,37.30997],[126.71825,37.30858],[126.71749,37.30827],[126.71154,37.30901],[126.70557,37.31076],[126.70386,37.31186],[126.70313,37.31198],[126.70021,37.31413],[126.69218,37.31891],[126.68467,37.3201],[126.68185,37.31971],[126.68124,37.31996],[126.6805,37.31926],[126.68008,37.31971],[126.67771,37.31996],[126.67723,37.32047],[126.67645,37.32021],[126.67733,37.32161],[126.67607,37.32197],[126.67548,37.32294],[126.67544,37.32376],[126.67124,37.32904],[126.61782,37.31407],[126.61504,37.31384],[126.61422,37.31477],[126.61451,37.31534],[126.61593,37.31507],[126.6205,37.31571],[126.65458,37.32523],[126.65443,37.32683],[126.65538,37.32545],[126.6895,37.33497],[126.69039,37.33527],[126.69024,37.33578],[126.69069,37.33607],[126.69131,37.33578]]],[[[126.68917,37.35549],[126.68998,37.35534],[126.69055,37.35485],[126.6895,37.35467],[126.68948,37.35494],[126.68908,37.35494],[126.68903,37.35511],[126.68917,37.35549]]],[[[126.68973,37.35543],[126.68976,37.35545],[126.68973,37.3554],[126.68973,37.35543]]],[[[126.68952,37.35449],[126.68952,37.35458],[126.68961,37.35457],[126.68952,37.35449]]]]},"properties":{"id":"SGG:41390","layer":"L3","admin_code":"41390","name":"경기도 시흥시","sido":"경기도","sgg":"시흥시","provisional":false,"source":"통계청 행정동 경계(BND_ADM_DONG_PG, 2025-06-30) 를 시군구로 합침","source_kind":"derived","derived_from":"행정동 경계 union · 20 m 단순화"}}]}