{"type":"FeatureCollection","features":[{"type":"Feature","id":"SGG:44800","geometry":{"type":"MultiPolygon","coordinates":[[[[126.73924,36.5441],[126.73982,36.54329],[126.74096,36.54266],[126.74085,36.5403],[126.7417,36.53938],[126.74087,36.53701],[126.74245,36.53626],[126.74281,36.53548],[126.74375,36.53534],[126.74491,36.53394],[126.74634,36.53352],[126.74705,36.53284],[126.74657,36.53178],[126.74819,36.53137],[126.74891,36.53086],[126.75041,36.53146],[126.75299,36.52944],[126.75357,36.52841],[126.75589,36.52876],[126.75645,36.52815],[126.7583,36.52788],[126.7591,36.52737],[126.76361,36.53205],[126.76381,36.53315],[126.76584,36.53541],[126.76716,36.53518],[126.76766,36.53586],[126.76904,36.53643],[126.77319,36.53436],[126.77258,36.53381],[126.77132,36.53115],[126.76945,36.52843],[126.76924,36.52601],[126.76954,36.52501],[126.76739,36.52248],[126.76771,36.52095],[126.76834,36.51997],[126.77045,36.5188],[126.77039,36.51827],[126.76978,36.51761],[126.7666,36.51662],[126.76576,36.51434],[126.76587,36.51269],[126.76558,36.51186],[126.76143,36.50963],[126.75651,36.50424],[126.75535,36.50348],[126.75561,36.50343],[126.75444,36.50283],[126.75333,36.50267],[126.75297,36.50276],[126.75292,36.50334],[126.75245,36.50339],[126.75222,36.50396],[126.75264,36.50382],[126.75204,36.50437],[126.75128,36.50429],[126.75033,36.50368],[126.74993,36.50222],[126.749,36.50139],[126.74865,36.49827],[126.74648,36.49601],[126.74581,36.49475],[126.74589,36.49283],[126.74322,36.4901],[126.74315,36.48951],[126.7437,36.48872],[126.74619,36.48756],[126.74692,36.48611],[126.74685,36.48461],[126.74453,36.48468],[126.74272,36.4835],[126.7423,36.48212],[126.74057,36.47947],[126.74058,36.47811],[126.73877,36.47525],[126.73704,36.47459],[126.73655,36.47234],[126.73483,36.4724],[126.73456,36.473],[126.73476,36.47326],[126.73117,36.47653],[126.73052,36.47783],[126.73077,36.4782],[126.72946,36.47958],[126.72746,36.47925],[126.72438,36.48062],[126.72267,36.47963],[126.72117,36.4805],[126.72112,36.48091],[126.71971,36.48111],[126.71917,36.4818],[126.71821,36.48203],[126.71742,36.48158],[126.71386,36.48118],[126.71397,36.48048],[126.71095,36.47913],[126.70831,36.47848],[126.708,36.47811],[126.70507,36.47877],[126.70319,36.47843],[126.70159,36.47884],[126.7008,36.47856],[126.69867,36.47566],[126.69701,36.47435],[126.69296,36.47287],[126.69195,36.47119],[126.6905,36.47033],[126.6894,36.46984],[126.68755,36.46965],[126.68483,36.46807],[126.68363,36.46789],[126.68003,36.46519],[126.67907,36.46383],[126.67719,36.46332],[126.67681,36.46268],[126.67611,36.46237],[126.67544,36.46221],[126.67419,36.46247],[126.67357,36.462],[126.67193,36.4616],[126.67055,36.46186],[126.66969,36.46163],[126.6675,36.4623],[126.66492,36.46265],[126.66358,36.46121],[126.65943,36.46023],[126.65836,36.45973],[126.65656,36.4605],[126.65604,36.46117],[126.65445,36.46218],[126.65386,36.46457],[126.65444,36.46676],[126.65279,36.46747],[126.64772,36.46602],[126.64664,36.46665],[126.64393,36.46664],[126.64186,36.46586],[126.64013,36.46589],[126.63841,36.46531],[126.63767,36.46541],[126.63625,36.46664],[126.63421,36.46662],[126.63409,36.46771],[126.63338,36.4692],[126.63355,36.47168],[126.63308,36.47264],[126.63165,36.47372],[126.63175,36.47617],[126.63117,36.47659],[126.62652,36.47702],[126.62503,36.47669],[126.62461,36.47705],[126.62308,36.47704],[126.62284,36.47782],[126.62237,36.47782],[126.62187,36.4785],[126.61918,36.4795],[126.61923,36.4802],[126.61679,36.48218],[126.61699,36.48265],[126.61649,36.48351],[126.61468,36.48477],[126.61595,36.48662],[126.61702,36.48909],[126.61693,36.48983],[126.61573,36.49085],[126.61723,36.49265],[126.6174,36.49339],[126.61881,36.49465],[126.61865,36.49503],[126.61714,36.49446],[126.61525,36.49199],[126.61491,36.4903],[126.61528,36.4873],[126.61473,36.48611],[126.6135,36.4857],[126.61109,36.48292],[126.61024,36.48252],[126.61065,36.4819],[126.61039,36.48123],[126.6096,36.48089],[126.60891,36.48194],[126.60288,36.47934],[126.59898,36.47886],[126.59848,36.48143],[126.59927,36.48258],[126.59968,36.48416],[126.60044,36.48482],[126.60008,36.48551],[126.60189,36.48853],[126.60149,36.48892],[126.60068,36.48872],[126.59975,36.49084],[126.59885,36.49138],[126.59833,36.49237],[126.59751,36.49293],[126.59756,36.49338],[126.59825,36.49356],[126.59758,36.4952],[126.59675,36.49548],[126.5969,36.49636],[126.59654,36.4964],[126.59726,36.497],[126.5966,36.49793],[126.59657,36.49899],[126.5956,36.50085],[126.59396,36.50156],[126.5927,36.50348],[126.59261,36.5047],[126.59332,36.50639],[126.59304,36.50671],[126.59072,36.50863],[126.59,36.50889],[126.58867,36.50827],[126.5867,36.50679],[126.58422,36.50686],[126.58372,36.50622],[126.58215,36.50592],[126.58062,36.50512],[126.57998,36.50528],[126.57936,36.5049],[126.57731,36.50467],[126.57518,36.50319],[126.57385,36.50352],[126.5725,36.50218],[126.57167,36.50192],[126.57103,36.50243],[126.57029,36.50395],[126.57004,36.50298],[126.56843,36.50312],[126.56673,36.50272],[126.56624,36.50299],[126.56609,36.50247],[126.56601,36.50445],[126.56492,36.50602],[126.56561,36.50665],[126.56571,36.50819],[126.56439,36.50839],[126.56309,36.50702],[126.56165,36.50826],[126.56174,36.51117],[126.56108,36.51308],[126.55991,36.51468],[126.55967,36.51866],[126.56022,36.51914],[126.56169,36.51949],[126.55946,36.51923],[126.55972,36.52106],[126.55904,36.52325],[126.55914,36.52426],[126.5583,36.52423],[126.55831,36.52281],[126.5589,36.52161],[126.55856,36.51913],[126.55646,36.51955],[126.55606,36.51936],[126.55834,36.51901],[126.55869,36.51872],[126.55806,36.51602],[126.55944,36.51396],[126.56053,36.51091],[126.55927,36.50992],[126.5593,36.50917],[126.55853,36.50787],[126.55588,36.50635],[126.55324,36.50645],[126.54713,36.50733],[126.54642,36.50824],[126.54278,36.5092],[126.53971,36.51101],[126.53874,36.51217],[126.53717,36.51288],[126.5367,36.51385],[126.5354,36.51486],[126.5352,36.51599],[126.5348,36.51592],[126.53474,36.51657],[126.53368,36.51715],[126.53351,36.51684],[126.53315,36.51696],[126.53189,36.51852],[126.53084,36.51915],[126.53087,36.51962],[126.52909,36.52033],[126.52858,36.52095],[126.52804,36.52104],[126.52736,36.52066],[126.52651,36.52077],[126.52492,36.5218],[126.52437,36.52169],[126.52355,36.52201],[126.52318,36.5226],[126.51766,36.52392],[126.51638,36.52509],[126.51571,36.52452],[126.51546,36.5237],[126.51449,36.52372],[126.51276,36.52313],[126.51286,36.52405],[126.51372,36.52487],[126.51369,36.52526],[126.51437,36.52569],[126.51211,36.52691],[126.51323,36.52766],[126.51254,36.52761],[126.51184,36.52701],[126.51004,36.52865],[126.50775,36.52889],[126.50778,36.52837],[126.50753,36.52835],[126.50749,36.52891],[126.50613,36.52988],[126.50645,36.52997],[126.50693,36.52939],[126.50747,36.52919],[126.50694,36.53019],[126.50626,36.5306],[126.5058,36.53039],[126.50454,36.53161],[126.50111,36.53177],[126.50121,36.53145],[126.49997,36.52957],[126.49894,36.52875],[126.49703,36.52818],[126.49461,36.52622],[126.4932,36.52407],[126.49127,36.52211],[126.48877,36.52105],[126.48592,36.51926],[126.4858,36.51775],[126.48328,36.51697],[126.48354,36.51686],[126.48361,36.51436],[126.483,36.51411],[126.48144,36.51437],[126.48084,36.51505],[126.48108,36.5152],[126.4816,36.51468],[126.48273,36.51467],[126.48265,36.51606],[126.48182,36.5161],[126.48133,36.51561],[126.481,36.51572],[126.48219,36.51681],[126.48294,36.51696],[126.48295,36.51737],[126.48205,36.51758],[126.48203,36.51834],[126.48289,36.51881],[126.48342,36.52036],[126.48325,36.52104],[126.48408,36.52124],[126.4881,36.52651],[126.48628,36.52948],[126.48413,36.53125],[126.4821,36.53091],[126.48202,36.53049],[126.48147,36.53032],[126.48133,36.53085],[126.4819,36.53141],[126.48055,36.53411],[126.47814,36.53653],[126.47775,36.53668],[126.47669,36.53559],[126.47185,36.53781],[126.47089,36.53661],[126.47167,36.53787],[126.46956,36.53898],[126.46822,36.53854],[126.46672,36.53683],[126.46823,36.53387],[126.4697,36.53354],[126.47017,36.53371],[126.47028,36.53328],[126.4689,36.53332],[126.46694,36.53399],[126.46625,36.53481],[126.46618,36.53638],[126.46651,36.53738],[126.46718,36.53815],[126.46904,36.53928],[126.46871,36.53966],[126.46897,36.53976],[126.46813,36.54195],[126.46531,36.54447],[126.4649,36.54558],[126.46416,36.54639],[126.46424,36.54832],[126.46262,36.54942],[126.46282,36.54957],[126.46436,36.54841],[126.46505,36.54892],[126.46623,36.55151],[126.46427,36.55208],[126.46652,36.55158],[126.46765,36.55368],[126.4682,36.55622],[126.46212,36.5568],[126.46167,36.55655],[126.46201,36.55697],[126.46884,36.55645],[126.46943,36.55613],[126.47215,36.55909],[126.47162,36.55972],[126.4711,36.55973],[126.4688,36.56238],[126.46722,36.56189],[126.46683,36.56214],[126.46853,36.56247],[126.46817,36.5639],[126.46369,36.56382],[126.46374,36.564],[126.46816,36.56397],[126.4674,36.56469],[126.46728,36.56674],[126.46769,36.56759],[126.46731,36.56983],[126.46658,36.57078],[126.45982,36.56881],[126.4597,36.56891],[126.46634,36.57088],[126.46478,36.57495],[126.46527,36.57513],[126.46389,36.5766],[126.46322,36.57679],[126.46234,36.57621],[126.46248,36.57677],[126.46333,36.5769],[126.46428,36.57801],[126.46467,36.57897],[126.46467,36.58137],[126.4642,36.58332],[126.4627,36.58577],[126.46148,36.58685],[126.45965,36.58779],[126.45847,36.58804],[126.45862,36.58733],[126.45801,36.58768],[126.45801,36.58831],[126.45645,36.58782],[126.45546,36.58853],[126.45649,36.5881],[126.45763,36.58843],[126.45738,36.58898],[126.45788,36.58913],[126.45725,36.5904],[126.4566,36.59127],[126.45515,36.59228],[126.4532,36.59282],[126.45524,36.59236],[126.4557,36.59363],[126.45676,36.59438],[126.45686,36.59487],[126.45638,36.59501],[126.45645,36.59523],[126.4538,36.59586],[126.44067,36.60034],[126.45274,36.61536],[126.45302,36.62578],[126.49729,36.63127],[126.50566,36.63486],[126.51138,36.63069],[126.51191,36.63111],[126.51438,36.63191],[126.51577,36.63173],[126.51679,36.63338],[126.51957,36.6354],[126.51874,36.63601],[126.51836,36.63821],[126.52211,36.63858],[126.52277,36.63894],[126.52412,36.63889],[126.52545,36.64036],[126.52645,36.64081],[126.5264,36.64132],[126.52998,36.6414],[126.52987,36.64205],[126.53429,36.64593],[126.53624,36.64621],[126.53865,36.64463],[126.53903,36.64484],[126.54119,36.64475],[126.54169,36.64378],[126.54303,36.64343],[126.54419,36.6425],[126.54421,36.64167],[126.54561,36.64021],[126.54915,36.64199],[126.55014,36.64196],[126.55424,36.64336],[126.55652,36.64294],[126.55785,36.64315],[126.55823,36.64381],[126.55921,36.64353],[126.56014,36.64364],[126.5616,36.64452],[126.56192,36.64557],[126.56261,36.64611],[126.56301,36.647],[126.56386,36.64712],[126.56517,36.64794],[126.56534,36.64954],[126.56636,36.6494],[126.56743,36.64824],[126.5689,36.64837],[126.5695,36.64889],[126.57084,36.64864],[126.57334,36.65229],[126.574,36.65235],[126.57449,36.65317],[126.5775,36.65439],[126.57961,36.65487],[126.57939,36.6558],[126.58007,36.65673],[126.57982,36.65736],[126.58014,36.6577],[126.57978,36.65823],[126.58123,36.66013],[126.58176,36.66183],[126.58179,36.66258],[126.58143,36.66259],[126.58144,36.66433],[126.58314,36.66459],[126.58559,36.66553],[126.58898,36.6635],[126.59085,36.66174],[126.59207,36.65894],[126.59206,36.65734],[126.59473,36.65444],[126.59581,36.65274],[126.59583,36.65167],[126.59526,36.64935],[126.59199,36.64782],[126.59037,36.64568],[126.59061,36.64408],[126.59021,36.64368],[126.59032,36.64282],[126.58968,36.64163],[126.58978,36.6406],[126.58833,36.63975],[126.58707,36.63751],[126.58818,36.63559],[126.58753,36.63469],[126.58743,36.63241],[126.58611,36.62936],[126.58608,36.6289],[126.58668,36.62815],[126.58548,36.62624],[126.58544,36.62456],[126.58598,36.62358],[126.58587,36.62238],[126.58682,36.62132],[126.58599,36.62057],[126.5854,36.62045],[126.58569,36.61836],[126.58641,36.61775],[126.59276,36.62033],[126.59552,36.62067],[126.59674,36.62151],[126.59749,36.62095],[126.59769,36.62125],[126.60042,36.62094],[126.60167,36.62023],[126.60221,36.61889],[126.60415,36.62061],[126.60608,36.62304],[126.60625,36.62529],[126.6069,36.62489],[126.60929,36.62476],[126.61306,36.62373],[126.61545,36.6235],[126.61585,36.6229],[126.61598,36.62134],[126.61705,36.61951],[126.61602,36.61822],[126.61587,36.6174],[126.61798,36.61661],[126.61853,36.61547],[126.61833,36.61459],[126.61916,36.61362],[126.62207,36.61151],[126.62345,36.60906],[126.62483,36.60964],[126.62551,36.61095],[126.626,36.61319],[126.62663,36.61389],[126.62645,36.61768],[126.6267,36.61824],[126.62637,36.61912],[126.62674,36.62036],[126.6262,36.62118],[126.62626,36.62513],[126.6239,36.62674],[126.62519,36.62888],[126.6246,36.63029],[126.6247,36.63138],[126.62308,36.63216],[126.62222,36.63322],[126.62126,36.6356],[126.61889,36.63801],[126.61908,36.63902],[126.62083,36.63972],[126.62159,36.64033],[126.6231,36.64287],[126.62325,36.64388],[126.62655,36.64555],[126.62769,36.64775],[126.62768,36.64861],[126.62818,36.64955],[126.63069,36.65039],[126.63417,36.64998],[126.6349,36.65023],[126.63807,36.6492],[126.63888,36.64805],[126.64155,36.64797],[126.64607,36.6497],[126.64668,36.64888],[126.64707,36.64912],[126.6495,36.64853],[126.65199,36.6498],[126.65223,36.65065],[126.65536,36.65473],[126.65942,36.65672],[126.66902,36.65839],[126.67145,36.65824],[126.6724,36.66002],[126.67408,36.65975],[126.67501,36.6603],[126.67779,36.66071],[126.68107,36.66168],[126.68143,36.66076],[126.68187,36.66085],[126.68196,36.66057],[126.6831,36.6608],[126.6833,36.6601],[126.68472,36.66038],[126.68486,36.66004],[126.68612,36.66029],[126.68621,36.6599],[126.68687,36.65999],[126.68731,36.65953],[126.68964,36.65993],[126.68995,36.65956],[126.69223,36.65989],[126.6934,36.66156],[126.69824,36.66323],[126.70296,36.66284],[126.70408,36.66251],[126.70585,36.66297],[126.70761,36.66294],[126.70799,36.66471],[126.70674,36.66536],[126.70506,36.66568],[126.70478,36.66678],[126.70561,36.66753],[126.70578,36.66886],[126.70861,36.67248],[126.71066,36.67248],[126.7123,36.67094],[126.7129,36.67132],[126.71361,36.67067],[126.7145,36.67084],[126.71702,36.67047],[126.71896,36.67121],[126.7193,36.66998],[126.72022,36.66934],[126.72329,36.66862],[126.72373,36.66824],[126.72445,36.66841],[126.72519,36.66751],[126.72554,36.66748],[126.72755,36.66842],[126.72863,36.67049],[126.7295,36.67105],[126.73094,36.67024],[126.73414,36.67144],[126.73454,36.67228],[126.73517,36.67253],[126.73619,36.67266],[126.73747,36.67157],[126.73885,36.6719],[126.73985,36.67302],[126.74164,36.67223],[126.7436,36.67017],[126.74544,36.67068],[126.74475,36.66746],[126.74377,36.66655],[126.74367,36.66512],[126.7421,36.66366],[126.74236,36.66339],[126.74223,36.66245],[126.73897,36.66174],[126.73783,36.66013],[126.73644,36.6604],[126.7358,36.65957],[126.73717,36.65856],[126.73721,36.65689],[126.73642,36.65546],[126.73779,36.65315],[126.73754,36.65257],[126.7361,36.65168],[126.73606,36.65088],[126.73654,36.64999],[126.73615,36.64843],[126.73689,36.64807],[126.74012,36.64887],[126.74218,36.64862],[126.74429,36.64698],[126.74478,36.64704],[126.74551,36.64644],[126.7468,36.64761],[126.74793,36.64813],[126.75185,36.64566],[126.75243,36.64453],[126.75082,36.64282],[126.75026,36.64162],[126.75024,36.64036],[126.75129,36.63929],[126.7498,36.6353],[126.75147,36.63484],[126.75166,36.63422],[126.75297,36.6332],[126.7555,36.63187],[126.75721,36.6323],[126.75758,36.63183],[126.75769,36.63071],[126.75809,36.63021],[126.758,36.62846],[126.75868,36.62663],[126.7579,36.62555],[126.75602,36.62449],[126.75602,36.62356],[126.75713,36.62286],[126.75785,36.62124],[126.75904,36.62041],[126.76032,36.61866],[126.76134,36.61788],[126.76226,36.61774],[126.76485,36.61926],[126.76627,36.61876],[126.76691,36.61889],[126.76763,36.6183],[126.76831,36.61823],[126.77038,36.61709],[126.77079,36.61651],[126.77056,36.61442],[126.77091,36.61333],[126.77034,36.61305],[126.77011,36.61248],[126.77024,36.61068],[126.77142,36.60802],[126.77254,36.60711],[126.77195,36.60642],[126.77205,36.60539],[126.77129,36.60461],[126.77047,36.60213],[126.76955,36.60193],[126.76949,36.60168],[126.77011,36.60002],[126.77083,36.59942],[126.77128,36.59736],[126.77063,36.59659],[126.7717,36.59466],[126.77242,36.59404],[126.77146,36.59252],[126.7705,36.59245],[126.76925,36.59169],[126.76939,36.59147],[126.76843,36.59062],[126.76619,36.58934],[126.76541,36.58861],[126.7653,36.588],[126.76341,36.58659],[126.76237,36.58692],[126.75936,36.58561],[126.75574,36.58481],[126.75567,36.58322],[126.7552,36.58261],[126.75338,36.58191],[126.75223,36.58064],[126.75209,36.57999],[126.74849,36.58049],[126.74802,36.57824],[126.74724,36.5772],[126.74696,36.57609],[126.74783,36.57341],[126.74879,36.57269],[126.7482,36.57209],[126.74814,36.57156],[126.74874,36.57081],[126.7483,36.57001],[126.74879,36.56901],[126.74868,36.56731],[126.74925,36.56577],[126.74975,36.5653],[126.74835,36.56208],[126.74834,36.55749],[126.74624,36.55595],[126.74603,36.55492],[126.74546,36.5546],[126.74484,36.55477],[126.7447,36.55538],[126.74214,36.55572],[126.74072,36.55427],[126.73903,36.55343],[126.73881,36.55269],[126.73712,36.55148],[126.73691,36.54979],[126.73774,36.5491],[126.73801,36.54787],[126.7376,36.54611],[126.73825,36.54473],[126.73924,36.5441]]],[[[126.46249,36.55033],[126.46322,36.55246],[126.46344,36.55297],[126.46249,36.55033]]],[[[126.44004,36.52115],[126.43947,36.52055],[126.44026,36.52001],[126.44148,36.51993],[126.44147,36.52091],[126.4418,36.52042],[126.44232,36.52056],[126.44305,36.52022],[126.44275,36.51969],[126.44159,36.51907],[126.44153,36.51828],[126.44241,36.51844],[126.44164,36.51818],[126.44171,36.51791],[126.44266,36.51713],[126.44364,36.51696],[126.44445,36.51621],[126.44364,36.51641],[126.441,36.51598],[126.44076,36.51525],[126.43957,36.51601],[126.43906,36.51603],[126.43914,36.51649],[126.43992,36.5168],[126.4399,36.51752],[126.44122,36.51778],[126.44117,36.51873],[126.44018,36.51953],[126.43803,36.519],[126.43744,36.5199],[126.43668,36.52021],[126.43674,36.52079],[126.43726,36.52109],[126.43813,36.5205],[126.43897,36.52079],[126.43894,36.52148],[126.4397,36.52122],[126.44097,36.5215],[126.44004,36.52115]]],[[[126.43737,36.51806],[126.43713,36.51771],[126.4365,36.51786],[126.43666,36.51803],[126.43737,36.51806]]],[[[126.43657,36.52031],[126.43653,36.52021],[126.43646,36.52024],[126.43657,36.52031]]],[[[126.43592,36.51885],[126.43539,36.51895],[126.43541,36.51908],[126.43592,36.51885]]],[[[126.43176,36.52845],[126.43313,36.52604],[126.43295,36.52577],[126.43149,36.52593],[126.4306,36.52505],[126.43072,36.5255],[126.42988,36.52596],[126.43053,36.5262],[126.43148,36.52722],[126.43176,36.52845]]],[[[126.43281,36.52173],[126.4326,36.52128],[126.43162,36.52166],[126.43227,36.5219],[126.43281,36.52173]]],[[[126.42823,36.52449],[126.42732,36.52498],[126.42741,36.52532],[126.42822,36.52574],[126.42799,36.5253],[126.42838,36.52477],[126.42823,36.52449]]],[[[126.42704,36.52802],[126.42644,36.5271],[126.4259,36.52727],[126.42605,36.52855],[126.42687,36.52904],[126.42773,36.5283],[126.42704,36.52802]]],[[[126.42662,36.52432],[126.42691,36.52457],[126.42717,36.52453],[126.42685,36.52415],[126.42662,36.52432]]]]},"properties":{"id":"SGG:44800","layer":"L3","admin_code":"44800","name":"충청남도 홍성군","sido":"충청남도","sgg":"홍성군","provisional":false,"source":"통계청 행정동 경계(BND_ADM_DONG_PG, 2025-06-30) 를 시군구로 합침","source_kind":"derived","derived_from":"행정동 경계 union · 20 m 단순화"}}]}