{"type":"FeatureCollection","features":[{"type":"Feature","id":"SGG:43760","geometry":{"type":"MultiPolygon","coordinates":[[[[127.93357,36.70649],[127.93086,36.70136],[127.93166,36.69756],[127.93159,36.69442],[127.93059,36.69257],[127.92977,36.69223],[127.92892,36.69084],[127.92646,36.69033],[127.92516,36.69123],[127.92261,36.69213],[127.9182,36.69237],[127.91731,36.69333],[127.91585,36.69399],[127.91515,36.69387],[127.91435,36.69301],[127.91272,36.69265],[127.90928,36.69327],[127.90739,36.69259],[127.90376,36.6936],[127.90131,36.69312],[127.89817,36.69312],[127.89541,36.69469],[127.89419,36.69491],[127.8938,36.69465],[127.89447,36.69331],[127.89418,36.69216],[127.89084,36.69231],[127.88858,36.69186],[127.88751,36.69135],[127.88686,36.69065],[127.88583,36.68825],[127.88411,36.68757],[127.88263,36.68784],[127.88141,36.68769],[127.88091,36.68732],[127.88067,36.68663],[127.88144,36.68642],[127.88184,36.68593],[127.88198,36.68345],[127.88077,36.68371],[127.88019,36.6832],[127.87889,36.68293],[127.8784,36.68236],[127.87759,36.68235],[127.87574,36.68307],[127.87467,36.6826],[127.87429,36.68196],[127.87707,36.68078],[127.87726,36.67973],[127.87822,36.67959],[127.88001,36.67871],[127.88104,36.67896],[127.88194,36.68002],[127.88292,36.67943],[127.88431,36.67916],[127.88501,36.67944],[127.88762,36.67863],[127.88965,36.68057],[127.88957,36.68117],[127.89145,36.68243],[127.89517,36.68109],[127.89716,36.68129],[127.89895,36.68224],[127.90037,36.6822],[127.9008,36.68112],[127.90171,36.68053],[127.90376,36.68055],[127.90857,36.67948],[127.91003,36.67793],[127.91258,36.6779],[127.91297,36.67767],[127.9145,36.67478],[127.91507,36.67239],[127.91586,36.67184],[127.91771,36.66785],[127.91862,36.66791],[127.92028,36.66857],[127.92188,36.6686],[127.92319,36.66812],[127.92777,36.66895],[127.92957,36.66877],[127.92983,36.6666],[127.93221,36.66452],[127.93227,36.66141],[127.9316,36.65963],[127.93164,36.6554],[127.93407,36.65332],[127.93908,36.65275],[127.93871,36.64877],[127.93921,36.64706],[127.939,36.64599],[127.93573,36.64418],[127.93546,36.64287],[127.93431,36.64109],[127.93381,36.63608],[127.93522,36.63494],[127.93596,36.633],[127.93285,36.62874],[127.93249,36.62641],[127.93139,36.62459],[127.93288,36.62041],[127.93238,36.61874],[127.92857,36.61706],[127.9251,36.61644],[127.92409,36.61545],[127.92443,36.61345],[127.92397,36.61277],[127.92438,36.61099],[127.92424,36.60983],[127.92489,36.60784],[127.92486,36.60406],[127.9262,36.60297],[127.92386,36.60254],[127.92395,36.60202],[127.92122,36.60164],[127.91996,36.60112],[127.91872,36.60343],[127.91849,36.60685],[127.9188,36.60868],[127.91816,36.6094],[127.91392,36.61222],[127.9118,36.61454],[127.91044,36.61912],[127.90863,36.62217],[127.90837,36.62355],[127.90921,36.62471],[127.90859,36.62593],[127.90577,36.62591],[127.90344,36.62735],[127.90224,36.62759],[127.90149,36.62755],[127.90079,36.62705],[127.89818,36.62662],[127.89705,36.62676],[127.8938,36.62837],[127.89089,36.62867],[127.88965,36.62935],[127.88866,36.63098],[127.88875,36.63341],[127.88789,36.6349],[127.88927,36.63693],[127.88924,36.63984],[127.88767,36.64141],[127.88588,36.64207],[127.88493,36.64278],[127.8849,36.64424],[127.88424,36.64491],[127.88397,36.64474],[127.8832,36.64531],[127.88235,36.6465],[127.88221,36.64882],[127.88117,36.65301],[127.88012,36.65509],[127.88002,36.65675],[127.87966,36.65677],[127.87603,36.65631],[127.87394,36.65505],[127.87344,36.6522],[127.87233,36.65025],[127.86987,36.64882],[127.8697,36.64691],[127.87013,36.64552],[127.86711,36.64413],[127.86714,36.64344],[127.86541,36.64129],[127.86353,36.6407],[127.86307,36.63768],[127.86224,36.63711],[127.86197,36.6361],[127.86129,36.63556],[127.85944,36.63541],[127.85658,36.63447],[127.85507,36.63492],[127.85426,36.63467],[127.85303,36.63481],[127.8528,36.63545],[127.85211,36.63579],[127.85137,36.63477],[127.85082,36.63455],[127.84891,36.63463],[127.84809,36.63418],[127.84675,36.63399],[127.85056,36.63125],[127.8506,36.62915],[127.84784,36.62494],[127.84798,36.6239],[127.84884,36.62218],[127.84982,36.62117],[127.84981,36.61958],[127.85119,36.61835],[127.85301,36.61803],[127.8538,36.61821],[127.85573,36.61758],[127.8583,36.61353],[127.85618,36.61234],[127.85519,36.61188],[127.85161,36.61325],[127.8498,36.61312],[127.84726,36.61112],[127.84542,36.61091],[127.8407,36.60829],[127.83964,36.60893],[127.83907,36.60885],[127.83766,36.60937],[127.83745,36.61009],[127.83524,36.61118],[127.83437,36.61116],[127.83229,36.61276],[127.83108,36.61248],[127.82994,36.61262],[127.82906,36.61156],[127.82753,36.61077],[127.82665,36.61142],[127.82489,36.61178],[127.82399,36.61237],[127.82274,36.61234],[127.82204,36.61266],[127.82212,36.61292],[127.821,36.61331],[127.8213,36.61143],[127.82086,36.61054],[127.81857,36.6083],[127.81594,36.60824],[127.81431,36.60744],[127.81207,36.60758],[127.80835,36.6058],[127.80648,36.60365],[127.80464,36.60328],[127.80319,36.60214],[127.80198,36.60185],[127.79918,36.60238],[127.7985,36.60208],[127.79725,36.60437],[127.79428,36.60666],[127.79181,36.61033],[127.79073,36.61073],[127.7889,36.61237],[127.78673,36.61326],[127.78626,36.61377],[127.78457,36.61269],[127.7839,36.61093],[127.78249,36.61027],[127.78143,36.60875],[127.78082,36.60847],[127.77669,36.60805],[127.77646,36.60713],[127.77393,36.60601],[127.77324,36.60633],[127.77237,36.60624],[127.77218,36.6058],[127.77126,36.60552],[127.76949,36.60399],[127.76869,36.6052],[127.76874,36.60642],[127.76686,36.60849],[127.76676,36.60931],[127.76571,36.61056],[127.76491,36.61063],[127.76463,36.61305],[127.76143,36.61532],[127.76028,36.61662],[127.75955,36.6167],[127.75907,36.61731],[127.75667,36.6183],[127.75234,36.62154],[127.75134,36.62146],[127.75025,36.62188],[127.75067,36.62275],[127.74948,36.62299],[127.75003,36.62496],[127.74997,36.62564],[127.74909,36.62393],[127.74884,36.62413],[127.74935,36.62507],[127.7492,36.62612],[127.74762,36.62725],[127.74551,36.62803],[127.74426,36.62907],[127.74426,36.63037],[127.7436,36.6311],[127.74518,36.63224],[127.74099,36.63266],[127.74003,36.63316],[127.74066,36.63428],[127.74022,36.63494],[127.7393,36.63572],[127.7377,36.63643],[127.73858,36.63929],[127.73894,36.63961],[127.73896,36.64005],[127.7381,36.64128],[127.73477,36.63965],[127.73317,36.6406],[127.73147,36.64232],[127.7298,36.64316],[127.72757,36.64371],[127.72585,36.64468],[127.72419,36.64882],[127.72479,36.64958],[127.72337,36.6513],[127.72116,36.65124],[127.72012,36.65187],[127.7191,36.65198],[127.71781,36.65134],[127.71553,36.65162],[127.71375,36.65104],[127.71268,36.65033],[127.71121,36.65259],[127.70936,36.65404],[127.71091,36.65658],[127.71229,36.6572],[127.71191,36.65974],[127.71224,36.66042],[127.71028,36.66277],[127.71039,36.66303],[127.7117,36.66423],[127.71265,36.6663],[127.71465,36.66537],[127.71264,36.66655],[127.71256,36.66771],[127.71323,36.66834],[127.71555,36.66951],[127.71559,36.66916],[127.7168,36.67001],[127.71764,36.67009],[127.71924,36.67083],[127.72024,36.67203],[127.72165,36.67269],[127.72456,36.6752],[127.72498,36.67525],[127.72602,36.67751],[127.72557,36.67836],[127.72623,36.67938],[127.72631,36.68128],[127.72687,36.68173],[127.72715,36.68251],[127.72664,36.68261],[127.72318,36.68145],[127.72279,36.6817],[127.72354,36.68304],[127.72244,36.68448],[127.72137,36.68488],[127.72055,36.68618],[127.71904,36.6868],[127.71861,36.68827],[127.71625,36.68883],[127.71289,36.69028],[127.71373,36.69522],[127.71137,36.696],[127.71125,36.69747],[127.70841,36.70006],[127.70848,36.70033],[127.70693,36.7011],[127.70545,36.70047],[127.70451,36.70142],[127.7034,36.70187],[127.70327,36.70257],[127.7022,36.70378],[127.70291,36.70523],[127.70235,36.7069],[127.70279,36.70884],[127.70193,36.70987],[127.69984,36.7107],[127.6973,36.71026],[127.69567,36.71086],[127.69435,36.71198],[127.69269,36.71207],[127.69007,36.7141],[127.68884,36.71556],[127.68866,36.7164],[127.68779,36.71755],[127.68805,36.71788],[127.68794,36.7195],[127.68689,36.72049],[127.68605,36.72066],[127.68453,36.71967],[127.68376,36.71734],[127.68068,36.71733],[127.67955,36.71708],[127.67954,36.71761],[127.6774,36.71979],[127.67548,36.72],[127.67451,36.72127],[127.67253,36.72188],[127.67141,36.72267],[127.66988,36.72506],[127.66836,36.72658],[127.66691,36.72752],[127.66581,36.72973],[127.6645,36.72999],[127.66344,36.73154],[127.66206,36.73245],[127.66156,36.73218],[127.65969,36.73208],[127.65681,36.73258],[127.65567,36.7334],[127.6554,36.734],[127.65432,36.73437],[127.65427,36.73517],[127.65218,36.73551],[127.65192,36.73515],[127.65106,36.73499],[127.65105,36.734],[127.65023,36.73367],[127.65045,36.73341],[127.65,36.73266],[127.64686,36.73325],[127.6458,36.73242],[127.64434,36.73246],[127.64372,36.73214],[127.64233,36.73233],[127.64135,36.73176],[127.64052,36.73206],[127.63967,36.73196],[127.63867,36.73296],[127.63848,36.73675],[127.63893,36.73814],[127.63822,36.73924],[127.63746,36.73919],[127.63727,36.74016],[127.63602,36.74131],[127.63659,36.74342],[127.63589,36.74395],[127.63581,36.74453],[127.63658,36.74539],[127.63537,36.74694],[127.63578,36.74829],[127.63496,36.7487],[127.63574,36.75098],[127.63553,36.75209],[127.63464,36.75221],[127.6337,36.75185],[127.63282,36.75231],[127.63153,36.75406],[127.6307,36.75419],[127.63038,36.75478],[127.62983,36.75492],[127.62997,36.75563],[127.62945,36.75587],[127.6294,36.75623],[127.62809,36.75642],[127.62725,36.75736],[127.62702,36.75884],[127.62625,36.75895],[127.62613,36.75975],[127.62538,36.75977],[127.62376,36.76051],[127.62411,36.76106],[127.62408,36.76243],[127.62478,36.76315],[127.62549,36.76574],[127.62703,36.76724],[127.62704,36.76814],[127.62824,36.77019],[127.62834,36.77164],[127.62931,36.77346],[127.62805,36.77358],[127.62724,36.77662],[127.62603,36.77712],[127.62539,36.77686],[127.62467,36.77701],[127.62362,36.77814],[127.62339,36.77884],[127.62294,36.77904],[127.62211,36.77852],[127.62083,36.77859],[127.62046,36.78019],[127.6207,36.78191],[127.62136,36.78354],[127.62089,36.78524],[127.62094,36.78787],[127.62182,36.78787],[127.62267,36.78835],[127.62377,36.78948],[127.62548,36.78932],[127.62599,36.78982],[127.62629,36.79044],[127.62534,36.79141],[127.62715,36.79189],[127.62736,36.79321],[127.62702,36.79425],[127.63227,36.79373],[127.63309,36.79386],[127.63458,36.79345],[127.63608,36.79427],[127.63699,36.79528],[127.63812,36.79558],[127.64056,36.79849],[127.6407,36.79936],[127.64162,36.79995],[127.64159,36.80049],[127.64194,36.80074],[127.64168,36.8013],[127.64034,36.80154],[127.64013,36.80344],[127.63608,36.80464],[127.63552,36.80539],[127.63592,36.80654],[127.63538,36.80715],[127.63458,36.80686],[127.63401,36.8073],[127.63422,36.80826],[127.63498,36.80881],[127.63543,36.81116],[127.63508,36.81256],[127.63239,36.81459],[127.63132,36.81501],[127.6301,36.81624],[127.63057,36.8174],[127.62986,36.81848],[127.63022,36.81923],[127.62971,36.82119],[127.62929,36.82157],[127.62998,36.82263],[127.62952,36.82449],[127.63044,36.82565],[127.63055,36.82781],[127.63013,36.82849],[127.63061,36.82905],[127.6309,36.83041],[127.63168,36.8305],[127.63257,36.8313],[127.63399,36.83476],[127.63406,36.83642],[127.63561,36.8367],[127.63616,36.83713],[127.63605,36.83762],[127.63671,36.8384],[127.63659,36.83914],[127.6379,36.84013],[127.63859,36.84111],[127.63843,36.84183],[127.63914,36.84256],[127.63889,36.84289],[127.63918,36.84359],[127.63821,36.84463],[127.63781,36.84565],[127.63733,36.8459],[127.6378,36.84874],[127.63812,36.84974],[127.63909,36.85044],[127.64025,36.85317],[127.64111,36.85383],[127.64202,36.85575],[127.64342,36.85683],[127.64443,36.857],[127.64444,36.85796],[127.64781,36.85931],[127.64853,36.85997],[127.64907,36.85972],[127.65075,36.85985],[127.6524,36.86087],[127.65349,36.86093],[127.65441,36.86042],[127.6554,36.8608],[127.65645,36.86072],[127.65721,36.86062],[127.65756,36.86025],[127.65875,36.86033],[127.66139,36.85979],[127.66319,36.858],[127.66408,36.85779],[127.66564,36.85807],[127.6671,36.85771],[127.66736,36.85718],[127.66849,36.85668],[127.66921,36.85495],[127.67132,36.85474],[127.67244,36.85346],[127.67476,36.85313],[127.67603,36.85195],[127.67606,36.8509],[127.67784,36.85095],[127.67777,36.85157],[127.67873,36.85261],[127.67979,36.85311],[127.68034,36.85303],[127.68206,36.85498],[127.68359,36.85617],[127.6833,36.85672],[127.68409,36.85902],[127.68611,36.85936],[127.68652,36.85987],[127.6868,36.86118],[127.68711,36.86134],[127.68716,36.86249],[127.68624,36.86339],[127.68616,36.86515],[127.68565,36.8657],[127.68588,36.86849],[127.68621,36.86893],[127.68689,36.86911],[127.68771,36.87058],[127.68977,36.87155],[127.69025,36.87234],[127.69021,36.87334],[127.69087,36.87397],[127.69184,36.87667],[127.69165,36.87731],[127.69215,36.87787],[127.69176,36.87867],[127.6932,36.87874],[127.69349,36.87967],[127.69397,36.88005],[127.69656,36.88005],[127.69803,36.88061],[127.69916,36.87981],[127.70019,36.87822],[127.70258,36.87811],[127.70406,36.87762],[127.70554,36.87662],[127.7069,36.87651],[127.70691,36.87615],[127.70772,36.87592],[127.70814,36.878],[127.70856,36.87838],[127.71053,36.87813],[127.71143,36.87878],[127.71313,36.87891],[127.71345,36.87845],[127.71449,36.87879],[127.71536,36.87747],[127.71624,36.87716],[127.71867,36.87806],[127.71965,36.87747],[127.72237,36.87824],[127.72279,36.87814],[127.72374,36.87864],[127.72403,36.87967],[127.72522,36.88007],[127.72664,36.87961],[127.72797,36.87996],[127.72828,36.87938],[127.73038,36.87852],[127.73189,36.87865],[127.73328,36.87943],[127.73524,36.87994],[127.73751,36.87865],[127.73798,36.87785],[127.7395,36.87864],[127.74348,36.87744],[127.74543,36.87803],[127.74762,36.87623],[127.74793,36.87442],[127.74881,36.87383],[127.75054,36.87332],[127.75247,36.87477],[127.75339,36.87372],[127.75429,36.87349],[127.75645,36.87363],[127.75757,36.87403],[127.7586,36.87384],[127.76085,36.87591],[127.76092,36.87675],[127.76247,36.87749],[127.76489,36.87661],[127.76505,36.87606],[127.76667,36.87477],[127.76994,36.87613],[127.77079,36.87756],[127.77281,36.87795],[127.77331,36.87774],[127.77481,36.87788],[127.77593,36.87853],[127.77764,36.87855],[127.77852,36.87878],[127.7789,36.87924],[127.78232,36.87971],[127.78338,36.88038],[127.78513,36.87964],[127.78569,36.88008],[127.78774,36.88063],[127.78826,36.88208],[127.78883,36.88262],[127.78935,36.88554],[127.78864,36.88633],[127.78817,36.8878],[127.78821,36.88931],[127.78748,36.89252],[127.78763,36.89322],[127.78712,36.89449],[127.78928,36.8959],[127.78943,36.89687],[127.79188,36.89761],[127.79236,36.8994],[127.79211,36.90115],[127.79141,36.90176],[127.78965,36.90266],[127.78866,36.90272],[127.78815,36.90313],[127.78648,36.9035],[127.78487,36.90588],[127.79176,36.90683],[127.79205,36.90601],[127.79116,36.90449],[127.79152,36.90414],[127.79288,36.90356],[127.79847,36.90275],[127.79762,36.90408],[127.79752,36.90518],[127.79774,36.90729],[127.79833,36.90856],[127.79793,36.90942],[127.79626,36.9108],[127.79622,36.91252],[127.79587,36.91311],[127.79377,36.91441],[127.79463,36.91554],[127.79436,36.91623],[127.79316,36.91687],[127.79169,36.91658],[127.7905,36.91685],[127.78953,36.91568],[127.78674,36.91582],[127.7856,36.91744],[127.78486,36.9173],[127.78415,36.91762],[127.78356,36.91867],[127.7837,36.91984],[127.78283,36.92221],[127.78303,36.92275],[127.78191,36.92301],[127.78145,36.92416],[127.78392,36.92481],[127.7852,36.92457],[127.78626,36.92494],[127.78748,36.92593],[127.78899,36.92612],[127.78844,36.92683],[127.78906,36.92863],[127.78768,36.92883],[127.78813,36.92912],[127.78842,36.93064],[127.78774,36.93153],[127.78681,36.93196],[127.78841,36.93379],[127.78803,36.93719],[127.79163,36.93866],[127.79269,36.93948],[127.79339,36.94071],[127.79291,36.94293],[127.79378,36.94305],[127.79385,36.9434],[127.79488,36.94407],[127.79494,36.94591],[127.79636,36.94672],[127.79856,36.94668],[127.79901,36.94727],[127.79983,36.94753],[127.80002,36.94733],[127.80091,36.94754],[127.80278,36.94667],[127.8066,36.94595],[127.80731,36.94424],[127.80716,36.94159],[127.80771,36.9411],[127.80829,36.94106],[127.80944,36.93958],[127.81194,36.94074],[127.81498,36.94055],[127.816,36.94127],[127.81789,36.94097],[127.81938,36.94107],[127.82022,36.94145],[127.82031,36.94245],[127.82106,36.94259],[127.82157,36.94344],[127.82406,36.9428],[127.82466,36.94196],[127.82581,36.94217],[127.82619,36.94042],[127.82942,36.94047],[127.83043,36.93983],[127.8316,36.94018],[127.83294,36.93985],[127.83312,36.93785],[127.83345,36.9374],[127.8323,36.93695],[127.83181,36.93538],[127.83224,36.93506],[127.83241,36.93347],[127.83356,36.93314],[127.83466,36.93202],[127.83474,36.93083],[127.83538,36.92995],[127.83579,36.93033],[127.83665,36.93049],[127.83768,36.93011],[127.83985,36.93003],[127.843,36.92771],[127.84316,36.9266],[127.84244,36.9254],[127.8424,36.92387],[127.84182,36.9233],[127.84193,36.92233],[127.84241,36.92168],[127.84088,36.92106],[127.83996,36.91983],[127.84176,36.91816],[127.84209,36.9174],[127.83975,36.91583],[127.83811,36.91422],[127.83793,36.91366],[127.83915,36.91259],[127.84054,36.91228],[127.84147,36.91121],[127.84331,36.91096],[127.84375,36.91114],[127.84401,36.91057],[127.84606,36.90925],[127.85094,36.90901],[127.85159,36.90941],[127.85244,36.90928],[127.85284,36.908],[127.85505,36.90724],[127.85593,36.90633],[127.85833,36.90492],[127.85986,36.89979],[127.86086,36.89944],[127.86399,36.89623],[127.86786,36.89708],[127.87024,36.89656],[127.8722,36.8956],[127.88151,36.89585],[127.88305,36.89016],[127.89265,36.89153],[127.89392,36.89196],[127.89595,36.89294],[127.90007,36.89643],[127.90068,36.8974],[127.90122,36.89602],[127.90317,36.89355],[127.90314,36.89258],[127.90365,36.89201],[127.90359,36.88794],[127.90449,36.88722],[127.90578,36.88701],[127.90652,36.88643],[127.90814,36.88617],[127.90846,36.88584],[127.90925,36.88581],[127.91003,36.88651],[127.9125,36.88574],[127.9137,36.88567],[127.91519,36.88312],[127.91628,36.88213],[127.91697,36.88197],[127.91773,36.88105],[127.9198,36.88132],[127.9243,36.88291],[127.92649,36.88461],[127.92699,36.8846],[127.92746,36.88549],[127.92922,36.88613],[127.93038,36.88797],[127.93089,36.88773],[127.93129,36.88805],[127.93224,36.88757],[127.93377,36.88741],[127.93487,36.88769],[127.9347,36.88795],[127.93436,36.88791],[127.93419,36.88793],[127.93669,36.8889],[127.9352,36.88779],[127.93749,36.88844],[127.94005,36.88775],[127.94595,36.8881],[127.95069,36.88662],[127.95146,36.88598],[127.95189,36.88473],[127.95108,36.88435],[127.94994,36.88302],[127.94941,36.88287],[127.94766,36.8785],[127.94788,36.87749],[127.94692,36.87636],[127.94546,36.87562],[127.94514,36.87491],[127.94546,36.8735],[127.94651,36.87237],[127.94842,36.87278],[127.94992,36.87227],[127.954,36.8693],[127.95668,36.86843],[127.95726,36.86736],[127.95801,36.86712],[127.96064,36.86513],[127.96269,36.86164],[127.96937,36.85935],[127.96844,36.8586],[127.9679,36.85768],[127.96892,36.85673],[127.96807,36.85533],[127.96788,36.85311],[127.9669,36.85095],[127.9693,36.8483],[127.97038,36.84754],[127.97028,36.84527],[127.97128,36.84495],[127.97225,36.84319],[127.97367,36.84204],[127.97434,36.84208],[127.97536,36.83975],[127.97567,36.83812],[127.97716,36.83614],[127.97531,36.83454],[127.97446,36.8332],[127.9731,36.82979],[127.97159,36.82806],[127.9717,36.82635],[127.97239,36.82547],[127.976,36.82371],[127.98185,36.82343],[127.98238,36.82198],[127.98175,36.82027],[127.9831,36.81787],[127.98247,36.81683],[127.98241,36.81598],[127.98529,36.8161],[127.98664,36.81572],[127.98836,36.81505],[127.99173,36.81288],[127.99259,36.81267],[127.99779,36.81294],[128.00015,36.81117],[128.00203,36.81041],[128.00367,36.81058],[128.00892,36.80807],[128.00977,36.80739],[128.01158,36.80679],[128.01238,36.80801],[128.01367,36.80877],[128.01662,36.80789],[128.0175,36.80806],[128.02113,36.81028],[128.02171,36.81193],[128.02303,36.81312],[128.02362,36.81504],[128.024,36.81516],[128.02346,36.81624],[128.02218,36.81739],[128.02292,36.81967],[128.02321,36.82229],[128.02386,36.82321],[128.02302,36.82477],[128.02404,36.82599],[128.0286,36.82488],[128.03023,36.82533],[128.03134,36.82505],[128.03194,36.82526],[128.03547,36.82495],[128.03638,36.82461],[128.03901,36.82141],[128.04223,36.8206],[128.04725,36.82223],[128.0485,36.8214],[128.04897,36.82148],[128.0505,36.81968],[128.05148,36.819],[128.05252,36.81869],[128.05466,36.81905],[128.05557,36.8186],[128.05683,36.81717],[128.05726,36.81729],[128.05924,36.81639],[128.05926,36.81359],[128.05864,36.81315],[128.05823,36.81207],[128.05769,36.81175],[128.05737,36.81047],[128.05783,36.81024],[128.05781,36.80992],[128.0569,36.80956],[128.05683,36.80913],[128.05774,36.80831],[128.05795,36.80701],[128.05501,36.8061],[128.05408,36.80561],[128.05397,36.8052],[128.05493,36.80398],[128.05554,36.79944],[128.05613,36.79842],[128.05526,36.79684],[128.05573,36.79595],[128.05498,36.79266],[128.05324,36.79168],[128.0512,36.78884],[128.05006,36.7856],[128.04877,36.78362],[128.04831,36.78322],[128.04671,36.78297],[128.04556,36.78244],[128.04563,36.7813],[128.04691,36.77861],[128.04577,36.778],[128.04587,36.77695],[128.04468,36.7746],[128.0448,36.77105],[128.04215,36.76842],[128.0412,36.76834],[128.04052,36.76603],[128.03893,36.76401],[128.03736,36.76104],[128.03579,36.75902],[128.03452,36.75811],[128.03237,36.75517],[128.03273,36.75265],[128.03232,36.74758],[128.03363,36.74669],[128.03438,36.74556],[128.0363,36.74441],[128.0384,36.74365],[128.04235,36.74068],[128.04627,36.73915],[128.05072,36.73671],[128.05207,36.73516],[128.05278,36.7334],[128.05391,36.7319],[128.05556,36.73042],[128.0561,36.7303],[128.05725,36.73108],[128.05846,36.73016],[128.06064,36.72688],[128.062,36.72603],[128.0626,36.72612],[128.06396,36.72481],[128.06799,36.72223],[128.06779,36.72127],[128.06822,36.72029],[128.06994,36.71822],[128.07058,36.71645],[128.07149,36.71561],[128.07272,36.71189],[128.07038,36.7077],[128.06729,36.70829],[128.06382,36.70803],[128.0587,36.70895],[128.05662,36.70884],[128.05217,36.70776],[128.04969,36.70776],[128.04646,36.7094],[128.0456,36.71072],[128.04341,36.71232],[128.03936,36.71396],[128.03796,36.715],[128.03677,36.71493],[128.03473,36.71613],[128.03309,36.71723],[128.03191,36.71878],[128.03086,36.71929],[128.02881,36.71946],[128.02578,36.71906],[128.02232,36.72157],[128.02093,36.72193],[128.01939,36.7237],[128.01955,36.72502],[128.01727,36.72761],[128.01581,36.72872],[128.01484,36.73019],[128.01127,36.72961],[128.00936,36.72837],[128.00868,36.72657],[128.00651,36.72545],[128.00695,36.72483],[128.00598,36.72404],[128.0061,36.72302],[128.00417,36.7212],[128.00194,36.71726],[127.99934,36.7174],[127.99744,36.71832],[127.99514,36.71818],[127.99346,36.71753],[127.99146,36.718],[127.99099,36.71742],[127.99017,36.71722],[127.98685,36.71755],[127.98481,36.71864],[127.98365,36.71851],[127.98245,36.71955],[127.98061,36.7202],[127.98025,36.72008],[127.97619,36.72363],[127.97651,36.72425],[127.97506,36.72478],[127.97362,36.72614],[127.97315,36.7262],[127.97184,36.72937],[127.97072,36.73091],[127.96927,36.73142],[127.96824,36.73129],[127.96316,36.73339],[127.96055,36.73719],[127.95846,36.73684],[127.95697,36.73559],[127.95665,36.73349],[127.95516,36.732],[127.95534,36.72949],[127.95426,36.72822],[127.95485,36.72716],[127.95361,36.72268],[127.95145,36.72062],[127.95096,36.72066],[127.94918,36.71988],[127.94933,36.71874],[127.94874,36.71755],[127.94915,36.71732],[127.94965,36.71599],[127.94886,36.71401],[127.94963,36.71264],[127.94918,36.70925],[127.94953,36.70805],[127.94648,36.70621],[127.9457,36.70641],[127.94461,36.70604],[127.9429,36.70689],[127.93898,36.70656],[127.93809,36.70688],[127.93459,36.70571],[127.93357,36.70649]]]]},"properties":{"id":"SGG:43760","layer":"L3","admin_code":"43760","name":"충청북도 괴산군","sido":"충청북도","sgg":"괴산군","provisional":false,"source":"통계청 행정동 경계(BND_ADM_DONG_PG, 2025-06-30) 를 시군구로 합침","source_kind":"derived","derived_from":"행정동 경계 union · 20 m 단순화"}}]}