{"type":"FeatureCollection","features":[{"type":"Feature","id":"SGG:11305","geometry":{"type":"MultiPolygon","coordinates":[[[[127.02188,37.61233],[127.0204,37.6126],[127.01923,37.61379],[127.01851,37.61383],[127.01754,37.61462],[127.01652,37.61494],[127.01451,37.61472],[127.01376,37.6154],[127.01183,37.61632],[127.01095,37.61629],[127.01015,37.6168],[127.00993,37.61777],[127.0085,37.61862],[127.00719,37.62051],[127.00789,37.62403],[127.0049,37.62382],[127.0039,37.62423],[127.00298,37.62528],[126.99927,37.6262],[126.99539,37.63025],[126.99369,37.63147],[126.99137,37.63261],[126.98993,37.6328],[126.98946,37.634],[126.98857,37.63378],[126.98816,37.63449],[126.98741,37.63497],[126.9842,37.63634],[126.98486,37.63681],[126.98553,37.6397],[126.98613,37.64043],[126.98522,37.64164],[126.98426,37.64164],[126.98325,37.64368],[126.98419,37.64443],[126.98486,37.6456],[126.98572,37.64609],[126.98493,37.64607],[126.9846,37.64761],[126.98398,37.64818],[126.98394,37.64961],[126.9825,37.65054],[126.98168,37.65232],[126.98105,37.65271],[126.97966,37.65604],[126.98119,37.65649],[126.98286,37.65645],[126.98301,37.657],[126.98654,37.65949],[126.98728,37.6606],[126.9878,37.66359],[126.98827,37.66439],[126.99,37.6645],[126.99222,37.66523],[126.99402,37.66678],[126.99356,37.6678],[126.99436,37.66957],[126.9938,37.6702],[126.99407,37.67276],[126.99354,37.6741],[126.99398,37.67491],[126.99313,37.67583],[126.99325,37.67766],[126.99292,37.67882],[126.9922,37.67963],[126.99408,37.68032],[126.99473,37.68124],[126.99674,37.68239],[126.99731,37.68347],[127.00169,37.68434],[127.00224,37.68359],[127.00324,37.68395],[127.00378,37.68482],[127.00453,37.68509],[127.00553,37.68487],[127.00605,37.68505],[127.00766,37.68447],[127.00866,37.68445],[127.00842,37.68324],[127.00899,37.68164],[127.00887,37.6806],[127.00936,37.67958],[127.01212,37.67909],[127.01329,37.67783],[127.01388,37.67524],[127.0151,37.67414],[127.01622,37.67392],[127.01666,37.67289],[127.0173,37.67239],[127.01736,37.67161],[127.01793,37.67075],[127.0187,37.67086],[127.0184,37.66888],[127.01747,37.66809],[127.01661,37.66788],[127.01576,37.66699],[127.01547,37.66608],[127.01535,37.66555],[127.01581,37.66494],[127.01532,37.66363],[127.01598,37.66322],[127.01618,37.66251],[127.01689,37.66217],[127.01588,37.66132],[127.01523,37.66138],[127.01453,37.66199],[127.0148,37.66136],[127.01245,37.65216],[127.0129,37.65075],[127.01333,37.65042],[127.01427,37.6504],[127.0151,37.64928],[127.01731,37.64865],[127.02021,37.64908],[127.02145,37.64888],[127.02266,37.64784],[127.02469,37.64734],[127.02589,37.64572],[127.02755,37.64496],[127.03242,37.64183],[127.03457,37.63778],[127.03782,37.63604],[127.03814,37.63426],[127.03976,37.6322],[127.04172,37.63081],[127.04257,37.63057],[127.04441,37.62894],[127.04712,37.62754],[127.04974,37.62427],[127.04653,37.62232],[127.04395,37.61864],[127.04056,37.61611],[127.04004,37.61625],[127.03956,37.61511],[127.03788,37.61377],[127.03732,37.61281],[127.03025,37.60897],[127.03018,37.61236],[127.02643,37.61269],[127.02574,37.61214],[127.02456,37.61214],[127.0225,37.61137],[127.0222,37.61137],[127.02188,37.61233]]]]},"properties":{"id":"SGG:11305","layer":"L3","admin_code":"11305","name":"서울특별시 강북구","sido":"서울특별시","sgg":"강북구","provisional":false,"source":"통계청 행정동 경계(BND_ADM_DONG_PG, 2025-06-30) 를 시군구로 합침","source_kind":"derived","derived_from":"행정동 경계 union · 20 m 단순화"}}]}