{"type":"FeatureCollection","features":[{"type":"Feature","id":"SGG:11740","geometry":{"type":"MultiPolygon","coordinates":[[[[127.14479,37.51962],[127.14509,37.51683],[127.14383,37.51703],[127.13826,37.51937],[127.11909,37.52796],[127.12061,37.53063],[127.12344,37.53865],[127.12186,37.53929],[127.11895,37.54112],[127.11304,37.54298],[127.1131,37.54317],[127.10924,37.54317],[127.11147,37.54693],[127.11155,37.55051],[127.11409,37.55408],[127.11565,37.5577],[127.11734,37.55946],[127.12296,37.56349],[127.12861,37.56616],[127.13427,37.56795],[127.13767,37.56842],[127.14895,37.56843],[127.1569,37.57295],[127.16256,37.57673],[127.16675,37.57898],[127.17184,37.57926],[127.17715,37.5812],[127.17699,37.57942],[127.17542,37.5783],[127.17568,37.5749],[127.17782,37.57206],[127.17784,37.57146],[127.17922,37.56892],[127.17967,37.56528],[127.18119,37.56302],[127.182,37.56099],[127.18134,37.55296],[127.18293,37.55175],[127.18306,37.54871],[127.18268,37.54788],[127.18272,37.5467],[127.18379,37.54557],[127.18354,37.54517],[127.1822,37.54572],[127.18169,37.54644],[127.17933,37.54657],[127.1769,37.54582],[127.17664,37.54534],[127.17598,37.54564],[127.17572,37.54521],[127.17431,37.5453],[127.17414,37.54571],[127.17211,37.54553],[127.16976,37.5448],[127.16882,37.54515],[127.16764,37.54494],[127.16698,37.5452],[127.16689,37.54427],[127.16316,37.54499],[127.16031,37.54163],[127.15765,37.53927],[127.15679,37.53766],[127.15603,37.53734],[127.15402,37.53451],[127.15357,37.53367],[127.15393,37.53192],[127.15338,37.53133],[127.15354,37.53044],[127.15313,37.52995],[127.15316,37.52911],[127.14946,37.52575],[127.14948,37.52502],[127.1478,37.52215],[127.14567,37.52193],[127.14479,37.51962]]]]},"properties":{"id":"SGG:11740","layer":"L3","admin_code":"11740","name":"서울특별시 강동구","sido":"서울특별시","sgg":"강동구","provisional":false,"source":"통계청 행정동 경계(BND_ADM_DONG_PG, 2025-06-30) 를 시군구로 합침","source_kind":"derived","derived_from":"행정동 경계 union · 20 m 단순화"}}]}