{"type":"FeatureCollection","features":[{"type":"Feature","id":"SGG:43110","geometry":{"type":"MultiPolygon","coordinates":[[[[127.4807,36.47721],[127.47461,36.47582],[127.47243,36.47502],[127.47016,36.47354],[127.46668,36.47007],[127.46378,36.46451],[127.46351,36.4603],[127.46256,36.45613],[127.45841,36.4523],[127.45476,36.45027],[127.45133,36.44925],[127.44716,36.44919],[127.44242,36.45127],[127.43744,36.45577],[127.43395,36.45578],[127.43402,36.45615],[127.43704,36.456],[127.43677,36.4564],[127.42745,36.45687],[127.4247,36.45618],[127.41629,36.45481],[127.40796,36.45474],[127.4031,36.45531],[127.40189,36.45623],[127.4009,36.45757],[127.39973,36.45754],[127.39996,36.46047],[127.3992,36.46268],[127.40139,36.46267],[127.40105,36.46735],[127.40204,36.4723],[127.40416,36.47657],[127.40416,36.48099],[127.40301,36.48548],[127.39612,36.49172],[127.397,36.49235],[127.39982,36.49335],[127.40433,36.49371],[127.40672,36.49479],[127.40848,36.49529],[127.40983,36.49532],[127.40999,36.49597],[127.41056,36.49628],[127.4108,36.49775],[127.41033,36.49835],[127.40943,36.49844],[127.40943,36.49883],[127.40822,36.49955],[127.40788,36.50015],[127.409,36.50188],[127.40819,36.50212],[127.40759,36.50326],[127.40906,36.50664],[127.40892,36.50828],[127.4085,36.50897],[127.40904,36.50975],[127.40743,36.5105],[127.40623,36.51178],[127.40495,36.51195],[127.40468,36.51268],[127.40535,36.51303],[127.40417,36.51552],[127.40414,36.51688],[127.40375,36.51738],[127.40139,36.51848],[127.40117,36.51899],[127.40036,36.51902],[127.40002,36.51965],[127.39764,36.52058],[127.39789,36.52135],[127.39938,36.52169],[127.4009,36.52267],[127.40149,36.52365],[127.40192,36.52376],[127.40313,36.52333],[127.40433,36.52393],[127.40618,36.5238],[127.4068,36.52317],[127.40766,36.52308],[127.4086,36.52369],[127.40869,36.52529],[127.40819,36.52638],[127.40841,36.52718],[127.40798,36.52781],[127.40852,36.52883],[127.40706,36.52977],[127.40562,36.5314],[127.40585,36.53298],[127.40538,36.53422],[127.40501,36.53731],[127.40413,36.53793],[127.40325,36.53782],[127.40267,36.53864],[127.40182,36.54124],[127.40019,36.54178],[127.39782,36.54021],[127.39547,36.54004],[127.39424,36.54028],[127.39233,36.54001],[127.39128,36.54054],[127.38898,36.54039],[127.38782,36.54114],[127.38674,36.54101],[127.38568,36.54126],[127.38509,36.54105],[127.38388,36.54153],[127.38351,36.54286],[127.38393,36.54381],[127.38387,36.54548],[127.38267,36.54638],[127.38319,36.54786],[127.38169,36.54888],[127.37918,36.54939],[127.37852,36.54981],[127.37843,36.5511],[127.37897,36.55155],[127.37871,36.55219],[127.37923,36.55259],[127.3781,36.55517],[127.37556,36.55786],[127.37359,36.55772],[127.37255,36.55972],[127.37317,36.56015],[127.375,36.56021],[127.37649,36.56094],[127.3762,36.56156],[127.37794,36.56284],[127.3771,36.56393],[127.37606,36.56441],[127.37398,36.56406],[127.37239,36.56344],[127.37204,36.56357],[127.37396,36.56524],[127.37678,36.56642],[127.37755,36.56783],[127.37694,36.56794],[127.37686,36.5677],[127.37076,36.56649],[127.36866,36.56637],[127.36819,36.56606],[127.36801,36.56502],[127.36649,36.564],[127.36249,36.56445],[127.36148,36.56384],[127.36048,36.56228],[127.35765,36.56181],[127.35626,36.56168],[127.35488,36.56282],[127.35312,36.56223],[127.351,36.56221],[127.34899,36.56381],[127.34785,36.56386],[127.34713,36.56445],[127.34451,36.564],[127.34339,36.56439],[127.34444,36.56412],[127.34418,36.56455],[127.34325,36.56466],[127.34235,36.56366],[127.34075,36.56365],[127.33809,36.56234],[127.33702,36.56284],[127.33658,36.56535],[127.33515,36.5681],[127.33655,36.56999],[127.33577,36.57061],[127.33576,36.57106],[127.33408,36.57172],[127.33375,36.57222],[127.33251,36.57259],[127.33202,36.57347],[127.33215,36.57417],[127.33124,36.57492],[127.32978,36.57488],[127.32942,36.57531],[127.32723,36.57603],[127.32659,36.57652],[127.32545,36.57771],[127.32476,36.57902],[127.32526,36.57957],[127.32488,36.58026],[127.32163,36.58107],[127.32149,36.58131],[127.32305,36.58192],[127.32144,36.58378],[127.31904,36.58373],[127.31321,36.58287],[127.30577,36.583],[127.30387,36.5834],[127.30249,36.58431],[127.30183,36.58532],[127.29982,36.58595],[127.29945,36.58688],[127.29986,36.5877],[127.30217,36.58879],[127.30334,36.59003],[127.30353,36.58983],[127.30376,36.59005],[127.30484,36.59139],[127.3047,36.59581],[127.30655,36.59984],[127.30653,36.60138],[127.30618,36.60256],[127.30495,36.60437],[127.30117,36.60766],[127.30013,36.60773],[127.30062,36.60841],[127.30129,36.60861],[127.30121,36.6092],[127.30159,36.6093],[127.30118,36.61162],[127.30188,36.61104],[127.30181,36.61281],[127.30071,36.61291],[127.30014,36.6139],[127.30027,36.61646],[127.29933,36.61828],[127.29888,36.61866],[127.29641,36.61898],[127.29591,36.6197],[127.29576,36.62054],[127.2962,36.62201],[127.2963,36.62424],[127.29251,36.62467],[127.29176,36.62562],[127.2907,36.63107],[127.29113,36.6326],[127.29183,36.63367],[127.29216,36.63564],[127.29078,36.63681],[127.28921,36.63689],[127.28723,36.63613],[127.28547,36.63386],[127.28502,36.63377],[127.28493,36.63419],[127.28228,36.6346],[127.27999,36.63422],[127.2794,36.63352],[127.27893,36.63403],[127.2788,36.6352],[127.27716,36.63682],[127.27565,36.6398],[127.27701,36.64187],[127.27858,36.64134],[127.27952,36.6407],[127.28278,36.64229],[127.28162,36.64514],[127.28285,36.64696],[127.28363,36.64736],[127.28367,36.6487],[127.2841,36.64874],[127.2844,36.64999],[127.28579,36.65007],[127.28649,36.65105],[127.28615,36.65167],[127.28681,36.6542],[127.28813,36.65626],[127.2889,36.65675],[127.2888,36.65788],[127.28909,36.65814],[127.28869,36.6589],[127.28916,36.65932],[127.29209,36.65945],[127.29294,36.65984],[127.29462,36.65961],[127.29541,36.6598],[127.29593,36.65957],[127.29725,36.66111],[127.29975,36.66219],[127.30101,36.66205],[127.30122,36.66408],[127.30232,36.66575],[127.30389,36.66706],[127.30509,36.66757],[127.30486,36.66813],[127.30585,36.67057],[127.30609,36.67225],[127.30549,36.67284],[127.30521,36.67424],[127.30623,36.67547],[127.30753,36.67832],[127.30724,36.67952],[127.30763,36.68202],[127.30676,36.6827],[127.30599,36.68287],[127.30456,36.68414],[127.30442,36.68504],[127.30376,36.68502],[127.30183,36.68574],[127.30082,36.68524],[127.29957,36.68593],[127.29666,36.68577],[127.29555,36.68662],[127.29214,36.68709],[127.28954,36.68819],[127.2886,36.68964],[127.28802,36.68955],[127.28695,36.69042],[127.28529,36.69067],[127.28567,36.69199],[127.28706,36.69272],[127.28949,36.69541],[127.29201,36.6973],[127.29331,36.69702],[127.29461,36.69718],[127.29574,36.69773],[127.29655,36.69765],[127.29748,36.69914],[127.30132,36.69998],[127.30349,36.70129],[127.30446,36.70244],[127.30503,36.70245],[127.30558,36.70306],[127.30712,36.7037],[127.3084,36.70481],[127.30742,36.70589],[127.30765,36.70662],[127.30711,36.7079],[127.3061,36.70827],[127.30721,36.71102],[127.30695,36.71158],[127.30789,36.71307],[127.3077,36.71338],[127.30814,36.71389],[127.3089,36.71408],[127.3079,36.71565],[127.308,36.71644],[127.30843,36.71682],[127.30799,36.71813],[127.30881,36.72019],[127.30873,36.72078],[127.31009,36.7227],[127.31091,36.72319],[127.31109,36.72385],[127.30925,36.7241],[127.30944,36.72458],[127.31242,36.72378],[127.31685,36.72438],[127.31801,36.72491],[127.31902,36.72647],[127.31977,36.7268],[127.32244,36.7307],[127.32447,36.73147],[127.3252,36.73206],[127.32546,36.73367],[127.3283,36.73456],[127.32965,36.73437],[127.33038,36.73363],[127.33064,36.73271],[127.33115,36.73283],[127.33335,36.7311],[127.33493,36.73132],[127.33603,36.73055],[127.3369,36.72935],[127.3392,36.72973],[127.34,36.73152],[127.34136,36.73274],[127.34247,36.73282],[127.34229,36.73361],[127.34317,36.7357],[127.34151,36.73847],[127.34037,36.73891],[127.33989,36.7398],[127.3374,36.74012],[127.3375,36.74293],[127.33711,36.74435],[127.3366,36.74435],[127.33644,36.74499],[127.33431,36.74681],[127.33268,36.74681],[127.33264,36.74752],[127.3324,36.74751],[127.33365,36.74868],[127.33429,36.74887],[127.33435,36.74983],[127.33532,36.75129],[127.33551,36.75264],[127.33676,36.75279],[127.33713,36.75254],[127.33832,36.75283],[127.3389,36.75259],[127.34099,36.75336],[127.34229,36.75318],[127.34392,36.75371],[127.34466,36.75335],[127.34553,36.75362],[127.34653,36.75348],[127.34705,36.75306],[127.34784,36.75293],[127.34844,36.75332],[127.35018,36.75369],[127.35036,36.75398],[127.35225,36.75408],[127.35379,36.75467],[127.35417,36.75565],[127.35557,36.75602],[127.35613,36.75668],[127.35724,36.76029],[127.35781,36.76097],[127.36008,36.75972],[127.36245,36.76109],[127.36379,36.76112],[127.36419,36.7615],[127.36549,36.76096],[127.36644,36.76093],[127.36959,36.76158],[127.36987,36.76011],[127.37098,36.75948],[127.37146,36.75856],[127.3723,36.75793],[127.37486,36.75798],[127.37567,36.75853],[127.37712,36.75856],[127.378,36.75899],[127.37924,36.75908],[127.37939,36.75846],[127.38188,36.75817],[127.38302,36.75868],[127.38303,36.75892],[127.38411,36.75897],[127.38502,36.75964],[127.38637,36.75929],[127.38726,36.75715],[127.38788,36.75681],[127.38719,36.7558],[127.38831,36.75494],[127.38866,36.75349],[127.3911,36.75263],[127.39346,36.75268],[127.39338,36.75195],[127.39463,36.75117],[127.39456,36.74982],[127.39514,36.74882],[127.39558,36.74899],[127.39581,36.74877],[127.39602,36.74793],[127.39763,36.74764],[127.39907,36.74693],[127.40022,36.74742],[127.40095,36.74729],[127.40129,36.74646],[127.40411,36.74485],[127.40478,36.74516],[127.40444,36.74602],[127.40513,36.74821],[127.40558,36.74872],[127.40528,36.74928],[127.4056,36.75026],[127.40691,36.75085],[127.40843,36.75221],[127.40958,36.75226],[127.40972,36.75263],[127.41073,36.75296],[127.41137,36.75356],[127.41149,36.75507],[127.4108,36.75612],[127.4113,36.75585],[127.41221,36.75725],[127.41347,36.75735],[127.41515,36.75661],[127.41585,36.75666],[127.41961,36.75769],[127.42144,36.75764],[127.42231,36.758],[127.42254,36.75845],[127.42446,36.75876],[127.42455,36.75772],[127.42694,36.7576],[127.427,36.75648],[127.42503,36.75593],[127.42513,36.75535],[127.42478,36.75482],[127.42537,36.75391],[127.42518,36.75352],[127.42584,36.75291],[127.42587,36.75224],[127.42675,36.75193],[127.42711,36.75081],[127.42782,36.75108],[127.43008,36.75093],[127.43054,36.75168],[127.43205,36.75198],[127.43274,36.75146],[127.4357,36.75153],[127.43615,36.75213],[127.43712,36.75228],[127.43738,36.75291],[127.43808,36.7533],[127.43912,36.75324],[127.44018,36.75249],[127.44135,36.75218],[127.44178,36.75131],[127.44172,36.75026],[127.44243,36.7494],[127.44316,36.74947],[127.44372,36.74873],[127.44413,36.74913],[127.44575,36.74968],[127.4472,36.74886],[127.44803,36.74906],[127.44822,36.74883],[127.45094,36.74942],[127.44975,36.75302],[127.44861,36.7549],[127.44993,36.7562],[127.44989,36.75906],[127.4509,36.75998],[127.45095,36.761],[127.45692,36.76466],[127.45764,36.76526],[127.45764,36.76571],[127.45844,36.76579],[127.46039,36.76991],[127.46088,36.76976],[127.46174,36.77026],[127.46407,36.76969],[127.46585,36.76995],[127.46672,36.7695],[127.46736,36.76993],[127.46829,36.76931],[127.46924,36.76928],[127.47041,36.76882],[127.47205,36.76969],[127.47264,36.76963],[127.47373,36.77016],[127.47466,36.77118],[127.47748,36.77305],[127.47939,36.77352],[127.48116,36.77441],[127.4806,36.77548],[127.4818,36.776],[127.48353,36.77621],[127.4878,36.77543],[127.49045,36.7738],[127.49131,36.77413],[127.49114,36.7749],[127.49208,36.77643],[127.49259,36.77634],[127.49422,36.77683],[127.49464,36.77788],[127.49711,36.78001],[127.505,36.77948],[127.50869,36.77687],[127.50918,36.7742],[127.50987,36.77274],[127.51027,36.77301],[127.50935,36.76953],[127.5076,36.76785],[127.50774,36.76719],[127.50902,36.76681],[127.51059,36.76737],[127.51244,36.76762],[127.51517,36.76863],[127.51602,36.7685],[127.51859,36.76934],[127.52534,36.7698],[127.53209,36.77082],[127.53553,36.77256],[127.54967,36.77547],[127.5518,36.77609],[127.55529,36.77768],[127.55946,36.77854],[127.5611,36.77862],[127.5648,36.78026],[127.56501,36.77939],[127.56599,36.77874],[127.56727,36.77558],[127.56765,36.77424],[127.56737,36.77324],[127.56858,36.77186],[127.56933,36.77145],[127.57113,36.77166],[127.57164,36.77064],[127.57381,36.76885],[127.57505,36.76738],[127.57681,36.76689],[127.57699,36.76637],[127.57832,36.76698],[127.57907,36.76699],[127.5796,36.76624],[127.58201,36.76505],[127.58315,36.7627],[127.58364,36.76248],[127.58364,36.76192],[127.58577,36.76189],[127.58737,36.76056],[127.58794,36.76037],[127.58842,36.76078],[127.58892,36.76061],[127.58892,36.75961],[127.58831,36.75851],[127.58839,36.75727],[127.58718,36.75542],[127.58836,36.75442],[127.58855,36.75385],[127.58997,36.75354],[127.59031,36.75312],[127.59003,36.75279],[127.59055,36.75175],[127.59076,36.74985],[127.59018,36.74863],[127.59082,36.7476],[127.59193,36.74713],[127.59256,36.74644],[127.59343,36.74637],[127.59394,36.74572],[127.59536,36.74536],[127.59599,36.74465],[127.59758,36.74459],[127.5983,36.74422],[127.60047,36.74576],[127.60289,36.74561],[127.60315,36.74596],[127.60433,36.74543],[127.60486,36.74405],[127.60607,36.74343],[127.60665,36.74205],[127.60646,36.74022],[127.60815,36.73975],[127.60798,36.73846],[127.60869,36.73791],[127.6083,36.73703],[127.6087,36.73632],[127.60952,36.7361],[127.60974,36.73563],[127.61056,36.73526],[127.61023,36.73422],[127.61045,36.73387],[127.61004,36.73347],[127.61034,36.73226],[127.6097,36.73158],[127.60938,36.73037],[127.6114,36.72922],[127.61087,36.72813],[127.61125,36.7275],[127.61381,36.72648],[127.61463,36.7239],[127.61521,36.7232],[127.61484,36.72216],[127.61532,36.7217],[127.61562,36.72048],[127.61542,36.71868],[127.61599,36.71814],[127.618,36.71735],[127.61885,36.71633],[127.61871,36.71316],[127.618,36.71156],[127.61839,36.70931],[127.61793,36.70745],[127.61905,36.70719],[127.623,36.70462],[127.62497,36.7063],[127.62584,36.70664],[127.62662,36.70641],[127.62737,36.70747],[127.62982,36.70727],[127.63096,36.70778],[127.6329,36.7079],[127.63333,36.70883],[127.63375,36.70892],[127.63824,36.70797],[127.63895,36.70686],[127.64122,36.70566],[127.64131,36.70404],[127.6424,36.70262],[127.64423,36.70287],[127.64513,36.70213],[127.64614,36.702],[127.64775,36.70128],[127.64939,36.70163],[127.65011,36.70209],[127.65119,36.70202],[127.65216,36.70305],[127.65483,36.7044],[127.65585,36.70655],[127.65758,36.70797],[127.65903,36.70988],[127.65909,36.71126],[127.65949,36.71136],[127.6597,36.71246],[127.66125,36.71408],[127.66129,36.71467],[127.66266,36.71499],[127.66303,36.71614],[127.66213,36.7172],[127.66209,36.71825],[127.66156,36.71936],[127.66212,36.7206],[127.66141,36.72229],[127.66222,36.72503],[127.66185,36.72575],[127.66273,36.72603],[127.66383,36.72762],[127.66447,36.72867],[127.6645,36.72999],[127.66581,36.72973],[127.66691,36.72752],[127.66836,36.72658],[127.66988,36.72506],[127.67141,36.72267],[127.67253,36.72188],[127.67451,36.72127],[127.67548,36.72],[127.6774,36.71979],[127.67954,36.71761],[127.67955,36.71708],[127.68068,36.71733],[127.68376,36.71734],[127.68453,36.71967],[127.68605,36.72066],[127.68689,36.72049],[127.68794,36.7195],[127.68805,36.71788],[127.68779,36.71755],[127.68866,36.7164],[127.68884,36.71556],[127.69007,36.7141],[127.69269,36.71207],[127.69435,36.71198],[127.69567,36.71086],[127.6973,36.71026],[127.69984,36.7107],[127.70193,36.70987],[127.70279,36.70884],[127.70235,36.7069],[127.70291,36.70523],[127.7022,36.70378],[127.70327,36.70257],[127.7034,36.70187],[127.70451,36.70142],[127.70545,36.70047],[127.70693,36.7011],[127.70848,36.70033],[127.70841,36.70006],[127.71125,36.69747],[127.71137,36.696],[127.71373,36.69522],[127.71289,36.69028],[127.71625,36.68883],[127.71861,36.68827],[127.71904,36.6868],[127.72055,36.68618],[127.72137,36.68488],[127.72244,36.68448],[127.72354,36.68304],[127.72279,36.6817],[127.72318,36.68145],[127.72664,36.68261],[127.72715,36.68251],[127.72687,36.68173],[127.72631,36.68128],[127.72623,36.67938],[127.72557,36.67836],[127.72602,36.67751],[127.72498,36.67525],[127.72456,36.6752],[127.72165,36.67269],[127.72024,36.67203],[127.71924,36.67083],[127.71764,36.67009],[127.7168,36.67001],[127.71559,36.66916],[127.71555,36.66951],[127.71323,36.66834],[127.71256,36.66771],[127.71264,36.66655],[127.71465,36.66537],[127.71265,36.6663],[127.7117,36.66423],[127.71039,36.66303],[127.71028,36.66277],[127.71224,36.66042],[127.71191,36.65974],[127.71229,36.6572],[127.71091,36.65658],[127.70936,36.65404],[127.71121,36.65259],[127.71268,36.65033],[127.71375,36.65104],[127.71553,36.65162],[127.71781,36.65134],[127.7191,36.65198],[127.72012,36.65187],[127.72116,36.65124],[127.72337,36.6513],[127.72479,36.64958],[127.72419,36.64882],[127.72585,36.64468],[127.72757,36.64371],[127.7298,36.64316],[127.73147,36.64232],[127.73317,36.6406],[127.73477,36.63965],[127.7381,36.64128],[127.73896,36.64005],[127.73894,36.63961],[127.73858,36.63929],[127.7377,36.63643],[127.7393,36.63572],[127.74022,36.63494],[127.74066,36.63428],[127.74003,36.63316],[127.74099,36.63266],[127.74518,36.63224],[127.7436,36.6311],[127.74426,36.63037],[127.74426,36.62907],[127.74551,36.62803],[127.74762,36.62725],[127.7492,36.62612],[127.74935,36.62507],[127.74884,36.62413],[127.74909,36.62393],[127.74997,36.62564],[127.74948,36.62299],[127.75067,36.62275],[127.75025,36.62188],[127.75134,36.62146],[127.75234,36.62154],[127.75667,36.6183],[127.75907,36.61731],[127.75955,36.6167],[127.76028,36.61662],[127.76143,36.61532],[127.76463,36.61305],[127.76491,36.61063],[127.76571,36.61056],[127.76676,36.60931],[127.76686,36.60849],[127.76874,36.60642],[127.76869,36.6052],[127.76949,36.60399],[127.76875,36.60338],[127.76978,36.60117],[127.76952,36.59802],[127.7689,36.59759],[127.76928,36.59647],[127.76872,36.59566],[127.76877,36.59403],[127.76919,36.59382],[127.76645,36.59349],[127.7655,36.59189],[127.76472,36.59195],[127.76355,36.59099],[127.76304,36.59127],[127.76224,36.59114],[127.76132,36.59049],[127.7552,36.59008],[127.75438,36.58936],[127.75204,36.58845],[127.74974,36.58659],[127.74586,36.58525],[127.74369,36.58722],[127.74289,36.58744],[127.74205,36.58818],[127.74155,36.58911],[127.74192,36.5895],[127.74192,36.59024],[127.74129,36.59064],[127.74102,36.59126],[127.73734,36.59262],[127.73675,36.59481],[127.73596,36.59571],[127.73701,36.59717],[127.73715,36.59932],[127.73649,36.60002],[127.73367,36.60017],[127.73111,36.60165],[127.72965,36.6017],[127.72874,36.60231],[127.72776,36.60178],[127.72698,36.60021],[127.72644,36.59997],[127.72487,36.6015],[127.72432,36.6015],[127.7229,36.6022],[127.72171,36.60184],[127.72125,36.60235],[127.7202,36.60267],[127.71917,36.60199],[127.716,36.60236],[127.71495,36.6018],[127.71381,36.60202],[127.71318,36.60121],[127.71315,36.5997],[127.71184,36.59907],[127.71138,36.59843],[127.71139,36.59738],[127.70966,36.59606],[127.70558,36.59515],[127.70435,36.5942],[127.70423,36.59346],[127.70341,36.5928],[127.7032,36.59162],[127.70242,36.59113],[127.69856,36.58972],[127.6978,36.58909],[127.69461,36.58849],[127.69368,36.58863],[127.69325,36.58927],[127.69191,36.58935],[127.69012,36.5905],[127.68915,36.59065],[127.68894,36.59137],[127.68704,36.59206],[127.68402,36.59201],[127.68313,36.5924],[127.68201,36.5918],[127.68053,36.59239],[127.68012,36.594],[127.67949,36.59452],[127.6791,36.5945],[127.67884,36.59588],[127.67669,36.59669],[127.67595,36.59677],[127.67565,36.59677],[127.67542,36.59673],[127.67639,36.59666],[127.67416,36.59536],[127.67341,36.59572],[127.67224,36.59571],[127.67,36.59489],[127.66925,36.59496],[127.66862,36.59454],[127.66914,36.59678],[127.6685,36.59766],[127.66851,36.59845],[127.66784,36.59957],[127.66588,36.6006],[127.66545,36.60241],[127.6645,36.6026],[127.66371,36.6024],[127.66222,36.60274],[127.66064,36.60261],[127.65976,36.60191],[127.65958,36.60127],[127.65897,36.60135],[127.65561,36.60017],[127.65401,36.60036],[127.65306,36.60131],[127.65291,36.60278],[127.65249,36.603],[127.65238,36.60486],[127.65126,36.60476],[127.64868,36.60553],[127.64766,36.60545],[127.64625,36.60659],[127.64373,36.60523],[127.64052,36.60161],[127.63773,36.60028],[127.63567,36.60023],[127.63333,36.59809],[127.63254,36.59544],[127.63017,36.59362],[127.63063,36.59297],[127.63025,36.59179],[127.63188,36.58947],[127.63183,36.58893],[127.63056,36.58829],[127.63043,36.58649],[127.62916,36.58624],[127.62888,36.58589],[127.62854,36.586],[127.62692,36.58481],[127.62657,36.58499],[127.62564,36.58358],[127.62406,36.58214],[127.62331,36.58148],[127.62218,36.58106],[127.62207,36.5797],[127.62268,36.57876],[127.62237,36.57818],[127.62103,36.57858],[127.62038,36.57809],[127.61776,36.57754],[127.61571,36.57534],[127.61507,36.57399],[127.61255,36.57132],[127.61236,36.57032],[127.61121,36.57007],[127.61164,36.56853],[127.61124,36.56679],[127.61312,36.56526],[127.61328,36.56395],[127.6141,36.56289],[127.6154,36.56218],[127.61585,36.56107],[127.61676,36.56038],[127.61719,36.5595],[127.61432,36.5568],[127.61366,36.55501],[127.61383,36.5537],[127.61323,36.55351],[127.61236,36.55143],[127.61166,36.55148],[127.61014,36.55094],[127.60954,36.5504],[127.6086,36.55019],[127.60858,36.54973],[127.60711,36.54954],[127.6048,36.54851],[127.60431,36.54861],[127.60359,36.54791],[127.60144,36.54844],[127.59897,36.54833],[127.5961,36.54644],[127.59424,36.54628],[127.59375,36.5459],[127.59364,36.54523],[127.59185,36.54353],[127.58957,36.54331],[127.58879,36.54378],[127.58788,36.54383],[127.58578,36.54328],[127.58516,36.54259],[127.58285,36.54168],[127.58186,36.54209],[127.58085,36.54196],[127.58013,36.54072],[127.58036,36.53868],[127.57966,36.53819],[127.57952,36.53727],[127.57693,36.5376],[127.57633,36.53712],[127.57475,36.53708],[127.57184,36.53603],[127.56959,36.53458],[127.56871,36.53288],[127.56753,36.53255],[127.56663,36.53124],[127.56502,36.53057],[127.56532,36.52953],[127.56796,36.52691],[127.5686,36.52417],[127.56919,36.52368],[127.56943,36.52137],[127.57092,36.51852],[127.57218,36.51784],[127.57331,36.51645],[127.57266,36.51589],[127.57322,36.51159],[127.57274,36.51112],[127.573,36.50931],[127.57354,36.50841],[127.57283,36.50813],[127.57161,36.50555],[127.57064,36.50552],[127.5709,36.50431],[127.57003,36.50322],[127.5707,36.50086],[127.57027,36.50034],[127.5702,36.49932],[127.57065,36.4992],[127.57111,36.49837],[127.5712,36.49716],[127.57202,36.49643],[127.57242,36.49508],[127.57218,36.49347],[127.57457,36.49244],[127.57541,36.4916],[127.57629,36.49141],[127.57679,36.49048],[127.57845,36.49026],[127.57583,36.48992],[127.57348,36.48801],[127.5729,36.48658],[127.57032,36.48619],[127.56922,36.48519],[127.5673,36.48428],[127.56658,36.48326],[127.56707,36.48164],[127.5647,36.48068],[127.56444,36.48],[127.56274,36.48024],[127.56237,36.4786],[127.56075,36.47567],[127.55904,36.47498],[127.5597,36.47383],[127.55862,36.47207],[127.55818,36.47224],[127.55617,36.47182],[127.55706,36.46998],[127.55658,36.4679],[127.55567,36.46738],[127.55528,36.46645],[127.55566,36.46574],[127.55293,36.46475],[127.55431,36.46363],[127.55365,36.46238],[127.55373,36.46094],[127.55294,36.45971],[127.55319,36.45914],[127.55148,36.45577],[127.55097,36.45515],[127.54921,36.45459],[127.5491,36.45374],[127.54805,36.45283],[127.54797,36.45168],[127.54713,36.45152],[127.54654,36.45042],[127.546,36.45038],[127.5453,36.44811],[127.54575,36.44626],[127.54388,36.44624],[127.53952,36.44475],[127.53927,36.44499],[127.53058,36.44183],[127.52869,36.44098],[127.51938,36.4348],[127.51685,36.43077],[127.51138,36.41114],[127.5095,36.40862],[127.50806,36.40827],[127.50448,36.40821],[127.50155,36.40865],[127.49964,36.4127],[127.49742,36.41536],[127.49694,36.41949],[127.49556,36.4231],[127.49335,36.4258],[127.49003,36.4321],[127.48978,36.4334],[127.48972,36.43413],[127.4935,36.44119],[127.49714,36.44472],[127.50348,36.44936],[127.50447,36.45183],[127.5038,36.45369],[127.50279,36.45551],[127.50059,36.4562],[127.49162,36.45335],[127.4869,36.45278],[127.48454,36.45293],[127.48211,36.45389],[127.47896,36.4565],[127.47758,36.45842],[127.47768,36.46052],[127.4794,36.46375],[127.48161,36.46641],[127.48287,36.46899],[127.48454,36.47454],[127.48403,36.47662],[127.4807,36.47721]]]]},"properties":{"id":"SGG:43110","layer":"L3","admin_code":"43110","name":"충청북도 청주시","sido":"충청북도","sgg":"청주시","provisional":false,"source":"통계청 행정동 경계(BND_ADM_DONG_PG, 2025-06-30) 를 시군구로 합침","source_kind":"derived","derived_from":"행정동 경계 union · 20 m 단순화"}}]}