{"type":"FeatureCollection","features":[{"type":"Feature","id":"SGG:12780","geometry":{"type":"MultiPolygon","coordinates":[[[[126.7596,34.51644],[126.76145,34.50284],[126.76229,34.50268],[126.76213,34.50247],[126.76545,34.50094],[126.76587,34.49991],[126.76577,34.49919],[126.76538,34.49886],[126.76379,34.49805],[126.76209,34.49809],[126.76123,34.49779],[126.75827,34.49536],[126.75844,34.49492],[126.75808,34.49392],[126.75867,34.49333],[126.75993,34.49284],[126.76018,34.49228],[126.7601,34.49173],[126.75936,34.49112],[126.75843,34.491],[126.75874,34.48996],[126.75827,34.49104],[126.75726,34.49149],[126.75733,34.49128],[126.75721,34.49093],[126.75721,34.49147],[126.75611,34.49213],[126.75326,34.49237],[126.75185,34.49163],[126.74982,34.48781],[126.75127,34.49077],[126.74965,34.49037],[126.74859,34.49069],[126.74805,34.49012],[126.746,34.48958],[126.74572,34.49021],[126.74521,34.49013],[126.74523,34.48985],[126.74496,34.49006],[126.74334,34.48908],[126.74224,34.48894],[126.73995,34.48792],[126.73863,34.48633],[126.73927,34.48382],[126.74033,34.48156],[126.74117,34.48034],[126.74221,34.47955],[126.74481,34.47878],[126.74668,34.48202],[126.74491,34.47875],[126.7467,34.478],[126.7471,34.47793],[126.74727,34.47818],[126.7475,34.47725],[126.74807,34.47696],[126.748,34.47592],[126.74849,34.47533],[126.74913,34.47538],[126.74848,34.47475],[126.7492,34.47302],[126.75007,34.47262],[126.75233,34.47262],[126.75356,34.4747],[126.75346,34.47509],[126.75477,34.47371],[126.75481,34.47322],[126.7543,34.47399],[126.75327,34.4739],[126.75269,34.47281],[126.75303,34.47172],[126.75392,34.47171],[126.75503,34.47273],[126.7545,34.47195],[126.75144,34.46938],[126.75128,34.47067],[126.75193,34.47114],[126.75161,34.4719],[126.7505,34.47236],[126.74785,34.47215],[126.73496,34.45555],[126.71939,34.46632],[126.71781,34.46948],[126.7166,34.47053],[126.69771,34.47109],[126.69197,34.47031],[126.69164,34.46872],[126.68987,34.46808],[126.68599,34.46898],[126.68233,34.47021],[126.68164,34.47075],[126.68181,34.47135],[126.68213,34.47144],[126.68272,34.47042],[126.68336,34.4703],[126.68359,34.47121],[126.68336,34.47248],[126.68228,34.47396],[126.68361,34.47508],[126.68317,34.47748],[126.6834,34.4797],[126.68287,34.47983],[126.68314,34.48028],[126.68298,34.48076],[126.68355,34.48088],[126.68389,34.48287],[126.68331,34.48508],[126.68342,34.48859],[126.68295,34.48943],[126.68368,34.49099],[126.68569,34.49284],[126.68507,34.49328],[126.68501,34.49491],[126.6863,34.50002],[126.68618,34.50146],[126.68502,34.50356],[126.68591,34.50451],[126.68577,34.50588],[126.68669,34.50705],[126.68672,34.50769],[126.68972,34.5102],[126.68795,34.51124],[126.68595,34.51104],[126.68503,34.51044],[126.68287,34.51038],[126.68194,34.51091],[126.68041,34.51591],[126.68192,34.51789],[126.68223,34.51894],[126.68356,34.51941],[126.68573,34.52175],[126.68635,34.52509],[126.68502,34.52715],[126.68523,34.52858],[126.68449,34.52883],[126.68328,34.53045],[126.68256,34.52997],[126.67934,34.52987],[126.67844,34.53059],[126.67684,34.53067],[126.67413,34.53155],[126.67414,34.53235],[126.67333,34.53352],[126.6695,34.53446],[126.66772,34.53563],[126.66707,34.53671],[126.66713,34.53862],[126.66889,34.53911],[126.66944,34.53884],[126.67083,34.53912],[126.6716,34.53876],[126.67309,34.53958],[126.67494,34.53969],[126.67555,34.54007],[126.67574,34.54065],[126.67807,34.54202],[126.67935,34.54188],[126.67953,34.54269],[126.6803,34.54279],[126.68371,34.54538],[126.68505,34.54747],[126.6859,34.54793],[126.68658,34.54893],[126.68825,34.54914],[126.68776,34.55025],[126.6903,34.55132],[126.68944,34.55244],[126.69084,34.5534],[126.69074,34.55416],[126.69163,34.55485],[126.69174,34.55604],[126.69277,34.55635],[126.69311,34.55784],[126.69288,34.55958],[126.6937,34.5606],[126.69365,34.56228],[126.69443,34.56263],[126.69509,34.56395],[126.69203,34.56627],[126.69103,34.56818],[126.68982,34.56919],[126.68952,34.57003],[126.68889,34.57024],[126.68816,34.5711],[126.68783,34.57255],[126.68553,34.57363],[126.68479,34.57461],[126.68385,34.57504],[126.68277,34.57608],[126.68335,34.57792],[126.68113,34.57935],[126.68068,34.58074],[126.67942,34.58159],[126.67946,34.58226],[126.68025,34.58237],[126.68086,34.58301],[126.68026,34.58483],[126.67892,34.5848],[126.67757,34.5852],[126.67685,34.58578],[126.67708,34.58704],[126.67574,34.58753],[126.67541,34.58857],[126.67315,34.59011],[126.67212,34.59132],[126.67166,34.59242],[126.67293,34.59459],[126.67178,34.59604],[126.67241,34.5967],[126.67258,34.59758],[126.67436,34.597],[126.67514,34.59744],[126.67564,34.59846],[126.677,34.59903],[126.67773,34.59976],[126.67808,34.59964],[126.67862,34.60017],[126.67888,34.59996],[126.68027,34.60097],[126.68116,34.60123],[126.68308,34.60266],[126.68608,34.60574],[126.68712,34.60634],[126.68812,34.60777],[126.68713,34.60914],[126.68882,34.6103],[126.68886,34.6116],[126.68967,34.61311],[126.68996,34.6145],[126.68975,34.61673],[126.69031,34.61752],[126.69026,34.61825],[126.69136,34.61952],[126.69138,34.62057],[126.69199,34.62108],[126.69275,34.6233],[126.69448,34.62333],[126.69589,34.62436],[126.69788,34.62705],[126.69908,34.62784],[126.70081,34.63025],[126.69927,34.62986],[126.69856,34.63021],[126.6934,34.62838],[126.69168,34.62902],[126.6904,34.63049],[126.68787,34.63182],[126.68277,34.63247],[126.6839,34.63578],[126.68454,34.63621],[126.68469,34.63685],[126.68662,34.63731],[126.6879,34.63854],[126.68866,34.63874],[126.68824,34.63956],[126.68858,34.64101],[126.68948,34.64176],[126.68966,34.64342],[126.69024,34.64395],[126.69028,34.64494],[126.69213,34.64661],[126.6923,34.64744],[126.69302,34.64772],[126.69318,34.64912],[126.69733,34.65011],[126.69752,34.65087],[126.6966,34.65167],[126.6963,34.65399],[126.69381,34.65631],[126.69294,34.65763],[126.69198,34.65813],[126.6923,34.65878],[126.69333,34.65914],[126.69405,34.66105],[126.69523,34.66167],[126.69781,34.66105],[126.69925,34.66171],[126.70174,34.662],[126.70211,34.66343],[126.70188,34.66538],[126.70061,34.66728],[126.69986,34.66729],[126.70009,34.66825],[126.69861,34.67182],[126.69888,34.67253],[126.70084,34.67334],[126.70244,34.67475],[126.70293,34.6762],[126.70444,34.67808],[126.70465,34.6796],[126.70527,34.68014],[126.70569,34.68182],[126.70089,34.68423],[126.69993,34.68444],[126.69734,34.68375],[126.69707,34.68345],[126.696,34.68347],[126.69379,34.68551],[126.68904,34.68617],[126.68724,34.68562],[126.68487,34.68649],[126.68441,34.68706],[126.68278,34.68771],[126.68194,34.68769],[126.68156,34.68705],[126.67998,34.68597],[126.678,34.68545],[126.6747,34.6864],[126.67421,34.68685],[126.67305,34.68886],[126.67021,34.69094],[126.67244,34.69336],[126.67207,34.69393],[126.67209,34.69729],[126.67349,34.69923],[126.67354,34.69985],[126.67489,34.7007],[126.67527,34.70193],[126.67485,34.70243],[126.67447,34.70447],[126.67245,34.70519],[126.6721,34.70675],[126.67292,34.70798],[126.67452,34.70941],[126.67555,34.70934],[126.67715,34.71023],[126.67865,34.71048],[126.67947,34.71201],[126.68153,34.71301],[126.68141,34.7138],[126.6802,34.71573],[126.68115,34.71701],[126.68017,34.71861],[126.67991,34.72037],[126.67977,34.7207],[126.67551,34.72168],[126.67466,34.72224],[126.67249,34.72287],[126.66977,34.72258],[126.66863,34.72267],[126.66818,34.72316],[126.66543,34.72227],[126.66501,34.72344],[126.66456,34.72361],[126.66352,34.72498],[126.66368,34.7261],[126.66306,34.72771],[126.66241,34.72812],[126.66128,34.72823],[126.65682,34.73054],[126.65648,34.73154],[126.65685,34.7332],[126.65769,34.73415],[126.6588,34.73404],[126.65982,34.73447],[126.66095,34.73623],[126.66211,34.73682],[126.66278,34.73664],[126.66457,34.73722],[126.66486,34.73969],[126.66716,34.73961],[126.66923,34.74021],[126.67079,34.7415],[126.67098,34.74212],[126.67222,34.74319],[126.67228,34.74435],[126.67352,34.7448],[126.67632,34.74734],[126.67628,34.74889],[126.67844,34.74994],[126.67932,34.75151],[126.67935,34.75234],[126.68055,34.75385],[126.68543,34.75244],[126.68564,34.75307],[126.68649,34.75335],[126.68688,34.75418],[126.6909,34.75457],[126.69372,34.75678],[126.69397,34.75967],[126.69484,34.76035],[126.69859,34.76137],[126.70243,34.76593],[126.70402,34.7666],[126.70577,34.76672],[126.70718,34.76651],[126.70902,34.76568],[126.70966,34.76343],[126.71121,34.763],[126.71233,34.76206],[126.7133,34.7606],[126.71442,34.76016],[126.71555,34.76014],[126.71726,34.76118],[126.71921,34.76058],[126.7202,34.75996],[126.72081,34.75911],[126.72392,34.75897],[126.72596,34.75921],[126.72862,34.7609],[126.73115,34.75992],[126.73192,34.76001],[126.73265,34.75971],[126.73464,34.75699],[126.73577,34.75682],[126.73646,34.75634],[126.73829,34.75615],[126.73989,34.75701],[126.74051,34.75673],[126.7436,34.75684],[126.7449,34.75763],[126.74671,34.75762],[126.74856,34.76016],[126.74945,34.76044],[126.74832,34.76154],[126.74872,34.76344],[126.74968,34.7646],[126.75087,34.76525],[126.75139,34.7651],[126.75339,34.76562],[126.75439,34.76548],[126.75595,34.76794],[126.7557,34.76936],[126.75788,34.77053],[126.75909,34.77018],[126.76198,34.77057],[126.76292,34.77275],[126.7627,34.77367],[126.76301,34.77419],[126.76234,34.77599],[126.76261,34.77713],[126.76436,34.77857],[126.76403,34.77941],[126.76464,34.78105],[126.76522,34.78108],[126.7658,34.78162],[126.76607,34.78143],[126.76616,34.78189],[126.76714,34.78251],[126.76708,34.78277],[126.76663,34.78271],[126.76696,34.78344],[126.76955,34.78461],[126.76918,34.7846],[126.76971,34.78495],[126.77045,34.78445],[126.77137,34.78475],[126.77276,34.78472],[126.77291,34.78514],[126.77439,34.78556],[126.77572,34.78524],[126.778,34.78607],[126.77852,34.78594],[126.77806,34.78608],[126.77839,34.78628],[126.78148,34.78644],[126.78284,34.78605],[126.7826,34.78314],[126.78386,34.78191],[126.78411,34.78064],[126.78599,34.78049],[126.78732,34.78164],[126.78811,34.78104],[126.79237,34.78138],[126.79539,34.7813],[126.79675,34.78051],[126.79725,34.7794],[126.798,34.77935],[126.79929,34.77809],[126.79936,34.77731],[126.80032,34.77709],[126.80253,34.77715],[126.80416,34.77773],[126.80555,34.77865],[126.80772,34.77866],[126.80984,34.77824],[126.81138,34.77927],[126.81233,34.78051],[126.81409,34.77955],[126.81479,34.77757],[126.81658,34.77667],[126.81726,34.77527],[126.81688,34.77194],[126.81538,34.76925],[126.81402,34.7682],[126.81407,34.76755],[126.81461,34.76669],[126.81614,34.76595],[126.81623,34.76544],[126.81771,34.76507],[126.81914,34.76292],[126.81887,34.76172],[126.81912,34.76113],[126.81962,34.76097],[126.81949,34.76066],[126.82181,34.75492],[126.82093,34.75427],[126.82252,34.7531],[126.82365,34.75378],[126.82381,34.74824],[126.8254,34.74379],[126.8262,34.74364],[126.82748,34.74281],[126.82836,34.74106],[126.82889,34.74066],[126.82923,34.73932],[126.83092,34.73819],[126.83146,34.73724],[126.83351,34.7372],[126.83532,34.73642],[126.83627,34.73548],[126.83711,34.73534],[126.84015,34.73381],[126.84016,34.73256],[126.84103,34.73143],[126.84002,34.73019],[126.84082,34.72837],[126.84061,34.72717],[126.8418,34.72578],[126.84374,34.72506],[126.84604,34.72532],[126.84948,34.72267],[126.84867,34.72156],[126.84901,34.7208],[126.84805,34.71993],[126.84833,34.71865],[126.84722,34.71772],[126.84725,34.7168],[126.84781,34.71639],[126.84877,34.71396],[126.84862,34.7104],[126.84802,34.70939],[126.84825,34.70783],[126.84878,34.70747],[126.84888,34.70691],[126.85073,34.70518],[126.85082,34.70419],[126.85197,34.70362],[126.85454,34.7001],[126.85466,34.69937],[126.8535,34.69704],[126.85374,34.69548],[126.85617,34.6941],[126.85578,34.69282],[126.8537,34.69225],[126.85421,34.69008],[126.85414,34.68831],[126.85495,34.6866],[126.85683,34.68582],[126.85659,34.68299],[126.85566,34.68161],[126.85524,34.68156],[126.8558,34.67869],[126.85816,34.67829],[126.85882,34.67773],[126.85932,34.67799],[126.86065,34.67752],[126.86126,34.67477],[126.86263,34.67353],[126.86331,34.67212],[126.8658,34.67129],[126.86724,34.67031],[126.86752,34.66924],[126.86793,34.66899],[126.86803,34.66741],[126.86753,34.66578],[126.8677,34.66392],[126.86671,34.66283],[126.86657,34.6619],[126.86551,34.66029],[126.86621,34.65971],[126.86635,34.65838],[126.86706,34.65769],[126.86953,34.65684],[126.87119,34.6549],[126.87229,34.65467],[126.87386,34.65248],[126.8724,34.65065],[126.87064,34.6468],[126.87113,34.64676],[126.87224,34.6478],[126.87418,34.64809],[126.87352,34.64733],[126.87358,34.64543],[126.87436,34.6455],[126.87483,34.64501],[126.8746,34.64483],[126.87484,34.6447],[126.87324,34.64461],[126.87253,34.64489],[126.87251,34.64531],[126.87143,34.64307],[126.86988,34.64291],[126.87084,34.64245],[126.87036,34.64211],[126.87033,34.64131],[126.86964,34.64112],[126.86998,34.64107],[126.87145,34.63896],[126.87111,34.63659],[126.8715,34.63386],[126.87242,34.63323],[126.87292,34.63141],[126.87371,34.6311],[126.87466,34.6293],[126.87673,34.62812],[126.87708,34.62721],[126.87965,34.62598],[126.87695,34.62388],[126.87537,34.62186],[126.87494,34.62046],[126.87428,34.61981],[126.87282,34.62014],[126.87137,34.61999],[126.87032,34.61952],[126.86833,34.6199],[126.86442,34.62162],[126.86377,34.62261],[126.86059,34.62307],[126.85982,34.62274],[126.85878,34.62306],[126.85823,34.62361],[126.85606,34.62268],[126.85468,34.62168],[126.85199,34.62135],[126.84931,34.61829],[126.85064,34.61717],[126.85367,34.61563],[126.85418,34.61288],[126.85325,34.61133],[126.85323,34.60975],[126.85363,34.60949],[126.85344,34.60827],[126.85371,34.60793],[126.85354,34.60455],[126.85472,34.60364],[126.85511,34.60246],[126.85626,34.60172],[126.85615,34.60041],[126.85782,34.59884],[126.86145,34.59769],[126.86281,34.59741],[126.86346,34.59765],[126.86808,34.5951],[126.86842,34.59459],[126.86824,34.59394],[126.86581,34.59126],[126.8678,34.58796],[126.86811,34.58635],[126.86892,34.58484],[126.86953,34.58446],[126.86967,34.58319],[126.87155,34.58211],[126.87287,34.5802],[126.87456,34.57941],[126.8769,34.57761],[126.87881,34.57552],[126.87592,34.57322],[126.8767,34.57135],[126.87658,34.57022],[126.87743,34.56861],[126.87868,34.56748],[126.87916,34.56519],[126.87891,34.56373],[126.87726,34.56206],[126.87647,34.56019],[126.87693,34.55964],[126.87642,34.55138],[126.87801,34.5499],[126.87994,34.54934],[126.88134,34.54823],[126.8841,34.54779],[126.88538,34.54588],[126.88585,34.54442],[126.88426,34.5436],[126.88288,34.54152],[126.88215,34.54102],[126.88185,34.54022],[126.8769,34.53967],[126.87253,34.53554],[126.86951,34.53599],[126.86982,34.53475],[126.86917,34.53393],[126.86578,34.53205],[126.86482,34.52919],[126.86271,34.52824],[126.85832,34.52787],[126.85683,34.52579],[126.85695,34.52283],[126.85433,34.51927],[126.85085,34.51746],[126.84956,34.51452],[126.84912,34.51237],[126.84802,34.51218],[126.84603,34.51305],[126.84293,34.51357],[126.84188,34.5118],[126.83962,34.51076],[126.84084,34.50858],[126.84136,34.50627],[126.84645,34.50243],[126.84652,34.50108],[126.84738,34.49984],[126.84725,34.49911],[126.84823,34.49836],[126.84894,34.49657],[126.85014,34.49561],[126.85049,34.49493],[126.84997,34.49377],[126.85049,34.49212],[126.84985,34.48772],[126.85184,34.48372],[126.85185,34.4808],[126.85109,34.47887],[126.85114,34.47813],[126.85238,34.47645],[126.85233,34.47592],[126.85386,34.47501],[126.85406,34.47448],[126.85363,34.4711],[126.85423,34.46909],[126.8532,34.46764],[126.85227,34.46693],[126.85208,34.46487],[126.85244,34.46331],[126.85216,34.46222],[126.85255,34.46021],[126.85174,34.46005],[126.8516,34.45917],[126.85082,34.45791],[126.85082,34.45715],[126.84752,34.4555],[126.84688,34.45449],[126.84556,34.45354],[126.84493,34.45116],[126.84462,34.4509],[126.84473,34.45126],[126.84423,34.45165],[126.84409,34.45146],[126.84372,34.45029],[126.84419,34.45017],[126.84325,34.44823],[126.84225,34.44815],[126.83856,34.44992],[126.83887,34.45072],[126.83866,34.45231],[126.83912,34.45266],[126.83917,34.45345],[126.83815,34.45278],[126.83832,34.45258],[126.83765,34.45248],[126.83262,34.44977],[126.83238,34.44927],[126.83301,34.4494],[126.83307,34.4492],[126.83065,34.44803],[126.83086,34.44755],[126.83029,34.44834],[126.82954,34.44775],[126.82882,34.44797],[126.82654,34.44966],[126.82615,34.44958],[126.82581,34.44895],[126.82387,34.44871],[126.82301,34.44651],[126.82353,34.4482],[126.82342,34.44802],[126.82183,34.44868],[126.82042,34.44868],[126.82026,34.44813],[126.82024,34.44867],[126.81872,34.449],[126.8182,34.44807],[126.81853,34.44688],[126.81784,34.44807],[126.81754,34.44801],[126.81832,34.44913],[126.81531,34.45022],[126.81564,34.45114],[126.81511,34.45132],[126.8147,34.45067],[126.81506,34.45139],[126.81572,34.45167],[126.81547,34.45265],[126.8146,34.45323],[126.81376,34.453],[126.81358,34.45243],[126.81311,34.45278],[126.81286,34.4524],[126.81299,34.45282],[126.81251,34.45306],[126.81139,34.45489],[126.811,34.455],[126.81056,34.45473],[126.81073,34.45466],[126.81069,34.45445],[126.80965,34.45474],[126.80853,34.45404],[126.80841,34.45227],[126.81019,34.45267],[126.8102,34.45258],[126.8084,34.45214],[126.80823,34.45156],[126.80881,34.45111],[126.80894,34.4508],[126.80805,34.4514],[126.80727,34.45041],[126.8074,34.44986],[126.80705,34.45045],[126.80639,34.45021],[126.80669,34.44946],[126.8063,34.45021],[126.80676,34.45057],[126.80578,34.4522],[126.80715,34.45285],[126.80696,34.45365],[126.80722,34.45379],[126.80723,34.45473],[126.80682,34.45553],[126.80487,34.45605],[126.80488,34.45825],[126.80407,34.45811],[126.80402,34.45816],[126.80484,34.45834],[126.80539,34.45969],[126.80686,34.46104],[126.80683,34.46227],[126.80631,34.46284],[126.80676,34.46423],[126.80686,34.46398],[126.80689,34.46583],[126.80782,34.46675],[126.80826,34.46799],[126.80636,34.46874],[126.80409,34.46787],[126.80291,34.46783],[126.80112,34.46886],[126.79848,34.46824],[126.79784,34.46758],[126.79668,34.4673],[126.79526,34.46741],[126.79486,34.46703],[126.79211,34.46745],[126.79186,34.46711],[126.79207,34.46698],[126.7916,34.46677],[126.79167,34.46652],[126.79146,34.46411],[126.79344,34.46374],[126.79448,34.46397],[126.79362,34.46356],[126.79205,34.46384],[126.79152,34.46369],[126.79096,34.46212],[126.79017,34.46162],[126.79012,34.4611],[126.78935,34.46056],[126.78862,34.46068],[126.78825,34.46114],[126.78858,34.4624],[126.7899,34.46291],[126.79101,34.46433],[126.79138,34.46413],[126.79161,34.46662],[126.79115,34.46654],[126.79069,34.46686],[126.79039,34.46648],[126.79023,34.46679],[126.78781,34.46802],[126.7873,34.46719],[126.78753,34.46805],[126.78546,34.4687],[126.785,34.46849],[126.78574,34.46993],[126.78583,34.47153],[126.78622,34.47238],[126.78591,34.4735],[126.78659,34.47564],[126.78718,34.47666],[126.78955,34.47828],[126.79095,34.47845],[126.79106,34.47874],[126.79278,34.47946],[126.794,34.4788],[126.79535,34.4786],[126.79748,34.4801],[126.79721,34.48073],[126.79621,34.48088],[126.79579,34.48115],[126.79527,34.48092],[126.79556,34.48124],[126.79386,34.48143],[126.79386,34.47998],[126.79375,34.47996],[126.79371,34.48144],[126.79252,34.48154],[126.79549,34.48131],[126.79669,34.48088],[126.7964,34.48136],[126.79689,34.48303],[126.79547,34.48302],[126.79677,34.48316],[126.79686,34.48488],[126.79547,34.48747],[126.79551,34.4882],[126.79498,34.48877],[126.79357,34.48923],[126.79189,34.48841],[126.79269,34.48961],[126.79281,34.49097],[126.7917,34.49181],[126.79213,34.4923],[126.79186,34.49252],[126.79142,34.49232],[126.79051,34.49621],[126.78971,34.49597],[126.78739,34.49568],[126.79036,34.49627],[126.78984,34.49743],[126.7912,34.49778],[126.79149,34.49808],[126.79141,34.49888],[126.79194,34.49882],[126.79224,34.49961],[126.79196,34.50058],[126.79101,34.50048],[126.7913,34.49911],[126.79076,34.49956],[126.79096,34.49976],[126.79065,34.49972],[126.79101,34.50062],[126.78972,34.50038],[126.79102,34.50069],[126.79076,34.5011],[126.78946,34.5015],[126.78726,34.50141],[126.78951,34.50159],[126.79079,34.50115],[126.79122,34.5009],[126.79112,34.5013],[126.7877,34.50288],[126.78721,34.50348],[126.78942,34.50314],[126.79066,34.50326],[126.7909,34.50302],[126.79179,34.50313],[126.78914,34.50346],[126.78912,34.50359],[126.7918,34.50321],[126.79201,34.50358],[126.79118,34.5039],[126.79058,34.50564],[126.7905,34.50531],[126.79029,34.50571],[126.78944,34.50567],[126.7895,34.50456],[126.78931,34.50456],[126.78932,34.50612],[126.78946,34.50574],[126.79023,34.50593],[126.78905,34.50637],[126.78945,34.50657],[126.78922,34.50747],[126.79025,34.50748],[126.79078,34.50798],[126.79054,34.50803],[126.79067,34.50874],[126.79075,34.50808],[126.79184,34.50894],[126.79162,34.51055],[126.7904,34.5114],[126.78836,34.51165],[126.78659,34.51273],[126.78779,34.51535],[126.78929,34.51718],[126.7894,34.5179],[126.78894,34.51787],[126.78924,34.51796],[126.78905,34.5186],[126.79017,34.52081],[126.78984,34.52337],[126.78922,34.52368],[126.78979,34.52359],[126.78956,34.52374],[126.78987,34.5253],[126.78789,34.52579],[126.78969,34.52549],[126.79072,34.52644],[126.79094,34.52785],[126.79189,34.52896],[126.79158,34.52986],[126.79185,34.53232],[126.79118,34.53407],[126.79035,34.5351],[126.7894,34.53468],[126.78823,34.53448],[126.78992,34.53512],[126.78947,34.53534],[126.79015,34.53559],[126.79007,34.53582],[126.78976,34.53547],[126.78947,34.53536],[126.78894,34.53507],[126.79005,34.53587],[126.79022,34.53712],[126.79072,34.53734],[126.79093,34.53841],[126.79056,34.53863],[126.79115,34.53971],[126.79093,34.54108],[126.79581,34.54655],[126.79766,34.54745],[126.79539,34.54692],[126.79476,34.54686],[126.79394,34.54689],[126.79172,34.54736],[126.78896,34.54684],[126.79175,34.54747],[126.79483,34.54693],[126.79648,34.54746],[126.796,34.54763],[126.79572,34.54749],[126.79589,34.54733],[126.79494,34.54708],[126.7945,34.54734],[126.79559,34.54769],[126.79173,34.54805],[126.7912,34.55009],[126.79081,34.55007],[126.79117,34.5502],[126.79055,34.55304],[126.78977,34.55347],[126.78963,34.55423],[126.78827,34.5547],[126.78967,34.55431],[126.79084,34.55437],[126.79216,34.55611],[126.7923,34.55802],[126.79195,34.5583],[126.78957,34.5587],[126.78937,34.5585],[126.78813,34.55807],[126.78776,34.55808],[126.78918,34.55853],[126.78969,34.5604],[126.79199,34.56193],[126.79107,34.56326],[126.79219,34.56219],[126.7943,34.56479],[126.79409,34.56564],[126.7959,34.56704],[126.7945,34.56766],[126.79355,34.56912],[126.79327,34.57025],[126.79196,34.57092],[126.78978,34.57131],[126.789,34.57217],[126.78503,34.57084],[126.78511,34.5701],[126.7847,34.57162],[126.78501,34.57095],[126.78897,34.57229],[126.78833,34.57317],[126.78795,34.57482],[126.78659,34.57627],[126.78653,34.57706],[126.78609,34.57748],[126.78646,34.57829],[126.78884,34.57859],[126.79021,34.58158],[126.78972,34.58306],[126.78981,34.5839],[126.78896,34.58416],[126.78887,34.58508],[126.78935,34.58594],[126.78857,34.58664],[126.78831,34.58737],[126.78781,34.58747],[126.7869,34.58835],[126.78497,34.5877],[126.78331,34.58765],[126.78318,34.58955],[126.78262,34.58944],[126.78078,34.59053],[126.78029,34.59234],[126.77856,34.59408],[126.77882,34.59168],[126.77835,34.59113],[126.77845,34.5897],[126.77833,34.58969],[126.77829,34.59116],[126.77868,34.59171],[126.77839,34.59404],[126.7776,34.59399],[126.77831,34.59423],[126.77755,34.59474],[126.779,34.59643],[126.78035,34.59681],[126.78213,34.59783],[126.77958,34.60376],[126.7789,34.61308],[126.77765,34.61316],[126.77793,34.61224],[126.77696,34.60976],[126.77538,34.60748],[126.77328,34.6058],[126.77257,34.6042],[126.77244,34.60185],[126.77466,34.59434],[126.77448,34.5924],[126.77361,34.59034],[126.77156,34.58887],[126.77214,34.59027],[126.77203,34.59054],[126.77163,34.59049],[126.76942,34.58634],[126.76614,34.56735],[126.76672,34.56722],[126.76612,34.56724],[126.76555,34.56381],[126.76585,34.56325],[126.76539,34.56306],[126.76631,34.56201],[126.76715,34.55695],[126.76792,34.55607],[126.76804,34.55414],[126.76867,34.55409],[126.76889,34.55466],[126.76883,34.55397],[126.76798,34.55402],[126.76637,34.55054],[126.76518,34.54968],[126.76597,34.54874],[126.76609,34.54793],[126.76531,34.5465],[126.76455,34.54603],[126.76451,34.54517],[126.76555,34.54365],[126.76611,34.54381],[126.76573,34.54353],[126.76591,34.54331],[126.767,34.54299],[126.76808,34.54214],[126.76854,34.54212],[126.76877,34.54253],[126.76912,34.54243],[126.76882,34.54241],[126.76863,34.54166],[126.76945,34.54149],[126.76944,34.54184],[126.76959,34.54161],[126.76951,34.54138],[126.76853,34.54155],[126.76819,34.54192],[126.76714,34.54087],[126.76632,34.54068],[126.76632,34.54031],[126.76612,34.54078],[126.76525,34.54082],[126.7646,34.54074],[126.76422,34.54032],[126.76576,34.53649],[126.76617,34.53627],[126.76549,34.53627],[126.76493,34.53576],[126.76419,34.5338],[126.76414,34.5334],[126.76473,34.53337],[126.76416,34.53325],[126.76476,34.53115],[126.76573,34.53011],[126.76696,34.52952],[126.76833,34.53034],[126.76705,34.52948],[126.77036,34.52796],[126.77118,34.52787],[126.77174,34.52936],[126.7736,34.52787],[126.77359,34.52723],[126.77352,34.52774],[126.7726,34.52758],[126.77259,34.52695],[126.77325,34.52695],[126.77241,34.5268],[126.77277,34.52538],[126.77171,34.52554],[126.77167,34.52241],[126.77195,34.52201],[126.77118,34.52053],[126.77162,34.52188],[126.77139,34.52204],[126.77162,34.52551],[126.77085,34.52604],[126.76928,34.52661],[126.76339,34.52715],[126.76368,34.52224],[126.76347,34.52201],[126.76416,34.5205],[126.76342,34.52188],[126.76323,34.5271],[126.76209,34.52718],[126.75987,34.5267],[126.7592,34.52646],[126.75903,34.52602],[126.75847,34.52599],[126.7592,34.52048],[126.75984,34.51945],[126.75936,34.5192],[126.75932,34.51848],[126.75983,34.51716],[126.7596,34.51644]]],[[[126.81445,34.45023],[126.81453,34.44978],[126.81538,34.44919],[126.81515,34.44887],[126.81465,34.44866],[126.81355,34.44905],[126.81263,34.44812],[126.81216,34.44807],[126.81202,34.44912],[126.81259,34.45037],[126.81373,34.45047],[126.81445,34.45023]]],[[[126.80478,34.44973],[126.80411,34.44917],[126.80377,34.44927],[126.80424,34.44968],[126.80478,34.44973]]],[[[126.80312,34.44911],[126.80314,34.44892],[126.80294,34.449],[126.80312,34.44911]]],[[[126.79944,34.46653],[126.79978,34.46605],[126.79913,34.46498],[126.79848,34.46511],[126.79797,34.46568],[126.7981,34.46604],[126.79944,34.46653]]],[[[126.78081,34.5364],[126.78297,34.53617],[126.78433,34.5354],[126.78545,34.53347],[126.78356,34.53151],[126.78224,34.53089],[126.77867,34.53227],[126.77822,34.53202],[126.77784,34.53215],[126.77868,34.53238],[126.77834,34.53306],[126.77789,34.53299],[126.77831,34.53339],[126.77718,34.53538],[126.77621,34.53618],[126.77669,34.53644],[126.77709,34.53803],[126.77806,34.53839],[126.77945,34.53799],[126.78081,34.5364]]],[[[126.78183,34.56258],[126.78165,34.56386],[126.78252,34.56392],[126.7829,34.5636],[126.783,34.56261],[126.78226,34.56234],[126.78183,34.56258]]],[[[126.77499,34.5007],[126.77398,34.49994],[126.77351,34.50025],[126.77402,34.50112],[126.77499,34.5007]]],[[[126.75417,34.47795],[126.75433,34.47819],[126.75489,34.47783],[126.75495,34.47727],[126.75448,34.4772],[126.75309,34.47787],[126.75266,34.47849],[126.75417,34.47795]]],[[[126.75032,34.45144],[126.7528,34.45135],[126.75321,34.45062],[126.75301,34.44993],[126.75093,34.44893],[126.74993,34.45021],[126.75024,34.4513],[126.75051,34.45126],[126.75032,34.45144]]],[[[126.75052,34.4673],[126.75047,34.46794],[126.75081,34.46867],[126.75129,34.46813],[126.75052,34.4673]]]]},"properties":{"id":"SGG:12780","layer":"L3","admin_code":"12780","name":"전남광주통합특별시 강진군","sido":"전남광주통합특별시","sgg":"강진군","provisional":false,"source":"통계청 행정동 경계(BND_ADM_DONG_PG, 2025-06-30) 를 시군구로 합침","source_kind":"derived","derived_from":"행정동 경계 union · 20 m 단순화"}}]}