{"type":"FeatureCollection","features":[{"type":"Feature","id":"SGG:11545","geometry":{"type":"MultiPolygon","coordinates":[[[[126.91319,37.4391],[126.91143,37.43762],[126.91133,37.43617],[126.90941,37.43386],[126.90725,37.43352],[126.90608,37.43399],[126.90299,37.43407],[126.90275,37.43586],[126.90085,37.43698],[126.90034,37.43773],[126.89898,37.4387],[126.89881,37.43935],[126.89928,37.43964],[126.89993,37.43956],[126.89727,37.44544],[126.89676,37.4457],[126.89578,37.44563],[126.89502,37.44668],[126.89465,37.4467],[126.895,37.44822],[126.89558,37.44833],[126.89605,37.44804],[126.89398,37.45272],[126.89325,37.45276],[126.89259,37.45195],[126.89196,37.4523],[126.89021,37.4525],[126.88964,37.45232],[126.88965,37.4536],[126.88902,37.45417],[126.8892,37.45472],[126.88876,37.45477],[126.88802,37.45558],[126.88724,37.4555],[126.88626,37.45636],[126.88587,37.45759],[126.88634,37.45896],[126.8861,37.4593],[126.88542,37.45942],[126.88537,37.46006],[126.88613,37.4609],[126.88888,37.46095],[126.88712,37.4629],[126.88514,37.46247],[126.88432,37.46272],[126.88275,37.46439],[126.88287,37.46496],[126.88434,37.46546],[126.88462,37.46601],[126.88425,37.46653],[126.88301,37.46706],[126.88253,37.46793],[126.88163,37.46846],[126.88159,37.46942],[126.87801,37.47383],[126.87599,37.4771],[126.87338,37.48243],[126.87274,37.48242],[126.87279,37.48349],[126.8733,37.48418],[126.87221,37.48443],[126.87176,37.48527],[126.87244,37.48611],[126.87314,37.48615],[126.87422,37.48519],[126.87766,37.48607],[126.87846,37.48667],[126.88272,37.48475],[126.88615,37.48235],[126.88773,37.48044],[126.88878,37.47979],[126.89587,37.47834],[126.89621,37.47834],[126.89621,37.47867],[126.90979,37.48077],[126.90994,37.48025],[126.909,37.48008],[126.9091,37.47964],[126.90865,37.47908],[126.90946,37.47803],[126.91047,37.47836],[126.91064,37.47805],[126.9116,37.47812],[126.91183,37.47782],[126.91118,37.47521],[126.91136,37.47451],[126.91075,37.47362],[126.9082,37.47268],[126.91025,37.46925],[126.90996,37.46877],[126.91104,37.46808],[126.91255,37.46576],[126.91372,37.46547],[126.9129,37.46401],[126.91441,37.46161],[126.91403,37.45791],[126.91498,37.45731],[126.91692,37.45751],[126.91833,37.45691],[126.92219,37.45662],[126.92331,37.45422],[126.92478,37.45284],[126.92542,37.45301],[126.92626,37.45254],[126.92729,37.45101],[126.92837,37.45101],[126.92851,37.45054],[126.92828,37.44935],[126.92652,37.44839],[126.92498,37.44678],[126.92325,37.44577],[126.92276,37.44404],[126.92117,37.44255],[126.92027,37.44047],[126.91926,37.43985],[126.91786,37.44015],[126.91612,37.44005],[126.91483,37.43938],[126.91319,37.4391]]]]},"properties":{"id":"SGG:11545","layer":"L3","admin_code":"11545","name":"서울특별시 금천구","sido":"서울특별시","sgg":"금천구","provisional":false,"source":"통계청 행정동 경계(BND_ADM_DONG_PG, 2025-06-30) 를 시군구로 합침","source_kind":"derived","derived_from":"행정동 경계 union · 20 m 단순화"}}]}