{"type":"FeatureCollection","features":[{"type":"Feature","id":"SGG:12710","geometry":{"type":"MultiPolygon","coordinates":[[[[126.96635,35.18431],[126.96481,35.18503],[126.9636,35.18734],[126.96254,35.18791],[126.96196,35.18871],[126.96114,35.18884],[126.95994,35.19003],[126.95921,35.19129],[126.95935,35.19235],[126.95862,35.19309],[126.9592,35.19377],[126.95924,35.19447],[126.96107,35.19507],[126.9617,35.19584],[126.96152,35.19647],[126.9625,35.19792],[126.96348,35.19814],[126.96416,35.19874],[126.96387,35.19927],[126.96451,35.20026],[126.96615,35.20083],[126.9661,35.20199],[126.96554,35.20336],[126.96515,35.20369],[126.96439,35.20341],[126.96268,35.2036],[126.96041,35.20489],[126.95867,35.20653],[126.95641,35.20719],[126.95652,35.20815],[126.95613,35.20881],[126.95518,35.20937],[126.95506,35.20998],[126.95413,35.21059],[126.95404,35.212],[126.95296,35.21235],[126.9523,35.21312],[126.95218,35.21435],[126.95176,35.21478],[126.95055,35.21496],[126.94976,35.21772],[126.9489,35.21908],[126.94896,35.2209],[126.95138,35.22395],[126.95269,35.22436],[126.95385,35.22526],[126.95364,35.22563],[126.95184,35.22459],[126.95081,35.22625],[126.94962,35.22742],[126.94912,35.22882],[126.94757,35.23077],[126.94479,35.23092],[126.94353,35.23174],[126.9428,35.2355],[126.94228,35.23617],[126.94135,35.23605],[126.93844,35.23783],[126.93695,35.23819],[126.93632,35.23884],[126.93492,35.23902],[126.93429,35.23995],[126.93349,35.23993],[126.93228,35.24065],[126.93354,35.24447],[126.93346,35.246],[126.93377,35.24678],[126.93274,35.24888],[126.93125,35.25081],[126.92936,35.25245],[126.92749,35.25193],[126.92603,35.25288],[126.92522,35.25305],[126.92401,35.25259],[126.9214,35.25323],[126.92049,35.25403],[126.919,35.25471],[126.91924,35.25532],[126.91809,35.25618],[126.91656,35.257],[126.91609,35.25689],[126.91497,35.25732],[126.91466,35.2582],[126.91108,35.25847],[126.90547,35.25824],[126.90343,35.25742],[126.90016,35.25382],[126.89871,35.25296],[126.89642,35.25232],[126.8914,35.24988],[126.88962,35.24666],[126.88874,35.24687],[126.88632,35.24622],[126.88604,35.2467],[126.88525,35.24661],[126.88465,35.247],[126.8803,35.24759],[126.87921,35.24804],[126.87863,35.24909],[126.87959,35.25142],[126.87904,35.25293],[126.87919,35.2541],[126.87877,35.25538],[126.87801,35.25624],[126.878,35.25715],[126.87659,35.25919],[126.87641,35.2604],[126.87468,35.26215],[126.87361,35.26431],[126.87241,35.26554],[126.87188,35.26702],[126.87015,35.26819],[126.86912,35.27077],[126.86851,35.27103],[126.8679,35.27232],[126.86633,35.27205],[126.86515,35.27376],[126.8657,35.2751],[126.86477,35.27588],[126.8642,35.27708],[126.86383,35.27831],[126.86414,35.27977],[126.86332,35.28204],[126.86171,35.28435],[126.86156,35.2859],[126.86038,35.28958],[126.86002,35.29012],[126.85748,35.29177],[126.8542,35.29448],[126.85643,35.29612],[126.8574,35.29823],[126.85879,35.29924],[126.86024,35.29975],[126.8613,35.30116],[126.86133,35.30391],[126.86166,35.30457],[126.8613,35.30603],[126.86167,35.30729],[126.86141,35.30929],[126.86024,35.3103],[126.86187,35.31361],[126.8625,35.31389],[126.86206,35.315],[126.86193,35.31683],[126.86267,35.31793],[126.86154,35.32086],[126.86117,35.32096],[126.86278,35.32244],[126.86566,35.32231],[126.87126,35.32301],[126.87328,35.32257],[126.87441,35.32309],[126.87659,35.32265],[126.87788,35.32291],[126.88035,35.32143],[126.88342,35.32309],[126.88776,35.32603],[126.88571,35.32904],[126.88546,35.3302],[126.88474,35.33079],[126.88326,35.33328],[126.88132,35.33532],[126.88104,35.33703],[126.8793,35.33844],[126.87927,35.33986],[126.87619,35.34149],[126.8758,35.34239],[126.87653,35.34341],[126.87653,35.34503],[126.87734,35.34545],[126.8774,35.34656],[126.87812,35.34701],[126.87845,35.34769],[126.87898,35.35235],[126.8805,35.35165],[126.88107,35.35096],[126.88299,35.35091],[126.88363,35.35278],[126.88316,35.3551],[126.88399,35.35643],[126.88383,35.35726],[126.8831,35.35825],[126.88394,35.35905],[126.88482,35.36108],[126.88418,35.36213],[126.88644,35.36396],[126.88639,35.36448],[126.88699,35.36508],[126.88846,35.36506],[126.88978,35.36462],[126.89154,35.36482],[126.89368,35.3657],[126.89562,35.3661],[126.89566,35.36783],[126.89701,35.36926],[126.8984,35.3719],[126.89929,35.37185],[126.90304,35.37332],[126.90253,35.37484],[126.90287,35.3778],[126.90451,35.37782],[126.90724,35.38018],[126.90779,35.3802],[126.90969,35.38147],[126.91196,35.38155],[126.91276,35.38227],[126.91349,35.38243],[126.91437,35.38373],[126.91419,35.3853],[126.91491,35.38713],[126.91637,35.38549],[126.91891,35.38435],[126.92059,35.38302],[126.92138,35.382],[126.92145,35.3807],[126.92194,35.38033],[126.92388,35.37943],[126.92432,35.37993],[126.92446,35.38349],[126.92653,35.38508],[126.92629,35.38572],[126.92556,35.38596],[126.92512,35.38663],[126.92509,35.38834],[126.92426,35.39003],[126.92438,35.39221],[126.92405,35.39256],[126.92478,35.39423],[126.92542,35.3948],[126.92528,35.39571],[126.92566,35.39685],[126.92461,35.39936],[126.92249,35.40047],[126.92167,35.4006],[126.91945,35.40194],[126.92015,35.40307],[126.92312,35.40318],[126.92337,35.40391],[126.92717,35.40539],[126.9282,35.4053],[126.93003,35.40601],[126.93096,35.40568],[126.93324,35.40609],[126.93326,35.40482],[126.93214,35.40272],[126.93214,35.40159],[126.93081,35.40151],[126.93,35.40019],[126.93057,35.3998],[126.93064,35.39876],[126.93159,35.39822],[126.93261,35.39845],[126.93299,35.39693],[126.93293,35.39524],[126.93352,35.39513],[126.93473,35.39558],[126.93511,35.39545],[126.93561,35.39435],[126.93957,35.39542],[126.94032,35.39615],[126.94129,35.39413],[126.9436,35.3949],[126.9448,35.39445],[126.94677,35.39585],[126.94798,35.39563],[126.94879,35.39623],[126.94993,35.39534],[126.95221,35.39497],[126.95427,35.39664],[126.95747,35.39634],[126.96149,35.39507],[126.9631,35.39495],[126.96623,35.39623],[126.96766,35.39627],[126.96841,35.39658],[126.96902,35.39733],[126.97017,35.39697],[126.97114,35.39829],[126.97382,35.39993],[126.97543,35.3998],[126.9761,35.40005],[126.97647,35.40074],[126.97621,35.4026],[126.97658,35.4036],[126.97618,35.40583],[126.97584,35.40616],[126.97598,35.40727],[126.9746,35.4091],[126.97471,35.40962],[126.97384,35.41129],[126.97219,35.41304],[126.97162,35.41428],[126.97115,35.41746],[126.97029,35.41979],[126.97019,35.42304],[126.97138,35.42767],[126.97692,35.42814],[126.97736,35.42787],[126.97822,35.42798],[126.97968,35.42697],[126.98163,35.42665],[126.98181,35.42825],[126.98296,35.42996],[126.98395,35.43024],[126.98507,35.43005],[126.98469,35.43128],[126.98366,35.43246],[126.98337,35.43375],[126.98531,35.43673],[126.98699,35.43692],[126.98764,35.43769],[126.9891,35.43833],[126.98992,35.43926],[126.99149,35.43908],[126.99246,35.43959],[126.99455,35.4398],[126.99505,35.44128],[126.9947,35.44252],[126.99499,35.44366],[126.99653,35.44454],[126.99798,35.44608],[126.99859,35.44991],[127.0002,35.45243],[127.00056,35.45396],[126.99802,35.4573],[126.99893,35.45927],[126.99948,35.46214],[127.00002,35.46287],[127.00303,35.46446],[127.00471,35.46381],[127.00671,35.46234],[127.00987,35.46169],[127.01222,35.46012],[127.01308,35.45865],[127.01429,35.45782],[127.01538,35.45902],[127.01734,35.45909],[127.01923,35.46093],[127.02241,35.46258],[127.02394,35.46423],[127.0263,35.46483],[127.02748,35.46371],[127.0298,35.46446],[127.03112,35.46548],[127.0324,35.46589],[127.03284,35.46643],[127.03328,35.46616],[127.03472,35.46657],[127.03652,35.45981],[127.03492,35.45699],[127.03495,35.45558],[127.03577,35.45257],[127.03524,35.45103],[127.035,35.44764],[127.03608,35.44674],[127.03681,35.44528],[127.03641,35.44344],[127.0373,35.44133],[127.03737,35.4389],[127.03826,35.43772],[127.03797,35.43488],[127.03735,35.43386],[127.03841,35.43275],[127.04018,35.43179],[127.04301,35.43338],[127.04461,35.43355],[127.04595,35.43135],[127.04903,35.43108],[127.05125,35.42738],[127.05232,35.42652],[127.04973,35.42276],[127.04944,35.41954],[127.04821,35.41854],[127.04792,35.41557],[127.04607,35.40917],[127.04514,35.40722],[127.04598,35.40584],[127.04727,35.40468],[127.04693,35.40219],[127.04392,35.4003],[127.04331,35.39934],[127.04171,35.39872],[127.04117,35.39878],[127.04055,35.39964],[127.03731,35.39922],[127.03592,35.39969],[127.03383,35.39966],[127.03289,35.4005],[127.03015,35.39955],[127.02702,35.39986],[127.02699,35.39928],[127.0281,35.39791],[127.02756,35.39646],[127.02746,35.39468],[127.03009,35.39254],[127.03019,35.39109],[127.03076,35.38982],[127.03167,35.38981],[127.03245,35.38944],[127.03323,35.38971],[127.03392,35.38943],[127.03485,35.38958],[127.03543,35.39022],[127.03573,35.39002],[127.03469,35.3887],[127.03504,35.38714],[127.03605,35.38601],[127.03873,35.38484],[127.03954,35.38401],[127.04001,35.38251],[127.04048,35.3824],[127.04015,35.38229],[127.03972,35.38113],[127.0388,35.38059],[127.0391,35.38014],[127.04217,35.37929],[127.04373,35.37826],[127.04732,35.3772],[127.04988,35.37766],[127.05209,35.37955],[127.05376,35.3819],[127.05505,35.38286],[127.05586,35.38454],[127.05703,35.38379],[127.05767,35.3828],[127.05785,35.38163],[127.05899,35.38108],[127.06122,35.37884],[127.06196,35.37703],[127.06289,35.37642],[127.06326,35.37655],[127.06498,35.37595],[127.06393,35.37279],[127.06359,35.3699],[127.06528,35.36874],[127.06692,35.36819],[127.06891,35.36605],[127.07061,35.36551],[127.07063,35.36521],[127.06915,35.36252],[127.06816,35.36162],[127.06825,35.36031],[127.06775,35.36004],[127.06742,35.35898],[127.06526,35.35776],[127.06517,35.35655],[127.06555,35.35562],[127.06646,35.35499],[127.06784,35.35472],[127.0685,35.35401],[127.0699,35.3514],[127.0684,35.35015],[127.06947,35.34864],[127.06933,35.34797],[127.06879,35.34737],[127.06813,35.34716],[127.06778,35.34614],[127.06717,35.34564],[127.06797,35.34485],[127.06804,35.34361],[127.07021,35.34162],[127.07046,35.34071],[127.07001,35.34008],[127.07025,35.33964],[127.06892,35.33873],[127.06777,35.33871],[127.06759,35.33833],[127.06564,35.33745],[127.06508,35.33653],[127.06238,35.33625],[127.06087,35.33719],[127.05838,35.33748],[127.0581,35.33839],[127.05525,35.34106],[127.05233,35.34026],[127.05196,35.3386],[127.05244,35.33771],[127.05248,35.33592],[127.05051,35.3348],[127.05041,35.3334],[127.05145,35.33183],[127.05071,35.33159],[127.05095,35.32937],[127.05021,35.32871],[127.04944,35.32852],[127.04917,35.32728],[127.04815,35.32677],[127.0472,35.32562],[127.04601,35.32549],[127.04567,35.32463],[127.04446,35.32405],[127.04309,35.32189],[127.04532,35.32001],[127.04621,35.3186],[127.04719,35.31818],[127.04934,35.3182],[127.04967,35.31735],[127.05083,35.31709],[127.05091,35.31672],[127.05188,35.31655],[127.05323,35.31719],[127.05372,35.31782],[127.05456,35.3179],[127.05594,35.31729],[127.0572,35.31783],[127.05751,35.31722],[127.05857,35.31661],[127.05974,35.31721],[127.0613,35.31724],[127.06245,35.31669],[127.06466,35.31345],[127.06642,35.31319],[127.06687,35.31208],[127.06806,35.31142],[127.06896,35.31144],[127.07057,35.31219],[127.07185,35.31243],[127.074,35.31167],[127.07552,35.31074],[127.07778,35.31088],[127.0812,35.31004],[127.08242,35.30892],[127.08264,35.30827],[127.08423,35.30806],[127.08467,35.30776],[127.0868,35.3077],[127.088,35.3069],[127.08928,35.30669],[127.09117,35.30466],[127.09272,35.30387],[127.09383,35.30397],[127.09433,35.30303],[127.09539,35.30309],[127.09535,35.30267],[127.0968,35.30182],[127.09634,35.3017],[127.09574,35.30025],[127.09481,35.29927],[127.09569,35.29534],[127.09621,35.29533],[127.09479,35.29233],[127.09352,35.29184],[127.09159,35.29],[127.09137,35.28902],[127.09223,35.28893],[127.09272,35.28918],[127.09276,35.2883],[127.09206,35.2872],[127.09211,35.28583],[127.09077,35.28418],[127.09107,35.28388],[127.09162,35.28025],[127.09208,35.28001],[127.09161,35.2778],[127.09324,35.27639],[127.09358,35.27538],[127.0935,35.27398],[127.09449,35.27351],[127.09493,35.2723],[127.0962,35.27097],[127.09909,35.26992],[127.09963,35.269],[127.09931,35.26713],[127.09794,35.26652],[127.09849,35.2657],[127.09805,35.26504],[127.09855,35.26276],[127.09689,35.2618],[127.09466,35.25918],[127.0918,35.25801],[127.0915,35.2575],[127.09181,35.25622],[127.0916,35.25538],[127.09048,35.25527],[127.08974,35.25413],[127.08855,35.25364],[127.08638,35.25134],[127.08405,35.25013],[127.08123,35.24767],[127.08321,35.24674],[127.08502,35.24525],[127.08635,35.24339],[127.08751,35.24249],[127.08708,35.24122],[127.08793,35.23942],[127.08739,35.23786],[127.08942,35.23522],[127.08907,35.23439],[127.09159,35.23353],[127.09245,35.23248],[127.09345,35.23188],[127.09357,35.23114],[127.09314,35.23038],[127.09349,35.22655],[127.09319,35.22466],[127.0947,35.22323],[127.09504,35.2219],[127.09693,35.22115],[127.09758,35.22043],[127.09723,35.21791],[127.0982,35.21678],[127.09907,35.21458],[127.09981,35.21386],[127.10079,35.21195],[127.10389,35.20969],[127.10327,35.20666],[127.10344,35.20584],[127.10644,35.2041],[127.10648,35.20332],[127.1055,35.20211],[127.10555,35.19923],[127.10658,35.19821],[127.10789,35.19796],[127.10917,35.19706],[127.11063,35.19796],[127.11119,35.198],[127.11437,35.19552],[127.11557,35.19561],[127.11611,35.19525],[127.118,35.19494],[127.11678,35.19447],[127.11623,35.19393],[127.11658,35.19279],[127.116,35.1921],[127.11311,35.19139],[127.11226,35.19161],[127.11049,35.19126],[127.10952,35.19135],[127.10938,35.19112],[127.10712,35.19129],[127.10429,35.19066],[127.09962,35.18894],[127.09862,35.18825],[127.09726,35.18799],[127.09413,35.18466],[127.09301,35.18255],[127.09088,35.18318],[127.09071,35.18302],[127.0911,35.18287],[127.09023,35.18155],[127.08857,35.18181],[127.08572,35.18051],[127.08451,35.18114],[127.0839,35.18074],[127.08101,35.18004],[127.07771,35.18179],[127.07666,35.18203],[127.07474,35.1817],[127.07264,35.18225],[127.07057,35.18333],[127.07007,35.18472],[127.06967,35.18495],[127.06574,35.18413],[127.06539,35.18248],[127.06395,35.18107],[127.06385,35.17988],[127.06398,35.1794],[127.0657,35.17813],[127.06788,35.1749],[127.06818,35.17276],[127.06696,35.17107],[127.06781,35.1703],[127.06807,35.16898],[127.06824,35.16617],[127.06767,35.16453],[127.0681,35.16299],[127.0692,35.16241],[127.07126,35.15898],[127.0721,35.15843],[127.07334,35.15635],[127.07261,35.15447],[127.07306,35.15322],[127.07467,35.15265],[127.07611,35.15095],[127.07925,35.14893],[127.07966,35.14819],[127.08069,35.14771],[127.08239,35.14744],[127.08299,35.14554],[127.08415,35.14399],[127.08364,35.14272],[127.08406,35.14092],[127.08367,35.13989],[127.08392,35.13873],[127.08593,35.13781],[127.08685,35.13413],[127.08836,35.13227],[127.08837,35.1317],[127.08767,35.13132],[127.08918,35.1308],[127.08959,35.13014],[127.08858,35.12991],[127.08883,35.12894],[127.08851,35.12678],[127.08768,35.12729],[127.08653,35.12726],[127.08395,35.12622],[127.08306,35.12546],[127.08301,35.12498],[127.08121,35.12474],[127.07879,35.12328],[127.0797,35.12071],[127.08036,35.11986],[127.07796,35.1189],[127.07543,35.11855],[127.07117,35.11595],[127.06934,35.11708],[127.06847,35.11835],[127.0669,35.11914],[127.06631,35.12],[127.06481,35.12072],[127.06385,35.12171],[127.06234,35.12095],[127.06096,35.12129],[127.0604,35.12081],[127.05677,35.12188],[127.05569,35.12321],[127.05557,35.12436],[127.05365,35.12747],[127.0524,35.12725],[127.0509,35.12773],[127.05032,35.12897],[127.04951,35.1295],[127.04868,35.12926],[127.04817,35.12957],[127.04693,35.12963],[127.04638,35.12938],[127.04554,35.12788],[127.0445,35.12823],[127.04353,35.12941],[127.04232,35.12949],[127.04199,35.12997],[127.04124,35.12986],[127.04074,35.13074],[127.03969,35.13097],[127.03882,35.13078],[127.03872,35.13128],[127.03816,35.13163],[127.03698,35.13096],[127.036,35.13084],[127.03487,35.13152],[127.03404,35.13167],[127.03346,35.13223],[127.03179,35.13246],[127.02725,35.13602],[127.01949,35.13851],[127.01653,35.13762],[127.01564,35.13705],[127.01396,35.13504],[127.01276,35.13425],[127.01076,35.13379],[127.00871,35.13375],[127.00893,35.14034],[127.00928,35.14178],[127.00718,35.14387],[127.00765,35.14441],[127.00751,35.14596],[127.00794,35.14804],[127.00918,35.14864],[127.00967,35.14962],[127.00845,35.15233],[127.00819,35.15549],[127.00774,35.15593],[127.00998,35.15747],[127.01107,35.15882],[127.01173,35.16132],[127.01031,35.16232],[127.01,35.16368],[127.01136,35.16617],[127.01383,35.16607],[127.01478,35.16561],[127.01681,35.16533],[127.02033,35.1674],[127.02087,35.16726],[127.02228,35.17136],[127.02157,35.172],[127.02142,35.17304],[127.01853,35.1737],[127.0158,35.17563],[127.01563,35.1765],[127.01482,35.17688],[127.01473,35.17771],[127.01414,35.17812],[127.01431,35.17884],[127.01371,35.1801],[127.01088,35.18153],[127.00996,35.18264],[127.0085,35.18349],[127.007,35.18523],[127.00365,35.18631],[127.00221,35.18759],[126.99997,35.18882],[126.99668,35.189],[126.99508,35.18801],[126.99421,35.18697],[126.99314,35.18647],[126.99111,35.18639],[126.98894,35.18711],[126.9872,35.18887],[126.9858,35.18863],[126.98389,35.18705],[126.98475,35.18608],[126.98276,35.18402],[126.98199,35.18393],[126.98134,35.18439],[126.98001,35.18428],[126.97845,35.18548],[126.97822,35.18621],[126.97595,35.18551],[126.97397,35.18613],[126.97298,35.18568],[126.97212,35.18495],[126.9724,35.18354],[126.97169,35.17984],[126.97062,35.17998],[126.96815,35.18114],[126.96711,35.18251],[126.96702,35.18348],[126.96635,35.18431]]]]},"properties":{"id":"SGG:12710","layer":"L3","admin_code":"12710","name":"전남광주통합특별시 담양군","sido":"전남광주통합특별시","sgg":"담양군","provisional":false,"source":"통계청 행정동 경계(BND_ADM_DONG_PG, 2025-06-30) 를 시군구로 합침","source_kind":"derived","derived_from":"행정동 경계 union · 20 m 단순화"}}]}