{"type":"FeatureCollection","features":[{"type":"Feature","id":"SGG:47170","geometry":{"type":"MultiPolygon","coordinates":[[[[128.71173,36.47819],[128.70976,36.47654],[128.71012,36.47304],[128.70848,36.47195],[128.70725,36.47173],[128.70625,36.47118],[128.70582,36.47001],[128.70473,36.46959],[128.70413,36.46898],[128.70358,36.46602],[128.70375,36.4652],[128.70566,36.46308],[128.70535,36.46147],[128.70485,36.46075],[128.70555,36.45993],[128.70507,36.45971],[128.70671,36.45805],[128.70627,36.4577],[128.70657,36.45666],[128.70638,36.45473],[128.70526,36.45272],[128.70699,36.44872],[128.7069,36.44802],[128.70488,36.44687],[128.70385,36.44665],[128.70111,36.44682],[128.69957,36.44742],[128.69839,36.44645],[128.69743,36.44647],[128.69643,36.44611],[128.69489,36.44649],[128.69449,36.44545],[128.69141,36.44401],[128.68855,36.44371],[128.6852,36.44433],[128.68327,36.44428],[128.68301,36.44468],[128.6828,36.44337],[128.67992,36.44174],[128.67939,36.44077],[128.67495,36.43678],[128.67347,36.4365],[128.67161,36.43758],[128.66879,36.43868],[128.6646,36.43805],[128.661,36.43612],[128.66093,36.43636],[128.66047,36.43586],[128.66047,36.43513],[128.65677,36.43303],[128.65491,36.43155],[128.65459,36.43044],[128.65361,36.42972],[128.65195,36.42962],[128.65022,36.43022],[128.64934,36.43022],[128.64587,36.42845],[128.64292,36.42821],[128.64107,36.42851],[128.63966,36.42955],[128.63746,36.42969],[128.63659,36.42873],[128.63663,36.42816],[128.63596,36.4273],[128.63518,36.42744],[128.6333,36.42519],[128.63097,36.42535],[128.62972,36.42658],[128.6285,36.42594],[128.62846,36.42502],[128.62785,36.42407],[128.62865,36.42313],[128.62852,36.42259],[128.62913,36.4207],[128.62867,36.42003],[128.62743,36.42012],[128.62682,36.4196],[128.62556,36.41958],[128.62386,36.4189],[128.62266,36.41911],[128.62104,36.41844],[128.62011,36.41873],[128.61957,36.41926],[128.61828,36.4189],[128.61559,36.41958],[128.61449,36.41941],[128.61397,36.41881],[128.61188,36.41867],[128.61156,36.41828],[128.61036,36.41811],[128.60882,36.41591],[128.60936,36.41477],[128.60863,36.41338],[128.60797,36.41285],[128.60789,36.41227],[128.60689,36.41129],[128.60695,36.41022],[128.60621,36.4098],[128.6058,36.40759],[128.60356,36.40514],[128.60293,36.40546],[128.60164,36.40773],[128.60084,36.4076],[128.59796,36.40887],[128.59717,36.41017],[128.59674,36.41259],[128.59714,36.41467],[128.59604,36.41754],[128.59516,36.42208],[128.59715,36.42506],[128.59549,36.42671],[128.59533,36.42738],[128.59617,36.42877],[128.59676,36.42888],[128.59708,36.43072],[128.59821,36.43164],[128.59704,36.43294],[128.59551,36.43368],[128.59447,36.43547],[128.59315,36.43663],[128.59159,36.43727],[128.59044,36.43849],[128.58785,36.43977],[128.58704,36.43961],[128.58628,36.44022],[128.58441,36.44028],[128.58346,36.44072],[128.58199,36.44008],[128.57901,36.43961],[128.57707,36.44004],[128.577,36.44075],[128.57588,36.44171],[128.57518,36.44363],[128.57427,36.44447],[128.57357,36.44597],[128.57217,36.447],[128.57002,36.45091],[128.56643,36.45244],[128.56604,36.45448],[128.56516,36.45531],[128.56592,36.45672],[128.56587,36.45794],[128.56534,36.45833],[128.56563,36.45929],[128.56443,36.45993],[128.56471,36.46081],[128.56323,36.46104],[128.56068,36.46319],[128.55987,36.46478],[128.56011,36.46618],[128.55809,36.4695],[128.55899,36.47216],[128.55829,36.47269],[128.55591,36.47337],[128.55503,36.47414],[128.55375,36.47461],[128.55239,36.47589],[128.55253,36.47753],[128.55191,36.47828],[128.55242,36.47963],[128.55201,36.48091],[128.55306,36.48277],[128.55244,36.48344],[128.55281,36.48477],[128.55195,36.48601],[128.5517,36.48817],[128.55126,36.48906],[128.54953,36.49035],[128.5463,36.49066],[128.54437,36.49016],[128.54358,36.49028],[128.54298,36.49139],[128.54241,36.49151],[128.54187,36.49239],[128.54059,36.49319],[128.53914,36.49547],[128.5379,36.49551],[128.53718,36.49507],[128.53392,36.49554],[128.53253,36.49797],[128.53148,36.49835],[128.52984,36.49798],[128.52643,36.49885],[128.52466,36.49739],[128.52312,36.49826],[128.52076,36.49822],[128.51986,36.49791],[128.51874,36.49836],[128.51773,36.49735],[128.5167,36.49717],[128.5158,36.49779],[128.51414,36.49758],[128.51293,36.49795],[128.51137,36.49968],[128.51018,36.50029],[128.50647,36.49972],[128.5054,36.49906],[128.50418,36.50036],[128.504,36.50151],[128.5021,36.50298],[128.50082,36.50446],[128.50068,36.50736],[128.49942,36.50944],[128.49897,36.51108],[128.49927,36.51201],[128.49796,36.51427],[128.49538,36.51658],[128.49462,36.5165],[128.4939,36.51692],[128.49286,36.51693],[128.49158,36.51757],[128.4889,36.51709],[128.48633,36.5147],[128.48442,36.51478],[128.48293,36.51413],[128.48158,36.5148],[128.48082,36.51484],[128.47903,36.51434],[128.47765,36.51473],[128.47642,36.5143],[128.47565,36.51337],[128.47549,36.5119],[128.47678,36.51024],[128.47617,36.50881],[128.47636,36.50647],[128.47516,36.50568],[128.47518,36.50209],[128.47466,36.50019],[128.47473,36.49874],[128.47419,36.49861],[128.47013,36.49929],[128.46415,36.49892],[128.4638,36.49864],[128.46401,36.49747],[128.46238,36.49614],[128.46227,36.4914],[128.46165,36.49052],[128.46064,36.49024],[128.45983,36.49062],[128.45816,36.49217],[128.45749,36.49388],[128.45562,36.49269],[128.4546,36.4909],[128.45328,36.49104],[128.4522,36.49165],[128.45153,36.49259],[128.45085,36.49246],[128.44992,36.49281],[128.4488,36.49403],[128.44512,36.49536],[128.44445,36.49595],[128.44348,36.49796],[128.43941,36.49988],[128.43694,36.50243],[128.43552,36.50283],[128.43446,36.5023],[128.43353,36.50241],[128.4331,36.50284],[128.43364,36.50467],[128.43295,36.50755],[128.43225,36.50868],[128.43198,36.51108],[128.43313,36.51268],[128.4338,36.51295],[128.43705,36.51632],[128.43564,36.51814],[128.43427,36.51894],[128.43279,36.51885],[128.42849,36.52037],[128.43163,36.52159],[128.4377,36.52208],[128.43805,36.52242],[128.43679,36.52215],[128.4367,36.52251],[128.43632,36.52247],[128.43678,36.52395],[128.44016,36.52855],[128.44233,36.52909],[128.44789,36.53147],[128.45338,36.53515],[128.45344,36.53649],[128.45523,36.53756],[128.45691,36.53824],[128.46459,36.53827],[128.46454,36.54139],[128.46366,36.54148],[128.4638,36.54192],[128.46349,36.54236],[128.46205,36.54286],[128.46045,36.54649],[128.45968,36.54676],[128.45962,36.54727],[128.45764,36.54766],[128.4564,36.55022],[128.4582,36.55014],[128.45939,36.55158],[128.45913,36.55248],[128.45873,36.55315],[128.45739,36.55312],[128.45556,36.55416],[128.45573,36.55472],[128.45764,36.55609],[128.45954,36.55572],[128.46157,36.55606],[128.46088,36.55772],[128.4619,36.55822],[128.46267,36.55765],[128.46333,36.55928],[128.46512,36.55971],[128.46642,36.55956],[128.46802,36.55988],[128.46867,36.56043],[128.46859,36.56124],[128.46793,36.56186],[128.46752,36.56292],[128.47087,36.56299],[128.47182,36.56332],[128.47225,36.56306],[128.47353,36.56432],[128.47389,36.56394],[128.48323,36.5682],[128.4926,36.56954],[128.49238,36.57004],[128.493,36.57075],[128.49328,36.57312],[128.49377,36.57291],[128.49398,36.57336],[128.49377,36.57506],[128.49307,36.57616],[128.49482,36.5776],[128.49577,36.57786],[128.49579,36.57974],[128.49613,36.57992],[128.49632,36.58084],[128.49577,36.5825],[128.49908,36.58448],[128.49862,36.5854],[128.49681,36.58585],[128.49577,36.58535],[128.49365,36.58576],[128.49199,36.58667],[128.49099,36.58883],[128.49189,36.59048],[128.4921,36.59188],[128.49278,36.59225],[128.49258,36.5937],[128.49329,36.59505],[128.49239,36.59577],[128.49328,36.59855],[128.49393,36.59978],[128.49483,36.60016],[128.49765,36.6033],[128.50334,36.6068],[128.50492,36.60672],[128.50499,36.60614],[128.50605,36.60539],[128.50593,36.60393],[128.50654,36.60212],[128.50908,36.60153],[128.51143,36.60137],[128.51194,36.60065],[128.51263,36.60039],[128.51484,36.60212],[128.51573,36.60205],[128.51611,36.60153],[128.51715,36.60117],[128.52096,36.6021],[128.52261,36.60099],[128.52357,36.6008],[128.52455,36.60095],[128.52535,36.60145],[128.5263,36.60035],[128.52815,36.6006],[128.52862,36.60117],[128.52949,36.60138],[128.52992,36.60245],[128.52969,36.6034],[128.52999,36.60394],[128.52961,36.6041],[128.53009,36.60451],[128.529,36.60521],[128.52866,36.60584],[128.52909,36.60644],[128.53057,36.60641],[128.53253,36.60706],[128.53302,36.60791],[128.53278,36.61069],[128.53319,36.61092],[128.53395,36.61279],[128.53478,36.61311],[128.5349,36.61355],[128.53443,36.61418],[128.53351,36.61461],[128.53298,36.61555],[128.53269,36.61524],[128.53129,36.61533],[128.53032,36.61619],[128.52956,36.61641],[128.52909,36.61852],[128.52825,36.61876],[128.5282,36.61855],[128.52649,36.61879],[128.52582,36.61862],[128.52409,36.61964],[128.52196,36.61952],[128.52161,36.61981],[128.52356,36.62125],[128.52344,36.62159],[128.52429,36.62253],[128.52371,36.62569],[128.52389,36.62709],[128.5247,36.62781],[128.52486,36.62854],[128.5265,36.62824],[128.5268,36.62856],[128.52814,36.62812],[128.52863,36.62862],[128.53086,36.6288],[128.53133,36.63002],[128.53297,36.6302],[128.53339,36.62995],[128.53456,36.63166],[128.53604,36.63235],[128.53616,36.63274],[128.53713,36.63278],[128.53793,36.6338],[128.53899,36.63398],[128.54027,36.63375],[128.54318,36.63229],[128.54509,36.63195],[128.54678,36.63233],[128.54817,36.63407],[128.54905,36.63461],[128.55143,36.63495],[128.5516,36.63538],[128.55224,36.63553],[128.55285,36.63666],[128.55513,36.63592],[128.55535,36.63532],[128.55885,36.63593],[128.5591,36.63644],[128.56023,36.63715],[128.56088,36.63829],[128.5629,36.63966],[128.56585,36.64022],[128.56634,36.64136],[128.5654,36.64323],[128.56542,36.64382],[128.56604,36.64456],[128.56588,36.64526],[128.56676,36.6464],[128.56856,36.6464],[128.56883,36.64653],[128.56877,36.64723],[128.57052,36.64775],[128.57072,36.64812],[128.57155,36.64833],[128.57206,36.64801],[128.57372,36.64849],[128.57419,36.64893],[128.57677,36.6491],[128.5781,36.64987],[128.57925,36.64906],[128.58083,36.64701],[128.58092,36.6475],[128.58387,36.64897],[128.58472,36.64901],[128.58525,36.64982],[128.5863,36.65038],[128.58823,36.65071],[128.58882,36.65058],[128.58949,36.65093],[128.59266,36.65027],[128.59423,36.65172],[128.59576,36.65245],[128.59759,36.65261],[128.59906,36.65185],[128.59925,36.65064],[128.60084,36.65087],[128.60469,36.65278],[128.60464,36.65578],[128.60515,36.65687],[128.60486,36.65778],[128.60553,36.65948],[128.60531,36.66022],[128.6057,36.66216],[128.60426,36.66286],[128.60448,36.66432],[128.6041,36.66763],[128.60531,36.67209],[128.60343,36.67441],[128.60363,36.6758],[128.6022,36.6769],[128.60134,36.67807],[128.60123,36.67911],[128.6038,36.68114],[128.60659,36.68218],[128.60784,36.68377],[128.61026,36.68455],[128.61044,36.68503],[128.60967,36.6865],[128.60944,36.68788],[128.61052,36.69021],[128.60951,36.69071],[128.60883,36.69151],[128.60891,36.69302],[128.60494,36.69317],[128.60469,36.69386],[128.60352,36.69422],[128.60219,36.69618],[128.59938,36.69734],[128.59843,36.69732],[128.59706,36.69815],[128.59421,36.69682],[128.59067,36.69835],[128.59046,36.69957],[128.59084,36.69952],[128.59082,36.70098],[128.59474,36.70128],[128.59609,36.70195],[128.59672,36.70278],[128.59715,36.7046],[128.59749,36.70479],[128.59765,36.70696],[128.59748,36.70766],[128.59603,36.70834],[128.59548,36.71025],[128.59618,36.71329],[128.59818,36.71506],[128.60109,36.71612],[128.60281,36.71619],[128.60318,36.7166],[128.60665,36.71715],[128.61151,36.71544],[128.61175,36.71459],[128.61287,36.71359],[128.61445,36.71245],[128.61524,36.71231],[128.61748,36.71358],[128.61817,36.71526],[128.62771,36.71659],[128.62868,36.71717],[128.62934,36.71814],[128.62973,36.71966],[128.63055,36.71979],[128.63276,36.71944],[128.63455,36.71878],[128.63624,36.71913],[128.63853,36.71887],[128.64066,36.71814],[128.64142,36.71823],[128.64189,36.71779],[128.64262,36.71765],[128.64328,36.71703],[128.64385,36.71567],[128.6454,36.71534],[128.65019,36.71219],[128.65051,36.71139],[128.64991,36.71078],[128.65156,36.70976],[128.65189,36.71095],[128.65431,36.71191],[128.65505,36.71153],[128.65637,36.71182],[128.6574,36.71249],[128.6581,36.71224],[128.66011,36.71258],[128.66226,36.71439],[128.66688,36.71271],[128.66743,36.71141],[128.66817,36.71118],[128.66953,36.70915],[128.67173,36.70917],[128.67309,36.70851],[128.67272,36.7056],[128.67357,36.70443],[128.67565,36.70416],[128.67575,36.70268],[128.6765,36.70201],[128.67907,36.70095],[128.68012,36.70097],[128.68077,36.70028],[128.68303,36.70102],[128.68372,36.70098],[128.68495,36.70028],[128.68656,36.70094],[128.68805,36.70099],[128.68883,36.70173],[128.69041,36.70249],[128.69287,36.70277],[128.69379,36.70255],[128.69445,36.70421],[128.69535,36.70448],[128.69649,36.70522],[128.69685,36.70595],[128.69852,36.70674],[128.70091,36.70502],[128.70344,36.70207],[128.70421,36.70181],[128.70505,36.7009],[128.70748,36.6999],[128.70788,36.70008],[128.70906,36.69974],[128.71074,36.70025],[128.71248,36.70172],[128.71391,36.70246],[128.71469,36.7024],[128.71507,36.70311],[128.71631,36.70341],[128.71707,36.70281],[128.71799,36.7026],[128.72097,36.70241],[128.72316,36.70039],[128.72367,36.69848],[128.72469,36.69807],[128.72554,36.69837],[128.72603,36.69822],[128.72724,36.69692],[128.72715,36.69602],[128.72764,36.69545],[128.72908,36.69537],[128.72908,36.69593],[128.73062,36.69612],[128.73101,36.69642],[128.7339,36.69631],[128.73524,36.69695],[128.73583,36.69685],[128.7374,36.698],[128.73643,36.699],[128.73663,36.69939],[128.73521,36.70005],[128.73514,36.70101],[128.73519,36.70168],[128.73614,36.70159],[128.73694,36.70229],[128.7378,36.7022],[128.73836,36.70247],[128.73735,36.705],[128.7375,36.70708],[128.73556,36.70762],[128.73436,36.70963],[128.73274,36.71037],[128.73174,36.7104],[128.7309,36.71091],[128.72952,36.71284],[128.72918,36.71409],[128.73062,36.71686],[128.73042,36.7177],[128.73084,36.7179],[128.73097,36.71852],[128.73072,36.7186],[128.73107,36.71886],[128.73281,36.71905],[128.73354,36.71955],[128.73377,36.72105],[128.73557,36.72489],[128.73537,36.72662],[128.73476,36.7271],[128.73479,36.72745],[128.73204,36.72845],[128.73183,36.72896],[128.73247,36.73107],[128.7333,36.73142],[128.733,36.73216],[128.73436,36.7353],[128.73389,36.73683],[128.73416,36.73752],[128.73563,36.73843],[128.73658,36.73885],[128.73746,36.73884],[128.73749,36.73988],[128.73673,36.74181],[128.73719,36.7428],[128.73688,36.74404],[128.73718,36.74453],[128.73873,36.74475],[128.73924,36.74514],[128.73976,36.74705],[128.74077,36.74857],[128.74153,36.74879],[128.74295,36.74995],[128.74253,36.75203],[128.74303,36.75325],[128.74268,36.75419],[128.74302,36.75594],[128.74133,36.75655],[128.74016,36.75795],[128.73782,36.76197],[128.73564,36.76268],[128.73539,36.76385],[128.7359,36.76416],[128.73635,36.76647],[128.73781,36.76718],[128.73924,36.76883],[128.74006,36.77055],[128.74161,36.77175],[128.74092,36.7725],[128.74192,36.77282],[128.74342,36.77421],[128.74323,36.7756],[128.74437,36.77605],[128.74557,36.77732],[128.74522,36.77813],[128.74297,36.77863],[128.74123,36.77978],[128.74056,36.78063],[128.73889,36.78163],[128.73807,36.7831],[128.73678,36.78359],[128.73635,36.7878],[128.73695,36.78874],[128.73707,36.79127],[128.73793,36.79178],[128.74043,36.79023],[128.74104,36.79034],[128.74153,36.79228],[128.74256,36.79343],[128.74316,36.79504],[128.74347,36.79859],[128.7458,36.80233],[128.7465,36.80682],[128.74832,36.80934],[128.75012,36.80838],[128.75033,36.80794],[128.75215,36.80717],[128.75367,36.8075],[128.75436,36.80728],[128.75542,36.80787],[128.75589,36.80952],[128.75862,36.81013],[128.75862,36.80978],[128.76112,36.80839],[128.76143,36.80777],[128.76211,36.80767],[128.76244,36.80681],[128.7631,36.80629],[128.76297,36.80522],[128.76349,36.80467],[128.76304,36.80207],[128.7646,36.80181],[128.76522,36.8022],[128.76516,36.80256],[128.76702,36.80328],[128.76653,36.80376],[128.76671,36.80521],[128.76792,36.8068],[128.76877,36.80614],[128.77006,36.80584],[128.77058,36.80616],[128.77212,36.80578],[128.77318,36.80597],[128.7759,36.80492],[128.77784,36.80584],[128.77855,36.8058],[128.77879,36.80636],[128.78154,36.80734],[128.78191,36.80958],[128.78423,36.81051],[128.7851,36.81047],[128.78517,36.81122],[128.78586,36.81175],[128.78618,36.81251],[128.78687,36.81244],[128.78763,36.81297],[128.78849,36.81292],[128.79028,36.81354],[128.79047,36.81451],[128.79083,36.81471],[128.79199,36.81463],[128.79296,36.81375],[128.79424,36.81469],[128.79407,36.81532],[128.7951,36.81618],[128.79494,36.81696],[128.79611,36.81724],[128.79776,36.81973],[128.79889,36.82007],[128.79966,36.8223],[128.8007,36.82292],[128.80296,36.82316],[128.80567,36.82128],[128.80515,36.81957],[128.80538,36.81888],[128.80697,36.81751],[128.80814,36.81717],[128.80891,36.81655],[128.80833,36.816],[128.80835,36.81551],[128.80649,36.8149],[128.80551,36.81389],[128.80446,36.81348],[128.80339,36.81182],[128.80329,36.81101],[128.80511,36.80965],[128.80609,36.80943],[128.80664,36.80848],[128.80558,36.80704],[128.80544,36.80642],[128.8058,36.80572],[128.80512,36.80503],[128.8052,36.8047],[128.80573,36.80439],[128.80598,36.80296],[128.80683,36.80214],[128.80672,36.80103],[128.80722,36.80037],[128.80798,36.7995],[128.8091,36.79927],[128.80977,36.79794],[128.81068,36.79741],[128.81079,36.79645],[128.81221,36.79554],[128.81285,36.79569],[128.81436,36.79814],[128.81539,36.79914],[128.81733,36.80013],[128.81912,36.80215],[128.81896,36.80279],[128.81963,36.80362],[128.81952,36.80451],[128.82079,36.80504],[128.81998,36.8066],[128.82121,36.80997],[128.82329,36.81062],[128.825,36.81049],[128.82641,36.80972],[128.82706,36.80985],[128.82786,36.80958],[128.8288,36.80981],[128.8301,36.80939],[128.83148,36.8097],[128.83324,36.80947],[128.83544,36.81013],[128.83721,36.80926],[128.83886,36.80891],[128.84039,36.80904],[128.84063,36.80777],[128.84146,36.80706],[128.84145,36.80561],[128.84186,36.80473],[128.84271,36.80342],[128.84372,36.80278],[128.84437,36.80287],[128.84568,36.80224],[128.85182,36.80167],[128.85374,36.80105],[128.85567,36.8015],[128.85921,36.80031],[128.86012,36.79968],[128.86282,36.79935],[128.86389,36.79738],[128.86371,36.79671],[128.86447,36.79571],[128.86433,36.7944],[128.86654,36.79299],[128.86878,36.79098],[128.86968,36.79116],[128.87054,36.7909],[128.87183,36.78941],[128.87151,36.78861],[128.87167,36.78667],[128.87216,36.78599],[128.8733,36.78532],[128.87558,36.78447],[128.87703,36.78428],[128.8781,36.78364],[128.87965,36.78428],[128.88429,36.78297],[128.88456,36.78141],[128.88585,36.7785],[128.89045,36.77206],[128.8928,36.77232],[128.89377,36.77141],[128.89659,36.77186],[128.8979,36.77254],[128.89867,36.77347],[128.89925,36.77362],[128.90011,36.7749],[128.90197,36.77477],[128.90284,36.77534],[128.90334,36.77623],[128.90453,36.77629],[128.90606,36.77497],[128.90868,36.77499],[128.91214,36.77407],[128.91361,36.7731],[128.91344,36.77185],[128.91572,36.76958],[128.91939,36.76708],[128.92111,36.76744],[128.92488,36.76905],[128.92789,36.76782],[128.93032,36.76764],[128.93192,36.76909],[128.9346,36.76946],[128.93645,36.77052],[128.93683,36.77037],[128.93815,36.77154],[128.93925,36.77204],[128.93998,36.77198],[128.94228,36.7736],[128.94544,36.77313],[128.9472,36.77221],[128.94929,36.77212],[128.95252,36.77133],[128.95301,36.77086],[128.95397,36.77064],[128.9556,36.76878],[128.95679,36.76814],[128.95685,36.76674],[128.95793,36.76656],[128.95847,36.76584],[128.95822,36.76288],[128.96009,36.7608],[128.96054,36.75906],[128.96159,36.7583],[128.96281,36.75409],[128.964,36.75207],[128.96506,36.7523],[128.96651,36.75145],[128.96848,36.75133],[128.97078,36.74997],[128.97167,36.75001],[128.9725,36.74859],[128.97306,36.74834],[128.97482,36.74851],[128.97532,36.74767],[128.97643,36.7476],[128.97722,36.74692],[128.97805,36.74756],[128.97899,36.74695],[128.97919,36.74727],[128.98147,36.74708],[128.98208,36.74653],[128.98252,36.7469],[128.98425,36.74716],[128.98489,36.74821],[128.98541,36.74835],[128.98585,36.74788],[128.98755,36.74822],[128.99025,36.74747],[128.99055,36.74782],[128.99112,36.74795],[128.99026,36.74742],[128.99031,36.74649],[128.99105,36.74588],[128.99112,36.74536],[128.99062,36.74327],[128.99098,36.74244],[128.99048,36.74193],[128.99071,36.74109],[128.99042,36.73996],[128.98947,36.73919],[128.98971,36.73827],[128.98943,36.73795],[128.98769,36.73697],[128.98745,36.73567],[128.98882,36.73378],[128.98938,36.73196],[128.9924,36.73133],[128.99324,36.73086],[128.99695,36.72739],[128.99681,36.72575],[128.99642,36.7253],[128.9973,36.72458],[128.99609,36.72277],[128.9973,36.72107],[128.99763,36.71988],[128.99956,36.71898],[128.9998,36.71721],[128.99924,36.71682],[128.999,36.71602],[128.99919,36.71504],[128.99993,36.71485],[128.99928,36.71427],[128.99895,36.7124],[128.99791,36.71126],[128.99823,36.71081],[128.99727,36.70991],[128.99718,36.70682],[128.99482,36.70497],[128.99427,36.70407],[128.99502,36.70273],[128.99676,36.70166],[128.99696,36.70121],[128.99676,36.69965],[128.99752,36.69666],[128.99741,36.69505],[128.99543,36.69415],[128.99542,36.69371],[128.99254,36.69249],[128.99189,36.69107],[128.99245,36.69008],[128.99172,36.68891],[128.9928,36.68789],[128.99309,36.68646],[128.99389,36.68616],[128.99384,36.68497],[128.99348,36.68462],[128.99403,36.6825],[128.99449,36.6822],[128.99453,36.681],[128.9935,36.68037],[128.99282,36.6773],[128.99054,36.67647],[128.98945,36.67431],[128.99158,36.67101],[128.99332,36.66918],[128.99089,36.66826],[128.98974,36.66634],[128.99,36.66523],[128.9912,36.66328],[128.99237,36.66252],[128.99377,36.66252],[128.99529,36.66174],[128.99529,36.65937],[128.99602,36.65759],[128.99592,36.65595],[128.9966,36.65485],[128.99446,36.65301],[128.99311,36.65274],[128.99212,36.65134],[128.99219,36.65069],[128.99105,36.64918],[128.98936,36.64775],[128.99114,36.64445],[128.99211,36.64366],[128.99317,36.64344],[128.99341,36.64267],[128.99488,36.6419],[128.99478,36.64133],[128.99374,36.64041],[128.99313,36.6385],[128.99145,36.63559],[128.99112,36.63296],[128.99138,36.63072],[128.99182,36.63039],[128.99234,36.62907],[128.99162,36.62831],[128.99119,36.62711],[128.99088,36.62388],[128.99178,36.62286],[128.99474,36.62192],[128.99526,36.61968],[128.99663,36.61868],[128.9971,36.61718],[128.99685,36.61431],[128.9976,36.61154],[128.99755,36.6112],[128.99659,36.6106],[128.9971,36.60978],[128.99591,36.60888],[128.99684,36.60645],[128.99767,36.60592],[128.99789,36.6054],[128.9973,36.60434],[128.99861,36.60288],[128.99946,36.60295],[129.0016,36.60247],[128.99948,36.60044],[128.99919,36.59914],[129.0,36.59796],[128.99935,36.59636],[128.99926,36.5951],[128.9998,36.59398],[128.99992,36.59138],[129.00073,36.5886],[129.0001,36.58742],[128.99893,36.58689],[128.99888,36.58638],[128.9974,36.585],[128.99735,36.58413],[128.99665,36.58325],[128.99386,36.58257],[128.99257,36.58147],[128.99249,36.58024],[128.99204,36.57982],[128.99198,36.57901],[128.99124,36.57847],[128.99073,36.57681],[128.98895,36.57668],[128.98716,36.57437],[128.9844,36.57345],[128.9846,36.57264],[128.98376,36.56933],[128.98394,36.56779],[128.98275,36.56723],[128.9814,36.5656],[128.97974,36.5652],[128.98018,36.56336],[128.97988,36.56308],[128.97982,36.56191],[128.97921,36.56099],[128.97972,36.56088],[128.98,36.56035],[128.98162,36.56032],[128.98281,36.56114],[128.98397,36.56106],[128.98509,36.55961],[128.98605,36.55931],[128.98641,36.55863],[128.98815,36.55741],[128.99021,36.55367],[128.99036,36.55187],[128.99141,36.55034],[128.9914,36.54959],[128.99193,36.54872],[128.98979,36.54772],[128.98566,36.54814],[128.98269,36.54631],[128.97954,36.54551],[128.97872,36.5465],[128.97785,36.54676],[128.97658,36.54652],[128.97478,36.54412],[128.9754,36.54304],[128.97519,36.54204],[128.97548,36.5406],[128.97496,36.53964],[128.97391,36.53947],[128.97435,36.53835],[128.974,36.53734],[128.97429,36.53539],[128.97386,36.53484],[128.9732,36.53482],[128.97222,36.53399],[128.97279,36.53322],[128.97302,36.53213],[128.97106,36.531],[128.96991,36.53088],[128.96954,36.53049],[128.97085,36.53004],[128.97265,36.53044],[128.9731,36.53024],[128.97391,36.52966],[128.97409,36.52894],[128.97488,36.52864],[128.975,36.52713],[128.97576,36.52702],[128.97674,36.52623],[128.98063,36.5266],[128.98197,36.52489],[128.98176,36.5242],[128.98255,36.52249],[128.98229,36.52121],[128.98284,36.52048],[128.98291,36.51903],[128.98338,36.51757],[128.98469,36.51551],[128.98839,36.51551],[128.98985,36.51628],[128.98991,36.51661],[128.99179,36.51703],[128.99293,36.51797],[128.99301,36.51544],[128.99366,36.51311],[128.99357,36.51411],[128.99396,36.51418],[128.99504,36.51246],[128.99506,36.51064],[128.99655,36.51064],[128.99691,36.50936],[128.99697,36.50739],[128.99654,36.50646],[128.99567,36.5051],[128.99394,36.50343],[128.99375,36.50186],[128.99416,36.50116],[128.99426,36.49983],[128.99381,36.49878],[128.99305,36.49783],[128.99239,36.49821],[128.99005,36.49663],[128.98881,36.49512],[128.98863,36.49248],[128.99104,36.49072],[128.98803,36.49108],[128.98594,36.49026],[128.98537,36.48982],[128.98526,36.48913],[128.98423,36.48756],[128.98288,36.48631],[128.98139,36.48599],[128.98016,36.48614],[128.97746,36.48481],[128.97662,36.48506],[128.97525,36.48392],[128.97504,36.483],[128.97599,36.48159],[128.974,36.47897],[128.97567,36.47903],[128.97803,36.47733],[128.98118,36.47578],[128.98131,36.47445],[128.98083,36.47423],[128.98033,36.47287],[128.97869,36.47144],[128.97863,36.47074],[128.97944,36.46866],[128.98126,36.46744],[128.98242,36.46706],[128.98324,36.46601],[128.98507,36.46535],[128.98494,36.46481],[128.98527,36.46466],[128.98486,36.46448],[128.98478,36.46401],[128.98506,36.46354],[128.98338,36.46424],[128.98219,36.46408],[128.98087,36.46446],[128.98026,36.4641],[128.97923,36.46484],[128.97883,36.46468],[128.97787,36.46521],[128.9757,36.46698],[128.97445,36.46752],[128.97369,36.46692],[128.97318,36.46543],[128.97225,36.46498],[128.97197,36.4644],[128.97021,36.46348],[128.96914,36.46332],[128.96827,36.46217],[128.96786,36.46207],[128.96787,36.46142],[128.96932,36.45966],[128.96928,36.45785],[128.96898,36.45745],[128.96982,36.45668],[128.96911,36.4541],[128.96931,36.45226],[128.97132,36.45263],[128.97389,36.4519],[128.97378,36.44826],[128.97583,36.44684],[128.97664,36.44674],[128.97753,36.44553],[128.97629,36.44444],[128.97565,36.44235],[128.97481,36.44158],[128.97492,36.44115],[128.97454,36.44102],[128.97434,36.44032],[128.97319,36.43923],[128.97343,36.4381],[128.97409,36.43743],[128.97354,36.43644],[128.97407,36.43474],[128.97363,36.43441],[128.97376,36.43388],[128.97315,36.43347],[128.97297,36.43173],[128.97358,36.43041],[128.97396,36.43035],[128.9752,36.42876],[128.97571,36.42872],[128.97662,36.42735],[128.97645,36.42774],[128.97668,36.42754],[128.97781,36.42459],[128.97831,36.42147],[128.97946,36.42046],[128.98028,36.4189],[128.98122,36.41888],[128.98126,36.418],[128.9832,36.41539],[128.98299,36.41417],[128.98381,36.41321],[128.98345,36.41004],[128.98382,36.40944],[128.98393,36.40716],[128.98309,36.40569],[128.98378,36.40455],[128.98183,36.40436],[128.98048,36.40369],[128.97934,36.40269],[128.98087,36.40206],[128.98042,36.39964],[128.97913,36.39819],[128.97864,36.39682],[128.97662,36.39504],[128.97633,36.39374],[128.97532,36.39292],[128.97597,36.39137],[128.97607,36.38994],[128.97309,36.38534],[128.96964,36.38257],[128.96943,36.38139],[128.97033,36.3797],[128.96785,36.37808],[128.96704,36.3769],[128.96656,36.37405],[128.96598,36.37343],[128.96491,36.36943],[128.96206,36.36674],[128.96146,36.367],[128.96227,36.36519],[128.96212,36.36456],[128.9648,36.36188],[128.9662,36.36111],[128.96573,36.35973],[128.96641,36.3593],[128.96613,36.35795],[128.96557,36.35739],[128.9662,36.35653],[128.96549,36.35558],[128.96291,36.35429],[128.96318,36.35312],[128.96279,36.3526],[128.96287,36.35139],[128.96585,36.34771],[128.96612,36.34621],[128.9645,36.34364],[128.96357,36.34304],[128.96299,36.34216],[128.96305,36.3417],[128.96209,36.34008],[128.96225,36.33882],[128.95853,36.3367],[128.95649,36.33634],[128.95374,36.33694],[128.95086,36.33593],[128.94864,36.33184],[128.94805,36.33154],[128.94791,36.32905],[128.94601,36.32695],[128.94494,36.32589],[128.94131,36.32544],[128.93904,36.32171],[128.93449,36.31949],[128.93364,36.31804],[128.93407,36.31693],[128.93382,36.31561],[128.93248,36.31386],[128.9332,36.31288],[128.93306,36.31156],[128.93347,36.31074],[128.93303,36.31014],[128.93298,36.30851],[128.93101,36.30607],[128.93016,36.3057],[128.92872,36.30581],[128.92825,36.30673],[128.92592,36.30703],[128.92509,36.30617],[128.9213,36.30513],[128.91826,36.30469],[128.91726,36.30302],[128.91561,36.30231],[128.91544,36.30203],[128.91575,36.30177],[128.91506,36.30086],[128.91511,36.3004],[128.91431,36.3001],[128.9127,36.29833],[128.9098,36.29908],[128.90886,36.29845],[128.90831,36.29739],[128.90737,36.29687],[128.90484,36.29639],[128.90125,36.29646],[128.89841,36.29572],[128.89568,36.2963],[128.89357,36.29601],[128.89172,36.29643],[128.88949,36.2974],[128.89003,36.29969],[128.89076,36.30016],[128.89068,36.30138],[128.89121,36.30357],[128.89228,36.30482],[128.89074,36.30694],[128.88813,36.30981],[128.8873,36.31013],[128.88623,36.31157],[128.88684,36.31309],[128.8877,36.31407],[128.88694,36.31536],[128.88717,36.31689],[128.88845,36.31775],[128.8897,36.31932],[128.89124,36.3197],[128.89244,36.32063],[128.89226,36.32311],[128.8928,36.32429],[128.89263,36.32563],[128.89163,36.32709],[128.89125,36.32831],[128.89003,36.32959],[128.88896,36.32988],[128.88857,36.33069],[128.88962,36.33333],[128.88726,36.33805],[128.88606,36.34298],[128.88544,36.34359],[128.88307,36.34398],[128.88156,36.34472],[128.87686,36.34483],[128.87807,36.34768],[128.87717,36.34869],[128.87921,36.35124],[128.87927,36.35275],[128.87982,36.3535],[128.87956,36.35456],[128.8809,36.3567],[128.88107,36.35891],[128.88077,36.35939],[128.8791,36.36034],[128.87838,36.36184],[128.87609,36.3648],[128.87199,36.36601],[128.87171,36.36674],[128.87207,36.37036],[128.8733,36.37027],[128.87437,36.3731],[128.87627,36.3736],[128.87792,36.37472],[128.87821,36.37549],[128.87801,36.37592],[128.8763,36.37665],[128.87573,36.37625],[128.87261,36.37725],[128.87043,36.37848],[128.86928,36.38049],[128.86788,36.38143],[128.86601,36.38131],[128.86594,36.38276],[128.86632,36.38326],[128.86606,36.38359],[128.86333,36.38515],[128.86168,36.38517],[128.85973,36.3878],[128.85702,36.38767],[128.85574,36.38719],[128.85324,36.3877],[128.85218,36.38741],[128.85029,36.38828],[128.85069,36.38956],[128.85028,36.39251],[128.85196,36.39445],[128.85101,36.39669],[128.85139,36.39923],[128.84961,36.40135],[128.84871,36.40126],[128.84709,36.4026],[128.84706,36.40351],[128.84561,36.40378],[128.84521,36.40461],[128.84546,36.40601],[128.84443,36.40745],[128.8443,36.40837],[128.84508,36.40954],[128.845,36.41097],[128.84568,36.41164],[128.84479,36.41291],[128.8446,36.41418],[128.84287,36.41549],[128.84219,36.41783],[128.84154,36.41838],[128.84262,36.42097],[128.84092,36.42242],[128.83694,36.42354],[128.83582,36.42454],[128.83512,36.42624],[128.83423,36.42706],[128.83418,36.42973],[128.83334,36.4319],[128.83367,36.4338],[128.8349,36.43434],[128.8347,36.43535],[128.83546,36.43667],[128.83259,36.43793],[128.83269,36.4389],[128.83199,36.43959],[128.83221,36.44005],[128.83186,36.4425],[128.83133,36.44309],[128.82969,36.44391],[128.8298,36.44575],[128.83126,36.4472],[128.8313,36.45071],[128.83045,36.45234],[128.82908,36.45264],[128.8269,36.45265],[128.82631,36.45239],[128.82424,36.45271],[128.82299,36.45219],[128.82271,36.45312],[128.82047,36.45382],[128.8169,36.45334],[128.81324,36.45383],[128.81115,36.45776],[128.8097,36.45926],[128.80569,36.45901],[128.80429,36.45936],[128.80223,36.45933],[128.80139,36.45885],[128.79964,36.45882],[128.79893,36.46103],[128.79648,36.46283],[128.7954,36.46311],[128.79372,36.46522],[128.79242,36.46595],[128.792,36.4656],[128.78885,36.46517],[128.78773,36.46554],[128.78569,36.46681],[128.78361,36.46494],[128.78216,36.46473],[128.78201,36.46589],[128.78081,36.46702],[128.77966,36.4674],[128.77756,36.46743],[128.777,36.46826],[128.77598,36.4686],[128.77547,36.47011],[128.77388,36.47166],[128.77396,36.47257],[128.7729,36.47572],[128.77172,36.47579],[128.77036,36.47631],[128.77031,36.47809],[128.76773,36.48057],[128.76455,36.48168],[128.76319,36.48263],[128.76169,36.48277],[128.7594,36.4845],[128.7578,36.48458],[128.75628,36.48546],[128.7546,36.48474],[128.75363,36.48474],[128.7519,36.48575],[128.7505,36.48599],[128.75007,36.48721],[128.74731,36.48886],[128.74478,36.48594],[128.7424,36.48476],[128.74153,36.48369],[128.74037,36.4834],[128.73857,36.48241],[128.73794,36.4815],[128.73782,36.48045],[128.73611,36.47972],[128.73429,36.47814],[128.73253,36.4774],[128.73065,36.4771],[128.72943,36.47739],[128.72798,36.47638],[128.72618,36.47801],[128.7245,36.4783],[128.72451,36.47893],[128.72341,36.47986],[128.72262,36.47988],[128.72174,36.48033],[128.72092,36.48014],[128.72,36.48043],[128.71882,36.4824],[128.71743,36.48162],[128.71504,36.48168],[128.71422,36.48072],[128.71369,36.47865],[128.71289,36.47794],[128.71173,36.47819]]]]},"properties":{"id":"SGG:47170","layer":"L3","admin_code":"47170","name":"경상북도 안동시","sido":"경상북도","sgg":"안동시","provisional":false,"source":"통계청 행정동 경계(BND_ADM_DONG_PG, 2025-06-30) 를 시군구로 합침","source_kind":"derived","derived_from":"행정동 경계 union · 20 m 단순화"}}]}