{"type":"FeatureCollection","features":[{"type":"Feature","id":"SGG:41150","geometry":{"type":"MultiPolygon","coordinates":[[[[127.04844,37.69401],[127.04675,37.69272],[127.0449,37.69241],[127.04482,37.69294],[127.04304,37.69362],[127.0434,37.6944],[127.04307,37.69523],[127.04233,37.69505],[127.04181,37.69538],[127.04111,37.6953],[127.04,37.69468],[127.03991,37.69408],[127.03895,37.69398],[127.0385,37.69329],[127.03753,37.69322],[127.03676,37.69264],[127.03578,37.69237],[127.03241,37.69184],[127.03203,37.69295],[127.03103,37.69307],[127.02973,37.69627],[127.02929,37.69929],[127.02769,37.70094],[127.02702,37.70112],[127.0269,37.70025],[127.02532,37.69958],[127.02339,37.70007],[127.02215,37.69972],[127.01983,37.70102],[127.01542,37.70146],[127.01729,37.70358],[127.0182,37.70514],[127.01809,37.70566],[127.0173,37.70636],[127.01739,37.70799],[127.01622,37.70847],[127.01539,37.70979],[127.01277,37.71246],[127.01212,37.71369],[127.01167,37.71558],[127.01276,37.71661],[127.01323,37.71662],[127.01333,37.71833],[127.01257,37.71892],[127.01047,37.72192],[127.01213,37.72359],[127.0119,37.72418],[127.01223,37.72608],[127.01146,37.72723],[127.00912,37.7289],[127.00878,37.73107],[127.00774,37.73306],[127.00566,37.73374],[127.00535,37.73448],[127.00563,37.73529],[127.00485,37.73533],[127.00475,37.73611],[127.00648,37.73659],[127.00477,37.73693],[127.00393,37.73776],[127.00237,37.7408],[127.00326,37.74262],[127.00434,37.74273],[127.00438,37.74327],[127.00302,37.7436],[127.00223,37.7442],[127.00393,37.74598],[127.00664,37.7477],[127.00596,37.74971],[127.00621,37.75051],[127.00574,37.75089],[127.00538,37.75199],[127.00303,37.754],[127.00242,37.75516],[127.00169,37.76143],[127.00205,37.76262],[127.00502,37.76334],[127.00584,37.76277],[127.0085,37.76239],[127.00997,37.76355],[127.01293,37.7651],[127.01452,37.76692],[127.01565,37.76767],[127.01595,37.76857],[127.01744,37.76886],[127.02262,37.76733],[127.02333,37.76746],[127.0239,37.76704],[127.02575,37.76709],[127.02724,37.76645],[127.02916,37.76718],[127.03113,37.76717],[127.03202,37.76795],[127.03292,37.76787],[127.03382,37.76843],[127.03744,37.7669],[127.03842,37.76709],[127.03959,37.76664],[127.04149,37.76676],[127.04343,37.76572],[127.04396,37.76454],[127.0455,37.76448],[127.0464,37.76476],[127.04551,37.76353],[127.04909,37.76226],[127.05134,37.76095],[127.05427,37.76223],[127.0558,37.76202],[127.05636,37.76168],[127.0603,37.76212],[127.06208,37.76307],[127.06281,37.76302],[127.06409,37.76359],[127.06668,37.76409],[127.06663,37.76466],[127.06704,37.76516],[127.0688,37.76537],[127.06961,37.7651],[127.07044,37.76656],[127.0733,37.76841],[127.07449,37.76878],[127.07619,37.76885],[127.07782,37.76999],[127.07878,37.76973],[127.08046,37.77031],[127.08177,37.77109],[127.08303,37.7727],[127.08443,37.77354],[127.08539,37.77389],[127.08646,37.77344],[127.08711,37.77395],[127.08846,37.77433],[127.09076,37.77597],[127.094,37.7767],[127.09475,37.77714],[127.09729,37.77727],[127.09797,37.77675],[127.09957,37.77798],[127.10028,37.77786],[127.10182,37.77871],[127.10313,37.7783],[127.10354,37.77935],[127.10574,37.78034],[127.107,37.78017],[127.10769,37.77931],[127.10827,37.77912],[127.10953,37.77986],[127.10996,37.77975],[127.11035,37.77949],[127.11055,37.77836],[127.11512,37.77702],[127.11595,37.77443],[127.11538,37.77347],[127.11613,37.77268],[127.11771,37.77271],[127.11921,37.77378],[127.12042,37.774],[127.12099,37.77366],[127.12207,37.77373],[127.12363,37.77285],[127.12482,37.77326],[127.12635,37.77223],[127.12664,37.77136],[127.12743,37.77147],[127.12881,37.76931],[127.12908,37.76713],[127.1288,37.76655],[127.12756,37.76562],[127.12631,37.76568],[127.12581,37.76364],[127.12744,37.76365],[127.12805,37.76327],[127.12947,37.76336],[127.13042,37.76293],[127.13264,37.76335],[127.13304,37.76254],[127.13371,37.76209],[127.13485,37.76283],[127.13546,37.76262],[127.13965,37.76402],[127.14073,37.76297],[127.14069,37.76235],[127.14145,37.76117],[127.14277,37.7603],[127.14332,37.75815],[127.14304,37.75793],[127.14313,37.75708],[127.14431,37.75599],[127.14619,37.7555],[127.14726,37.75199],[127.14652,37.74985],[127.14281,37.74797],[127.14178,37.74772],[127.13967,37.74774],[127.13837,37.74742],[127.13634,37.74952],[127.1348,37.74947],[127.12864,37.74808],[127.1284,37.74667],[127.12906,37.74556],[127.12651,37.74419],[127.12502,37.74257],[127.12447,37.74029],[127.12369,37.73895],[127.12364,37.73793],[127.12419,37.73734],[127.12413,37.73613],[127.12369,37.73566],[127.12387,37.73499],[127.12543,37.73442],[127.1257,37.73396],[127.12539,37.73292],[127.12592,37.73044],[127.12544,37.7297],[127.1258,37.7291],[127.12578,37.72747],[127.12483,37.72682],[127.12459,37.72617],[127.12352,37.72594],[127.12362,37.72469],[127.12276,37.7236],[127.12376,37.72275],[127.12306,37.72193],[127.12183,37.72199],[127.12083,37.72237],[127.12032,37.72175],[127.11807,37.72086],[127.11807,37.72005],[127.11716,37.7195],[127.116,37.71699],[127.11548,37.71699],[127.11401,37.71776],[127.11226,37.71776],[127.11158,37.71725],[127.11062,37.71593],[127.10997,37.71418],[127.10903,37.71335],[127.10932,37.71219],[127.1087,37.71153],[127.10918,37.71086],[127.10931,37.70982],[127.10895,37.70862],[127.10842,37.70818],[127.10719,37.70758],[127.10589,37.7076],[127.10443,37.70704],[127.10391,37.70721],[127.10289,37.70601],[127.10196,37.70567],[127.10107,37.70483],[127.09978,37.7048],[127.09652,37.70218],[127.09504,37.70273],[127.09398,37.70374],[127.09116,37.70258],[127.08969,37.70261],[127.08713,37.70195],[127.08403,37.70192],[127.08023,37.69951],[127.0811,37.69614],[127.0782,37.69599],[127.07491,37.69522],[127.07266,37.6938],[127.07088,37.6937],[127.06982,37.69398],[127.06915,37.69369],[127.06783,37.69477],[127.06631,37.69444],[127.06339,37.69492],[127.06273,37.69468],[127.06237,37.69302],[127.06121,37.69217],[127.05966,37.69033],[127.05839,37.68969],[127.05518,37.6892],[127.0518,37.68707],[127.0518,37.68581],[127.05092,37.68616],[127.04982,37.68798],[127.04997,37.69087],[127.04844,37.69401]]]]},"properties":{"id":"SGG:41150","layer":"L3","admin_code":"41150","name":"경기도 의정부시","sido":"경기도","sgg":"의정부시","provisional":false,"source":"통계청 행정동 경계(BND_ADM_DONG_PG, 2025-06-30) 를 시군구로 합침","source_kind":"derived","derived_from":"행정동 경계 union · 20 m 단순화"}}]}