{"type":"FeatureCollection","features":[{"type":"Feature","id":"SGG:47850","geometry":{"type":"MultiPolygon","coordinates":[[[[128.62227,36.02441],[128.62463,36.02334],[128.62643,36.02188],[128.62879,36.02134],[128.63454,36.01856],[128.6369,36.01689],[128.63726,36.01526],[128.64072,36.01051],[128.63996,36.00957],[128.63881,36.00924],[128.63485,36.00903],[128.63058,36.00712],[128.6261,36.00785],[128.6254,36.00756],[128.62446,36.00766],[128.62404,36.00746],[128.6236,36.00639],[128.62199,36.00625],[128.62188,36.00603],[128.62052,36.00602],[128.61749,36.00674],[128.61572,36.00098],[128.61449,35.99997],[128.61252,35.9993],[128.61156,35.99766],[128.61005,35.99675],[128.61022,35.9961],[128.609,35.99464],[128.60864,35.9936],[128.60651,35.99208],[128.60599,35.99082],[128.60336,35.98799],[128.6035,35.98601],[128.59612,35.98455],[128.59293,35.98336],[128.59304,35.98084],[128.59087,35.98008],[128.59016,35.97924],[128.58799,35.97898],[128.58736,35.97939],[128.5851,35.97796],[128.58322,35.97728],[128.58331,35.97785],[128.58234,35.97825],[128.58124,35.97805],[128.57856,35.97843],[128.5743,35.97782],[128.57284,35.97831],[128.56567,35.97492],[128.56568,35.97373],[128.56471,35.97294],[128.56349,35.97303],[128.56166,35.97253],[128.56039,35.97304],[128.55707,35.97223],[128.5563,35.97146],[128.55665,35.96976],[128.5562,35.96977],[128.55595,35.96884],[128.55618,35.96692],[128.55369,35.96256],[128.55332,35.96076],[128.55057,35.96246],[128.54933,35.96232],[128.54858,35.96386],[128.54667,35.96567],[128.54634,35.96634],[128.54624,35.96895],[128.54366,35.97317],[128.54349,35.97477],[128.541,35.97597],[128.54042,35.97657],[128.53919,35.97657],[128.53794,35.97703],[128.53728,35.9775],[128.53612,35.97944],[128.53422,35.97923],[128.53124,35.98056],[128.52835,35.98035],[128.52828,35.97901],[128.52895,35.9772],[128.52665,35.97545],[128.52818,35.97324],[128.52774,35.9715],[128.5292,35.9688],[128.52942,35.96594],[128.5305,35.96199],[128.53089,35.96156],[128.53282,35.96126],[128.53348,35.96088],[128.53481,35.95838],[128.53322,35.95369],[128.53255,35.95054],[128.53301,35.94953],[128.53365,35.94918],[128.53381,35.94833],[128.53353,35.94777],[128.53402,35.94608],[128.53336,35.94552],[128.53408,35.94446],[128.53428,35.94232],[128.53478,35.94184],[128.53471,35.93963],[128.53528,35.93838],[128.53439,35.937],[128.53438,35.93534],[128.53375,35.93479],[128.53352,35.93245],[128.53374,35.93237],[128.5321,35.93101],[128.53067,35.92904],[128.52946,35.92359],[128.52864,35.92367],[128.52671,35.92273],[128.5258,35.92292],[128.5256,35.92201],[128.52486,35.9213],[128.52452,35.92036],[128.52306,35.91926],[128.52316,35.91757],[128.52233,35.91657],[128.52001,35.91545],[128.51887,35.9139],[128.51714,35.91258],[128.5169,35.91184],[128.51501,35.911],[128.51408,35.91154],[128.51346,35.91152],[128.51188,35.9104],[128.51012,35.90993],[128.50894,35.9079],[128.50819,35.90755],[128.50691,35.9061],[128.50676,35.9049],[128.50574,35.90325],[128.50512,35.90281],[128.50561,35.90214],[128.50597,35.90039],[128.50486,35.89933],[128.50465,35.89801],[128.50544,35.89753],[128.50585,35.89668],[128.50463,35.89339],[128.50466,35.89174],[128.50495,35.89169],[128.50391,35.88946],[128.50416,35.88959],[128.50459,35.88915],[128.50225,35.88707],[128.50034,35.88645],[128.50013,35.88843],[128.49936,35.88988],[128.49914,35.88995],[128.4993,35.88964],[128.49897,35.88991],[128.49636,35.88923],[128.49597,35.88995],[128.49472,35.89079],[128.49416,35.89242],[128.4925,35.89509],[128.49254,35.89615],[128.49062,35.89758],[128.48947,35.89757],[128.48893,35.89785],[128.48785,35.89755],[128.48658,35.89641],[128.48495,35.89653],[128.48542,35.89596],[128.48488,35.89552],[128.48462,35.89393],[128.48326,35.89537],[128.48259,35.8952],[128.47848,35.89682],[128.47527,35.89446],[128.47329,35.8955],[128.47077,35.89788],[128.46971,35.89811],[128.46838,35.89947],[128.46775,35.90022],[128.46756,35.90303],[128.46716,35.90381],[128.4676,35.90529],[128.46734,35.90642],[128.4654,35.90859],[128.46662,35.91019],[128.46872,35.91084],[128.46942,35.91191],[128.47095,35.9127],[128.47276,35.91444],[128.47397,35.91742],[128.4735,35.918],[128.47376,35.91992],[128.47318,35.92144],[128.47326,35.92321],[128.47617,35.92821],[128.47618,35.93158],[128.47664,35.93205],[128.47642,35.93444],[128.47531,35.93595],[128.47417,35.93656],[128.47276,35.93667],[128.47245,35.93737],[128.46982,35.93809],[128.46963,35.93861],[128.46785,35.93852],[128.46635,35.93796],[128.46538,35.93879],[128.46303,35.93854],[128.46264,35.93973],[128.45987,35.94145],[128.4582,35.94122],[128.45607,35.94216],[128.45541,35.94283],[128.45416,35.94315],[128.45347,35.94007],[128.45379,35.93889],[128.4528,35.9374],[128.45278,35.93662],[128.45034,35.93504],[128.44835,35.93479],[128.44544,35.93533],[128.44397,35.93478],[128.4428,35.93483],[128.44238,35.93528],[128.44156,35.93521],[128.44111,35.93494],[128.44013,35.93253],[128.43875,35.93152],[128.43719,35.93185],[128.43301,35.93099],[128.43195,35.9315],[128.43141,35.93123],[128.43104,35.93053],[128.4278,35.92885],[128.42754,35.92733],[128.4265,35.92724],[128.4249,35.92804],[128.42436,35.92651],[128.42473,35.92507],[128.42347,35.92279],[128.42219,35.92249],[128.4214,35.92193],[128.42027,35.9221],[128.41809,35.92129],[128.41798,35.91824],[128.41829,35.91663],[128.41754,35.9161],[128.41662,35.91457],[128.41647,35.91268],[128.41482,35.91235],[128.41383,35.91125],[128.413,35.90917],[128.41179,35.90852],[128.41092,35.90708],[128.41017,35.90655],[128.40893,35.90318],[128.40839,35.90295],[128.40713,35.90072],[128.40638,35.90074],[128.40677,35.90142],[128.40415,35.90052],[128.39898,35.89993],[128.39898,35.89888],[128.39872,35.90352],[128.39689,35.90711],[128.39845,35.91459],[128.39838,35.91599],[128.39762,35.9184],[128.3977,35.9195],[128.39888,35.92218],[128.39908,35.92662],[128.39802,35.93236],[128.39684,35.93596],[128.39656,35.94003],[128.39576,35.94165],[128.39479,35.94146],[128.39438,35.94104],[128.39326,35.94097],[128.38983,35.94171],[128.38728,35.93892],[128.38579,35.93951],[128.38533,35.93925],[128.38264,35.93976],[128.38195,35.93938],[128.38101,35.93954],[128.37971,35.93864],[128.3791,35.93903],[128.37825,35.94047],[128.37576,35.94166],[128.37351,35.9418],[128.37118,35.94156],[128.36866,35.94196],[128.36815,35.94361],[128.3651,35.94496],[128.36414,35.94671],[128.36384,35.9475],[128.36486,35.94867],[128.36528,35.9498],[128.36453,35.95089],[128.36462,35.95166],[128.36376,35.95292],[128.36311,35.95306],[128.36199,35.95394],[128.36182,35.95512],[128.36082,35.95518],[128.35937,35.9562],[128.35393,35.95576],[128.35304,35.95611],[128.35193,35.95573],[128.35059,35.9547],[128.34925,35.95441],[128.34796,35.95468],[128.34736,35.95525],[128.34552,35.9585],[128.3438,35.95992],[128.34402,35.96083],[128.3437,35.96159],[128.34179,35.96176],[128.34029,35.96377],[128.34258,35.96759],[128.33921,35.97008],[128.33884,35.97389],[128.33924,35.97557],[128.33833,35.97577],[128.33767,35.97641],[128.33726,35.9762],[128.33543,35.97634],[128.33326,35.97709],[128.33296,35.9778],[128.32943,35.97746],[128.32937,35.97813],[128.32979,35.97876],[128.3296,35.97989],[128.32786,35.98043],[128.32466,35.97968],[128.32146,35.98146],[128.32031,35.98173],[128.31888,35.98272],[128.31755,35.98752],[128.31528,35.98885],[128.31547,35.9895],[128.31319,35.99326],[128.3131,35.99742],[128.31417,35.99952],[128.31406,36.00285],[128.31368,36.00337],[128.31192,36.00369],[128.31142,36.00634],[128.31065,36.00705],[128.31102,36.00762],[128.31196,36.00793],[128.31232,36.00969],[128.31281,36.01004],[128.31231,36.01125],[128.31228,36.01473],[128.31488,36.01528],[128.31596,36.017],[128.31761,36.01835],[128.31561,36.01939],[128.31525,36.02083],[128.3142,36.02222],[128.31314,36.02201],[128.31172,36.02306],[128.31175,36.02405],[128.31032,36.02684],[128.31073,36.02811],[128.31039,36.0289],[128.30869,36.02909],[128.30813,36.0296],[128.30476,36.03061],[128.30319,36.03063],[128.30288,36.02973],[128.30195,36.02954],[128.30118,36.02996],[128.30016,36.02999],[128.29819,36.03102],[128.29742,36.03079],[128.29602,36.031],[128.29466,36.03448],[128.2926,36.03602],[128.29199,36.03604],[128.29136,36.03756],[128.29131,36.03915],[128.28956,36.04058],[128.28993,36.04117],[128.28975,36.04383],[128.29016,36.04531],[128.29091,36.04583],[128.29207,36.0475],[128.29221,36.04841],[128.29357,36.05005],[128.29397,36.05036],[128.29496,36.05017],[128.29551,36.05051],[128.29787,36.0507],[128.29942,36.05121],[128.29931,36.05225],[128.30005,36.05439],[128.30057,36.05497],[128.30123,36.05732],[128.29987,36.05829],[128.29912,36.06037],[128.29975,36.0612],[128.30046,36.06154],[128.30088,36.06242],[128.30059,36.06312],[128.29993,36.0634],[128.29851,36.06523],[128.29773,36.06546],[128.29627,36.06679],[128.29625,36.0676],[128.29542,36.06857],[128.29517,36.06942],[128.29432,36.06977],[128.29359,36.0707],[128.29111,36.0709],[128.28809,36.07473],[128.28639,36.07997],[128.28496,36.08108],[128.28698,36.08449],[128.28928,36.08642],[128.2902,36.0866],[128.2931,36.08843],[128.29475,36.08829],[128.29579,36.08887],[128.29653,36.08888],[128.29745,36.08822],[128.29853,36.08823],[128.29988,36.0877],[128.30098,36.08801],[128.3014,36.08854],[128.30215,36.08773],[128.30227,36.08704],[128.30527,36.08686],[128.30646,36.08765],[128.30864,36.0882],[128.311,36.08973],[128.31194,36.08961],[128.31452,36.09027],[128.31693,36.08988],[128.31745,36.09053],[128.32065,36.09113],[128.32166,36.09184],[128.32263,36.09164],[128.32411,36.09071],[128.32633,36.09127],[128.32795,36.09081],[128.33061,36.09138],[128.33158,36.08902],[128.33281,36.08795],[128.33277,36.0857],[128.33427,36.08524],[128.33487,36.08465],[128.33583,36.0825],[128.33715,36.08246],[128.34031,36.08168],[128.34289,36.08015],[128.34507,36.07704],[128.34423,36.07646],[128.34701,36.07169],[128.34965,36.06972],[128.35006,36.07008],[128.35155,36.06953],[128.35213,36.06817],[128.35122,36.06696],[128.35741,36.0666],[128.35783,36.06635],[128.35843,36.06595],[128.35834,36.06322],[128.35911,36.06282],[128.35952,36.0614],[128.3612,36.06058],[128.36278,36.06182],[128.36548,36.06195],[128.36673,36.06373],[128.36896,36.06428],[128.37137,36.06611],[128.37312,36.06466],[128.374,36.06523],[128.37693,36.06494],[128.37833,36.06533],[128.38047,36.06671],[128.38073,36.06741],[128.38164,36.06808],[128.38255,36.06937],[128.38376,36.06954],[128.38455,36.06928],[128.38649,36.0702],[128.38452,36.07288],[128.38212,36.0744],[128.38449,36.07649],[128.39001,36.08012],[128.39112,36.08373],[128.39548,36.09096],[128.39646,36.08949],[128.39966,36.09048],[128.40031,36.09027],[128.40096,36.09081],[128.40221,36.09105],[128.40256,36.0917],[128.40497,36.09211],[128.40498,36.09156],[128.40552,36.09151],[128.40566,36.09044],[128.40617,36.09044],[128.40639,36.08776],[128.40743,36.08752],[128.40744,36.0868],[128.40844,36.0868],[128.40773,36.08667],[128.40828,36.08648],[128.40836,36.08586],[128.40781,36.08553],[128.40782,36.08471],[128.40845,36.0847],[128.40865,36.0834],[128.41039,36.0834],[128.41068,36.08369],[128.41166,36.08346],[128.41166,36.0839],[128.41298,36.08404],[128.41494,36.0827],[128.41558,36.08278],[128.41668,36.08394],[128.41721,36.08386],[128.41815,36.08507],[128.41962,36.08514],[128.42027,36.08619],[128.42006,36.08652],[128.42039,36.08782],[128.42228,36.08845],[128.42287,36.08785],[128.42313,36.086],[128.42398,36.08386],[128.42457,36.08388],[128.42627,36.08275],[128.42679,36.08178],[128.42786,36.08141],[128.42827,36.0806],[128.42929,36.07994],[128.43164,36.08025],[128.43307,36.07953],[128.43521,36.07928],[128.43651,36.07948],[128.43717,36.0791],[128.44075,36.07869],[128.44197,36.0791],[128.44606,36.07796],[128.44656,36.07591],[128.4463,36.0755],[128.44813,36.07422],[128.4509,36.0736],[128.45277,36.07265],[128.45714,36.07145],[128.45764,36.07107],[128.46287,36.06974],[128.46322,36.07037],[128.46736,36.07231],[128.46967,36.07226],[128.46694,36.07544],[128.46482,36.07643],[128.46355,36.07911],[128.46391,36.08023],[128.4637,36.0814],[128.46488,36.08258],[128.46501,36.08328],[128.46711,36.08415],[128.46985,36.08598],[128.47174,36.08806],[128.4726,36.08831],[128.47451,36.08963],[128.47711,36.0927],[128.47681,36.09437],[128.47616,36.09559],[128.47474,36.0964],[128.47581,36.09683],[128.47571,36.09784],[128.47647,36.09838],[128.47735,36.09835],[128.47664,36.09885],[128.47651,36.10034],[128.4776,36.10042],[128.47952,36.10163],[128.47997,36.10376],[128.47893,36.10514],[128.47938,36.10576],[128.48084,36.10639],[128.48186,36.10795],[128.48368,36.10841],[128.48452,36.10835],[128.4851,36.10871],[128.48528,36.10961],[128.48411,36.11217],[128.48545,36.11255],[128.48711,36.11253],[128.48807,36.11291],[128.48742,36.11393],[128.49012,36.11727],[128.48893,36.1186],[128.49072,36.1201],[128.49118,36.12204],[128.49112,36.12395],[128.49012,36.1252],[128.49113,36.12535],[128.49191,36.1259],[128.49385,36.12386],[128.49521,36.12318],[128.49595,36.1212],[128.49673,36.12057],[128.49683,36.11963],[128.49634,36.11906],[128.49631,36.11841],[128.49731,36.11667],[128.49723,36.11582],[128.49778,36.11402],[128.49756,36.11362],[128.49905,36.11265],[128.50262,36.11271],[128.50469,36.11203],[128.50782,36.10987],[128.50855,36.1111],[128.51147,36.11129],[128.51251,36.11097],[128.51307,36.11157],[128.51409,36.11143],[128.51544,36.11191],[128.51764,36.11403],[128.52036,36.1146],[128.52373,36.11267],[128.52538,36.11258],[128.52574,36.1119],[128.52639,36.11156],[128.52789,36.1116],[128.52872,36.11214],[128.52947,36.11188],[128.53055,36.11208],[128.53172,36.11268],[128.53448,36.1127],[128.53656,36.11149],[128.53727,36.11157],[128.54034,36.11063],[128.54146,36.11095],[128.5433,36.11243],[128.54446,36.11179],[128.5462,36.10942],[128.5472,36.10887],[128.55121,36.10981],[128.55195,36.11027],[128.55302,36.11032],[128.5545,36.10937],[128.55697,36.10972],[128.55763,36.10943],[128.56003,36.10952],[128.56027,36.11005],[128.55999,36.11051],[128.56092,36.11093],[128.56284,36.11112],[128.56522,36.10962],[128.56463,36.10685],[128.56493,36.10391],[128.56462,36.1026],[128.56401,36.10142],[128.56284,36.10034],[128.56279,36.09964],[128.56336,36.09833],[128.56489,36.09822],[128.56572,36.0978],[128.56756,36.09555],[128.56809,36.09057],[128.56901,36.0885],[128.568,36.0837],[128.56651,36.08144],[128.56676,36.08075],[128.56772,36.07984],[128.56529,36.07721],[128.565,36.07604],[128.56559,36.07411],[128.56385,36.07183],[128.56384,36.06976],[128.56561,36.06768],[128.56674,36.06696],[128.56676,36.06576],[128.56892,36.062],[128.56895,36.05925],[128.5694,36.05823],[128.57139,36.05934],[128.57304,36.0612],[128.57563,36.06264],[128.57739,36.06278],[128.57818,36.06359],[128.579,36.06384],[128.5801,36.06527],[128.58035,36.06671],[128.58257,36.0672],[128.58347,36.06789],[128.58479,36.06664],[128.58698,36.06365],[128.58811,36.06378],[128.58847,36.06344],[128.59114,36.06286],[128.59446,36.06283],[128.59544,36.06519],[128.59615,36.06603],[128.59662,36.06608],[128.59759,36.06689],[128.59671,36.07032],[128.59733,36.07409],[128.59788,36.07496],[128.60383,36.07568],[128.60773,36.07535],[128.60714,36.07611],[128.60897,36.07658],[128.61211,36.07651],[128.61303,36.0771],[128.61437,36.07718],[128.61557,36.0779],[128.61821,36.07694],[128.61965,36.07725],[128.62118,36.07711],[128.62395,36.07804],[128.62464,36.07919],[128.62473,36.08014],[128.62536,36.08054],[128.62609,36.08021],[128.62776,36.08016],[128.6285,36.07883],[128.63136,36.07671],[128.6315,36.07536],[128.63032,36.07354],[128.62919,36.07243],[128.62831,36.07205],[128.62914,36.07112],[128.62875,36.07018],[128.62759,36.06901],[128.62922,36.06884],[128.63269,36.06684],[128.63194,36.06521],[128.63186,36.06362],[128.6302,36.06116],[128.63059,36.05996],[128.62959,36.06023],[128.62837,36.05975],[128.62868,36.0565],[128.62921,36.05521],[128.62875,36.05319],[128.62934,36.05265],[128.62891,36.05074],[128.62731,36.04759],[128.62791,36.04567],[128.62773,36.04505],[128.62602,36.04366],[128.62612,36.04188],[128.62439,36.03996],[128.62448,36.03934],[128.62269,36.03817],[128.62307,36.03592],[128.62171,36.03392],[128.62128,36.03264],[128.62196,36.02987],[128.62124,36.02806],[128.62175,36.02615],[128.62135,36.02524],[128.62227,36.02441]]]]},"properties":{"id":"SGG:47850","layer":"L3","admin_code":"47850","name":"경상북도 칠곡군","sido":"경상북도","sgg":"칠곡군","provisional":false,"source":"통계청 행정동 경계(BND_ADM_DONG_PG, 2025-06-30) 를 시군구로 합침","source_kind":"derived","derived_from":"행정동 경계 union · 20 m 단순화"}}]}