{"type":"FeatureCollection","features":[{"type":"Feature","id":"SGG:48740","geometry":{"type":"MultiPolygon","coordinates":[[[[128.49429,35.39565],[128.48444,35.3848],[128.48335,35.38436],[128.48011,35.38117],[128.47061,35.38026],[128.46687,35.38017],[128.45585,35.38225],[128.45093,35.38363],[128.44176,35.38821],[128.43797,35.3918],[128.43374,35.39756],[128.43023,35.40618],[128.42324,35.41591],[128.41157,35.41823],[128.39779,35.42154],[128.38826,35.42587],[128.38038,35.43478],[128.3784,35.43649],[128.37598,35.43971],[128.37473,35.44556],[128.37595,35.45355],[128.38025,35.45641],[128.38293,35.46115],[128.392,35.46224],[128.40021,35.46541],[128.40374,35.46734],[128.41208,35.4697],[128.42097,35.47745],[128.42168,35.4831],[128.42137,35.48545],[128.41978,35.49354],[128.41651,35.49625],[128.41198,35.50071],[128.40543,35.50385],[128.39991,35.50599],[128.39437,35.50889],[128.38884,35.51128],[128.38332,35.51248],[128.37419,35.51555],[128.36286,35.52481],[128.35293,35.53558],[128.35142,35.53684],[128.35044,35.55084],[128.35283,35.55721],[128.35736,35.56444],[128.35854,35.57166],[128.35923,35.58129],[128.35558,35.59327],[128.35357,35.59687],[128.35167,35.60407],[128.35239,35.60768],[128.35498,35.60995],[128.36048,35.61214],[128.36468,35.61286],[128.36463,35.61336],[128.3656,35.61339],[128.37175,35.61088],[128.37115,35.61023],[128.37136,35.60941],[128.37274,35.60845],[128.37371,35.60838],[128.37708,35.60698],[128.37835,35.607],[128.37906,35.60853],[128.37982,35.60925],[128.38023,35.60925],[128.38078,35.60902],[128.38055,35.60782],[128.38156,35.60686],[128.3824,35.60654],[128.38395,35.6096],[128.38441,35.60991],[128.38775,35.61015],[128.39013,35.61238],[128.39349,35.61279],[128.39499,35.61442],[128.39577,35.61413],[128.39645,35.61478],[128.39808,35.61498],[128.39929,35.61592],[128.40292,35.61521],[128.40293,35.61731],[128.40349,35.61741],[128.40413,35.61707],[128.40518,35.61566],[128.40484,35.61531],[128.40508,35.61493],[128.4065,35.61419],[128.40857,35.61511],[128.41016,35.6151],[128.41046,35.61578],[128.41054,35.61554],[128.41093,35.61603],[128.4116,35.616],[128.413,35.61656],[128.41392,35.61723],[128.41528,35.6189],[128.41541,35.61981],[128.41593,35.62013],[128.4156,35.62094],[128.41635,35.62168],[128.41708,35.62156],[128.41667,35.62196],[128.41835,35.6216],[128.41904,35.6197],[128.42274,35.62512],[128.42387,35.62484],[128.42467,35.62548],[128.42523,35.62528],[128.42704,35.62395],[128.42715,35.62357],[128.42849,35.6231],[128.42981,35.62193],[128.43038,35.62213],[128.43098,35.62164],[128.43148,35.62279],[128.43191,35.62269],[128.43217,35.62401],[128.43482,35.62751],[128.43649,35.62889],[128.43761,35.63068],[128.43885,35.63032],[128.44045,35.63059],[128.44063,35.63256],[128.4413,35.63255],[128.44107,35.63399],[128.44302,35.63533],[128.44415,35.63542],[128.44486,35.63432],[128.44578,35.63495],[128.4457,35.63656],[128.44648,35.63841],[128.45007,35.63728],[128.45024,35.63777],[128.45149,35.63799],[128.45231,35.63703],[128.45335,35.6369],[128.45527,35.63764],[128.45648,35.63741],[128.45667,35.63815],[128.45733,35.63849],[128.45751,35.63963],[128.45879,35.64023],[128.46111,35.64066],[128.46283,35.63869],[128.46626,35.63674],[128.47069,35.63662],[128.4726,35.63819],[128.47436,35.63858],[128.47619,35.64021],[128.47849,35.64053],[128.47946,35.64023],[128.48055,35.63895],[128.48069,35.63714],[128.48134,35.63527],[128.48271,35.63499],[128.48784,35.63593],[128.4892,35.63574],[128.48986,35.63653],[128.49192,35.63724],[128.4925,35.63712],[128.49322,35.63785],[128.49502,35.63789],[128.49569,35.63904],[128.49904,35.63861],[128.50003,35.63919],[128.50079,35.63878],[128.50275,35.63874],[128.50571,35.63927],[128.50724,35.64042],[128.50723,35.64095],[128.5082,35.64132],[128.50842,35.64183],[128.50885,35.64189],[128.50989,35.64301],[128.50989,35.64407],[128.51071,35.64569],[128.51061,35.64657],[128.50926,35.64777],[128.50914,35.64828],[128.50828,35.64925],[128.50681,35.65015],[128.50684,35.65222],[128.50728,35.65264],[128.50569,35.65492],[128.50717,35.6554],[128.50795,35.65849],[128.50814,35.6619],[128.50893,35.66184],[128.50811,35.66201],[128.50803,35.66372],[128.50915,35.66545],[128.5089,35.66675],[128.50918,35.66904],[128.50898,35.67005],[128.50743,35.67228],[128.50755,35.67286],[128.50877,35.67434],[128.50946,35.67471],[128.51084,35.67457],[128.5148,35.67542],[128.51817,35.67943],[128.51961,35.67965],[128.52179,35.68091],[128.5247,35.68203],[128.52543,35.68199],[128.52606,35.6825],[128.52793,35.68316],[128.52998,35.68301],[128.52892,35.67773],[128.52681,35.67557],[128.52681,35.6735],[128.52782,35.67183],[128.52873,35.66903],[128.53079,35.66544],[128.53046,35.66425],[128.53078,35.66274],[128.53176,35.66208],[128.53568,35.66203],[128.53587,35.6616],[128.53671,35.66124],[128.53743,35.65976],[128.53734,35.65731],[128.53803,35.65431],[128.53767,35.65257],[128.53784,35.65079],[128.53627,35.64819],[128.53614,35.64613],[128.53477,35.6437],[128.53664,35.6394],[128.53685,35.6374],[128.53734,35.63678],[128.53734,35.63344],[128.53816,35.63259],[128.53787,35.63113],[128.53697,35.63012],[128.53688,35.62878],[128.5362,35.62759],[128.5369,35.62383],[128.53818,35.62321],[128.53903,35.62331],[128.54016,35.62266],[128.54121,35.62157],[128.54458,35.62081],[128.54634,35.62006],[128.54912,35.6182],[128.55031,35.61795],[128.55057,35.61691],[128.55125,35.61655],[128.55304,35.61716],[128.55497,35.61627],[128.5561,35.61685],[128.5568,35.61599],[128.55873,35.6148],[128.55809,35.61288],[128.55861,35.61187],[128.55953,35.61106],[128.55926,35.6101],[128.55955,35.60877],[128.55897,35.60822],[128.55873,35.60737],[128.55972,35.60599],[128.56009,35.6042],[128.56081,35.60324],[128.56198,35.60268],[128.56422,35.60268],[128.56509,35.60218],[128.56626,35.60207],[128.56941,35.60396],[128.56903,35.60245],[128.56977,35.5994],[128.57281,35.59749],[128.57285,35.59657],[128.5724,35.59574],[128.57296,35.59322],[128.57389,35.59268],[128.57581,35.59257],[128.57929,35.58952],[128.58478,35.58644],[128.58815,35.58515],[128.59028,35.5852],[128.59269,35.58487],[128.59319,35.58445],[128.59047,35.5838],[128.58695,35.58129],[128.58641,35.58045],[128.58471,35.57974],[128.58533,35.5783],[128.58504,35.57444],[128.58571,35.57245],[128.58573,35.57099],[128.58513,35.56899],[128.58427,35.56805],[128.58363,35.56662],[128.58821,35.56388],[128.5891,35.5625],[128.58882,35.56192],[128.58964,35.56065],[128.58911,35.55721],[128.58802,35.55676],[128.58714,35.55675],[128.58562,35.55528],[128.5866,35.55199],[128.58799,35.54946],[128.58754,35.54714],[128.58861,35.54693],[128.58975,35.54429],[128.59151,35.54294],[128.59372,35.54231],[128.59395,35.5412],[128.59252,35.54041],[128.592,35.5397],[128.59139,35.53863],[128.59113,35.537],[128.58931,35.53699],[128.58509,35.53869],[128.5816,35.53831],[128.57975,35.53845],[128.57744,35.53786],[128.5776,35.53699],[128.57949,35.53661],[128.58016,35.53578],[128.5812,35.53519],[128.58193,35.53446],[128.58265,35.53266],[128.58241,35.53119],[128.58379,35.52897],[128.58269,35.52744],[128.58272,35.52549],[128.58177,35.52508],[128.58227,35.52398],[128.58403,35.52236],[128.5849,35.52056],[128.58696,35.51961],[128.58756,35.51888],[128.58941,35.51781],[128.59171,35.51746],[128.59175,35.51487],[128.59062,35.51386],[128.59047,35.51167],[128.58988,35.51124],[128.58988,35.51048],[128.58895,35.50941],[128.58672,35.50823],[128.58592,35.50632],[128.58076,35.50658],[128.57752,35.50635],[128.57672,35.50326],[128.57536,35.50036],[128.57361,35.49815],[128.57371,35.49593],[128.57213,35.49468],[128.5712,35.49242],[128.57124,35.49028],[128.57204,35.49028],[128.57316,35.48938],[128.57305,35.48855],[128.57139,35.48571],[128.57195,35.48312],[128.57161,35.48204],[128.57231,35.48059],[128.57341,35.47979],[128.57334,35.47886],[128.57243,35.47791],[128.57294,35.47708],[128.5732,35.47452],[128.5738,35.47297],[128.57359,35.47196],[128.57379,35.47163],[128.57501,35.47144],[128.5766,35.4704],[128.57746,35.47028],[128.57775,35.468],[128.57904,35.46666],[128.57922,35.4656],[128.57811,35.46345],[128.57808,35.46187],[128.57729,35.45974],[128.57854,35.45804],[128.58046,35.45662],[128.58091,35.45662],[128.58149,35.455],[128.58322,35.45359],[128.5842,35.45328],[128.58637,35.45331],[128.58774,35.45231],[128.5899,35.45217],[128.59082,35.45233],[128.59155,35.45214],[128.59233,35.45276],[128.59419,35.45343],[128.59707,35.4527],[128.59729,35.45241],[128.59929,35.4528],[128.60131,35.45129],[128.60391,35.4515],[128.60428,35.45113],[128.60588,35.45064],[128.60599,35.44991],[128.60827,35.44803],[128.60895,35.44813],[128.61498,35.44612],[128.61546,35.44619],[128.61599,35.44825],[128.61694,35.44928],[128.6188,35.4496],[128.61911,35.45008],[128.62214,35.45078],[128.62321,35.45157],[128.6261,35.45197],[128.62951,35.44925],[128.6309,35.44896],[128.63182,35.44748],[128.63292,35.44516],[128.63455,35.43965],[128.63458,35.43815],[128.63426,35.43755],[128.63619,35.43479],[128.63989,35.43468],[128.64202,35.43319],[128.64467,35.43296],[128.64528,35.43266],[128.64546,35.43175],[128.64724,35.43067],[128.6469,35.42834],[128.64815,35.42674],[128.64966,35.4267],[128.65027,35.42636],[128.65006,35.42601],[128.65116,35.42612],[128.65081,35.42204],[128.64901,35.41869],[128.64679,35.41545],[128.64594,35.41267],[128.64697,35.40884],[128.64703,35.4061],[128.64774,35.40428],[128.6481,35.40089],[128.64952,35.39795],[128.64685,35.3962],[128.64418,35.39318],[128.64366,35.39148],[128.64459,35.38935],[128.64412,35.38807],[128.64245,35.38745],[128.63948,35.38705],[128.63874,35.38657],[128.63855,35.38496],[128.63894,35.38434],[128.64069,35.38372],[128.64294,35.3846],[128.64622,35.38463],[128.6496,35.38553],[128.65029,35.38399],[128.65163,35.3824],[128.65164,35.38179],[128.64753,35.38072],[128.6474,35.38026],[128.6476,35.37942],[128.65073,35.3749],[128.64299,35.37274],[128.6375,35.36949],[128.63438,35.36857],[128.60982,35.38534],[128.6062,35.38886],[128.60308,35.39245],[128.60152,35.39338],[128.59338,35.39167],[128.58511,35.38518],[128.57692,35.38094],[128.57143,35.37953],[128.56593,35.37865],[128.55492,35.3786],[128.5398,35.37974],[128.52183,35.3911],[128.51676,35.39388],[128.51501,35.39574],[128.51274,35.39933],[128.51199,35.40151],[128.50167,35.40057],[128.49429,35.39565]]]]},"properties":{"id":"SGG:48740","layer":"L3","admin_code":"48740","name":"경상남도 창녕군","sido":"경상남도","sgg":"창녕군","provisional":false,"source":"통계청 행정동 경계(BND_ADM_DONG_PG, 2025-06-30) 를 시군구로 합침","source_kind":"derived","derived_from":"행정동 경계 union · 20 m 단순화"}}]}