{"type":"FeatureCollection","features":[{"type":"Feature","id":"SGG:52790","geometry":{"type":"MultiPolygon","coordinates":[[[[126.49283,35.40924],[126.49068,35.41242],[126.49076,35.41288],[126.48949,35.41259],[126.4881,35.41275],[126.48793,35.41312],[126.48742,35.41314],[126.48729,35.41448],[126.48584,35.41631],[126.48467,35.41652],[126.48212,35.41953],[126.48135,35.41971],[126.47964,35.42094],[126.481,35.4211],[126.48039,35.42134],[126.48077,35.42188],[126.48042,35.422],[126.47897,35.42475],[126.47966,35.4265],[126.47603,35.42933],[126.47542,35.42927],[126.47463,35.42793],[126.4734,35.42702],[126.46988,35.42549],[126.46855,35.42515],[126.46418,35.42539],[126.45573,35.42685],[126.45336,35.42688],[126.45022,35.42788],[126.44761,35.42978],[126.44933,35.43141],[126.44924,35.4317],[126.44992,35.43169],[126.44943,35.432],[126.44844,35.43205],[126.4473,35.43161],[126.44584,35.43259],[126.44796,35.43465],[126.44635,35.43529],[126.44129,35.43565],[126.43645,35.43338],[126.43571,35.43367],[126.43453,35.43355],[126.43487,35.43322],[126.43581,35.43327],[126.43623,35.433],[126.43621,35.43263],[126.43509,35.43238],[126.43302,35.43256],[126.4323,35.43215],[126.4316,35.43214],[126.43086,35.43288],[126.42994,35.43275],[126.42946,35.43397],[126.42884,35.43409],[126.42874,35.43462],[126.42582,35.43674],[126.42619,35.43681],[126.42876,35.435],[126.42915,35.43544],[126.42905,35.43602],[126.43093,35.43709],[126.43111,35.43814],[126.43192,35.4385],[126.43422,35.4424],[126.43654,35.44778],[126.43652,35.4492],[126.43571,35.44921],[126.43566,35.44967],[126.43532,35.44972],[126.42831,35.4494],[126.42835,35.44787],[126.42769,35.4477],[126.42724,35.44805],[126.42552,35.4481],[126.42447,35.44868],[126.42476,35.44901],[126.42533,35.44851],[126.42642,35.44838],[126.4264,35.45039],[126.42537,35.45039],[126.42419,35.44984],[126.42377,35.44834],[126.42322,35.44848],[126.42347,35.44958],[126.4244,35.45052],[126.42695,35.4508],[126.42762,35.45118],[126.42859,35.45117],[126.42857,35.45078],[126.4274,35.45059],[126.42831,35.44969],[126.42878,35.44971],[126.42884,35.44997],[126.4295,35.44964],[126.43913,35.4503],[126.44136,35.45396],[126.44367,35.45649],[126.44689,35.46095],[126.45505,35.4737],[126.45994,35.47996],[126.45991,35.48057],[126.46211,35.48038],[126.46172,35.48189],[126.46253,35.4841],[126.469,35.49564],[126.46929,35.49628],[126.46903,35.49662],[126.4695,35.49659],[126.47111,35.50016],[126.47239,35.50221],[126.4734,35.50318],[126.47262,35.50435],[126.47356,35.50557],[126.47396,35.50708],[126.47519,35.50704],[126.47774,35.50974],[126.48332,35.51925],[126.48355,35.52117],[126.48485,35.52227],[126.4859,35.52268],[126.48648,35.52245],[126.48695,35.52129],[126.48652,35.51956],[126.48772,35.51763],[126.4875,35.51738],[126.49112,35.51178],[126.49417,35.51159],[126.49665,35.50965],[126.49673,35.51034],[126.49527,35.51152],[126.49644,35.51299],[126.49401,35.51398],[126.49367,35.51639],[126.4955,35.51699],[126.49705,35.51679],[126.49787,35.51733],[126.49931,35.52197],[126.50036,35.52353],[126.50157,35.52464],[126.51101,35.52946],[126.5127,35.53051],[126.51238,35.53099],[126.51295,35.53065],[126.51315,35.53112],[126.51334,35.53098],[126.51519,35.53216],[126.51508,35.53252],[126.51553,35.53182],[126.51742,35.53312],[126.5179,35.53297],[126.51764,35.53283],[126.51968,35.53335],[126.52084,35.53321],[126.52199,35.53259],[126.52543,35.53219],[126.52582,35.5344],[126.52659,35.53482],[126.53071,35.53419],[126.53092,35.53132],[126.53196,35.53117],[126.53174,35.5329],[126.53133,35.53306],[126.53195,35.53312],[126.53247,35.53458],[126.54082,35.53409],[126.54124,35.53393],[126.54147,35.53336],[126.54327,35.53262],[126.54153,35.52938],[126.54219,35.52891],[126.54165,35.5276],[126.54197,35.5273],[126.54426,35.52733],[126.54439,35.5267],[126.54475,35.52766],[126.54368,35.52835],[126.54339,35.52974],[126.54755,35.53458],[126.55064,35.53222],[126.55171,35.53206],[126.55069,35.53247],[126.54975,35.5336],[126.55013,35.53524],[126.54877,35.53757],[126.55136,35.5385],[126.55235,35.53677],[126.55243,35.53723],[126.5526,35.53684],[126.55422,35.53723],[126.55542,35.53656],[126.5557,35.53666],[126.55854,35.53861],[126.55834,35.53879],[126.55857,35.53865],[126.55883,35.53896],[126.55853,35.53925],[126.55895,35.53902],[126.55999,35.54003],[126.55773,35.54204],[126.55982,35.54326],[126.562,35.54162],[126.56232,35.54181],[126.56198,35.54244],[126.56249,35.5419],[126.56315,35.54208],[126.563,35.54246],[126.56337,35.54217],[126.56475,35.54276],[126.56453,35.54345],[126.565,35.54288],[126.56582,35.543],[126.56551,35.54361],[126.56602,35.54306],[126.5674,35.54333],[126.5676,35.54298],[126.56884,35.54275],[126.57066,35.54311],[126.57215,35.54265],[126.57277,35.54376],[126.57502,35.54351],[126.57582,35.5428],[126.58103,35.54444],[126.58113,35.54499],[126.58215,35.54226],[126.58139,35.54199],[126.58196,35.54174],[126.58235,35.54199],[126.58207,35.54177],[126.58229,35.54154],[126.58294,35.54166],[126.58262,35.54378],[126.58603,35.54347],[126.58812,35.54257],[126.5913,35.54176],[126.59107,35.54047],[126.59173,35.54154],[126.59219,35.54165],[126.593,35.54154],[126.59414,35.54073],[126.59455,35.54098],[126.59504,35.54063],[126.59544,35.54007],[126.59359,35.53732],[126.59233,35.53388],[126.59301,35.53129],[126.59539,35.52975],[126.596,35.5306],[126.59409,35.53209],[126.59396,35.53471],[126.59728,35.53779],[126.59635,35.53866],[126.59913,35.5417],[126.5987,35.54296],[126.59909,35.54354],[126.60223,35.54261],[126.60293,35.54258],[126.60309,35.54282],[126.60144,35.54304],[126.59775,35.54433],[126.60067,35.54748],[126.60157,35.5466],[126.60272,35.54455],[126.60287,35.54463],[126.60107,35.54778],[126.60196,35.54924],[126.60296,35.55014],[126.60438,35.55001],[126.60611,35.54921],[126.60719,35.54895],[126.60611,35.54937],[126.60535,35.55006],[126.60324,35.55049],[126.60399,35.55117],[126.6039,35.55147],[126.60421,35.55133],[126.60526,35.55216],[126.60857,35.55122],[126.60547,35.55238],[126.60708,35.55509],[126.61008,35.55397],[126.61053,35.55465],[126.60965,35.55426],[126.60711,35.5551],[126.60854,35.55753],[126.61086,35.55761],[126.61382,35.56663],[126.61401,35.57041],[126.61741,35.57043],[126.61747,35.56969],[126.61844,35.56927],[126.62405,35.56826],[126.62498,35.56895],[126.62595,35.57091],[126.62688,35.57132],[126.62598,35.57344],[126.62925,35.57396],[126.63016,35.57204],[126.6307,35.57211],[126.6301,35.57402],[126.63354,35.57442],[126.63309,35.57485],[126.63306,35.57531],[126.63355,35.57721],[126.63323,35.5748],[126.63499,35.57384],[126.63583,35.57242],[126.63581,35.57171],[126.63616,35.57178],[126.63647,35.57303],[126.64243,35.57218],[126.64267,35.57234],[126.64159,35.57284],[126.64111,35.57338],[126.64273,35.57249],[126.64246,35.57153],[126.6438,35.57088],[126.64494,35.57251],[126.64934,35.57078],[126.65015,35.56997],[126.64821,35.56898],[126.64914,35.56799],[126.65092,35.56904],[126.65418,35.56553],[126.65283,35.5643],[126.65466,35.5637],[126.65567,35.56373],[126.65542,35.56163],[126.65434,35.56144],[126.65545,35.56133],[126.65528,35.55999],[126.65595,35.56007],[126.65573,35.56069],[126.65601,35.56378],[126.65638,35.56391],[126.65868,35.5616],[126.65866,35.56124],[126.65737,35.56058],[126.65917,35.56108],[126.66038,35.55948],[126.65878,35.55809],[126.65985,35.55872],[126.66109,35.55796],[126.66263,35.55894],[126.66615,35.55413],[126.66727,35.55356],[126.66798,35.55268],[126.67073,35.55199],[126.67326,35.55068],[126.67456,35.54822],[126.67419,35.54647],[126.67487,35.54622],[126.67576,35.54639],[126.67628,35.54815],[126.67596,35.54827],[126.6762,35.54881],[126.67583,35.54975],[126.67424,35.55174],[126.67633,35.55254],[126.674,35.55184],[126.67151,35.55348],[126.66825,35.55418],[126.6668,35.55535],[126.66671,35.55587],[126.66835,35.55614],[126.67017,35.55673],[126.67015,35.55688],[126.66792,35.55609],[126.66685,35.55629],[126.66586,35.55757],[126.66473,35.56039],[126.66423,35.56606],[126.66827,35.56621],[126.66877,35.5644],[126.66911,35.56583],[126.66869,35.56575],[126.66858,35.566],[126.66984,35.56702],[126.66906,35.56795],[126.66851,35.5677],[126.66773,35.56784],[126.66701,35.56855],[126.66738,35.569],[126.66809,35.569],[126.66958,35.56996],[126.66935,35.57044],[126.66966,35.56998],[126.671,35.56956],[126.67052,35.57051],[126.67119,35.56947],[126.67251,35.56902],[126.67178,35.57023],[126.67225,35.5696],[126.67318,35.56995],[126.67338,35.56972],[126.67766,35.57196],[126.67871,35.57163],[126.68006,35.57055],[126.68025,35.57137],[126.68327,35.57073],[126.68312,35.57118],[126.68451,35.5701],[126.68662,35.5695],[126.69214,35.56947],[126.69268,35.56967],[126.69325,35.57118],[126.69613,35.57098],[126.69713,35.57047],[126.6975,35.56978],[126.69835,35.56919],[126.69921,35.57159],[126.70073,35.57325],[126.70266,35.57453],[126.70531,35.5748],[126.7075,35.57412],[126.70873,35.57408],[126.7088,35.57358],[126.71028,35.57312],[126.71053,35.57372],[126.71143,35.57352],[126.71199,35.57369],[126.71299,35.5731],[126.7135,35.57338],[126.7168,35.57284],[126.71772,35.57298],[126.71756,35.57337],[126.71867,35.57323],[126.71911,35.57255],[126.72322,35.5725],[126.72326,35.57446],[126.724,35.57445],[126.72396,35.57249],[126.72789,35.57247],[126.72753,35.57107],[126.72802,35.57065],[126.73072,35.57069],[126.73683,35.56839],[126.73833,35.56926],[126.73874,35.56923],[126.73971,35.56835],[126.74087,35.56949],[126.74132,35.57093],[126.74112,35.57153],[126.74191,35.57138],[126.74297,35.57016],[126.74367,35.57036],[126.74452,35.56997],[126.74458,35.56911],[126.74513,35.56916],[126.74668,35.56978],[126.74738,35.57038],[126.74939,35.57051],[126.75204,35.57169],[126.75263,35.57166],[126.75354,35.57308],[126.75564,35.57297],[126.75463,35.57388],[126.75443,35.57462],[126.75675,35.57247],[126.75633,35.57296],[126.75709,35.57351],[126.75938,35.57141],[126.76018,35.57199],[126.76139,35.5715],[126.76105,35.57124],[126.76415,35.56839],[126.76377,35.56815],[126.76457,35.56746],[126.76453,35.56682],[126.76937,35.56077],[126.76907,35.56038],[126.76928,35.55992],[126.76782,35.55999],[126.76775,35.5591],[126.76892,35.55905],[126.7689,35.55872],[126.76653,35.55853],[126.76668,35.55754],[126.76634,35.55785],[126.76662,35.5575],[126.76591,35.5568],[126.76486,35.55629],[126.76395,35.55645],[126.76365,35.55552],[126.76266,35.55504],[126.76198,35.55511],[126.76392,35.55355],[126.76334,35.55339],[126.76347,35.55309],[126.76484,35.55214],[126.7657,35.54974],[126.76624,35.54916],[126.76486,35.5469],[126.76256,35.54533],[126.76218,35.5447],[126.76239,35.54366],[126.76196,35.54321],[126.76275,35.54168],[126.76204,35.54048],[126.76202,35.53975],[126.763,35.53814],[126.76262,35.53669],[126.76213,35.53642],[126.76227,35.53565],[126.76166,35.53507],[126.76187,35.53373],[126.76114,35.53299],[126.76358,35.53278],[126.76518,35.53344],[126.76512,35.53285],[126.76423,35.53215],[126.7636,35.53083],[126.76516,35.52958],[126.76709,35.53003],[126.76728,35.52924],[126.76862,35.52755],[126.76771,35.527],[126.7687,35.52593],[126.76928,35.52628],[126.76969,35.52584],[126.77005,35.52598],[126.77117,35.52545],[126.77286,35.52438],[126.77333,35.52362],[126.77418,35.52401],[126.7741,35.523],[126.77093,35.52199],[126.7705,35.52125],[126.76877,35.52072],[126.76831,35.52032],[126.7666,35.52012],[126.76649,35.51944],[126.76575,35.51891],[126.76365,35.51846],[126.76069,35.51679],[126.75963,35.51559],[126.75929,35.51359],[126.76027,35.51333],[126.7599,35.51241],[126.76098,35.51212],[126.75984,35.51124],[126.76075,35.51052],[126.76199,35.51026],[126.76277,35.50963],[126.76491,35.50946],[126.76579,35.50902],[126.76811,35.5093],[126.76907,35.50871],[126.7699,35.50884],[126.77012,35.50793],[126.77062,35.5076],[126.77064,35.50608],[126.76727,35.50169],[126.76815,35.50092],[126.76812,35.4973],[126.76842,35.49614],[126.76798,35.49608],[126.76732,35.49507],[126.7663,35.4946],[126.7655,35.49363],[126.76478,35.49345],[126.76435,35.49265],[126.76509,35.49226],[126.76573,35.49095],[126.76677,35.48568],[126.76917,35.4841],[126.7703,35.48222],[126.7701,35.48154],[126.77038,35.47945],[126.77101,35.47821],[126.77162,35.47391],[126.77261,35.4724],[126.77295,35.47108],[126.7731,35.46972],[126.77275,35.4693],[126.77262,35.4679],[126.77111,35.46716],[126.7649,35.46706],[126.76455,35.46668],[126.76296,35.46628],[126.76132,35.46451],[126.75778,35.46229],[126.75554,35.45711],[126.75534,35.45626],[126.7556,35.45577],[126.75404,35.45524],[126.75247,35.45423],[126.7495,35.45135],[126.74808,35.45058],[126.74443,35.45116],[126.74251,35.45247],[126.74101,35.45298],[126.73772,35.44949],[126.73794,35.44848],[126.73901,35.44791],[126.74078,35.44602],[126.74211,35.44285],[126.74382,35.44068],[126.74716,35.44038],[126.74818,35.43993],[126.74934,35.43912],[126.75173,35.4359],[126.75188,35.43507],[126.75107,35.43437],[126.75136,35.4339],[126.75117,35.43253],[126.75267,35.42949],[126.75224,35.42878],[126.75244,35.42787],[126.7517,35.42631],[126.75193,35.42534],[126.75151,35.42276],[126.75293,35.42085],[126.75433,35.41988],[126.75453,35.41923],[126.75378,35.41895],[126.7542,35.4165],[126.75133,35.41654],[126.74986,35.41626],[126.74868,35.41559],[126.74766,35.41424],[126.74629,35.41145],[126.74513,35.41026],[126.74451,35.40875],[126.74171,35.40845],[126.74148,35.40783],[126.73961,35.40662],[126.73769,35.40599],[126.73699,35.40532],[126.73705,35.40446],[126.73771,35.4039],[126.7368,35.40339],[126.73204,35.4026],[126.73131,35.40158],[126.72901,35.40136],[126.72781,35.40063],[126.72535,35.40088],[126.72247,35.39993],[126.72206,35.39855],[126.72251,35.39792],[126.72415,35.39698],[126.72657,35.39716],[126.7272,35.39631],[126.72963,35.39461],[126.7296,35.39312],[126.72999,35.39277],[126.73022,35.39004],[126.72977,35.38913],[126.7308,35.3887],[126.73123,35.38802],[126.73219,35.38319],[126.73089,35.38056],[126.73155,35.37857],[126.73114,35.37802],[126.73144,35.37763],[126.73126,35.37688],[126.72776,35.37389],[126.72691,35.37267],[126.72662,35.37111],[126.72352,35.36841],[126.7225,35.36686],[126.72098,35.36594],[126.72031,35.36594],[126.71935,35.36499],[126.71682,35.36462],[126.71429,35.36496],[126.71297,35.36482],[126.71247,35.36432],[126.71083,35.3642],[126.7095,35.36442],[126.70943,35.3653],[126.70792,35.36476],[126.70721,35.36493],[126.7063,35.36459],[126.70462,35.36513],[126.7039,35.36342],[126.70274,35.3573],[126.70196,35.35641],[126.70181,35.35508],[126.70106,35.35457],[126.70082,35.35251],[126.69961,35.35091],[126.69937,35.34959],[126.69777,35.34984],[126.69683,35.34966],[126.69316,35.35129],[126.69182,35.35143],[126.69113,35.35085],[126.69088,35.34971],[126.68753,35.34769],[126.68573,35.34424],[126.68287,35.3459],[126.68231,35.34713],[126.68068,35.34737],[126.67858,35.34837],[126.67779,35.34803],[126.67592,35.3487],[126.67487,35.34861],[126.67344,35.34957],[126.66937,35.3515],[126.66644,35.35149],[126.66615,35.35063],[126.66428,35.34814],[126.66479,35.34666],[126.66438,35.34645],[126.6644,35.34571],[126.66178,35.34547],[126.66008,35.34424],[126.66018,35.34221],[126.66092,35.34132],[126.66093,35.34067],[126.66076,35.33991],[126.66003,35.33969],[126.65913,35.33887],[126.65957,35.33808],[126.65888,35.33607],[126.6596,35.33455],[126.65769,35.33464],[126.65614,35.33288],[126.65389,35.32878],[126.65173,35.32682],[126.65068,35.32701],[126.64899,35.32808],[126.64822,35.328],[126.64705,35.32846],[126.64428,35.3272],[126.64544,35.32647],[126.64698,35.32474],[126.64664,35.32294],[126.64523,35.32128],[126.6448,35.31978],[126.64417,35.32031],[126.64179,35.32083],[126.64091,35.32064],[126.63919,35.3209],[126.63143,35.32029],[126.62981,35.32049],[126.62844,35.32129],[126.62642,35.32135],[126.62482,35.3231],[126.62328,35.32293],[126.62116,35.32411],[126.61996,35.324],[126.61916,35.32442],[126.61876,35.32544],[126.61775,35.32595],[126.61732,35.32674],[126.61653,35.32693],[126.61656,35.32763],[126.61553,35.32851],[126.61351,35.32864],[126.61074,35.33051],[126.60815,35.33172],[126.60719,35.33282],[126.60553,35.33389],[126.60417,35.33566],[126.6037,35.33515],[126.60187,35.33451],[126.60146,35.33299],[126.6004,35.33141],[126.59963,35.33111],[126.59934,35.3306],[126.59662,35.32993],[126.59555,35.32943],[126.5954,35.32905],[126.59461,35.32901],[126.59246,35.33063],[126.59113,35.33055],[126.58987,35.32997],[126.58791,35.33014],[126.58706,35.33081],[126.58496,35.33018],[126.58343,35.32889],[126.58305,35.32691],[126.58224,35.32498],[126.5804,35.32389],[126.58121,35.32297],[126.58268,35.319],[126.58333,35.31819],[126.58211,35.3174],[126.58091,35.3173],[126.58127,35.31715],[126.58126,35.31671],[126.58294,35.31571],[126.585,35.31736],[126.587,35.31776],[126.58762,35.31749],[126.58842,35.31774],[126.58945,35.31751],[126.58861,35.31389],[126.58947,35.31197],[126.59068,35.31082],[126.58875,35.31076],[126.58889,35.31019],[126.58841,35.30944],[126.58857,35.30708],[126.58805,35.30565],[126.58559,35.30286],[126.58591,35.30227],[126.58574,35.30174],[126.58491,35.30079],[126.58247,35.30225],[126.58312,35.30212],[126.58234,35.30257],[126.58255,35.3029],[126.58136,35.30359],[126.58029,35.30299],[126.5795,35.30302],[126.57733,35.30388],[126.57615,35.30489],[126.57587,35.3066],[126.57416,35.3077],[126.57271,35.31015],[126.56834,35.31125],[126.56765,35.3112],[126.56601,35.31012],[126.56444,35.31003],[126.56391,35.30907],[126.56358,35.30906],[126.56267,35.31023],[126.56146,35.31096],[126.56096,35.31187],[126.5575,35.31143],[126.55778,35.31174],[126.55721,35.31216],[126.5558,35.31261],[126.55312,35.31216],[126.55197,35.31263],[126.55172,35.31353],[126.55108,35.31368],[126.54947,35.31337],[126.54813,35.31347],[126.54645,35.31172],[126.54339,35.30982],[126.53938,35.31063],[126.53824,35.30929],[126.53548,35.30865],[126.53385,35.30702],[126.53232,35.30674],[126.52977,35.30873],[126.52967,35.30926],[126.53018,35.31031],[126.52902,35.31145],[126.52993,35.31231],[126.52949,35.31257],[126.5267,35.31278],[126.52543,35.31323],[126.52507,35.31376],[126.52438,35.31349],[126.52441,35.31439],[126.52381,35.31464],[126.52385,35.31502],[126.52328,35.31544],[126.52393,35.3163],[126.52305,35.3186],[126.52307,35.32078],[126.52204,35.32184],[126.52212,35.32237],[126.52117,35.32407],[126.52101,35.32512],[126.51954,35.32538],[126.51828,35.32619],[126.51775,35.32549],[126.51606,35.32635],[126.5138,35.32702],[126.51343,35.32949],[126.51563,35.32946],[126.51751,35.33414],[126.51701,35.33594],[126.5172,35.33852],[126.51805,35.34004],[126.51875,35.34047],[126.5188,35.34106],[126.51936,35.34119],[126.51891,35.34328],[126.51994,35.3428],[126.51937,35.34511],[126.52053,35.34835],[126.51994,35.34959],[126.51728,35.35102],[126.51477,35.35544],[126.51388,35.35643],[126.51364,35.35764],[126.51315,35.35812],[126.51276,35.36203],[126.51148,35.3617],[126.51009,35.36203],[126.50824,35.36164],[126.50611,35.36038],[126.50544,35.35952],[126.50376,35.35866],[126.50189,35.35602],[126.49888,35.35459],[126.4991,35.35389],[126.49859,35.35276],[126.49717,35.35107],[126.49741,35.35063],[126.49695,35.35005],[126.49529,35.34991],[126.49355,35.35038],[126.49234,35.35244],[126.49256,35.35352],[126.49214,35.35411],[126.49349,35.35497],[126.49392,35.35582],[126.49615,35.3576],[126.49578,35.35853],[126.49584,35.36173],[126.49523,35.36239],[126.49536,35.36278],[126.4961,35.36311],[126.49602,35.36354],[126.49726,35.36484],[126.49695,35.36589],[126.49614,35.3663],[126.49653,35.36721],[126.49624,35.36846],[126.49657,35.36945],[126.49602,35.37067],[126.49765,35.37216],[126.49741,35.3732],[126.49637,35.37408],[126.49392,35.37368],[126.49241,35.37399],[126.49166,35.3749],[126.48988,35.37615],[126.48622,35.37758],[126.48328,35.38057],[126.48318,35.38389],[126.48289,35.38463],[126.48125,35.38567],[126.47738,35.38618],[126.48101,35.38849],[126.4823,35.39033],[126.48269,35.39055],[126.4839,35.3901],[126.48484,35.39014],[126.48511,35.39076],[126.48866,35.39313],[126.48972,35.39347],[126.48954,35.39414],[126.49061,35.39521],[126.49025,35.39549],[126.49031,35.39669],[126.48941,35.39779],[126.48939,35.39824],[126.49007,35.39844],[126.48994,35.39881],[126.49058,35.39962],[126.49152,35.40004],[126.49094,35.40415],[126.49167,35.40603],[126.49284,35.40751],[126.49283,35.40924]]],[[[126.58793,35.57272],[126.58977,35.5717],[126.59035,35.57175],[126.59154,35.57126],[126.5899,35.57149],[126.58954,35.57083],[126.58997,35.56998],[126.5865,35.56874],[126.58624,35.56893],[126.58587,35.57005],[126.58601,35.56984],[126.5872,35.57072],[126.58708,35.57407],[126.58743,35.57399],[126.58793,35.57272]]],[[[126.56727,35.5499],[126.56695,35.54958],[126.56716,35.55027],[126.56727,35.5499]]],[[[126.56683,35.549],[126.56657,35.54887],[126.56695,35.54955],[126.56683,35.549]]],[[[126.50631,35.52896],[126.50617,35.52818],[126.50495,35.52863],[126.50406,35.5285],[126.50421,35.52768],[126.50402,35.52811],[126.50343,35.52832],[126.50153,35.52776],[126.49879,35.52523],[126.49789,35.52508],[126.4983,35.52381],[126.49737,35.52471],[126.49738,35.52554],[126.49826,35.52646],[126.50211,35.52874],[126.50484,35.52937],[126.50631,35.52896]]],[[[126.49608,35.51881],[126.49595,35.51976],[126.49639,35.52011],[126.49648,35.51884],[126.49608,35.51881]]],[[[126.49522,35.51705],[126.49514,35.51785],[126.4953,35.51792],[126.49556,35.51716],[126.49522,35.51705]]],[[[126.49113,35.53029],[126.49118,35.52955],[126.49028,35.52895],[126.49023,35.52858],[126.48985,35.52908],[126.49002,35.53024],[126.49052,35.52988],[126.49113,35.53029]]],[[[126.48798,35.5287],[126.48809,35.52849],[126.48781,35.52848],[126.48798,35.5287]]],[[[126.48149,35.54264],[126.48135,35.54212],[126.48178,35.5416],[126.48248,35.54165],[126.48389,35.54115],[126.48432,35.5407],[126.48526,35.54075],[126.48559,35.54039],[126.4856,35.54006],[126.48482,35.53952],[126.48442,35.53788],[126.4852,35.53749],[126.48444,35.53741],[126.48402,35.53782],[126.48395,35.53759],[126.48303,35.53753],[126.4831,35.53688],[126.48259,35.53686],[126.48249,35.5372],[126.48206,35.53688],[126.48245,35.53643],[126.48245,35.53633],[126.48237,35.53617],[126.4828,35.53611],[126.48273,35.53591],[126.48348,35.53595],[126.48275,35.53558],[126.48305,35.53551],[126.48315,35.53456],[126.48632,35.5345],[126.48293,35.53432],[126.48261,35.5341],[126.48362,35.53376],[126.48372,35.53324],[126.48432,35.53296],[126.48321,35.53262],[126.48295,35.53309],[126.48006,35.53371],[126.4793,35.53473],[126.48018,35.53539],[126.48181,35.53542],[126.48244,35.53645],[126.48226,35.53651],[126.48182,35.53716],[126.48053,35.53748],[126.48043,35.53789],[126.47944,35.53857],[126.47824,35.5385],[126.4778,35.54013],[126.47769,35.53986],[126.47748,35.54011],[126.47759,35.5398],[126.47725,35.53995],[126.47723,35.54029],[126.47768,35.54021],[126.47793,35.54038],[126.47898,35.53987],[126.4793,35.54017],[126.47949,35.53979],[126.48058,35.54098],[126.4801,35.54139],[126.48042,35.54146],[126.48024,35.54188],[126.48098,35.54266],[126.48115,35.54243],[126.48149,35.54264]]],[[[126.48299,35.53074],[126.48374,35.53072],[126.4836,35.53046],[126.48299,35.53074]]],[[[126.48147,35.54293],[126.48142,35.54299],[126.48144,35.54301],[126.48147,35.54293]]],[[[126.48124,35.54279],[126.48139,35.54279],[126.48122,35.54275],[126.48124,35.54279]]],[[[126.48128,35.54258],[126.48123,35.54263],[126.48128,35.54265],[126.48128,35.54258]]],[[[126.48122,35.54265],[126.48114,35.54269],[126.48121,35.54272],[126.48122,35.54265]]],[[[126.48116,35.54259],[126.48113,35.54264],[126.48117,35.54263],[126.48116,35.54259]]],[[[126.48107,35.54272],[126.48107,35.54267],[126.48101,35.54268],[126.48107,35.54272]]],[[[126.48034,35.54213],[126.48038,35.54206],[126.48031,35.5421],[126.48034,35.54213]]],[[[126.48032,35.542],[126.48033,35.54204],[126.48035,35.54203],[126.48032,35.542]]],[[[126.48025,35.54105],[126.48009,35.54107],[126.4802,35.54117],[126.48025,35.54105]]],[[[126.48021,35.5419],[126.48012,35.54189],[126.48012,35.54191],[126.48021,35.5419]]],[[[126.48004,35.53368],[126.48,35.53363],[126.47996,35.5337],[126.48004,35.53368]]],[[[126.47987,35.54108],[126.47984,35.54097],[126.47976,35.54095],[126.47987,35.54108]]],[[[126.47935,35.53498],[126.47934,35.53487],[126.47927,35.53493],[126.47935,35.53498]]],[[[126.47889,35.54009],[126.47881,35.54012],[126.47882,35.54014],[126.47889,35.54009]]],[[[126.47782,35.54038],[126.47773,35.54039],[126.47782,35.54043],[126.47782,35.54038]]],[[[126.47765,35.54028],[126.47764,35.54033],[126.47769,35.54036],[126.47765,35.54028]]],[[[126.443,35.53947],[126.44349,35.53934],[126.4432,35.53899],[126.443,35.53947]]],[[[126.43946,35.54588],[126.44054,35.5457],[126.44111,35.54588],[126.44125,35.54581],[126.44164,35.54578],[126.44176,35.54585],[126.44236,35.54522],[126.44277,35.54586],[126.44299,35.54575],[126.44334,35.54344],[126.44284,35.54274],[126.44195,35.54331],[126.44131,35.54336],[126.4402,35.5444],[126.43913,35.54433],[126.43946,35.54588]]],[[[126.44314,35.54588],[126.443,35.54588],[126.44304,35.54592],[126.44314,35.54588]]],[[[126.44306,35.53957],[126.44307,35.53951],[126.44299,35.53956],[126.44306,35.53957]]],[[[126.44284,35.53935],[126.44304,35.53903],[126.44292,35.53879],[126.44284,35.53935]]],[[[126.44271,35.53892],[126.4427,35.53876],[126.44263,35.5388],[126.44271,35.53892]]],[[[126.44269,35.53936],[126.4428,35.53905],[126.44272,35.53899],[126.44264,35.53909],[126.44269,35.53936]]],[[[126.44268,35.54261],[126.44252,35.54274],[126.44257,35.54277],[126.44268,35.54261]]],[[[126.44153,35.54586],[126.44164,35.54592],[126.44162,35.54582],[126.44153,35.54586]]],[[[126.44137,35.54602],[126.44127,35.54609],[126.44131,35.54614],[126.44137,35.54602]]],[[[126.44135,35.54587],[126.44125,35.54591],[126.44126,35.54594],[126.44135,35.54587]]],[[[126.43928,35.546],[126.43942,35.54594],[126.43925,35.5459],[126.43928,35.546]]],[[[126.4393,35.54544],[126.43923,35.54546],[126.43928,35.54551],[126.4393,35.54544]]],[[[126.43924,35.54586],[126.4392,35.54576],[126.43911,35.5458],[126.43924,35.54586]]],[[[126.43922,35.54595],[126.43916,35.54597],[126.4392,35.546],[126.43922,35.54595]]],[[[126.43578,35.54488],[126.43669,35.54457],[126.43693,35.54391],[126.43605,35.54402],[126.43578,35.54488]]],[[[126.43649,35.54383],[126.43645,35.54387],[126.43648,35.54387],[126.43649,35.54383]]],[[[126.43625,35.54382],[126.43617,35.54382],[126.43619,35.54385],[126.43625,35.54382]]],[[[126.43616,35.5438],[126.43604,35.54381],[126.43607,35.54387],[126.43616,35.5438]]],[[[126.4283,35.44012],[126.42822,35.44026],[126.42832,35.44027],[126.4283,35.44012]]],[[[126.42813,35.44065],[126.42802,35.44076],[126.42813,35.44076],[126.42813,35.44065]]],[[[126.42784,35.44048],[126.4281,35.44004],[126.42808,35.44001],[126.42784,35.44048]]],[[[126.428,35.44068],[126.42783,35.44066],[126.4279,35.44079],[126.428,35.44068]]],[[[126.42783,35.44096],[126.42758,35.441],[126.42761,35.44107],[126.42783,35.44096]]],[[[126.42773,35.44076],[126.42758,35.44081],[126.42764,35.44088],[126.42773,35.44076]]],[[[126.42762,35.44092],[126.42755,35.44091],[126.42745,35.44104],[126.42762,35.44092]]],[[[126.427,35.44093],[126.42698,35.44124],[126.42703,35.44128],[126.42724,35.44109],[126.427,35.44093]]],[[[126.42708,35.4408],[126.42687,35.4407],[126.42688,35.44101],[126.42708,35.4408]]],[[[126.42698,35.44162],[126.42698,35.44169],[126.42704,35.44163],[126.42698,35.44162]]],[[[126.42687,35.4406],[126.42672,35.44061],[126.4268,35.4407],[126.42687,35.4406]]],[[[126.42646,35.44066],[126.42638,35.44101],[126.42644,35.44104],[126.42677,35.44075],[126.42646,35.44066]]],[[[126.42657,35.44143],[126.42647,35.44142],[126.42648,35.44145],[126.42657,35.44143]]],[[[126.42618,35.44101],[126.42635,35.44088],[126.42631,35.4408],[126.42618,35.44101]]],[[[126.42618,35.44146],[126.4262,35.44155],[126.42619,35.44144],[126.42618,35.44146]]],[[[126.42615,35.4412],[126.42621,35.44133],[126.42618,35.44119],[126.42615,35.4412]]],[[[126.42607,35.44166],[126.42594,35.44075],[126.42585,35.44072],[126.42559,35.44126],[126.42607,35.44166]]],[[[126.4259,35.44158],[126.4259,35.44169],[126.42595,35.44171],[126.4259,35.44158]]],[[[126.42574,35.44073],[126.42568,35.44082],[126.42571,35.44085],[126.42574,35.44073]]],[[[126.42565,35.44087],[126.42554,35.44084],[126.42553,35.44087],[126.42565,35.44087]]],[[[126.42549,35.44101],[126.42557,35.44089],[126.42545,35.44096],[126.42549,35.44101]]]]},"properties":{"id":"SGG:52790","layer":"L3","admin_code":"52790","name":"전북특별자치도 고창군","sido":"전북특별자치도","sgg":"고창군","provisional":false,"source":"통계청 행정동 경계(BND_ADM_DONG_PG, 2025-06-30) 를 시군구로 합침","source_kind":"derived","derived_from":"행정동 경계 union · 20 m 단순화"}}]}