{"type":"FeatureCollection","features":[{"type":"Feature","id":"SGG:52730","geometry":{"type":"MultiPolygon","coordinates":[[[[127.74438,35.8443],[127.74168,35.84044],[127.74113,35.83884],[127.74016,35.83812],[127.73805,35.83519],[127.73778,35.83439],[127.73834,35.83158],[127.73925,35.83053],[127.73947,35.82971],[127.73859,35.82708],[127.73798,35.82638],[127.73557,35.82534],[127.73436,35.82318],[127.73332,35.82227],[127.73246,35.82091],[127.7316,35.81587],[127.73117,35.81486],[127.72965,35.813],[127.72708,35.81331],[127.72526,35.81318],[127.72457,35.8125],[127.72347,35.8107],[127.72411,35.80809],[127.72401,35.80528],[127.72336,35.80406],[127.72061,35.80199],[127.71939,35.79732],[127.71184,35.79311],[127.71048,35.7918],[127.70942,35.79139],[127.70653,35.79202],[127.70028,35.78913],[127.69974,35.78823],[127.6934,35.79162],[127.68821,35.79552],[127.68791,35.7965],[127.68829,35.80048],[127.68677,35.80392],[127.68234,35.80546],[127.6773,35.81026],[127.67414,35.81024],[127.67203,35.80975],[127.67077,35.80979],[127.67019,35.81193],[127.66922,35.81372],[127.6673,35.81475],[127.66654,35.81476],[127.66598,35.81511],[127.66351,35.81808],[127.65991,35.81591],[127.65848,35.81427],[127.65491,35.81175],[127.65499,35.81228],[127.65385,35.81203],[127.65258,35.8127],[127.65114,35.81195],[127.64666,35.8122],[127.64433,35.8131],[127.64153,35.81486],[127.64074,35.81501],[127.63993,35.81479],[127.64044,35.81604],[127.64003,35.81623],[127.64006,35.81657],[127.6385,35.81632],[127.63668,35.81654],[127.63573,35.81712],[127.63504,35.81826],[127.63426,35.81853],[127.63145,35.81563],[127.63105,35.81246],[127.63029,35.81279],[127.6295,35.81481],[127.62739,35.81732],[127.62521,35.81885],[127.62103,35.82412],[127.62115,35.82926],[127.62272,35.83132],[127.62017,35.83696],[127.61985,35.83992],[127.61905,35.84085],[127.62162,35.8431],[127.62455,35.84662],[127.62484,35.84739],[127.62373,35.84765],[127.62233,35.84884],[127.62139,35.85024],[127.61974,35.85354],[127.62009,35.85522],[127.61788,35.85827],[127.61769,35.85926],[127.61575,35.85991],[127.61379,35.85861],[127.61281,35.85846],[127.61053,35.86023],[127.60957,35.86143],[127.60861,35.86198],[127.60895,35.86268],[127.60839,35.86551],[127.60721,35.86582],[127.60674,35.86518],[127.60538,35.86526],[127.60529,35.86505],[127.60423,35.86596],[127.60424,35.86689],[127.60376,35.8672],[127.60407,35.86757],[127.60384,35.86887],[127.60073,35.87123],[127.60063,35.87171],[127.59923,35.87229],[127.59945,35.87294],[127.59827,35.8747],[127.59841,35.87626],[127.59799,35.87663],[127.59821,35.87707],[127.59791,35.87749],[127.59869,35.87867],[127.60103,35.87971],[127.6018,35.88057],[127.60314,35.88028],[127.60157,35.88106],[127.60034,35.88052],[127.59721,35.88054],[127.5977,35.88196],[127.59715,35.88054],[127.5948,35.88103],[127.5931,35.88172],[127.59263,35.88131],[127.5923,35.88139],[127.59056,35.87831],[127.58918,35.87756],[127.58522,35.87721],[127.58425,35.87678],[127.5824,35.87523],[127.5813,35.87654],[127.58041,35.87701],[127.57945,35.87702],[127.57788,35.8783],[127.57465,35.87891],[127.57613,35.88094],[127.57557,35.88286],[127.57829,35.88694],[127.57808,35.88893],[127.58061,35.88892],[127.5811,35.89224],[127.58155,35.89245],[127.58172,35.89335],[127.58362,35.89569],[127.5838,35.89636],[127.58496,35.89729],[127.58485,35.89789],[127.58272,35.90013],[127.58306,35.90088],[127.58242,35.90242],[127.58173,35.90243],[127.58114,35.90396],[127.58147,35.90579],[127.58023,35.90561],[127.57973,35.90525],[127.579,35.90549],[127.57773,35.90673],[127.57673,35.90851],[127.57549,35.9092],[127.57491,35.91002],[127.57361,35.91073],[127.57273,35.91079],[127.57204,35.91163],[127.57126,35.91179],[127.57035,35.91252],[127.56884,35.91222],[127.56834,35.91303],[127.56858,35.91357],[127.56817,35.9145],[127.56822,35.91627],[127.56723,35.91734],[127.56727,35.91827],[127.56464,35.92016],[127.56445,35.92093],[127.56364,35.9213],[127.56314,35.92286],[127.55909,35.92282],[127.5558,35.92224],[127.55496,35.92241],[127.55396,35.92338],[127.55364,35.92528],[127.55181,35.92721],[127.55159,35.92847],[127.55042,35.92887],[127.5494,35.93186],[127.54857,35.93306],[127.54925,35.93467],[127.55039,35.93603],[127.55301,35.93748],[127.55271,35.94129],[127.55315,35.94199],[127.55328,35.94357],[127.55474,35.94566],[127.55488,35.94694],[127.55233,35.94746],[127.55163,35.949],[127.55159,35.95106],[127.55049,35.95232],[127.55026,35.95376],[127.54886,35.95352],[127.5479,35.95424],[127.54759,35.95593],[127.54673,35.95749],[127.54632,35.95748],[127.54583,35.95811],[127.54658,35.96018],[127.54553,35.96066],[127.54306,35.96343],[127.54173,35.96414],[127.54081,35.96418],[127.5395,35.9651],[127.539,35.96588],[127.53915,35.96761],[127.53758,35.96833],[127.53715,35.96972],[127.53653,35.97045],[127.53653,35.97107],[127.53379,35.97117],[127.53434,35.97275],[127.53607,35.97378],[127.5374,35.9762],[127.53695,35.97816],[127.53448,35.97785],[127.53296,35.97825],[127.53169,35.97731],[127.52971,35.97728],[127.52834,35.97764],[127.52787,35.97751],[127.52693,35.97879],[127.52672,35.98023],[127.52701,35.98293],[127.52624,35.98402],[127.52437,35.98513],[127.52494,35.98555],[127.52591,35.98743],[127.52665,35.98765],[127.52844,35.98917],[127.52876,35.99014],[127.53057,35.99051],[127.53222,35.99119],[127.53243,35.99172],[127.53364,35.99201],[127.53403,35.99367],[127.5349,35.99473],[127.53587,35.9949],[127.53601,35.99609],[127.53666,35.99645],[127.53607,35.99818],[127.5363,35.99898],[127.53586,35.99996],[127.53611,36.00051],[127.53418,36.00389],[127.53422,36.00496],[127.53366,36.00532],[127.5321,36.00797],[127.53306,36.00963],[127.53502,36.0096],[127.53656,36.01058],[127.5387,36.01055],[127.53959,36.01113],[127.53987,36.01172],[127.53893,36.01386],[127.53807,36.01445],[127.53771,36.01513],[127.5375,36.01652],[127.53792,36.01854],[127.53723,36.01869],[127.53613,36.01994],[127.53617,36.02141],[127.53672,36.02219],[127.53665,36.02268],[127.53812,36.02365],[127.53884,36.02588],[127.53866,36.0265],[127.5374,36.02704],[127.53752,36.02911],[127.53685,36.03127],[127.5376,36.03249],[127.53688,36.03259],[127.53577,36.03351],[127.53565,36.03399],[127.53296,36.03421],[127.532,36.03457],[127.53194,36.03701],[127.53132,36.03778],[127.53124,36.03874],[127.53082,36.03894],[127.53142,36.04084],[127.53307,36.04084],[127.53326,36.04113],[127.53532,36.04001],[127.53662,36.03973],[127.53788,36.04005],[127.53833,36.03989],[127.53922,36.03862],[127.54035,36.03867],[127.54098,36.03812],[127.54449,36.03881],[127.54538,36.03769],[127.54778,36.03821],[127.54812,36.03686],[127.54911,36.03695],[127.55012,36.03542],[127.55123,36.03482],[127.5522,36.03277],[127.5533,36.03283],[127.55537,36.03242],[127.55744,36.03334],[127.55903,36.03344],[127.5608,36.03252],[127.56248,36.03072],[127.56464,36.03138],[127.56633,36.03122],[127.56776,36.03047],[127.56955,36.02813],[127.57042,36.02793],[127.57048,36.0269],[127.57162,36.02598],[127.57306,36.02573],[127.57353,36.02439],[127.57453,36.0233],[127.57836,36.0241],[127.57954,36.02493],[127.58061,36.02525],[127.58069,36.02585],[127.58256,36.02723],[127.58651,36.02598],[127.58977,36.02605],[127.59124,36.02515],[127.59174,36.02304],[127.59131,36.02156],[127.5915,36.02105],[127.59206,36.02051],[127.5963,36.01901],[127.59667,36.01807],[127.59792,36.01683],[127.59783,36.01642],[127.59936,36.01409],[127.59999,36.01388],[127.60007,36.01194],[127.6032,36.0121],[127.60516,36.01191],[127.60559,36.01213],[127.60659,36.01191],[127.60767,36.00996],[127.60661,36.00814],[127.60678,36.00769],[127.60981,36.00545],[127.61057,36.00104],[127.61274,36.00045],[127.61415,36.0008],[127.616,36.00284],[127.61594,36.00389],[127.61866,36.00798],[127.61733,36.013],[127.61644,36.01906],[127.61363,36.02144],[127.61266,36.02197],[127.61097,36.0223],[127.61025,36.02322],[127.61027,36.0244],[127.61074,36.02535],[127.61134,36.02588],[127.61312,36.02631],[127.61655,36.02632],[127.61654,36.02602],[127.61855,36.02597],[127.6221,36.02482],[127.62213,36.02452],[127.62294,36.02464],[127.62528,36.02531],[127.62691,36.02691],[127.6274,36.02884],[127.62718,36.03062],[127.62754,36.03146],[127.62845,36.03196],[127.63009,36.03243],[127.63168,36.03202],[127.63497,36.02951],[127.63533,36.02868],[127.63665,36.02887],[127.63583,36.02939],[127.638,36.0318],[127.63914,36.0323],[127.63975,36.03225],[127.63879,36.03369],[127.63693,36.03435],[127.63705,36.03517],[127.63645,36.03485],[127.6356,36.03499],[127.63428,36.03457],[127.63268,36.03545],[127.63192,36.03635],[127.63142,36.04107],[127.63053,36.04215],[127.62735,36.04263],[127.62513,36.04231],[127.62317,36.04151],[127.62366,36.04157],[127.62384,36.04123],[127.62219,36.04041],[127.62122,36.04096],[127.62062,36.04019],[127.6191,36.03917],[127.6196,36.0406],[127.61849,36.04194],[127.61967,36.04429],[127.61938,36.04483],[127.61967,36.04734],[127.61933,36.04894],[127.61863,36.0496],[127.61852,36.05018],[127.61864,36.05266],[127.61951,36.0551],[127.61961,36.05868],[127.62059,36.05962],[127.62031,36.06015],[127.62029,36.06271],[127.62055,36.06421],[127.62168,36.06554],[127.62392,36.06727],[127.62756,36.06659],[127.62934,36.06653],[127.63291,36.06684],[127.63591,36.06751],[127.63717,36.06662],[127.638,36.06667],[127.6383,36.06794],[127.63806,36.06867],[127.6391,36.06822],[127.64013,36.06825],[127.64225,36.06739],[127.6435,36.06739],[127.64455,36.06681],[127.64842,36.06258],[127.64846,36.06086],[127.64883,36.05993],[127.64867,36.05897],[127.64905,36.05799],[127.65058,36.05728],[127.65127,36.05751],[127.65223,36.05734],[127.65355,36.05651],[127.65444,36.05662],[127.65422,36.05565],[127.65488,36.05504],[127.65526,36.054],[127.65472,36.05258],[127.65636,36.05093],[127.65632,36.05006],[127.65801,36.04768],[127.65847,36.04441],[127.65995,36.0422],[127.65924,36.0405],[127.65942,36.03963],[127.66023,36.03854],[127.6609,36.03819],[127.66225,36.03861],[127.66441,36.03751],[127.66612,36.03817],[127.66718,36.03819],[127.66803,36.03866],[127.66906,36.03866],[127.6694,36.03962],[127.67053,36.03989],[127.67274,36.04163],[127.67177,36.04325],[127.67092,36.04384],[127.67053,36.04502],[127.67088,36.04603],[127.67163,36.04678],[127.67181,36.04848],[127.6713,36.04925],[127.67029,36.04946],[127.66932,36.05027],[127.66917,36.05115],[127.67077,36.05199],[127.67156,36.05307],[127.67307,36.05362],[127.67552,36.05582],[127.67717,36.0555],[127.67792,36.05668],[127.6792,36.05758],[127.68084,36.05824],[127.68555,36.06219],[127.68809,36.06274],[127.68902,36.06267],[127.68892,36.06206],[127.68931,36.06175],[127.69074,36.05803],[127.69154,36.05838],[127.69314,36.05792],[127.69461,36.05898],[127.69509,36.05873],[127.69493,36.05742],[127.69589,36.05432],[127.6952,36.05272],[127.696,36.05143],[127.69604,36.05038],[127.69511,36.0497],[127.69547,36.04727],[127.69502,36.04591],[127.69584,36.04393],[127.69615,36.04382],[127.69646,36.0411],[127.69958,36.03889],[127.70022,36.03659],[127.70175,36.03578],[127.70193,36.03527],[127.70362,36.03441],[127.70574,36.03493],[127.70606,36.0347],[127.70572,36.03399],[127.70722,36.03512],[127.71164,36.0359],[127.71339,36.03573],[127.71734,36.03445],[127.7183,36.03354],[127.71918,36.03186],[127.72239,36.03198],[127.72355,36.03131],[127.72504,36.03242],[127.72798,36.03091],[127.72753,36.0297],[127.72858,36.03092],[127.73083,36.03231],[127.73484,36.03232],[127.73732,36.02982],[127.73911,36.02688],[127.73945,36.02573],[127.74149,36.0248],[127.74223,36.02503],[127.743,36.02609],[127.74356,36.02736],[127.74359,36.02847],[127.74415,36.02887],[127.74548,36.02889],[127.74731,36.0297],[127.74883,36.02887],[127.75162,36.02568],[127.75422,36.02455],[127.75386,36.02406],[127.75431,36.024],[127.7545,36.02445],[127.7552,36.0242],[127.75622,36.02444],[127.75976,36.0256],[127.76161,36.02518],[127.76225,36.02411],[127.76264,36.02157],[127.75929,36.01592],[127.75928,36.01521],[127.75993,36.01438],[127.76156,36.01332],[127.76427,36.01243],[127.76618,36.01221],[127.76883,36.01255],[127.77432,36.01493],[127.77521,36.01506],[127.77527,36.01538],[127.78153,36.01651],[127.78362,36.01642],[127.78762,36.0145],[127.7895,36.01639],[127.79081,36.0188],[127.7923,36.01994],[127.79363,36.01997],[127.79364,36.02079],[127.79419,36.02138],[127.79682,36.02288],[127.79727,36.02501],[127.79865,36.02546],[127.79944,36.02607],[127.80108,36.02659],[127.80157,36.02608],[127.80312,36.02666],[127.8035,36.02631],[127.8055,36.02596],[127.80765,36.02731],[127.80842,36.02742],[127.80923,36.02694],[127.81109,36.02737],[127.81154,36.02781],[127.81357,36.02815],[127.81461,36.02901],[127.81627,36.02809],[127.81759,36.02789],[127.8185,36.02813],[127.81912,36.02927],[127.81979,36.0298],[127.8202,36.0297],[127.82183,36.03031],[127.82259,36.03113],[127.82523,36.03214],[127.82576,36.03294],[127.82603,36.0328],[127.82957,36.03401],[127.8304,36.03523],[127.83704,36.0362],[127.8385,36.03629],[127.83909,36.03588],[127.84196,36.03688],[127.8432,36.03801],[127.84589,36.03912],[127.84857,36.03973],[127.84898,36.03931],[127.85281,36.03911],[127.85566,36.03293],[127.85814,36.03243],[127.8606,36.03146],[127.86362,36.02785],[127.86432,36.0257],[127.86615,36.02429],[127.86774,36.02377],[127.87144,36.02383],[127.87266,36.02324],[127.87677,36.02251],[127.87528,36.01617],[127.87594,36.01248],[127.8757,36.00894],[127.87638,36.00733],[127.87795,36.00631],[127.87821,36.0058],[127.87815,36.00443],[127.87864,36.0025],[127.87827,36.00102],[127.87632,36.00017],[127.87599,35.99965],[127.87549,35.99698],[127.87886,35.99495],[127.87969,35.99411],[127.88107,35.99419],[127.88402,35.99254],[127.88644,35.99223],[127.88715,35.99104],[127.89131,35.98782],[127.89322,35.98678],[127.89416,35.98543],[127.89415,35.98464],[127.89299,35.9843],[127.8917,35.98331],[127.88994,35.98097],[127.88961,35.97966],[127.89164,35.97872],[127.89512,35.97842],[127.89635,35.97766],[127.89692,35.97406],[127.89626,35.97191],[127.89778,35.97043],[127.89847,35.96857],[127.89962,35.96802],[127.90038,35.96632],[127.89982,35.96297],[127.90011,35.96225],[127.90145,35.96154],[127.90202,35.96009],[127.9018,35.95813],[127.90227,35.9569],[127.90346,35.95631],[127.90358,35.95461],[127.90395,35.95409],[127.90606,35.954],[127.90771,35.95219],[127.91008,35.95123],[127.91042,35.95023],[127.91137,35.94918],[127.91012,35.94592],[127.90946,35.94513],[127.90825,35.94448],[127.90801,35.94398],[127.90859,35.9416],[127.90836,35.94134],[127.9042,35.94005],[127.89896,35.9376],[127.89667,35.93585],[127.89568,35.93419],[127.89477,35.93401],[127.89183,35.93236],[127.88996,35.93185],[127.88607,35.93158],[127.88321,35.93001],[127.88224,35.92888],[127.88228,35.9273],[127.88364,35.9248],[127.88286,35.92136],[127.88221,35.92044],[127.8824,35.91947],[127.88438,35.91741],[127.88807,35.91495],[127.88786,35.91206],[127.88574,35.91081],[127.88506,35.90961],[127.88018,35.9099],[127.87795,35.90918],[127.87706,35.90749],[127.87426,35.90635],[127.87244,35.9052],[127.87181,35.90514],[127.87071,35.90435],[127.86927,35.90401],[127.86849,35.90423],[127.86751,35.90398],[127.86698,35.90422],[127.86602,35.90547],[127.86409,35.90662],[127.8621,35.90664],[127.86078,35.90634],[127.85988,35.90665],[127.85954,35.90649],[127.85923,35.905],[127.85836,35.9042],[127.85864,35.90373],[127.85822,35.90248],[127.85823,35.90104],[127.85885,35.89984],[127.85827,35.89702],[127.85708,35.89499],[127.85268,35.89112],[127.85053,35.89028],[127.85124,35.88951],[127.85142,35.88738],[127.85368,35.88134],[127.85106,35.87764],[127.84979,35.87697],[127.84678,35.8779],[127.84433,35.87513],[127.84454,35.87349],[127.84424,35.87238],[127.84486,35.87025],[127.84452,35.86933],[127.84175,35.86625],[127.83736,35.86717],[127.83495,35.8669],[127.83388,35.86745],[127.83273,35.86892],[127.82955,35.86909],[127.82656,35.86835],[127.8232,35.86645],[127.8209,35.86426],[127.82091,35.86344],[127.81941,35.86253],[127.81964,35.86154],[127.81944,35.85964],[127.8173,35.85914],[127.81454,35.85679],[127.81492,35.85517],[127.81435,35.85389],[127.81392,35.85362],[127.81192,35.85386],[127.80931,35.8551],[127.80709,35.85711],[127.8061,35.85776],[127.80513,35.85796],[127.80436,35.85869],[127.8003,35.85571],[127.79883,35.85501],[127.79764,35.85493],[127.79708,35.85445],[127.79383,35.85358],[127.79205,35.85241],[127.78757,35.85263],[127.78659,35.85175],[127.78375,35.85084],[127.78244,35.84947],[127.78134,35.84906],[127.77917,35.84724],[127.77921,35.84573],[127.77723,35.84325],[127.77561,35.84282],[127.77526,35.84207],[127.77276,35.83958],[127.76885,35.83831],[127.76657,35.83827],[127.7653,35.83882],[127.76432,35.83883],[127.75948,35.83691],[127.75776,35.83676],[127.75666,35.83729],[127.756,35.83858],[127.75407,35.83897],[127.75264,35.84031],[127.75253,35.8414],[127.74975,35.84251],[127.74579,35.84343],[127.74438,35.8443]]]]},"properties":{"id":"SGG:52730","layer":"L3","admin_code":"52730","name":"전북특별자치도 무주군","sido":"전북특별자치도","sgg":"무주군","provisional":false,"source":"통계청 행정동 경계(BND_ADM_DONG_PG, 2025-06-30) 를 시군구로 합침","source_kind":"derived","derived_from":"행정동 경계 union · 20 m 단순화"}}]}