{"type":"FeatureCollection","features":[{"type":"Feature","id":"SGG:51800","geometry":{"type":"MultiPolygon","coordinates":[[[[128.09675,38.16668],[128.09697,38.16262],[128.0956,38.16074],[128.09443,38.16058],[128.09315,38.15981],[128.09082,38.15755],[128.08986,38.15552],[128.08635,38.15222],[128.08664,38.15086],[128.08825,38.15026],[128.08915,38.14921],[128.08987,38.1466],[128.08957,38.14451],[128.09019,38.143],[128.09016,38.14179],[128.08921,38.14088],[128.08778,38.13846],[128.09179,38.13605],[128.09237,38.13527],[128.09249,38.13362],[128.09351,38.13089],[128.09533,38.13035],[128.09689,38.13036],[128.10004,38.12981],[128.09908,38.12889],[128.09828,38.12662],[128.09814,38.12418],[128.09917,38.12329],[128.10018,38.12157],[128.10017,38.12005],[128.10151,38.11942],[128.10323,38.11602],[128.10411,38.11502],[128.10406,38.11247],[128.10479,38.11159],[128.10495,38.10863],[128.10264,38.10725],[128.10105,38.10581],[128.10131,38.10289],[128.09826,38.10169],[128.09735,38.10104],[128.09531,38.10136],[128.09129,38.10097],[128.09014,38.10116],[128.08948,38.10013],[128.08953,38.09877],[128.08804,38.09581],[128.08895,38.0938],[128.08901,38.09265],[128.08959,38.09255],[128.0905,38.09151],[128.09185,38.09124],[128.09214,38.08992],[128.09313,38.08855],[128.09386,38.08821],[128.09459,38.08734],[128.09526,38.08617],[128.09564,38.08544],[128.09507,38.0851],[128.09652,38.08373],[128.09715,38.08186],[128.09986,38.07848],[128.10135,38.07774],[128.10148,38.07715],[128.10253,38.07603],[128.10576,38.07494],[128.10604,38.07455],[128.10711,38.07454],[128.10792,38.07385],[128.11155,38.07276],[128.11297,38.07116],[128.11289,38.06916],[128.11438,38.06721],[128.11421,38.0665],[128.11492,38.06446],[128.11468,38.06389],[128.11543,38.0628],[128.11479,38.06227],[128.11442,38.0599],[128.11399,38.05926],[128.11415,38.05728],[128.11388,38.05586],[128.11487,38.05412],[128.11444,38.05354],[128.11462,38.05293],[128.11618,38.05129],[128.11658,38.05007],[128.11796,38.04836],[128.11811,38.04756],[128.11659,38.04636],[128.1157,38.04446],[128.11273,38.04207],[128.11304,38.04128],[128.11275,38.03999],[128.11334,38.03917],[128.11373,38.03702],[128.11282,38.0363],[128.11235,38.03542],[128.11119,38.03512],[128.10951,38.03371],[128.10736,38.03285],[128.10646,38.03142],[128.10515,38.03035],[128.1032,38.02933],[128.09876,38.02939],[128.09687,38.0289],[128.09637,38.02837],[128.09451,38.02837],[128.09313,38.02942],[128.09183,38.02975],[128.09137,38.03082],[128.09031,38.03171],[128.09024,38.03213],[128.08864,38.03314],[128.08777,38.0332],[128.08663,38.03243],[128.08542,38.03238],[128.08232,38.0333],[128.08155,38.03397],[128.08041,38.0342],[128.0801,38.03667],[128.07904,38.03809],[128.07762,38.03934],[128.0756,38.03966],[128.07422,38.04035],[128.07218,38.04231],[128.07007,38.04365],[128.06881,38.04572],[128.0691,38.04677],[128.06519,38.04698],[128.06386,38.04675],[128.06216,38.0473],[128.06094,38.04727],[128.06032,38.04589],[128.06104,38.04434],[128.05997,38.04251],[128.06002,38.04127],[128.05923,38.04072],[128.05898,38.04006],[128.05792,38.03973],[128.05815,38.03767],[128.05892,38.03651],[128.05898,38.03533],[128.0566,38.03234],[128.05675,38.03163],[128.05638,38.03109],[128.057,38.02964],[128.05912,38.02792],[128.05952,38.02687],[128.05941,38.02578],[128.06046,38.02421],[128.06009,38.02215],[128.0619,38.01894],[128.06136,38.01742],[128.0615,38.01683],[128.06046,38.01483],[128.05972,38.01512],[128.0579,38.01496],[128.05546,38.01533],[128.05418,38.01724],[128.05287,38.01825],[128.05181,38.01842],[128.04964,38.01939],[128.04838,38.01877],[128.04714,38.01998],[128.04512,38.02032],[128.04325,38.02006],[128.03475,38.01498],[128.03314,38.01435],[128.03083,38.01398],[128.02878,38.01536],[128.02494,38.01953],[128.02333,38.01979],[128.01432,38.01932],[128.01296,38.01901],[128.00774,38.01574],[128.00591,38.01374],[128.00065,38.00528],[127.99797,38.00273],[127.99579,38.00174],[127.99333,38.00162],[127.98938,38.0038],[127.98569,38.0072],[127.98478,38.00826],[127.98382,38.0103],[127.98366,38.01224],[127.98397,38.01452],[127.98713,38.0201],[127.98757,38.02264],[127.98755,38.02404],[127.98686,38.02551],[127.98543,38.02686],[127.97778,38.02957],[127.96902,38.0309],[127.96611,38.03205],[127.96301,38.03486],[127.95762,38.03783],[127.95543,38.03868],[127.95261,38.03854],[127.95175,38.0382],[127.94992,38.03619],[127.94701,38.03133],[127.94643,38.02914],[127.94714,38.02258],[127.94493,38.01837],[127.94333,38.01672],[127.94043,38.01505],[127.9382,38.01422],[127.93447,38.01382],[127.93449,38.0155],[127.93137,38.01789],[127.92942,38.01846],[127.9292,38.01883],[127.92668,38.01892],[127.92491,38.02001],[127.9238,38.0203],[127.92223,38.02011],[127.91994,38.02098],[127.91825,38.02107],[127.91627,38.0222],[127.91515,38.02217],[127.91338,38.02286],[127.91245,38.02369],[127.91027,38.02462],[127.90984,38.02563],[127.90749,38.02711],[127.90407,38.03033],[127.9037,38.03199],[127.90404,38.03335],[127.90255,38.03475],[127.90275,38.03763],[127.90186,38.03822],[127.90263,38.04061],[127.90371,38.04185],[127.90364,38.04437],[127.90404,38.04617],[127.90277,38.04895],[127.90267,38.0506],[127.90375,38.05253],[127.9049,38.05344],[127.90847,38.05489],[127.9098,38.05603],[127.91175,38.05664],[127.91323,38.05765],[127.91364,38.05854],[127.91028,38.06355],[127.90918,38.0642],[127.90724,38.06607],[127.90589,38.0687],[127.90435,38.07013],[127.90375,38.0731],[127.90432,38.0749],[127.90608,38.07703],[127.90585,38.07731],[127.90702,38.07809],[127.90707,38.07903],[127.90776,38.08043],[127.90624,38.08164],[127.90519,38.08396],[127.9038,38.08471],[127.90336,38.08649],[127.90352,38.08709],[127.90111,38.09088],[127.89671,38.09115],[127.89035,38.09246],[127.88948,38.09238],[127.88826,38.09351],[127.88736,38.09794],[127.88763,38.10033],[127.88691,38.10127],[127.88499,38.10204],[127.88558,38.1032],[127.88635,38.10352],[127.88554,38.10539],[127.88547,38.10708],[127.88401,38.10945],[127.887,38.11173],[127.88648,38.11315],[127.88783,38.1153],[127.8873,38.1161],[127.88636,38.1167],[127.88205,38.11873],[127.8795,38.11915],[127.8762,38.11911],[127.87675,38.1214],[127.87662,38.12238],[127.8753,38.12478],[127.87583,38.12605],[127.87505,38.12711],[127.87553,38.12904],[127.87591,38.12934],[127.8758,38.13187],[127.87672,38.13281],[127.87688,38.13376],[127.87624,38.13476],[127.87575,38.13496],[127.87579,38.13623],[127.87381,38.1392],[127.8739,38.14138],[127.876,38.14487],[127.87552,38.14591],[127.87597,38.14765],[127.87659,38.14855],[127.8772,38.1507],[127.87705,38.15187],[127.87768,38.15316],[127.87708,38.15463],[127.87539,38.15676],[127.87554,38.15896],[127.87701,38.16221],[127.87824,38.16335],[127.8786,38.16416],[127.88028,38.1656],[127.88125,38.16949],[127.88104,38.17053],[127.87947,38.1728],[127.87906,38.17418],[127.87897,38.17676],[127.87943,38.17789],[127.8773,38.18156],[127.87766,38.1848],[127.87741,38.1862],[127.87574,38.18828],[127.8753,38.19124],[127.87648,38.19298],[127.87668,38.1948],[127.87817,38.19668],[127.87816,38.19767],[127.87552,38.19984],[127.87216,38.20143],[127.87184,38.20209],[127.86764,38.20519],[127.86338,38.20432],[127.86055,38.20339],[127.85856,38.20333],[127.85698,38.20482],[127.85674,38.20601],[127.85568,38.20648],[127.85325,38.20677],[127.85253,38.20842],[127.85175,38.2089],[127.8526,38.21201],[127.85434,38.21378],[127.85398,38.21477],[127.85218,38.21703],[127.85176,38.21837],[127.85211,38.21989],[127.85177,38.22164],[127.85207,38.22688],[127.85266,38.23006],[127.8532,38.23066],[127.85623,38.23239],[127.85807,38.23412],[127.85815,38.23521],[127.85797,38.23961],[127.85646,38.2432],[127.85611,38.245],[127.85384,38.24569],[127.85412,38.25112],[127.85437,38.25205],[127.85528,38.25267],[127.85538,38.254],[127.8535,38.25652],[127.8534,38.25806],[127.85588,38.26135],[127.85854,38.26341],[127.8595,38.26518],[127.85955,38.26618],[127.85873,38.2674],[127.8601,38.2728],[127.86139,38.27449],[127.86288,38.27549],[127.8638,38.27666],[127.8638,38.27797],[127.86315,38.27974],[127.8624,38.28021],[127.86235,38.28089],[127.86319,38.28176],[127.86334,38.28256],[127.86262,38.28322],[127.86327,38.28467],[127.86571,38.28721],[127.86699,38.28797],[127.87087,38.28889],[127.87306,38.29025],[127.87517,38.29212],[127.8774,38.29645],[127.87876,38.29831],[127.88308,38.30316],[127.88506,38.30414],[127.88703,38.30582],[127.88847,38.30877],[127.89193,38.30951],[127.89341,38.31181],[127.89491,38.31291],[127.89712,38.31278],[127.90209,38.3111],[127.90398,38.30973],[127.90578,38.31006],[127.90765,38.31096],[127.91275,38.31041],[127.91412,38.31082],[127.91491,38.31075],[127.91869,38.30875],[127.92097,38.30972],[127.92679,38.30938],[127.9298,38.30699],[127.93155,38.30639],[127.93509,38.30591],[127.93758,38.30634],[127.94223,38.30638],[127.94398,38.306],[127.94515,38.3051],[127.94874,38.30441],[127.95159,38.30217],[127.9547,38.30123],[127.95617,38.30029],[127.95822,38.30022],[127.96065,38.29799],[127.96314,38.29364],[127.96692,38.29308],[127.96867,38.29215],[127.96906,38.2908],[127.97093,38.28969],[127.97224,38.28991],[127.97429,38.28835],[127.97496,38.28737],[127.97646,38.28737],[127.97655,38.28617],[127.97726,38.28491],[127.9783,38.28392],[127.98019,38.2835],[127.98066,38.28176],[127.98247,38.28064],[127.98289,38.27935],[127.98257,38.27739],[127.98369,38.27673],[127.9858,38.27348],[127.98788,38.27412],[127.98934,38.27539],[127.98975,38.27538],[127.98893,38.27732],[127.99176,38.27875],[127.99619,38.27839],[127.99947,38.27777],[128.00001,38.27803],[128.00179,38.27661],[128.00256,38.27551],[128.00624,38.2778],[128.00741,38.27912],[128.00769,38.28035],[128.00871,38.2819],[128.0106,38.28387],[128.01078,38.28608],[128.01488,38.28801],[128.01597,38.28989],[128.01596,38.2915],[128.01297,38.29417],[128.01604,38.30135],[128.01546,38.3028],[128.01783,38.30483],[128.01821,38.31419],[128.02278,38.31436],[128.02798,38.31516],[128.03055,38.31509],[128.03331,38.31567],[128.03343,38.31491],[128.03178,38.31348],[128.03073,38.31158],[128.03123,38.31112],[128.03293,38.31092],[128.03484,38.31202],[128.03543,38.31141],[128.03752,38.31057],[128.03846,38.31148],[128.04018,38.31101],[128.043,38.31156],[128.04359,38.31082],[128.04466,38.31069],[128.04421,38.31006],[128.04447,38.30987],[128.04404,38.30959],[128.04411,38.309],[128.04515,38.30867],[128.0443,38.30827],[128.04404,38.30749],[128.04915,38.30704],[128.05756,38.30798],[128.06876,38.30996],[128.07588,38.31181],[128.08015,38.31343],[128.08735,38.31766],[128.08989,38.31513],[128.09031,38.31422],[128.09185,38.31457],[128.09265,38.31496],[128.09481,38.31719],[128.09708,38.31842],[128.09812,38.31933],[128.09996,38.32035],[128.10174,38.32049],[128.10584,38.3235],[128.10745,38.32408],[128.10862,38.32532],[128.11037,38.32591],[128.11299,38.3277],[128.11482,38.3275],[128.11587,38.32696],[128.11683,38.32712],[128.11788,38.32659],[128.11937,38.32702],[128.12174,38.32607],[128.12282,38.32609],[128.12532,38.32764],[128.12785,38.32848],[128.13153,38.32715],[128.13457,38.32552],[128.13711,38.32498],[128.13879,38.32518],[128.14153,38.32431],[128.14351,38.3252],[128.14466,38.32446],[128.14788,38.32703],[128.1489,38.32591],[128.15008,38.3256],[128.15103,38.3257],[128.1516,38.32703],[128.15276,38.3278],[128.15315,38.32864],[128.1549,38.32933],[128.1558,38.32855],[128.1568,38.32828],[128.15803,38.32658],[128.15853,38.32586],[128.15924,38.323],[128.16188,38.32079],[128.16278,38.32063],[128.16323,38.32095],[128.16491,38.32061],[128.16596,38.31977],[128.16772,38.31746],[128.16951,38.31683],[128.16962,38.31639],[128.17066,38.31573],[128.17043,38.31446],[128.16977,38.31354],[128.16976,38.31268],[128.16881,38.31238],[128.16821,38.31119],[128.16815,38.31],[128.16867,38.30969],[128.16849,38.30869],[128.16901,38.30644],[128.16834,38.30606],[128.16788,38.30497],[128.16779,38.30236],[128.17,38.30136],[128.17133,38.29971],[128.17094,38.29827],[128.16962,38.2959],[128.16988,38.29519],[128.16953,38.29367],[128.16827,38.29235],[128.16868,38.2911],[128.16825,38.28892],[128.16929,38.28828],[128.16981,38.28604],[128.17239,38.28144],[128.1713,38.28044],[128.16902,38.28009],[128.16871,38.2784],[128.16763,38.2771],[128.16693,38.27695],[128.16521,38.27518],[128.16462,38.27504],[128.16436,38.27294],[128.16323,38.27153],[128.16329,38.27105],[128.16117,38.26921],[128.16006,38.2689],[128.15923,38.26687],[128.15979,38.26535],[128.1597,38.26341],[128.16103,38.26199],[128.1607,38.26157],[128.15949,38.26108],[128.15811,38.25867],[128.15752,38.25842],[128.15658,38.25859],[128.15531,38.25649],[128.15393,38.25606],[128.15169,38.25612],[128.14831,38.25418],[128.14691,38.25404],[128.14548,38.25014],[128.14464,38.24951],[128.13997,38.2483],[128.1386,38.24738],[128.13812,38.24741],[128.13699,38.24663],[128.13672,38.24556],[128.13583,38.24436],[128.13236,38.24378],[128.1296,38.24389],[128.12851,38.2429],[128.12425,38.24089],[128.12441,38.23945],[128.12498,38.23846],[128.1247,38.23735],[128.12341,38.23616],[128.12246,38.23446],[128.11992,38.23291],[128.12002,38.23112],[128.11902,38.22939],[128.11913,38.22698],[128.11855,38.22575],[128.11669,38.22505],[128.11699,38.22341],[128.1167,38.22236],[128.11706,38.22165],[128.11685,38.22021],[128.11724,38.21819],[128.12095,38.2154],[128.12144,38.21343],[128.11858,38.21125],[128.11813,38.20941],[128.117,38.20877],[128.11653,38.20757],[128.11558,38.20671],[128.11491,38.20655],[128.11487,38.20512],[128.11326,38.20344],[128.11236,38.20339],[128.11005,38.20145],[128.10903,38.20157],[128.10715,38.20126],[128.10615,38.20008],[128.10606,38.19872],[128.10476,38.19677],[128.10391,38.19602],[128.10265,38.19586],[128.10165,38.19373],[128.10035,38.19318],[128.09985,38.19252],[128.099,38.1923],[128.09994,38.18903],[128.10518,38.18539],[128.10548,38.18488],[128.10374,38.1829],[128.1041,38.17826],[128.10387,38.17758],[128.10351,38.17719],[128.09957,38.1761],[128.09762,38.17504],[128.09736,38.1746],[128.09681,38.17248],[128.09664,38.16968],[128.09738,38.16809],[128.09675,38.16668]]]]},"properties":{"id":"SGG:51800","layer":"L3","admin_code":"51800","name":"강원특별자치도 양구군","sido":"강원특별자치도","sgg":"양구군","provisional":false,"source":"통계청 행정동 경계(BND_ADM_DONG_PG, 2025-06-30) 를 시군구로 합침","source_kind":"derived","derived_from":"행정동 경계 union · 20 m 단순화"}}]}