{"type":"FeatureCollection","features":[{"type":"Feature","id":"SGG:31710","geometry":{"type":"MultiPolygon","coordinates":[[[[129.37835,35.43982],[129.3772,35.42655],[129.37697,35.42677],[129.37809,35.43985],[129.38094,35.44524],[129.38118,35.44513],[129.37835,35.43982]]],[[[129.37927,35.44516],[129.37494,35.44657],[129.37502,35.44686],[129.37926,35.44542],[129.37927,35.44516]]],[[[129.34662,35.38989],[129.34629,35.38898],[129.34734,35.38842],[129.34697,35.38817],[129.34732,35.38686],[129.34778,35.38629],[129.34886,35.3858],[129.34794,35.38539],[129.34688,35.38438],[129.34547,35.38201],[129.34487,35.37947],[129.34498,35.37803],[129.34459,35.3781],[129.34513,35.37781],[129.34556,35.37809],[129.34529,35.37765],[129.34571,35.37785],[129.34516,35.37689],[129.34552,35.37623],[129.34501,35.37573],[129.34502,35.37517],[129.34656,35.37423],[129.34783,35.37384],[129.35013,35.37444],[129.35018,35.37426],[129.35049,35.37421],[129.35062,35.37424],[129.35088,35.37296],[129.35158,35.37255],[129.35381,35.37226],[129.35453,35.37189],[129.35502,35.37174],[129.35533,35.37176],[129.35505,35.37099],[129.35556,35.37057],[129.35556,35.36943],[129.35734,35.36923],[129.3577,35.36828],[129.35742,35.36826],[129.35712,35.36891],[129.35571,35.36907],[129.35456,35.36783],[129.35467,35.36688],[129.3551,35.36646],[129.35615,35.3662],[129.35728,35.36661],[129.35773,35.36622],[129.35768,35.36537],[129.35801,35.36503],[129.35988,35.36477],[129.36009,35.36447],[129.36039,35.36467],[129.36049,35.36445],[129.36062,35.36449],[129.36032,35.36399],[129.36041,35.36382],[129.36053,35.36373],[129.36136,35.36328],[129.36154,35.36247],[129.36128,35.3624],[129.36116,35.36308],[129.36028,35.36357],[129.3599,35.36156],[129.36055,35.36078],[129.36138,35.36066],[129.36159,35.36035],[129.36188,35.36048],[129.36171,35.35953],[129.36254,35.35942],[129.36127,35.3585],[129.36101,35.35801],[129.36096,35.35727],[129.35886,35.35546],[129.35776,35.35513],[129.35624,35.35514],[129.35513,35.35455],[129.35449,35.35498],[129.35266,35.3544],[129.35258,35.35459],[129.35421,35.35529],[129.35339,35.35567],[129.35289,35.35551],[129.35284,35.35514],[129.35268,35.35532],[129.35227,35.35551],[129.35175,35.35544],[129.35137,35.3551],[129.35056,35.35533],[129.35006,35.35493],[129.35002,35.35418],[129.34963,35.35422],[129.34898,35.35385],[129.348,35.35395],[129.34676,35.35226],[129.3464,35.35212],[129.34663,35.35243],[129.34633,35.35216],[129.34645,35.35241],[129.34589,35.35253],[129.34506,35.35181],[129.34466,35.35206],[129.345,35.35267],[129.34482,35.35386],[129.34399,35.35432],[129.34314,35.35456],[129.34244,35.35411],[129.34018,35.35409],[129.3402,35.35431],[129.342,35.35436],[129.34264,35.35523],[129.34182,35.3558],[129.3421,35.35627],[129.34169,35.35592],[129.34055,35.3566],[129.33965,35.35662],[129.33974,35.35579],[129.33946,35.3557],[129.33944,35.35663],[129.33812,35.35671],[129.33517,35.3559],[129.33414,35.35512],[129.3336,35.35437],[129.33384,35.35375],[129.33323,35.35323],[129.33382,35.35192],[129.33333,35.35065],[129.33346,35.35053],[129.33241,35.34961],[129.33234,35.34914],[129.33273,35.34887],[129.3325,35.349],[129.33196,35.34858],[129.3324,35.34756],[129.33217,35.34736],[129.33117,35.34748],[129.33093,35.34709],[129.3309,35.34732],[129.32988,35.34725],[129.33,35.3468],[129.32974,35.34724],[129.32926,35.34716],[129.32779,35.34636],[129.32733,35.34571],[129.32803,35.347],[129.32785,35.34751],[129.32724,35.34773],[129.32572,35.34769],[129.32564,35.34743],[129.32513,35.34765],[129.32495,35.3468],[129.32653,35.34649],[129.32654,35.34623],[129.32477,35.34656],[129.32429,35.34643],[129.32379,35.34605],[129.32423,35.34649],[129.32334,35.34676],[129.3222,35.34621],[129.32212,35.34573],[129.32332,35.34594],[129.322,35.34542],[129.32228,35.34516],[129.32165,35.34476],[129.32177,35.34428],[129.32137,35.34401],[129.32099,35.34413],[129.32077,35.34362],[129.32108,35.34301],[129.3207,35.34324],[129.3193,35.34296],[129.3196,35.34223],[129.32033,35.34191],[129.32077,35.34199],[129.32134,35.34286],[129.32184,35.34283],[129.32111,35.34199],[129.32126,35.34132],[129.31988,35.33976],[129.32061,35.33878],[129.32024,35.33858],[129.32044,35.33847],[129.3188,35.33783],[129.31778,35.33877],[129.31641,35.33877],[129.3163,35.33852],[129.3167,35.33837],[129.31624,35.33822],[129.31573,35.33722],[129.31597,35.33707],[129.31541,35.33661],[129.31584,35.33574],[129.3147,35.33471],[129.3144,35.33309],[129.31331,35.33213],[129.31337,35.33168],[129.31284,35.33113],[129.31279,35.32987],[129.31158,35.3295],[129.31043,35.32974],[129.3088,35.32844],[129.30706,35.32808],[129.30694,35.32848],[129.30857,35.32871],[129.30945,35.32966],[129.30857,35.33005],[129.30891,35.32962],[129.30773,35.32988],[129.30823,35.33017],[129.308,35.3308],[129.30691,35.33078],[129.30676,35.33052],[129.30675,35.33076],[129.30622,35.33069],[129.30504,35.33028],[129.30483,35.32989],[129.30414,35.33016],[129.30218,35.33363],[129.30277,35.33492],[129.30367,35.33562],[129.30181,35.33673],[129.29994,35.33597],[129.29911,35.3363],[129.29601,35.33647],[129.29436,35.33746],[129.29414,35.33794],[129.29233,35.33769],[129.29189,35.33682],[129.29099,35.33801],[129.29091,35.33873],[129.28977,35.33926],[129.28909,35.34047],[129.28551,35.33922],[129.28173,35.34028],[129.27966,35.34137],[129.28071,35.34296],[129.2821,35.3439],[129.28257,35.34512],[129.28345,35.34544],[129.28388,35.34608],[129.28383,35.34754],[129.28335,35.3486],[129.28436,35.35035],[129.28493,35.35073],[129.28398,35.35308],[129.28052,35.35622],[129.28127,35.36078],[129.28193,35.36191],[129.28203,35.36396],[129.28293,35.36391],[129.28312,35.36515],[129.27943,35.36614],[129.27834,35.36794],[129.27684,35.37214],[129.2751,35.37405],[129.27379,35.37481],[129.27235,35.37721],[129.27117,35.37791],[129.26969,35.37961],[129.26798,35.3801],[129.26791,35.38115],[129.26613,35.38387],[129.26552,35.38714],[129.26463,35.38688],[129.26334,35.38564],[129.26279,35.38562],[129.26227,35.38511],[129.25797,35.38412],[129.25582,35.38493],[129.2529,35.38684],[129.25064,35.38737],[129.2503,35.38675],[129.25082,35.38584],[129.25088,35.38472],[129.24984,35.38367],[129.24879,35.38315],[129.24681,35.38275],[129.246,35.38344],[129.24485,35.38387],[129.24198,35.38335],[129.24097,35.38507],[129.24022,35.3843],[129.23702,35.38356],[129.23643,35.38299],[129.2354,35.38026],[129.2302,35.38114],[129.22795,35.38047],[129.22481,35.38042],[129.2237,35.37995],[129.22188,35.37982],[129.21854,35.37895],[129.2165,35.37935],[129.21474,35.38041],[129.21156,35.38078],[129.20795,35.38245],[129.20739,35.38321],[129.20509,35.38434],[129.2034,35.38659],[129.20117,35.38778],[129.20177,35.38845],[129.20187,35.39062],[129.20282,35.39261],[129.20781,35.39578],[129.2079,35.39708],[129.20892,35.39943],[129.21169,35.39989],[129.21189,35.40076],[129.21381,35.40208],[129.21522,35.40361],[129.21521,35.4044],[129.21888,35.40697],[129.21889,35.4093],[129.21818,35.41153],[129.21479,35.41302],[129.2139,35.41408],[129.21286,35.41736],[129.21142,35.41873],[129.21146,35.41906],[129.21024,35.41975],[129.20563,35.42026],[129.20504,35.42062],[129.20503,35.4211],[129.20328,35.42101],[129.20214,35.42155],[129.20215,35.42273],[129.20102,35.42319],[129.20016,35.42415],[129.20079,35.42471],[129.20054,35.42523],[129.2011,35.42815],[129.19994,35.43045],[129.20073,35.43069],[129.20211,35.43207],[129.20049,35.43443],[129.19984,35.43474],[129.19964,35.4352],[129.19994,35.43511],[129.19935,35.43587],[129.19844,35.43646],[129.19801,35.43734],[129.19697,35.43785],[129.1973,35.43843],[129.19698,35.4389],[129.19501,35.43775],[129.19336,35.43749],[129.19336,35.43723],[129.19111,35.43593],[129.19024,35.43497],[129.18977,35.43489],[129.1895,35.4352],[129.18831,35.43475],[129.18716,35.43483],[129.18642,35.43526],[129.18555,35.43518],[129.18207,35.43352],[129.18018,35.43334],[129.17827,35.43225],[129.17844,35.43183],[129.17776,35.43226],[129.17749,35.43325],[129.17695,35.43382],[129.17512,35.43311],[129.17414,35.43361],[129.17108,35.43342],[129.16994,35.43235],[129.16761,35.4318],[129.16714,35.43214],[129.16565,35.43212],[129.16519,35.43361],[129.16347,35.43449],[129.16081,35.43512],[129.15946,35.4362],[129.15847,35.4365],[129.15668,35.43812],[129.15509,35.43887],[129.15345,35.44017],[129.15204,35.44187],[129.1478,35.44414],[129.14643,35.44398],[129.14559,35.44425],[129.14432,35.44538],[129.14315,35.44565],[129.14177,35.44705],[129.14047,35.44763],[129.13959,35.44853],[129.13809,35.45211],[129.13648,35.45275],[129.1324,35.4561],[129.13128,35.45635],[129.13088,35.45817],[129.12638,35.46168],[129.12177,35.46344],[129.12058,35.46549],[129.12169,35.46749],[129.12127,35.47011],[129.11855,35.47237],[129.11756,35.47398],[129.1177,35.47474],[129.11713,35.47515],[129.1174,35.47589],[129.11136,35.47847],[129.11095,35.47894],[129.10963,35.4795],[129.10832,35.48107],[129.10872,35.48168],[129.10795,35.48391],[129.10927,35.48537],[129.10937,35.4866],[129.10895,35.48694],[129.10882,35.48789],[129.10797,35.48821],[129.10679,35.48948],[129.10622,35.49182],[129.10668,35.49291],[129.10633,35.49384],[129.10672,35.49514],[129.10522,35.49564],[129.10527,35.49647],[129.10401,35.49728],[129.1026,35.49767],[129.10129,35.49727],[129.10046,35.49662],[129.09953,35.49648],[129.09788,35.49716],[129.09679,35.49815],[129.0949,35.49812],[129.09435,35.49739],[129.09331,35.49794],[129.09062,35.49831],[129.08733,35.50073],[129.08644,35.50184],[129.08703,35.50154],[129.08626,35.50202],[129.08166,35.50285],[129.08033,35.50284],[129.07725,35.50372],[129.07575,35.50474],[129.0717,35.50564],[129.06881,35.50682],[129.06441,35.50926],[129.06161,35.50963],[129.05264,35.51445],[129.05191,35.51706],[129.05215,35.51808],[129.05116,35.51909],[129.05106,35.51984],[129.05219,35.52134],[129.05243,35.52251],[129.05211,35.5244],[129.05331,35.52574],[129.05427,35.52591],[129.05657,35.52711],[129.05683,35.5307],[129.05582,35.53227],[129.05205,35.53089],[129.04951,35.53032],[129.04823,35.52958],[129.04582,35.52945],[129.04402,35.52895],[129.04325,35.52912],[129.03926,35.52755],[129.03658,35.52701],[129.03333,35.52583],[129.03246,35.52568],[129.02734,35.52711],[129.02294,35.52545],[129.02033,35.52413],[129.01916,35.52442],[129.01717,35.52376],[129.01607,35.52427],[129.01507,35.52365],[129.01296,35.52314],[129.01088,35.52321],[129.00971,35.52402],[129.00903,35.52399],[129.00903,35.52555],[129.00969,35.52806],[129.0076,35.52911],[129.00427,35.52918],[128.99539,35.52782],[128.99459,35.52813],[128.99466,35.53043],[128.99621,35.53226],[128.99592,35.53525],[128.99643,35.5362],[128.99883,35.53854],[128.99857,35.53909],[128.99896,35.54],[128.99835,35.54172],[128.99733,35.5422],[128.99668,35.54304],[128.99659,35.54404],[128.99699,35.54497],[128.9944,35.54576],[128.994,35.54725],[128.99229,35.54737],[128.98935,35.5516],[128.98548,35.54954],[128.98092,35.54637],[128.97879,35.54969],[128.97521,35.55323],[128.97292,35.55606],[128.97201,35.55642],[128.97237,35.55712],[128.97223,35.55794],[128.97119,35.5603],[128.97186,35.56024],[128.97563,35.5619],[128.97791,35.56345],[128.97957,35.56343],[128.98166,35.56385],[128.98318,35.56509],[128.98499,35.5646],[128.98846,35.56616],[128.98932,35.56634],[128.98961,35.56607],[128.99046,35.56658],[128.99318,35.56735],[128.99408,35.567],[128.99581,35.56789],[128.99797,35.57046],[129.00114,35.57259],[129.00378,35.57618],[129.00534,35.57776],[129.00656,35.57829],[129.00793,35.58019],[129.00919,35.58032],[129.01036,35.58094],[129.01225,35.5827],[129.01305,35.58297],[129.01447,35.58257],[129.01729,35.58324],[129.0189,35.58382],[129.0192,35.58426],[129.01882,35.58505],[129.01893,35.58676],[129.01943,35.58765],[129.02161,35.58938],[129.02275,35.59126],[129.02247,35.59449],[129.02268,35.59598],[129.02462,35.59992],[129.02431,35.60153],[129.02265,35.60295],[129.0236,35.60925],[129.02294,35.61159],[129.02302,35.61344],[129.02245,35.61422],[129.02035,35.61523],[129.01667,35.61629],[129.01328,35.61534],[129.01154,35.61587],[129.0085,35.61594],[129.00792,35.61619],[129.00647,35.6185],[129.00574,35.61905],[129.00274,35.62026],[129.00387,35.62171],[129.00967,35.62589],[129.01473,35.62778],[129.01802,35.62965],[129.02008,35.63403],[129.02091,35.63508],[129.02344,35.63528],[129.02477,35.6361],[129.02661,35.6364],[129.02897,35.63464],[129.03043,35.63401],[129.03262,35.6336],[129.03549,35.63202],[129.03697,35.63246],[129.03797,35.63487],[129.04042,35.63636],[129.04153,35.63899],[129.04226,35.63944],[129.04334,35.64097],[129.04449,35.64349],[129.04608,35.64913],[129.0469,35.65052],[129.05015,35.64993],[129.05058,35.64948],[129.05205,35.64906],[129.05307,35.64924],[129.0548,35.6485],[129.05768,35.64826],[129.064,35.64642],[129.0647,35.64577],[129.0693,35.64541],[129.0722,35.64371],[129.07555,35.64036],[129.08085,35.64325],[129.08136,35.64516],[129.08113,35.64684],[129.07976,35.64911],[129.07618,35.65092],[129.07218,35.65564],[129.07036,35.65864],[129.06808,35.65856],[129.06789,35.6588],[129.06727,35.66199],[129.06845,35.66374],[129.06817,35.6671],[129.06904,35.66905],[129.06715,35.67135],[129.06809,35.67319],[129.07118,35.67551],[129.07303,35.67738],[129.07071,35.67864],[129.07,35.67998],[129.06988,35.68237],[129.07395,35.68679],[129.07409,35.68801],[129.07457,35.6887],[129.07535,35.68896],[129.07711,35.69305],[129.07859,35.69424],[129.0798,35.69454],[129.08046,35.6959],[129.08029,35.69628],[129.08235,35.69701],[129.08307,35.69764],[129.08574,35.69809],[129.08735,35.69901],[129.08993,35.70097],[129.09029,35.70268],[129.09369,35.70297],[129.09571,35.70402],[129.09986,35.70473],[129.10176,35.70607],[129.10321,35.70641],[129.10762,35.70645],[129.11037,35.70741],[129.11107,35.70712],[129.11275,35.70838],[129.1157,35.70848],[129.1175,35.70667],[129.11963,35.707],[129.12127,35.70769],[129.12261,35.70771],[129.123,35.70733],[129.12276,35.70779],[129.12421,35.70828],[129.1257,35.71244],[129.1262,35.71285],[129.12621,35.71357],[129.12707,35.71408],[129.12987,35.71302],[129.13015,35.71267],[129.1324,35.71268],[129.13409,35.71238],[129.13416,35.71211],[129.13678,35.71286],[129.13581,35.71363],[129.13657,35.71548],[129.13756,35.71628],[129.13793,35.71708],[129.13951,35.71824],[129.13753,35.7207],[129.1384,35.72179],[129.14049,35.72256],[129.14131,35.7241],[129.14613,35.72492],[129.14721,35.72467],[129.14872,35.72348],[129.14958,35.72347],[129.15287,35.72196],[129.15405,35.72197],[129.15483,35.72094],[129.15688,35.71937],[129.1576,35.71801],[129.15892,35.71729],[129.15939,35.71601],[129.16031,35.71481],[129.16188,35.71513],[129.16411,35.71483],[129.16583,35.715],[129.16684,35.71553],[129.16813,35.71554],[129.16921,35.71495],[129.17107,35.71465],[129.17239,35.71386],[129.17296,35.71404],[129.17349,35.71472],[129.17469,35.71489],[129.17517,35.71558],[129.17646,35.71566],[129.17843,35.71721],[129.1788,35.71934],[129.18023,35.7204],[129.18097,35.7215],[129.18129,35.72379],[129.18624,35.72128],[129.18665,35.71952],[129.19273,35.71841],[129.1935,35.71776],[129.19344,35.71697],[129.19491,35.71675],[129.19765,35.71579],[129.19809,35.71445],[129.20083,35.71599],[129.20108,35.71795],[129.20221,35.71923],[129.20349,35.71974],[129.20547,35.72117],[129.20658,35.72143],[129.20863,35.72117],[129.20894,35.72108],[129.20865,35.72067],[129.20955,35.72014],[129.20925,35.7198],[129.20939,35.71862],[129.21154,35.71785],[129.21143,35.7174],[129.21323,35.71603],[129.2158,35.71496],[129.21801,35.71317],[129.2201,35.71407],[129.22049,35.71391],[129.22167,35.71291],[129.22187,35.712],[129.22437,35.70956],[129.22646,35.70863],[129.22743,35.7092],[129.22833,35.70929],[129.23088,35.70877],[129.23298,35.70763],[129.23371,35.70615],[129.23346,35.70524],[129.23401,35.70387],[129.2381,35.70406],[129.24137,35.70387],[129.24215,35.70314],[129.24692,35.70174],[129.24794,35.70209],[129.24927,35.70176],[129.25095,35.70197],[129.25302,35.70173],[129.25685,35.7007],[129.25825,35.69872],[129.25912,35.69813],[129.25976,35.69689],[129.26008,35.69497],[129.26188,35.6934],[129.26254,35.69157],[129.26181,35.68772],[129.26219,35.68593],[129.26186,35.68532],[129.25864,35.68311],[129.25951,35.68006],[129.26103,35.67907],[129.26078,35.67699],[129.2593,35.67144],[129.25654,35.66892],[129.25542,35.6667],[129.25475,35.66641],[129.2555,35.66046],[129.25774,35.65892],[129.25817,35.65739],[129.2598,35.65566],[129.25988,35.65488],[129.26044,35.65464],[129.26548,35.6536],[129.26625,35.65286],[129.26795,35.65247],[129.26978,35.65108],[129.27495,35.65309],[129.27621,35.65285],[129.27777,35.65174],[129.27812,35.65114],[129.28015,35.65019],[129.28065,35.65012],[129.28167,35.65117],[129.2829,35.65173],[129.28376,35.65086],[129.28541,35.65053],[129.28716,35.64924],[129.28859,35.64886],[129.29016,35.64787],[129.29033,35.64688],[129.29008,35.64632],[129.29086,35.64615],[129.29154,35.6452],[129.29437,35.64457],[129.29713,35.64286],[129.29618,35.63791],[129.29677,35.63494],[129.29795,35.63297],[129.29814,35.63142],[129.29698,35.62827],[129.2946,35.62602],[129.2949,35.62509],[129.29443,35.6231],[129.29525,35.62202],[129.29445,35.62147],[129.294,35.62061],[129.29462,35.61977],[129.2947,35.61832],[129.29827,35.61668],[129.30018,35.61427],[129.29953,35.61427],[129.29952,35.61351],[129.29904,35.61289],[129.29951,35.61063],[129.29927,35.60966],[129.29851,35.60874],[129.29605,35.60778],[129.29598,35.60546],[129.29544,35.60447],[129.29447,35.60401],[129.29308,35.60241],[129.29307,35.60179],[129.2923,35.60137],[129.29283,35.60045],[129.29171,35.59969],[129.29198,35.59911],[129.29001,35.59726],[129.28939,35.59555],[129.29032,35.59433],[129.29024,35.59229],[129.29102,35.59201],[129.29153,35.58852],[129.29262,35.58754],[129.29387,35.58543],[129.29346,35.58444],[129.29269,35.58367],[129.29214,35.5821],[129.29384,35.57942],[129.29384,35.57741],[129.29454,35.57613],[129.29265,35.57709],[129.29081,35.57856],[129.28889,35.5779],[129.28728,35.57817],[129.28674,35.57787],[129.28564,35.57794],[129.28366,35.57861],[129.28338,35.57938],[129.28243,35.57992],[129.28236,35.58037],[129.28078,35.58109],[129.28168,35.58415],[129.2831,35.58383],[129.28306,35.58414],[129.27846,35.58542],[129.27421,35.58602],[129.27063,35.58739],[129.26749,35.58712],[129.26661,35.58617],[129.26632,35.58523],[129.2656,35.58562],[129.26523,35.58546],[129.26471,35.58616],[129.26392,35.58646],[129.26242,35.58653],[129.26178,35.587],[129.25945,35.58752],[129.25673,35.58962],[129.25622,35.58952],[129.25589,35.58987],[129.25509,35.58948],[129.25273,35.59026],[129.2526,35.58929],[129.2532,35.58845],[129.25412,35.58818],[129.25429,35.58691],[129.25379,35.58613],[129.25485,35.58538],[129.25549,35.58356],[129.25483,35.58196],[129.25542,35.58015],[129.25606,35.57991],[129.25683,35.57857],[129.25798,35.5787],[129.25878,35.57835],[129.25925,35.57764],[129.25887,35.57645],[129.25974,35.57427],[129.25853,35.57437],[129.2578,35.57394],[129.25755,35.57262],[129.25791,35.57209],[129.25781,35.57097],[129.25836,35.57004],[129.25732,35.56921],[129.25683,35.56709],[129.25818,35.56569],[129.25801,35.56452],[129.25889,35.56153],[129.26118,35.56133],[129.26218,35.56083],[129.26564,35.5569],[129.26523,35.55666],[129.26511,35.55684],[129.26431,35.55582],[129.26303,35.55649],[129.26277,35.55617],[129.26069,35.55233],[129.26169,35.55168],[129.26038,35.55174],[129.25592,35.55435],[129.25461,35.55342],[129.2532,35.55159],[129.2533,35.55049],[129.25225,35.5494],[129.25227,35.54849],[129.24888,35.54626],[129.24949,35.5447],[129.24416,35.54279],[129.242,35.54005],[129.24034,35.53977],[129.23881,35.53987],[129.23654,35.53617],[129.23824,35.53614],[129.23976,35.53574],[129.24157,35.53593],[129.24335,35.53536],[129.2456,35.5361],[129.24779,35.53335],[129.25026,35.5331],[129.25226,35.53367],[129.25385,35.53273],[129.25509,35.53382],[129.25462,35.53497],[129.25721,35.53436],[129.25798,35.53277],[129.25758,35.53158],[129.25892,35.53035],[129.25991,35.5308],[129.26053,35.53056],[129.26092,35.52969],[129.26069,35.52944],[129.2621,35.52912],[129.26258,35.53044],[129.26437,35.53084],[129.26554,35.52986],[129.26589,35.53025],[129.26721,35.53069],[129.27051,35.52898],[129.27236,35.52985],[129.27332,35.52868],[129.27429,35.52921],[129.27485,35.52839],[129.27325,35.52629],[129.27354,35.52531],[129.27424,35.52445],[129.27408,35.52376],[129.27549,35.52336],[129.27688,35.52186],[129.27776,35.52198],[129.27927,35.52157],[129.28065,35.52068],[129.28195,35.51947],[129.28055,35.51916],[129.28039,35.51887],[129.28134,35.51726],[129.28219,35.51687],[129.28351,35.51714],[129.28447,35.51606],[129.28629,35.51615],[129.28748,35.51518],[129.28826,35.51497],[129.2884,35.51235],[129.28877,35.5118],[129.28857,35.51119],[129.2892,35.50961],[129.28901,35.5091],[129.28979,35.50849],[129.29076,35.50874],[129.29094,35.50824],[129.2906,35.50697],[129.29199,35.50714],[129.29186,35.50569],[129.2929,35.50523],[129.29326,35.50473],[129.29375,35.50281],[129.29434,35.50246],[129.29491,35.50253],[129.29604,35.50143],[129.29652,35.50138],[129.297,35.5006],[129.29725,35.4988],[129.29852,35.49817],[129.29872,35.49708],[129.29905,35.49684],[129.29992,35.49695],[129.30054,35.49647],[129.3009,35.4951],[129.30206,35.49523],[129.30246,35.49472],[129.30292,35.49473],[129.30423,35.49526],[129.30522,35.49577],[129.30574,35.49704],[129.30618,35.49761],[129.30653,35.49752],[129.307,35.49683],[129.30741,35.49717],[129.30784,35.49693],[129.30905,35.49438],[129.31016,35.49342],[129.31048,35.4926],[129.31317,35.49223],[129.31401,35.49178],[129.31403,35.49114],[129.31886,35.49111],[129.32008,35.48744],[129.32315,35.48719],[129.32614,35.4892],[129.32693,35.48921],[129.32698,35.48877],[129.32732,35.48877],[129.32925,35.48672],[129.32878,35.48656],[129.32944,35.4859],[129.33024,35.48622],[129.33038,35.48566],[129.33116,35.48555],[129.3322,35.48401],[129.33342,35.48315],[129.33578,35.48251],[129.3376,35.48088],[129.33891,35.47917],[129.33922,35.47531],[129.33677,35.47496],[129.33714,35.47464],[129.33715,35.47426],[129.33684,35.4742],[129.33699,35.4734],[129.33754,35.47284],[129.33925,35.4724],[129.34073,35.47138],[129.34123,35.46985],[129.34271,35.46903],[129.34275,35.46765],[129.34345,35.46735],[129.34437,35.46762],[129.34499,35.46716],[129.34584,35.46537],[129.34648,35.46514],[129.34648,35.46418],[129.34738,35.46431],[129.34775,35.46244],[129.34826,35.4625],[129.34778,35.46228],[129.34841,35.45997],[129.34747,35.45983],[129.3475,35.45953],[129.34891,35.45273],[129.34954,35.45282],[129.34959,35.45261],[129.34896,35.45252],[129.34989,35.44824],[129.3522,35.44744],[129.35456,35.44901],[129.35979,35.44791],[129.36011,35.44632],[129.35881,35.44282],[129.35388,35.44092],[129.35523,35.43826],[129.36506,35.44141],[129.36679,35.44454],[129.36508,35.44521],[129.36543,35.44587],[129.36711,35.44689],[129.3679,35.44661],[129.36912,35.4491],[129.37448,35.44708],[129.37425,35.44679],[129.37339,35.44718],[129.37236,35.44528],[129.37006,35.44374],[129.369,35.44176],[129.36603,35.44282],[129.3659,35.44257],[129.36887,35.44151],[129.36649,35.43705],[129.37144,35.43529],[129.37146,35.43124],[129.37411,35.43126],[129.37415,35.43102],[129.36745,35.43096],[129.36694,35.43016],[129.36627,35.42983],[129.36647,35.42949],[129.36599,35.42928],[129.36574,35.42959],[129.36505,35.42931],[129.36485,35.42878],[129.36392,35.42825],[129.36313,35.42834],[129.36317,35.42654],[129.36254,35.42605],[129.35377,35.42702],[129.35289,35.42707],[129.35276,35.42681],[129.35352,35.42665],[129.35363,35.425],[129.35378,35.42661],[129.36259,35.4251],[129.36267,35.42406],[129.36352,35.42406],[129.36353,35.42478],[129.36422,35.42481],[129.36391,35.41517],[129.36282,35.4149],[129.36282,35.41023],[129.36544,35.41017],[129.3655,35.40788],[129.37479,35.40781],[129.37496,35.41053],[129.37495,35.40763],[129.36282,35.40742],[129.36278,35.40166],[129.3586,35.39876],[129.35849,35.39692],[129.35818,35.39862],[129.35431,35.39839],[129.35412,35.39792],[129.35449,35.39767],[129.35422,35.39729],[129.35476,35.39689],[129.35444,35.3968],[129.3545,35.39644],[129.35556,35.39587],[129.35517,35.39524],[129.35548,35.39427],[129.35502,35.39389],[129.35542,35.39382],[129.35485,35.39369],[129.35402,35.39285],[129.35076,35.39211],[129.34934,35.39218],[129.34844,35.39134],[129.34845,35.39098],[129.34813,35.39105],[129.34804,35.39073],[129.34732,35.39051],[129.34731,35.39016],[129.34662,35.38989]]],[[[129.36284,35.35928],[129.3629,35.35928],[129.36284,35.35925],[129.36284,35.35928]]],[[[129.36274,35.35933],[129.36279,35.35932],[129.36276,35.35927],[129.36274,35.35933]]],[[[129.36272,35.35934],[129.36254,35.3591],[129.36237,35.35912],[129.36272,35.35934]]],[[[129.36235,35.35915],[129.36229,35.35918],[129.36237,35.35923],[129.36235,35.35915]]],[[[129.36223,35.35884],[129.36228,35.35887],[129.36228,35.35885],[129.36223,35.35884]]],[[[129.36222,35.36003],[129.3623,35.36009],[129.36232,35.36007],[129.36222,35.36003]]],[[[129.36215,35.35904],[129.36217,35.3591],[129.36221,35.35904],[129.36215,35.35904]]],[[[129.36212,35.35988],[129.36219,35.35985],[129.36213,35.35984],[129.36212,35.35988]]],[[[129.36214,35.36013],[129.36208,35.3601],[129.36208,35.36014],[129.36214,35.36013]]],[[[129.3621,35.35985],[129.36197,35.35981],[129.36207,35.35987],[129.3621,35.35985]]],[[[129.36199,35.36012],[129.36204,35.36009],[129.36198,35.36008],[129.36199,35.36012]]],[[[129.36203,35.36042],[129.36193,35.36047],[129.36201,35.36052],[129.36203,35.36042]]],[[[129.36194,35.35887],[129.36186,35.35889],[129.36195,35.35891],[129.36194,35.35887]]],[[[129.36191,35.36004],[129.36182,35.36006],[129.36189,35.36008],[129.36191,35.36004]]],[[[129.36144,35.35798],[129.36149,35.35802],[129.36144,35.35796],[129.36144,35.35798]]],[[[129.36139,35.35754],[129.36144,35.35758],[129.36143,35.35753],[129.36139,35.35754]]],[[[129.36144,35.35836],[129.36135,35.35833],[129.36137,35.35835],[129.36144,35.35836]]],[[[129.36139,35.36065],[129.36145,35.36066],[129.36145,35.36064],[129.36139,35.36065]]],[[[129.36118,35.35722],[129.36119,35.35718],[129.36116,35.35718],[129.36118,35.35722]]],[[[129.36109,35.35697],[129.36115,35.35696],[129.36108,35.35696],[129.36109,35.35697]]],[[[129.36112,35.35729],[129.36106,35.35731],[129.36112,35.35733],[129.36112,35.35729]]],[[[129.36099,35.35738],[129.36104,35.35737],[129.36099,35.3573],[129.36099,35.35738]]],[[[129.36077,35.36452],[129.36073,35.36456],[129.36076,35.36456],[129.36077,35.36452]]],[[[129.36076,35.36417],[129.36072,35.36421],[129.36075,35.36422],[129.36076,35.36417]]],[[[129.36072,35.36471],[129.36075,35.36468],[129.36072,35.36468],[129.36072,35.36471]]],[[[129.36072,35.36465],[129.36074,35.36462],[129.36071,35.36461],[129.36072,35.36465]]],[[[129.36068,35.36416],[129.36065,35.36414],[129.36058,35.36406],[129.36057,35.3641],[129.36068,35.36416]]],[[[129.36066,35.36418],[129.36058,35.36421],[129.36067,35.36421],[129.36066,35.36418]]],[[[129.36037,35.35661],[129.36035,35.35664],[129.3604,35.35663],[129.36037,35.35661]]],[[[129.36061,35.36462],[129.36053,35.36456],[129.36056,35.36464],[129.36061,35.36462]]],[[[129.36057,35.36452],[129.36056,35.36457],[129.3606,35.36457],[129.36057,35.36452]]],[[[129.36051,35.36452],[129.36054,35.36451],[129.36052,35.36449],[129.36051,35.36452]]],[[[129.36051,35.36385],[129.36042,35.36386],[129.36052,35.36389],[129.36051,35.36385]]],[[[129.36021,35.35631],[129.36023,35.35629],[129.36018,35.35629],[129.36021,35.35631]]],[[[129.36014,35.35627],[129.36017,35.35625],[129.36014,35.35624],[129.36014,35.35627]]],[[[129.3603,35.36474],[129.36037,35.36472],[129.36032,35.3647],[129.3603,35.36474]]],[[[129.35996,35.35621],[129.36001,35.35617],[129.35996,35.35616],[129.35996,35.35621]]],[[[129.35947,35.35586],[129.35943,35.35588],[129.35945,35.35589],[129.35947,35.35586]]],[[[129.35932,35.35558],[129.35935,35.35554],[129.35928,35.35553],[129.35932,35.35558]]],[[[129.35931,35.35572],[129.35934,35.3557],[129.35931,35.3557],[129.35931,35.35572]]],[[[129.35903,35.35557],[129.35904,35.35553],[129.35901,35.35553],[129.35903,35.35557]]],[[[129.35868,35.3552],[129.35872,35.35524],[129.35872,35.35519],[129.35868,35.3552]]],[[[129.35857,35.35525],[129.35865,35.35527],[129.35859,35.35524],[129.35857,35.35525]]],[[[129.35847,35.35524],[129.35851,35.35527],[129.35853,35.35524],[129.35847,35.35524]]],[[[129.35782,35.35497],[129.35778,35.35494],[129.35778,35.35498],[129.35782,35.35497]]],[[[129.35764,35.36681],[129.35791,35.36753],[129.35806,35.36758],[129.35764,35.36681]]],[[[129.35792,35.36544],[129.3578,35.36544],[129.35798,35.36557],[129.35792,35.36544]]],[[[129.35753,35.35506],[129.3576,35.35497],[129.35739,35.35499],[129.35753,35.35506]]],[[[129.35788,35.36608],[129.35776,35.36611],[129.35792,35.36614],[129.35788,35.36608]]],[[[129.35784,35.36561],[129.35784,35.36569],[129.3579,35.36564],[129.35784,35.36561]]],[[[129.35748,35.36675],[129.35748,35.3668],[129.35755,35.36677],[129.35748,35.36675]]],[[[129.35753,35.36925],[129.35743,35.36911],[129.35743,35.36925],[129.35753,35.36925]]],[[[129.35745,35.36682],[129.35746,35.36689],[129.35751,35.36687],[129.35745,35.36682]]],[[[129.3571,35.36669],[129.35717,35.36674],[129.35716,35.36669],[129.3571,35.36669]]],[[[129.3563,35.37081],[129.35619,35.37081],[129.35619,35.37085],[129.3563,35.37081]]],[[[129.35617,35.36979],[129.35625,35.3698],[129.35615,35.36977],[129.35617,35.36979]]],[[[129.3562,35.37149],[129.35622,35.37157],[129.35629,35.37153],[129.3562,35.37149]]],[[[129.35613,35.37003],[129.35618,35.37],[129.3561,35.37],[129.35613,35.37003]]],[[[129.35565,35.3546],[129.35565,35.35463],[129.35569,35.35461],[129.35565,35.3546]]],[[[129.35615,35.37071],[129.35607,35.37072],[129.35615,35.37072],[129.35615,35.37071]]],[[[129.35614,35.37151],[129.3561,35.37153],[129.35615,35.37152],[129.35614,35.37151]]],[[[129.35675,35.3948],[129.35654,35.395],[129.35682,35.39505],[129.35675,35.3948]]],[[[129.35595,35.37189],[129.35599,35.37188],[129.35595,35.37186],[129.35595,35.37189]]],[[[129.35575,35.36958],[129.35592,35.36962],[129.35575,35.36956],[129.35575,35.36958]]],[[[129.35595,35.37199],[129.35594,35.37204],[129.35595,35.37204],[129.35595,35.37199]]],[[[129.35592,35.37147],[129.35578,35.37143],[129.3559,35.37157],[129.35592,35.37147]]],[[[129.35588,35.37064],[129.35576,35.37065],[129.35589,35.37073],[129.35588,35.37064]]],[[[129.35589,35.37163],[129.35581,35.37161],[129.3558,35.37162],[129.35589,35.37163]]],[[[129.3558,35.3722],[129.35577,35.37212],[129.35574,35.37213],[129.3558,35.3722]]],[[[129.35506,35.3543],[129.35512,35.35433],[129.35513,35.35431],[129.35506,35.3543]]],[[[129.35552,35.37176],[129.35559,35.37178],[129.35552,35.37175],[129.35552,35.37176]]],[[[129.35498,35.35457],[129.35492,35.35449],[129.35492,35.35456],[129.35498,35.35457]]],[[[129.35503,35.37185],[129.35528,35.372],[129.35543,35.37194],[129.3553,35.3718],[129.35503,35.37185]]],[[[129.3554,35.37215],[129.35533,35.37218],[129.35541,35.37218],[129.3554,35.37215]]],[[[129.35535,35.37178],[129.3554,35.37178],[129.35535,35.37177],[129.35535,35.37178]]],[[[129.35528,35.37228],[129.35528,35.37225],[129.35526,35.37225],[129.35528,35.37228]]],[[[129.35524,35.37221],[129.35527,35.3722],[129.35524,35.37219],[129.35524,35.37221]]],[[[129.35517,35.37208],[129.3552,35.37207],[129.35517,35.37207],[129.35517,35.37208]]],[[[129.35513,35.37203],[129.35515,35.37202],[129.35513,35.37202],[129.35513,35.37203]]],[[[129.35561,35.39592],[129.35567,35.39605],[129.35572,35.396],[129.35561,35.39592]]],[[[129.35483,35.37252],[129.35486,35.37254],[129.35488,35.37252],[129.35483,35.37252]]],[[[129.35543,35.39653],[129.35554,35.39659],[129.35546,35.39651],[129.35543,35.39653]]],[[[129.35475,35.37188],[129.35477,35.37198],[129.3548,35.37197],[129.35475,35.37188]]],[[[129.3554,35.39401],[129.35533,35.39412],[129.35539,35.39413],[129.3554,35.39401]]],[[[129.35467,35.37192],[129.35469,35.37196],[129.35471,35.37195],[129.35467,35.37192]]],[[[129.35467,35.37239],[129.3547,35.37241],[129.35471,35.37241],[129.35467,35.37239]]],[[[129.35468,35.37224],[129.3546,35.37225],[129.35469,35.37226],[129.35468,35.37224]]],[[[129.35457,35.37228],[129.3546,35.37231],[129.35464,35.37229],[129.35457,35.37228]]],[[[129.35408,35.37298],[129.35395,35.373],[129.35409,35.37301],[129.35408,35.37298]]],[[[129.35409,35.37324],[129.3539,35.37319],[129.35377,35.37321],[129.35409,35.37324]]],[[[129.35377,35.37295],[129.35396,35.37299],[129.354,35.37297],[129.35377,35.37295]]],[[[129.3544,35.39805],[129.35447,35.39812],[129.35454,35.39811],[129.3544,35.39805]]],[[[129.35363,35.37273],[129.35375,35.37257],[129.35329,35.37272],[129.35363,35.37273]]],[[[129.35351,35.37303],[129.35364,35.37304],[129.35349,35.37301],[129.35351,35.37303]]],[[[129.35337,35.37275],[129.35335,35.37289],[129.35346,35.37281],[129.35337,35.37275]]],[[[129.35381,35.39264],[129.35389,35.39248],[129.35375,35.39263],[129.35381,35.39264]]],[[[129.35214,35.35528],[129.35264,35.3553],[129.35269,35.35518],[129.35214,35.35528]]],[[[129.35214,35.35516],[129.35212,35.35497],[129.352,35.35503],[129.35214,35.35516]]],[[[129.35209,35.35536],[129.35157,35.355],[129.35208,35.35542],[129.35209,35.35536]]],[[[129.35252,35.37437],[129.35255,35.37442],[129.35256,35.37438],[129.35252,35.37437]]],[[[129.3526,35.38398],[129.35257,35.38407],[129.35266,35.38402],[129.3526,35.38398]]],[[[129.35223,35.37425],[129.35208,35.37428],[129.35225,35.37427],[129.35223,35.37425]]],[[[129.35217,35.37418],[129.35204,35.37424],[129.35219,35.37419],[129.35217,35.37418]]],[[[129.35235,35.38417],[129.35223,35.3841],[129.35218,35.38415],[129.35235,35.38417]]],[[[129.35153,35.35484],[129.35159,35.35488],[129.35157,35.35484],[129.35153,35.35484]]],[[[129.35229,35.38553],[129.35221,35.38563],[129.3523,35.38563],[129.35229,35.38553]]],[[[129.35177,35.37543],[129.35179,35.3755],[129.35184,35.37548],[129.35177,35.37543]]],[[[129.35143,35.37559],[129.35156,35.37547],[129.35141,35.37557],[129.35143,35.37559]]],[[[129.35168,35.3845],[129.35166,35.38439],[129.35156,35.3845],[129.35168,35.3845]]],[[[129.3514,35.37539],[129.35139,35.37547],[129.35144,35.37539],[129.3514,35.37539]]],[[[129.35093,35.37548],[129.35139,35.37539],[129.35138,35.37532],[129.35093,35.37548]]],[[[129.35145,35.38625],[129.35154,35.38567],[129.35089,35.3857],[129.35021,35.38532],[129.34966,35.38549],[129.35033,35.38616],[129.35145,35.38625]]],[[[129.35158,35.38665],[129.35142,35.38671],[129.35157,35.38674],[129.35158,35.38665]]],[[[129.35085,35.37541],[129.35117,35.37521],[129.35076,35.37537],[129.35085,35.37541]]],[[[129.35111,35.37435],[129.35112,35.37438],[129.35119,35.37437],[129.35111,35.37435]]],[[[129.35147,35.38441],[129.35136,35.38447],[129.35136,35.38449],[129.35147,35.38441]]],[[[129.35126,35.38666],[129.35126,35.38651],[129.3511,35.38663],[129.35126,35.38666]]],[[[129.35101,35.37438],[129.35109,35.37441],[129.35102,35.37437],[129.35101,35.37438]]],[[[129.35189,35.45014],[129.35312,35.44985],[129.35325,35.44937],[129.3522,35.44872],[129.35132,35.44866],[129.35125,35.44927],[129.35189,35.45014]]],[[[129.35022,35.35468],[129.35024,35.35465],[129.35022,35.35465],[129.35022,35.35468]]],[[[129.35021,35.35435],[129.35013,35.35427],[129.3501,35.35435],[129.35021,35.35435]]],[[[129.35081,35.37526],[129.35061,35.37537],[129.35082,35.37527],[129.35081,35.37526]]],[[[129.35021,35.35475],[129.3502,35.35473],[129.35021,35.35475],[129.35021,35.35475]]],[[[129.35047,35.37424],[129.35061,35.37427],[129.35047,35.37423],[129.35047,35.37424]]],[[[129.35076,35.38415],[129.35079,35.38422],[129.35084,35.3842],[129.35076,35.38415]]],[[[129.35055,35.37529],[129.35045,35.37536],[129.35057,35.37531],[129.35055,35.37529]]],[[[129.35048,35.37469],[129.35053,35.37474],[129.3505,35.37468],[129.35048,35.37469]]],[[[129.35044,35.37465],[129.35047,35.37468],[129.35047,35.37465],[129.35044,35.37465]]],[[[129.35041,35.37534],[129.35031,35.37538],[129.35034,35.37542],[129.35041,35.37534]]],[[[129.34962,35.35393],[129.34967,35.3541],[129.34977,35.35412],[129.34962,35.35393]]],[[[129.34957,35.3541],[129.3495,35.35412],[129.34957,35.35413],[129.34957,35.3541]]],[[[129.34954,35.35407],[129.34945,35.35408],[129.34954,35.35408],[129.34954,35.35407]]],[[[129.34882,35.35372],[129.34892,35.35378],[129.34889,35.35366],[129.34882,35.35372]]],[[[129.34795,35.35325],[129.34801,35.35328],[129.34801,35.35324],[129.34795,35.35325]]],[[[129.349,35.39122],[129.34904,35.39128],[129.34904,35.39121],[129.349,35.39122]]],[[[129.34792,35.35335],[129.34796,35.35334],[129.34793,35.35333],[129.34792,35.35335]]],[[[129.34788,35.35302],[129.34793,35.35299],[129.34789,35.35298],[129.34788,35.35302]]],[[[129.34786,35.35334],[129.3479,35.35333],[129.34787,35.35331],[129.34786,35.35334]]],[[[129.34772,35.35328],[129.34775,35.3534],[129.34786,35.3534],[129.34772,35.35328]]],[[[129.34888,35.39128],[129.34893,35.39137],[129.34894,35.39128],[129.34888,35.39128]]],[[[129.34875,35.39112],[129.3488,35.39116],[129.3488,35.39111],[129.34875,35.39112]]],[[[129.34855,35.39101],[129.34857,35.3911],[129.34865,35.39101],[129.34855,35.39101]]],[[[129.34738,35.35286],[129.34742,35.35283],[129.34737,35.35283],[129.34738,35.35286]]],[[[129.34724,35.35273],[129.3473,35.35271],[129.34721,35.35268],[129.34724,35.35273]]],[[[129.34832,35.39058],[129.34838,35.39061],[129.34837,35.39058],[129.34832,35.39058]]],[[[129.34808,35.3905],[129.34829,35.39064],[129.3483,35.39055],[129.34808,35.3905]]],[[[129.34823,35.39068],[129.34829,35.39068],[129.34827,35.39067],[129.34823,35.39068]]],[[[129.34705,35.35212],[129.34713,35.35227],[129.34707,35.35207],[129.34705,35.35212]]],[[[129.34699,35.35239],[129.34705,35.3524],[129.347,35.35238],[129.34699,35.35239]]],[[[129.34689,35.35231],[129.34693,35.35229],[129.34689,35.35228],[129.34689,35.35231]]],[[[129.34633,35.35232],[129.34634,35.3523],[129.34628,35.35228],[129.34633,35.35232]]],[[[129.34595,35.35199],[129.34602,35.35198],[129.34595,35.35197],[129.34595,35.35199]]],[[[129.34598,35.35206],[129.34589,35.35223],[129.34597,35.35227],[129.34598,35.35206]]],[[[129.346,35.3523],[129.3459,35.35233],[129.34599,35.35236],[129.346,35.3523]]],[[[129.34574,35.35235],[129.34577,35.35239],[129.34577,35.35235],[129.34574,35.35235]]],[[[129.3453,35.35196],[129.34539,35.35194],[129.3453,35.35195],[129.3453,35.35196]]],[[[129.34584,35.3771],[129.34584,35.37717],[129.34587,35.37718],[129.34584,35.3771]]],[[[129.34503,35.35174],[129.34511,35.35175],[129.34512,35.35173],[129.34503,35.35174]]],[[[129.34567,35.37789],[129.34577,35.37796],[129.3457,35.37787],[129.34567,35.37789]]],[[[129.34486,35.35177],[129.34472,35.35156],[129.34451,35.35161],[129.34486,35.35177]]],[[[129.34559,35.37613],[129.34565,35.37621],[129.34562,35.37613],[129.34559,35.37613]]],[[[129.34477,35.35255],[129.34483,35.35255],[129.34478,35.35252],[129.34477,35.35255]]],[[[129.34549,35.37708],[129.34552,35.37719],[129.34554,35.37718],[129.34549,35.37708]]],[[[129.34472,35.35249],[129.34476,35.35248],[129.34471,35.35246],[129.34472,35.35249]]],[[[129.34473,35.35372],[129.34468,35.35357],[129.3446,35.35379],[129.34473,35.35372]]],[[[129.34464,35.35224],[129.34469,35.35223],[129.34464,35.35223],[129.34464,35.35224]]],[[[129.34456,35.35202],[129.34464,35.35199],[129.34454,35.35199],[129.34456,35.35202]]],[[[129.34461,35.35237],[129.34462,35.35235],[129.3446,35.35236],[129.34461,35.35237]]],[[[129.34212,35.35339],[129.34218,35.35341],[129.34216,35.35337],[129.34212,35.35339]]],[[[129.3344,35.35495],[129.33441,35.35493],[129.33438,35.35493],[129.3344,35.35495]]],[[[129.33424,35.35455],[129.33425,35.35464],[129.33425,35.35455],[129.33424,35.35455]]],[[[129.33405,35.3508],[129.3341,35.35077],[129.33403,35.35077],[129.33405,35.3508]]],[[[129.33421,35.35467],[129.33408,35.35463],[129.33411,35.35473],[129.33421,35.35467]]],[[[129.33415,35.35371],[129.33417,35.35369],[129.33415,35.35369],[129.33415,35.35371]]],[[[129.33402,35.3536],[129.33408,35.35372],[129.33412,35.35361],[129.33402,35.3536]]],[[[129.33392,35.35069],[129.33399,35.35077],[129.33401,35.35071],[129.33392,35.35069]]],[[[129.33382,35.35179],[129.33391,35.35191],[129.33394,35.3519],[129.33382,35.35179]]],[[[129.33397,35.35452],[129.33402,35.35455],[129.334,35.3545],[129.33397,35.35452]]],[[[129.33363,35.35141],[129.33369,35.35153],[129.3338,35.35157],[129.33363,35.35141]]],[[[129.33377,35.35454],[129.3338,35.35455],[129.33378,35.35452],[129.33377,35.35454]]],[[[129.33335,35.34994],[129.33311,35.34971],[129.33305,35.34973],[129.33335,35.34994]]],[[[129.33263,35.3497],[129.33282,35.34981],[129.33292,35.34981],[129.33263,35.3497]]],[[[129.33266,35.34945],[129.3327,35.34951],[129.33273,35.34948],[129.33266,35.34945]]],[[[129.33262,35.34758],[129.33258,35.3477],[129.33262,35.34771],[129.33262,35.34758]]],[[[129.33146,35.34618],[129.33147,35.34616],[129.33145,35.34615],[129.33146,35.34618]]],[[[129.32908,35.34472],[129.32949,35.34485],[129.32906,35.34468],[129.32908,35.34472]]],[[[129.32942,35.34444],[129.3294,35.34455],[129.32943,35.34455],[129.32942,35.34444]]],[[[129.32919,35.34397],[129.32915,35.34388],[129.32912,35.34396],[129.32919,35.34397]]],[[[129.32906,35.34493],[129.32914,35.34504],[129.3292,35.34506],[129.32906,35.34493]]],[[[129.3291,35.34358],[129.32914,35.34357],[129.32912,35.34356],[129.3291,35.34358]]],[[[129.32889,35.3465],[129.32899,35.34664],[129.32911,35.34665],[129.32889,35.3465]]],[[[129.32897,35.34467],[129.32902,35.34466],[129.32897,35.34465],[129.32897,35.34467]]],[[[129.32869,35.34633],[129.32873,35.34654],[129.32884,35.34651],[129.32869,35.34633]]],[[[129.32447,35.3461],[129.32454,35.34608],[129.32448,35.34607],[129.32447,35.3461]]],[[[129.32439,35.34639],[129.32439,35.34636],[129.32436,35.34636],[129.32439,35.34639]]],[[[129.32436,35.34614],[129.32431,35.34612],[129.3243,35.34613],[129.32436,35.34614]]],[[[129.3215,35.3415],[129.32155,35.34132],[129.3214,35.3414],[129.3215,35.3415]]],[[[129.32149,35.34133],[129.32148,35.34123],[129.32141,35.34123],[129.32149,35.34133]]],[[[129.321,35.34358],[129.32085,35.34349],[129.32085,35.34358],[129.321,35.34358]]],[[[129.3207,35.34007],[129.32055,35.33995],[129.32054,35.34004],[129.3207,35.34007]]],[[[129.32011,35.33767],[129.32027,35.33744],[129.31998,35.33742],[129.32011,35.33767]]],[[[129.32002,35.33759],[129.32003,35.33764],[129.32006,35.3376],[129.32002,35.33759]]],[[[129.3199,35.33749],[129.31984,35.33733],[129.31973,35.33744],[129.3199,35.33749]]],[[[129.3193,35.33751],[129.3192,35.33747],[129.31921,35.3375],[129.3193,35.33751]]],[[[129.31913,35.33725],[129.31905,35.33731],[129.31918,35.33728],[129.31913,35.33725]]],[[[129.3191,35.33766],[129.31897,35.33758],[129.31895,35.33763],[129.3191,35.33766]]],[[[129.31898,35.33732],[129.31899,35.33738],[129.31903,35.33737],[129.31898,35.33732]]],[[[129.31895,35.33724],[129.3188,35.33719],[129.31889,35.33734],[129.31895,35.33724]]],[[[129.31633,35.33794],[129.31625,35.33793],[129.31629,35.33798],[129.31633,35.33794]]],[[[129.31625,35.33771],[129.31627,35.33774],[129.31627,35.3377],[129.31625,35.33771]]],[[[129.31585,35.33533],[129.31584,35.3353],[129.31582,35.33533],[129.31585,35.33533]]],[[[129.31582,35.33635],[129.31587,35.33633],[129.31583,35.33631],[129.31582,35.33635]]],[[[129.31579,35.33623],[129.31583,35.33626],[129.31584,35.33623],[129.31579,35.33623]]],[[[129.31558,35.3351],[129.3154,35.3349],[129.31541,35.33508],[129.31558,35.3351]]],[[[129.31543,35.33431],[129.31547,35.33429],[129.31542,35.3343],[129.31543,35.33431]]],[[[129.31518,35.33398],[129.31515,35.33398],[129.31516,35.33398],[129.31518,35.33398]]],[[[129.31495,35.3344],[129.31502,35.33446],[129.31505,35.33441],[129.31495,35.3344]]],[[[129.31488,35.33413],[129.31485,35.33406],[129.3148,35.33411],[129.31488,35.33413]]],[[[129.31395,35.33183],[129.31393,35.3318],[129.31391,35.33183],[129.31395,35.33183]]],[[[129.31355,35.33159],[129.31352,35.33156],[129.31351,35.33159],[129.31355,35.33159]]],[[[129.31343,35.33161],[129.31346,35.33161],[129.31347,35.3316],[129.31343,35.33161]]],[[[129.31334,35.33063],[129.31319,35.33067],[129.31338,35.33072],[129.31334,35.33063]]],[[[129.31333,35.33152],[129.31327,35.33144],[129.31322,35.33151],[129.31333,35.33152]]],[[[129.31296,35.33079],[129.31302,35.3308],[129.31321,35.33058],[129.31302,35.33047],[129.31296,35.33079]]],[[[129.31317,35.33044],[129.31313,35.3304],[129.31317,35.33045],[129.31317,35.33044]]],[[[129.31284,35.32961],[129.31307,35.32972],[129.31264,35.32934],[129.31268,35.32968],[129.31306,35.32987],[129.31284,35.32961]]],[[[129.31227,35.32918],[129.31232,35.32922],[129.31234,35.32918],[129.31227,35.32918]]],[[[129.31216,35.32903],[129.31229,35.3291],[129.3122,35.32901],[129.31216,35.32903]]],[[[129.30668,35.33037],[129.30677,35.33041],[129.30674,35.33036],[129.30668,35.33037]]],[[[129.30666,35.33025],[129.3067,35.33033],[129.30674,35.33033],[129.30666,35.33025]]],[[[129.3058,35.33041],[129.30588,35.33038],[129.30581,35.33037],[129.3058,35.33041]]],[[[129.30527,35.33021],[129.30532,35.3302],[129.30529,35.33018],[129.30527,35.33021]]],[[[129.30526,35.32997],[129.30516,35.32988],[129.30511,35.32997],[129.30526,35.32997]]],[[[129.30521,35.33023],[129.30524,35.33027],[129.30524,35.33021],[129.30521,35.33023]]],[[[129.305,35.32989],[129.30506,35.32992],[129.30507,35.3299],[129.305,35.32989]]]]},"properties":{"id":"SGG:31710","layer":"L3","admin_code":"31710","name":"울산광역시 울주군","sido":"울산광역시","sgg":"울주군","provisional":false,"source":"통계청 행정동 경계(BND_ADM_DONG_PG, 2025-06-30) 를 시군구로 합침","source_kind":"derived","derived_from":"행정동 경계 union · 20 m 단순화"}}]}