{"type":"FeatureCollection","features":[{"type":"Feature","id":"SGG:12790","geometry":{"type":"MultiPolygon","coordinates":[[[[126.26367,34.64362],[126.26715,34.64292],[126.26847,34.64774],[126.26772,34.64869],[126.26724,34.64832],[126.26692,34.64857],[126.26528,34.64861],[126.26357,34.65099],[126.26323,34.65199],[126.2635,34.65288],[126.26298,34.65353],[126.25976,34.6532],[126.25943,34.65383],[126.25954,34.65442],[126.25996,34.65444],[126.25999,34.65479],[126.26093,34.65536],[126.26206,34.65518],[126.26271,34.65548],[126.26304,34.65615],[126.26259,34.65666],[126.2632,34.65771],[126.26319,34.65848],[126.26126,34.65995],[126.26095,34.6598],[126.26058,34.66014],[126.26099,34.66142],[126.25885,34.66305],[126.25755,34.66285],[126.25754,34.66141],[126.25711,34.66125],[126.25744,34.66169],[126.25744,34.6627],[126.25673,34.66232],[126.25638,34.66315],[126.25534,34.66423],[126.25575,34.6654],[126.25567,34.66735],[126.25667,34.66829],[126.2568,34.66804],[126.25798,34.6678],[126.25933,34.66911],[126.25996,34.6701],[126.25949,34.67095],[126.25987,34.67115],[126.26036,34.67258],[126.26037,34.67349],[126.2599,34.67423],[126.25898,34.6747],[126.25819,34.67439],[126.25798,34.67483],[126.25821,34.67527],[126.26041,34.67574],[126.26015,34.67638],[126.25877,34.67746],[126.25623,34.67713],[126.25586,34.6773],[126.25587,34.67801],[126.25523,34.67868],[126.25508,34.67946],[126.2558,34.68046],[126.25675,34.68035],[126.25763,34.68097],[126.25758,34.68322],[126.25844,34.68345],[126.26007,34.68287],[126.26084,34.68397],[126.26079,34.688],[126.26005,34.68776],[126.26001,34.68842],[126.25922,34.68934],[126.2606,34.69068],[126.26054,34.69227],[126.25984,34.69314],[126.25887,34.69302],[126.25822,34.69325],[126.25826,34.69437],[126.26001,34.69695],[126.26,34.69815],[126.2597,34.69863],[126.25906,34.69866],[126.25893,34.69906],[126.259,34.70069],[126.25924,34.70106],[126.26028,34.70135],[126.26071,34.70196],[126.2599,34.70315],[126.2599,34.70367],[126.26034,34.70393],[126.25999,34.70443],[126.26034,34.70476],[126.26083,34.70447],[126.26203,34.70559],[126.26198,34.70599],[126.26151,34.70617],[126.26133,34.70716],[126.2615,34.70767],[126.26201,34.7078],[126.26261,34.7067],[126.26255,34.70565],[126.2637,34.70534],[126.2639,34.70459],[126.26359,34.70418],[126.2649,34.70271],[126.26632,34.7027],[126.26892,34.70165],[126.27148,34.70316],[126.27167,34.70377],[126.27013,34.70575],[126.27168,34.7091],[126.27459,34.71173],[126.27457,34.71261],[126.27535,34.71408],[126.27425,34.7162],[126.27453,34.71744],[126.27555,34.71851],[126.27702,34.71895],[126.27743,34.71936],[126.27851,34.71953],[126.27926,34.7185],[126.27943,34.71733],[126.27996,34.71718],[126.28084,34.71786],[126.27938,34.72138],[126.27822,34.72205],[126.27759,34.72192],[126.277,34.72133],[126.27719,34.72169],[126.2767,34.72194],[126.27581,34.72169],[126.27627,34.72214],[126.27545,34.72257],[126.27582,34.72336],[126.27549,34.72456],[126.27522,34.72511],[126.2744,34.72539],[126.27481,34.72625],[126.27449,34.7278],[126.2751,34.72837],[126.27527,34.72959],[126.27797,34.7332],[126.27823,34.7347],[126.27944,34.73735],[126.28058,34.74216],[126.28267,34.74475],[126.28409,34.74785],[126.28436,34.75044],[126.28467,34.75004],[126.28465,34.75131],[126.28644,34.75528],[126.28635,34.75651],[126.28518,34.75638],[126.28555,34.75665],[126.28536,34.75716],[126.28629,34.75809],[126.28708,34.75771],[126.28901,34.75997],[126.2894,34.76006],[126.28946,34.75974],[126.29103,34.76025],[126.29628,34.76242],[126.29913,34.76191],[126.30022,34.76087],[126.30098,34.76066],[126.30148,34.75973],[126.30268,34.75959],[126.30674,34.75665],[126.30751,34.75642],[126.30857,34.75397],[126.31063,34.75345],[126.31082,34.75257],[126.31057,34.75179],[126.30804,34.75035],[126.30684,34.74853],[126.3076,34.74827],[126.30731,34.74783],[126.31172,34.74587],[126.31386,34.74611],[126.31551,34.74733],[126.31564,34.74799],[126.31742,34.74907],[126.31699,34.7505],[126.31716,34.75078],[126.31761,34.75074],[126.31949,34.74956],[126.32072,34.74796],[126.32022,34.74758],[126.32069,34.74709],[126.3213,34.74741],[126.32399,34.74473],[126.32344,34.74449],[126.32459,34.74385],[126.32495,34.74317],[126.3256,34.74308],[126.32589,34.74334],[126.32739,34.7428],[126.32716,34.74252],[126.326,34.74292],[126.3251,34.74282],[126.32765,34.74177],[126.32893,34.74186],[126.32892,34.74161],[126.32811,34.74148],[126.33072,34.74069],[126.33078,34.74042],[126.33237,34.74047],[126.33265,34.73956],[126.33361,34.73873],[126.33448,34.73848],[126.33476,34.7379],[126.33437,34.73757],[126.33455,34.73733],[126.33395,34.73733],[126.33353,34.73673],[126.33382,34.73595],[126.33246,34.73588],[126.33166,34.7362],[126.33092,34.73563],[126.33038,34.73458],[126.33027,34.73394],[126.33048,34.73353],[126.33091,34.73347],[126.3303,34.73336],[126.33009,34.73287],[126.33045,34.73141],[126.32997,34.72986],[126.33064,34.72787],[126.3301,34.7267],[126.33151,34.72407],[126.33054,34.72084],[126.33073,34.72047],[126.33318,34.71903],[126.33744,34.71863],[126.33937,34.71803],[126.34206,34.71502],[126.34364,34.71442],[126.34301,34.71372],[126.34464,34.71185],[126.34704,34.711],[126.34773,34.71044],[126.34891,34.70865],[126.34933,34.70656],[126.34996,34.70549],[126.34944,34.70228],[126.34849,34.70113],[126.3489,34.70083],[126.3485,34.70097],[126.34761,34.7002],[126.34779,34.70001],[126.34742,34.70019],[126.34707,34.69994],[126.35031,34.69681],[126.35091,34.69725],[126.3509,34.69668],[126.35222,34.69647],[126.35254,34.69618],[126.35237,34.69598],[126.35492,34.69351],[126.35806,34.69343],[126.36264,34.69447],[126.36394,34.69532],[126.36389,34.69578],[126.36312,34.69637],[126.36339,34.69705],[126.36504,34.69792],[126.36623,34.69775],[126.36753,34.69844],[126.36598,34.69918],[126.36621,34.69945],[126.36769,34.69848],[126.36892,34.69884],[126.37159,34.70474],[126.36998,34.70572],[126.37,34.70624],[126.37113,34.70733],[126.37269,34.70691],[126.37495,34.70998],[126.37484,34.71042],[126.37547,34.7104],[126.37475,34.71074],[126.37401,34.7106],[126.37378,34.71087],[126.37551,34.71272],[126.37604,34.71269],[126.37541,34.71314],[126.37638,34.71467],[126.37726,34.7152],[126.37869,34.71455],[126.38161,34.71675],[126.38189,34.71722],[126.38131,34.71766],[126.38147,34.71797],[126.38246,34.71725],[126.38265,34.71731],[126.38164,34.71814],[126.38267,34.71749],[126.38528,34.71977],[126.38481,34.72022],[126.38536,34.72058],[126.38516,34.72102],[126.38588,34.72084],[126.38648,34.7218],[126.38782,34.72586],[126.40446,34.72306],[126.4233,34.71931],[126.46594,34.70868],[126.4928,34.69036],[126.49956,34.68737],[126.54391,34.65784],[126.54977,34.66401],[126.55415,34.66117],[126.55791,34.66528],[126.55981,34.66538],[126.56281,34.66691],[126.5624,34.66824],[126.56358,34.67132],[126.56702,34.6747],[126.56716,34.67604],[126.56883,34.67638],[126.57002,34.67851],[126.57164,34.67809],[126.57336,34.67873],[126.57508,34.67874],[126.57592,34.68005],[126.57801,34.6809],[126.57897,34.67997],[126.58029,34.67976],[126.58541,34.67929],[126.58755,34.67947],[126.58952,34.68045],[126.59331,34.68048],[126.59623,34.68298],[126.60164,34.68361],[126.60369,34.68336],[126.60522,34.68359],[126.607,34.68266],[126.6083,34.68079],[126.60911,34.68063],[126.61414,34.68191],[126.6162,34.68148],[126.62289,34.67882],[126.62486,34.68003],[126.62695,34.67934],[126.62926,34.67741],[126.63079,34.67744],[126.63208,34.67684],[126.63482,34.67427],[126.63541,34.67435],[126.63659,34.67387],[126.63813,34.67393],[126.63912,34.67426],[126.63919,34.675],[126.63971,34.67567],[126.63958,34.67729],[126.64023,34.67883],[126.64119,34.67999],[126.64235,34.68077],[126.64314,34.68267],[126.64711,34.68511],[126.64751,34.68845],[126.65091,34.69005],[126.6536,34.69005],[126.65743,34.68946],[126.6581,34.69023],[126.66039,34.69109],[126.66351,34.69122],[126.66571,34.69192],[126.66749,34.69164],[126.66856,34.69191],[126.67305,34.68886],[126.6747,34.6864],[126.67631,34.68608],[126.67748,34.6855],[126.67998,34.68597],[126.68156,34.68705],[126.68194,34.68769],[126.68278,34.68771],[126.68441,34.68706],[126.68487,34.68649],[126.68724,34.68562],[126.68904,34.68617],[126.69379,34.68551],[126.696,34.68347],[126.69707,34.68345],[126.69734,34.68375],[126.69993,34.68444],[126.70183,34.68387],[126.70569,34.68182],[126.70527,34.68014],[126.70465,34.6796],[126.70444,34.67808],[126.70293,34.6762],[126.70244,34.67475],[126.70084,34.67334],[126.69888,34.67253],[126.69861,34.67182],[126.70009,34.66825],[126.69986,34.66729],[126.70061,34.66728],[126.70188,34.66538],[126.70211,34.66343],[126.70187,34.66227],[126.70174,34.662],[126.69925,34.66171],[126.69781,34.66105],[126.69523,34.66167],[126.69405,34.66105],[126.69315,34.65896],[126.6923,34.65878],[126.69197,34.658],[126.69294,34.65763],[126.69381,34.65631],[126.6963,34.65399],[126.6966,34.65167],[126.69752,34.65087],[126.69733,34.65011],[126.69318,34.64912],[126.69302,34.64772],[126.6923,34.64744],[126.69213,34.64661],[126.69028,34.64494],[126.69024,34.64395],[126.68966,34.64342],[126.68948,34.64176],[126.68858,34.64101],[126.68824,34.63956],[126.68866,34.63874],[126.6879,34.63854],[126.68662,34.63731],[126.68469,34.63685],[126.68454,34.63621],[126.6839,34.63578],[126.68277,34.63247],[126.68787,34.63182],[126.6904,34.63049],[126.69168,34.62902],[126.6934,34.62838],[126.69856,34.63021],[126.69927,34.62986],[126.70081,34.63025],[126.69908,34.62784],[126.69788,34.62705],[126.69589,34.62436],[126.69448,34.62333],[126.69275,34.6233],[126.69199,34.62108],[126.69138,34.62057],[126.69136,34.61952],[126.69026,34.61825],[126.69031,34.61752],[126.68975,34.61673],[126.68996,34.6145],[126.68967,34.61311],[126.68886,34.6116],[126.68882,34.6103],[126.68713,34.60914],[126.68812,34.60777],[126.68712,34.60634],[126.68608,34.60574],[126.68308,34.60266],[126.68116,34.60123],[126.68027,34.60097],[126.67888,34.59996],[126.67862,34.60017],[126.67808,34.59964],[126.67773,34.59976],[126.677,34.59903],[126.67564,34.59846],[126.67514,34.59744],[126.67436,34.597],[126.67258,34.59758],[126.67241,34.5967],[126.67178,34.59604],[126.67293,34.59459],[126.67166,34.59242],[126.67212,34.59132],[126.67315,34.59011],[126.67541,34.58857],[126.67574,34.58753],[126.67708,34.58704],[126.67685,34.58578],[126.67757,34.5852],[126.67892,34.5848],[126.68026,34.58483],[126.68086,34.58301],[126.68025,34.58237],[126.67946,34.58226],[126.67942,34.58159],[126.68068,34.58074],[126.68113,34.57935],[126.68335,34.57792],[126.68277,34.57608],[126.68385,34.57504],[126.68479,34.57461],[126.68553,34.57363],[126.68783,34.57255],[126.68816,34.5711],[126.68889,34.57024],[126.68952,34.57003],[126.68982,34.56919],[126.69103,34.56818],[126.69203,34.56627],[126.69509,34.56395],[126.69443,34.56263],[126.69365,34.56228],[126.6937,34.5606],[126.69288,34.55958],[126.69311,34.55784],[126.69277,34.55635],[126.69174,34.55604],[126.69163,34.55485],[126.69074,34.55416],[126.69084,34.5534],[126.68944,34.55244],[126.6903,34.55132],[126.68776,34.55025],[126.68825,34.54914],[126.68658,34.54893],[126.6859,34.54793],[126.68505,34.54747],[126.68371,34.54538],[126.6803,34.54279],[126.67953,34.54269],[126.67935,34.54188],[126.67807,34.54202],[126.67574,34.54065],[126.67555,34.54007],[126.67494,34.53969],[126.67309,34.53958],[126.6716,34.53876],[126.67083,34.53912],[126.66944,34.53884],[126.66889,34.53911],[126.66713,34.53862],[126.66707,34.53671],[126.66772,34.53563],[126.66866,34.53486],[126.67333,34.53352],[126.67414,34.53235],[126.67413,34.53155],[126.67684,34.53067],[126.67844,34.53059],[126.67934,34.52987],[126.68256,34.52997],[126.68328,34.53045],[126.68449,34.52883],[126.68523,34.52858],[126.68502,34.52715],[126.68635,34.52509],[126.68573,34.52175],[126.68356,34.51941],[126.68223,34.51894],[126.68192,34.51789],[126.68041,34.51591],[126.68194,34.51091],[126.68287,34.51038],[126.68503,34.51044],[126.68595,34.51104],[126.68795,34.51124],[126.68972,34.5102],[126.68672,34.50769],[126.68669,34.50705],[126.68577,34.50588],[126.68591,34.50451],[126.68502,34.50356],[126.68618,34.50146],[126.6863,34.50002],[126.68501,34.49491],[126.68507,34.49328],[126.68569,34.49284],[126.68368,34.49099],[126.68295,34.48943],[126.68342,34.48859],[126.68331,34.48508],[126.68389,34.48287],[126.68355,34.48088],[126.68298,34.48076],[126.68314,34.48028],[126.68287,34.47983],[126.6834,34.4797],[126.68317,34.47748],[126.68361,34.47508],[126.68228,34.47396],[126.68336,34.47248],[126.68359,34.47121],[126.68336,34.4703],[126.68272,34.47042],[126.68213,34.47144],[126.68181,34.47135],[126.68164,34.47075],[126.68233,34.47021],[126.68599,34.46898],[126.68987,34.46808],[126.69164,34.46872],[126.69197,34.47031],[126.69771,34.47109],[126.7166,34.47053],[126.71781,34.46948],[126.71939,34.46632],[126.73496,34.45554],[126.73469,34.45472],[126.73423,34.45456],[126.73446,34.45442],[126.73391,34.4542],[126.72901,34.44786],[126.72945,34.44692],[126.73249,34.44599],[126.73453,34.44666],[126.73465,34.44597],[126.73384,34.44493],[126.73297,34.44503],[126.73144,34.44613],[126.7302,34.44657],[126.72962,34.44629],[126.72967,34.44572],[126.72895,34.44595],[126.72751,34.44558],[126.72461,34.4434],[126.72549,34.44222],[126.72514,34.4416],[126.72534,34.44221],[126.72457,34.44327],[126.72385,34.44292],[126.72471,34.44142],[126.72528,34.44118],[126.72492,34.44107],[126.72371,34.44299],[126.72206,34.44445],[126.71888,34.44553],[126.71517,34.4445],[126.71355,34.44381],[126.71169,34.44235],[126.71157,34.44264],[126.71141,34.44145],[126.71157,34.44141],[126.71199,34.44117],[126.71142,34.44133],[126.71158,34.44056],[126.71331,34.43951],[126.7124,34.44],[126.71202,34.43969],[126.71231,34.44006],[126.71153,34.44046],[126.71129,34.44029],[126.71177,34.43964],[126.71117,34.44026],[126.71059,34.44008],[126.71021,34.43951],[126.70692,34.43926],[126.70544,34.43959],[126.70424,34.44024],[126.70156,34.44018],[126.7017,34.43994],[126.70214,34.43758],[126.70231,34.43496],[126.70247,34.43533],[126.70478,34.43418],[126.70654,34.43378],[126.71043,34.43483],[126.71109,34.43458],[126.71397,34.43576],[126.71557,34.4353],[126.71518,34.43447],[126.71426,34.43447],[126.71275,34.43364],[126.71147,34.43323],[126.70973,34.43317],[126.7095,34.4329],[126.70901,34.43307],[126.70748,34.43267],[126.70692,34.43304],[126.70296,34.43373],[126.70263,34.43205],[126.70287,34.43375],[126.70182,34.43445],[126.70228,34.43497],[126.70138,34.44044],[126.6993,34.44035],[126.69889,34.44061],[126.69727,34.44015],[126.69709,34.43917],[126.69639,34.43886],[126.69692,34.43841],[126.696,34.43897],[126.68867,34.43441],[126.68891,34.43413],[126.68861,34.43436],[126.68798,34.43409],[126.68837,34.43379],[126.68957,34.43373],[126.68853,34.4337],[126.69009,34.43244],[126.68802,34.43134],[126.68646,34.43007],[126.69046,34.42568],[126.69142,34.42428],[126.69137,34.42422],[126.69039,34.42569],[126.6864,34.43004],[126.68553,34.43007],[126.68533,34.42915],[126.68493,34.42872],[126.68537,34.43007],[126.6833,34.42994],[126.6821,34.42756],[126.6825,34.4272],[126.6819,34.42753],[126.68052,34.42645],[126.67873,34.42647],[126.67723,34.42748],[126.67599,34.42759],[126.67478,34.42811],[126.67335,34.42737],[126.67346,34.42685],[126.67446,34.42626],[126.67438,34.42548],[126.67524,34.42386],[126.67632,34.42343],[126.67661,34.42234],[126.67767,34.42214],[126.67839,34.42062],[126.67766,34.41954],[126.67704,34.41954],[126.67641,34.41994],[126.67571,34.41961],[126.67556,34.41888],[126.67639,34.4188],[126.67744,34.41797],[126.67739,34.41669],[126.67658,34.41607],[126.67429,34.41611],[126.67436,34.41492],[126.6741,34.41614],[126.67357,34.41664],[126.67378,34.41893],[126.67088,34.42135],[126.67029,34.4206],[126.6707,34.42146],[126.66811,34.42274],[126.66696,34.42365],[126.6655,34.42589],[126.66558,34.42623],[126.66423,34.42703],[126.6614,34.42599],[126.66024,34.4259],[126.65927,34.42355],[126.6596,34.4223],[126.65923,34.4218],[126.66382,34.42092],[126.66429,34.42059],[126.66477,34.41996],[126.66506,34.41902],[126.66461,34.42009],[126.66379,34.42087],[126.65924,34.42166],[126.6581,34.42103],[126.65816,34.42076],[126.65801,34.42097],[126.65748,34.42082],[126.6577,34.42028],[126.65692,34.42095],[126.65709,34.42075],[126.65731,34.41995],[126.65716,34.41949],[126.65752,34.41816],[126.65753,34.41707],[126.65711,34.41426],[126.65655,34.41416],[126.65628,34.41373],[126.65644,34.41417],[126.65709,34.41441],[126.65747,34.41708],[126.65746,34.41807],[126.65715,34.419],[126.65702,34.42076],[126.65585,34.42123],[126.65481,34.42113],[126.65372,34.42172],[126.65217,34.42187],[126.65183,34.42261],[126.6524,34.42333],[126.65221,34.42361],[126.65063,34.42325],[126.65069,34.42288],[126.65018,34.42274],[126.64993,34.42213],[126.65014,34.42025],[126.65099,34.41914],[126.6512,34.41708],[126.65105,34.41762],[126.64976,34.41803],[126.64787,34.41785],[126.64709,34.41825],[126.64702,34.41861],[126.64612,34.41833],[126.64631,34.41658],[126.64724,34.41534],[126.64762,34.41324],[126.64816,34.41315],[126.64842,34.41298],[126.64823,34.41376],[126.64895,34.41334],[126.64904,34.4127],[126.652,34.41295],[126.65335,34.41245],[126.6524,34.4114],[126.65165,34.41179],[126.65174,34.41249],[126.65102,34.41272],[126.64903,34.41263],[126.64934,34.41231],[126.6484,34.41186],[126.64873,34.41269],[126.6477,34.41314],[126.6473,34.41288],[126.6459,34.41296],[126.64565,34.41265],[126.64488,34.41275],[126.64394,34.41195],[126.6464,34.40955],[126.64775,34.40951],[126.64809,34.40932],[126.64865,34.40859],[126.65017,34.40804],[126.65023,34.40791],[126.64851,34.40862],[126.64771,34.40947],[126.6468,34.40938],[126.6464,34.40949],[126.64615,34.40967],[126.64615,34.40902],[126.64573,34.40864],[126.64463,34.40974],[126.64367,34.40993],[126.64176,34.40948],[126.64005,34.41035],[126.63885,34.41142],[126.63744,34.41165],[126.63639,34.41137],[126.63589,34.41191],[126.63497,34.41204],[126.63399,34.4111],[126.63466,34.41007],[126.63409,34.41079],[126.63389,34.41046],[126.63311,34.41032],[126.63259,34.40984],[126.63226,34.40873],[126.63318,34.40841],[126.63355,34.40859],[126.63412,34.40782],[126.63411,34.40668],[126.6336,34.40659],[126.63228,34.40724],[126.63125,34.40696],[126.63382,34.40645],[126.63355,34.40542],[126.63375,34.40641],[126.6312,34.40687],[126.63038,34.40619],[126.62992,34.40525],[126.63092,34.40481],[126.62987,34.40515],[126.62971,34.40373],[126.62857,34.40263],[126.62883,34.40214],[126.62846,34.40246],[126.62801,34.40201],[126.62708,34.40225],[126.62718,34.40247],[126.62609,34.40359],[126.62551,34.40342],[126.62535,34.40422],[126.62251,34.40635],[126.62055,34.40558],[126.61957,34.40462],[126.61981,34.40395],[126.61911,34.40445],[126.61863,34.40419],[126.61765,34.40295],[126.61806,34.40258],[126.61709,34.4029],[126.61627,34.40265],[126.61601,34.40203],[126.61675,34.40149],[126.61635,34.40049],[126.61657,34.40022],[126.61696,34.40002],[126.61744,34.40047],[126.61803,34.40055],[126.62073,34.39933],[126.62058,34.39866],[126.621,34.39863],[126.62097,34.39816],[126.62068,34.39848],[126.62026,34.39843],[126.62021,34.39807],[126.62076,34.3972],[126.6217,34.39706],[126.62143,34.39686],[126.6217,34.39648],[126.62013,34.39424],[126.62074,34.39395],[126.62273,34.39226],[126.62074,34.3938],[126.61985,34.39245],[126.61722,34.3917],[126.61634,34.39091],[126.61617,34.39015],[126.61528,34.38904],[126.61332,34.38802],[126.61249,34.38692],[126.61369,34.38624],[126.6125,34.38687],[126.61111,34.38609],[126.6126,34.38464],[126.61376,34.38031],[126.61388,34.38034],[126.61388,34.38069],[126.61413,34.381],[126.61524,34.38168],[126.61535,34.38153],[126.61398,34.38075],[126.61397,34.37931],[126.61589,34.37899],[126.62031,34.37899],[126.62089,34.37847],[126.62161,34.37836],[126.62207,34.37816],[126.62236,34.37769],[126.62203,34.37811],[126.62095,34.37841],[126.62073,34.37791],[126.62252,34.37743],[126.62067,34.37779],[126.61878,34.37534],[126.61886,34.37454],[126.61838,34.37358],[126.61836,34.37272],[126.6202,34.37107],[126.62023,34.37069],[126.62144,34.37049],[126.62024,34.37063],[126.61992,34.37041],[126.61999,34.3698],[126.62045,34.36971],[126.62053,34.36941],[126.62006,34.36926],[126.61981,34.3695],[126.61978,34.36875],[126.61846,34.36778],[126.61872,34.36703],[126.61817,34.36619],[126.61851,34.36583],[126.61776,34.36603],[126.61748,34.36564],[126.617,34.3656],[126.61693,34.36536],[126.61735,34.36517],[126.61694,34.3648],[126.61663,34.36478],[126.61652,34.36518],[126.61591,34.36549],[126.61517,34.36513],[126.61551,34.36469],[126.61519,34.36449],[126.61618,34.36382],[126.61657,34.36443],[126.61779,34.3645],[126.61798,34.36476],[126.61903,34.36428],[126.61947,34.36362],[126.61919,34.36291],[126.61972,34.3621],[126.61936,34.36108],[126.62034,34.35916],[126.62085,34.35885],[126.6203,34.35904],[126.62012,34.35861],[126.61862,34.35817],[126.61604,34.35687],[126.61506,34.35697],[126.61463,34.35613],[126.61521,34.35579],[126.61524,34.35492],[126.6146,34.35411],[126.61352,34.35363],[126.61199,34.35395],[126.61123,34.35361],[126.60765,34.35066],[126.60705,34.34986],[126.60716,34.34944],[126.60431,34.35047],[126.60316,34.35011],[126.60201,34.34906],[126.60083,34.34885],[126.60197,34.34844],[126.60265,34.3473],[126.60271,34.34629],[126.6043,34.34526],[126.60653,34.34474],[126.60861,34.34524],[126.60951,34.34496],[126.6088,34.34486],[126.60866,34.34455],[126.60918,34.34295],[126.61046,34.3424],[126.61124,34.34169],[126.61207,34.34182],[126.61131,34.34143],[126.61056,34.3417],[126.61029,34.34222],[126.60959,34.34204],[126.60881,34.34291],[126.60842,34.3428],[126.60837,34.34217],[126.60882,34.34164],[126.60857,34.34172],[126.60872,34.34152],[126.60809,34.34095],[126.60654,34.34088],[126.60546,34.3404],[126.60416,34.33961],[126.60347,34.33869],[126.60346,34.33756],[126.60481,34.33745],[126.60501,34.33662],[126.60456,34.33617],[126.6047,34.33588],[126.6044,34.33604],[126.60455,34.33573],[126.60412,34.33588],[126.60333,34.33547],[126.60396,34.33594],[126.60383,34.3373],[126.60248,34.33759],[126.60098,34.33704],[126.60041,34.33608],[126.60324,34.33481],[126.60044,34.33596],[126.59883,34.3354],[126.59986,34.33526],[126.60082,34.33467],[126.60101,34.33341],[126.60359,34.33339],[126.60365,34.3337],[126.60397,34.33327],[126.60404,34.33068],[126.60268,34.32908],[126.60368,34.32791],[126.60346,34.32729],[126.60251,34.32677],[126.60177,34.32546],[126.60188,34.32486],[126.60273,34.32443],[126.60296,34.3235],[126.60215,34.32312],[126.60179,34.32112],[126.60106,34.32002],[126.60104,34.31976],[126.60223,34.31937],[126.60103,34.31967],[126.60106,34.31903],[126.60148,34.31839],[126.60171,34.31857],[126.60283,34.31835],[126.60253,34.31947],[126.60304,34.31816],[126.60462,34.31753],[126.60533,34.31758],[126.60484,34.31733],[126.60563,34.3165],[126.6061,34.31646],[126.60578,34.31632],[126.60601,34.31595],[126.60563,34.3151],[126.60477,34.3148],[126.60419,34.31522],[126.60257,34.31554],[126.6007,34.31448],[126.59893,34.31223],[126.59844,34.3125],[126.59809,34.3123],[126.59803,34.31257],[126.5967,34.31249],[126.59386,34.31362],[126.59076,34.31573],[126.58959,34.317],[126.58896,34.31678],[126.58966,34.31712],[126.58856,34.31864],[126.58755,34.31931],[126.58597,34.3198],[126.58174,34.32003],[126.57973,34.32059],[126.5777,34.32074],[126.57583,34.32072],[126.57497,34.31988],[126.57476,34.32023],[126.57312,34.32072],[126.5722,34.32038],[126.5683,34.32117],[126.56733,34.32106],[126.56711,34.32053],[126.56677,34.32072],[126.56628,34.32051],[126.56489,34.3211],[126.56525,34.32196],[126.56495,34.32176],[126.56268,34.32212],[126.55951,34.32191],[126.55962,34.3207],[126.55921,34.32067],[126.55942,34.32199],[126.5589,34.32194],[126.55819,34.32155],[126.55891,34.3207],[126.55814,34.32144],[126.55758,34.32122],[126.55731,34.32052],[126.5564,34.32029],[126.55607,34.31965],[126.55479,34.31895],[126.55403,34.31661],[126.55372,34.31723],[126.55303,34.31692],[126.55442,34.316],[126.55428,34.31565],[126.55299,34.31688],[126.55218,34.31644],[126.55136,34.31414],[126.55145,34.31283],[126.55093,34.31267],[126.55063,34.31169],[126.55002,34.31113],[126.54961,34.30908],[126.54841,34.30874],[126.5478,34.30759],[126.54727,34.30752],[126.5468,34.30702],[126.54611,34.30576],[126.54539,34.30522],[126.54464,34.3031],[126.5434,34.30301],[126.54291,34.30342],[126.54199,34.30289],[126.54099,34.30297],[126.5409,34.30276],[126.54039,34.30327],[126.53724,34.30375],[126.53562,34.30339],[126.53443,34.30213],[126.53122,34.30175],[126.53116,34.30139],[126.53016,34.30082],[126.52905,34.30058],[126.52887,34.30015],[126.52947,34.29855],[126.53026,34.29854],[126.5304,34.29908],[126.53236,34.29975],[126.53096,34.29901],[126.53025,34.29768],[126.53031,34.29821],[126.52984,34.29821],[126.52946,34.29754],[126.52819,34.29686],[126.52834,34.29352],[126.52756,34.29296],[126.52592,34.29281],[126.52504,34.29228],[126.52396,34.29226],[126.52332,34.29268],[126.52166,34.29282],[126.52136,34.29308],[126.52207,34.29506],[126.52136,34.29586],[126.51929,34.29589],[126.51916,34.29556],[126.51802,34.29555],[126.51781,34.29503],[126.51644,34.29523],[126.51646,34.29582],[126.51698,34.2964],[126.51669,34.29718],[126.51746,34.29862],[126.51713,34.30006],[126.51739,34.30096],[126.51672,34.3041],[126.51585,34.3055],[126.51492,34.306],[126.51561,34.30708],[126.51587,34.30685],[126.51557,34.30651],[126.51608,34.30618],[126.51644,34.3065],[126.51633,34.30606],[126.51694,34.30612],[126.51744,34.30661],[126.5161,34.30771],[126.51609,34.30888],[126.51735,34.30907],[126.51731,34.30964],[126.51952,34.31032],[126.51974,34.31149],[126.51923,34.31335],[126.51827,34.3151],[126.51705,34.31628],[126.51669,34.31645],[126.51603,34.31612],[126.51612,34.31567],[126.51526,34.31579],[126.51542,34.31528],[126.51506,34.3158],[126.51445,34.31577],[126.51503,34.31726],[126.51401,34.31813],[126.5133,34.31816],[126.51316,34.31861],[126.51231,34.31915],[126.51255,34.31976],[126.5137,34.32065],[126.51499,34.32059],[126.51592,34.32102],[126.51617,34.32204],[126.5168,34.32229],[126.51651,34.32401],[126.5157,34.32399],[126.51543,34.32352],[126.51565,34.3241],[126.51711,34.32435],[126.51793,34.32379],[126.51843,34.32394],[126.51886,34.3246],[126.5185,34.3239],[126.51799,34.32374],[126.51834,34.32307],[126.52101,34.32424],[126.52148,34.32558],[126.52076,34.32597],[126.52216,34.32708],[126.52199,34.32738],[126.52234,34.32737],[126.52179,34.32798],[126.523,34.32775],[126.52292,34.32812],[126.5234,34.32806],[126.52278,34.32843],[126.52322,34.32849],[126.52398,34.3279],[126.52394,34.32814],[126.52345,34.32853],[126.52145,34.32874],[126.51886,34.32835],[126.5184,34.32887],[126.52401,34.32868],[126.52341,34.32903],[126.52367,34.32913],[126.52456,34.32887],[126.52616,34.33153],[126.52596,34.33214],[126.52644,34.33252],[126.52666,34.33349],[126.526,34.33379],[126.52658,34.33363],[126.52692,34.33444],[126.52629,34.33682],[126.5252,34.3388],[126.52456,34.33959],[126.52396,34.33969],[126.52386,34.34034],[126.52238,34.34148],[126.52043,34.34031],[126.51901,34.33982],[126.51841,34.33897],[126.51632,34.33852],[126.51575,34.33911],[126.51605,34.33958],[126.51761,34.33963],[126.51974,34.34016],[126.52224,34.34156],[126.52159,34.34247],[126.52104,34.34231],[126.52153,34.34282],[126.52048,34.34454],[126.51914,34.34449],[126.51915,34.34482],[126.52037,34.34464],[126.5206,34.3454],[126.52189,34.34598],[126.52218,34.34725],[126.5221,34.34812],[126.52126,34.34901],[126.52167,34.3493],[126.5211,34.34946],[126.5205,34.35058],[126.52014,34.35077],[126.52007,34.35051],[126.51983,34.3514],[126.52032,34.35185],[126.5202,34.3521],[126.52071,34.35241],[126.5211,34.35229],[126.52148,34.3531],[126.52119,34.35421],[126.52162,34.35428],[126.52172,34.35483],[126.52163,34.35714],[126.52106,34.35758],[126.52021,34.35774],[126.52021,34.35818],[126.51764,34.35768],[126.51879,34.35796],[126.52003,34.35909],[126.5201,34.35934],[126.51966,34.35961],[126.52014,34.35978],[126.51965,34.35971],[126.51935,34.3595],[126.51913,34.3596],[126.51931,34.35956],[126.51951,34.35972],[126.52017,34.35989],[126.51919,34.35969],[126.52011,34.36036],[126.51974,34.36027],[126.51989,34.36084],[126.51636,34.36304],[126.51424,34.36388],[126.51389,34.36331],[126.51412,34.36387],[126.51323,34.36429],[126.51244,34.36382],[126.51267,34.36447],[126.51055,34.36515],[126.50701,34.36531],[126.50656,34.3647],[126.50681,34.36532],[126.50652,34.36579],[126.50602,34.36569],[126.50583,34.36446],[126.5058,34.36562],[126.50212,34.36475],[126.50135,34.36403],[126.50179,34.3629],[126.50145,34.36237],[126.50178,34.36058],[126.50121,34.35966],[126.50125,34.35908],[126.50102,34.35963],[126.4996,34.35921],[126.49964,34.35802],[126.49905,34.35773],[126.49854,34.35694],[126.49768,34.35718],[126.49701,34.35827],[126.49556,34.35857],[126.49517,34.35833],[126.49527,34.35805],[126.49454,34.35815],[126.49319,34.3562],[126.49245,34.35595],[126.49236,34.35614],[126.4932,34.35645],[126.49491,34.35937],[126.49312,34.35977],[126.49072,34.35957],[126.48989,34.35901],[126.48979,34.35834],[126.49039,34.35797],[126.48971,34.35754],[126.48975,34.35721],[126.48815,34.35596],[126.48632,34.35544],[126.48634,34.35511],[126.48522,34.35466],[126.48545,34.3543],[126.4815,34.35402],[126.48063,34.35316],[126.47921,34.35414],[126.47904,34.35402],[126.47841,34.35297],[126.47847,34.3525],[126.4791,34.3523],[126.47927,34.35191],[126.47852,34.35104],[126.4787,34.35008],[126.47817,34.34932],[126.47761,34.34917],[126.47647,34.34816],[126.47482,34.34822],[126.47617,34.34836],[126.47655,34.35034],[126.47452,34.35076],[126.47316,34.35003],[126.47342,34.3497],[126.47295,34.34889],[126.47401,34.34818],[126.47367,34.34794],[126.47251,34.34865],[126.4722,34.34852],[126.47203,34.34886],[126.47111,34.3484],[126.47089,34.34854],[126.47105,34.34973],[126.47061,34.3507],[126.471,34.35226],[126.47153,34.35279],[126.47136,34.35327],[126.47057,34.35442],[126.46875,34.35563],[126.46838,34.35642],[126.46723,34.35656],[126.46572,34.35798],[126.46598,34.35802],[126.466,34.35867],[126.46553,34.35935],[126.46578,34.36051],[126.46525,34.36082],[126.46523,34.36159],[126.46469,34.36216],[126.46524,34.36259],[126.46689,34.36274],[126.46771,34.36351],[126.46819,34.36351],[126.47098,34.36118],[126.47103,34.36053],[126.47273,34.35846],[126.47494,34.3569],[126.47531,34.35556],[126.47651,34.35552],[126.47949,34.35691],[126.48107,34.35819],[126.48122,34.35852],[126.48091,34.3588],[126.48127,34.35862],[126.47989,34.36056],[126.47921,34.36083],[126.47711,34.36297],[126.47608,34.36452],[126.47615,34.36484],[126.47745,34.36475],[126.47811,34.36403],[126.4787,34.36402],[126.47884,34.36331],[126.48023,34.3613],[126.48065,34.36123],[126.48169,34.36144],[126.48202,34.36183],[126.48173,34.36373],[126.48219,34.36474],[126.48314,34.36475],[126.48592,34.36346],[126.48696,34.36456],[126.48406,34.36636],[126.48347,34.36718],[126.4804,34.36818],[126.48008,34.36985],[126.478,34.3701],[126.47689,34.372],[126.47557,34.37276],[126.47588,34.37308],[126.47657,34.37306],[126.47762,34.37252],[126.47922,34.374],[126.48066,34.37384],[126.48126,34.37495],[126.48108,34.37606],[126.47802,34.37673],[126.47564,34.37691],[126.47397,34.3776],[126.47344,34.37831],[126.47362,34.37886],[126.47441,34.37949],[126.47654,34.37953],[126.47715,34.38062],[126.47852,34.38128],[126.48006,34.38138],[126.48036,34.38169],[126.48017,34.38134],[126.48085,34.38133],[126.48118,34.38198],[126.48098,34.38272],[126.47727,34.38322],[126.47555,34.38205],[126.47587,34.38159],[126.47596,34.38116],[126.47558,34.38189],[126.47501,34.38171],[126.47335,34.38248],[126.47141,34.38259],[126.47071,34.38335],[126.47237,34.38545],[126.47184,34.38443],[126.47338,34.38327],[126.47417,34.3834],[126.47618,34.38454],[126.47627,34.38491],[126.47712,34.38536],[126.47734,34.38658],[126.47785,34.38695],[126.47837,34.38691],[126.47863,34.38599],[126.48085,34.38512],[126.48186,34.38529],[126.48395,34.38666],[126.48306,34.38927],[126.48414,34.3888],[126.48563,34.38717],[126.48583,34.38626],[126.4866,34.38587],[126.48754,34.38575],[126.48891,34.38623],[126.49001,34.38626],[126.49548,34.3842],[126.49735,34.38556],[126.49812,34.38895],[126.49711,34.38945],[126.49584,34.38958],[126.49438,34.39047],[126.49454,34.39108],[126.4935,34.39178],[126.49311,34.39245],[126.49074,34.39216],[126.494,34.39288],[126.49426,34.39337],[126.49408,34.39428],[126.49266,34.39498],[126.49168,34.39495],[126.49095,34.39452],[126.49041,34.39467],[126.48903,34.39662],[126.49028,34.39824],[126.49006,34.3997],[126.4892,34.40042],[126.4875,34.40037],[126.48669,34.40106],[126.48686,34.40203],[126.48962,34.40258],[126.4911,34.40375],[126.49112,34.40429],[126.49192,34.40499],[126.49054,34.40603],[126.49034,34.40526],[126.49017,34.40551],[126.48965,34.4054],[126.48954,34.40414],[126.48958,34.40543],[126.48891,34.40539],[126.48881,34.40424],[126.4888,34.40598],[126.48735,34.40771],[126.48722,34.40835],[126.48874,34.40947],[126.48932,34.40921],[126.48935,34.40853],[126.49135,34.40882],[126.49355,34.40833],[126.49418,34.40782],[126.49495,34.40641],[126.49785,34.40558],[126.505,34.40533],[126.50558,34.40649],[126.50839,34.40621],[126.50737,34.40751],[126.50877,34.40846],[126.51036,34.41068],[126.51144,34.41065],[126.51393,34.4132],[126.51529,34.41292],[126.5159,34.41335],[126.5162,34.41411],[126.51653,34.41394],[126.51679,34.41424],[126.51083,34.42491],[126.50991,34.42473],[126.50946,34.42434],[126.50974,34.42471],[126.50957,34.42499],[126.50899,34.42424],[126.50939,34.42416],[126.50874,34.42408],[126.50921,34.42486],[126.50823,34.42412],[126.50813,34.42418],[126.50912,34.42493],[126.50823,34.42668],[126.50844,34.42854],[126.5096,34.4297],[126.51045,34.43126],[126.51255,34.43226],[126.51286,34.43217],[126.51405,34.43329],[126.51354,34.43489],[126.51194,34.43702],[126.50962,34.43899],[126.50731,34.44011],[126.50698,34.44071],[126.50582,34.44026],[126.50539,34.43976],[126.50414,34.43944],[126.50365,34.43881],[126.50001,34.43703],[126.4997,34.43624],[126.49944,34.43606],[126.49962,34.43646],[126.49828,34.43502],[126.49806,34.4322],[126.49766,34.43178],[126.49723,34.43191],[126.49638,34.4316],[126.49639,34.43106],[126.49614,34.4316],[126.49425,34.4322],[126.49407,34.43261],[126.49382,34.43241],[126.49287,34.43281],[126.49262,34.43417],[126.49111,34.43474],[126.48737,34.43495],[126.4858,34.43425],[126.4847,34.43433],[126.48374,34.43377],[126.48102,34.43045],[126.48217,34.42929],[126.48264,34.42656],[126.48408,34.42595],[126.48424,34.42563],[126.48314,34.42618],[126.48232,34.42561],[126.4827,34.42483],[126.48351,34.42461],[126.48338,34.42439],[126.48254,34.4247],[126.48159,34.4259],[126.47989,34.42619],[126.47801,34.42714],[126.47639,34.42697],[126.47617,34.42764],[126.47563,34.42787],[126.47598,34.42872],[126.47581,34.42929],[126.4726,34.4322],[126.47024,34.43633],[126.46603,34.44133],[126.4654,34.44147],[126.46262,34.44437],[126.45964,34.44535],[126.45901,34.44512],[126.45897,34.44584],[126.4584,34.44649],[126.45633,34.44775],[126.45493,34.44805],[126.45426,34.44877],[126.45471,34.45011],[126.45624,34.44939],[126.45851,34.44935],[126.4598,34.44976],[126.46,34.45027],[126.46084,34.45042],[126.4626,34.4518],[126.4647,34.45403],[126.46482,34.45451],[126.4651,34.45393],[126.46468,34.45341],[126.46599,34.45257],[126.4666,34.45118],[126.46667,34.44996],[126.46869,34.44793],[126.47053,34.44782],[126.47188,34.44695],[126.47298,34.44685],[126.47508,34.44776],[126.47531,34.44835],[126.47759,34.45012],[126.47549,34.45273],[126.47253,34.45421],[126.47147,34.45548],[126.46995,34.45604],[126.46948,34.45583],[126.46942,34.45609],[126.46797,34.45671],[126.46701,34.45616],[126.46787,34.45684],[126.46802,34.4583],[126.46864,34.45946],[126.46853,34.46001],[126.46789,34.46054],[126.46785,34.46183],[126.46751,34.46194],[126.46951,34.46236],[126.47203,34.46845],[126.46985,34.47027],[126.46683,34.47113],[126.46552,34.4703],[126.46478,34.46932],[126.4638,34.46864],[126.46342,34.46869],[126.46312,34.46806],[126.46224,34.46771],[126.46299,34.46813],[126.46323,34.46871],[126.46289,34.4695],[126.46096,34.47054],[126.46046,34.47148],[126.45891,34.47209],[126.4592,34.47291],[126.45808,34.47424],[126.45816,34.47472],[126.45557,34.47734],[126.45594,34.47856],[126.45592,34.47956],[126.45546,34.48043],[126.45585,34.48222],[126.45634,34.48187],[126.464,34.48173],[126.46502,34.48251],[126.46638,34.48537],[126.46474,34.48566],[126.46405,34.48606],[126.4632,34.48793],[126.46015,34.4903],[126.45737,34.48873],[126.45611,34.48941],[126.45682,34.49035],[126.4581,34.4905],[126.45879,34.49009],[126.46006,34.49067],[126.46007,34.4912],[126.46167,34.49165],[126.46261,34.49372],[126.46307,34.4938],[126.46308,34.4945],[126.4647,34.49508],[126.46493,34.49559],[126.46464,34.49654],[126.46223,34.498],[126.46135,34.49708],[126.4604,34.49674],[126.45896,34.49686],[126.45848,34.49811],[126.45723,34.49912],[126.45718,34.50051],[126.45636,34.50075],[126.45636,34.50163],[126.45672,34.50198],[126.45718,34.50178],[126.45792,34.50233],[126.4588,34.50237],[126.46114,34.50392],[126.46508,34.50383],[126.46683,34.50423],[126.47122,34.50688],[126.46408,34.51705],[126.46417,34.51752],[126.46251,34.51999],[126.46159,34.51998],[126.46213,34.52057],[126.46122,34.52086],[126.4609,34.52026],[126.45974,34.52038],[126.45925,34.52003],[126.45919,34.51951],[126.45878,34.51984],[126.4572,34.51941],[126.45574,34.51983],[126.45685,34.51992],[126.45833,34.52226],[126.45729,34.52335],[126.45604,34.52377],[126.45472,34.52311],[126.45467,34.52272],[126.45392,34.52215],[126.45461,34.52045],[126.45395,34.52179],[126.45249,34.52287],[126.44909,34.52189],[126.4476,34.52207],[126.44585,34.52157],[126.44333,34.52192],[126.44228,34.52166],[126.44179,34.52202],[126.44266,34.52372],[126.44248,34.52435],[126.4432,34.52459],[126.44266,34.52618],[126.44272,34.52688],[126.44319,34.52716],[126.44499,34.52672],[126.44531,34.527],[126.44609,34.52699],[126.44734,34.52779],[126.44822,34.5277],[126.44879,34.52826],[126.44963,34.52811],[126.45048,34.52844],[126.45053,34.52783],[126.45099,34.52777],[126.45312,34.5286],[126.45373,34.52849],[126.4546,34.52945],[126.45564,34.53003],[126.45676,34.53013],[126.45793,34.52978],[126.46046,34.53201],[126.45658,34.5356],[126.45498,34.53597],[126.45398,34.53499],[126.45308,34.53481],[126.45237,34.53557],[126.44985,34.53644],[126.44879,34.53565],[126.44903,34.53519],[126.44811,34.53563],[126.44705,34.53546],[126.44665,34.53605],[126.44759,34.53663],[126.44709,34.53744],[126.44331,34.53935],[126.44006,34.53819],[126.43992,34.5375],[126.44023,34.53683],[126.43945,34.53588],[126.43757,34.53617],[126.43747,34.53594],[126.43686,34.53625],[126.4357,34.53528],[126.43539,34.5346],[126.43553,34.5352],[126.43424,34.53522],[126.43405,34.53505],[126.43445,34.53429],[126.4343,34.53399],[126.43378,34.53485],[126.43437,34.53546],[126.43464,34.53662],[126.43802,34.53766],[126.43841,34.5385],[126.43819,34.54053],[126.43726,34.54083],[126.43682,34.5405],[126.43656,34.53944],[126.43568,34.53913],[126.43399,34.53937],[126.43399,34.5397],[126.43481,34.54027],[126.43605,34.54058],[126.43624,34.54191],[126.43506,34.54331],[126.43366,34.54415],[126.43284,34.54407],[126.43232,34.54474],[126.43232,34.54523],[126.43433,34.54638],[126.43578,34.54828],[126.43573,34.55037],[126.43504,34.55033],[126.43238,34.55164],[126.43069,34.55362],[126.43018,34.55554],[126.4299,34.55528],[126.42916,34.55545],[126.42719,34.55488],[126.42441,34.55563],[126.42393,34.55527],[126.41984,34.55446],[126.41943,34.55415],[126.41975,34.55448],[126.41729,34.55565],[126.41589,34.55684],[126.41592,34.55726],[126.41521,34.55825],[126.41512,34.55772],[126.41502,34.55816],[126.41472,34.55791],[126.41676,34.55457],[126.41746,34.55416],[126.41813,34.55316],[126.41778,34.55257],[126.41954,34.55122],[126.41782,34.55238],[126.418,34.5519],[126.41767,34.55074],[126.41825,34.55006],[126.4183,34.54923],[126.41753,34.54885],[126.41727,34.5483],[126.41818,34.54799],[126.41773,34.54741],[126.41813,34.54713],[126.41614,34.54672],[126.41546,34.54602],[126.41528,34.54655],[126.41363,34.54693],[126.41398,34.54755],[126.41343,34.5479],[126.40927,34.54839],[126.407,34.5467],[126.40584,34.54739],[126.40447,34.54733],[126.4044,34.54665],[126.40351,34.5457],[126.40362,34.54651],[126.40225,34.54675],[126.4024,34.54578],[126.40335,34.5454],[126.40307,34.54519],[126.40252,34.54539],[126.40164,34.54487],[126.40105,34.54577],[126.3992,34.54687],[126.40041,34.54539],[126.40112,34.5448],[126.40168,34.54476],[126.40224,34.54413],[126.40184,34.54389],[126.40099,34.54443],[126.4003,34.54451],[126.40144,34.54374],[126.40207,34.54223],[126.40343,34.5415],[126.40316,34.54033],[126.40395,34.54016],[126.40284,34.54026],[126.40315,34.53902],[126.40166,34.53797],[126.40059,34.53774],[126.39999,34.53695],[126.39908,34.53694],[126.39835,34.53544],[126.39849,34.53643],[126.39899,34.53706],[126.39829,34.5374],[126.39702,34.53743],[126.39714,34.53664],[126.39774,34.53668],[126.39695,34.53614],[126.39782,34.53542],[126.39701,34.53597],[126.39429,34.53446],[126.39129,34.5339],[126.39082,34.53298],[126.38999,34.53243],[126.38858,34.53211],[126.38752,34.53223],[126.38643,34.53251],[126.38614,34.53338],[126.38479,34.53388],[126.38505,34.53434],[126.38487,34.5348],[126.38234,34.53552],[126.3824,34.53662],[126.3811,34.53673],[126.38078,34.53726],[126.37989,34.53738],[126.37968,34.53796],[126.37886,34.53829],[126.37847,34.53908],[126.379,34.53955],[126.3807,34.53899],[126.38041,34.53985],[126.37947,34.53993],[126.37926,34.54027],[126.38094,34.541],[126.38127,34.54269],[126.38188,34.54284],[126.38386,34.54222],[126.38386,34.54244],[126.38494,34.54274],[126.38552,34.54482],[126.38523,34.54521],[126.38573,34.54616],[126.38778,34.54702],[126.3883,34.54944],[126.388,34.54977],[126.38844,34.5504],[126.38942,34.55079],[126.38907,34.55248],[126.38738,34.55273],[126.38701,34.55312],[126.38516,34.55281],[126.3846,34.55306],[126.38422,34.55451],[126.3848,34.5554],[126.38572,34.55604],[126.38545,34.55929],[126.38374,34.56005],[126.38376,34.56102],[126.38333,34.56184],[126.37983,34.56296],[126.37952,34.56265],[126.37694,34.56215],[126.37524,34.56102],[126.3751,34.56043],[126.37556,34.55926],[126.375,34.55872],[126.37309,34.55958],[126.37234,34.56103],[126.36967,34.56106],[126.36924,34.561],[126.36912,34.55993],[126.36858,34.55976],[126.36676,34.56069],[126.36389,34.56061],[126.36391,34.55971],[126.36418,34.55965],[126.36373,34.55908],[126.3643,34.55877],[126.36459,34.55835],[126.36389,34.55885],[126.3626,34.55865],[126.36226,34.55912],[126.36283,34.56092],[126.36103,34.56292],[126.36033,34.56428],[126.35591,34.56591],[126.35373,34.5646],[126.35467,34.56558],[126.35514,34.5668],[126.35396,34.56899],[126.35434,34.56902],[126.35455,34.56998],[126.35313,34.57046],[126.35246,34.56941],[126.35275,34.56812],[126.35191,34.56734],[126.35097,34.56731],[126.3489,34.56814],[126.3472,34.56801],[126.34602,34.56825],[126.34554,34.56916],[126.34233,34.57012],[126.34106,34.56971],[126.34033,34.57096],[126.33402,34.57338],[126.33232,34.57161],[126.33112,34.57152],[126.33071,34.57055],[126.32942,34.56991],[126.3294,34.56917],[126.32932,34.56964],[126.329,34.56961],[126.3293,34.56973],[126.32922,34.57009],[126.32855,34.57016],[126.3276,34.56914],[126.32492,34.56896],[126.3235,34.56939],[126.32229,34.56924],[126.32152,34.57025],[126.31868,34.56917],[126.31907,34.56852],[126.31884,34.56828],[126.31764,34.56863],[126.31669,34.56815],[126.31599,34.56704],[126.31465,34.56706],[126.31401,34.56672],[126.31311,34.56883],[126.31253,34.56896],[126.31228,34.56937],[126.31064,34.56962],[126.31118,34.57091],[126.31098,34.57119],[126.30985,34.57144],[126.30828,34.57279],[126.30764,34.57247],[126.30665,34.57256],[126.30564,34.57332],[126.3084,34.575],[126.30922,34.57655],[126.30794,34.57729],[126.30672,34.57716],[126.30604,34.57738],[126.30574,34.57711],[126.3058,34.57645],[126.30639,34.57609],[126.30524,34.57579],[126.30478,34.57521],[126.30457,34.57552],[126.30482,34.57665],[126.30414,34.5768],[126.30377,34.5773],[126.30453,34.57916],[126.30544,34.57929],[126.30704,34.5804],[126.30744,34.58032],[126.30785,34.58112],[126.30936,34.58115],[126.31001,34.58224],[126.31007,34.58315],[126.31125,34.58329],[126.31199,34.58398],[126.31331,34.58611],[126.3127,34.58777],[126.31016,34.58824],[126.30912,34.58703],[126.30993,34.5884],[126.30967,34.5883],[126.30938,34.58878],[126.30813,34.58895],[126.30815,34.58919],[126.30756,34.58907],[126.30762,34.58933],[126.30683,34.5897],[126.30698,34.58986],[126.30603,34.59068],[126.30525,34.59046],[126.3051,34.59003],[126.30475,34.59054],[126.30327,34.59014],[126.30094,34.59046],[126.30027,34.58997],[126.29924,34.59025],[126.29837,34.59185],[126.29701,34.5927],[126.29889,34.59424],[126.29891,34.59492],[126.29773,34.59498],[126.29745,34.5954],[126.2977,34.59597],[126.29844,34.59643],[126.2988,34.59858],[126.29534,34.60071],[126.2938,34.59949],[126.29442,34.59915],[126.295,34.59814],[126.29454,34.59727],[126.29464,34.59657],[126.29325,34.59495],[126.29269,34.59343],[126.29176,34.5927],[126.29213,34.59185],[126.28991,34.59249],[126.28752,34.59407],[126.28661,34.59409],[126.28584,34.59333],[126.28539,34.59341],[126.28524,34.59441],[126.28462,34.59514],[126.2837,34.59547],[126.28318,34.59493],[126.28107,34.59507],[126.28015,34.59542],[126.27934,34.59652],[126.28021,34.5977],[126.27987,34.59817],[126.28035,34.59974],[126.27993,34.60021],[126.28026,34.60027],[126.28063,34.59956],[126.28206,34.59907],[126.28293,34.59973],[126.2835,34.6011],[126.28337,34.60293],[126.28279,34.60341],[126.28201,34.60338],[126.28381,34.6042],[126.28425,34.60398],[126.28593,34.60435],[126.28727,34.60421],[126.28788,34.60492],[126.28773,34.60557],[126.28327,34.60843],[126.28219,34.60815],[126.28138,34.60959],[126.28056,34.60989],[126.28053,34.6118],[126.27993,34.6115],[126.27925,34.61168],[126.27266,34.61084],[126.27191,34.61155],[126.27042,34.61168],[126.26985,34.61039],[126.26844,34.61058],[126.26737,34.60963],[126.26451,34.60974],[126.26389,34.60887],[126.26343,34.60883],[126.26162,34.60942],[126.26166,34.60982],[126.26228,34.61029],[126.26194,34.61082],[126.26098,34.61108],[126.26098,34.61149],[126.26032,34.61188],[126.259,34.61215],[126.25943,34.61237],[126.26187,34.6121],[126.26297,34.61143],[126.26251,34.61074],[126.26335,34.61053],[126.26375,34.61115],[126.2649,34.6112],[126.26549,34.61188],[126.26697,34.61254],[126.2676,34.61338],[126.26745,34.61394],[126.26801,34.61403],[126.26833,34.61448],[126.2696,34.61508],[126.27063,34.61475],[126.27108,34.61507],[126.26965,34.61272],[126.26958,34.61206],[126.26994,34.61179],[126.27069,34.61179],[126.2707,34.61217],[126.27213,34.61317],[126.27235,34.6126],[126.27301,34.61246],[126.27488,34.61326],[126.27592,34.61325],[126.27679,34.61267],[126.27768,34.61284],[126.27785,34.61169],[126.27989,34.61194],[126.28031,34.61247],[126.28157,34.61301],[126.28191,34.61356],[126.28176,34.61405],[126.28309,34.61531],[126.28278,34.61619],[126.28356,34.6164],[126.28428,34.61789],[126.28347,34.61973],[126.28258,34.61987],[126.28217,34.61952],[126.28249,34.61995],[126.28201,34.62045],[126.28195,34.62106],[126.28067,34.62147],[126.28056,34.62181],[126.2811,34.62215],[126.2824,34.62204],[126.28307,34.62168],[126.28448,34.62274],[126.2851,34.62283],[126.28551,34.62216],[126.28662,34.62196],[126.28853,34.62061],[126.2895,34.62072],[126.29003,34.62139],[126.28962,34.62248],[126.28898,34.62271],[126.28877,34.62317],[126.28896,34.62404],[126.28867,34.62437],[126.28755,34.62445],[126.28868,34.62519],[126.29006,34.62775],[126.29092,34.62747],[126.29417,34.62942],[126.29384,34.62971],[126.29414,34.63025],[126.29333,34.63049],[126.2938,34.6308],[126.29358,34.63129],[126.29261,34.63182],[126.29231,34.63313],[126.29115,34.63399],[126.29037,34.63494],[126.29029,34.63553],[126.28862,34.63586],[126.28583,34.63434],[126.28542,34.63346],[126.28566,34.6327],[126.28535,34.63272],[126.28666,34.63229],[126.28695,34.63173],[126.28578,34.63137],[126.28558,34.63087],[126.2847,34.63074],[126.28465,34.6303],[126.28389,34.63024],[126.28287,34.63066],[126.28236,34.6301],[126.28049,34.6302],[126.28022,34.63038],[126.28058,34.63074],[126.27973,34.63098],[126.27923,34.63086],[126.27911,34.62992],[126.27896,34.6303],[126.27781,34.63037],[126.27747,34.62984],[126.27771,34.63068],[126.27853,34.63089],[126.27822,34.63203],[126.27567,34.63208],[126.27487,34.63252],[126.2737,34.63254],[126.27306,34.63338],[126.27241,34.63287],[126.27182,34.63295],[126.27034,34.63426],[126.27057,34.63515],[126.27031,34.63546],[126.26976,34.63554],[126.26951,34.63486],[126.26962,34.63546],[126.2693,34.63569],[126.26839,34.63561],[126.26861,34.63593],[126.2676,34.63776],[126.26717,34.63766],[126.26482,34.63856],[126.26465,34.63835],[126.26385,34.63853],[126.26261,34.63942],[126.26239,34.64024],[126.26056,34.64066],[126.25986,34.6428],[126.25995,34.64524],[126.26033,34.64547],[126.26205,34.64505],[126.26367,34.64362]]],[[[126.73378,34.43475],[126.73296,34.43446],[126.73269,34.43464],[126.73357,34.43492],[126.73378,34.43475]]],[[[126.68171,34.42472],[126.68207,34.42411],[126.68155,34.42343],[126.68095,34.42381],[126.68089,34.42466],[126.68171,34.42472]]],[[[126.6471,34.40449],[126.64739,34.40391],[126.64708,34.40374],[126.64511,34.40391],[126.64486,34.40424],[126.64498,34.40458],[126.64578,34.40491],[126.6471,34.40449]]],[[[126.62106,34.37158],[126.62103,34.37167],[126.62107,34.37166],[126.62106,34.37158]]],[[[126.62101,34.37155],[126.62102,34.37158],[126.62103,34.37158],[126.62101,34.37155]]],[[[126.62072,34.37189],[126.62072,34.37153],[126.62058,34.37186],[126.62072,34.37189]]],[[[126.62091,34.37138],[126.62084,34.37145],[126.62085,34.37146],[126.62091,34.37138]]],[[[126.62074,34.37148],[126.62078,34.37151],[126.62076,34.37148],[126.62074,34.37148]]],[[[126.62068,34.36987],[126.6207,34.37024],[126.62077,34.37023],[126.62068,34.36987]]],[[[126.61946,34.33677],[126.61969,34.33649],[126.61894,34.33638],[126.61889,34.33675],[126.61946,34.33677]]],[[[126.61624,34.34058],[126.61779,34.34032],[126.61924,34.33865],[126.61887,34.3371],[126.61712,34.33729],[126.6163,34.33812],[126.61612,34.34026],[126.61624,34.34058]]],[[[126.61076,34.34146],[126.6105,34.34151],[126.61053,34.34159],[126.6106,34.34161],[126.61076,34.34146]]],[[[126.61056,34.34142],[126.61039,34.34136],[126.61044,34.34148],[126.61056,34.34142]]],[[[126.61035,34.32045],[126.60985,34.3202],[126.60963,34.32052],[126.61032,34.32085],[126.61035,34.32045]]],[[[126.61013,34.34194],[126.60986,34.34181],[126.60983,34.34196],[126.61013,34.34194]]],[[[126.60914,34.34185],[126.60915,34.34161],[126.609,34.34181],[126.60914,34.34185]]],[[[126.60902,34.35147],[126.60887,34.35148],[126.60898,34.35158],[126.60902,34.35147]]],[[[126.60749,34.35017],[126.60742,34.35022],[126.60749,34.35022],[126.60749,34.35017]]],[[[126.60729,34.34926],[126.60709,34.34925],[126.6073,34.34928],[126.60729,34.34926]]],[[[126.60723,34.34921],[126.60724,34.34925],[126.60729,34.3492],[126.60723,34.34921]]],[[[126.60724,34.34965],[126.60726,34.34967],[126.60727,34.34966],[126.60724,34.34965]]],[[[126.60714,34.34963],[126.60717,34.34965],[126.60717,34.34963],[126.60714,34.34963]]],[[[126.60353,34.33348],[126.60335,34.33366],[126.60354,34.33365],[126.60353,34.33348]]],[[[126.59963,34.31182],[126.59947,34.31211],[126.59971,34.3123],[126.59989,34.31197],[126.59963,34.31182]]],[[[126.52118,34.35382],[126.52116,34.35391],[126.5212,34.35383],[126.52118,34.35382]]],[[[126.52115,34.354],[126.52112,34.35395],[126.52111,34.35399],[126.52115,34.354]]],[[[126.52107,34.35399],[126.52103,34.3539],[126.52101,34.35396],[126.52107,34.35399]]],[[[126.51569,34.34537],[126.51441,34.34401],[126.51424,34.34329],[126.51345,34.34326],[126.51362,34.34371],[126.51417,34.34398],[126.51358,34.34453],[126.51372,34.34507],[126.51481,34.34503],[126.51569,34.34537]]],[[[126.50273,34.35554],[126.50229,34.35511],[126.50196,34.35553],[126.50247,34.3557],[126.50273,34.35554]]],[[[126.50203,34.35494],[126.50253,34.35472],[126.50252,34.35456],[126.50202,34.35468],[126.50203,34.35494]]],[[[126.48915,34.41009],[126.48843,34.40963],[126.48815,34.40975],[126.48835,34.4113],[126.48915,34.41009]]],[[[126.46453,34.34583],[126.46763,34.34401],[126.47062,34.34339],[126.47122,34.3435],[126.47325,34.34281],[126.47443,34.34306],[126.47654,34.34532],[126.47655,34.34503],[126.47672,34.34525],[126.47771,34.34457],[126.47796,34.34226],[126.47643,34.34203],[126.47518,34.34004],[126.47698,34.33781],[126.47642,34.3382],[126.47524,34.33768],[126.47494,34.3372],[126.47534,34.33814],[126.47446,34.33862],[126.47377,34.3382],[126.47329,34.33739],[126.47322,34.33633],[126.47353,34.33578],[126.4749,34.33587],[126.47553,34.33561],[126.47548,34.33515],[126.47474,34.33463],[126.4749,34.33368],[126.47563,34.33285],[126.47513,34.33281],[126.47434,34.33176],[126.47415,34.33124],[126.47243,34.33189],[126.47231,34.33323],[126.47069,34.33448],[126.47111,34.33549],[126.47191,34.33599],[126.47165,34.33695],[126.46855,34.33835],[126.46785,34.33911],[126.46621,34.34008],[126.46651,34.34074],[126.46521,34.34306],[126.46545,34.34378],[126.46494,34.34479],[126.46385,34.34539],[126.46453,34.34583]]],[[[126.47785,34.33767],[126.47742,34.33594],[126.47725,34.33589],[126.47655,34.33699],[126.47735,34.33705],[126.47785,34.33767]]],[[[126.47742,34.33298],[126.47618,34.33299],[126.4759,34.33317],[126.47637,34.33359],[126.47726,34.33347],[126.47742,34.33298]]],[[[126.47711,34.34634],[126.47709,34.34637],[126.47712,34.34636],[126.47711,34.34634]]],[[[126.47664,34.34661],[126.47667,34.34664],[126.47666,34.34661],[126.47664,34.34661]]],[[[126.47334,34.37269],[126.47542,34.37124],[126.47611,34.37118],[126.47492,34.37063],[126.47413,34.3706],[126.47241,34.37082],[126.47154,34.37163],[126.47166,34.37207],[126.47334,34.37269]]],[[[126.47441,34.33173],[126.47444,34.33176],[126.47447,34.33174],[126.47441,34.33173]]],[[[126.47345,34.33123],[126.47349,34.33123],[126.47347,34.33121],[126.47345,34.33123]]],[[[126.47166,34.33352],[126.47159,34.3336],[126.47171,34.33354],[126.47166,34.33352]]],[[[126.47006,34.38249],[126.47139,34.3824],[126.47131,34.38183],[126.47064,34.38061],[126.46894,34.3803],[126.46839,34.3798],[126.46746,34.37996],[126.46767,34.38042],[126.46863,34.38048],[126.4685,34.38116],[126.47006,34.38249]]],[[[126.47096,34.36146],[126.47099,34.36142],[126.47098,34.36141],[126.47096,34.36146]]],[[[126.47087,34.36144],[126.47092,34.36142],[126.47088,34.36142],[126.47087,34.36144]]],[[[126.4708,34.36147],[126.47084,34.36145],[126.47081,34.36144],[126.4708,34.36147]]],[[[126.47081,34.36142],[126.4708,34.36139],[126.47079,34.36142],[126.47081,34.36142]]],[[[126.47018,34.33754],[126.47015,34.33759],[126.47019,34.33755],[126.47018,34.33754]]],[[[126.47006,34.33761],[126.47008,34.33762],[126.4701,34.33761],[126.47006,34.33761]]],[[[126.46793,34.3441],[126.46803,34.34413],[126.46803,34.34408],[126.46793,34.3441]]],[[[126.46371,34.42977],[126.46546,34.42899],[126.4656,34.42664],[126.46415,34.42671],[126.46211,34.42508],[126.46092,34.42523],[126.46013,34.42575],[126.4599,34.42641],[126.46024,34.42633],[126.4604,34.42677],[126.46227,34.42768],[126.463,34.42895],[126.46259,34.42943],[126.46302,34.42981],[126.46371,34.42977]]],[[[126.46312,34.4954],[126.46254,34.49518],[126.46249,34.49561],[126.46273,34.49573],[126.46312,34.4954]]],[[[126.4629,34.36347],[126.46313,34.36251],[126.46256,34.36202],[126.46152,34.3631],[126.4629,34.36347]]],[[[126.45264,34.53273],[126.45112,34.53229],[126.45099,34.53317],[126.45151,34.53342],[126.45205,34.53314],[126.45199,34.53269],[126.45264,34.53273]]],[[[126.44094,34.52515],[126.44127,34.52401],[126.44097,34.52365],[126.4404,34.52384],[126.44019,34.52457],[126.44027,34.52502],[126.44094,34.52515]]],[[[126.435,34.43566],[126.43694,34.4346],[126.43778,34.43448],[126.43912,34.43561],[126.4382,34.43443],[126.43872,34.43417],[126.44095,34.43403],[126.44137,34.43481],[126.44106,34.43401],[126.44174,34.43245],[126.44137,34.43208],[126.44159,34.43202],[126.44106,34.43209],[126.44105,34.4319],[126.44051,34.43229],[126.43928,34.43228],[126.43816,34.43183],[126.43807,34.43129],[126.43773,34.43146],[126.43761,34.43125],[126.43551,34.4311],[126.43503,34.43032],[126.43549,34.42968],[126.43477,34.42916],[126.43312,34.43175],[126.4332,34.4324],[126.43279,34.43293],[126.43343,34.43248],[126.43431,34.43254],[126.43598,34.43336],[126.43519,34.43396],[126.43619,34.43359],[126.43658,34.43376],[126.43662,34.4343],[126.43528,34.43448],[126.43462,34.43503],[126.435,34.43566]]],[[[126.43997,34.42906],[126.44092,34.42865],[126.44069,34.4278],[126.43978,34.4281],[126.43945,34.42864],[126.43997,34.42906]]],[[[126.43075,34.44019],[126.43225,34.43935],[126.43422,34.4389],[126.43471,34.43803],[126.43524,34.43773],[126.43562,34.43788],[126.43535,34.43663],[126.43513,34.43717],[126.4348,34.43681],[126.43507,34.4366],[126.43471,34.4367],[126.43413,34.43633],[126.43434,34.43577],[126.43409,34.43583],[126.43323,34.43516],[126.43325,34.4347],[126.43255,34.43462],[126.43252,34.43419],[126.43195,34.43394],[126.43214,34.43357],[126.43177,34.43388],[126.42919,34.43353],[126.42815,34.43384],[126.42808,34.43417],[126.42925,34.43445],[126.4298,34.435],[126.43089,34.43513],[126.43249,34.43634],[126.43102,34.43726],[126.43229,34.43739],[126.43172,34.43861],[126.43013,34.43926],[126.42994,34.43963],[126.43075,34.44019]]],[[[126.42329,34.44692],[126.42505,34.44695],[126.42594,34.44586],[126.42671,34.44562],[126.42787,34.44467],[126.42891,34.44435],[126.42925,34.44391],[126.42912,34.44334],[126.42785,34.44309],[126.42706,34.44362],[126.42663,34.44439],[126.42431,34.44478],[126.42329,34.44692]]],[[[126.42676,34.53106],[126.4268,34.53139],[126.42708,34.53145],[126.4271,34.53118],[126.42676,34.53106]]],[[[126.42651,34.53151],[126.4262,34.53164],[126.42565,34.53129],[126.42535,34.53216],[126.42638,34.53237],[126.42651,34.53151]]],[[[126.42659,34.44408],[126.42639,34.44425],[126.42669,34.44419],[126.42659,34.44408]]],[[[126.42532,34.53804],[126.42514,34.53668],[126.42387,34.53603],[126.42378,34.53537],[126.42332,34.53525],[126.42324,34.53563],[126.42369,34.53597],[126.42304,34.53635],[126.42316,34.53689],[126.42456,34.53803],[126.42532,34.53804]]],[[[126.41918,34.54666],[126.42465,34.54621],[126.42486,34.54611],[126.41808,34.54626],[126.41844,34.54716],[126.41918,34.54666]]],[[[126.42319,34.53438],[126.42305,34.53477],[126.42362,34.53499],[126.42359,34.53454],[126.42319,34.53438]]],[[[126.41228,34.46694],[126.41458,34.46552],[126.41631,34.46223],[126.4175,34.46121],[126.41868,34.459],[126.4187,34.4581],[126.41899,34.45774],[126.41948,34.45779],[126.4193,34.4574],[126.42071,34.45562],[126.42094,34.45352],[126.41997,34.45281],[126.42015,34.45141],[126.41943,34.45173],[126.41927,34.45142],[126.41911,34.45165],[126.41856,34.4514],[126.41791,34.45171],[126.41768,34.45229],[126.41654,34.45232],[126.41612,34.45285],[126.41618,34.45339],[126.41541,34.45394],[126.41453,34.45404],[126.41477,34.45434],[126.4134,34.45565],[126.4135,34.45659],[126.41359,34.45603],[126.41406,34.45598],[126.41456,34.45645],[126.41497,34.4563],[126.41504,34.45708],[126.41518,34.45629],[126.41642,34.4554],[126.41692,34.45521],[126.41762,34.45545],[126.41801,34.45627],[126.41752,34.45742],[126.41824,34.45793],[126.41715,34.45911],[126.41648,34.45943],[126.41578,34.45916],[126.41468,34.45932],[126.41458,34.45857],[126.41345,34.45888],[126.4119,34.46055],[126.41179,34.46114],[126.41276,34.46142],[126.41247,34.46267],[126.41354,34.46276],[126.41392,34.4633],[126.41306,34.46442],[126.41304,34.4655],[126.41243,34.46614],[126.41228,34.46694]]],[[[126.41865,34.45136],[126.41845,34.4513],[126.41844,34.45137],[126.41865,34.45136]]],[[[126.38658,34.54928],[126.38633,34.54956],[126.3866,34.5499],[126.38747,34.55007],[126.38708,34.54939],[126.38658,34.54928]]],[[[126.38448,34.5487],[126.38394,34.54814],[126.3831,34.54849],[126.38309,34.54919],[126.38448,34.5487]]],[[[126.36835,34.70718],[126.3679,34.70712],[126.36794,34.70758],[126.36879,34.70818],[126.36896,34.70801],[126.36835,34.70718]]],[[[126.36529,34.703],[126.36559,34.70357],[126.36588,34.70363],[126.36567,34.70254],[126.36529,34.703]]],[[[126.36377,34.70469],[126.36405,34.70492],[126.36428,34.70489],[126.36425,34.70454],[126.36377,34.70469]]],[[[126.33939,34.72387],[126.34007,34.72494],[126.34056,34.7253],[126.34094,34.72518],[126.34062,34.72411],[126.33939,34.72387]]],[[[126.33816,34.73267],[126.33772,34.7325],[126.33797,34.73292],[126.33816,34.73267]]],[[[126.33103,34.56788],[126.33078,34.56571],[126.33132,34.56319],[126.33008,34.5633],[126.32941,34.56376],[126.32826,34.56376],[126.32733,34.56215],[126.32543,34.56222],[126.32303,34.56095],[126.32172,34.55953],[126.32065,34.55908],[126.31989,34.55939],[126.32013,34.56152],[126.32141,34.56326],[126.32138,34.56397],[126.32044,34.56436],[126.32331,34.5668],[126.32398,34.56668],[126.32455,34.56607],[126.32552,34.56668],[126.32682,34.56682],[126.32746,34.56643],[126.32843,34.56768],[126.3296,34.56753],[126.32953,34.56789],[126.33059,34.56824],[126.33103,34.56788]]],[[[126.31929,34.56227],[126.31812,34.562],[126.31732,34.56281],[126.31793,34.56329],[126.31902,34.56327],[126.3194,34.56284],[126.31929,34.56227]]],[[[126.305,34.58842],[126.30666,34.58716],[126.30679,34.58625],[126.30654,34.58558],[126.30508,34.58419],[126.30419,34.58442],[126.3029,34.58414],[126.30257,34.58443],[126.30267,34.58541],[126.3024,34.58539],[126.30195,34.58384],[126.30114,34.58265],[126.30004,34.58258],[126.30022,34.58186],[126.29971,34.58126],[126.29892,34.58102],[126.29868,34.58144],[126.29729,34.58178],[126.29735,34.58244],[126.298,34.58252],[126.29846,34.58321],[126.29913,34.58564],[126.29892,34.58635],[126.2993,34.58689],[126.30073,34.58767],[126.30095,34.58818],[126.30374,34.58879],[126.305,34.58842]]],[[[126.27583,34.59698],[126.27656,34.59673],[126.27679,34.59647],[126.27573,34.59662],[126.27583,34.59698]]],[[[126.27304,34.60965],[126.27326,34.60951],[126.27308,34.60947],[126.27304,34.60965]]],[[[126.27312,34.60933],[126.27315,34.60939],[126.27318,34.60935],[126.27312,34.60933]]],[[[126.27257,34.61028],[126.27293,34.61051],[126.27311,34.61032],[126.27286,34.6102],[126.27257,34.61028]]],[[[126.26071,34.61064],[126.26051,34.61021],[126.25901,34.61008],[126.26,34.6109],[126.26071,34.61064]]],[[[126.25379,34.66911],[126.2535,34.66861],[126.25266,34.66846],[126.25274,34.6689],[126.25379,34.66911]]],[[[126.25245,34.65401],[126.25228,34.65243],[126.25151,34.65214],[126.25147,34.65363],[126.25205,34.65407],[126.25245,34.65401]]],[[[126.25109,34.67591],[126.25072,34.67484],[126.24972,34.67502],[126.24971,34.67574],[126.25109,34.67591]]],[[[126.24682,34.70186],[126.24667,34.70159],[126.24578,34.7016],[126.2465,34.70196],[126.24682,34.70186]]],[[[126.2414,34.70054],[126.24224,34.70041],[126.24304,34.70066],[126.24398,34.70034],[126.24415,34.6978],[126.24249,34.69784],[126.2417,34.69726],[126.24094,34.69728],[126.24059,34.69813],[126.24114,34.69883],[126.23916,34.70105],[126.23937,34.70124],[126.23996,34.70097],[126.24004,34.70132],[126.2414,34.70054]]]]},"properties":{"id":"SGG:12790","layer":"L3","admin_code":"12790","name":"전남광주통합특별시 해남군","sido":"전남광주통합특별시","sgg":"해남군","provisional":false,"source":"통계청 행정동 경계(BND_ADM_DONG_PG, 2025-06-30) 를 시군구로 합침","source_kind":"derived","derived_from":"행정동 경계 union · 20 m 단순화"}}]}