{"type":"FeatureCollection","features":[{"type":"Feature","id":"SGG:52190","geometry":{"type":"MultiPolygon","coordinates":[[[[127.42141,35.35087],[127.42046,35.34847],[127.42062,35.347],[127.42017,35.34523],[127.41899,35.34386],[127.4186,35.3426],[127.41771,35.34145],[127.41654,35.34094],[127.41574,35.33729],[127.41508,35.336],[127.4116,35.33329],[127.41152,35.3322],[127.41073,35.33083],[127.40957,35.32981],[127.40956,35.3287],[127.4088,35.32757],[127.40609,35.32442],[127.40513,35.32384],[127.40116,35.32272],[127.39919,35.31986],[127.39911,35.31686],[127.3967,35.31426],[127.39277,35.31273],[127.39248,35.31045],[127.39316,35.30916],[127.3927,35.30735],[127.38952,35.306],[127.38891,35.30437],[127.38457,35.30246],[127.38204,35.30362],[127.38193,35.30395],[127.38009,35.30368],[127.37836,35.30806],[127.37775,35.30871],[127.37664,35.31131],[127.37552,35.3122],[127.37067,35.3146],[127.36769,35.31416],[127.36618,35.31524],[127.36564,35.31647],[127.36422,35.31596],[127.36332,35.31639],[127.35993,35.31944],[127.35911,35.32056],[127.35855,35.32062],[127.3581,35.3211],[127.35581,35.32141],[127.35426,35.32236],[127.35268,35.32142],[127.35228,35.32069],[127.35013,35.32027],[127.34841,35.31864],[127.34808,35.31862],[127.34743,35.31934],[127.34641,35.31896],[127.34632,35.31838],[127.34442,35.31828],[127.34341,35.31772],[127.34302,35.31818],[127.34135,35.31734],[127.34048,35.31787],[127.33941,35.31785],[127.33878,35.31754],[127.33865,35.31666],[127.33708,35.31566],[127.33646,35.31491],[127.33567,35.3149],[127.33462,35.31553],[127.33339,35.31501],[127.3324,35.31518],[127.33069,35.3149],[127.33006,35.31391],[127.33039,35.31217],[127.32946,35.31105],[127.32877,35.31092],[127.32639,35.30923],[127.32558,35.31047],[127.32347,35.30741],[127.32217,35.30727],[127.31972,35.30638],[127.31454,35.30602],[127.3133,35.30531],[127.3112,35.30469],[127.3071,35.30451],[127.3061,35.30461],[127.3046,35.30527],[127.2988,35.3096],[127.29517,35.31089],[127.29095,35.31337],[127.28671,35.31402],[127.27892,35.31385],[127.2721,35.31303],[127.27022,35.31305],[127.26567,35.31371],[127.26322,35.31315],[127.26162,35.31223],[127.25717,35.31246],[127.25312,35.31451],[127.25128,35.31693],[127.25082,35.31817],[127.24714,35.321],[127.24344,35.32284],[127.24097,35.32505],[127.23868,35.32769],[127.23553,35.32923],[127.2343,35.33077],[127.2337,35.33258],[127.23179,35.33374],[127.22629,35.33392],[127.22205,35.33489],[127.22079,35.33481],[127.21979,35.33413],[127.21702,35.33111],[127.21576,35.32871],[127.21568,35.32441],[127.21397,35.32045],[127.21318,35.32068],[127.21308,35.32049],[127.21381,35.32013],[127.21271,35.31735],[127.21177,35.31642],[127.20974,35.31557],[127.20425,35.31556],[127.19905,35.31665],[127.19677,35.3193],[127.18777,35.32256],[127.1881,35.32314],[127.18676,35.32384],[127.18476,35.32611],[127.18391,35.32988],[127.18422,35.33221],[127.18477,35.33352],[127.18673,35.33618],[127.1878,35.33685],[127.1933,35.33813],[127.19457,35.33887],[127.1943,35.33978],[127.19372,35.34012],[127.18979,35.34161],[127.18781,35.34183],[127.1871,35.34248],[127.18806,35.3488],[127.18939,35.35107],[127.19158,35.35354],[127.19308,35.3564],[127.19434,35.35654],[127.1961,35.35741],[127.19622,35.35772],[127.1989,35.3574],[127.20001,35.35765],[127.20092,35.35649],[127.20176,35.35699],[127.20341,35.35906],[127.20408,35.35925],[127.20415,35.36012],[127.20462,35.3608],[127.20663,35.36164],[127.20655,35.36234],[127.207,35.36282],[127.20717,35.36384],[127.20839,35.36465],[127.20879,35.36567],[127.21146,35.36761],[127.21341,35.36845],[127.21416,35.36848],[127.21499,35.36938],[127.21474,35.36983],[127.21659,35.3716],[127.217,35.37165],[127.2166,35.37198],[127.21594,35.37188],[127.21498,35.37232],[127.21428,35.37222],[127.21395,35.37278],[127.21369,35.37252],[127.21356,35.37252],[127.21427,35.37309],[127.21181,35.37312],[127.21431,35.37544],[127.21448,35.37572],[127.21373,35.37663],[127.21533,35.37844],[127.21993,35.38534],[127.21993,35.38641],[127.22079,35.38804],[127.2215,35.3885],[127.22233,35.39161],[127.22338,35.39318],[127.22462,35.39669],[127.22607,35.39877],[127.22772,35.39901],[127.22992,35.39863],[127.23158,35.39832],[127.23321,35.39749],[127.23397,35.39817],[127.23582,35.39906],[127.23665,35.40008],[127.23718,35.40009],[127.23883,35.39916],[127.24143,35.39907],[127.24542,35.39826],[127.24589,35.39828],[127.2471,35.39917],[127.24738,35.40163],[127.24781,35.4019],[127.24765,35.40222],[127.24877,35.40433],[127.24881,35.40516],[127.24946,35.40573],[127.24971,35.4076],[127.25062,35.40892],[127.24941,35.40955],[127.25026,35.41082],[127.25024,35.41281],[127.25056,35.41402],[127.25125,35.41458],[127.25097,35.4152],[127.2517,35.41732],[127.25257,35.41813],[127.2546,35.41876],[127.25506,35.42068],[127.2574,35.42119],[127.25784,35.42331],[127.25748,35.4239],[127.25832,35.42429],[127.25856,35.42519],[127.26014,35.42697],[127.26274,35.42643],[127.26831,35.42368],[127.26939,35.42288],[127.2718,35.42224],[127.27281,35.42179],[127.27371,35.42086],[127.27436,35.42075],[127.27542,35.42089],[127.27732,35.42423],[127.27832,35.42476],[127.27906,35.42435],[127.28078,35.4246],[127.28348,35.42448],[127.28453,35.42401],[127.28622,35.42465],[127.2881,35.4245],[127.28921,35.42572],[127.29107,35.42609],[127.29159,35.4265],[127.2965,35.4334],[127.2967,35.43517],[127.29729,35.43565],[127.29741,35.43743],[127.29685,35.43799],[127.29703,35.43851],[127.29649,35.43953],[127.29729,35.44054],[127.29717,35.44093],[127.29788,35.44139],[127.29746,35.44224],[127.29784,35.44282],[127.2977,35.44348],[127.29823,35.44416],[127.2979,35.44471],[127.29997,35.44603],[127.30164,35.44904],[127.30647,35.45286],[127.30653,35.45382],[127.30809,35.45548],[127.30773,35.45707],[127.30871,35.45855],[127.30952,35.45901],[127.30963,35.46019],[127.31085,35.46128],[127.31119,35.4621],[127.31103,35.46302],[127.31228,35.46292],[127.31378,35.46369],[127.31427,35.46622],[127.31254,35.46846],[127.31116,35.46933],[127.31072,35.4714],[127.31015,35.47172],[127.31055,35.47255],[127.31023,35.47327],[127.31048,35.47472],[127.31027,35.47607],[127.30892,35.47703],[127.30808,35.4798],[127.30717,35.48063],[127.30729,35.48143],[127.30811,35.48233],[127.3082,35.48374],[127.30712,35.48412],[127.30738,35.48473],[127.30705,35.48528],[127.30798,35.48766],[127.3078,35.48896],[127.30954,35.49005],[127.30939,35.49071],[127.31034,35.49349],[127.31152,35.49564],[127.31396,35.49671],[127.31434,35.49623],[127.31788,35.49515],[127.31878,35.49363],[127.31964,35.49345],[127.32391,35.49535],[127.32566,35.49571],[127.32786,35.49471],[127.33046,35.49296],[127.33041,35.49323],[127.33119,35.49265],[127.33122,35.49217],[127.33364,35.49189],[127.3363,35.49364],[127.33779,35.49402],[127.33892,35.49392],[127.34051,35.49495],[127.34068,35.49571],[127.34169,35.4966],[127.34309,35.49637],[127.34441,35.49666],[127.34689,35.49644],[127.34754,35.49704],[127.34911,35.49718],[127.35046,35.49667],[127.35286,35.4974],[127.3534,35.49791],[127.35309,35.49829],[127.35369,35.49877],[127.35381,35.49971],[127.355,35.50082],[127.35626,35.49994],[127.35645,35.50084],[127.357,35.50096],[127.35633,35.50242],[127.35607,35.5047],[127.35513,35.50562],[127.35519,35.50683],[127.35472,35.50776],[127.35499,35.50874],[127.35481,35.51074],[127.35394,35.51178],[127.35375,35.51304],[127.35276,35.51356],[127.35166,35.5148],[127.35074,35.51517],[127.34765,35.51745],[127.346,35.51786],[127.34458,35.51977],[127.34301,35.52028],[127.33984,35.52379],[127.33773,35.5255],[127.33774,35.52779],[127.34023,35.5275],[127.34068,35.52594],[127.34252,35.52592],[127.34542,35.52724],[127.34541,35.52838],[127.34699,35.53008],[127.34677,35.53191],[127.3476,35.53315],[127.34729,35.53411],[127.3484,35.535],[127.34803,35.53536],[127.35012,35.5355],[127.35003,35.53734],[127.34969,35.53752],[127.34963,35.54015],[127.34848,35.54107],[127.34818,35.54214],[127.3474,35.54236],[127.34682,35.54295],[127.34514,35.54236],[127.34481,35.54271],[127.34359,35.54264],[127.34187,35.54361],[127.34079,35.54366],[127.34022,35.54446],[127.33966,35.54446],[127.33898,35.54509],[127.33917,35.54542],[127.3384,35.54651],[127.3372,35.5467],[127.33629,35.54767],[127.33525,35.54779],[127.33443,35.54751],[127.33402,35.55127],[127.33463,35.55274],[127.33618,35.55417],[127.33779,35.5546],[127.3388,35.55454],[127.34128,35.55328],[127.34335,35.5511],[127.34429,35.55091],[127.35017,35.55154],[127.35245,35.55261],[127.35691,35.55724],[127.35882,35.55884],[127.35959,35.55887],[127.36028,35.55841],[127.3606,35.55756],[127.36142,35.55706],[127.36229,35.55718],[127.36366,35.55824],[127.36366,35.55795],[127.3647,35.55767],[127.36457,35.5571],[127.3656,35.55681],[127.36546,35.55647],[127.36812,35.55525],[127.36868,35.55559],[127.37031,35.55413],[127.36968,35.55367],[127.37024,35.55306],[127.37149,35.5529],[127.37287,35.55169],[127.37379,35.55155],[127.37393,35.55046],[127.37524,35.55021],[127.37825,35.54795],[127.38409,35.54611],[127.38447,35.54674],[127.38482,35.54632],[127.3853,35.54635],[127.38742,35.54724],[127.38961,35.54689],[127.39142,35.5458],[127.39297,35.54727],[127.39335,35.54706],[127.39449,35.54756],[127.39579,35.54763],[127.39683,35.54832],[127.39819,35.54705],[127.39924,35.54708],[127.40061,35.54752],[127.40158,35.54824],[127.40264,35.54835],[127.40257,35.54886],[127.40191,35.54916],[127.40141,35.55033],[127.40062,35.55064],[127.40016,35.55134],[127.39914,35.55156],[127.39916,35.55195],[127.39812,35.55263],[127.39911,35.55312],[127.4002,35.55302],[127.40135,35.55363],[127.40231,35.55589],[127.40312,35.55702],[127.40431,35.55772],[127.40488,35.55854],[127.40502,35.55949],[127.40559,35.56006],[127.40645,35.56034],[127.40824,35.55983],[127.40941,35.56008],[127.40987,35.56069],[127.4105,35.56082],[127.41344,35.56028],[127.41463,35.5592],[127.41489,35.55847],[127.41724,35.55678],[127.41752,35.55624],[127.41875,35.55557],[127.41924,35.55437],[127.41996,35.55393],[127.41993,35.55295],[127.42284,35.55151],[127.42413,35.55045],[127.4274,35.55054],[127.43178,35.55007],[127.43342,35.55016],[127.44021,35.55165],[127.44055,35.54911],[127.44125,35.54719],[127.44226,35.54688],[127.4428,35.546],[127.44581,35.54547],[127.44717,35.54488],[127.44822,35.54332],[127.45108,35.54187],[127.45278,35.54006],[127.4534,35.54052],[127.45419,35.54271],[127.45402,35.54303],[127.45529,35.54397],[127.45525,35.54582],[127.45624,35.54653],[127.45873,35.54582],[127.45951,35.54529],[127.46041,35.54552],[127.46149,35.5453],[127.46428,35.54618],[127.46475,35.54657],[127.46752,35.5464],[127.46848,35.54532],[127.46813,35.5445],[127.46834,35.54388],[127.46957,35.54189],[127.47095,35.54082],[127.47272,35.54051],[127.47324,35.54],[127.4765,35.53842],[127.47994,35.53834],[127.48259,35.53891],[127.48623,35.53654],[127.48794,35.53672],[127.48948,35.53585],[127.48962,35.53493],[127.49123,35.53413],[127.49173,35.53441],[127.49242,35.53413],[127.49188,35.53009],[127.49111,35.52995],[127.491,35.5283],[127.49131,35.52708],[127.49193,35.5268],[127.49237,35.52573],[127.49315,35.5254],[127.49377,35.5243],[127.49445,35.52432],[127.495,35.52358],[127.49594,35.52303],[127.49598,35.52261],[127.49769,35.5228],[127.49869,35.52229],[127.50053,35.5224],[127.50164,35.52172],[127.50157,35.51934],[127.50108,35.51825],[127.50359,35.51458],[127.50478,35.51413],[127.50619,35.51228],[127.50825,35.51153],[127.50964,35.51052],[127.5113,35.51002],[127.51338,35.50889],[127.51355,35.50816],[127.51296,35.50597],[127.51407,35.50404],[127.514,35.50189],[127.51321,35.50178],[127.51436,35.50171],[127.5146,35.50135],[127.51525,35.50144],[127.51594,35.49887],[127.517,35.49905],[127.51715,35.49846],[127.51501,35.49807],[127.51515,35.49787],[127.51559,35.49745],[127.51833,35.49789],[127.51906,35.49828],[127.51903,35.49775],[127.51989,35.49839],[127.52203,35.49627],[127.52301,35.49653],[127.52499,35.49645],[127.52593,35.49586],[127.52725,35.49577],[127.52709,35.4935],[127.5279,35.49269],[127.52827,35.49103],[127.52689,35.49006],[127.5271,35.48653],[127.52672,35.48577],[127.52348,35.48357],[127.5225,35.48321],[127.52033,35.48334],[127.51901,35.48169],[127.51533,35.48107],[127.51392,35.48009],[127.51495,35.47888],[127.51897,35.47824],[127.52023,35.47703],[127.52166,35.47674],[127.52193,35.47615],[127.5225,35.47603],[127.52253,35.47511],[127.52365,35.47476],[127.52485,35.47318],[127.52842,35.47305],[127.53079,35.47261],[127.53362,35.47158],[127.53583,35.47039],[127.5367,35.47058],[127.53777,35.46984],[127.53813,35.46974],[127.53729,35.47032],[127.53784,35.47052],[127.53791,35.47116],[127.53914,35.47111],[127.53941,35.47085],[127.53921,35.47112],[127.53975,35.47185],[127.54015,35.47151],[127.54164,35.4716],[127.54156,35.47089],[127.54114,35.47073],[127.54115,35.46996],[127.54272,35.46936],[127.54266,35.46832],[127.544,35.46804],[127.54608,35.46809],[127.54503,35.46781],[127.54616,35.46804],[127.54713,35.46923],[127.54851,35.46968],[127.54954,35.46991],[127.55155,35.46974],[127.55255,35.47104],[127.55366,35.47132],[127.55851,35.47114],[127.55908,35.47214],[127.56026,35.47236],[127.56177,35.4735],[127.56221,35.47438],[127.56234,35.47615],[127.56111,35.4767],[127.56088,35.47774],[127.55969,35.47903],[127.55962,35.4801],[127.56041,35.4819],[127.56227,35.48355],[127.56203,35.48523],[127.56286,35.486],[127.56322,35.48802],[127.56386,35.48865],[127.5637,35.48958],[127.56399,35.4902],[127.5627,35.49154],[127.56345,35.49184],[127.56359,35.49262],[127.56481,35.49282],[127.56568,35.49263],[127.56771,35.49331],[127.569,35.49533],[127.56974,35.49558],[127.57083,35.49538],[127.57181,35.49683],[127.57278,35.49725],[127.57348,35.49715],[127.57478,35.4977],[127.57552,35.4984],[127.57738,35.49888],[127.57784,35.49936],[127.57769,35.50006],[127.57926,35.50106],[127.57929,35.50144],[127.58013,35.50201],[127.5799,35.50366],[127.57935,35.50428],[127.57953,35.50722],[127.58026,35.50787],[127.5801,35.51044],[127.58034,35.51133],[127.58001,35.51393],[127.57863,35.51444],[127.57849,35.51603],[127.57628,35.51675],[127.57394,35.5171],[127.57292,35.51836],[127.57189,35.51834],[127.57112,35.51888],[127.57029,35.52002],[127.57053,35.52202],[127.57013,35.52382],[127.5685,35.52479],[127.56844,35.52942],[127.56879,35.52994],[127.56855,35.5315],[127.56886,35.53309],[127.56863,35.53328],[127.56925,35.53431],[127.5715,35.53471],[127.5719,35.53633],[127.57177,35.53743],[127.57224,35.53804],[127.57162,35.54053],[127.57244,35.54435],[127.57296,35.54533],[127.57281,35.54614],[127.57342,35.54657],[127.57414,35.5464],[127.5751,35.54694],[127.57852,35.54754],[127.57884,35.54828],[127.57956,35.54845],[127.58115,35.54972],[127.58155,35.5504],[127.58424,35.55278],[127.58486,35.55391],[127.5877,35.55389],[127.58891,35.55357],[127.59071,35.55404],[127.59077,35.55365],[127.59146,35.55336],[127.59341,35.55129],[127.59385,35.5495],[127.5936,35.54877],[127.59412,35.54799],[127.59678,35.54744],[127.59863,35.54759],[127.59943,35.54637],[127.6004,35.54578],[127.60046,35.54505],[127.60362,35.54447],[127.60399,35.54404],[127.60653,35.54286],[127.60759,35.54165],[127.60926,35.54086],[127.60958,35.54026],[127.6092,35.53902],[127.61207,35.53593],[127.61272,35.53564],[127.61557,35.53548],[127.61698,35.5365],[127.61915,35.5366],[127.61973,35.5356],[127.62062,35.53494],[127.6207,35.53384],[127.62283,35.53367],[127.62473,35.53369],[127.62782,35.53571],[127.62869,35.53598],[127.62881,35.53372],[127.62756,35.53279],[127.62595,35.53236],[127.62533,35.5314],[127.62564,35.52933],[127.62538,35.52771],[127.62571,35.52758],[127.62501,35.52695],[127.6256,35.52583],[127.62521,35.52577],[127.62557,35.52571],[127.62637,35.52452],[127.62841,35.52399],[127.62932,35.52193],[127.63108,35.52046],[127.63423,35.52046],[127.63442,35.52021],[127.63434,35.51952],[127.63472,35.519],[127.63427,35.51765],[127.63458,35.51689],[127.63306,35.51527],[127.63428,35.51204],[127.63567,35.51214],[127.6363,35.51174],[127.63629,35.51091],[127.63674,35.51055],[127.637,35.50905],[127.63755,35.50808],[127.63943,35.50755],[127.63969,35.50688],[127.64182,35.50508],[127.64276,35.50251],[127.64328,35.50154],[127.64372,35.50133],[127.64431,35.49902],[127.64674,35.49792],[127.65039,35.4979],[127.65032,35.4947],[127.65093,35.49265],[127.65,35.49133],[127.65074,35.48902],[127.65311,35.48687],[127.65247,35.4862],[127.65056,35.48574],[127.6489,35.48453],[127.64803,35.48433],[127.64728,35.48351],[127.64669,35.48347],[127.6448,35.48195],[127.64343,35.48173],[127.641,35.48021],[127.63739,35.47927],[127.63661,35.47821],[127.6378,35.47427],[127.63748,35.47219],[127.63789,35.47042],[127.63573,35.46881],[127.63597,35.4679],[127.63687,35.46707],[127.63692,35.466],[127.63616,35.46525],[127.63623,35.46366],[127.6357,35.46291],[127.63568,35.46224],[127.63656,35.46039],[127.63669,35.45935],[127.63842,35.45758],[127.63973,35.45567],[127.64254,35.45296],[127.64519,35.44913],[127.64667,35.44995],[127.64753,35.45092],[127.64983,35.45162],[127.65218,35.45133],[127.65339,35.45158],[127.65785,35.44866],[127.65861,35.4486],[127.66116,35.44754],[127.66429,35.44795],[127.66778,35.44908],[127.67045,35.44872],[127.67277,35.44779],[127.67407,35.44572],[127.67296,35.44331],[127.67164,35.44232],[127.67068,35.43962],[127.66969,35.43892],[127.66747,35.43814],[127.66595,35.4369],[127.66518,35.43565],[127.66535,35.43439],[127.66623,35.43324],[127.66565,35.43032],[127.66577,35.42743],[127.66355,35.42621],[127.66395,35.42567],[127.66323,35.42471],[127.6636,35.42373],[127.66301,35.42161],[127.66322,35.42113],[127.66141,35.41804],[127.66047,35.41443],[127.65684,35.41392],[127.65552,35.41226],[127.65246,35.40981],[127.65064,35.40673],[127.64886,35.40624],[127.64645,35.40266],[127.64555,35.40257],[127.64344,35.4016],[127.63978,35.40129],[127.63806,35.40143],[127.63692,35.40104],[127.6367,35.3994],[127.63501,35.39705],[127.63281,35.39509],[127.63249,35.39358],[127.6318,35.39229],[127.62733,35.3881],[127.62529,35.3847],[127.62488,35.38137],[127.62565,35.37691],[127.62129,35.37222],[127.62013,35.37147],[127.61564,35.36962],[127.61361,35.36935],[127.61266,35.36893],[127.61076,35.36695],[127.6102,35.36592],[127.61167,35.36145],[127.61124,35.35929],[127.61224,35.35585],[127.61439,35.35388],[127.61584,35.34997],[127.6206,35.34725],[127.62104,35.34572],[127.62259,35.34401],[127.62333,35.34217],[127.6226,35.33771],[127.62092,35.3349],[127.62074,35.33249],[127.61514,35.33073],[127.61273,35.32799],[127.61025,35.3268],[127.60769,35.32504],[127.60708,35.32398],[127.60654,35.32066],[127.60596,35.31955],[127.60478,35.31837],[127.6018,35.31717],[127.59939,35.31552],[127.59561,35.31352],[127.59429,35.31243],[127.58567,35.30914],[127.58251,35.30909],[127.57955,35.30959],[127.57748,35.3089],[127.5726,35.31208],[127.57187,35.31353],[127.56783,35.31852],[127.56565,35.31933],[127.56416,35.3194],[127.56047,35.32104],[127.55642,35.322],[127.55485,35.32198],[127.55276,35.32357],[127.55229,35.32481],[127.54656,35.3269],[127.54509,35.32718],[127.54228,35.3285],[127.54202,35.32915],[127.54209,35.33135],[127.54152,35.33365],[127.54063,35.33435],[127.5398,35.33476],[127.53249,35.3353],[127.53096,35.33604],[127.52854,35.33888],[127.52649,35.3431],[127.52447,35.34487],[127.52204,35.34601],[127.51789,35.34659],[127.51665,35.34729],[127.51399,35.35113],[127.51205,35.35227],[127.50933,35.35268],[127.50806,35.35318],[127.50689,35.35397],[127.50587,35.35528],[127.50319,35.35764],[127.50003,35.35926],[127.49791,35.35989],[127.49338,35.35934],[127.49221,35.35884],[127.48794,35.35877],[127.48571,35.35835],[127.48441,35.35952],[127.48073,35.36167],[127.48027,35.36364],[127.47877,35.36419],[127.47739,35.36389],[127.47667,35.36415],[127.47416,35.36412],[127.47361,35.36462],[127.47173,35.36474],[127.47077,35.36534],[127.46854,35.36501],[127.46736,35.36418],[127.4664,35.36415],[127.46594,35.36353],[127.46263,35.36338],[127.46194,35.36391],[127.45824,35.36354],[127.45764,35.36214],[127.45611,35.3622],[127.45379,35.36074],[127.45267,35.36126],[127.45177,35.36109],[127.45044,35.36142],[127.44923,35.36087],[127.44694,35.36148],[127.44646,35.36052],[127.4448,35.36111],[127.44373,35.36095],[127.44245,35.36128],[127.4414,35.36211],[127.44197,35.36347],[127.44136,35.36384],[127.43806,35.36275],[127.43692,35.36271],[127.43598,35.36119],[127.43347,35.35976],[127.43246,35.35865],[127.4299,35.35758],[127.42864,35.35645],[127.42868,35.3554],[127.42745,35.35438],[127.4258,35.35382],[127.42542,35.35322],[127.42438,35.3527],[127.42472,35.35206],[127.42373,35.35142],[127.42141,35.35087]]]]},"properties":{"id":"SGG:52190","layer":"L3","admin_code":"52190","name":"전북특별자치도 남원시","sido":"전북특별자치도","sgg":"남원시","provisional":false,"source":"통계청 행정동 경계(BND_ADM_DONG_PG, 2025-06-30) 를 시군구로 합침","source_kind":"derived","derived_from":"행정동 경계 union · 20 m 단순화"}}]}