{"type":"FeatureCollection","features":[{"type":"Feature","id":"SGG:44760","geometry":{"type":"MultiPolygon","coordinates":[[[[126.81941,36.13533],[126.81762,36.13592],[126.81615,36.13526],[126.81327,36.13639],[126.8118,36.13612],[126.81085,36.13682],[126.80587,36.13844],[126.80523,36.13878],[126.80511,36.13943],[126.80272,36.13995],[126.80213,36.14129],[126.79994,36.14018],[126.79847,36.13874],[126.79836,36.13822],[126.79731,36.13787],[126.7961,36.13815],[126.79479,36.13706],[126.79374,36.13687],[126.79395,36.13838],[126.79354,36.13898],[126.79393,36.14054],[126.79144,36.14217],[126.79216,36.14339],[126.79196,36.14409],[126.79366,36.14536],[126.79382,36.14655],[126.79437,36.14688],[126.79371,36.14766],[126.79395,36.14905],[126.79509,36.14938],[126.79556,36.15044],[126.79444,36.15229],[126.79493,36.15257],[126.79553,36.15387],[126.79451,36.15479],[126.79414,36.15656],[126.79463,36.15679],[126.79454,36.15746],[126.7959,36.15761],[126.79601,36.15841],[126.79536,36.15948],[126.79425,36.16006],[126.79443,36.16104],[126.7956,36.16147],[126.79538,36.16272],[126.79456,36.16361],[126.79222,36.16769],[126.79306,36.16999],[126.79373,36.17085],[126.79508,36.17059],[126.79576,36.16961],[126.79785,36.17013],[126.79741,36.17113],[126.79647,36.17205],[126.79685,36.17332],[126.7961,36.17414],[126.79552,36.17644],[126.79624,36.17769],[126.79564,36.17919],[126.79459,36.1788],[126.79406,36.17895],[126.79318,36.18079],[126.79093,36.18061],[126.79058,36.18134],[126.78947,36.18114],[126.78567,36.18177],[126.785,36.18217],[126.78392,36.1823],[126.78285,36.18354],[126.78131,36.18375],[126.77826,36.18331],[126.77801,36.18295],[126.77574,36.18221],[126.7747,36.18224],[126.77301,36.18168],[126.77227,36.1822],[126.76933,36.18244],[126.76703,36.18158],[126.76498,36.18367],[126.76087,36.18313],[126.76036,36.18268],[126.75878,36.18224],[126.757,36.18225],[126.75729,36.18156],[126.75692,36.18119],[126.75461,36.18182],[126.75332,36.18162],[126.7512,36.18196],[126.75031,36.18182],[126.74898,36.18109],[126.74764,36.18111],[126.74698,36.18162],[126.74579,36.18139],[126.74473,36.18234],[126.74194,36.18337],[126.73871,36.18209],[126.73813,36.18231],[126.73442,36.18186],[126.73398,36.18135],[126.72972,36.17903],[126.7284,36.17784],[126.72761,36.17607],[126.72423,36.17651],[126.72352,36.17601],[126.72225,36.17622],[126.7218,36.1755],[126.72092,36.17495],[126.72029,36.17538],[126.71838,36.17516],[126.71737,36.1758],[126.71644,36.1757],[126.71604,36.17537],[126.71534,36.17532],[126.7149,36.17562],[126.71367,36.17545],[126.71085,36.17599],[126.70888,36.17777],[126.7076,36.17803],[126.70699,36.17847],[126.70482,36.17808],[126.70249,36.17868],[126.7018,36.17936],[126.7005,36.17947],[126.69967,36.18187],[126.70033,36.18266],[126.69997,36.18314],[126.699,36.18354],[126.69816,36.18467],[126.6976,36.18473],[126.69746,36.18563],[126.69685,36.18644],[126.69567,36.18721],[126.69515,36.18841],[126.69448,36.18903],[126.69205,36.19009],[126.69307,36.19136],[126.69452,36.19243],[126.69494,36.19484],[126.69564,36.19538],[126.69783,36.19946],[126.69822,36.20144],[126.6992,36.20271],[126.69818,36.20497],[126.69956,36.20565],[126.70287,36.20624],[126.70374,36.20877],[126.70554,36.20933],[126.70629,36.21056],[126.70819,36.21114],[126.70882,36.21192],[126.71016,36.21245],[126.71188,36.21375],[126.71317,36.21441],[126.71374,36.2144],[126.71347,36.21643],[126.71414,36.21752],[126.71378,36.21799],[126.71392,36.21828],[126.71556,36.21853],[126.71553,36.21945],[126.71608,36.22019],[126.71574,36.22162],[126.71532,36.22208],[126.71588,36.22565],[126.71518,36.22718],[126.71504,36.22889],[126.71782,36.23094],[126.71834,36.23183],[126.71807,36.23222],[126.71842,36.23304],[126.71804,36.23399],[126.7182,36.23458],[126.71982,36.23514],[126.72047,36.23576],[126.72139,36.23587],[126.72192,36.23675],[126.72254,36.23706],[126.72439,36.23707],[126.7254,36.23785],[126.72648,36.23754],[126.72703,36.23774],[126.72937,36.23765],[126.73155,36.23704],[126.73232,36.23722],[126.73429,36.23831],[126.73515,36.23967],[126.73515,36.24071],[126.73689,36.24144],[126.73555,36.24308],[126.73618,36.24631],[126.73706,36.24738],[126.73806,36.24978],[126.73872,36.25401],[126.7359,36.25523],[126.73542,36.25571],[126.73352,36.25622],[126.73269,36.25684],[126.73188,36.25692],[126.73104,36.25662],[126.72765,36.25747],[126.72408,36.25604],[126.7201,36.25518],[126.71912,36.25556],[126.7187,36.2562],[126.71854,36.25857],[126.71346,36.26146],[126.70974,36.2629],[126.70387,36.26641],[126.70173,36.26724],[126.69919,36.268],[126.69421,36.26887],[126.69498,36.27255],[126.69574,36.27337],[126.69662,36.27554],[126.6964,36.27638],[126.69525,36.27791],[126.69421,36.27813],[126.69268,36.27898],[126.69234,36.28049],[126.69673,36.2834],[126.69357,36.28573],[126.69197,36.28812],[126.6906,36.2893],[126.6873,36.29113],[126.68874,36.29396],[126.69198,36.29742],[126.69438,36.29853],[126.69276,36.30164],[126.69053,36.30242],[126.6897,36.30381],[126.68551,36.30566],[126.68257,36.30826],[126.68232,36.31064],[126.6803,36.31368],[126.68008,36.31557],[126.68275,36.31844],[126.68361,36.31817],[126.68314,36.31994],[126.68419,36.32233],[126.68317,36.32395],[126.67873,36.32775],[126.67845,36.33164],[126.68404,36.33115],[126.68813,36.33276],[126.68982,36.33534],[126.69321,36.33421],[126.69566,36.33439],[126.69758,36.3365],[126.69699,36.33965],[126.6977,36.34153],[126.6998,36.34364],[126.70023,36.34489],[126.69939,36.34637],[126.69978,36.34859],[126.70156,36.34866],[126.70412,36.35056],[126.70365,36.35286],[126.70443,36.35442],[126.70368,36.35827],[126.70262,36.36156],[126.70385,36.36416],[126.70381,36.36476],[126.70503,36.3665],[126.71021,36.36861],[126.7151,36.36932],[126.72159,36.37096],[126.72445,36.37116],[126.72504,36.37314],[126.72469,36.37456],[126.72486,36.37543],[126.72672,36.3765],[126.72921,36.37689],[126.73172,36.37791],[126.73316,36.37781],[126.73524,36.37853],[126.73604,36.37714],[126.73858,36.37508],[126.73938,36.37302],[126.73951,36.37147],[126.73887,36.37064],[126.73856,36.36917],[126.73919,36.36855],[126.73921,36.36786],[126.73852,36.36646],[126.7391,36.36561],[126.7408,36.36432],[126.74129,36.36355],[126.74276,36.3638],[126.74382,36.36327],[126.74455,36.36507],[126.74525,36.3652],[126.74649,36.36616],[126.74827,36.36606],[126.74836,36.36505],[126.74775,36.36459],[126.74766,36.36412],[126.74829,36.36296],[126.74807,36.36253],[126.74877,36.36179],[126.74942,36.36163],[126.74909,36.35988],[126.75059,36.35821],[126.7508,36.35748],[126.75259,36.35597],[126.75357,36.35561],[126.75515,36.35595],[126.75698,36.35518],[126.75954,36.35548],[126.76131,36.35524],[126.76272,36.35461],[126.76367,36.35361],[126.76646,36.35261],[126.76763,36.35344],[126.77109,36.3536],[126.77192,36.35391],[126.7728,36.35342],[126.77355,36.3535],[126.77466,36.35409],[126.77604,36.35431],[126.7779,36.35519],[126.77831,36.35569],[126.78001,36.35563],[126.78153,36.35646],[126.78499,36.35689],[126.78634,36.3561],[126.78764,36.35482],[126.79038,36.35402],[126.79029,36.35294],[126.79089,36.35164],[126.79386,36.35247],[126.79461,36.35351],[126.79725,36.35489],[126.7977,36.35605],[126.79744,36.3565],[126.79779,36.35783],[126.79734,36.35879],[126.79853,36.35958],[126.79996,36.36186],[126.80286,36.36289],[126.80343,36.36347],[126.80356,36.36427],[126.80475,36.36619],[126.80457,36.36806],[126.80536,36.36923],[126.80654,36.36995],[126.80692,36.37178],[126.80682,36.37345],[126.80901,36.37613],[126.81314,36.37694],[126.81923,36.37677],[126.82015,36.37748],[126.82062,36.37875],[126.82093,36.37794],[126.82066,36.37881],[126.82109,36.3799],[126.82174,36.37992],[126.8227,36.38139],[126.82402,36.38186],[126.82504,36.38291],[126.82628,36.38291],[126.82866,36.3843],[126.83049,36.38499],[126.83187,36.38496],[126.83568,36.38386],[126.83737,36.38441],[126.83826,36.38422],[126.84069,36.3852],[126.84136,36.38519],[126.84204,36.38575],[126.84524,36.38543],[126.84782,36.38639],[126.84865,36.38704],[126.85026,36.3849],[126.84758,36.38123],[126.84591,36.37688],[126.84433,36.37461],[126.8422,36.37379],[126.84062,36.37394],[126.83763,36.37689],[126.83446,36.37782],[126.83247,36.37722],[126.83198,36.3766],[126.83199,36.37549],[126.83441,36.3712],[126.83426,36.36523],[126.83459,36.364],[126.83532,36.36363],[126.83661,36.36357],[126.84067,36.36456],[126.84362,36.36496],[126.84483,36.3638],[126.8445,36.36123],[126.84319,36.35957],[126.84174,36.35877],[126.84071,36.35747],[126.84053,36.35659],[126.84141,36.35534],[126.84254,36.35476],[126.84582,36.35541],[126.84574,36.35513],[126.84808,36.35541],[126.84932,36.35472],[126.85036,36.35343],[126.85313,36.34833],[126.85362,36.34661],[126.85598,36.34517],[126.85913,36.34409],[126.85985,36.34335],[126.86048,36.34055],[126.86045,36.33788],[126.85998,36.33646],[126.8597,36.33574],[126.85661,36.33292],[126.85546,36.33134],[126.85618,36.33061],[126.85738,36.33034],[126.85766,36.32871],[126.85866,36.32631],[126.86043,36.32549],[126.86126,36.32467],[126.86162,36.3238],[126.86133,36.3222],[126.86199,36.3215],[126.86265,36.32158],[126.86311,36.32224],[126.86649,36.32363],[126.86721,36.32358],[126.86784,36.32304],[126.86872,36.32302],[126.87093,36.32418],[126.874,36.32318],[126.87766,36.32447],[126.88466,36.32546],[126.88612,36.32533],[126.88867,36.32373],[126.89177,36.32249],[126.89308,36.32252],[126.895,36.32718],[126.89953,36.33142],[126.9001,36.33158],[126.90101,36.33087],[126.90115,36.33002],[126.90056,36.32833],[126.89914,36.32675],[126.89986,36.32568],[126.90422,36.32548],[126.90813,36.32625],[126.91065,36.3275],[126.91236,36.32712],[126.91391,36.32605],[126.91431,36.32538],[126.91331,36.32316],[126.91471,36.32041],[126.91541,36.32018],[126.91728,36.32035],[126.91824,36.32002],[126.92018,36.3181],[126.92395,36.317],[126.92505,36.31638],[126.92681,36.3145],[126.93755,36.3197],[126.95303,36.32589],[126.95741,36.32806],[126.95908,36.32958],[126.95974,36.33179],[126.96032,36.33245],[126.96363,36.33355],[126.97088,36.33395],[126.97295,36.33436],[126.97711,36.3367],[126.97689,36.33485],[126.97972,36.33563],[126.98017,36.33601],[126.9812,36.33586],[126.98397,36.33736],[126.98587,36.33746],[126.98628,36.3369],[126.99021,36.3358],[126.98891,36.33273],[126.98942,36.33088],[126.99046,36.32962],[126.99211,36.32915],[126.99645,36.32883],[126.99776,36.32841],[126.99599,36.32747],[126.99555,36.3275],[126.9951,36.32658],[126.99416,36.32619],[126.99437,36.32461],[126.99403,36.32339],[126.9934,36.32299],[126.99311,36.32229],[126.99352,36.32182],[126.99289,36.32088],[126.99319,36.32029],[126.99286,36.31912],[126.99122,36.31789],[126.99046,36.31929],[126.98856,36.31794],[126.98769,36.316],[126.98821,36.31547],[126.98768,36.3152],[126.98737,36.31436],[126.98767,36.31344],[126.9865,36.31168],[126.98651,36.31049],[126.98759,36.31015],[126.98777,36.30919],[126.98615,36.30739],[126.98718,36.30683],[126.98713,36.30599],[126.98922,36.30452],[126.99038,36.30392],[126.99205,36.3036],[126.99227,36.30324],[126.9913,36.30127],[126.99142,36.3009],[126.99216,36.30084],[126.99307,36.29902],[126.99494,36.29836],[126.99594,36.29937],[126.9974,36.30006],[126.9975,36.29966],[126.99667,36.29908],[126.99567,36.29763],[126.99858,36.29726],[127.0004,36.29657],[127.00119,36.29717],[127.00188,36.29713],[127.00369,36.29836],[127.00442,36.29778],[127.00573,36.29768],[127.00619,36.2979],[127.00786,36.29752],[127.00975,36.29569],[127.012,36.29545],[127.01296,36.29645],[127.01348,36.29647],[127.01373,36.29699],[127.01455,36.29684],[127.01509,36.29529],[127.01635,36.29429],[127.01613,36.29328],[127.01561,36.29288],[127.0164,36.29118],[127.01828,36.29111],[127.01834,36.29057],[127.01925,36.29016],[127.01932,36.28948],[127.02003,36.28975],[127.02069,36.28873],[127.02314,36.28737],[127.02322,36.28677],[127.02534,36.2843],[127.02732,36.28325],[127.02772,36.28184],[127.02926,36.28199],[127.03094,36.28117],[127.03235,36.2817],[127.03273,36.2814],[127.03358,36.28139],[127.03412,36.2809],[127.03547,36.28136],[127.03556,36.2828],[127.0367,36.28284],[127.03921,36.28356],[127.04002,36.28337],[127.04073,36.28281],[127.04252,36.28239],[127.0441,36.2814],[127.04782,36.28022],[127.05024,36.28011],[127.05327,36.27868],[127.05869,36.27774],[127.06052,36.27789],[127.06591,36.27715],[127.06639,36.27586],[127.0678,36.27387],[127.06779,36.27284],[127.07009,36.27237],[127.07031,36.27046],[127.0698,36.26802],[127.06919,36.26751],[127.06936,36.26684],[127.06819,36.26588],[127.06911,36.26377],[127.06709,36.26049],[127.06489,36.25808],[127.06424,36.25601],[127.06095,36.25579],[127.05541,36.2547],[127.05354,36.25375],[127.05258,36.25213],[127.05267,36.25129],[127.05087,36.25029],[127.04971,36.25042],[127.04742,36.24914],[127.04599,36.24912],[127.04515,36.24879],[127.04408,36.24891],[127.04262,36.2477],[127.04114,36.24735],[127.03995,36.24663],[127.03992,36.24631],[127.04049,36.24609],[127.03997,36.2444],[127.04071,36.24367],[127.04058,36.24318],[127.04003,36.24286],[127.04017,36.24214],[127.03877,36.24027],[127.03701,36.23933],[127.03664,36.23971],[127.03557,36.23946],[127.03553,36.23885],[127.03362,36.238],[127.0339,36.23704],[127.03279,36.23632],[127.03223,36.23519],[127.03045,36.23428],[127.03057,36.23286],[127.02999,36.23171],[127.02733,36.22916],[127.02734,36.22722],[127.02668,36.22667],[127.02696,36.22491],[127.02613,36.22402],[127.02594,36.22283],[127.02416,36.21924],[127.02241,36.21833],[127.02114,36.21817],[127.01899,36.21576],[127.01776,36.21508],[127.01621,36.21316],[127.01501,36.21266],[127.01457,36.21156],[127.01156,36.21119],[127.01148,36.21152],[127.01246,36.21164],[127.01065,36.21292],[127.00987,36.2121],[127.00977,36.21089],[127.01034,36.21031],[127.01029,36.20984],[127.00981,36.20978],[127.00935,36.21036],[127.0073,36.20973],[127.00715,36.20939],[127.00702,36.20972],[127.00533,36.21019],[127.00585,36.21097],[127.00565,36.2116],[127.00613,36.21254],[127.00386,36.2135],[127.00444,36.21399],[127.0039,36.21478],[127.00325,36.21507],[127.00395,36.21492],[127.00425,36.21583],[127.0025,36.21566],[127.00176,36.21531],[127.001,36.21613],[126.99467,36.21467],[126.99415,36.21366],[126.99296,36.21284],[126.99291,36.21194],[126.99246,36.21139],[126.99167,36.21121],[126.99098,36.21212],[126.99032,36.21233],[126.98975,36.21198],[126.98956,36.21155],[126.99145,36.21098],[126.99151,36.2103],[126.99109,36.20988],[126.99003,36.20986],[126.98911,36.21042],[126.98651,36.21017],[126.98544,36.20821],[126.98405,36.20783],[126.98447,36.20584],[126.98572,36.20545],[126.98743,36.20267],[126.98683,36.20214],[126.98466,36.20273],[126.98465,36.20399],[126.98382,36.20416],[126.9838,36.20294],[126.98504,36.20072],[126.98405,36.19965],[126.9854,36.19702],[126.98542,36.19545],[126.98498,36.19421],[126.98772,36.19428],[126.98873,36.1939],[126.98925,36.19329],[126.98894,36.19281],[126.9865,36.19164],[126.98703,36.19074],[126.98782,36.18621],[126.98909,36.1826],[126.99316,36.179],[126.99572,36.17813],[126.99705,36.17722],[127.00122,36.17112],[127.00187,36.17079],[127.00268,36.16885],[127.00243,36.16592],[127.00105,36.1651],[127.0008,36.16318],[126.99758,36.15877],[126.99837,36.15645],[127.0005,36.15316],[126.99988,36.15242],[127.00029,36.1514],[127.00552,36.1515],[127.00638,36.15094],[127.00638,36.15013],[127.00534,36.15062],[127.00135,36.14796],[126.99803,36.14685],[126.99387,36.14685],[126.98719,36.14769],[126.98081,36.14796],[126.97719,36.14852],[126.97146,36.15103],[126.96303,36.15628],[126.95663,36.15657],[126.94446,36.15351],[126.94135,36.15211],[126.93968,36.15118],[126.93969,36.14947],[126.93892,36.15077],[126.9344,36.14685],[126.93136,36.14293],[126.93305,36.14293],[126.93096,36.14244],[126.92525,36.13991],[126.92247,36.1385],[126.91969,36.1363],[126.9147,36.13574],[126.91109,36.13657],[126.90859,36.13823],[126.90698,36.13988],[126.90415,36.14129],[126.9008,36.1424],[126.89776,36.14268],[126.89525,36.14245],[126.8897,36.13962],[126.88776,36.13795],[126.88221,36.13129],[126.88164,36.12879],[126.87915,36.12379],[126.87748,36.11714],[126.87381,36.11044],[126.87414,36.0993],[126.87359,36.08683],[126.87109,36.07157],[126.86429,36.07379],[126.86287,36.07471],[126.86203,36.07474],[126.86113,36.07438],[126.86079,36.07255],[126.8591,36.07321],[126.85865,36.07314],[126.85776,36.07125],[126.85722,36.07107],[126.85708,36.07205],[126.85593,36.07404],[126.85433,36.07499],[126.85439,36.07586],[126.85378,36.07639],[126.85253,36.07655],[126.852,36.07574],[126.85218,36.07487],[126.85136,36.07441],[126.84836,36.07453],[126.84793,36.07601],[126.8464,36.0765],[126.84613,36.07685],[126.84757,36.07796],[126.84734,36.07853],[126.84674,36.07882],[126.84466,36.07845],[126.842,36.07992],[126.84138,36.08119],[126.84191,36.08221],[126.8407,36.08254],[126.841,36.08339],[126.83916,36.08443],[126.83844,36.08532],[126.83907,36.0859],[126.83942,36.08759],[126.83848,36.09029],[126.83774,36.09437],[126.83792,36.09601],[126.83833,36.09668],[126.83718,36.09727],[126.83661,36.09957],[126.83746,36.10089],[126.83764,36.10202],[126.83716,36.10339],[126.83736,36.10491],[126.83789,36.1055],[126.84058,36.10578],[126.84037,36.1068],[126.84089,36.10847],[126.84093,36.11205],[126.84009,36.11693],[126.83965,36.1174],[126.83654,36.11789],[126.83623,36.11816],[126.83628,36.11895],[126.83572,36.11893],[126.83496,36.12021],[126.83419,36.12074],[126.83233,36.12079],[126.83056,36.12155],[126.83027,36.12194],[126.83041,36.12249],[126.82929,36.12446],[126.82737,36.12554],[126.82547,36.1258],[126.82478,36.12636],[126.82362,36.12804],[126.82335,36.12917],[126.82132,36.1298],[126.82152,36.13026],[126.81947,36.1316],[126.81878,36.13253],[126.81941,36.13533]]]]},"properties":{"id":"SGG:44760","layer":"L3","admin_code":"44760","name":"충청남도 부여군","sido":"충청남도","sgg":"부여군","provisional":false,"source":"통계청 행정동 경계(BND_ADM_DONG_PG, 2025-06-30) 를 시군구로 합침","source_kind":"derived","derived_from":"행정동 경계 union · 20 m 단순화"}}]}