{"type":"FeatureCollection","features":[{"type":"Feature","id":"SGG:48170","geometry":{"type":"MultiPolygon","coordinates":[[[[128.05458,35.12983],[128.05369,35.13075],[128.05181,35.1307],[128.05092,35.13107],[128.05063,35.13153],[128.04894,35.12989],[128.04761,35.12781],[128.04763,35.12732],[128.04872,35.12618],[128.0487,35.12457],[128.04653,35.12253],[128.04491,35.12206],[128.04462,35.12149],[128.04303,35.12065],[128.04157,35.12153],[128.04072,35.12143],[128.03719,35.11975],[128.03648,35.12046],[128.03423,35.12146],[128.03372,35.12085],[128.03239,35.121],[128.0281,35.12288],[128.02701,35.12207],[128.02524,35.122],[128.02428,35.12129],[128.02434,35.11864],[128.02258,35.11727],[128.02121,35.11736],[128.0214,35.11699],[128.02115,35.11693],[128.02099,35.11734],[128.01957,35.11762],[128.01912,35.11877],[128.01775,35.11842],[128.01711,35.11862],[128.01448,35.11738],[128.01422,35.11696],[128.01258,35.11601],[128.01257,35.11572],[128.01106,35.1152],[128.0092,35.11332],[128.00853,35.11315],[128.00869,35.11422],[128.00819,35.11432],[128.00656,35.11347],[128.00486,35.11455],[128.00261,35.11425],[128.00308,35.11513],[128.00099,35.11767],[128.00157,35.12173],[128.00053,35.12218],[128.00008,35.12324],[127.99946,35.12365],[128.00051,35.12414],[128.00127,35.12508],[128.00162,35.12657],[128.00222,35.12726],[128.00287,35.12914],[128.00241,35.13045],[128.00305,35.13161],[128.00313,35.13358],[128.00102,35.13578],[127.99851,35.13646],[127.99927,35.13736],[127.99993,35.13762],[128.00032,35.13856],[127.99977,35.13999],[127.99853,35.14085],[127.99928,35.14107],[127.9995,35.14178],[127.99748,35.14346],[127.99711,35.14452],[127.99665,35.14484],[127.9993,35.14646],[127.99885,35.14993],[127.99917,35.15093],[127.99728,35.15294],[127.99855,35.15537],[127.99804,35.15516],[127.99776,35.1555],[127.99586,35.15568],[127.99295,35.1565],[127.98819,35.15722],[127.98141,35.15654],[127.98076,35.15926],[127.98025,35.15935],[127.97805,35.15837],[127.97732,35.15839],[127.97592,35.15761],[127.97413,35.15785],[127.97297,35.15666],[127.97206,35.15633],[127.97124,35.15724],[127.96969,35.15786],[127.96949,35.1584],[127.96872,35.15869],[127.96656,35.15705],[127.96705,35.15579],[127.96677,35.15472],[127.96507,35.15398],[127.96508,35.15342],[127.96446,35.15314],[127.9637,35.15071],[127.96341,35.15111],[127.96299,35.15052],[127.96186,35.1507],[127.9634,35.15252],[127.96379,35.15503],[127.96188,35.15705],[127.96086,35.15755],[127.95801,35.15765],[127.95828,35.15686],[127.95616,35.15682],[127.95487,35.15602],[127.95502,35.15583],[127.95384,35.15472],[127.95407,35.15418],[127.95378,35.15389],[127.95239,35.15338],[127.95101,35.15201],[127.94738,35.15303],[127.94669,35.15279],[127.94558,35.15319],[127.94351,35.15313],[127.9432,35.15279],[127.94256,35.15274],[127.94188,35.15199],[127.94051,35.15205],[127.93861,35.15259],[127.93803,35.15392],[127.93838,35.15498],[127.93719,35.16217],[127.93925,35.16594],[127.93376,35.17165],[127.9306,35.17312],[127.92839,35.17531],[127.92805,35.17623],[127.92508,35.17832],[127.91957,35.17993],[127.9175,35.17994],[127.91516,35.18213],[127.91204,35.18219],[127.91007,35.18374],[127.90825,35.18429],[127.89847,35.1934],[127.89714,35.1941],[127.89485,35.19697],[127.89371,35.19945],[127.89518,35.20572],[127.89454,35.20789],[127.88958,35.21288],[127.88796,35.21647],[127.88782,35.21848],[127.88997,35.22566],[127.88986,35.22753],[127.89068,35.22598],[127.89127,35.22612],[127.89209,35.22725],[127.89238,35.22603],[127.89322,35.22576],[127.89409,35.22629],[127.89487,35.22604],[127.89546,35.2262],[127.89816,35.22752],[127.89927,35.22742],[127.89939,35.22657],[127.90155,35.22525],[127.90203,35.22413],[127.90397,35.22305],[127.90555,35.22259],[127.90723,35.22367],[127.90828,35.22345],[127.90941,35.22403],[127.91029,35.2252],[127.91004,35.22539],[127.91036,35.22709],[127.91097,35.22751],[127.91079,35.22953],[127.91034,35.22994],[127.91071,35.23106],[127.91055,35.23279],[127.91165,35.23528],[127.91142,35.23621],[127.91194,35.23754],[127.9111,35.23881],[127.91158,35.23929],[127.91131,35.24025],[127.91196,35.24073],[127.91356,35.24323],[127.91269,35.2444],[127.91472,35.24503],[127.91526,35.24549],[127.91579,35.2469],[127.9164,35.24725],[127.91662,35.2483],[127.91756,35.2483],[127.91799,35.24772],[127.91834,35.24892],[127.91924,35.24905],[127.91933,35.25118],[127.92004,35.25195],[127.92092,35.25233],[127.92197,35.25216],[127.92291,35.25238],[127.92328,35.25023],[127.92433,35.24933],[127.92554,35.24938],[127.92869,35.25033],[127.93184,35.25066],[127.93449,35.25027],[127.93656,35.24905],[127.93812,35.2496],[127.93885,35.24807],[127.94099,35.24764],[127.94167,35.2472],[127.94257,35.24578],[127.94241,35.24546],[127.9445,35.24529],[127.9459,35.24435],[127.94757,35.24165],[127.95009,35.24171],[127.95142,35.24203],[127.95324,35.24259],[127.95666,35.24429],[127.96678,35.24652],[127.969,35.24862],[127.96973,35.25133],[127.97027,35.25129],[127.9714,35.25009],[127.97217,35.25118],[127.97172,35.25252],[127.97198,35.25558],[127.97236,35.25629],[127.97198,35.25777],[127.97233,35.25906],[127.97281,35.25936],[127.97266,35.26056],[127.97316,35.26179],[127.97264,35.26575],[127.97305,35.26626],[127.97294,35.26755],[127.97334,35.26831],[127.97311,35.26901],[127.97355,35.27003],[127.97649,35.27046],[127.97745,35.27009],[127.97798,35.27056],[127.9793,35.27077],[127.97995,35.27025],[127.98213,35.27074],[127.98289,35.27052],[127.98391,35.272],[127.98386,35.27265],[127.98536,35.27363],[127.98551,35.27521],[127.9861,35.27565],[127.9863,35.27711],[127.98489,35.27958],[127.98483,35.28116],[127.98433,35.28183],[127.98464,35.28289],[127.98548,35.28384],[127.9853,35.28467],[127.98625,35.28691],[127.98809,35.28606],[127.98955,35.28639],[127.98994,35.28603],[127.99017,35.28633],[127.99167,35.28616],[127.9952,35.2852],[127.99598,35.28551],[127.996,35.28683],[127.99713,35.28742],[127.99802,35.28853],[127.99929,35.2894],[127.99953,35.29024],[128.00149,35.29035],[128.00278,35.29129],[128.00432,35.29309],[128.00506,35.29568],[128.00594,35.29741],[128.00763,35.29815],[128.0099,35.29821],[128.01057,35.29858],[128.01189,35.2986],[128.0127,35.29903],[128.01343,35.29962],[128.01368,35.30076],[128.01519,35.30312],[128.01613,35.30284],[128.01711,35.30314],[128.01884,35.30276],[128.02004,35.30446],[128.02073,35.30448],[128.02138,35.30496],[128.02447,35.3052],[128.02494,35.30559],[128.02608,35.30557],[128.02921,35.30653],[128.03022,35.30652],[128.03231,35.30742],[128.03347,35.30731],[128.03462,35.30781],[128.0355,35.30685],[128.04142,35.30385],[128.04341,35.30474],[128.04728,35.30784],[128.04854,35.30799],[128.04948,35.30911],[128.04941,35.30975],[128.05233,35.31269],[128.05113,35.31727],[128.05109,35.32149],[128.05284,35.32453],[128.05643,35.32838],[128.05862,35.33357],[128.06248,35.33347],[128.06375,35.33315],[128.0652,35.33346],[128.06633,35.33327],[128.06723,35.33243],[128.06893,35.33243],[128.07074,35.33303],[128.0723,35.33295],[128.07412,35.33374],[128.07477,35.3345],[128.07431,35.33588],[128.0781,35.33639],[128.08049,35.33704],[128.08176,35.33614],[128.08277,35.33597],[128.08417,35.33663],[128.08525,35.33659],[128.08538,35.33606],[128.08767,35.33624],[128.09,35.3357],[128.09198,35.336],[128.09294,35.33535],[128.09642,35.33491],[128.10165,35.33501],[128.10213,35.33538],[128.10311,35.33333],[128.10498,35.33252],[128.10624,35.3324],[128.10649,35.33166],[128.10741,35.33179],[128.10878,35.33018],[128.11232,35.33168],[128.11474,35.33116],[128.11564,35.33004],[128.11685,35.33072],[128.11924,35.33112],[128.12013,35.33244],[128.12217,35.33246],[128.12428,35.33311],[128.12722,35.33555],[128.12823,35.33567],[128.1299,35.33644],[128.13263,35.33839],[128.13319,35.33928],[128.13347,35.34119],[128.13538,35.34192],[128.13829,35.34242],[128.13871,35.34341],[128.14057,35.34525],[128.14146,35.34549],[128.14239,35.34629],[128.14344,35.34645],[128.14378,35.34708],[128.14585,35.34861],[128.14711,35.34807],[128.15016,35.34992],[128.15233,35.34966],[128.15374,35.35079],[128.15491,35.35113],[128.15599,35.35083],[128.15694,35.34912],[128.15692,35.34839],[128.1583,35.3465],[128.15802,35.34582],[128.16004,35.34406],[128.1636,35.34246],[128.16399,35.34162],[128.16358,35.3405],[128.16398,35.33962],[128.16378,35.33815],[128.16435,35.33617],[128.16658,35.33463],[128.16691,35.33348],[128.17047,35.33018],[128.17192,35.32817],[128.17353,35.32824],[128.17417,35.32643],[128.17618,35.32475],[128.1773,35.3242],[128.17775,35.32321],[128.17843,35.32264],[128.17904,35.3196],[128.1779,35.31849],[128.17808,35.31745],[128.17757,35.31665],[128.1749,35.31557],[128.17397,35.31467],[128.17323,35.31467],[128.17263,35.314],[128.17392,35.31061],[128.17311,35.30947],[128.17273,35.30824],[128.17447,35.30556],[128.17421,35.30369],[128.17476,35.3031],[128.1751,35.30157],[128.17617,35.30105],[128.17623,35.30049],[128.17716,35.30002],[128.17755,35.29895],[128.17743,35.29798],[128.17451,35.29493],[128.17421,35.2943],[128.1746,35.29337],[128.17443,35.29275],[128.1747,35.29187],[128.17612,35.2907],[128.17671,35.28852],[128.17887,35.28682],[128.17955,35.28575],[128.18103,35.28525],[128.17937,35.2822],[128.17933,35.28128],[128.18016,35.27907],[128.1822,35.27755],[128.18294,35.27733],[128.18338,35.27655],[128.18481,35.27536],[128.18706,35.27543],[128.18792,35.27488],[128.19015,35.27208],[128.18957,35.27018],[128.19075,35.26954],[128.19132,35.26725],[128.19377,35.26675],[128.19474,35.26585],[128.19573,35.26563],[128.19507,35.26463],[128.19548,35.26438],[128.19579,35.26325],[128.19574,35.2602],[128.19387,35.25645],[128.19624,35.25567],[128.19777,35.25424],[128.20025,35.25349],[128.20149,35.25366],[128.20283,35.25518],[128.20344,35.2577],[128.2033,35.25852],[128.20401,35.25942],[128.20445,35.26091],[128.20497,35.26174],[128.20577,35.2622],[128.20595,35.26295],[128.2097,35.26499],[128.2109,35.2648],[128.21181,35.26528],[128.21514,35.26452],[128.21542,35.26402],[128.21765,35.26487],[128.21948,35.26468],[128.22508,35.26083],[128.22879,35.25876],[128.23144,35.25618],[128.2338,35.25497],[128.23823,35.25366],[128.24506,35.25342],[128.25891,35.25603],[128.2699,35.25623],[128.27404,35.2574],[128.27784,35.25661],[128.28051,35.2552],[128.28191,35.25381],[128.28538,35.25229],[128.28635,35.25156],[128.28934,35.25219],[128.28966,35.25302],[128.29356,35.25345],[128.29864,35.24989],[128.29823,35.24882],[128.29842,35.24833],[128.29744,35.24662],[128.29628,35.24623],[128.29532,35.24421],[128.29401,35.24315],[128.29377,35.2408],[128.29602,35.24022],[128.29722,35.23958],[128.29755,35.23749],[128.30093,35.23796],[128.30171,35.23837],[128.30273,35.23742],[128.30354,35.23719],[128.30455,35.23479],[128.30638,35.23365],[128.30809,35.22938],[128.30609,35.22549],[128.30582,35.22393],[128.30743,35.22151],[128.30934,35.22156],[128.31188,35.22212],[128.3148,35.22181],[128.31543,35.22247],[128.31623,35.22272],[128.3183,35.22167],[128.31929,35.22062],[128.32013,35.22062],[128.3203,35.21949],[128.32091,35.21843],[128.32138,35.21822],[128.32191,35.21697],[128.32217,35.21569],[128.32173,35.21497],[128.3223,35.21381],[128.32269,35.21327],[128.3236,35.2132],[128.32548,35.21148],[128.32623,35.21133],[128.32695,35.20982],[128.32673,35.2094],[128.32717,35.20807],[128.3287,35.20687],[128.32978,35.20673],[128.33015,35.2071],[128.33193,35.20694],[128.3332,35.2075],[128.33504,35.20748],[128.3363,35.20837],[128.33814,35.20886],[128.34007,35.20771],[128.3411,35.20762],[128.34172,35.20794],[128.3484,35.2088],[128.34963,35.21009],[128.35293,35.20954],[128.35382,35.20907],[128.35386,35.20824],[128.35568,35.20777],[128.35716,35.20675],[128.35875,35.20422],[128.35865,35.2035],[128.35998,35.20116],[128.36105,35.20073],[128.36174,35.19916],[128.36422,35.19804],[128.36507,35.19664],[128.36568,35.19629],[128.36592,35.19509],[128.36566,35.19478],[128.36723,35.19427],[128.36773,35.19301],[128.36819,35.19095],[128.3672,35.1891],[128.36676,35.18693],[128.36729,35.18578],[128.36743,35.18423],[128.36543,35.17962],[128.36439,35.17883],[128.36509,35.17458],[128.36493,35.17265],[128.36526,35.172],[128.36452,35.17038],[128.36328,35.16908],[128.3632,35.1679],[128.36203,35.16616],[128.3622,35.164],[128.36128,35.16333],[128.36117,35.16224],[128.36243,35.15996],[128.36116,35.15862],[128.36103,35.1578],[128.36044,35.1572],[128.3613,35.15579],[128.3616,35.15438],[128.36139,35.15325],[128.36218,35.15219],[128.36185,35.15087],[128.36087,35.15039],[128.35919,35.1486],[128.35916,35.14784],[128.35855,35.1469],[128.35889,35.14599],[128.3598,35.14584],[128.3608,35.14496],[128.36184,35.14209],[128.36326,35.14156],[128.36342,35.14108],[128.36282,35.14024],[128.36107,35.14021],[128.36037,35.14046],[128.35811,35.13961],[128.35684,35.1384],[128.35695,35.13691],[128.35533,35.13635],[128.35482,35.13577],[128.35491,35.13539],[128.35428,35.13501],[128.35216,35.13416],[128.3521,35.13369],[128.35017,35.13177],[128.34814,35.13082],[128.34871,35.12916],[128.34827,35.12709],[128.34431,35.12728],[128.34166,35.1268],[128.34016,35.12708],[128.33841,35.12792],[128.33659,35.12723],[128.33388,35.12462],[128.33188,35.12469],[128.32809,35.124],[128.32796,35.12507],[128.32751,35.1257],[128.32492,35.12746],[128.32401,35.12842],[128.32384,35.12916],[128.32264,35.12985],[128.32055,35.12871],[128.31882,35.12931],[128.31794,35.1292],[128.31613,35.12957],[128.31492,35.12886],[128.31396,35.12715],[128.31272,35.12645],[128.31106,35.12621],[128.30929,35.12518],[128.30742,35.12532],[128.30635,35.12498],[128.30545,35.12549],[128.30491,35.12666],[128.30404,35.1271],[128.30136,35.12587],[128.29972,35.12559],[128.29958,35.12602],[128.29798,35.12697],[128.29717,35.12787],[128.29338,35.12956],[128.29159,35.13068],[128.2892,35.13138],[128.28746,35.13121],[128.28596,35.13048],[128.28493,35.13085],[128.28364,35.13073],[128.28209,35.13167],[128.28098,35.13142],[128.27901,35.13206],[128.27727,35.13144],[128.27541,35.13216],[128.27375,35.13244],[128.27229,35.13177],[128.27018,35.13152],[128.26959,35.13174],[128.26855,35.12989],[128.26698,35.12925],[128.26649,35.12841],[128.26481,35.12793],[128.26355,35.12712],[128.26047,35.1283],[128.25861,35.12848],[128.25735,35.12799],[128.25603,35.12675],[128.25331,35.12839],[128.25156,35.12779],[128.24896,35.12791],[128.24728,35.12831],[128.24764,35.1262],[128.24672,35.12571],[128.24497,35.1256],[128.24413,35.12601],[128.24276,35.1245],[128.24255,35.12364],[128.24173,35.12327],[128.24206,35.12208],[128.24188,35.12085],[128.241,35.12083],[128.23977,35.12019],[128.23894,35.12026],[128.23787,35.11904],[128.23704,35.11927],[128.23622,35.11908],[128.23489,35.11815],[128.23398,35.11664],[128.23221,35.11719],[128.23181,35.11804],[128.23068,35.11745],[128.22953,35.11746],[128.22891,35.11716],[128.22771,35.11393],[128.22389,35.11347],[128.22248,35.11452],[128.22045,35.11401],[128.21934,35.11492],[128.21807,35.11482],[128.21739,35.11417],[128.21553,35.11442],[128.21477,35.11481],[128.21342,35.11422],[128.2124,35.11424],[128.21089,35.11545],[128.20947,35.11486],[128.20958,35.11216],[128.2066,35.11122],[128.2048,35.10968],[128.20299,35.10942],[128.20307,35.10863],[128.2022,35.10612],[128.20127,35.10578],[128.1999,35.10611],[128.19907,35.10514],[128.19911,35.10452],[128.19838,35.10362],[128.19998,35.103],[128.20046,35.10234],[128.20063,35.10055],[128.20105,35.10053],[128.20001,35.09965],[128.19903,35.09706],[128.19837,35.09626],[128.19695,35.09557],[128.19551,35.09582],[128.19178,35.09773],[128.19104,35.09897],[128.1902,35.09867],[128.19046,35.09721],[128.18938,35.09564],[128.18807,35.09263],[128.18773,35.0885],[128.18725,35.08833],[128.18743,35.08801],[128.18774,35.0881],[128.1881,35.08589],[128.18842,35.08568],[128.18803,35.08433],[128.18836,35.08144],[128.19008,35.07763],[128.19095,35.07664],[128.19843,35.07675],[128.20096,35.0764],[128.20312,35.07669],[128.20515,35.0763],[128.20592,35.0766],[128.21073,35.07557],[128.21098,35.07326],[128.20834,35.0715],[128.20783,35.07214],[128.20724,35.07203],[128.20325,35.07032],[128.20217,35.06938],[128.20132,35.06916],[128.19895,35.06669],[128.19727,35.06616],[128.19696,35.06534],[128.19618,35.06502],[128.19457,35.06337],[128.19443,35.06242],[128.19355,35.06158],[128.19404,35.06071],[128.19279,35.05987],[128.19005,35.05412],[128.18922,35.05344],[128.18769,35.05289],[128.18665,35.05172],[128.18576,35.05157],[128.18503,35.05101],[128.18432,35.05092],[128.18279,35.05147],[128.18074,35.05264],[128.17806,35.05355],[128.17751,35.05349],[128.17674,35.05246],[128.17243,35.05195],[128.17175,35.05258],[128.17211,35.05337],[128.16967,35.05731],[128.16736,35.05913],[128.16578,35.06225],[128.16495,35.06313],[128.16494,35.06364],[128.16291,35.0653],[128.16243,35.06618],[128.16084,35.06659],[128.1592,35.06553],[128.15816,35.06544],[128.15782,35.06584],[128.15604,35.06579],[128.15433,35.07075],[128.15351,35.07124],[128.152,35.07437],[128.14879,35.07513],[128.14794,35.07764],[128.14865,35.07782],[128.15135,35.08018],[128.15183,35.08106],[128.1562,35.08034],[128.15776,35.08104],[128.16275,35.07986],[128.16423,35.08075],[128.1645,35.08145],[128.16581,35.08197],[128.16598,35.08269],[128.16759,35.08302],[128.16932,35.08381],[128.16772,35.08569],[128.16853,35.08616],[128.16865,35.08884],[128.17001,35.08976],[128.17015,35.09202],[128.17206,35.09532],[128.17148,35.09597],[128.17046,35.09629],[128.16988,35.09709],[128.16858,35.09653],[128.16703,35.09648],[128.16641,35.0969],[128.16269,35.10161],[128.16052,35.10055],[128.15964,35.10039],[128.1588,35.10079],[128.15822,35.1016],[128.15804,35.10409],[128.15702,35.10513],[128.15643,35.10633],[128.15495,35.10707],[128.1556,35.10785],[128.15546,35.10882],[128.15465,35.10918],[128.15353,35.11068],[128.14998,35.11285],[128.14892,35.11318],[128.14735,35.11446],[128.14539,35.11517],[128.1438,35.11534],[128.14305,35.11593],[128.141,35.11626],[128.13903,35.11598],[128.13829,35.11533],[128.13548,35.11656],[128.13518,35.11731],[128.13295,35.11696],[128.13198,35.11727],[128.13135,35.11617],[128.13011,35.11597],[128.12811,35.1146],[128.12771,35.11471],[128.12748,35.11541],[128.12685,35.11595],[128.12529,35.11637],[128.12086,35.11375],[128.11874,35.1143],[128.11811,35.11415],[128.1166,35.11094],[128.11397,35.10862],[128.11315,35.10822],[128.11176,35.10814],[128.11146,35.10693],[128.10907,35.10548],[128.10787,35.10547],[128.10646,35.10594],[128.10283,35.10611],[128.10123,35.10651],[128.09851,35.10661],[128.09796,35.1064],[128.09735,35.10492],[128.09577,35.10414],[128.09359,35.10355],[128.09256,35.10247],[128.09274,35.10135],[128.0915,35.10103],[128.09049,35.10201],[128.09107,35.10222],[128.09052,35.10294],[128.09097,35.10327],[128.09091,35.10365],[128.09064,35.10392],[128.0897,35.10395],[128.0893,35.10432],[128.08993,35.10516],[128.09048,35.10734],[128.09179,35.10767],[128.09164,35.10898],[128.09201,35.10935],[128.091,35.11057],[128.09169,35.11131],[128.09151,35.11228],[128.09104,35.1123],[128.0911,35.11606],[128.09004,35.11723],[128.08829,35.11855],[128.08535,35.11903],[128.08151,35.12017],[128.08141,35.12119],[128.08039,35.12196],[128.0794,35.12198],[128.07575,35.12322],[128.07439,35.12471],[128.07421,35.12524],[128.07452,35.12587],[128.07342,35.12637],[128.07281,35.12705],[128.07202,35.12714],[128.0706,35.12831],[128.06802,35.12875],[128.06646,35.12771],[128.06472,35.12793],[128.06357,35.12759],[128.06269,35.12779],[128.06091,35.12762],[128.0605,35.12788],[128.05857,35.12747],[128.05639,35.12777],[128.05565,35.12966],[128.05458,35.12983]]]]},"properties":{"id":"SGG:48170","layer":"L3","admin_code":"48170","name":"경상남도 진주시","sido":"경상남도","sgg":"진주시","provisional":false,"source":"통계청 행정동 경계(BND_ADM_DONG_PG, 2025-06-30) 를 시군구로 합침","source_kind":"derived","derived_from":"행정동 경계 union · 20 m 단순화"}}]}