{"type":"FeatureCollection","features":[{"type":"Feature","id":"SGG:47830","geometry":{"type":"MultiPolygon","coordinates":[[[[128.3538,35.68965],[128.35719,35.6822],[128.36232,35.67557],[128.37474,35.66494],[128.38267,35.65954],[128.38369,35.65849],[128.39227,35.65345],[128.39791,35.64881],[128.40004,35.64555],[128.40195,35.63574],[128.40125,35.63273],[128.3972,35.62914],[128.39331,35.62325],[128.39224,35.62253],[128.38838,35.61793],[128.37841,35.61365],[128.37341,35.61249],[128.37175,35.61088],[128.3656,35.61339],[128.36463,35.61336],[128.36414,35.61471],[128.36277,35.626],[128.36193,35.62893],[128.35794,35.63736],[128.35527,35.64117],[128.35214,35.64458],[128.34875,35.64647],[128.3465,35.64577],[128.34551,35.64612],[128.34244,35.64625],[128.3418,35.64526],[128.34229,35.64519],[128.34168,35.64482],[128.33782,35.64481],[128.33697,35.64525],[128.33644,35.64622],[128.33481,35.64709],[128.33219,35.64756],[128.32954,35.64853],[128.32678,35.64684],[128.32404,35.64661],[128.32377,35.64706],[128.32102,35.6487],[128.32017,35.65005],[128.31926,35.65079],[128.31791,35.65149],[128.31624,35.65154],[128.31353,35.65303],[128.30599,35.65548],[128.30301,35.65479],[128.29905,35.65611],[128.29728,35.65632],[128.29779,35.65531],[128.29767,35.65432],[128.29625,35.65073],[128.29492,35.65101],[128.29301,35.65086],[128.28995,35.65222],[128.28832,35.65251],[128.27947,35.65231],[128.27798,35.65087],[128.2778,35.65031],[128.27826,35.64869],[128.27736,35.64729],[128.27679,35.64697],[128.27542,35.64673],[128.27204,35.64683],[128.27039,35.64565],[128.26698,35.64519],[128.26549,35.64469],[128.2643,35.64415],[128.26381,35.64339],[128.26234,35.64274],[128.26093,35.64429],[128.25955,35.64702],[128.25864,35.6478],[128.25383,35.64957],[128.25223,35.65075],[128.25144,35.65071],[128.25068,35.65123],[128.24988,35.65119],[128.24817,35.65257],[128.24543,35.65407],[128.24444,35.65543],[128.24221,35.65525],[128.24107,35.65416],[128.24125,35.65325],[128.24023,35.65208],[128.23776,35.65188],[128.23636,35.65108],[128.23685,35.64802],[128.23651,35.64738],[128.23708,35.64658],[128.23775,35.64396],[128.23596,35.64068],[128.23408,35.63993],[128.23186,35.64011],[128.22973,35.63946],[128.22915,35.63956],[128.22654,35.64154],[128.22547,35.64159],[128.2219,35.64075],[128.22018,35.63999],[128.21747,35.64099],[128.21386,35.64078],[128.21277,35.6411],[128.21225,35.64094],[128.21163,35.64133],[128.21161,35.64194],[128.21071,35.64301],[128.21044,35.6439],[128.20846,35.64366],[128.20812,35.64337],[128.20636,35.64376],[128.20365,35.6435],[128.20123,35.64372],[128.19972,35.6455],[128.19995,35.64663],[128.19887,35.64915],[128.197,35.6508],[128.19581,35.65089],[128.19388,35.65286],[128.19301,35.6533],[128.19174,35.65494],[128.18595,35.65754],[128.18524,35.65767],[128.18129,35.65687],[128.1768,35.65695],[128.17298,35.65485],[128.1674,35.6537],[128.16589,35.65299],[128.16389,35.65307],[128.1615,35.65379],[128.16018,35.65488],[128.15933,35.65677],[128.1602,35.65842],[128.16166,35.65978],[128.16117,35.66059],[128.16139,35.66156],[128.16103,35.66361],[128.15987,35.66615],[128.16048,35.66808],[128.16238,35.66977],[128.16233,35.67201],[128.16321,35.67243],[128.16392,35.67346],[128.16482,35.67348],[128.1666,35.67409],[128.16703,35.67382],[128.17319,35.67297],[128.17569,35.67417],[128.17916,35.67295],[128.18107,35.67533],[128.18222,35.67568],[128.1823,35.67636],[128.18386,35.67674],[128.18414,35.68005],[128.18661,35.67959],[128.18867,35.68016],[128.19131,35.67878],[128.19212,35.67947],[128.19273,35.68228],[128.19329,35.68159],[128.19473,35.68105],[128.19664,35.68143],[128.19823,35.68233],[128.1977,35.68323],[128.19839,35.68339],[128.19846,35.68425],[128.19877,35.68443],[128.20133,35.68429],[128.20242,35.6836],[128.20482,35.68392],[128.2037,35.68636],[128.20365,35.68729],[128.20422,35.68851],[128.20408,35.68919],[128.20217,35.69162],[128.20235,35.69352],[128.20436,35.69657],[128.20438,35.69749],[128.20374,35.69898],[128.20396,35.70006],[128.20331,35.70304],[128.20151,35.70516],[128.20153,35.7057],[128.20076,35.70687],[128.20016,35.70715],[128.20057,35.70734],[128.20031,35.70772],[128.2004,35.70993],[128.20054,35.70955],[128.2009,35.71031],[128.20176,35.71062],[128.20161,35.71083],[128.20207,35.71109],[128.20258,35.71228],[128.20244,35.71344],[128.20194,35.7143],[128.20188,35.71704],[128.20226,35.7176],[128.20153,35.71867],[128.20197,35.71917],[128.20151,35.71997],[128.1994,35.72029],[128.20125,35.72316],[128.19949,35.72593],[128.19897,35.72624],[128.19829,35.72856],[128.19663,35.73038],[128.19661,35.73146],[128.19796,35.7339],[128.19809,35.73606],[128.19509,35.73795],[128.19361,35.73813],[128.19344,35.73971],[128.19134,35.74428],[128.19077,35.74742],[128.18852,35.74967],[128.18928,35.75176],[128.18611,35.75384],[128.18255,35.7547],[128.18239,35.75504],[128.17918,35.75671],[128.17879,35.75718],[128.17704,35.75794],[128.17597,35.75802],[128.17252,35.75914],[128.17138,35.75967],[128.17065,35.76041],[128.16954,35.76053],[128.16823,35.76203],[128.165,35.76349],[128.16326,35.76292],[128.16317,35.76317],[128.16342,35.76373],[128.16315,35.76423],[128.16374,35.76504],[128.16364,35.76591],[128.16301,35.76693],[128.16232,35.76735],[128.16153,35.77001],[128.16167,35.77153],[128.16293,35.77451],[128.16351,35.77701],[128.16477,35.77815],[128.16848,35.77961],[128.17019,35.78204],[128.17172,35.78269],[128.17276,35.78353],[128.1746,35.78571],[128.17808,35.78703],[128.17807,35.78671],[128.17854,35.78685],[128.17884,35.78734],[128.17666,35.79347],[128.17571,35.79494],[128.17295,35.79726],[128.17307,35.798],[128.17169,35.79753],[128.16982,35.7978],[128.17092,35.79772],[128.17101,35.79792],[128.16527,35.80082],[128.16442,35.80373],[128.16306,35.80439],[128.16234,35.80546],[128.16246,35.80779],[128.1653,35.81209],[128.16497,35.81259],[128.1695,35.81591],[128.17433,35.8169],[128.17467,35.81749],[128.17678,35.81799],[128.17658,35.81837],[128.17822,35.81878],[128.17982,35.81887],[128.18245,35.8183],[128.18434,35.81835],[128.18656,35.81922],[128.18765,35.81911],[128.18788,35.81934],[128.18976,35.81868],[128.19141,35.81877],[128.19444,35.81818],[128.19638,35.81645],[128.1985,35.81543],[128.20271,35.81484],[128.20704,35.81537],[128.20752,35.81503],[128.20957,35.81592],[128.21071,35.81496],[128.21227,35.81131],[128.2136,35.80941],[128.21214,35.80813],[128.21228,35.80667],[128.21276,35.80621],[128.21328,35.8065],[128.21346,35.80632],[128.21302,35.80584],[128.21348,35.80553],[128.2136,35.80496],[128.21334,35.80458],[128.21362,35.80182],[128.21315,35.80014],[128.21359,35.80055],[128.21306,35.7993],[128.21359,35.79918],[128.21376,35.79859],[128.21566,35.79761],[128.2163,35.79767],[128.21689,35.79569],[128.21647,35.79555],[128.21655,35.79529],[128.21724,35.79496],[128.21675,35.79475],[128.21708,35.79212],[128.21998,35.79076],[128.22148,35.78954],[128.22507,35.78758],[128.22889,35.78783],[128.23307,35.78702],[128.23504,35.78524],[128.23529,35.78457],[128.23722,35.78371],[128.23828,35.78232],[128.24175,35.78215],[128.24413,35.7814],[128.24838,35.78158],[128.24983,35.78019],[128.25144,35.78015],[128.25187,35.78127],[128.25044,35.78363],[128.25082,35.78489],[128.24997,35.7897],[128.2509,35.79005],[128.25332,35.79026],[128.25671,35.79184],[128.25802,35.79169],[128.25924,35.79273],[128.25981,35.79468],[128.25953,35.79484],[128.26213,35.79539],[128.26214,35.79577],[128.26524,35.79477],[128.27051,35.79133],[128.27129,35.79187],[128.27125,35.79349],[128.27209,35.79457],[128.27238,35.79567],[128.27353,35.7959],[128.2739,35.79722],[128.27318,35.79901],[128.27346,35.80041],[128.27242,35.80204],[128.27296,35.80342],[128.27215,35.80466],[128.27356,35.80661],[128.27451,35.80999],[128.27298,35.81228],[128.2725,35.81529],[128.2736,35.8182],[128.2733,35.82109],[128.27392,35.82502],[128.27546,35.8267],[128.27811,35.82654],[128.27767,35.82705],[128.2814,35.82735],[128.28648,35.82606],[128.28981,35.82638],[128.29191,35.8232],[128.29622,35.82008],[128.29756,35.81801],[128.29877,35.81684],[128.29925,35.81508],[128.30239,35.81504],[128.30357,35.81471],[128.30465,35.814],[128.30537,35.81235],[128.30618,35.81257],[128.31088,35.81255],[128.31183,35.81369],[128.31339,35.81462],[128.31336,35.81402],[128.31634,35.81357],[128.31768,35.81369],[128.31868,35.81343],[128.31953,35.81246],[128.32128,35.81229],[128.32116,35.81057],[128.32141,35.80969],[128.3222,35.80879],[128.32491,35.80812],[128.32749,35.80677],[128.33208,35.80237],[128.3341,35.8015],[128.33716,35.79846],[128.33806,35.79712],[128.34248,35.79662],[128.3448,35.79712],[128.34758,35.79839],[128.35026,35.79905],[128.35254,35.79761],[128.35571,35.79665],[128.35745,35.7966],[128.36185,35.79442],[128.36558,35.79339],[128.36738,35.79407],[128.36822,35.79541],[128.36882,35.79949],[128.36875,35.80405],[128.37004,35.80574],[128.36979,35.80723],[128.37017,35.80742],[128.36893,35.81089],[128.36923,35.8136],[128.36955,35.81412],[128.36879,35.81682],[128.3694,35.81718],[128.37002,35.81698],[128.37237,35.81704],[128.37287,35.81734],[128.37445,35.81722],[128.37678,35.81961],[128.37721,35.81966],[128.37885,35.82309],[128.37839,35.82616],[128.37729,35.82785],[128.37686,35.82973],[128.37603,35.8309],[128.37624,35.8321],[128.37501,35.83377],[128.37315,35.83484],[128.37489,35.83618],[128.37666,35.83628],[128.37865,35.83767],[128.38155,35.83901],[128.38275,35.83849],[128.38481,35.83834],[128.38739,35.83842],[128.38819,35.83877],[128.39283,35.83822],[128.39246,35.84073],[128.39119,35.84123],[128.39004,35.84213],[128.3878,35.84837],[128.38774,35.84926],[128.38743,35.84955],[128.38732,35.84914],[128.38688,35.84947],[128.38654,35.85131],[128.38759,35.85241],[128.38953,35.85201],[128.41598,35.85176],[128.41918,35.85055],[128.43077,35.84972],[128.43618,35.84833],[128.44472,35.84792],[128.45,35.84666],[128.46036,35.84161],[128.4666,35.83973],[128.46899,35.83963],[128.46869,35.83846],[128.47255,35.83361],[128.47416,35.83254],[128.48122,35.83009],[128.48278,35.82435],[128.48307,35.82114],[128.48272,35.81552],[128.48154,35.81601],[128.4779,35.81235],[128.47279,35.80898],[128.47391,35.80708],[128.47354,35.80716],[128.47043,35.80592],[128.46336,35.80606],[128.46167,35.80585],[128.46041,35.80627],[128.46001,35.80596],[128.45922,35.80617],[128.45747,35.80596],[128.44103,35.80602],[128.44095,35.80929],[128.42083,35.80935],[128.42082,35.8063],[128.42029,35.80608],[128.41579,35.80609],[128.41577,35.80281],[128.41244,35.80282],[128.41074,35.80109],[128.41055,35.79935],[128.40812,35.79921],[128.40068,35.7865],[128.39881,35.781],[128.39759,35.77865],[128.39634,35.77713],[128.39212,35.77329],[128.39086,35.77165],[128.38963,35.76999],[128.38597,35.76339],[128.38347,35.76009],[128.38343,35.75826],[128.38773,35.75358],[128.39125,35.74835],[128.39632,35.74531],[128.40138,35.74335],[128.40645,35.74067],[128.41151,35.73856],[128.42165,35.73313],[128.42389,35.73103],[128.43182,35.7256],[128.43364,35.72228],[128.43489,35.71476],[128.43459,35.70927],[128.43398,35.70707],[128.43319,35.70595],[128.42777,35.70157],[128.42546,35.69923],[128.42295,35.69761],[128.41911,35.69639],[128.41721,35.69644],[128.41541,35.69603],[128.4122,35.69584],[128.39706,35.70022],[128.39203,35.70094],[128.38197,35.70155],[128.37692,35.70306],[128.37208,35.7051],[128.36499,35.70744],[128.35888,35.7087],[128.3579,35.70854],[128.35534,35.70733],[128.3518,35.70402],[128.35155,35.69746],[128.3538,35.68965]]]]},"properties":{"id":"SGG:47830","layer":"L3","admin_code":"47830","name":"경상북도 고령군","sido":"경상북도","sgg":"고령군","provisional":false,"source":"통계청 행정동 경계(BND_ADM_DONG_PG, 2025-06-30) 를 시군구로 합침","source_kind":"derived","derived_from":"행정동 경계 union · 20 m 단순화"}}]}