{"type":"FeatureCollection","features":[{"type":"Feature","id":"SGG:51210","geometry":{"type":"MultiPolygon","coordinates":[[[[128.4558,38.19821],[128.45769,38.19754],[128.45991,38.19779],[128.46261,38.19694],[128.4645,38.19764],[128.46515,38.19743],[128.46663,38.19862],[128.47006,38.19636],[128.47358,38.19472],[128.47474,38.19371],[128.47711,38.1928],[128.47628,38.19093],[128.4772,38.18889],[128.47804,38.18826],[128.47933,38.18791],[128.47982,38.18744],[128.48112,38.18733],[128.48161,38.18781],[128.48269,38.18804],[128.48455,38.18797],[128.48594,38.18852],[128.48655,38.18902],[128.4866,38.1895],[128.4885,38.19075],[128.48973,38.19303],[128.49038,38.19349],[128.4903,38.19399],[128.4921,38.1957],[128.49328,38.19626],[128.4948,38.19579],[128.49529,38.19598],[128.4967,38.19754],[128.49776,38.19793],[128.49838,38.19912],[128.49831,38.20022],[128.49924,38.20221],[128.5007,38.20264],[128.50142,38.20326],[128.50685,38.2039],[128.51067,38.20584],[128.51245,38.20746],[128.51399,38.20774],[128.51503,38.20686],[128.5164,38.2069],[128.51909,38.20764],[128.52031,38.20737],[128.52206,38.20755],[128.52639,38.21009],[128.52921,38.21126],[128.53053,38.21254],[128.53058,38.21362],[128.53214,38.21439],[128.5337,38.21581],[128.53621,38.21637],[128.5376,38.21737],[128.53803,38.21747],[128.53849,38.21713],[128.54109,38.21753],[128.54345,38.21713],[128.54405,38.21657],[128.54526,38.21646],[128.54783,38.21758],[128.54819,38.21734],[128.54997,38.21801],[128.5525,38.21747],[128.55384,38.21812],[128.55448,38.21774],[128.55504,38.21787],[128.55642,38.21878],[128.55678,38.21963],[128.5581,38.21951],[128.55954,38.21984],[128.55979,38.22027],[128.56123,38.22095],[128.56334,38.22054],[128.56431,38.22069],[128.56507,38.2204],[128.56637,38.22044],[128.56733,38.22007],[128.56819,38.22014],[128.56886,38.22087],[128.57023,38.22133],[128.57186,38.22164],[128.57237,38.22131],[128.57356,38.22154],[128.57564,38.22259],[128.57601,38.22321],[128.57892,38.22463],[128.57942,38.22537],[128.57924,38.22621],[128.58,38.22666],[128.58032,38.22753],[128.58223,38.22803],[128.58257,38.22908],[128.58335,38.22918],[128.58444,38.22871],[128.58488,38.22931],[128.58505,38.23086],[128.58618,38.23019],[128.58668,38.22914],[128.58691,38.2292],[128.58668,38.22849],[128.58739,38.22733],[128.58818,38.22701],[128.59003,38.22733],[128.5919,38.2248],[128.59157,38.22464],[128.58988,38.22705],[128.58868,38.22684],[128.58955,38.22469],[128.59085,38.22478],[128.58983,38.22447],[128.58974,38.22415],[128.59043,38.22253],[128.59112,38.22207],[128.5921,38.22249],[128.59027,38.22115],[128.59273,38.22216],[128.5922,38.22346],[128.59256,38.22358],[128.59307,38.2222],[128.59401,38.22171],[128.59371,38.22152],[128.59273,38.22197],[128.59226,38.22114],[128.59231,38.22037],[128.59411,38.21848],[128.59502,38.21843],[128.59549,38.21869],[128.59568,38.21908],[128.59529,38.21921],[128.59537,38.21947],[128.59628,38.21916],[128.59684,38.21855],[128.59678,38.218],[128.59642,38.21802],[128.59645,38.21859],[128.59582,38.21848],[128.59546,38.21736],[128.59716,38.2154],[128.59862,38.21457],[128.5995,38.21506],[128.60042,38.2148],[128.60122,38.21401],[128.60107,38.2137],[128.60155,38.21383],[128.6014,38.21426],[128.60206,38.21465],[128.60231,38.21331],[128.60141,38.21276],[128.60181,38.21209],[128.60224,38.21215],[128.60193,38.21128],[128.60309,38.20741],[128.60271,38.20552],[128.60356,38.20345],[128.6029,38.20331],[128.60219,38.20534],[128.6028,38.20742],[128.60182,38.21028],[128.60101,38.21033],[128.60097,38.21065],[128.60148,38.2109],[128.60139,38.21134],[128.60025,38.21137],[128.60025,38.2107],[128.60054,38.21069],[128.60059,38.21059],[128.59451,38.21067],[128.5945,38.20691],[128.59413,38.20599],[128.59221,38.20399],[128.59258,38.2023],[128.59233,38.2014],[128.59031,38.20124],[128.58585,38.20018],[128.5858,38.20002],[128.58457,38.19969],[128.58353,38.19941],[128.5835,38.1994],[128.58349,38.1994],[128.58434,38.19855],[128.58293,38.19727],[128.58306,38.19456],[128.58244,38.19458],[128.58256,38.19433],[128.58198,38.19411],[128.58222,38.19288],[128.58326,38.1928],[128.58336,38.19208],[128.59056,38.1924],[128.59173,38.1923],[128.59173,38.19155],[128.5935,38.19155],[128.59342,38.20059],[128.59511,38.20104],[128.59678,38.20116],[128.59702,38.20089],[128.59775,38.20129],[128.59775,38.20193],[128.59804,38.20133],[128.60075,38.20213],[128.60072,38.20181],[128.59711,38.20072],[128.5972,38.19903],[128.59774,38.19789],[128.60287,38.19239],[128.60367,38.1921],[128.60487,38.19272],[128.60447,38.19311],[128.60493,38.19309],[128.60544,38.19229],[128.6051,38.19218],[128.60492,38.19264],[128.6038,38.19203],[128.60392,38.19103],[128.60721,38.18602],[128.60951,38.18334],[128.61067,38.18303],[128.61107,38.18223],[128.61166,38.1819],[128.6142,38.18157],[128.61482,38.18106],[128.61446,38.18123],[128.61466,38.18045],[128.61412,38.17987],[128.611,38.17899],[128.61074,38.17789],[128.61044,38.17803],[128.61067,38.17909],[128.60963,38.17931],[128.6093,38.17865],[128.6092,38.17806],[128.60973,38.178],[128.6092,38.17793],[128.60959,38.177],[128.61087,38.17689],[128.61068,38.17334],[128.61142,38.1705],[128.61208,38.16993],[128.61161,38.1697],[128.61117,38.17038],[128.61047,38.17365],[128.608,38.17366],[128.60782,38.17417],[128.60714,38.17448],[128.60612,38.17387],[128.60647,38.17316],[128.60779,38.17287],[128.6078,38.17153],[128.60911,38.17167],[128.60912,38.17031],[128.60892,38.17137],[128.6078,38.17133],[128.60781,38.17025],[128.60826,38.16961],[128.60802,38.16949],[128.60847,38.16888],[128.60982,38.1694],[128.60996,38.17014],[128.61033,38.17013],[128.61005,38.16923],[128.60792,38.16833],[128.60874,38.16631],[128.60906,38.1639],[128.61029,38.16379],[128.61063,38.16262],[128.61028,38.1626],[128.61,38.16355],[128.60926,38.1636],[128.60914,38.16283],[128.60969,38.16274],[128.60925,38.16259],[128.60916,38.16135],[128.60602,38.15952],[128.60473,38.15904],[128.6034,38.15895],[128.60014,38.15995],[128.597,38.15989],[128.59365,38.16099],[128.5902,38.16059],[128.58724,38.1609],[128.58658,38.16126],[128.58406,38.16162],[128.57272,38.16097],[128.57116,38.16124],[128.56985,38.16189],[128.57041,38.15985],[128.56991,38.15593],[128.5705,38.15522],[128.5703,38.15434],[128.56966,38.15415],[128.56971,38.15381],[128.56735,38.15345],[128.56632,38.15241],[128.56408,38.1512],[128.56344,38.15117],[128.56315,38.15031],[128.56222,38.1499],[128.56136,38.14894],[128.55985,38.14834],[128.55834,38.14841],[128.55675,38.14891],[128.55429,38.14891],[128.55421,38.1487],[128.55258,38.14852],[128.55169,38.14931],[128.55086,38.14912],[128.55044,38.14942],[128.54887,38.14905],[128.54587,38.14926],[128.54318,38.14858],[128.54289,38.14828],[128.53971,38.14941],[128.53771,38.14949],[128.53506,38.14855],[128.53545,38.14504],[128.53171,38.14244],[128.53095,38.13875],[128.52976,38.13642],[128.52987,38.13609],[128.52752,38.13647],[128.52543,38.13744],[128.52507,38.13816],[128.52295,38.13804],[128.52036,38.13676],[128.51588,38.13553],[128.51514,38.13556],[128.51412,38.13611],[128.50881,38.13653],[128.50443,38.13617],[128.50127,38.13513],[128.50048,38.13495],[128.49977,38.13528],[128.49928,38.13499],[128.49737,38.13614],[128.49394,38.13595],[128.49129,38.13649],[128.49017,38.13555],[128.48856,38.13493],[128.48796,38.13389],[128.48597,38.13267],[128.48129,38.13068],[128.47999,38.12933],[128.4783,38.12839],[128.47733,38.12648],[128.47494,38.12462],[128.4734,38.12404],[128.47204,38.12302],[128.46825,38.11961],[128.46693,38.11895],[128.46499,38.11916],[128.46582,38.12131],[128.46547,38.1264],[128.46424,38.12867],[128.46601,38.1316],[128.466,38.13352],[128.46455,38.13527],[128.46596,38.13692],[128.46278,38.13895],[128.46114,38.1398],[128.45912,38.14024],[128.4588,38.14096],[128.45713,38.1419],[128.45585,38.14225],[128.45448,38.14331],[128.45352,38.14459],[128.45203,38.14467],[128.44919,38.14746],[128.4464,38.14817],[128.4452,38.14911],[128.44306,38.1496],[128.44265,38.15113],[128.44194,38.15203],[128.43792,38.15487],[128.43848,38.15666],[128.43803,38.15784],[128.43816,38.15889],[128.43748,38.15959],[128.43854,38.16094],[128.43903,38.16258],[128.43773,38.16301],[128.43567,38.16437],[128.43552,38.16521],[128.43493,38.16587],[128.43377,38.16632],[128.43364,38.16733],[128.4331,38.16765],[128.43319,38.16861],[128.42965,38.17087],[128.42799,38.17145],[128.42757,38.17267],[128.42582,38.17325],[128.42413,38.1746],[128.4235,38.17572],[128.42206,38.17604],[128.42114,38.17669],[128.42182,38.17777],[128.42233,38.18152],[128.42448,38.18311],[128.42443,38.18477],[128.42496,38.18576],[128.42608,38.18629],[128.42587,38.18656],[128.42651,38.18915],[128.42844,38.18929],[128.42961,38.1901],[128.43176,38.19015],[128.43315,38.19081],[128.43481,38.19102],[128.43633,38.19226],[128.43845,38.19256],[128.43863,38.1961],[128.43968,38.19733],[128.44075,38.19968],[128.44141,38.20313],[128.44236,38.20375],[128.44594,38.2032],[128.44895,38.20056],[128.45056,38.1997],[128.45199,38.19901],[128.45416,38.19854],[128.45446,38.19812],[128.4558,38.19821]]],[[[128.61267,38.19849],[128.61453,38.19854],[128.61471,38.19808],[128.6143,38.19734],[128.61357,38.19739],[128.61251,38.1981],[128.61267,38.19849]]],[[[128.60326,38.21291],[128.60299,38.21278],[128.6032,38.21295],[128.60326,38.21291]]],[[[128.59954,38.20623],[128.60013,38.20605],[128.59951,38.20608],[128.5994,38.20569],[128.59977,38.20566],[128.59978,38.20544],[128.59964,38.20564],[128.59566,38.20581],[128.59497,38.203],[128.5953,38.20241],[128.59575,38.2024],[128.59588,38.2027],[128.59598,38.2023],[128.59328,38.20152],[128.59299,38.20367],[128.59614,38.20689],[128.59841,38.20693],[128.59953,38.2066],[128.59954,38.20623]]],[[[128.59554,38.22843],[128.59527,38.22843],[128.59547,38.22858],[128.59554,38.22843]]],[[[128.59327,38.22859],[128.59374,38.2285],[128.59355,38.22825],[128.59327,38.22859]]]]},"properties":{"id":"SGG:51210","layer":"L3","admin_code":"51210","name":"강원특별자치도 속초시","sido":"강원특별자치도","sgg":"속초시","provisional":false,"source":"통계청 행정동 경계(BND_ADM_DONG_PG, 2025-06-30) 를 시군구로 합침","source_kind":"derived","derived_from":"행정동 경계 union · 20 m 단순화"}}]}