{"type":"FeatureCollection","features":[{"type":"Feature","id":"SGG:12330","geometry":{"type":"MultiPolygon","coordinates":[[[[126.80286,35.11208],[126.80386,35.10881],[126.80487,35.10751],[126.80495,35.1058],[126.80633,35.10287],[126.80531,35.10225],[126.80339,35.10282],[126.80162,35.10171],[126.80093,35.1009],[126.80063,35.09729],[126.80245,35.09403],[126.80268,35.09274],[126.80222,35.09162],[126.80027,35.09008],[126.79823,35.08908],[126.79736,35.08905],[126.79598,35.08799],[126.79397,35.0843],[126.7914,35.08209],[126.79026,35.07995],[126.78972,35.08015],[126.78608,35.0749],[126.78453,35.07372],[126.78108,35.07204],[126.77913,35.07155],[126.77443,35.07114],[126.77135,35.07018],[126.771,35.07148],[126.77058,35.07163],[126.77054,35.07268],[126.76933,35.07328],[126.76721,35.07521],[126.76693,35.0756],[126.76705,35.07624],[126.7667,35.0763],[126.7648,35.07875],[126.76574,35.0807],[126.76565,35.08273],[126.76534,35.08369],[126.76331,35.08427],[126.7634,35.08531],[126.76295,35.08569],[126.76283,35.08634],[126.7634,35.08631],[126.76345,35.08681],[126.76281,35.08688],[126.76267,35.0875],[126.76173,35.08852],[126.76175,35.08935],[126.76207,35.08965],[126.76187,35.09103],[126.76114,35.09099],[126.75871,35.09166],[126.75766,35.09152],[126.75739,35.09123],[126.75599,35.0917],[126.75504,35.09148],[126.75428,35.09168],[126.75393,35.09208],[126.75413,35.09275],[126.7536,35.09309],[126.7536,35.09393],[126.75227,35.09527],[126.75188,35.09622],[126.75099,35.09689],[126.75061,35.09841],[126.74912,35.10029],[126.74908,35.10162],[126.74763,35.10254],[126.74672,35.10226],[126.74462,35.10404],[126.74316,35.10481],[126.74271,35.10553],[126.74084,35.10599],[126.73843,35.10758],[126.73644,35.10823],[126.73549,35.10795],[126.73544,35.10906],[126.73449,35.11031],[126.73426,35.11131],[126.73427,35.11106],[126.73266,35.11286],[126.73182,35.11257],[126.73156,35.11215],[126.73067,35.11214],[126.73043,35.11033],[126.73122,35.10931],[126.73092,35.10859],[126.73128,35.10811],[126.73075,35.10774],[126.72839,35.10741],[126.72359,35.10835],[126.7195,35.10842],[126.71585,35.11074],[126.71273,35.10991],[126.70883,35.10947],[126.7054,35.11301],[126.7025,35.11268],[126.70163,35.11232],[126.70177,35.11198],[126.70024,35.11002],[126.70003,35.10909],[126.69822,35.10846],[126.6984,35.10798],[126.69753,35.10759],[126.69597,35.10749],[126.69502,35.10865],[126.69391,35.10907],[126.69219,35.1081],[126.6917,35.11004],[126.68988,35.11122],[126.68856,35.11105],[126.6868,35.11174],[126.6849,35.11202],[126.68322,35.11141],[126.68366,35.11116],[126.6851,35.10844],[126.68449,35.10845],[126.68462,35.10775],[126.6841,35.10764],[126.68444,35.10764],[126.6819,35.10743],[126.68047,35.10785],[126.681,35.10748],[126.68001,35.10755],[126.67929,35.10694],[126.67876,35.10584],[126.67774,35.10583],[126.67633,35.10489],[126.6734,35.10519],[126.67253,35.10474],[126.66942,35.1046],[126.66747,35.10512],[126.66754,35.10562],[126.66697,35.10657],[126.6679,35.10671],[126.66896,35.1079],[126.6693,35.11202],[126.66802,35.11191],[126.66661,35.11241],[126.66538,35.11388],[126.66339,35.1148],[126.65993,35.11352],[126.65706,35.11328],[126.6552,35.11486],[126.65539,35.11699],[126.65496,35.11781],[126.65272,35.11868],[126.65166,35.12041],[126.65262,35.12196],[126.65172,35.12466],[126.65313,35.12655],[126.65367,35.1305],[126.65424,35.1312],[126.65357,35.13211],[126.65454,35.1335],[126.65495,35.13701],[126.65418,35.13735],[126.65283,35.14091],[126.65291,35.14298],[126.65332,35.14396],[126.6517,35.14399],[126.65053,35.14437],[126.64756,35.14404],[126.64471,35.14668],[126.64864,35.14707],[126.65015,35.14765],[126.6511,35.14896],[126.65067,35.15011],[126.65238,35.15144],[126.65351,35.15278],[126.65356,35.15301],[126.65176,35.15418],[126.65142,35.15482],[126.65225,35.15609],[126.65304,35.15643],[126.65368,35.15746],[126.65534,35.15888],[126.65521,35.15972],[126.65414,35.16032],[126.65366,35.16127],[126.65416,35.16229],[126.65397,35.1642],[126.65422,35.16455],[126.65708,35.16662],[126.65838,35.16683],[126.6596,35.1664],[126.66069,35.16663],[126.66265,35.1664],[126.66289,35.16748],[126.66428,35.16844],[126.66864,35.16936],[126.66908,35.16907],[126.67197,35.1721],[126.67212,35.17271],[126.6709,35.17481],[126.67014,35.17506],[126.66847,35.17489],[126.66719,35.17678],[126.66659,35.17709],[126.66598,35.17794],[126.66634,35.1781],[126.66735,35.17745],[126.66755,35.17828],[126.66723,35.1789],[126.66635,35.17859],[126.66509,35.17885],[126.66507,35.17928],[126.66258,35.18045],[126.66279,35.18154],[126.66368,35.18222],[126.66171,35.1841],[126.66176,35.18472],[126.66124,35.18524],[126.65792,35.18629],[126.65737,35.18724],[126.6554,35.18896],[126.65539,35.18953],[126.65474,35.1901],[126.65453,35.19081],[126.65396,35.19104],[126.6532,35.19252],[126.65625,35.1941],[126.65907,35.19226],[126.66015,35.19303],[126.66212,35.19376],[126.66308,35.19352],[126.66302,35.19293],[126.66351,35.19248],[126.6653,35.19253],[126.66679,35.19334],[126.66811,35.19264],[126.6696,35.19449],[126.67123,35.19378],[126.67206,35.19426],[126.67253,35.19392],[126.67294,35.19298],[126.67375,35.19301],[126.67443,35.19096],[126.67449,35.19124],[126.67597,35.19072],[126.67715,35.19103],[126.67713,35.19267],[126.67784,35.19376],[126.67649,35.19656],[126.67803,35.19878],[126.67806,35.19969],[126.67737,35.20137],[126.67758,35.20254],[126.67878,35.20369],[126.67998,35.20404],[126.68094,35.2064],[126.68046,35.20734],[126.681,35.20837],[126.68256,35.2086],[126.68454,35.20984],[126.6845,35.21088],[126.68564,35.21289],[126.68569,35.21362],[126.68705,35.21519],[126.68873,35.21443],[126.68882,35.21489],[126.68917,35.21457],[126.68944,35.21501],[126.69043,35.215],[126.69082,35.2142],[126.69144,35.21382],[126.69152,35.21311],[126.69298,35.21235],[126.69376,35.21152],[126.6949,35.21124],[126.69701,35.20926],[126.69851,35.20947],[126.69985,35.20892],[126.69986,35.20846],[126.70122,35.20822],[126.70256,35.20756],[126.70378,35.20859],[126.7046,35.20872],[126.70525,35.20922],[126.70553,35.20993],[126.70621,35.21024],[126.70708,35.21012],[126.7107,35.21227],[126.71316,35.2121],[126.71417,35.21245],[126.71503,35.21204],[126.71769,35.21239],[126.71854,35.21319],[126.71836,35.21482],[126.71888,35.21569],[126.72022,35.21602],[126.72015,35.21694],[126.72078,35.21878],[126.71918,35.22132],[126.71848,35.2218],[126.72007,35.22528],[126.71988,35.22677],[126.72171,35.22778],[126.72221,35.2277],[126.72329,35.22872],[126.72413,35.23018],[126.72356,35.23068],[126.72418,35.23236],[126.72494,35.23279],[126.72519,35.23425],[126.72568,35.23496],[126.72641,35.23509],[126.72631,35.23581],[126.72699,35.23651],[126.7279,35.23638],[126.72909,35.2373],[126.73043,35.24066],[126.72996,35.2436],[126.73105,35.24437],[126.73186,35.2453],[126.73232,35.24653],[126.73625,35.25069],[126.73652,35.25169],[126.73715,35.25198],[126.73724,35.25292],[126.73811,35.25274],[126.73865,35.25182],[126.74177,35.25081],[126.74259,35.25214],[126.74259,35.25117],[126.7429,35.25181],[126.7434,35.25158],[126.74399,35.25171],[126.74492,35.25235],[126.7458,35.2523],[126.74839,35.25333],[126.74945,35.25589],[126.75035,35.25608],[126.75054,35.25642],[126.7527,35.25686],[126.75506,35.25646],[126.75613,35.2575],[126.7569,35.25761],[126.7579,35.25837],[126.76029,35.2587],[126.76118,35.25855],[126.76345,35.25646],[126.76385,35.25403],[126.76371,35.25337],[126.76212,35.2521],[126.76216,35.25166],[126.7614,35.25084],[126.76141,35.24929],[126.76063,35.24715],[126.75936,35.24566],[126.75848,35.24523],[126.75676,35.24364],[126.7556,35.24334],[126.75542,35.24255],[126.75483,35.2419],[126.75522,35.2409],[126.75489,35.24074],[126.75387,35.23681],[126.75449,35.23535],[126.75571,35.23409],[126.75705,35.23373],[126.75917,35.23358],[126.76031,35.23397],[126.76216,35.23364],[126.76382,35.23276],[126.76646,35.23259],[126.76744,35.23197],[126.76833,35.2319],[126.76845,35.23243],[126.7703,35.23284],[126.77186,35.23095],[126.77351,35.23052],[126.77536,35.23057],[126.77803,35.22746],[126.78164,35.22478],[126.78209,35.22496],[126.78378,35.22443],[126.78351,35.22437],[126.78665,35.22387],[126.78764,35.2233],[126.78854,35.22409],[126.78954,35.22389],[126.79152,35.22242],[126.79281,35.22185],[126.79337,35.22101],[126.79538,35.21978],[126.79624,35.21969],[126.79736,35.22028],[126.80117,35.21974],[126.80214,35.22091],[126.80275,35.22083],[126.80291,35.2211],[126.8044,35.22132],[126.80469,35.21962],[126.80539,35.21827],[126.80606,35.21896],[126.80598,35.21935],[126.8069,35.21941],[126.80717,35.21977],[126.8082,35.21999],[126.80873,35.22105],[126.8098,35.22099],[126.81086,35.22134],[126.81169,35.2226],[126.81321,35.22271],[126.81355,35.22344],[126.81522,35.22414],[126.81566,35.2247],[126.81698,35.22398],[126.81782,35.22385],[126.81946,35.22522],[126.81981,35.22615],[126.8205,35.2262],[126.82103,35.22579],[126.82179,35.22612],[126.82394,35.22578],[126.82502,35.22741],[126.82429,35.23073],[126.82463,35.23146],[126.82534,35.23192],[126.82985,35.23047],[126.83326,35.22838],[126.83513,35.22872],[126.83581,35.22737],[126.83631,35.22735],[126.83817,35.22393],[126.84473,35.2259],[126.84597,35.22336],[126.84619,35.22197],[126.85305,35.22194],[126.85302,35.21805],[126.85556,35.21792],[126.85701,35.21749],[126.85376,35.21456],[126.85311,35.21366],[126.85273,35.21233],[126.85266,35.2107],[126.85409,35.20889],[126.85506,35.20599],[126.85533,35.20136],[126.85422,35.19946],[126.85197,35.19831],[126.85221,35.19707],[126.85278,35.19663],[126.854,35.19614],[126.85545,35.1961],[126.85844,35.1949],[126.85892,35.19442],[126.85966,35.19215],[126.85917,35.18958],[126.8604,35.18568],[126.85871,35.18316],[126.85603,35.182],[126.85408,35.18238],[126.8526,35.18222],[126.85144,35.18118],[126.85086,35.1798],[126.85024,35.17963],[126.84711,35.17957],[126.84606,35.18028],[126.84477,35.1822],[126.84138,35.18185],[126.83915,35.17944],[126.83769,35.17667],[126.83738,35.17079],[126.83616,35.17009],[126.83279,35.16989],[126.83067,35.16936],[126.82793,35.16801],[126.82513,35.16583],[126.82448,35.16461],[126.82449,35.16272],[126.82521,35.16135],[126.8261,35.16046],[126.82523,35.15784],[126.82583,35.15754],[126.82527,35.15588],[126.82528,35.15365],[126.82817,35.15073],[126.82902,35.14905],[126.82912,35.14421],[126.82969,35.14148],[126.82944,35.14083],[126.82373,35.13524],[126.82063,35.13427],[126.81901,35.13282],[126.81868,35.13117],[126.81903,35.12977],[126.81978,35.12894],[126.82156,35.12784],[126.82224,35.12667],[126.82102,35.12428],[126.8186,35.12294],[126.81723,35.12148],[126.81686,35.11853],[126.8179,35.11781],[126.81752,35.11724],[126.81645,35.11663],[126.81592,35.1169],[126.81417,35.11676],[126.81311,35.11703],[126.81204,35.11667],[126.80994,35.11671],[126.80946,35.11569],[126.80937,35.11417],[126.80966,35.11352],[126.80928,35.1123],[126.80708,35.11256],[126.80593,35.11191],[126.80515,35.11237],[126.8035,35.11271],[126.80286,35.11208]]]]},"properties":{"id":"SGG:12330","layer":"L3","admin_code":"12330","name":"전남광주통합특별시 광산구","sido":"전남광주통합특별시","sgg":"광산구","provisional":false,"source":"통계청 행정동 경계(BND_ADM_DONG_PG, 2025-06-30) 를 시군구로 합침","source_kind":"derived","derived_from":"행정동 경계 union · 20 m 단순화"}}]}