{"type":"FeatureCollection","features":[{"type":"Feature","id":"SGG:41220","geometry":{"type":"MultiPolygon","coordinates":[[[[127.1045,36.96574],[127.10327,36.96489],[127.10251,36.96476],[127.10183,36.96408],[127.10078,36.96068],[127.0983,36.96079],[127.09642,36.95939],[127.09641,36.95569],[127.09762,36.9552],[127.09844,36.95446],[127.10075,36.95443],[127.103,36.95316],[127.10292,36.95274],[127.10079,36.95085],[127.09846,36.94923],[127.09864,36.94859],[127.097,36.94799],[127.09698,36.94623],[127.09576,36.94237],[127.09504,36.94218],[127.09289,36.94282],[127.09191,36.94345],[127.08983,36.9457],[127.08621,36.94774],[127.08329,36.9453],[127.07832,36.94251],[127.07729,36.94125],[127.07504,36.93999],[127.07408,36.93863],[127.07359,36.93896],[127.0738,36.93981],[127.07277,36.94056],[127.07155,36.94068],[127.06991,36.93998],[127.06897,36.9399],[127.06836,36.94026],[127.06852,36.94168],[127.06796,36.94216],[127.06549,36.94193],[127.06237,36.93974],[127.05931,36.93908],[127.05939,36.9382],[127.0585,36.9374],[127.05687,36.93695],[127.05606,36.93748],[127.05471,36.93758],[127.05437,36.93704],[127.05384,36.93694],[127.05278,36.93527],[127.05,36.93431],[127.04951,36.93385],[127.04892,36.93399],[127.04758,36.93322],[127.04593,36.93321],[127.04375,36.93373],[127.04134,36.93255],[127.03738,36.93233],[127.03652,36.9315],[127.03633,36.93082],[127.03468,36.93047],[127.03474,36.92973],[127.03389,36.92942],[127.03345,36.92873],[127.03104,36.92809],[127.03041,36.92826],[127.0298,36.92889],[127.0282,36.92854],[127.0271,36.92892],[127.0258,36.92875],[127.02412,36.93036],[127.02179,36.93077],[127.02099,36.93162],[127.02085,36.93235],[127.02132,36.93362],[127.02083,36.9346],[127.01911,36.93359],[127.01557,36.93539],[127.01502,36.93542],[127.01355,36.93461],[127.01176,36.93419],[127.01111,36.93454],[127.01058,36.93578],[127.0098,36.93591],[127.00711,36.93557],[127.00738,36.93417],[127.00641,36.93415],[127.00455,36.93508],[127.00372,36.93516],[127.00263,36.93363],[127.00079,36.9336],[126.99969,36.93378],[126.99821,36.93472],[126.99518,36.93536],[126.99312,36.93456],[126.99153,36.93351],[126.98555,36.93249],[126.97978,36.92821],[126.97375,36.92586],[126.96524,36.92383],[126.9542,36.92057],[126.93963,36.91733],[126.91674,36.90621],[126.91032,36.90168],[126.90961,36.90159],[126.90803,36.90874],[126.90706,36.90862],[126.90706,36.90925],[126.90631,36.91025],[126.90642,36.9118],[126.90718,36.91241],[126.90648,36.91366],[126.90578,36.9141],[126.90502,36.91574],[126.90358,36.91542],[126.90305,36.92105],[126.90379,36.9232],[126.90365,36.9247],[126.89923,36.9299],[126.88709,36.93627],[126.86743,36.93327],[126.86551,36.93931],[126.86353,36.94064],[126.86254,36.93987],[126.8563,36.94371],[126.85387,36.94123],[126.85526,36.93829],[126.85378,36.94126],[126.8563,36.94382],[126.85506,36.94459],[126.85209,36.94331],[126.85182,36.9437],[126.85467,36.94505],[126.85409,36.94592],[126.85278,36.9478],[126.84961,36.94647],[126.84445,36.95356],[126.84449,36.95386],[126.84663,36.95483],[126.84519,36.9565],[126.84561,36.95669],[126.84547,36.95691],[126.84503,36.95673],[126.84419,36.95795],[126.84251,36.9572],[126.83844,36.96302],[126.83875,36.96317],[126.83821,36.96333],[126.83141,36.97301],[126.83173,36.97315],[126.83154,36.97344],[126.83112,36.97341],[126.82989,36.97517],[126.83023,36.97531],[126.82959,36.97554],[126.82851,36.97713],[126.82883,36.97727],[126.82864,36.97756],[126.82823,36.97752],[126.82689,36.97942],[126.82721,36.97958],[126.82702,36.97986],[126.82662,36.97981],[126.82528,36.98172],[126.82561,36.98187],[126.82542,36.98215],[126.82501,36.98212],[126.82351,36.98429],[126.82552,36.9862],[126.82808,36.98747],[126.82591,36.98705],[126.82368,36.98483],[126.82081,36.98476],[126.81295,36.98732],[126.81818,36.98572],[126.81844,36.98624],[126.82054,36.98555],[126.8234,36.99127],[126.81212,36.99497],[126.80884,36.98874],[126.80984,36.98833],[126.80139,36.99107],[126.80414,36.99026],[126.80578,36.99354],[126.80681,36.99389],[126.80817,36.99345],[126.80918,36.99546],[126.80926,36.99591],[126.80871,36.99616],[126.80413,36.99764],[126.80024,36.99729],[126.80041,36.99605],[126.7997,36.99598],[126.79952,36.99723],[126.7979,36.99709],[126.79805,36.99575],[126.79765,36.99571],[126.79849,36.99227],[126.79714,36.99746],[126.79466,36.99746],[126.79364,36.99556],[126.79545,36.99525],[126.79338,36.99546],[126.79297,36.99448],[126.78967,36.99462],[126.78881,36.99521],[126.78774,36.99701],[126.78753,36.99693],[126.78589,36.99977],[126.78314,36.99929],[126.7825,36.9997],[126.78209,36.99927],[126.78166,36.99953],[126.78228,36.99999],[126.78317,36.99941],[126.78583,37.00002],[126.78392,37.00148],[126.78318,37.00259],[126.78103,37.00216],[126.78101,37.00245],[126.78159,37.00269],[126.78155,37.00396],[126.78228,37.00399],[126.77886,37.00743],[126.78716,37.01297],[126.79763,37.01413],[126.79767,37.01341],[126.83402,37.01338],[126.84211,37.01432],[126.85114,37.01839],[126.85479,37.0217],[126.85911,37.02721],[126.8708,37.04398],[126.87744,37.05273],[126.88177,37.05987],[126.88359,37.06417],[126.88374,37.06699],[126.88526,37.06669],[126.89109,37.06701],[126.89608,37.06847],[126.8977,37.06862],[126.89856,37.06964],[126.90136,37.07009],[126.90198,37.07194],[126.9045,37.07337],[126.90533,37.07351],[126.90537,37.0719],[126.90485,37.07128],[126.90557,37.06945],[126.90648,37.0692],[126.90683,37.06945],[126.90759,37.06937],[126.90824,37.069],[126.90951,37.06916],[126.91147,37.06891],[126.91276,37.06805],[126.91303,37.06697],[126.91496,37.06565],[126.91642,37.06611],[126.91743,37.06576],[126.91796,37.06626],[126.9189,37.06528],[126.92002,37.06508],[126.92115,37.06541],[126.9221,37.06533],[126.9227,37.06606],[126.92394,37.0666],[126.92601,37.0672],[126.92743,37.06797],[126.92849,37.0681],[126.93023,37.06719],[126.93029,37.06644],[126.93106,37.06534],[126.92872,37.06494],[126.92883,37.06424],[126.9313,37.06454],[126.93176,37.06355],[126.93151,37.06262],[126.93218,37.0623],[126.93378,37.06238],[126.93466,37.0616],[126.93646,37.06168],[126.9388,37.06134],[126.94002,37.06071],[126.94101,37.06138],[126.94286,37.0609],[126.94505,37.06115],[126.94646,37.06168],[126.94853,37.06163],[126.94845,37.06301],[126.94715,37.06411],[126.94759,37.06579],[126.94855,37.06632],[126.94838,37.06759],[126.94905,37.06877],[126.95065,37.06892],[126.95258,37.06829],[126.95604,37.0682],[126.9591,37.06917],[126.96108,37.06806],[126.96183,37.06819],[126.96392,37.06769],[126.96465,37.06784],[126.96527,37.06863],[126.96636,37.06908],[126.96729,37.07122],[126.96914,37.07317],[126.97322,37.07206],[126.97393,37.07169],[126.97419,37.07117],[126.9756,37.0707],[126.97813,37.07107],[126.98023,37.07089],[126.98195,37.07141],[126.98474,37.07163],[126.98694,37.07087],[126.98682,37.06996],[126.98768,37.06942],[126.98813,37.06979],[126.98985,37.07003],[126.99002,37.07056],[126.99062,37.0707],[126.99336,37.06981],[126.99555,37.07005],[126.99586,37.06954],[126.99621,37.06969],[126.99727,37.07087],[126.99686,37.07216],[126.9929,37.0737],[126.99041,37.07682],[126.99095,37.07753],[126.99539,37.07733],[126.99619,37.0779],[126.99627,37.07865],[126.99509,37.08103],[126.99177,37.08434],[126.99082,37.08602],[126.99049,37.08749],[126.99112,37.08787],[126.99229,37.08791],[126.99649,37.08722],[126.9974,37.08623],[126.99792,37.08483],[126.99857,37.08453],[126.99967,37.08488],[127.00016,37.08576],[126.99989,37.08693],[126.99772,37.08888],[126.99556,37.08955],[126.99538,37.08986],[126.99584,37.09142],[126.99834,37.09311],[126.99823,37.09499],[126.99699,37.09683],[126.99734,37.09728],[126.99845,37.09746],[126.99876,37.09785],[126.99834,37.09828],[126.99718,37.0983],[126.99681,37.09868],[126.99812,37.09996],[126.99713,37.10044],[126.99669,37.10115],[126.99776,37.10184],[126.99763,37.10337],[126.99707,37.10363],[126.99625,37.1028],[126.99536,37.1033],[126.99566,37.10398],[126.99549,37.10478],[126.99749,37.10463],[126.99796,37.10484],[126.99816,37.10651],[126.99782,37.10691],[126.99622,37.1073],[126.99618,37.10826],[126.9953,37.1091],[126.99598,37.11019],[126.9971,37.10984],[126.99993,37.1099],[127.00029,37.11007],[127.0003,37.11077],[127.00007,37.11142],[126.99949,37.11163],[126.998,37.11092],[126.99664,37.11168],[126.99541,37.11164],[126.99525,37.11275],[126.9945,37.11355],[126.99421,37.11454],[126.99801,37.11413],[126.99865,37.11463],[126.99888,37.11576],[126.99832,37.11579],[126.99823,37.11491],[126.99754,37.11469],[126.99586,37.11519],[126.99508,37.11624],[126.99579,37.11677],[126.9971,37.11595],[126.9979,37.11645],[126.99823,37.11797],[126.9979,37.11852],[126.99802,37.11913],[126.9998,37.1206],[126.99887,37.12182],[126.99921,37.12304],[126.99874,37.12315],[126.99945,37.1237],[126.99761,37.12431],[126.99754,37.12533],[126.99819,37.12559],[126.99925,37.12489],[127.00014,37.12517],[126.9991,37.12676],[126.99978,37.12714],[127.00106,37.12643],[127.00152,37.12652],[127.00163,37.12695],[127.00099,37.12718],[127.00086,37.12755],[127.00142,37.12801],[127.004,37.12789],[127.00543,37.12832],[127.00558,37.12802],[127.00669,37.12827],[127.00823,37.12789],[127.00914,37.12861],[127.01192,37.12912],[127.01335,37.12903],[127.01694,37.12987],[127.01821,37.13029],[127.02122,37.13206],[127.0228,37.13229],[127.02413,37.1331],[127.0254,37.13286],[127.02752,37.13361],[127.02967,37.13368],[127.0306,37.13496],[127.03521,37.13575],[127.03599,37.13682],[127.03591,37.13636],[127.03844,37.13621],[127.03726,37.13472],[127.03786,37.13252],[127.04195,37.12833],[127.0437,37.12724],[127.04442,37.12632],[127.04549,37.12585],[127.04567,37.1268],[127.04522,37.12927],[127.04871,37.12996],[127.04996,37.1293],[127.05049,37.12987],[127.05198,37.12959],[127.05259,37.1303],[127.05264,37.13165],[127.05458,37.13257],[127.05566,37.1336],[127.0566,37.13331],[127.05811,37.13223],[127.06016,37.13236],[127.06057,37.13208],[127.06098,37.13227],[127.06493,37.13194],[127.06485,37.13119],[127.06649,37.13122],[127.06594,37.12989],[127.06633,37.12867],[127.06614,37.12774],[127.06656,37.12722],[127.06678,37.12741],[127.06677,37.12671],[127.06889,37.12807],[127.07049,37.12669],[127.07121,37.12554],[127.07273,37.12596],[127.07301,37.12532],[127.07422,37.12556],[127.07488,37.12633],[127.07707,37.12728],[127.07821,37.12746],[127.07913,37.12812],[127.07924,37.12572],[127.0796,37.12575],[127.08051,37.12619],[127.0826,37.12631],[127.0834,37.12729],[127.08645,37.12668],[127.08893,37.1279],[127.08922,37.12877],[127.09019,37.12974],[127.08994,37.12996],[127.09066,37.12981],[127.09074,37.13001],[127.09289,37.12931],[127.09294,37.12959],[127.09101,37.13102],[127.09145,37.13122],[127.09322,37.12993],[127.09308,37.1302],[127.08972,37.13255],[127.08775,37.13479],[127.08868,37.13506],[127.08909,37.13592],[127.09091,37.13658],[127.0915,37.13724],[127.09398,37.1363],[127.09493,37.13629],[127.0956,37.13674],[127.09765,37.13679],[127.09793,37.13735],[127.09755,37.13871],[127.09804,37.13938],[127.09968,37.14032],[127.0996,37.14106],[127.10014,37.14262],[127.10138,37.14247],[127.10182,37.14294],[127.10172,37.1434],[127.10304,37.14386],[127.10375,37.14327],[127.10376,37.14189],[127.10434,37.14173],[127.10631,37.14205],[127.1077,37.1429],[127.11027,37.14239],[127.11114,37.14379],[127.11345,37.1443],[127.11395,37.14467],[127.11598,37.14426],[127.1175,37.14459],[127.11817,37.1439],[127.1189,37.14366],[127.11982,37.1446],[127.12218,37.14428],[127.12294,37.14449],[127.12338,37.14367],[127.12109,37.1417],[127.1206,37.13985],[127.1206,37.13944],[127.12155,37.13902],[127.12144,37.13787],[127.12198,37.1365],[127.12046,37.13449],[127.12081,37.13197],[127.12006,37.1307],[127.12072,37.12966],[127.12018,37.12894],[127.11867,37.12891],[127.11821,37.1285],[127.11639,37.12984],[127.11559,37.12965],[127.11489,37.12984],[127.11268,37.12805],[127.11247,37.12629],[127.10901,37.12598],[127.10873,37.12385],[127.1097,37.12102],[127.10934,37.12039],[127.10978,37.11911],[127.10938,37.11839],[127.10964,37.11733],[127.11265,37.11329],[127.12304,37.09043],[127.12394,37.09005],[127.12434,37.08762],[127.12593,37.08695],[127.12423,37.08552],[127.12567,37.08371],[127.12637,37.08171],[127.12438,37.07867],[127.12476,37.07798],[127.12104,37.07619],[127.12027,37.07646],[127.11751,37.0765],[127.11689,37.0768],[127.11585,37.07612],[127.11531,37.07622],[127.11483,37.0759],[127.11309,37.07639],[127.11212,37.07601],[127.11027,37.07643],[127.10975,37.07602],[127.10773,37.07666],[127.10613,37.07596],[127.10558,37.07614],[127.10362,37.07589],[127.10344,37.07531],[127.10435,37.07455],[127.10236,37.07318],[127.10275,37.07271],[127.10232,37.07218],[127.10272,37.07121],[127.10421,37.07087],[127.10424,37.07047],[127.10202,37.06863],[127.10259,37.06781],[127.1029,37.06779],[127.10358,37.06619],[127.10456,37.06579],[127.10498,37.06594],[127.10607,37.06509],[127.10815,37.06496],[127.10919,37.06547],[127.11033,37.06512],[127.11155,37.06518],[127.11249,37.06477],[127.11367,37.06508],[127.11503,37.06472],[127.11536,37.06393],[127.11662,37.06383],[127.11702,37.06288],[127.118,37.06279],[127.11894,37.06204],[127.12019,37.06298],[127.12101,37.06273],[127.12206,37.063],[127.12245,37.0636],[127.12498,37.06472],[127.12664,37.06357],[127.12731,37.06366],[127.12779,37.0634],[127.12828,37.06235],[127.12783,37.06137],[127.12799,37.06086],[127.12962,37.05989],[127.13026,37.05876],[127.13014,37.05824],[127.12952,37.05812],[127.1291,37.05673],[127.12768,37.0565],[127.12803,37.05556],[127.12756,37.05303],[127.12492,37.05213],[127.1239,37.05211],[127.12317,37.05122],[127.12204,37.05058],[127.12042,37.04784],[127.12101,37.04763],[127.12096,37.04687],[127.11781,37.0451],[127.1162,37.0434],[127.11419,37.04221],[127.11387,37.04228],[127.11406,37.04215],[127.11367,37.0419],[127.112,37.042],[127.10983,37.04089],[127.10946,37.04006],[127.10755,37.03836],[127.10708,37.03679],[127.10572,37.0361],[127.10556,37.03518],[127.10727,37.03345],[127.1069,37.03296],[127.10731,37.03239],[127.10908,37.03145],[127.11048,37.02976],[127.11279,37.0286],[127.11318,37.0287],[127.11313,37.02767],[127.11263,37.02681],[127.11608,37.02748],[127.11618,37.02704],[127.1168,37.02707],[127.11886,37.03171],[127.12221,37.03514],[127.12637,37.03361],[127.12653,37.0344],[127.12801,37.03353],[127.13173,37.03328],[127.13459,37.03362],[127.13504,37.03389],[127.13727,37.03398],[127.13851,37.03317],[127.14027,37.03276],[127.14088,37.0322],[127.14189,37.03279],[127.14381,37.03268],[127.14401,37.03172],[127.14598,37.03172],[127.14793,37.03046],[127.14878,37.03036],[127.15235,37.02838],[127.15269,37.02782],[127.15231,37.02729],[127.15236,37.02657],[127.15297,37.02611],[127.15235,37.02526],[127.15256,37.02469],[127.15205,37.02426],[127.15186,37.023],[127.15229,37.02264],[127.15233,37.02139],[127.15034,37.02003],[127.14952,37.01993],[127.1483,37.01839],[127.14685,37.01752],[127.14613,37.01752],[127.14529,37.01686],[127.14489,37.01424],[127.14471,37.01389],[127.14431,37.01399],[127.14476,37.01165],[127.14532,37.01087],[127.14477,37.01006],[127.14493,37.00928],[127.14613,37.00939],[127.14641,37.00853],[127.14759,37.00822],[127.14886,37.00597],[127.15014,37.00531],[127.15051,37.00543],[127.15134,37.00466],[127.15336,37.00041],[127.15395,36.99774],[127.15453,36.99769],[127.14953,36.99796],[127.14457,36.99718],[127.14168,36.99514],[127.13566,36.99328],[127.13548,36.99047],[127.13426,36.98936],[127.13344,36.98799],[127.13063,36.98666],[127.13138,36.98559],[127.13422,36.98543],[127.13641,36.98476],[127.13643,36.98294],[127.14114,36.97974],[127.14114,36.979],[127.14082,36.97936],[127.13885,36.97936],[127.13768,36.98006],[127.13645,36.98012],[127.13719,36.97849],[127.1352,36.97793],[127.13519,36.97758],[127.13395,36.97759],[127.13395,36.97686],[127.12602,36.97684],[127.1258,36.97709],[127.12573,36.97684],[127.12424,36.97684],[127.12531,36.97592],[127.12323,36.97433],[127.12195,36.97158],[127.12021,36.97035],[127.11791,36.97101],[127.11504,36.97103],[127.1144,36.97147],[127.11385,36.97282],[127.1131,36.97307],[127.11191,36.97213],[127.11237,36.97214],[127.11242,36.97129],[127.11154,36.97128],[127.11137,36.96996],[127.11085,36.96922],[127.10983,36.96884],[127.1079,36.96881],[127.10748,36.96845],[127.10682,36.96614],[127.10579,36.96567],[127.1045,36.96574]]],[[[126.83667,36.95012],[126.8405,36.94374],[126.83185,36.94145],[126.83075,36.94493],[126.83025,36.94565],[126.82984,36.94572],[126.83008,36.94588],[126.82985,36.94622],[126.8286,36.94573],[126.8281,36.94647],[126.82929,36.94701],[126.82914,36.94754],[126.8342,36.94983],[126.83472,36.94929],[126.83667,36.95012]]]]},"properties":{"id":"SGG:41220","layer":"L3","admin_code":"41220","name":"경기도 평택시","sido":"경기도","sgg":"평택시","provisional":false,"source":"통계청 행정동 경계(BND_ADM_DONG_PG, 2025-06-30) 를 시군구로 합침","source_kind":"derived","derived_from":"행정동 경계 union · 20 m 단순화"}}]}