{"type":"FeatureCollection","features":[{"type":"Feature","id":"SGG:47840","geometry":{"type":"MultiPolygon","coordinates":[[[[128.34792,35.95471],[128.34925,35.95441],[128.35059,35.9547],[128.35193,35.95573],[128.35304,35.95611],[128.35393,35.95576],[128.35937,35.9562],[128.36082,35.95518],[128.36182,35.95512],[128.36199,35.95394],[128.36311,35.95306],[128.36376,35.95292],[128.36462,35.95166],[128.36453,35.95089],[128.36528,35.9498],[128.36486,35.94867],[128.36384,35.9475],[128.3651,35.94496],[128.36815,35.94361],[128.36866,35.94196],[128.37118,35.94156],[128.37351,35.9418],[128.37576,35.94166],[128.37825,35.94047],[128.3791,35.93903],[128.37971,35.93864],[128.38101,35.93954],[128.38195,35.93938],[128.38264,35.93976],[128.38533,35.93925],[128.38579,35.93951],[128.38728,35.93892],[128.38983,35.94171],[128.39326,35.94097],[128.39438,35.94104],[128.39479,35.94146],[128.39576,35.94165],[128.39656,35.94003],[128.39684,35.93596],[128.39802,35.93236],[128.39908,35.92662],[128.39888,35.92218],[128.3977,35.9195],[128.39762,35.9184],[128.39838,35.91599],[128.39845,35.91459],[128.39689,35.90711],[128.39888,35.90268],[128.39897,35.89556],[128.39807,35.89271],[128.396,35.88986],[128.39387,35.88535],[128.39265,35.88187],[128.39155,35.88057],[128.39031,35.87825],[128.38956,35.87464],[128.38845,35.87176],[128.38575,35.86857],[128.38421,35.86566],[128.38348,35.86091],[128.38351,35.85283],[128.3855,35.8523],[128.38654,35.85131],[128.38688,35.84947],[128.38732,35.84914],[128.38743,35.84955],[128.38774,35.84926],[128.3878,35.84837],[128.39004,35.84213],[128.39119,35.84123],[128.39246,35.84073],[128.39283,35.83822],[128.38819,35.83877],[128.38739,35.83842],[128.38481,35.83834],[128.38275,35.83849],[128.38155,35.83901],[128.37865,35.83767],[128.37666,35.83628],[128.37489,35.83618],[128.37315,35.83484],[128.37501,35.83377],[128.37624,35.8321],[128.37603,35.8309],[128.37686,35.82973],[128.37729,35.82785],[128.37839,35.82616],[128.37885,35.82309],[128.37721,35.81966],[128.37678,35.81961],[128.37445,35.81722],[128.37287,35.81734],[128.37237,35.81704],[128.37002,35.81698],[128.3694,35.81718],[128.36879,35.81682],[128.36955,35.81412],[128.36923,35.8136],[128.36893,35.81089],[128.37017,35.80742],[128.36979,35.80723],[128.37004,35.80574],[128.36875,35.80405],[128.36882,35.79949],[128.36822,35.79541],[128.36791,35.79468],[128.36697,35.79382],[128.36558,35.79339],[128.36433,35.79356],[128.36185,35.79442],[128.35745,35.7966],[128.35571,35.79665],[128.35254,35.79761],[128.35026,35.79905],[128.34758,35.79839],[128.3448,35.79712],[128.34248,35.79662],[128.33806,35.79712],[128.33716,35.79846],[128.3341,35.8015],[128.33208,35.80237],[128.32749,35.80677],[128.32491,35.80812],[128.3222,35.80879],[128.32141,35.80969],[128.32116,35.81057],[128.32128,35.81229],[128.31953,35.81246],[128.31868,35.81343],[128.31768,35.81369],[128.31634,35.81357],[128.31336,35.81402],[128.31339,35.81462],[128.31183,35.81369],[128.31088,35.81255],[128.30618,35.81257],[128.30537,35.81235],[128.30465,35.814],[128.30357,35.81471],[128.30239,35.81504],[128.29925,35.81508],[128.29877,35.81684],[128.29756,35.81801],[128.29622,35.82008],[128.29191,35.8232],[128.28981,35.82638],[128.28648,35.82606],[128.28229,35.82723],[128.27924,35.82735],[128.27767,35.82705],[128.27811,35.82654],[128.2758,35.82676],[128.27519,35.82653],[128.27392,35.82502],[128.27359,35.82369],[128.2733,35.82109],[128.2736,35.8182],[128.2725,35.81529],[128.27298,35.81228],[128.27451,35.80999],[128.27356,35.80661],[128.27215,35.80466],[128.27296,35.80342],[128.27242,35.80204],[128.27346,35.80041],[128.27318,35.79901],[128.2739,35.79722],[128.27353,35.7959],[128.27238,35.79567],[128.27209,35.79457],[128.27125,35.79349],[128.27129,35.79187],[128.27051,35.79133],[128.26524,35.79477],[128.26214,35.79577],[128.26213,35.79539],[128.25953,35.79484],[128.25981,35.79468],[128.25924,35.79273],[128.25802,35.79169],[128.25671,35.79184],[128.25332,35.79026],[128.2509,35.79005],[128.24997,35.7897],[128.25082,35.78489],[128.25044,35.78363],[128.25187,35.78127],[128.25144,35.78015],[128.24983,35.78019],[128.24838,35.78158],[128.24413,35.7814],[128.24175,35.78215],[128.23828,35.78232],[128.23722,35.78371],[128.23529,35.78457],[128.23504,35.78524],[128.23307,35.78702],[128.22889,35.78783],[128.22507,35.78758],[128.22148,35.78954],[128.21998,35.79076],[128.21708,35.79212],[128.21675,35.79475],[128.21724,35.79496],[128.21655,35.79529],[128.21647,35.79555],[128.21689,35.79569],[128.2163,35.79767],[128.21566,35.79761],[128.21376,35.79859],[128.21359,35.79918],[128.21306,35.7993],[128.21359,35.80055],[128.21315,35.80014],[128.21362,35.80182],[128.21334,35.80458],[128.2136,35.80496],[128.21348,35.80553],[128.21302,35.80584],[128.21346,35.80632],[128.21328,35.8065],[128.21276,35.80621],[128.21228,35.80667],[128.21214,35.80813],[128.2136,35.80941],[128.21227,35.81131],[128.21071,35.81496],[128.20957,35.81592],[128.20752,35.81503],[128.20704,35.81537],[128.20271,35.81484],[128.19918,35.8153],[128.19638,35.81645],[128.19444,35.81818],[128.19141,35.81877],[128.18976,35.81868],[128.18788,35.81934],[128.18765,35.81911],[128.18656,35.81922],[128.18434,35.81835],[128.18245,35.8183],[128.17982,35.81887],[128.17822,35.81878],[128.17658,35.81837],[128.17678,35.81799],[128.17467,35.81749],[128.17433,35.8169],[128.1695,35.81591],[128.16497,35.81259],[128.1653,35.81209],[128.16246,35.80779],[128.16234,35.80546],[128.16306,35.80439],[128.16442,35.80373],[128.16527,35.80082],[128.17101,35.79792],[128.17092,35.79772],[128.16982,35.7978],[128.17169,35.79753],[128.17307,35.798],[128.17295,35.79726],[128.17571,35.79494],[128.17666,35.79347],[128.17884,35.78734],[128.17854,35.78685],[128.17807,35.78671],[128.17808,35.78703],[128.1746,35.78571],[128.17276,35.78353],[128.17172,35.78269],[128.17019,35.78204],[128.16848,35.77961],[128.16477,35.77815],[128.16371,35.77719],[128.16288,35.77778],[128.16044,35.77833],[128.15807,35.78146],[128.15904,35.78367],[128.15739,35.78444],[128.15654,35.78442],[128.15497,35.78508],[128.15437,35.78645],[128.15185,35.78572],[128.14896,35.78415],[128.14797,35.78401],[128.14487,35.78488],[128.1418,35.78435],[128.14041,35.78452],[128.13956,35.78412],[128.13753,35.78426],[128.13578,35.78484],[128.13052,35.789],[128.12863,35.78934],[128.1288,35.79062],[128.12846,35.79301],[128.12872,35.79429],[128.12737,35.7956],[128.12687,35.79693],[128.12622,35.7973],[128.12536,35.79895],[128.12487,35.79927],[128.12436,35.80044],[128.12457,35.80086],[128.12294,35.80156],[128.12243,35.80304],[128.1219,35.80349],[128.12283,35.80417],[128.12307,35.80541],[128.1234,35.80561],[128.12203,35.80724],[128.12163,35.80878],[128.12207,35.81025],[128.12194,35.8118],[128.12396,35.8129],[128.12315,35.81427],[128.12254,35.81442],[128.12334,35.81608],[128.12393,35.81869],[128.12455,35.81944],[128.12285,35.82261],[128.12085,35.82314],[128.11937,35.8249],[128.11703,35.82347],[128.11092,35.82388],[128.1093,35.82464],[128.1054,35.82814],[128.10401,35.8286],[128.10351,35.82915],[128.10231,35.82915],[128.09899,35.83032],[128.09652,35.83221],[128.09419,35.83216],[128.09302,35.83175],[128.09222,35.83098],[128.09075,35.83063],[128.08627,35.833],[128.08557,35.83485],[128.08447,35.83605],[128.0844,35.837],[128.08331,35.83693],[128.07998,35.83815],[128.07736,35.83966],[128.07729,35.84138],[128.07777,35.84253],[128.07756,35.84347],[128.07619,35.84459],[128.07364,35.84841],[128.07325,35.84979],[128.07331,35.85051],[128.0743,35.85114],[128.07495,35.85235],[128.07511,35.85361],[128.0758,35.854],[128.07653,35.85541],[128.07665,35.86005],[128.07583,35.86129],[128.07761,35.86183],[128.07986,35.86455],[128.08115,35.86545],[128.08331,35.86857],[128.08512,35.86959],[128.08685,35.87243],[128.08239,35.87252],[128.08003,35.87316],[128.07711,35.87543],[128.0748,35.87779],[128.07351,35.87857],[128.07096,35.87943],[128.07023,35.88042],[128.07036,35.88078],[128.06979,35.88129],[128.06877,35.88574],[128.06553,35.88894],[128.06658,35.89211],[128.06598,35.89355],[128.06654,35.89591],[128.06087,35.90018],[128.05893,35.90087],[128.0573,35.90199],[128.05625,35.90431],[128.05665,35.90513],[128.05793,35.90523],[128.05904,35.90569],[128.0601,35.90714],[128.05996,35.90734],[128.06069,35.90736],[128.05787,35.90979],[128.05671,35.9098],[128.05643,35.91008],[128.0553,35.91181],[128.05577,35.91397],[128.05467,35.91569],[128.04855,35.92015],[128.04935,35.92218],[128.05,35.92246],[128.05074,35.92405],[128.05066,35.92438],[128.04906,35.92462],[128.04861,35.92528],[128.04783,35.92536],[128.04712,35.92664],[128.04675,35.92817],[128.0477,35.9289],[128.04734,35.9292],[128.04682,35.93121],[128.04708,35.93168],[128.04665,35.93247],[128.0469,35.93303],[128.04798,35.93362],[128.0487,35.93485],[128.04864,35.93642],[128.05044,35.93753],[128.05136,35.93857],[128.05253,35.93877],[128.05355,35.93938],[128.05388,35.94033],[128.055,35.94085],[128.05562,35.94166],[128.05615,35.94178],[128.05725,35.94147],[128.05822,35.94085],[128.06038,35.94023],[128.06277,35.93844],[128.06428,35.93801],[128.066,35.93699],[128.06748,35.9369],[128.06822,35.9374],[128.07025,35.93613],[128.07095,35.93648],[128.07173,35.936],[128.07192,35.93576],[128.07111,35.93425],[128.07113,35.93343],[128.07223,35.93279],[128.07279,35.93129],[128.07254,35.93045],[128.07328,35.92857],[128.07395,35.92793],[128.07523,35.92683],[128.07891,35.9276],[128.07958,35.92615],[128.08124,35.92424],[128.08126,35.92346],[128.08168,35.92308],[128.08279,35.92266],[128.0848,35.92085],[128.08639,35.92179],[128.08689,35.92103],[128.08788,35.92095],[128.08847,35.9214],[128.08795,35.92284],[128.08867,35.92604],[128.08922,35.92688],[128.09062,35.92758],[128.09065,35.92908],[128.09019,35.93025],[128.09125,35.93107],[128.09077,35.93222],[128.09089,35.93271],[128.0893,35.93506],[128.09069,35.93733],[128.09043,35.93931],[128.08963,35.94002],[128.08901,35.94135],[128.08955,35.94279],[128.08943,35.94355],[128.08868,35.94439],[128.0886,35.94664],[128.08936,35.94698],[128.09002,35.948],[128.08982,35.94884],[128.0902,35.94978],[128.09091,35.95057],[128.09336,35.9518],[128.09366,35.95237],[128.09487,35.95322],[128.09572,35.95506],[128.09664,35.95471],[128.09761,35.95484],[128.09812,35.95571],[128.10013,35.9556],[128.10065,35.95684],[128.10151,35.95722],[128.1022,35.95692],[128.10462,35.9581],[128.10742,35.96022],[128.10815,35.96249],[128.10882,35.96342],[128.11079,35.96462],[128.1117,35.96464],[128.1115,35.96446],[128.11189,35.96467],[128.11268,35.96411],[128.11696,35.96001],[128.11822,35.9593],[128.11975,35.96066],[128.12096,35.96102],[128.1224,35.96204],[128.12283,35.96192],[128.12349,35.96223],[128.12628,35.96083],[128.12775,35.96094],[128.12915,35.96014],[128.1315,35.95998],[128.13153,35.9594],[128.13254,35.95859],[128.13489,35.95937],[128.13578,35.96064],[128.13667,35.96114],[128.13964,35.96165],[128.1398,35.96219],[128.13933,35.96224],[128.13928,35.96316],[128.13954,35.96297],[128.13994,35.96329],[128.14154,35.96288],[128.14203,35.96231],[128.14274,35.96361],[128.14516,35.9644],[128.14556,35.96502],[128.14804,35.96505],[128.15098,35.9663],[128.15292,35.96886],[128.15063,35.97259],[128.1501,35.97284],[128.15111,35.97455],[128.15089,35.97582],[128.15148,35.97663],[128.15212,35.97654],[128.15373,35.97784],[128.15657,35.9777],[128.15579,35.97896],[128.15649,35.98211],[128.15747,35.98312],[128.15757,35.98498],[128.15698,35.98592],[128.15767,35.9874],[128.16516,35.98839],[128.166,35.98782],[128.16794,35.98908],[128.16812,35.98977],[128.16895,35.99048],[128.16987,35.9928],[128.17056,35.99311],[128.17048,35.99428],[128.16982,35.99469],[128.17075,35.99664],[128.16986,35.99684],[128.16759,35.99909],[128.16622,35.99946],[128.16629,36.00091],[128.16559,36.0015],[128.16647,36.00207],[128.16683,36.00281],[128.16758,36.00531],[128.16753,36.007],[128.16827,36.00839],[128.16855,36.00951],[128.16832,36.01006],[128.16896,36.01118],[128.16999,36.01135],[128.17109,36.0126],[128.17235,36.01306],[128.17336,36.01418],[128.17193,36.01533],[128.17089,36.0181],[128.16924,36.01837],[128.16799,36.01953],[128.16761,36.02205],[128.16827,36.02261],[128.16765,36.02419],[128.16796,36.02501],[128.16789,36.0264],[128.1671,36.02992],[128.16517,36.03072],[128.16515,36.03151],[128.16433,36.03246],[128.16936,36.03552],[128.16988,36.03485],[128.17033,36.0348],[128.17253,36.0332],[128.17507,36.03235],[128.17553,36.03243],[128.17579,36.03192],[128.17769,36.03128],[128.18135,36.03198],[128.18302,36.03349],[128.18445,36.03325],[128.18528,36.03358],[128.1871,36.03178],[128.18855,36.03122],[128.19014,36.03171],[128.19231,36.0313],[128.19382,36.03154],[128.19462,36.03197],[128.19474,36.03268],[128.19572,36.03393],[128.19464,36.03586],[128.19631,36.03737],[128.19588,36.03897],[128.19418,36.03977],[128.19421,36.04355],[128.19359,36.04495],[128.1943,36.04488],[128.19653,36.04641],[128.19843,36.04641],[128.20316,36.04555],[128.20437,36.04562],[128.20597,36.04513],[128.20728,36.04525],[128.20809,36.0458],[128.20903,36.04553],[128.21243,36.0473],[128.21284,36.04832],[128.21419,36.04891],[128.21524,36.04885],[128.21703,36.05006],[128.21922,36.05263],[128.22113,36.05315],[128.22181,36.05388],[128.22266,36.05424],[128.22313,36.0554],[128.2238,36.05535],[128.22338,36.05504],[128.22383,36.05522],[128.22549,36.05447],[128.22625,36.05361],[128.22763,36.05395],[128.22993,36.05403],[128.23335,36.05238],[128.23544,36.05075],[128.23769,36.0506],[128.23806,36.05003],[128.23963,36.04898],[128.23973,36.04951],[128.2401,36.04979],[128.23986,36.04916],[128.24104,36.04863],[128.2433,36.04866],[128.24594,36.04931],[128.2468,36.04925],[128.24915,36.04819],[128.24984,36.0485],[128.25042,36.04943],[128.2518,36.05017],[128.25226,36.05013],[128.25463,36.05174],[128.25659,36.05184],[128.25735,36.05083],[128.25923,36.04933],[128.26104,36.04849],[128.26253,36.04901],[128.26995,36.04863],[128.27256,36.048],[128.27364,36.04726],[128.27523,36.04803],[128.2775,36.0472],[128.27902,36.0474],[128.28076,36.04687],[128.2833,36.04682],[128.28413,36.0461],[128.28482,36.04597],[128.28716,36.0438],[128.28878,36.04314],[128.28952,36.0439],[128.28994,36.04373],[128.28993,36.04117],[128.28956,36.04058],[128.29131,36.03915],[128.29136,36.03756],[128.29199,36.03604],[128.2926,36.03602],[128.29466,36.03448],[128.29602,36.031],[128.29742,36.03079],[128.29819,36.03102],[128.30016,36.02999],[128.30118,36.02996],[128.30195,36.02954],[128.30288,36.02973],[128.30319,36.03063],[128.30476,36.03061],[128.30813,36.0296],[128.30869,36.02909],[128.31039,36.0289],[128.31073,36.02811],[128.31032,36.02684],[128.31175,36.02405],[128.31172,36.02306],[128.31314,36.02201],[128.3142,36.02222],[128.31525,36.02083],[128.31561,36.01939],[128.31761,36.01835],[128.31596,36.017],[128.31488,36.01528],[128.31228,36.01473],[128.31231,36.01125],[128.31281,36.01004],[128.31232,36.00969],[128.31196,36.00793],[128.31102,36.00762],[128.31065,36.00705],[128.31142,36.00634],[128.31192,36.00369],[128.31368,36.00337],[128.31406,36.00285],[128.31417,35.99952],[128.3131,35.99742],[128.31319,35.99326],[128.31547,35.9895],[128.31528,35.98885],[128.31755,35.98752],[128.31888,35.98272],[128.32031,35.98173],[128.32146,35.98146],[128.32466,35.97968],[128.32786,35.98043],[128.3296,35.97989],[128.32979,35.97876],[128.32937,35.97813],[128.32943,35.97746],[128.33296,35.9778],[128.33326,35.97709],[128.33543,35.97634],[128.33726,35.9762],[128.33767,35.97641],[128.33833,35.97577],[128.33924,35.97557],[128.33884,35.97389],[128.33921,35.97008],[128.34258,35.96759],[128.34029,35.96377],[128.34179,35.96176],[128.3437,35.96159],[128.34402,35.96083],[128.3438,35.95992],[128.34552,35.9585],[128.34792,35.95471]]]]},"properties":{"id":"SGG:47840","layer":"L3","admin_code":"47840","name":"경상북도 성주군","sido":"경상북도","sgg":"성주군","provisional":false,"source":"통계청 행정동 경계(BND_ADM_DONG_PG, 2025-06-30) 를 시군구로 합침","source_kind":"derived","derived_from":"행정동 경계 union · 20 m 단순화"}}]}