{"type":"FeatureCollection","features":[{"type":"Feature","id":"SGG:41210","geometry":{"type":"MultiPolygon","coordinates":[[[[126.87116,37.41268],[126.87039,37.41099],[126.87037,37.41037],[126.87099,37.40943],[126.87024,37.40814],[126.87041,37.40704],[126.87292,37.40654],[126.87456,37.40697],[126.87586,37.40648],[126.87655,37.40526],[126.87763,37.40506],[126.87694,37.40197],[126.87639,37.40171],[126.87473,37.40162],[126.87076,37.40219],[126.86175,37.40154],[126.85748,37.40225],[126.85615,37.40326],[126.85506,37.40348],[126.85505,37.40411],[126.85413,37.40521],[126.854,37.4063],[126.853,37.40718],[126.85291,37.4083],[126.85133,37.40911],[126.8504,37.41019],[126.85068,37.40969],[126.85039,37.40977],[126.8494,37.41089],[126.84953,37.41061],[126.84899,37.41063],[126.8469,37.41158],[126.84637,37.41234],[126.84624,37.41395],[126.84579,37.41447],[126.84535,37.41652],[126.8459,37.41831],[126.84512,37.41907],[126.84466,37.42074],[126.8454,37.42288],[126.84295,37.42565],[126.84182,37.42617],[126.84186,37.42993],[126.84069,37.43077],[126.84018,37.43172],[126.84063,37.43333],[126.84156,37.43371],[126.84145,37.43469],[126.83978,37.43658],[126.83889,37.4368],[126.83839,37.43663],[126.83785,37.43691],[126.83752,37.43806],[126.83822,37.43966],[126.83727,37.44053],[126.8379,37.44106],[126.83748,37.44246],[126.83842,37.44282],[126.83778,37.44303],[126.83776,37.44334],[126.83816,37.44401],[126.83788,37.44454],[126.83851,37.44658],[126.8383,37.44704],[126.83867,37.44749],[126.83934,37.44696],[126.83952,37.44745],[126.83895,37.44888],[126.83868,37.44907],[126.83831,37.44877],[126.83805,37.44937],[126.83933,37.4498],[126.8395,37.4505],[126.83855,37.45076],[126.8379,37.45057],[126.83759,37.45144],[126.83769,37.45174],[126.8385,37.45159],[126.83892,37.45201],[126.83804,37.45249],[126.83832,37.45314],[126.83804,37.45391],[126.83856,37.45547],[126.83666,37.45601],[126.83757,37.45657],[126.83775,37.45734],[126.83821,37.4573],[126.83796,37.45806],[126.83833,37.45812],[126.83746,37.45852],[126.83687,37.45807],[126.83625,37.45809],[126.83445,37.4599],[126.83308,37.4603],[126.83218,37.45902],[126.82915,37.45774],[126.82915,37.45858],[126.82857,37.45956],[126.8261,37.45948],[126.82679,37.46174],[126.8278,37.46324],[126.82894,37.46415],[126.83108,37.46486],[126.831,37.46574],[126.83132,37.46632],[126.83177,37.4664],[126.83253,37.46574],[126.833,37.46586],[126.83308,37.46689],[126.8335,37.46725],[126.83329,37.4693],[126.83355,37.46941],[126.83285,37.47024],[126.83201,37.47287],[126.83246,37.47407],[126.83226,37.47631],[126.8329,37.47668],[126.83277,37.47701],[126.83348,37.47716],[126.83487,37.47575],[126.83464,37.47436],[126.83573,37.47438],[126.83618,37.47481],[126.8372,37.47488],[126.83834,37.47541],[126.84083,37.47466],[126.84295,37.47492],[126.84396,37.47448],[126.84496,37.47347],[126.84536,37.47381],[126.84599,37.4807],[126.84652,37.4816],[126.84813,37.4821],[126.8507,37.48153],[126.8527,37.48182],[126.85296,37.48248],[126.85386,37.48284],[126.85517,37.48517],[126.85797,37.48608],[126.86177,37.49033],[126.86281,37.49083],[126.86452,37.4912],[126.86456,37.49102],[126.86505,37.49154],[126.8654,37.49151],[126.8662,37.49256],[126.86669,37.49266],[126.8666,37.49289],[126.86737,37.49307],[126.86778,37.49408],[126.86761,37.49426],[126.86704,37.49395],[126.86679,37.49424],[126.86823,37.49513],[126.87002,37.49366],[126.86937,37.49272],[126.87002,37.49226],[126.8693,37.49185],[126.86999,37.49102],[126.86968,37.49043],[126.87023,37.49011],[126.87023,37.4896],[126.87134,37.48983],[126.87157,37.49076],[126.87225,37.4906],[126.87413,37.49134],[126.87484,37.49075],[126.87445,37.49043],[126.87465,37.4899],[126.87411,37.48978],[126.87375,37.49048],[126.87284,37.49001],[126.87241,37.48933],[126.87275,37.48843],[126.87327,37.4883],[126.87434,37.48886],[126.87519,37.48851],[126.87604,37.48905],[126.87679,37.48857],[126.87669,37.48785],[126.87597,37.48691],[126.87505,37.48666],[126.87475,37.48542],[126.87394,37.48525],[126.8729,37.48625],[126.87176,37.48527],[126.87221,37.48443],[126.8733,37.48418],[126.87279,37.48349],[126.87274,37.48242],[126.87338,37.48243],[126.87599,37.4771],[126.87801,37.47383],[126.88159,37.46942],[126.88163,37.46846],[126.88253,37.46793],[126.88301,37.46706],[126.88425,37.46653],[126.88462,37.46601],[126.88434,37.46546],[126.88287,37.46496],[126.88275,37.46439],[126.88432,37.46272],[126.88514,37.46247],[126.88712,37.4629],[126.88888,37.46095],[126.88613,37.4609],[126.88537,37.46006],[126.88542,37.45942],[126.8861,37.4593],[126.88634,37.45896],[126.88587,37.45759],[126.88626,37.45636],[126.88724,37.4555],[126.88802,37.45558],[126.88876,37.45477],[126.8892,37.45472],[126.88902,37.45417],[126.88965,37.4536],[126.88964,37.45232],[126.89021,37.4525],[126.89196,37.4523],[126.89259,37.45195],[126.89325,37.45276],[126.89398,37.45272],[126.89605,37.44804],[126.89558,37.44833],[126.895,37.44822],[126.89465,37.4467],[126.89502,37.44668],[126.89578,37.44563],[126.89676,37.4457],[126.89727,37.44544],[126.89993,37.43956],[126.89928,37.43964],[126.89876,37.43928],[126.89969,37.43779],[126.89942,37.43508],[126.89984,37.43466],[126.89921,37.43451],[126.89921,37.4334],[126.89872,37.43333],[126.89835,37.43273],[126.89814,37.43127],[126.89745,37.43095],[126.89624,37.43105],[126.89468,37.42981],[126.89429,37.42896],[126.89453,37.4283],[126.89422,37.4278],[126.89458,37.42741],[126.89522,37.42737],[126.89615,37.42787],[126.89676,37.42757],[126.89672,37.42685],[126.89615,37.42637],[126.89643,37.42518],[126.89499,37.42437],[126.89495,37.42364],[126.89409,37.42253],[126.89378,37.42036],[126.89043,37.42038],[126.8904,37.41986],[126.88951,37.41928],[126.889,37.41837],[126.88982,37.41777],[126.88944,37.41633],[126.88966,37.4161],[126.8892,37.41525],[126.88937,37.41366],[126.88913,37.41349],[126.88941,37.41329],[126.88899,37.41142],[126.88781,37.41114],[126.88762,37.41083],[126.88565,37.41168],[126.88466,37.41166],[126.88294,37.4108],[126.88093,37.41085],[126.87991,37.41014],[126.87915,37.40897],[126.87837,37.40889],[126.87604,37.41039],[126.87606,37.41087],[126.875,37.41158],[126.87256,37.41127],[126.8719,37.41229],[126.87116,37.41268]]]]},"properties":{"id":"SGG:41210","layer":"L3","admin_code":"41210","name":"경기도 광명시","sido":"경기도","sgg":"광명시","provisional":false,"source":"통계청 행정동 경계(BND_ADM_DONG_PG, 2025-06-30) 를 시군구로 합침","source_kind":"derived","derived_from":"행정동 경계 union · 20 m 단순화"}}]}