{"type":"FeatureCollection","features":[{"type":"Feature","id":"SGG:41570","geometry":{"type":"MultiPolygon","coordinates":[[[[126.67246,37.69601],[126.67036,37.68512],[126.67104,37.68155],[126.67259,37.67804],[126.67564,37.67356],[126.67797,37.67152],[126.69201,37.66411],[126.72122,37.65051],[126.72484,37.64894],[126.73153,37.64822],[126.73468,37.64636],[126.73632,37.64311],[126.7404,37.64031],[126.74196,37.63844],[126.74604,37.63524],[126.75169,37.63261],[126.7551,37.63196],[126.76856,37.62516],[126.78881,37.61333],[126.79717,37.60777],[126.80258,37.60503],[126.79994,37.60254],[126.79993,37.60144],[126.79922,37.60112],[126.79853,37.60009],[126.79805,37.60021],[126.79754,37.59779],[126.79708,37.59774],[126.79761,37.59488],[126.79866,37.59367],[126.8005,37.59241],[126.80005,37.59203],[126.79961,37.59244],[126.79899,37.59243],[126.7988,37.59132],[126.80052,37.59031],[126.80123,37.58935],[126.8011,37.58897],[126.80077,37.58904],[126.80094,37.58817],[126.8005,37.58779],[126.79877,37.58807],[126.79723,37.58539],[126.79629,37.5849],[126.7971,37.58427],[126.79572,37.58312],[126.79554,37.58515],[126.79493,37.5852],[126.7947,37.58262],[126.79441,37.58269],[126.79454,37.58355],[126.79422,37.58407],[126.79344,37.58452],[126.79391,37.58296],[126.79368,37.58158],[126.78705,37.58558],[126.78411,37.58259],[126.78205,37.58384],[126.78229,37.58401],[126.78153,37.58378],[126.78011,37.58435],[126.77998,37.58421],[126.78003,37.58404],[126.77996,37.58402],[126.77971,37.58437],[126.77668,37.58465],[126.77599,37.58505],[126.77496,37.58486],[126.77275,37.5851],[126.77086,37.58605],[126.76752,37.5884],[126.76675,37.58722],[126.76382,37.58586],[126.76318,37.58496],[126.76199,37.58511],[126.76182,37.58544],[126.75918,37.58489],[126.75798,37.58533],[126.75565,37.58289],[126.75554,37.58142],[126.75606,37.5809],[126.75573,37.58033],[126.75563,37.5805],[126.7547,37.58014],[126.75433,37.58038],[126.75176,37.57957],[126.7512,37.58054],[126.74953,37.58108],[126.74961,37.58428],[126.7474,37.58625],[126.74776,37.58644],[126.74683,37.58724],[126.74614,37.58866],[126.74526,37.58872],[126.74432,37.5925],[126.74165,37.59207],[126.74141,37.59301],[126.7391,37.59264],[126.73955,37.59295],[126.73901,37.5937],[126.73789,37.59345],[126.73677,37.59297],[126.73675,37.59099],[126.73625,37.59048],[126.73504,37.59068],[126.73465,37.59118],[126.73367,37.59104],[126.73354,37.59146],[126.7299,37.59221],[126.72921,37.59275],[126.72789,37.59251],[126.72725,37.5919],[126.72548,37.59178],[126.72566,37.59226],[126.72526,37.59217],[126.72204,37.59581],[126.72226,37.59599],[126.7163,37.59949],[126.71562,37.60381],[126.71407,37.60385],[126.71313,37.60293],[126.71301,37.60374],[126.71242,37.60402],[126.71173,37.605],[126.7096,37.60513],[126.70841,37.60491],[126.70693,37.60359],[126.70543,37.6031],[126.70468,37.60247],[126.7042,37.60299],[126.704,37.60466],[126.70459,37.60627],[126.70613,37.60768],[126.70593,37.60915],[126.70619,37.60989],[126.70545,37.61215],[126.70474,37.61168],[126.70249,37.61396],[126.70209,37.61415],[126.70161,37.61395],[126.70091,37.61427],[126.69865,37.61743],[126.69819,37.61783],[126.69709,37.61797],[126.69447,37.62034],[126.69339,37.62033],[126.69153,37.6214],[126.69062,37.62072],[126.68373,37.62523],[126.68284,37.62478],[126.68236,37.62522],[126.68257,37.62626],[126.68171,37.62657],[126.68086,37.62753],[126.68055,37.62931],[126.67934,37.62967],[126.6786,37.62929],[126.67471,37.62988],[126.67415,37.63205],[126.67242,37.63384],[126.66697,37.63594],[126.66549,37.63623],[126.66461,37.63597],[126.6637,37.63619],[126.66298,37.63679],[126.66163,37.63663],[126.66056,37.63715],[126.65889,37.63864],[126.65742,37.63795],[126.65554,37.63794],[126.65401,37.63821],[126.65255,37.63949],[126.6512,37.63787],[126.65177,37.63645],[126.65143,37.63616],[126.65151,37.63515],[126.65056,37.63471],[126.65042,37.63263],[126.64879,37.63052],[126.64858,37.62959],[126.64756,37.62893],[126.64711,37.62748],[126.64621,37.62783],[126.6457,37.62841],[126.64464,37.62852],[126.64221,37.6281],[126.6414,37.62715],[126.63991,37.62677],[126.63685,37.62811],[126.63646,37.62768],[126.63726,37.62651],[126.63712,37.62533],[126.63738,37.62499],[126.63674,37.62381],[126.6371,37.62343],[126.63681,37.62244],[126.63627,37.62166],[126.63662,37.62135],[126.63657,37.62049],[126.63426,37.61919],[126.6333,37.6193],[126.63241,37.61784],[126.63166,37.61734],[126.63235,37.61603],[126.63211,37.61502],[126.63149,37.61357],[126.63058,37.61307],[126.62939,37.61162],[126.62933,37.6096],[126.62786,37.60736],[126.62765,37.60576],[126.62556,37.60452],[126.62574,37.60259],[126.62459,37.60279],[126.62427,37.60234],[126.62358,37.60217],[126.62327,37.60248],[126.6237,37.60333],[126.62266,37.60296],[126.62092,37.60369],[126.61999,37.60345],[126.61958,37.60413],[126.61888,37.60403],[126.61865,37.60354],[126.61691,37.60355],[126.61598,37.60441],[126.61552,37.60568],[126.61436,37.60629],[126.60947,37.60454],[126.60707,37.6017],[126.60363,37.59899],[126.59156,37.59301],[126.59172,37.59266],[126.57477,37.58839],[126.57429,37.58718],[126.57392,37.5871],[126.57375,37.58759],[126.57433,37.58782],[126.57453,37.5884],[126.57429,37.58933],[126.56091,37.60057],[126.56063,37.60012],[126.55959,37.59969],[126.55979,37.60124],[126.5573,37.60562],[126.55642,37.60574],[126.55451,37.60934],[126.55509,37.61093],[126.55532,37.61496],[126.55468,37.615],[126.55347,37.61988],[126.55069,37.62619],[126.55128,37.62654],[126.55047,37.62834],[126.54973,37.62865],[126.54728,37.63449],[126.54607,37.63567],[126.54518,37.63517],[126.54483,37.63543],[126.54581,37.6361],[126.54416,37.63797],[126.54427,37.63979],[126.54267,37.63844],[126.54138,37.63807],[126.54114,37.63827],[126.54155,37.63854],[126.54047,37.63966],[126.53923,37.63965],[126.53927,37.64122],[126.53723,37.64471],[126.53827,37.64472],[126.53788,37.64656],[126.53698,37.6469],[126.53536,37.65088],[126.5341,37.65194],[126.53421,37.6524],[126.53303,37.6529],[126.53263,37.6543],[126.53158,37.6545],[126.53148,37.6548],[126.53162,37.65516],[126.53273,37.65505],[126.53455,37.65583],[126.53668,37.65539],[126.53772,37.65569],[126.53808,37.65761],[126.53897,37.65843],[126.5398,37.65806],[126.54182,37.65899],[126.5424,37.65992],[126.54352,37.66007],[126.54336,37.66078],[126.54388,37.66226],[126.5441,37.66272],[126.54448,37.66247],[126.54456,37.66269],[126.54282,37.66402],[126.54184,37.66427],[126.54216,37.66437],[126.53996,37.66547],[126.53949,37.66644],[126.54035,37.66837],[126.53972,37.66927],[126.53858,37.66982],[126.53856,37.67009],[126.53717,37.6704],[126.53675,37.67112],[126.53496,37.67146],[126.53462,37.67206],[126.53278,37.67205],[126.53176,37.6724],[126.53182,37.67284],[126.52881,37.67305],[126.52786,37.67334],[126.52683,37.67425],[126.52701,37.67468],[126.52776,37.67479],[126.52827,37.67519],[126.52937,37.67727],[126.53018,37.67753],[126.5322,37.68218],[126.53272,37.68472],[126.53348,37.68548],[126.53406,37.6878],[126.53353,37.69274],[126.53368,37.69409],[126.53326,37.69404],[126.53307,37.69496],[126.53188,37.70225],[126.53207,37.70261],[126.53169,37.70274],[126.53086,37.70539],[126.52818,37.70804],[126.52421,37.70992],[126.52225,37.7127],[126.52163,37.71441],[126.52196,37.71966],[126.52288,37.72337],[126.52339,37.72355],[126.52295,37.72418],[126.52481,37.72923],[126.5257,37.73076],[126.52622,37.73059],[126.52628,37.73082],[126.52583,37.73099],[126.52612,37.73179],[126.52667,37.73191],[126.52653,37.73322],[126.52763,37.73517],[126.52994,37.74111],[126.53028,37.74578],[126.53052,37.74579],[126.53006,37.74608],[126.53031,37.74677],[126.5311,37.74742],[126.53069,37.74999],[126.52915,37.7523],[126.52939,37.75263],[126.52762,37.75403],[126.52557,37.75679],[126.52526,37.75663],[126.52083,37.76003],[126.51834,37.76279],[126.51967,37.76582],[126.52202,37.76745],[126.5245,37.76846],[126.51705,37.77103],[126.518,37.77707],[126.52278,37.7901],[126.55468,37.77762],[126.57535,37.7627],[126.59377,37.76116],[126.60061,37.76401],[126.60812,37.76657],[126.61921,37.77586],[126.6255,37.77914],[126.63208,37.78094],[126.66303,37.78068],[126.66511,37.76933],[126.67543,37.75295],[126.68029,37.73169],[126.68018,37.72682],[126.6782,37.71747],[126.67484,37.71148],[126.67516,37.71046],[126.67395,37.7003],[126.67361,37.7003],[126.67246,37.69601]]],[[[126.55108,37.5996],[126.55094,37.59966],[126.55102,37.59971],[126.55108,37.5996]]],[[[126.54968,37.60389],[126.54969,37.60222],[126.55056,37.6015],[126.55021,37.60009],[126.55091,37.59978],[126.55061,37.59985],[126.55076,37.59743],[126.54988,37.59611],[126.54871,37.59811],[126.5493,37.59845],[126.54927,37.59894],[126.54883,37.59962],[126.54788,37.59998],[126.5476,37.60112],[126.54782,37.60123],[126.54722,37.60221],[126.54726,37.60271],[126.54781,37.60317],[126.54783,37.6042],[126.54808,37.60419],[126.54756,37.60485],[126.54866,37.60636],[126.54893,37.60632],[126.54968,37.60389]]],[[[126.54775,37.59357],[126.54837,37.59286],[126.54931,37.59321],[126.54919,37.59349],[126.54961,37.59341],[126.55015,37.59259],[126.55004,37.59187],[126.54837,37.5926],[126.54789,37.59213],[126.5473,37.59284],[126.54763,37.59322],[126.54742,37.59342],[126.54775,37.59357]]]]},"properties":{"id":"SGG:41570","layer":"L3","admin_code":"41570","name":"경기도 김포시","sido":"경기도","sgg":"김포시","provisional":false,"source":"통계청 행정동 경계(BND_ADM_DONG_PG, 2025-06-30) 를 시군구로 합침","source_kind":"derived","derived_from":"행정동 경계 union · 20 m 단순화"}}]}