{"type":"FeatureCollection","features":[{"type":"Feature","id":"SGG:47930","geometry":{"type":"MultiPolygon","coordinates":[[[[129.47711,36.69857],[129.47731,36.69848],[129.47723,36.69836],[129.47711,36.69857]]],[[[129.4773,36.69962],[129.47723,36.69975],[129.4773,36.69975],[129.4773,36.69962]]],[[[129.47725,36.69986],[129.47731,36.69996],[129.47728,36.69984],[129.47725,36.69986]]],[[[129.47712,36.69983],[129.47703,36.69998],[129.47716,36.69983],[129.47712,36.69983]]],[[[129.47703,36.69951],[129.47692,36.69967],[129.47672,36.69931],[129.47653,36.69943],[129.47676,36.69994],[129.47703,36.69951]]],[[[129.47665,36.6992],[129.47665,36.69899],[129.47658,36.69902],[129.47665,36.6992]]],[[[129.39599,36.66607],[129.39343,36.66644],[129.39236,36.66631],[129.39128,36.66559],[129.38991,36.66538],[129.38885,36.66453],[129.38706,36.66577],[129.38628,36.66596],[129.38605,36.66655],[129.38429,36.6676],[129.38352,36.66885],[129.38004,36.66753],[129.3786,36.66595],[129.37698,36.66601],[129.37398,36.66457],[129.37386,36.66342],[129.37285,36.66239],[129.37193,36.6623],[129.37068,36.66293],[129.36913,36.66258],[129.36655,36.66301],[129.3648,36.66087],[129.36224,36.66034],[129.3615,36.66044],[129.36123,36.65915],[129.36012,36.65758],[129.35956,36.65731],[129.35849,36.65464],[129.35728,36.65284],[129.35631,36.65242],[129.35537,36.6514],[129.35432,36.65097],[129.35267,36.65256],[129.35179,36.65463],[129.35116,36.65487],[129.35056,36.65588],[129.34981,36.65592],[129.34901,36.65678],[129.34801,36.65703],[129.34669,36.6569],[129.34633,36.65733],[129.34495,36.65733],[129.34371,36.65827],[129.34134,36.65815],[129.33912,36.65958],[129.33009,36.66154],[129.32965,36.66184],[129.3298,36.66277],[129.32932,36.66313],[129.32892,36.66447],[129.32731,36.66668],[129.32432,36.66725],[129.3209,36.66664],[129.32007,36.66608],[129.31758,36.66563],[129.31046,36.66835],[129.30667,36.6684],[129.30456,36.66778],[129.30307,36.66848],[129.30139,36.66855],[129.2988,36.66916],[129.29823,36.66899],[129.29751,36.66968],[129.296,36.6701],[129.2942,36.67141],[129.29272,36.66995],[129.29055,36.67003],[129.2871,36.66878],[129.2862,36.6681],[129.28542,36.66803],[129.28301,36.66842],[129.28043,36.67008],[129.27994,36.67109],[129.27846,36.67118],[129.27784,36.67059],[129.27649,36.67035],[129.2754,36.67055],[129.2716,36.67317],[129.26906,36.67368],[129.26975,36.6753],[129.27145,36.67698],[129.27522,36.67789],[129.27644,36.67919],[129.27723,36.67943],[129.27719,36.68019],[129.27856,36.68154],[129.2783,36.68549],[129.27655,36.68762],[129.27649,36.68812],[129.27706,36.68886],[129.27628,36.69169],[129.2768,36.69182],[129.27759,36.69153],[129.27968,36.6927],[129.28061,36.69291],[129.28278,36.69535],[129.28295,36.69657],[129.28191,36.69762],[129.28227,36.69898],[129.28265,36.69951],[129.28481,36.69964],[129.28548,36.70246],[129.28673,36.7039],[129.28612,36.70449],[129.2859,36.70589],[129.28624,36.7083],[129.28904,36.70978],[129.28929,36.71057],[129.29004,36.7113],[129.2895,36.71193],[129.28955,36.71303],[129.29014,36.71349],[129.29064,36.71503],[129.29166,36.71557],[129.29231,36.71732],[129.2944,36.71776],[129.29507,36.71872],[129.29454,36.71904],[129.28978,36.71875],[129.28776,36.71891],[129.28682,36.71984],[129.28552,36.72017],[129.28315,36.72232],[129.28094,36.72333],[129.27876,36.72308],[129.27715,36.72354],[129.27533,36.72308],[129.2739,36.7243],[129.27198,36.72528],[129.27046,36.72774],[129.27139,36.72906],[129.27145,36.7302],[129.27203,36.73121],[129.27093,36.73471],[129.2722,36.73829],[129.27235,36.73979],[129.27292,36.74075],[129.27255,36.74144],[129.27283,36.74257],[129.2717,36.74474],[129.277,36.74647],[129.27725,36.74758],[129.27897,36.74879],[129.28089,36.74986],[129.28209,36.75017],[129.28248,36.75072],[129.284,36.75114],[129.28525,36.75212],[129.28659,36.75206],[129.28873,36.75317],[129.29008,36.75323],[129.29057,36.75363],[129.29284,36.75228],[129.29393,36.75328],[129.29505,36.75349],[129.2976,36.75646],[129.2966,36.75906],[129.29677,36.7604],[129.29739,36.76066],[129.29658,36.76101],[129.29767,36.76297],[129.29683,36.76339],[129.29691,36.76407],[129.29624,36.76525],[129.2967,36.76667],[129.29655,36.76796],[129.29748,36.76867],[129.29833,36.76887],[129.29869,36.77092],[129.30052,36.77258],[129.30071,36.7734],[129.30329,36.77668],[129.30503,36.77696],[129.30629,36.77661],[129.30914,36.77382],[129.31078,36.77383],[129.31218,36.77531],[129.3116,36.77771],[129.31412,36.78078],[129.31208,36.78612],[129.31065,36.78696],[129.31036,36.78767],[129.30801,36.78872],[129.30728,36.79171],[129.30612,36.79277],[129.30261,36.79358],[129.30098,36.79347],[129.30015,36.79388],[129.29921,36.79494],[129.29864,36.79674],[129.29741,36.79781],[129.29771,36.79868],[129.29701,36.79954],[129.2962,36.80004],[129.29395,36.80053],[129.29412,36.80108],[129.29266,36.803],[129.29239,36.80574],[129.29144,36.80659],[129.28872,36.80815],[129.288,36.80813],[129.28755,36.80864],[129.28927,36.81225],[129.28825,36.81344],[129.28846,36.81438],[129.28964,36.816],[129.29,36.81711],[129.28985,36.81813],[129.29033,36.81845],[129.29066,36.81943],[129.29082,36.82119],[129.29196,36.82179],[129.29388,36.82392],[129.29407,36.82499],[129.29296,36.8264],[129.29315,36.8269],[129.29096,36.82809],[129.28937,36.82957],[129.2891,36.83241],[129.28843,36.83302],[129.28725,36.83338],[129.28644,36.83322],[129.28549,36.83345],[129.28408,36.83286],[129.28301,36.83297],[129.28139,36.83198],[129.27998,36.8322],[129.27924,36.83189],[129.27752,36.83278],[129.27661,36.83293],[129.27512,36.83259],[129.27426,36.83302],[129.27356,36.8329],[129.27266,36.83338],[129.27269,36.83465],[129.27173,36.83832],[129.27328,36.83899],[129.27367,36.84018],[129.27335,36.84047],[129.27073,36.84074],[129.2723,36.84174],[129.2724,36.8426],[129.27337,36.84368],[129.27687,36.84629],[129.27742,36.84734],[129.2757,36.84904],[129.27506,36.85052],[129.2759,36.85152],[129.27563,36.85428],[129.27725,36.85566],[129.27743,36.85648],[129.2755,36.85761],[129.27562,36.85885],[129.27936,36.86002],[129.28072,36.8613],[129.28019,36.86255],[129.27855,36.86384],[129.27873,36.86438],[129.27983,36.86452],[129.2818,36.86362],[129.28436,36.86297],[129.28538,36.8633],[129.28547,36.86364],[129.28526,36.86505],[129.28287,36.8673],[129.28245,36.8693],[129.28054,36.87061],[129.27945,36.87381],[129.27779,36.8747],[129.27574,36.87519],[129.27403,36.87439],[129.27163,36.87149],[129.26751,36.8728],[129.26711,36.8727],[129.26704,36.87178],[129.26648,36.87145],[129.26555,36.87172],[129.26331,36.87152],[129.2618,36.87053],[129.26068,36.87138],[129.26111,36.87264],[129.261,36.87346],[129.26356,36.8758],[129.26358,36.87684],[129.26321,36.87736],[129.26223,36.87715],[129.26276,36.87642],[129.26234,36.87607],[129.2595,36.87481],[129.25871,36.87404],[129.25711,36.87347],[129.25663,36.87233],[129.25602,36.87212],[129.25578,36.8707],[129.25622,36.87035],[129.2561,36.86944],[129.25648,36.869],[129.25622,36.86743],[129.25587,36.86723],[129.25589,36.86579],[129.2552,36.86458],[129.25599,36.86386],[129.25548,36.86293],[129.25521,36.86011],[129.25399,36.85861],[129.25254,36.85866],[129.25177,36.85752],[129.25103,36.85725],[129.25006,36.85602],[129.25008,36.85477],[129.24702,36.85231],[129.24555,36.8524],[129.24491,36.8519],[129.24342,36.85235],[129.24238,36.85228],[129.24205,36.85278],[129.24021,36.85191],[129.23877,36.85241],[129.23706,36.8539],[129.23721,36.8548],[129.2363,36.85513],[129.23549,36.85386],[129.23462,36.85315],[129.23368,36.85309],[129.23297,36.85353],[129.23153,36.85375],[129.23107,36.8547],[129.22965,36.85437],[129.22785,36.85457],[129.22779,36.85527],[129.22624,36.85613],[129.22799,36.85821],[129.22791,36.85933],[129.22842,36.85963],[129.22856,36.86019],[129.23144,36.8615],[129.23238,36.86308],[129.22852,36.86179],[129.22523,36.86116],[129.22351,36.8617],[129.22251,36.86165],[129.22121,36.86104],[129.21988,36.85972],[129.21772,36.85836],[129.21763,36.8588],[129.21623,36.85886],[129.21612,36.85844],[129.21564,36.85867],[129.21479,36.86154],[129.2127,36.86238],[129.21262,36.86339],[129.21129,36.86368],[129.21064,36.863],[129.21044,36.86116],[129.20968,36.85988],[129.20866,36.85925],[129.20832,36.85682],[129.20742,36.85702],[129.20632,36.85604],[129.20556,36.85585],[129.2051,36.85812],[129.20364,36.85874],[129.20215,36.86014],[129.20204,36.86075],[129.20092,36.86217],[129.20095,36.86511],[129.19931,36.86729],[129.19694,36.86837],[129.19561,36.86974],[129.19516,36.87224],[129.19585,36.87479],[129.19224,36.8793],[129.19169,36.87931],[129.19111,36.87979],[129.18767,36.87911],[129.1849,36.87941],[129.18386,36.87927],[129.18234,36.87842],[129.1797,36.87934],[129.17933,36.87994],[129.1769,36.87926],[129.17582,36.8795],[129.17409,36.88137],[129.17267,36.881],[129.17102,36.88155],[129.16887,36.88145],[129.16784,36.88042],[129.16633,36.8801],[129.16521,36.87916],[129.1661,36.87838],[129.1658,36.87539],[129.16295,36.87419],[129.15911,36.87473],[129.15645,36.8774],[129.15583,36.87789],[129.15538,36.87776],[129.15501,36.87961],[129.15543,36.88108],[129.15535,36.88227],[129.15639,36.8841],[129.15593,36.88508],[129.15552,36.88784],[129.15504,36.88848],[129.15355,36.88817],[129.15118,36.88891],[129.14909,36.88903],[129.14792,36.88968],[129.14761,36.89031],[129.14916,36.89297],[129.14924,36.89592],[129.14498,36.89819],[129.14447,36.89881],[129.14495,36.90079],[129.14801,36.90438],[129.14809,36.90479],[129.14717,36.90655],[129.14773,36.90805],[129.14539,36.90903],[129.14477,36.90975],[129.14475,36.91017],[129.14724,36.91226],[129.14741,36.91333],[129.14571,36.9142],[129.1452,36.91405],[129.14438,36.91489],[129.14368,36.91802],[129.14327,36.91877],[129.14227,36.91934],[129.14181,36.92041],[129.13817,36.92195],[129.13736,36.92284],[129.13724,36.926],[129.13684,36.92688],[129.13157,36.92908],[129.12839,36.92914],[129.12545,36.92979],[129.12441,36.93074],[129.12434,36.93162],[129.12309,36.93361],[129.12265,36.93363],[129.12217,36.93302],[129.1218,36.93309],[129.12084,36.93381],[129.12064,36.93448],[129.11848,36.93547],[129.11547,36.93489],[129.11343,36.93378],[129.11177,36.9335],[129.11089,36.9338],[129.10822,36.93593],[129.10413,36.93795],[129.10428,36.93865],[129.10693,36.94149],[129.10786,36.94204],[129.10804,36.94258],[129.10726,36.94345],[129.10404,36.94492],[129.10303,36.94492],[129.10172,36.94375],[129.10104,36.94364],[129.09861,36.94437],[129.09653,36.94606],[129.09404,36.94515],[129.09289,36.94521],[129.09152,36.94449],[129.09065,36.94487],[129.08872,36.94661],[129.08726,36.94654],[129.08504,36.94577],[129.08397,36.94591],[129.08347,36.94618],[129.08359,36.94665],[129.08569,36.94884],[129.08623,36.94931],[129.08748,36.94947],[129.08793,36.94993],[129.08758,36.95142],[129.08667,36.95158],[129.08644,36.95188],[129.08681,36.95164],[129.087,36.95179],[129.08627,36.95211],[129.08519,36.9521],[129.08284,36.95361],[129.08288,36.95414],[129.08221,36.95466],[129.07824,36.95485],[129.07721,36.95517],[129.07681,36.95568],[129.07666,36.95757],[129.07707,36.95856],[129.07942,36.96061],[129.0794,36.96118],[129.07993,36.96087],[129.08079,36.96118],[129.08143,36.96278],[129.08256,36.96356],[129.08397,36.96356],[129.08389,36.96333],[129.08812,36.96114],[129.08952,36.96111],[129.09097,36.96191],[129.09185,36.9634],[129.09252,36.96585],[129.09235,36.96749],[129.09208,36.96746],[129.09218,36.97006],[129.09287,36.97165],[129.09494,36.97465],[129.09512,36.97759],[129.09402,36.97869],[129.09295,36.97913],[129.09167,36.9791],[129.09243,36.98166],[129.09093,36.98408],[129.09049,36.98543],[129.09055,36.98664],[129.09103,36.98737],[129.09124,36.98722],[129.09201,36.98768],[129.09296,36.98889],[129.09282,36.99094],[129.09213,36.99187],[129.09221,36.99349],[129.09298,36.99505],[129.09278,36.99618],[129.0916,36.9976],[129.08951,36.99836],[129.08943,36.99921],[129.09056,37.00102],[129.09205,37.00256],[129.09315,37.00421],[129.09383,37.0061],[129.09464,37.00687],[129.09396,37.00738],[129.09087,37.00845],[129.09118,37.00884],[129.09081,37.00849],[129.09041,37.00922],[129.08733,37.00715],[129.08469,37.00881],[129.08969,37.01144],[129.0914,37.01371],[129.09275,37.0147],[129.09389,37.01486],[129.09453,37.01572],[129.09594,37.01648],[129.09757,37.01633],[129.09824,37.01698],[129.10319,37.01912],[129.10368,37.02019],[129.10475,37.02094],[129.10482,37.02184],[129.10666,37.02355],[129.10627,37.024],[129.10628,37.02496],[129.10806,37.02508],[129.10985,37.02464],[129.11039,37.02477],[129.11091,37.02538],[129.11279,37.02592],[129.11463,37.02552],[129.11562,37.02629],[129.11631,37.02804],[129.11799,37.02932],[129.12006,37.02857],[129.12147,37.02849],[129.12168,37.0289],[129.12281,37.02896],[129.12583,37.03011],[129.1264,37.02981],[129.12728,37.03031],[129.12754,37.03106],[129.12822,37.03138],[129.13008,37.03343],[129.13248,37.03436],[129.13388,37.03428],[129.13429,37.03343],[129.13541,37.03279],[129.13618,37.03297],[129.13977,37.03275],[129.14112,37.0309],[129.14597,37.02815],[129.14722,37.02635],[129.14728,37.02498],[129.14871,37.02453],[129.15048,37.02351],[129.15075,37.02373],[129.15294,37.02376],[129.1544,37.0231],[129.15499,37.02344],[129.15605,37.02245],[129.15664,37.02138],[129.15783,37.02113],[129.15946,37.0197],[129.1616,37.02029],[129.16178,37.02115],[129.16306,37.02157],[129.16441,37.02259],[129.16504,37.02276],[129.16594,37.02218],[129.16673,37.02208],[129.16774,37.0226],[129.16923,37.02379],[129.16983,37.02371],[129.17236,37.02569],[129.17283,37.0269],[129.17373,37.02736],[129.17423,37.02725],[129.17577,37.02852],[129.17619,37.02848],[129.17762,37.03057],[129.17808,37.0321],[129.17789,37.03458],[129.17895,37.03588],[129.17947,37.03614],[129.18017,37.03581],[129.18152,37.03591],[129.18392,37.03792],[129.18386,37.03877],[129.18437,37.03978],[129.1849,37.04005],[129.18541,37.04172],[129.18693,37.04186],[129.18757,37.04135],[129.19061,37.04065],[129.19259,37.04064],[129.19337,37.04094],[129.19475,37.04063],[129.19594,37.04249],[129.19961,37.04268],[129.20215,37.04443],[129.20505,37.04497],[129.2075,37.04441],[129.20806,37.04395],[129.21055,37.04372],[129.21145,37.04323],[129.21341,37.04299],[129.21511,37.04392],[129.21665,37.04402],[129.21824,37.04362],[129.21933,37.0437],[129.22114,37.04444],[129.22131,37.04414],[129.22277,37.04426],[129.22344,37.04391],[129.22419,37.0444],[129.22531,37.04456],[129.22768,37.04315],[129.23034,37.04248],[129.23086,37.04182],[129.23173,37.0417],[129.23195,37.04128],[129.2326,37.04119],[129.23359,37.0404],[129.23454,37.04015],[129.23645,37.04036],[129.23801,37.03867],[129.23891,37.03937],[129.23821,37.04079],[129.23559,37.04244],[129.23537,37.04295],[129.23471,37.04289],[129.23434,37.04346],[129.23267,37.04422],[129.23252,37.04467],[129.23312,37.04544],[129.23312,37.04635],[129.23272,37.04681],[129.23293,37.0497],[129.23282,37.05024],[129.23113,37.05222],[129.23206,37.05443],[129.23177,37.05426],[129.23069,37.05468],[129.22954,37.05474],[129.22852,37.05723],[129.2288,37.05826],[129.22938,37.05821],[129.2308,37.05884],[129.23307,37.06388],[129.2319,37.06577],[129.23047,37.06722],[129.23086,37.0689],[129.22854,37.07161],[129.22764,37.07209],[129.22649,37.07216],[129.22538,37.07372],[129.22712,37.07503],[129.22851,37.07535],[129.23086,37.07662],[129.23214,37.07807],[129.23324,37.0801],[129.23418,37.08066],[129.23592,37.08106],[129.23578,37.08155],[129.23725,37.08381],[129.23882,37.08461],[129.24046,37.08504],[129.24195,37.0876],[129.2434,37.08816],[129.24384,37.08983],[129.24494,37.09088],[129.24624,37.09317],[129.24903,37.09615],[129.25179,37.09712],[129.25316,37.09679],[129.25394,37.0976],[129.25521,37.098],[129.25526,37.09935],[129.25831,37.10048],[129.25908,37.10105],[129.26023,37.10096],[129.26243,37.1015],[129.26329,37.102],[129.26599,37.10232],[129.2669,37.10319],[129.26718,37.10436],[129.26886,37.10628],[129.27024,37.10692],[129.26914,37.10851],[129.26943,37.10921],[129.26919,37.11021],[129.27053,37.11117],[129.26978,37.11298],[129.27083,37.11397],[129.27124,37.11638],[129.27202,37.11701],[129.27452,37.11727],[129.27629,37.11798],[129.27674,37.11855],[129.27824,37.11758],[129.27849,37.11706],[129.27951,37.11711],[129.28112,37.11671],[129.28118,37.11636],[129.282,37.1161],[129.28389,37.11694],[129.28539,37.11725],[129.28754,37.11561],[129.28865,37.11525],[129.29045,37.11513],[129.29255,37.11432],[129.29322,37.11475],[129.29344,37.11437],[129.29459,37.11437],[129.29512,37.11702],[129.29476,37.11757],[129.29528,37.11891],[129.29523,37.1203],[129.29759,37.12248],[129.29778,37.12443],[129.29931,37.12411],[129.29978,37.1244],[129.30055,37.12494],[129.30113,37.12658],[129.30229,37.12754],[129.30387,37.12824],[129.30618,37.12768],[129.30889,37.12794],[129.31098,37.12958],[129.31104,37.13167],[129.3118,37.13221],[129.31313,37.13157],[129.31445,37.13134],[129.31498,37.13152],[129.31496,37.132],[129.31559,37.1323],[129.31641,37.13235],[129.31708,37.1329],[129.31815,37.13295],[129.3194,37.13444],[129.31916,37.13545],[129.31946,37.13578],[129.32063,37.13577],[129.32162,37.13677],[129.32156,37.13759],[129.32295,37.1382],[129.32299,37.13995],[129.32406,37.14177],[129.32483,37.14229],[129.32789,37.14195],[129.32912,37.14103],[129.33057,37.1405],[129.33324,37.14071],[129.33408,37.1426],[129.33644,37.14198],[129.33835,37.14346],[129.33951,37.14683],[129.33996,37.14533],[129.34099,37.1446],[129.3416,37.14514],[129.34279,37.14508],[129.34434,37.14595],[129.34606,37.14574],[129.34784,37.14645],[129.34909,37.14645],[129.349,37.14523],[129.34974,37.1454],[129.35053,37.14623],[129.35207,37.14631],[129.35485,37.14574],[129.35638,37.14486],[129.35792,37.14494],[129.35829,37.14523],[129.36151,37.14483],[129.36201,37.14494],[129.36277,37.14577],[129.36413,37.14601],[129.36509,37.14514],[129.36505,37.14475],[129.3661,37.14477],[129.3658,37.14448],[129.36574,37.14284],[129.3667,37.14163],[129.36655,37.14099],[129.36723,37.13996],[129.37128,37.13602],[129.37152,37.13588],[129.37203,37.13585],[129.372,37.13565],[129.37499,37.13541],[129.37447,37.13485],[129.37496,37.13347],[129.37339,37.13209],[129.3735,37.13109],[129.37171,37.13074],[129.3709,37.12978],[129.37108,37.12919],[129.37164,37.12892],[129.37212,37.12919],[129.37193,37.12944],[129.37248,37.12937],[129.3713,37.12744],[129.37197,37.12604],[129.37243,37.12565],[129.37279,37.12573],[129.37252,37.12534],[129.37283,37.12537],[129.37266,37.12505],[129.37296,37.12451],[129.37331,37.12452],[129.37316,37.12427],[129.37355,37.1242],[129.37333,37.12378],[129.37358,37.12373],[129.37348,37.123],[129.37462,37.12144],[129.37495,37.12134],[129.37589,37.12009],[129.37622,37.11981],[129.37683,37.1194],[129.37736,37.11973],[129.37712,37.11933],[129.37806,37.119],[129.37895,37.11977],[129.37908,37.11908],[129.37952,37.11898],[129.37988,37.11956],[129.38007,37.11931],[129.37967,37.1181],[129.37909,37.11807],[129.37876,37.11663],[129.37777,37.11609],[129.37754,37.11565],[129.37712,37.11577],[129.37662,37.11472],[129.37697,37.11456],[129.3762,37.11421],[129.37634,37.11362],[129.37725,37.11353],[129.37743,37.11225],[129.37716,37.11223],[129.37733,37.11266],[129.37699,37.11319],[129.37614,37.11327],[129.37633,37.11251],[129.37579,37.11278],[129.37526,37.11252],[129.37432,37.11044],[129.37465,37.11052],[129.37582,37.10741],[129.37678,37.10741],[129.3763,37.10701],[129.37659,37.10608],[129.37741,37.10584],[129.37782,37.10599],[129.37768,37.10567],[129.37811,37.1056],[129.37706,37.10485],[129.37705,37.10427],[129.37834,37.10324],[129.3798,37.10375],[129.38043,37.10466],[129.37995,37.10358],[129.37812,37.10293],[129.37881,37.10204],[129.37917,37.10188],[129.3821,37.10291],[129.38287,37.10277],[129.38619,37.09994],[129.38558,37.09964],[129.3831,37.10213],[129.38192,37.10237],[129.37857,37.10106],[129.3796,37.09906],[129.38263,37.09643],[129.38346,37.09705],[129.38135,37.09916],[129.38146,37.09981],[129.38308,37.10036],[129.3832,37.10002],[129.38269,37.09985],[129.38257,37.09869],[129.38798,37.09304],[129.39198,37.09109],[129.39465,37.08884],[129.39717,37.08861],[129.39692,37.08814],[129.39452,37.08835],[129.39155,37.09081],[129.39022,37.09136],[129.38969,37.09114],[129.39015,37.09072],[129.38963,37.09052],[129.3897,37.09027],[129.39072,37.09025],[129.39114,37.08978],[129.3908,37.08978],[129.39071,37.08942],[129.39174,37.08936],[129.39394,37.0875],[129.39713,37.08738],[129.39692,37.08703],[129.39508,37.08721],[129.39482,37.08675],[129.39495,37.08555],[129.39549,37.08577],[129.39611,37.08477],[129.39545,37.08429],[129.39623,37.0834],[129.40187,37.07918],[129.41378,37.07193],[129.41794,37.06994],[129.41787,37.06969],[129.41733,37.06979],[129.41698,37.06967],[129.41668,37.0686],[129.41703,37.06962],[129.41795,37.06963],[129.41818,37.07001],[129.4188,37.0693],[129.42017,37.06898],[129.42041,37.0681],[129.42105,37.06744],[129.42157,37.06739],[129.42146,37.06716],[129.42216,37.06647],[129.42456,37.06553],[129.42488,37.066],[129.42522,37.06593],[129.42491,37.06564],[129.42509,37.06514],[129.42553,37.06526],[129.42623,37.06493],[129.42543,37.06472],[129.4256,37.06415],[129.42626,37.06381],[129.42697,37.06425],[129.42718,37.06391],[129.4274,37.06267],[129.42767,37.06199],[129.42721,37.06098],[129.4276,37.05981],[129.42819,37.05926],[129.4289,37.05949],[129.42877,37.05909],[129.43017,37.05832],[129.42984,37.05669],[129.42939,37.05633],[129.42834,37.05565],[129.42772,37.05559],[129.42475,37.05442],[129.425,37.05381],[129.42424,37.05187],[129.4234,37.05086],[129.42173,37.0497],[129.42109,37.04943],[129.42083,37.04965],[129.42314,37.05105],[129.42448,37.05315],[129.42394,37.05413],[129.42149,37.0533],[129.42127,37.05352],[129.42186,37.05365],[129.42167,37.05402],[129.42441,37.05504],[129.42422,37.05538],[129.42465,37.05553],[129.42484,37.05521],[129.42587,37.0556],[129.42423,37.05774],[129.42153,37.05799],[129.4186,37.05692],[129.41846,37.05662],[129.42004,37.05515],[129.4186,37.05605],[129.41705,37.05483],[129.4166,37.05353],[129.41614,37.05359],[129.41554,37.05272],[129.41537,37.05189],[129.42002,37.051],[129.42009,37.05065],[129.4155,37.05165],[129.41436,37.05112],[129.4133,37.04808],[129.41321,37.04447],[129.41472,37.04401],[129.41524,37.04267],[129.41493,37.04263],[129.41456,37.04379],[129.41349,37.04359],[129.41364,37.0416],[129.41469,37.0395],[129.41581,37.03951],[129.41537,37.03994],[129.41562,37.04013],[129.41607,37.03968],[129.41619,37.0382],[129.41548,37.03861],[129.41485,37.03787],[129.41579,37.03552],[129.41673,37.03523],[129.41678,37.03571],[129.41712,37.03572],[129.41703,37.03506],[129.41659,37.03473],[129.41734,37.03401],[129.41717,37.03377],[129.41708,37.03404],[129.41601,37.03383],[129.41586,37.03205],[129.41532,37.03136],[129.41503,37.03151],[129.41553,37.03204],[129.4156,37.03337],[129.41432,37.03332],[129.41464,37.03209],[129.41408,37.03266],[129.41412,37.03329],[129.41216,37.03237],[129.41023,37.0308],[129.41021,37.03019],[129.41057,37.03005],[129.40999,37.02996],[129.40944,37.02786],[129.40979,37.02446],[129.41033,37.02247],[129.41087,37.02173],[129.41113,37.01995],[129.41329,37.01618],[129.4144,37.01607],[129.41351,37.01595],[129.41327,37.01549],[129.4137,37.01503],[129.41461,37.01553],[129.41391,37.01496],[129.41406,37.01432],[129.41489,37.01252],[129.41615,37.01126],[129.41591,37.01077],[129.41644,37.00706],[129.41743,37.00604],[129.41856,37.00596],[129.41891,37.0056],[129.41883,37.00512],[129.41855,37.00569],[129.41755,37.00574],[129.4173,37.00545],[129.41785,37.00386],[129.4174,37.00325],[129.41739,37.00239],[129.41754,37.00126],[129.41815,37.00026],[129.41777,36.99979],[129.41817,36.9987],[129.4174,36.99853],[129.41686,36.99723],[129.41698,36.99628],[129.41764,36.99525],[129.41747,36.9947],[129.41858,36.99369],[129.41875,36.99397],[129.41896,36.99301],[129.41764,36.99245],[129.41788,36.99228],[129.41742,36.99148],[129.41753,36.99082],[129.41685,36.98995],[129.41649,36.98969],[129.41627,36.98985],[129.41692,36.99068],[129.41651,36.991],[129.41584,36.99057],[129.41613,36.99018],[129.41575,36.99037],[129.41419,36.98907],[129.41384,36.98775],[129.4125,36.98693],[129.4121,36.98581],[129.41154,36.9857],[129.41136,36.98463],[129.41198,36.98363],[129.41125,36.98415],[129.41106,36.985],[129.4105,36.98473],[129.41081,36.9836],[129.41142,36.98352],[129.4111,36.98325],[129.41087,36.9834],[129.41057,36.98285],[129.40989,36.98286],[129.40958,36.98263],[129.40964,36.98231],[129.40918,36.98203],[129.40951,36.98174],[129.40906,36.9816],[129.40804,36.97969],[129.40961,36.97602],[129.41218,36.97171],[129.41238,36.97119],[129.4118,36.97126],[129.41196,36.97089],[129.41225,36.9711],[129.41268,36.97058],[129.41379,36.96828],[129.41495,36.96502],[129.41493,36.96274],[129.41582,36.96236],[129.4153,36.96249],[129.41504,36.96185],[129.41554,36.96115],[129.41616,36.9612],[129.41566,36.96106],[129.41557,36.96032],[129.41598,36.95976],[129.41672,36.95985],[129.41612,36.95965],[129.41602,36.95901],[129.41652,36.95837],[129.41708,36.95843],[129.4166,36.95826],[129.41668,36.95761],[129.41743,36.9572],[129.41713,36.95665],[129.4177,36.95628],[129.41741,36.95603],[129.41772,36.95526],[129.41851,36.95453],[129.41825,36.95444],[129.41844,36.95324],[129.41967,36.95122],[129.41918,36.94971],[129.41854,36.94969],[129.41817,36.94842],[129.41975,36.94476],[129.42068,36.94347],[129.42037,36.9427],[129.42056,36.94243],[129.42078,36.94254],[129.42054,36.9421],[129.42125,36.94078],[129.42083,36.93961],[129.42103,36.93844],[129.42064,36.93779],[129.42066,36.93726],[129.42107,36.93713],[129.42085,36.93683],[129.42119,36.937],[129.42081,36.93652],[129.4211,36.93633],[129.42061,36.93584],[129.41968,36.9358],[129.41947,36.9349],[129.41969,36.93404],[129.4192,36.93396],[129.41916,36.93387],[129.41918,36.93379],[129.41947,36.93367],[129.41934,36.93349],[129.41907,36.93362],[129.41938,36.93327],[129.4187,36.93295],[129.41733,36.93133],[129.41743,36.92975],[129.41898,36.92565],[129.41909,36.9241],[129.41978,36.92303],[129.41908,36.92117],[129.41931,36.91991],[129.41963,36.91925],[129.4199,36.91934],[129.41912,36.91885],[129.41883,36.91756],[129.41922,36.91725],[129.41875,36.91732],[129.41874,36.91686],[129.41792,36.91613],[129.41751,36.91621],[129.41805,36.91688],[129.41776,36.91746],[129.41858,36.91776],[129.41873,36.91866],[129.41806,36.91878],[129.4171,36.91866],[129.41677,36.91825],[129.41678,36.91795],[129.41777,36.91781],[129.4164,36.91745],[129.41711,36.91683],[129.41626,36.91707],[129.41559,36.91627],[129.41558,36.91423],[129.41652,36.91264],[129.4164,36.91208],[129.41689,36.91192],[129.41653,36.91141],[129.41687,36.91095],[129.41651,36.9106],[129.41659,36.91017],[129.41596,36.90997],[129.41555,36.90921],[129.41729,36.90444],[129.42046,36.8987],[129.42036,36.89794],[129.42098,36.898],[129.42109,36.89779],[129.42055,36.89761],[129.42035,36.89692],[129.42065,36.89645],[129.42019,36.8964],[129.41969,36.89504],[129.41985,36.89463],[129.4193,36.89448],[129.41886,36.89387],[129.41951,36.89155],[129.42037,36.89151],[129.42201,36.88896],[129.42147,36.88884],[129.42135,36.88962],[129.42012,36.89121],[129.41933,36.8912],[129.41861,36.89349],[129.41604,36.89187],[129.41548,36.89047],[129.41509,36.89025],[129.41542,36.89023],[129.4154,36.88936],[129.416,36.88934],[129.41571,36.8892],[129.41637,36.88893],[129.41624,36.88936],[129.41653,36.88937],[129.4164,36.88893],[129.41678,36.88893],[129.4169,36.88947],[129.4169,36.88886],[129.41793,36.8889],[129.41986,36.88995],[129.42022,36.88986],[129.418,36.8887],[129.41673,36.88871],[129.41627,36.88756],[129.41632,36.88726],[129.41678,36.88728],[129.41683,36.88696],[129.41652,36.88715],[129.41636,36.88679],[129.41649,36.88521],[129.41762,36.88264],[129.41757,36.88198],[129.41808,36.88152],[129.41818,36.8809],[129.41858,36.88083],[129.41827,36.8806],[129.4189,36.87923],[129.42011,36.87729],[129.421,36.87681],[129.42091,36.87529],[129.42138,36.87395],[129.4218,36.87379],[129.42167,36.87355],[129.42204,36.87374],[129.42168,36.87337],[129.42191,36.87328],[129.42154,36.87222],[129.42053,36.8714],[129.42086,36.87119],[129.42051,36.87119],[129.41986,36.86947],[129.42024,36.86762],[129.42067,36.86661],[129.42102,36.8665],[129.42078,36.86606],[129.42103,36.86541],[129.42121,36.86535],[129.42104,36.86506],[129.42141,36.86486],[129.42123,36.86452],[129.42247,36.86209],[129.42337,36.862],[129.42278,36.8616],[129.42322,36.86054],[129.42409,36.86002],[129.4238,36.85984],[129.42398,36.85958],[129.42353,36.85949],[129.42375,36.85873],[129.42455,36.85765],[129.42498,36.85766],[129.42474,36.85711],[129.42508,36.85644],[129.4254,36.85634],[129.42531,36.85608],[129.42615,36.85445],[129.42661,36.85417],[129.42697,36.85324],[129.42742,36.85264],[129.42861,36.85234],[129.42759,36.85235],[129.42737,36.85168],[129.42772,36.85086],[129.42942,36.8482],[129.43304,36.84467],[129.43496,36.84235],[129.44,36.83772],[129.44082,36.83716],[129.44113,36.83727],[129.44131,36.83632],[129.44202,36.83566],[129.44261,36.83572],[129.44263,36.83507],[129.44429,36.83437],[129.44417,36.83354],[129.4447,36.83235],[129.44526,36.83214],[129.44559,36.83255],[129.44567,36.83212],[129.44597,36.83229],[129.44631,36.83203],[129.44573,36.83164],[129.44589,36.83062],[129.44617,36.83048],[129.44592,36.83023],[129.44619,36.83014],[129.44579,36.82934],[129.44652,36.82869],[129.44658,36.82823],[129.44828,36.82807],[129.44986,36.82598],[129.45266,36.82441],[129.45264,36.82404],[129.45225,36.82399],[129.44947,36.82583],[129.44805,36.82779],[129.44639,36.82773],[129.44611,36.8275],[129.44528,36.82768],[129.44726,36.82505],[129.44791,36.82528],[129.44719,36.82468],[129.44764,36.82414],[129.44787,36.82426],[129.44772,36.82406],[129.44888,36.82286],[129.45038,36.82341],[129.4507,36.82417],[129.4511,36.82421],[129.45094,36.82347],[129.44962,36.82284],[129.44972,36.82181],[129.4509,36.82129],[129.45098,36.82088],[129.45066,36.82076],[129.45104,36.82049],[129.45102,36.82003],[129.45188,36.81936],[129.45247,36.8194],[129.45249,36.81895],[129.45288,36.8192],[129.45299,36.81797],[129.45365,36.8176],[129.45367,36.81698],[129.45435,36.81654],[129.45492,36.81646],[129.45497,36.81629],[129.45514,36.8165],[129.45522,36.81605],[129.45558,36.8161],[129.45586,36.81562],[129.45624,36.81586],[129.45598,36.81546],[129.45633,36.81549],[129.45619,36.81525],[129.45713,36.81451],[129.45676,36.8135],[129.45695,36.81275],[129.45768,36.81233],[129.45785,36.81251],[129.45803,36.81202],[129.45764,36.81216],[129.45782,36.81173],[129.45736,36.81181],[129.45675,36.811],[129.45686,36.81049],[129.45777,36.81019],[129.45783,36.80976],[129.45732,36.8096],[129.45725,36.80838],[129.4577,36.80787],[129.45742,36.80716],[129.45827,36.80663],[129.45856,36.80585],[129.4582,36.80446],[129.46058,36.80323],[129.46108,36.80203],[129.46062,36.80189],[129.46022,36.80314],[129.45911,36.80377],[129.45826,36.80409],[129.45783,36.8034],[129.45808,36.80266],[129.45929,36.80298],[129.45964,36.80255],[129.45935,36.80259],[129.45871,36.80193],[129.45878,36.801],[129.45899,36.80075],[129.45976,36.80101],[129.46089,36.80061],[129.45992,36.80082],[129.45951,36.80033],[129.4595,36.79958],[129.46202,36.79665],[129.463,36.79622],[129.46287,36.79551],[129.46245,36.79521],[129.46268,36.79511],[129.46232,36.79501],[129.46287,36.79447],[129.46281,36.79412],[129.46307,36.79418],[129.46281,36.79386],[129.46326,36.79332],[129.46217,36.7918],[129.46269,36.79002],[129.46235,36.78986],[129.46263,36.78906],[129.46234,36.78864],[129.46554,36.78483],[129.47,36.78063],[129.46985,36.78015],[129.47074,36.77936],[129.47155,36.77777],[129.4717,36.77646],[129.47321,36.77449],[129.47323,36.77389],[129.47521,36.77198],[129.47598,36.7716],[129.47577,36.77112],[129.47605,36.7704],[129.47864,36.76797],[129.47873,36.76756],[129.47821,36.76768],[129.4778,36.76718],[129.47647,36.76408],[129.47581,36.7634],[129.47464,36.76287],[129.47266,36.76034],[129.47281,36.75919],[129.47367,36.75908],[129.47518,36.75706],[129.47531,36.75615],[129.47487,36.75615],[129.47485,36.75688],[129.47344,36.75878],[129.4725,36.75888],[129.47211,36.76073],[129.46952,36.75981],[129.46933,36.7593],[129.46884,36.75951],[129.46913,36.75917],[129.46831,36.75826],[129.46805,36.75741],[129.46829,36.75627],[129.46936,36.75624],[129.46942,36.7565],[129.46988,36.75651],[129.46993,36.75626],[129.47141,36.75628],[129.47324,36.75752],[129.47367,36.75744],[129.47159,36.75613],[129.47148,36.75523],[129.47134,36.75606],[129.46958,36.75609],[129.4689,36.75551],[129.46844,36.75294],[129.46898,36.7512],[129.46845,36.75036],[129.46841,36.74954],[129.46931,36.74635],[129.47116,36.74227],[129.47226,36.74075],[129.47382,36.73746],[129.47504,36.73588],[129.47567,36.73554],[129.47606,36.73409],[129.47662,36.73367],[129.47663,36.73275],[129.47618,36.73251],[129.47587,36.73129],[129.47699,36.72788],[129.47774,36.7271],[129.47666,36.72624],[129.47652,36.72572],[129.47573,36.72527],[129.47481,36.72293],[129.47455,36.72305],[129.47531,36.72506],[129.47416,36.72536],[129.47323,36.72475],[129.47431,36.72375],[129.47352,36.72411],[129.47252,36.72347],[129.47208,36.72276],[129.47175,36.72089],[129.47266,36.71679],[129.47393,36.7143],[129.47407,36.71305],[129.47478,36.71172],[129.47597,36.71116],[129.47542,36.71021],[129.47574,36.70978],[129.47451,36.70862],[129.47428,36.70784],[129.47465,36.70699],[129.47456,36.70467],[129.47572,36.7022],[129.47545,36.70135],[129.47633,36.69933],[129.47531,36.69834],[129.47509,36.69733],[129.47485,36.69738],[129.47492,36.69795],[129.474,36.69788],[129.47273,36.69666],[129.47282,36.69619],[129.47236,36.69639],[129.47129,36.69569],[129.47016,36.6957],[129.46935,36.69528],[129.46871,36.69435],[129.46823,36.69302],[129.46791,36.68865],[129.47051,36.68609],[129.47012,36.68604],[129.46779,36.68833],[129.46685,36.68787],[129.4669,36.68825],[129.46629,36.68834],[129.46536,36.68749],[129.46489,36.68633],[129.46494,36.68512],[129.46952,36.68472],[129.46566,36.68488],[129.46498,36.68402],[129.46456,36.68289],[129.46462,36.68193],[129.4655,36.67994],[129.46633,36.67992],[129.46623,36.6793],[129.46536,36.67968],[129.46473,36.67946],[129.46412,36.67912],[129.4629,36.67742],[129.45956,36.67603],[129.45793,36.67453],[129.4568,36.67184],[129.45529,36.67101],[129.455,36.67137],[129.45658,36.67202],[129.45769,36.67469],[129.45932,36.67617],[129.45914,36.67651],[129.46185,36.67777],[129.45902,36.68178],[129.45672,36.68147],[129.456,36.68111],[129.45687,36.67996],[129.45668,36.67987],[129.45581,36.68101],[129.45283,36.67959],[129.45309,36.67918],[129.45235,36.67878],[129.45531,36.67453],[129.45499,36.67453],[129.45267,36.67796],[129.44943,36.6765],[129.4505,36.67523],[129.45328,36.67539],[129.45328,36.67511],[129.45258,36.67512],[129.45257,36.67473],[129.4524,36.67509],[129.45015,36.67522],[129.44843,36.67776],[129.44757,36.67754],[129.44749,36.67718],[129.44625,36.67681],[129.44105,36.67375],[129.43778,36.67047],[129.43491,36.66614],[129.43339,36.66244],[129.43399,36.66058],[129.43367,36.66064],[129.4338,36.661],[129.43306,36.66201],[129.43255,36.66135],[129.43355,36.66099],[129.4327,36.66108],[129.43222,36.66091],[129.43152,36.65972],[129.43179,36.65923],[129.43127,36.6594],[129.43081,36.65899],[129.4308,36.65807],[129.43117,36.65791],[129.43086,36.6579],[129.43039,36.65594],[129.43055,36.65452],[129.43014,36.65389],[129.43033,36.6537],[129.42999,36.65359],[129.42992,36.65277],[129.42879,36.65133],[129.42884,36.64963],[129.4284,36.64936],[129.42826,36.64878],[129.42697,36.64796],[129.42698,36.6477],[129.42615,36.64736],[129.42621,36.64706],[129.42522,36.64628],[129.42533,36.64527],[129.42492,36.64596],[129.42353,36.64528],[129.42321,36.6435],[129.42145,36.64392],[129.42144,36.6443],[129.42099,36.64454],[129.42002,36.64448],[129.41863,36.64638],[129.41807,36.6482],[129.41925,36.65059],[129.41792,36.65047],[129.41626,36.65191],[129.41619,36.65229],[129.4138,36.65269],[129.41338,36.65313],[129.41274,36.6532],[129.41219,36.65273],[129.4109,36.65296],[129.41071,36.65477],[129.41001,36.65626],[129.40829,36.65729],[129.40678,36.65922],[129.40478,36.65928],[129.40395,36.65986],[129.40268,36.65995],[129.40149,36.66109],[129.40046,36.66142],[129.39986,36.66149],[129.39847,36.66072],[129.39665,36.66126],[129.39592,36.66286],[129.39617,36.66488],[129.39693,36.66554],[129.39599,36.66607]]],[[[129.47644,36.69904],[129.47645,36.69932],[129.47652,36.69933],[129.47644,36.69904]]],[[[129.47642,36.698],[129.47632,36.69817],[129.47644,36.698],[129.47642,36.698]]],[[[129.47631,36.70003],[129.47629,36.70021],[129.47634,36.70004],[129.47631,36.70003]]],[[[129.47626,36.69887],[129.4763,36.69897],[129.47633,36.69892],[129.47626,36.69887]]],[[[129.47618,36.70003],[129.47612,36.7001],[129.47618,36.70009],[129.47618,36.70003]]],[[[129.47608,36.69861],[129.47607,36.69871],[129.4761,36.69871],[129.47608,36.69861]]],[[[129.47696,36.73255],[129.47704,36.73272],[129.47701,36.73254],[129.47696,36.73255]]],[[[129.47622,36.71096],[129.47608,36.71102],[129.47619,36.7111],[129.47622,36.71096]]],[[[129.47654,36.73243],[129.47647,36.73259],[129.47656,36.73258],[129.47654,36.73243]]],[[[129.4766,36.73555],[129.47638,36.73583],[129.47663,36.73583],[129.4766,36.73555]]],[[[129.47605,36.72529],[129.47606,36.72546],[129.47613,36.72544],[129.47605,36.72529]]],[[[129.47617,36.73412],[129.47628,36.73421],[129.47633,36.73412],[129.47617,36.73412]]],[[[129.4751,36.70447],[129.47504,36.70459],[129.47513,36.70458],[129.4751,36.70447]]],[[[129.4732,36.69678],[129.47323,36.69685],[129.47323,36.69679],[129.4732,36.69678]]],[[[129.47308,36.69678],[129.47316,36.69679],[129.47317,36.69674],[129.47308,36.69678]]],[[[129.47264,36.71874],[129.47253,36.71866],[129.47251,36.71876],[129.47264,36.71874]]],[[[129.47193,36.69602],[129.47184,36.69597],[129.47181,36.69602],[129.47193,36.69602]]],[[[129.4716,36.69579],[129.4716,36.69586],[129.47164,36.6958],[129.4716,36.69579]]],[[[129.4691,36.69454],[129.46913,36.69462],[129.46916,36.69458],[129.4691,36.69454]]],[[[129.46844,36.69324],[129.46853,36.69329],[129.46856,36.69328],[129.46844,36.69324]]],[[[129.46958,36.75193],[129.46986,36.75198],[129.47016,36.75052],[129.46968,36.75037],[129.46958,36.75193]]],[[[129.46939,36.75282],[129.46947,36.75262],[129.46943,36.75205],[129.46937,36.7522],[129.46939,36.75282]]],[[[129.46932,36.75312],[129.46942,36.75373],[129.4694,36.75309],[129.46932,36.75312]]],[[[129.4693,36.75404],[129.46938,36.75477],[129.46937,36.75403],[129.4693,36.75404]]],[[[129.4664,36.67933],[129.46643,36.6794],[129.46643,36.67932],[129.4664,36.67933]]],[[[129.4653,36.68089],[129.46534,36.68097],[129.46539,36.68095],[129.4653,36.68089]]],[[[129.45862,36.8061],[129.45876,36.80574],[129.45862,36.80571],[129.45862,36.8061]]],[[[129.45884,36.80686],[129.4588,36.80694],[129.45886,36.80693],[129.45884,36.80686]]],[[[129.45867,36.80519],[129.45869,36.80502],[129.4586,36.80518],[129.45867,36.80519]]],[[[129.45874,36.80632],[129.45868,36.80639],[129.45879,36.80647],[129.45874,36.80632]]],[[[129.45871,36.80653],[129.45854,36.80636],[129.45859,36.80661],[129.45871,36.80653]]],[[[129.45823,36.80705],[129.45805,36.80696],[129.45806,36.80701],[129.45823,36.80705]]],[[[129.45834,36.81233],[129.45818,36.81247],[129.45829,36.81251],[129.45834,36.81233]]],[[[129.45796,36.807],[129.45801,36.80708],[129.45799,36.80699],[129.45796,36.807]]],[[[129.45774,36.8096],[129.45753,36.8095],[129.4574,36.80947],[129.45741,36.80959],[129.45774,36.8096]]],[[[129.45749,36.8088],[129.45767,36.80872],[129.45756,36.80862],[129.45749,36.8088]]],[[[129.45777,36.81259],[129.45757,36.81263],[129.45774,36.81273],[129.45777,36.81259]]],[[[129.45745,36.80937],[129.45754,36.80924],[129.45742,36.80924],[129.45745,36.80937]]],[[[129.45734,36.81358],[129.45733,36.81371],[129.45742,36.81368],[129.45734,36.81358]]],[[[129.45715,36.81315],[129.45711,36.81323],[129.45718,36.81323],[129.45715,36.81315]]],[[[129.45707,36.81524],[129.45712,36.81536],[129.45717,36.81528],[129.45707,36.81524]]],[[[129.4571,36.81503],[129.45703,36.81518],[129.45714,36.81522],[129.4571,36.81503]]],[[[129.45698,36.81321],[129.45706,36.81333],[129.45707,36.81324],[129.45698,36.81321]]],[[[129.4548,36.81664],[129.45491,36.81667],[129.45483,36.81655],[129.4548,36.81664]]],[[[129.45449,36.81673],[129.45436,36.81657],[129.45437,36.81675],[129.45449,36.81673]]],[[[129.45172,36.82107],[129.45169,36.8209],[129.4516,36.821],[129.45172,36.82107]]],[[[129.45125,36.82318],[129.45132,36.82329],[129.45138,36.8232],[129.45125,36.82318]]],[[[129.45019,36.82368],[129.45035,36.82351],[129.45029,36.8235],[129.45019,36.82368]]],[[[129.44675,36.82874],[129.44683,36.82889],[129.44685,36.82874],[129.44675,36.82874]]],[[[129.44607,36.83161],[129.4463,36.83168],[129.44647,36.83155],[129.44637,36.83153],[129.44607,36.83161]]],[[[129.44644,36.83234],[129.44631,36.83233],[129.44643,36.8324],[129.44644,36.83234]]],[[[129.44532,36.83257],[129.44532,36.8325],[129.44528,36.83248],[129.44532,36.83257]]],[[[129.43351,36.66212],[129.43361,36.66215],[129.43358,36.6621],[129.43351,36.66212]]],[[[129.43263,36.66099],[129.43272,36.661],[129.43268,36.66097],[129.43263,36.66099]]],[[[129.43208,36.66053],[129.43248,36.66036],[129.4325,36.6603],[129.43208,36.66053]]],[[[129.43196,36.66001],[129.43193,36.66014],[129.43203,36.66001],[129.43196,36.66001]]],[[[129.43146,36.65757],[129.43156,36.65763],[129.43159,36.65756],[129.43146,36.65757]]],[[[129.43102,36.65689],[129.43102,36.65698],[129.43109,36.65689],[129.43102,36.65689]]],[[[129.43057,36.65384],[129.43058,36.65379],[129.43052,36.65378],[129.43057,36.65384]]],[[[129.43033,36.65401],[129.43054,36.65407],[129.43034,36.65398],[129.43033,36.65401]]],[[[129.42981,36.65237],[129.42977,36.65247],[129.42984,36.65239],[129.42981,36.65237]]],[[[129.42957,36.65218],[129.42972,36.65223],[129.42971,36.65216],[129.42957,36.65218]]],[[[129.42892,36.64939],[129.42903,36.64956],[129.42908,36.64954],[129.42892,36.64939]]],[[[129.42779,36.64828],[129.42776,36.64845],[129.42788,36.64844],[129.42779,36.64828]]],[[[129.42374,36.64446],[129.42372,36.64456],[129.42378,36.64452],[129.42374,36.64446]]],[[[129.4236,36.64414],[129.42373,36.64424],[129.42365,36.6441],[129.4236,36.64414]]],[[[129.42335,36.64363],[129.42345,36.6436],[129.42334,36.64357],[129.42335,36.64363]]],[[[129.42901,36.84917],[129.42908,36.84923],[129.42906,36.84915],[129.42901,36.84917]]],[[[129.42757,36.85299],[129.42756,36.85305],[129.42762,36.85302],[129.42757,36.85299]]],[[[129.42758,36.85335],[129.42756,36.85334],[129.42757,36.85336],[129.42758,36.85335]]],[[[129.42755,36.85315],[129.42756,36.85317],[129.42757,36.85316],[129.42755,36.85315]]],[[[129.42748,36.85301],[129.42744,36.85308],[129.42752,36.85304],[129.42748,36.85301]]],[[[129.42735,36.85366],[129.42739,36.85368],[129.42736,36.85365],[129.42735,36.85366]]],[[[129.42693,36.85354],[129.42705,36.85357],[129.42704,36.85353],[129.42693,36.85354]]],[[[129.42705,36.85415],[129.42694,36.85418],[129.42695,36.8542],[129.42705,36.85415]]],[[[129.42698,36.85408],[129.4269,36.85414],[129.42701,36.85409],[129.42698,36.85408]]],[[[129.42677,36.85405],[129.42682,36.85399],[129.42673,36.85399],[129.42677,36.85405]]],[[[129.42634,36.85447],[129.42639,36.85452],[129.42641,36.8545],[129.42634,36.85447]]],[[[129.42621,36.85446],[129.42627,36.85442],[129.42619,36.85444],[129.42621,36.85446]]],[[[129.42614,36.85505],[129.42605,36.85506],[129.42605,36.85509],[129.42614,36.85505]]],[[[129.42609,36.85482],[129.42605,36.85478],[129.42604,36.8548],[129.42609,36.85482]]],[[[129.42608,36.85468],[129.42604,36.85474],[129.42611,36.85472],[129.42608,36.85468]]],[[[129.42605,36.85518],[129.42609,36.85516],[129.42601,36.85517],[129.42605,36.85518]]],[[[129.42599,36.85536],[129.42598,36.85531],[129.4259,36.85535],[129.42599,36.85536]]],[[[129.42586,36.8563],[129.42577,36.85621],[129.42578,36.85628],[129.42586,36.8563]]],[[[129.42556,36.85618],[129.42553,36.85627],[129.42564,36.85625],[129.42556,36.85618]]],[[[129.42542,36.85602],[129.42537,36.85607],[129.42546,36.85605],[129.42542,36.85602]]],[[[129.42519,36.85663],[129.42523,36.85665],[129.42521,36.85662],[129.42519,36.85663]]],[[[129.42515,36.85667],[129.42521,36.8567],[129.42516,36.85666],[129.42515,36.85667]]],[[[129.42516,36.85661],[129.42507,36.85662],[129.42512,36.85666],[129.42516,36.85661]]],[[[129.42509,36.85673],[129.42507,36.8568],[129.42511,36.8568],[129.42509,36.85673]]],[[[129.42511,36.85684],[129.42502,36.85684],[129.42501,36.85685],[129.42511,36.85684]]],[[[129.42513,36.85847],[129.42515,36.85846],[129.42513,36.85845],[129.42513,36.85847]]],[[[129.42503,36.85689],[129.42508,36.85692],[129.4251,36.85691],[129.42503,36.85689]]],[[[129.42508,36.85821],[129.42512,36.85822],[129.42509,36.85818],[129.42508,36.85821]]],[[[129.42495,36.85695],[129.42495,36.857],[129.42496,36.85694],[129.42495,36.85695]]],[[[129.43115,37.05757],[129.43114,37.05762],[129.43121,37.05761],[129.43115,37.05757]]],[[[129.42457,36.8579],[129.42461,36.85794],[129.42464,36.85794],[129.42457,36.8579]]],[[[129.42453,36.85784],[129.42453,36.85787],[129.42455,36.85787],[129.42453,36.85784]]],[[[129.43071,37.05646],[129.43064,37.05625],[129.43059,37.05642],[129.43071,37.05646]]],[[[129.43075,37.05595],[129.43064,37.05603],[129.43069,37.05604],[129.43075,37.05595]]],[[[129.43071,37.05674],[129.43075,37.05681],[129.43075,37.05673],[129.43071,37.05674]]],[[[129.43073,37.05806],[129.43079,37.05807],[129.43071,37.05802],[129.43073,37.05806]]],[[[129.43065,37.05705],[129.43062,37.05715],[129.43067,37.05714],[129.43065,37.05705]]],[[[129.43061,37.0578],[129.43066,37.05786],[129.4307,37.05784],[129.43061,37.0578]]],[[[129.42427,36.85824],[129.42428,36.85828],[129.4243,36.85827],[129.42427,36.85824]]],[[[129.42425,36.85817],[129.42426,36.8582],[129.42428,36.85817],[129.42425,36.85817]]],[[[129.42421,36.8591],[129.42418,36.85913],[129.42424,36.85913],[129.42421,36.8591]]],[[[129.43027,37.05795],[129.43054,37.05782],[129.43046,37.05775],[129.43027,37.05795]]],[[[129.42422,36.86009],[129.42425,36.86011],[129.42423,36.86008],[129.42422,36.86009]]],[[[129.42413,36.85839],[129.42403,36.85845],[129.42416,36.8585],[129.42413,36.85839]]],[[[129.4304,37.05705],[129.43044,37.05704],[129.43042,37.057],[129.4304,37.05705]]],[[[129.42409,36.85853],[129.42411,36.85856],[129.42413,36.85856],[129.42409,36.85853]]],[[[129.43029,37.05711],[129.43039,37.05711],[129.4304,37.05709],[129.43029,37.05711]]],[[[129.43035,37.05859],[129.43045,37.05863],[129.43036,37.05858],[129.43035,37.05859]]],[[[129.42401,36.85895],[129.42399,36.859],[129.42405,36.85897],[129.42401,36.85895]]],[[[129.43028,37.05771],[129.4303,37.05779],[129.43036,37.05771],[129.43028,37.05771]]],[[[129.42408,36.86061],[129.42404,36.86056],[129.42399,36.86064],[129.42408,36.86061]]],[[[129.43027,37.05673],[129.43029,37.05677],[129.4303,37.05672],[129.43027,37.05673]]],[[[129.42406,36.86021],[129.42403,36.86028],[129.42406,36.86028],[129.42406,36.86021]]],[[[129.43023,37.05613],[129.43021,37.05625],[129.43023,37.05613],[129.43023,37.05613]]],[[[129.42396,36.85871],[129.42395,36.85875],[129.42398,36.85875],[129.42396,36.85871]]],[[[129.4239,36.85858],[129.42394,36.85863],[129.42397,36.85863],[129.4239,36.85858]]],[[[129.4302,37.05796],[129.43029,37.05802],[129.43022,37.05795],[129.4302,37.05796]]],[[[129.43017,37.05597],[129.43021,37.05604],[129.43022,37.05597],[129.43017,37.05597]]],[[[129.43017,37.05606],[129.43012,37.05615],[129.43013,37.05615],[129.43017,37.05606]]],[[[129.42378,36.85905],[129.42384,36.85894],[129.42371,36.85903],[129.42378,36.85905]]],[[[129.42387,36.85918],[129.42382,36.85922],[129.42389,36.85919],[129.42387,36.85918]]],[[[129.43015,37.05637],[129.43009,37.05639],[129.43011,37.05642],[129.43015,37.05637]]],[[[129.4301,37.05719],[129.43008,37.05728],[129.43017,37.05723],[129.4301,37.05719]]],[[[129.43005,37.05624],[129.43,37.05632],[129.43002,37.05634],[129.43005,37.05624]]],[[[129.43004,37.05686],[129.42993,37.05685],[129.42995,37.05689],[129.43004,37.05686]]],[[[129.42379,36.86106],[129.42375,36.8611],[129.42384,36.8611],[129.42379,36.86106]]],[[[129.42999,37.05663],[129.43001,37.0567],[129.43004,37.05661],[129.42999,37.05663]]],[[[129.43001,37.05637],[129.42998,37.05643],[129.43,37.05644],[129.43001,37.05637]]],[[[129.43004,37.05878],[129.42996,37.05884],[129.42999,37.05887],[129.43004,37.05878]]],[[[129.42992,37.05904],[129.42988,37.05911],[129.43003,37.05912],[129.42992,37.05904]]],[[[129.42365,36.86065],[129.42362,36.86071],[129.42372,36.86069],[129.42365,36.86065]]],[[[129.42986,37.05601],[129.42989,37.05611],[129.42987,37.05601],[129.42986,37.05601]]],[[[129.42365,36.86075],[129.42358,36.86081],[129.42368,36.86078],[129.42365,36.86075]]],[[[129.42982,37.05601],[129.42984,37.05602],[129.42984,37.05601],[129.42982,37.05601]]],[[[129.42987,37.05874],[129.4299,37.05879],[129.42991,37.05874],[129.42987,37.05874]]],[[[129.42979,37.05598],[129.42982,37.05602],[129.42981,37.05598],[129.42979,37.05598]]],[[[129.42982,37.05887],[129.42981,37.05892],[129.42984,37.05892],[129.42982,37.05887]]],[[[129.4297,37.05592],[129.42973,37.05598],[129.42974,37.05592],[129.4297,37.05592]]],[[[129.42965,37.05621],[129.42974,37.05627],[129.42973,37.05621],[129.42965,37.05621]]],[[[129.42954,37.05598],[129.42957,37.05607],[129.42955,37.05597],[129.42954,37.05598]]],[[[129.42945,37.05607],[129.4295,37.05609],[129.42945,37.05606],[129.42945,37.05607]]],[[[129.42957,37.05923],[129.42957,37.05913],[129.42942,37.05919],[129.42957,37.05923]]],[[[129.42934,37.05616],[129.42931,37.0562],[129.42935,37.0562],[129.42934,37.05616]]],[[[129.42922,37.0596],[129.42924,37.05956],[129.42915,37.05956],[129.42922,37.0596]]],[[[129.42905,37.056],[129.42903,37.05607],[129.42909,37.05605],[129.42905,37.056]]],[[[129.42907,37.05957],[129.42908,37.0594],[129.42893,37.05953],[129.42873,37.05952],[129.42907,37.05957]]],[[[129.42869,37.06213],[129.42861,37.06217],[129.42867,37.06219],[129.42869,37.06213]]],[[[129.42853,37.05995],[129.42838,37.05973],[129.42819,37.05975],[129.42853,37.05995]]],[[[129.42802,37.05558],[129.42818,37.0554],[129.42786,37.05532],[129.42802,37.05558]]],[[[129.42838,37.06037],[129.42833,37.06045],[129.42842,37.06041],[129.42838,37.06037]]],[[[129.4283,37.06198],[129.4282,37.06202],[129.42828,37.06205],[129.4283,37.06198]]],[[[129.42818,37.06047],[129.42814,37.06055],[129.4282,37.0605],[129.42818,37.06047]]],[[[129.42204,36.86692],[129.42196,36.86685],[129.42195,36.86691],[129.42204,36.86692]]],[[[129.42819,37.06238],[129.42807,37.06237],[129.42807,37.06261],[129.42819,37.06238]]],[[[129.42771,37.06055],[129.42803,37.06036],[129.42765,37.06038],[129.42771,37.06055]]],[[[129.42776,37.06163],[129.42791,37.06192],[129.42807,37.06191],[129.42802,37.06167],[129.42776,37.06163]]],[[[129.42176,36.86589],[129.42176,36.86596],[129.42179,36.86595],[129.42176,36.86589]]],[[[129.42798,37.06143],[129.42791,37.06136],[129.42791,37.06142],[129.42798,37.06143]]],[[[129.42787,37.06218],[129.42786,37.06211],[129.42776,37.06216],[129.42787,37.06218]]],[[[129.42149,36.8661],[129.42152,36.86604],[129.42147,36.86606],[129.42149,36.8661]]],[[[129.42154,36.87196],[129.42155,36.87216],[129.42166,36.87223],[129.42154,36.87196]]],[[[129.42767,37.06299],[129.42761,37.06308],[129.42766,37.06313],[129.42767,37.06299]]],[[[129.42133,36.86611],[129.42134,36.86617],[129.42139,36.86617],[129.42133,36.86611]]],[[[129.42764,37.06421],[129.42755,37.06441],[129.42765,37.06443],[129.42764,37.06421]]],[[[129.42126,36.86526],[129.42129,36.86528],[129.42127,36.86526],[129.42126,36.86526]]],[[[129.42752,37.06264],[129.42745,37.06271],[129.42754,37.06267],[129.42752,37.06264]]],[[[129.42122,36.86546],[129.42119,36.8655],[129.42124,36.86547],[129.42122,36.86546]]],[[[129.42147,36.87663],[129.4214,36.8768],[129.42159,36.87671],[129.42147,36.87663]]],[[[129.42119,36.86555],[129.42115,36.86561],[129.4212,36.86562],[129.42119,36.86555]]],[[[129.42116,36.86542],[129.42113,36.86545],[129.42117,36.86542],[129.42116,36.86542]]],[[[129.42119,36.86598],[129.421,36.86595],[129.42112,36.86609],[129.42119,36.86598]]],[[[129.42105,36.86618],[129.42099,36.86625],[129.42109,36.86627],[129.42105,36.86618]]],[[[129.42103,36.8663],[129.421,36.86634],[129.42107,36.86635],[129.42103,36.8663]]],[[[129.42721,37.06427],[129.427,37.06437],[129.42705,37.0644],[129.42721,37.06427]]],[[[129.42667,37.06508],[129.42655,37.06505],[129.42667,37.06512],[129.42667,37.06508]]],[[[129.42636,37.06499],[129.42636,37.06507],[129.4264,37.06503],[129.42636,37.06499]]],[[[129.42634,37.06497],[129.42624,37.065],[129.42626,37.06504],[129.42634,37.06497]]],[[[129.42087,36.89728],[129.42093,36.89744],[129.42094,36.89726],[129.42087,36.89728]]],[[[129.42565,37.0658],[129.42564,37.06586],[129.42565,37.06586],[129.42565,37.0658]]],[[[129.42535,37.06579],[129.42543,37.06585],[129.42539,37.06577],[129.42535,37.06579]]],[[[129.4213,36.93855],[129.42112,36.9382],[129.42136,36.93836],[129.42138,36.93831],[129.42106,36.938],[129.42107,36.93834],[129.4213,36.93855]]],[[[129.42114,36.93803],[129.42129,36.9379],[129.42111,36.93797],[129.42114,36.93803]]],[[[129.42526,37.06575],[129.42524,37.06583],[129.42528,37.06579],[129.42526,37.06575]]],[[[129.42109,36.93845],[129.4211,36.93852],[129.42112,36.93852],[129.42109,36.93845]]],[[[129.42102,36.93753],[129.42094,36.93748],[129.42097,36.93757],[129.42102,36.93753]]],[[[129.4208,36.94185],[129.42086,36.94177],[129.42075,36.94178],[129.4208,36.94185]]],[[[129.42071,36.94383],[129.42077,36.94361],[129.42065,36.94384],[129.42071,36.94383]]],[[[129.42067,36.94328],[129.42079,36.94322],[129.42077,36.94313],[129.42067,36.94328]]],[[[129.42067,36.9433],[129.4207,36.94337],[129.42072,36.94335],[129.42067,36.9433]]],[[[129.42064,36.94254],[129.42057,36.94254],[129.42067,36.94262],[129.42064,36.94254]]],[[[129.41856,36.88137],[129.41847,36.88209],[129.41869,36.88137],[129.41856,36.88137]]],[[[129.42062,36.94279],[129.42058,36.94288],[129.42059,36.9429],[129.42062,36.94279]]],[[[129.42056,36.94259],[129.42056,36.94264],[129.42059,36.94261],[129.42056,36.94259]]],[[[129.42049,36.94377],[129.42051,36.94382],[129.42053,36.94378],[129.42049,36.94377]]],[[[129.4242,37.06616],[129.42413,37.06626],[129.42417,37.06631],[129.4242,37.06616]]],[[[129.41816,36.8823],[129.41795,36.88317],[129.41827,36.88226],[129.41816,36.8823]]],[[[129.41968,36.93452],[129.41964,36.93456],[129.4197,36.93456],[129.41968,36.93452]]],[[[129.41953,36.93275],[129.4195,36.9328],[129.41956,36.93276],[129.41953,36.93275]]],[[[129.41786,36.88332],[129.41756,36.88378],[129.41751,36.88431],[129.41786,36.88332]]],[[[129.42361,37.0663],[129.42353,37.06637],[129.42358,37.0664],[129.42361,37.0663]]],[[[129.41921,36.93381],[129.41926,36.93388],[129.41934,36.93382],[129.41921,36.93381]]],[[[129.41921,36.93269],[129.41925,36.93277],[129.41928,36.93273],[129.41921,36.93269]]],[[[129.4192,36.93276],[129.41906,36.93267],[129.41919,36.93276],[129.4192,36.93276]]],[[[129.41901,36.9327],[129.41901,36.93277],[129.41906,36.93278],[129.41901,36.9327]]],[[[129.41742,36.88448],[129.41728,36.88538],[129.4175,36.88447],[129.41742,36.88448]]],[[[129.41893,36.9327],[129.41887,36.93273],[129.41894,36.93277],[129.41893,36.9327]]],[[[129.41881,36.93245],[129.4187,36.93235],[129.4187,36.93242],[129.41881,36.93245]]],[[[129.41878,36.93262],[129.41878,36.93256],[129.41873,36.93257],[129.41878,36.93262]]],[[[129.42296,37.06678],[129.4231,37.0667],[129.42293,37.06665],[129.42296,37.06678]]],[[[129.41876,36.93249],[129.41858,36.93235],[129.41851,36.93238],[129.41876,36.93249]]],[[[129.42297,37.06647],[129.42293,37.06625],[129.42288,37.06646],[129.42297,37.06647]]],[[[129.4171,36.88561],[129.41702,36.88644],[129.41718,36.88557],[129.4171,36.88561]]],[[[129.41868,36.93258],[129.41863,36.93263],[129.41872,36.93266],[129.41868,36.93258]]],[[[129.41855,36.93224],[129.41858,36.93219],[129.41854,36.93221],[129.41855,36.93224]]],[[[129.4186,36.93216],[129.41852,36.93216],[129.4186,36.93218],[129.4186,36.93216]]],[[[129.42226,37.06678],[129.42225,37.06673],[129.4222,37.06673],[129.42226,37.06678]]],[[[129.4179,36.93173],[129.41776,36.93174],[129.41787,36.93179],[129.4179,36.93173]]],[[[129.42205,37.06779],[129.42215,37.06786],[129.42212,37.06775],[129.42205,37.06779]]],[[[129.41967,36.99306],[129.41956,36.99298],[129.41954,36.99326],[129.41967,36.99306]]],[[[129.41763,36.93161],[129.4177,36.93162],[129.41763,36.9316],[129.41763,36.93161]]],[[[129.4218,37.0673],[129.42178,37.06734],[129.42181,37.06734],[129.4218,37.0673]]],[[[129.42169,37.06762],[129.42172,37.06767],[129.42173,37.06763],[129.42169,37.06762]]],[[[129.42168,37.06746],[129.42165,37.06755],[129.42168,37.06757],[129.42168,37.06746]]],[[[129.41907,36.993],[129.41903,36.99321],[129.41912,36.99337],[129.41907,36.993]]],[[[129.42143,37.0683],[129.42136,37.06836],[129.42144,37.06833],[129.42143,37.0683]]],[[[129.41867,36.99404],[129.41875,36.99416],[129.4187,36.99403],[129.41867,36.99404]]],[[[129.42093,37.06916],[129.42093,37.06923],[129.42097,37.06922],[129.42093,37.06916]]],[[[129.41854,36.99387],[129.41849,36.99403],[129.41854,36.99406],[129.41854,36.99387]]],[[[129.4208,37.06882],[129.42084,37.06889],[129.42084,37.06882],[129.4208,37.06882]]],[[[129.41835,36.99401],[129.41841,36.9941],[129.41841,36.99401],[129.41835,36.99401]]],[[[129.42067,37.06875],[129.42053,37.06868],[129.42045,37.06875],[129.42067,37.06875]]],[[[129.4205,37.06899],[129.42067,37.0691],[129.42061,37.06899],[129.4205,37.06899]]],[[[129.41812,36.99171],[129.41814,36.99178],[129.41815,36.9917],[129.41812,36.99171]]],[[[129.41797,36.99177],[129.418,36.99183],[129.41802,36.99175],[129.41797,36.99177]]],[[[129.4204,37.06896],[129.42047,37.06906],[129.42046,37.06897],[129.4204,37.06896]]],[[[129.41822,36.99941],[129.41818,36.99953],[129.41822,36.99953],[129.41822,36.99941]]],[[[129.42041,37.06891],[129.42034,37.06896],[129.42042,37.06893],[129.42041,37.06891]]],[[[129.41807,36.99968],[129.41807,36.99945],[129.41799,36.9995],[129.41807,36.99968]]],[[[129.41781,36.9917],[129.41786,36.99179],[129.41789,36.99169],[129.41781,36.9917]]],[[[129.42029,37.06906],[129.42033,37.06914],[129.42035,37.06905],[129.42029,37.06906]]],[[[129.41789,36.99958],[129.41793,36.99972],[129.41798,36.99973],[129.41789,36.99958]]],[[[129.42009,37.0692],[129.42015,37.06926],[129.42016,37.0692],[129.42009,37.0692]]],[[[129.41763,36.99795],[129.41759,36.9981],[129.41771,36.9981],[129.41763,36.99795]]],[[[129.41759,36.99822],[129.4177,36.9983],[129.4176,36.9982],[129.41759,36.99822]]],[[[129.41983,37.06932],[129.41971,37.06936],[129.41982,37.06937],[129.41983,37.06932]]],[[[129.41736,37.00629],[129.41742,37.00629],[129.41737,37.00625],[129.41736,37.00629]]],[[[129.41719,37.00664],[129.41703,37.00673],[129.41719,37.00679],[129.41719,37.00664]]],[[[129.41841,37.06978],[129.41856,37.06994],[129.41859,37.0698],[129.41841,37.06978]]],[[[129.41798,37.06989],[129.41805,37.06993],[129.41799,37.06987],[129.41798,37.06989]]],[[[129.41758,37.07029],[129.41754,37.07036],[129.41762,37.07033],[129.41758,37.07029]]],[[[129.41713,37.07199],[129.4173,37.07192],[129.41713,37.07192],[129.41713,37.07199]]],[[[129.41419,37.04093],[129.41427,37.04098],[129.41427,37.04094],[129.41419,37.04093]]],[[[129.40999,36.98216],[129.4098,36.98229],[129.40988,36.98246],[129.40999,36.98216]]],[[[129.40992,36.98265],[129.40987,36.98277],[129.40991,36.9828],[129.40992,36.98265]]],[[[129.37843,37.10603],[129.37842,37.10612],[129.37849,37.10608],[129.37843,37.10603]]],[[[129.37787,37.10573],[129.37807,37.10598],[129.37824,37.10597],[129.37826,37.10581],[129.37787,37.10573]]],[[[129.37821,37.1194],[129.37823,37.11945],[129.37826,37.1194],[129.37821,37.1194]]],[[[129.37809,37.11541],[129.37738,37.11496],[129.3772,37.11521],[129.37809,37.11541]]],[[[129.37789,37.11561],[129.37792,37.11567],[129.37794,37.11562],[129.37789,37.11561]]],[[[129.3777,37.11561],[129.37766,37.11565],[129.37771,37.11565],[129.3777,37.11561]]],[[[129.37762,37.11549],[129.37764,37.11554],[129.37764,37.1155],[129.37762,37.11549]]],[[[129.37679,37.10609],[129.37684,37.10622],[129.37688,37.10612],[129.37679,37.10609]]],[[[129.3763,37.11222],[129.37683,37.11258],[129.37696,37.11255],[129.3763,37.11222]]],[[[129.37681,37.11284],[129.37672,37.1128],[129.3767,37.11282],[129.37681,37.11284]]],[[[129.37626,37.1198],[129.37637,37.11982],[129.37638,37.1198],[129.37626,37.1198]]],[[[129.3758,37.10831],[129.37575,37.10832],[129.37578,37.10833],[129.3758,37.10831]]],[[[129.37491,37.13427],[129.37473,37.13454],[129.37499,37.13425],[129.37491,37.13427]]],[[[129.37359,37.12398],[129.37364,37.12402],[129.37366,37.12399],[129.37359,37.12398]]],[[[129.37351,37.12403],[129.37355,37.12406],[129.37354,37.12403],[129.37351,37.12403]]],[[[129.37334,37.12439],[129.37345,37.12441],[129.37336,37.12437],[129.37334,37.12439]]],[[[129.37336,37.12434],[129.37331,37.12429],[129.37328,37.12431],[129.37336,37.12434]]],[[[129.3731,37.12522],[129.37315,37.12525],[129.37316,37.1252],[129.3731,37.12522]]],[[[129.37305,37.12469],[129.37307,37.12474],[129.37312,37.12472],[129.37305,37.12469]]],[[[129.3729,37.12469],[129.37293,37.12471],[129.37294,37.12469],[129.3729,37.12469]]],[[[129.37308,37.13081],[129.37305,37.13085],[129.37311,37.13084],[129.37308,37.13081]]],[[[129.37306,37.13088],[129.37302,37.13095],[129.3731,37.13092],[129.37306,37.13088]]],[[[129.37285,37.1252],[129.37284,37.12524],[129.3729,37.12524],[129.37285,37.1252]]],[[[129.37301,37.13076],[129.37293,37.13081],[129.37302,37.13079],[129.37301,37.13076]]],[[[129.37277,37.12596],[129.37279,37.126],[129.37281,37.12596],[129.37277,37.12596]]],[[[129.3727,37.12595],[129.3727,37.12599],[129.37273,37.12596],[129.3727,37.12595]]],[[[129.37197,37.12821],[129.37199,37.12823],[129.372,37.12822],[129.37197,37.12821]]],[[[129.37189,37.13596],[129.37202,37.13589],[129.37179,37.13593],[129.37189,37.13596]]],[[[129.37167,37.12996],[129.37165,37.13008],[129.37178,37.12996],[129.37167,37.12996]]],[[[129.37148,37.1291],[129.37149,37.12913],[129.37152,37.12911],[129.37148,37.1291]]],[[[129.37128,37.13008],[129.37122,37.12998],[129.37113,37.13004],[129.37128,37.13008]]],[[[129.36658,37.14197],[129.36663,37.14205],[129.36668,37.14199],[129.36658,37.14197]]],[[[129.36601,37.14501],[129.366,37.14486],[129.36587,37.14495],[129.36601,37.14501]]],[[[129.36506,37.14546],[129.36502,37.14542],[129.36499,37.14545],[129.36506,37.14546]]],[[[129.36492,37.14536],[129.36502,37.14539],[129.36501,37.14536],[129.36492,37.14536]]]]},"properties":{"id":"SGG:47930","layer":"L3","admin_code":"47930","name":"경상북도 울진군","sido":"경상북도","sgg":"울진군","provisional":false,"source":"통계청 행정동 경계(BND_ADM_DONG_PG, 2025-06-30) 를 시군구로 합침","source_kind":"derived","derived_from":"행정동 경계 union · 20 m 단순화"}}]}