{"type":"FeatureCollection","features":[{"type":"Feature","id":"SGG:47820","geometry":{"type":"MultiPolygon","coordinates":[[[[128.74475,35.70486],[128.75008,35.70296],[128.75374,35.70107],[128.7563,35.70111],[128.75844,35.7005],[128.76076,35.70097],[128.76486,35.70116],[128.76587,35.70153],[128.7666,35.70628],[128.76345,35.70861],[128.76401,35.71034],[128.76329,35.71159],[128.76426,35.71316],[128.76454,35.71567],[128.76427,35.71701],[128.76461,35.71783],[128.76613,35.71881],[128.76755,35.71917],[128.76923,35.72066],[128.7703,35.72078],[128.77112,35.72159],[128.77371,35.72282],[128.77372,35.72507],[128.77329,35.727],[128.77444,35.72894],[128.77533,35.72982],[128.77817,35.73118],[128.78379,35.73184],[128.78555,35.73259],[128.78664,35.73383],[128.78487,35.73578],[128.7867,35.73844],[128.78596,35.73934],[128.78692,35.73937],[128.78725,35.74064],[128.78938,35.74374],[128.79294,35.74419],[128.79474,35.74386],[128.79539,35.74409],[128.79737,35.74384],[128.79873,35.74417],[128.79924,35.74495],[128.80086,35.74582],[128.80161,35.74517],[128.80575,35.74462],[128.80997,35.74031],[128.81163,35.74067],[128.8156,35.74307],[128.81834,35.74235],[128.82172,35.74057],[128.82476,35.74009],[128.82584,35.739],[128.8271,35.73875],[128.83166,35.7406],[128.83167,35.74201],[128.83377,35.74378],[128.83395,35.74532],[128.8343,35.74556],[128.83696,35.74511],[128.83891,35.74386],[128.84337,35.74252],[128.84497,35.74143],[128.84615,35.74141],[128.8477,35.742],[128.84841,35.74144],[128.85004,35.74129],[128.85538,35.74392],[128.85812,35.74642],[128.85792,35.74682],[128.85847,35.74749],[128.85853,35.74863],[128.857,35.75064],[128.85669,35.75294],[128.85478,35.75406],[128.85451,35.75526],[128.85486,35.75683],[128.85689,35.75749],[128.85764,35.75713],[128.85839,35.75723],[128.85914,35.75673],[128.8593,35.75612],[128.86051,35.75543],[128.86094,35.75618],[128.86274,35.75652],[128.86449,35.7573],[128.86447,35.7579],[128.8651,35.75848],[128.86623,35.7582],[128.86724,35.75749],[128.86823,35.75584],[128.86945,35.75518],[128.87043,35.75218],[128.87268,35.75127],[128.87472,35.749],[128.87614,35.74799],[128.87697,35.74864],[128.8792,35.74875],[128.8806,35.74954],[128.88117,35.75039],[128.88228,35.75087],[128.88343,35.75114],[128.88611,35.75101],[128.8873,35.7519],[128.8892,35.75269],[128.88975,35.75446],[128.89085,35.75488],[128.89188,35.75488],[128.89254,35.75543],[128.89226,35.75876],[128.89456,35.76403],[128.89579,35.76393],[128.89646,35.76283],[128.89747,35.76271],[128.898,35.76221],[128.8976,35.76023],[128.89937,35.75872],[128.90057,35.75477],[128.90151,35.75365],[128.90081,35.75235],[128.90102,35.75102],[128.90329,35.74701],[128.90428,35.74623],[128.9071,35.74733],[128.90716,35.74785],[128.90533,35.74775],[128.90423,35.7486],[128.90417,35.74935],[128.90484,35.75064],[128.9064,35.75197],[128.90687,35.75186],[128.90703,35.75105],[128.90812,35.75155],[128.91097,35.75384],[128.91234,35.75501],[128.91296,35.75729],[128.91394,35.7583],[128.91627,35.75756],[128.917,35.75804],[128.92285,35.75941],[128.92501,35.7608],[128.92707,35.76079],[128.92868,35.75986],[128.9314,35.75958],[128.9313,35.76048],[128.93442,35.76218],[128.93561,35.76504],[128.93537,35.76596],[128.94,35.77174],[128.94029,35.77266],[128.93966,35.77463],[128.94139,35.77584],[128.94138,35.77724],[128.94181,35.77793],[128.94415,35.78109],[128.94587,35.7824],[128.94494,35.78453],[128.94394,35.78544],[128.94382,35.78629],[128.94492,35.78889],[128.94612,35.78905],[128.94849,35.79099],[128.94988,35.79336],[128.95065,35.79874],[128.95152,35.80082],[128.95319,35.80186],[128.95399,35.80152],[128.95562,35.8014],[128.9563,35.80453],[128.95687,35.80533],[128.95595,35.80637],[128.95399,35.81195],[128.95452,35.81375],[128.95732,35.81744],[128.9581,35.81943],[128.95796,35.82177],[128.95949,35.82571],[128.96227,35.82814],[128.96178,35.83019],[128.96337,35.83178],[128.96493,35.83268],[128.96537,35.83467],[128.96795,35.83484],[128.97055,35.83554],[128.97358,35.83453],[128.97496,35.83465],[128.9754,35.83401],[128.9764,35.83363],[128.97693,35.83288],[128.97751,35.83265],[128.97904,35.83317],[128.98155,35.83307],[128.98284,35.83351],[128.98451,35.83356],[128.9852,35.83408],[128.9874,35.83468],[128.9878,35.83522],[128.98752,35.83721],[128.98822,35.83789],[128.98997,35.83774],[128.99111,35.83807],[128.99294,35.83934],[128.99372,35.84035],[128.99481,35.84038],[128.99672,35.84123],[128.99991,35.8421],[129.00432,35.84232],[129.00989,35.84495],[129.01119,35.8449],[129.01226,35.84432],[129.0135,35.84483],[129.01343,35.84558],[129.01523,35.8462],[129.01655,35.8458],[129.01696,35.84525],[129.0169,35.84473],[129.01617,35.84373],[129.01595,35.84169],[129.01648,35.83962],[129.01432,35.83831],[129.01352,35.83623],[129.01429,35.83497],[129.01251,35.83393],[129.01027,35.83358],[129.00886,35.83252],[129.00886,35.83136],[129.00817,35.82935],[129.00813,35.82615],[129.00671,35.82502],[129.00545,35.82478],[129.00418,35.82292],[129.00435,35.82216],[129.00306,35.81787],[129.00326,35.81675],[129.00166,35.81473],[129.00131,35.81321],[129.00056,35.81274],[129.00052,35.81201],[128.99734,35.80761],[128.99714,35.80639],[128.99484,35.80493],[128.9935,35.80252],[128.99087,35.8008],[128.9903,35.79985],[128.99146,35.79897],[128.99216,35.79658],[128.99337,35.79611],[128.99479,35.7937],[128.99365,35.78983],[128.99405,35.78868],[128.99371,35.78758],[128.99455,35.78631],[128.99419,35.78429],[128.99796,35.78081],[128.9974,35.77955],[128.9961,35.77879],[128.99707,35.77812],[128.99494,35.77569],[128.99274,35.77542],[128.99018,35.77268],[128.9872,35.77326],[128.98492,35.77303],[128.98172,35.77359],[128.97975,35.77236],[128.97466,35.7717],[128.97559,35.77084],[128.9753,35.77032],[128.97674,35.76805],[128.97735,35.76759],[128.97764,35.7653],[128.97705,35.76518],[128.97556,35.76563],[128.97411,35.76544],[128.97369,35.76481],[128.97363,35.76217],[128.97207,35.75976],[128.97274,35.75892],[128.97158,35.75722],[128.97142,35.75601],[128.97073,35.75467],[128.97169,35.75355],[128.9717,35.75298],[128.97341,35.75163],[128.97338,35.75102],[128.97455,35.75067],[128.9756,35.74974],[128.97571,35.74839],[128.97443,35.74679],[128.97487,35.7462],[128.97476,35.74461],[128.97291,35.73872],[128.97288,35.73742],[128.97542,35.73688],[128.97809,35.73585],[128.97991,35.73309],[128.97976,35.73108],[128.98458,35.72759],[128.98561,35.72697],[128.98656,35.72697],[128.98719,35.72491],[128.98848,35.72396],[128.98869,35.72346],[128.98913,35.7234],[128.99155,35.7192],[128.99756,35.71725],[128.99757,35.71516],[128.99688,35.71346],[128.99733,35.71106],[129.0022,35.70748],[129.00305,35.70489],[129.00304,35.70338],[129.00402,35.69928],[129.00356,35.69457],[129.00308,35.69393],[129.00423,35.69338],[129.00708,35.69456],[129.00803,35.69401],[129.0093,35.69389],[129.01514,35.69105],[129.01697,35.69068],[129.01826,35.68967],[129.02183,35.68893],[129.02367,35.68964],[129.02488,35.69115],[129.02675,35.69121],[129.02937,35.69255],[129.03141,35.69256],[129.03302,35.69343],[129.03443,35.69479],[129.03736,35.695],[129.03758,35.69402],[129.03731,35.69312],[129.03872,35.68992],[129.03782,35.68862],[129.0378,35.68685],[129.03689,35.68288],[129.03573,35.6808],[129.03612,35.67886],[129.03525,35.6768],[129.03521,35.67529],[129.03725,35.66925],[129.03883,35.66647],[129.04198,35.66262],[129.04261,35.65904],[129.04264,35.65673],[129.04315,35.65568],[129.04495,35.65383],[129.0469,35.65052],[129.04608,35.64913],[129.04449,35.64349],[129.04334,35.64097],[129.04226,35.63944],[129.04153,35.63899],[129.04042,35.63636],[129.03797,35.63487],[129.03697,35.63246],[129.03549,35.63202],[129.03262,35.6336],[129.03043,35.63401],[129.02897,35.63464],[129.02661,35.6364],[129.02477,35.6361],[129.02344,35.63528],[129.02091,35.63508],[129.02008,35.63403],[129.01802,35.62965],[129.01473,35.62778],[129.00967,35.62589],[129.00606,35.62346],[129.00387,35.62171],[129.00248,35.61945],[129.00014,35.61722],[128.99806,35.61623],[128.9971,35.615],[128.99413,35.61368],[128.99356,35.61313],[128.99138,35.61257],[128.99057,35.6121],[128.99021,35.61134],[128.98863,35.61088],[128.98675,35.60912],[128.98417,35.60911],[128.98264,35.60871],[128.97968,35.60956],[128.978,35.61146],[128.97568,35.61187],[128.97377,35.61267],[128.97281,35.61345],[128.96999,35.61383],[128.96928,35.61428],[128.96727,35.61447],[128.96537,35.61507],[128.96088,35.61558],[128.96066,35.61671],[128.96141,35.61735],[128.96126,35.62056],[128.95757,35.6232],[128.95613,35.62347],[128.95415,35.6251],[128.95359,35.62524],[128.95379,35.62698],[128.9523,35.62799],[128.9512,35.63015],[128.94671,35.63182],[128.94115,35.63507],[128.92924,35.6368],[128.92662,35.6383],[128.91984,35.63965],[128.91732,35.63988],[128.91505,35.64062],[128.91285,35.64],[128.90914,35.63778],[128.90714,35.63714],[128.90167,35.63321],[128.89192,35.62931],[128.88877,35.62886],[128.88724,35.62911],[128.88553,35.63137],[128.88471,35.63199],[128.8851,35.63336],[128.88479,35.63398],[128.88304,35.6344],[128.88146,35.63548],[128.87708,35.6337],[128.87538,35.63233],[128.87543,35.63132],[128.87595,35.6305],[128.87488,35.62847],[128.87512,35.62727],[128.87455,35.62602],[128.87388,35.62164],[128.87197,35.61825],[128.87013,35.61793],[128.86815,35.61612],[128.86788,35.6147],[128.86711,35.61388],[128.86624,35.61156],[128.86479,35.60905],[128.86392,35.60829],[128.86189,35.60773],[128.86121,35.60675],[128.85936,35.60622],[128.85843,35.60426],[128.85733,35.60328],[128.85642,35.60164],[128.85426,35.60014],[128.85408,35.59718],[128.85168,35.59463],[128.84834,35.59238],[128.84773,35.59231],[128.84786,35.59142],[128.84633,35.59102],[128.8457,35.58962],[128.84473,35.58962],[128.84404,35.58919],[128.84317,35.58925],[128.84264,35.58899],[128.84004,35.59158],[128.83904,35.59314],[128.8359,35.59535],[128.8349,35.59673],[128.83365,35.59735],[128.82903,35.59665],[128.82629,35.59678],[128.82508,35.59609],[128.82376,35.59612],[128.82291,35.59577],[128.82139,35.59356],[128.81845,35.59298],[128.80956,35.58898],[128.80755,35.58925],[128.80544,35.58905],[128.80428,35.5894],[128.80265,35.58915],[128.80072,35.58763],[128.80056,35.58552],[128.80013,35.58576],[128.80035,35.58462],[128.79988,35.58131],[128.79878,35.57831],[128.79501,35.57334],[128.79235,35.57047],[128.78773,35.5675],[128.78553,35.56689],[128.7827,35.56705],[128.77874,35.56784],[128.77104,35.56863],[128.76847,35.57084],[128.76635,35.56824],[128.76556,35.56824],[128.76383,35.56901],[128.76187,35.56872],[128.76012,35.56779],[128.75861,35.5678],[128.75814,35.56749],[128.75718,35.56771],[128.75561,35.56838],[128.75385,35.57034],[128.75092,35.57058],[128.75039,35.57031],[128.74876,35.57073],[128.74724,35.57156],[128.74611,35.57269],[128.74337,35.57395],[128.74129,35.57413],[128.74022,35.57567],[128.74038,35.57601],[128.73812,35.57642],[128.73742,35.57715],[128.73508,35.57638],[128.73197,35.57595],[128.73166,35.57661],[128.73095,35.5769],[128.72768,35.57751],[128.7268,35.57885],[128.72583,35.57948],[128.72532,35.58072],[128.72462,35.58148],[128.72401,35.58156],[128.72056,35.58073],[128.71956,35.57985],[128.71496,35.5776],[128.71401,35.57858],[128.71241,35.57911],[128.70932,35.57861],[128.70739,35.57798],[128.70545,35.57793],[128.70444,35.57821],[128.70331,35.57801],[128.69912,35.58111],[128.69572,35.58269],[128.69494,35.58342],[128.69404,35.58696],[128.69404,35.58824],[128.69319,35.59088],[128.69163,35.59271],[128.69161,35.59332],[128.68924,35.59446],[128.6876,35.59503],[128.68595,35.5948],[128.6807,35.59514],[128.67828,35.59475],[128.67424,35.5961],[128.67255,35.59587],[128.67005,35.59428],[128.66779,35.59433],[128.66442,35.59375],[128.66203,35.59585],[128.65912,35.59743],[128.65829,35.59769],[128.65669,35.59746],[128.65632,35.59788],[128.65529,35.59789],[128.65541,35.59704],[128.65378,35.59612],[128.65222,35.59577],[128.65061,35.59461],[128.64724,35.59365],[128.64523,35.59367],[128.64409,35.59305],[128.64313,35.59127],[128.6409,35.58882],[128.63807,35.5886],[128.63704,35.58722],[128.63732,35.58638],[128.63653,35.5847],[128.63194,35.58619],[128.63075,35.58742],[128.6278,35.58653],[128.62689,35.58587],[128.62681,35.58544],[128.62286,35.58473],[128.62135,35.58499],[128.61848,35.58382],[128.61684,35.58392],[128.6147,35.58166],[128.61107,35.5817],[128.60816,35.58068],[128.6058,35.58024],[128.60286,35.58007],[128.60094,35.58071],[128.59997,35.58042],[128.59974,35.58122],[128.59847,35.58207],[128.59737,35.58188],[128.59626,35.58227],[128.59599,35.58281],[128.59269,35.58487],[128.59028,35.5852],[128.58815,35.58515],[128.58478,35.58644],[128.57929,35.58952],[128.57581,35.59257],[128.57389,35.59268],[128.57296,35.59322],[128.5724,35.59574],[128.57285,35.59657],[128.57281,35.59749],[128.56977,35.5994],[128.56903,35.60245],[128.56941,35.60396],[128.56626,35.60207],[128.56509,35.60218],[128.56422,35.60268],[128.56198,35.60268],[128.56081,35.60324],[128.56009,35.6042],[128.55972,35.60599],[128.55873,35.60737],[128.55897,35.60822],[128.55955,35.60877],[128.55926,35.6101],[128.55953,35.61106],[128.55861,35.61187],[128.55809,35.61288],[128.55873,35.6148],[128.5568,35.61599],[128.5561,35.61685],[128.55497,35.61627],[128.55304,35.61716],[128.55125,35.61655],[128.55057,35.61691],[128.55031,35.61795],[128.54912,35.6182],[128.54634,35.62006],[128.54458,35.62081],[128.54121,35.62157],[128.54016,35.62266],[128.53903,35.62331],[128.5379,35.62327],[128.53663,35.62426],[128.5362,35.62759],[128.53688,35.62878],[128.53697,35.63012],[128.53787,35.63113],[128.53816,35.63259],[128.53734,35.63344],[128.53734,35.63678],[128.53685,35.6374],[128.53664,35.6394],[128.53477,35.6437],[128.53614,35.64613],[128.53627,35.64819],[128.53784,35.65079],[128.53767,35.65257],[128.53803,35.65431],[128.53734,35.65731],[128.53743,35.65976],[128.53671,35.66124],[128.53587,35.6616],[128.53568,35.66203],[128.53176,35.66208],[128.53078,35.66274],[128.53046,35.66425],[128.53079,35.66544],[128.52873,35.66903],[128.52782,35.67183],[128.52681,35.6735],[128.52681,35.67557],[128.52892,35.67773],[128.52974,35.68104],[128.52991,35.6835],[128.5318,35.68333],[128.53132,35.68786],[128.5338,35.6915],[128.53469,35.69373],[128.53526,35.69405],[128.53186,35.69662],[128.53275,35.69829],[128.53262,35.70071],[128.53389,35.70326],[128.53132,35.70699],[128.53056,35.7094],[128.5279,35.71274],[128.5307,35.71376],[128.53331,35.71647],[128.53682,35.71684],[128.53789,35.71729],[128.53833,35.718],[128.54101,35.71912],[128.54194,35.71896],[128.54409,35.71943],[128.54547,35.7211],[128.54609,35.72265],[128.54661,35.72272],[128.54941,35.72455],[128.55043,35.72486],[128.5525,35.7266],[128.55551,35.72784],[128.55637,35.72752],[128.55697,35.7277],[128.55805,35.72865],[128.55969,35.7289],[128.56099,35.72971],[128.56165,35.7316],[128.56266,35.73224],[128.56355,35.73588],[128.56477,35.73676],[128.56665,35.73695],[128.56801,35.73558],[128.57084,35.73453],[128.57173,35.73457],[128.57381,35.73555],[128.57464,35.73649],[128.57646,35.73681],[128.57762,35.73757],[128.57919,35.73759],[128.58052,35.73867],[128.58242,35.73833],[128.58515,35.73454],[128.58791,35.73305],[128.5896,35.7315],[128.59216,35.73266],[128.59411,35.73555],[128.59383,35.73639],[128.59424,35.73708],[128.59562,35.73721],[128.59677,35.73668],[128.59783,35.7368],[128.6,35.73634],[128.60269,35.73673],[128.60349,35.73731],[128.60512,35.73755],[128.6075,35.739],[128.61243,35.73852],[128.61389,35.73689],[128.61412,35.73394],[128.61444,35.73368],[128.61374,35.73243],[128.61493,35.73032],[128.61455,35.72962],[128.61302,35.72894],[128.6101,35.72621],[128.60993,35.72488],[128.61266,35.7225],[128.61406,35.72211],[128.61582,35.72017],[128.61693,35.71764],[128.61667,35.71638],[128.61395,35.71417],[128.61392,35.70984],[128.61538,35.70879],[128.61612,35.70779],[128.6171,35.70739],[128.61745,35.70602],[128.61979,35.70451],[128.61978,35.70285],[128.624,35.7023],[128.6245,35.70335],[128.6274,35.70507],[128.6298,35.70592],[128.63093,35.70679],[128.63825,35.70579],[128.64027,35.7062],[128.64142,35.70692],[128.64349,35.707],[128.64621,35.70817],[128.64619,35.70892],[128.64673,35.7094],[128.64727,35.71149],[128.64906,35.71165],[128.65286,35.71401],[128.65345,35.71388],[128.6551,35.71527],[128.65661,35.71786],[128.6575,35.71806],[128.66103,35.72005],[128.66228,35.71944],[128.66352,35.7205],[128.66556,35.71895],[128.6663,35.71927],[128.66782,35.71935],[128.67067,35.71886],[128.67177,35.72053],[128.67335,35.721],[128.67509,35.72121],[128.67959,35.72093],[128.68022,35.72135],[128.68324,35.72145],[128.68354,35.72226],[128.68314,35.72558],[128.68562,35.72758],[128.68779,35.72854],[128.69056,35.73047],[128.692,35.73326],[128.69148,35.73438],[128.69195,35.7353],[128.69139,35.73616],[128.6905,35.73662],[128.68908,35.73811],[128.68928,35.74019],[128.69131,35.74136],[128.69427,35.74428],[128.69812,35.74319],[128.7016,35.7438],[128.70256,35.7437],[128.70205,35.74266],[128.70204,35.73917],[128.70303,35.73728],[128.7095,35.73257],[128.71237,35.72782],[128.7128,35.72636],[128.71237,35.7251],[128.71357,35.72414],[128.71348,35.72353],[128.71443,35.72295],[128.71488,35.72113],[128.71974,35.72076],[128.72193,35.71958],[128.7231,35.71942],[128.72524,35.71972],[128.72765,35.7207],[128.72971,35.72021],[128.73119,35.72041],[128.73352,35.71936],[128.73463,35.7173],[128.73481,35.71577],[128.73581,35.71365],[128.73564,35.71227],[128.73624,35.71152],[128.73663,35.71011],[128.7377,35.70885],[128.74119,35.70743],[128.74219,35.70618],[128.74475,35.70486]]]]},"properties":{"id":"SGG:47820","layer":"L3","admin_code":"47820","name":"경상북도 청도군","sido":"경상북도","sgg":"청도군","provisional":false,"source":"통계청 행정동 경계(BND_ADM_DONG_PG, 2025-06-30) 를 시군구로 합침","source_kind":"derived","derived_from":"행정동 경계 union · 20 m 단순화"}}]}