{"type":"FeatureCollection","features":[{"type":"Feature","id":"SGG:48720","geometry":{"type":"MultiPolygon","coordinates":[[[[128.30719,35.32215],[128.30233,35.31823],[128.29772,35.31535],[128.29686,35.31439],[128.295,35.31173],[128.29304,35.30811],[128.29047,35.30209],[128.29058,35.29728],[128.29154,35.29411],[128.29449,35.2901],[128.29708,35.28908],[128.29947,35.28652],[128.30126,35.28443],[128.30163,35.28293],[128.29868,35.28045],[128.2862,35.27696],[128.28245,35.2756],[128.27918,35.27198],[128.27787,35.26837],[128.27666,35.26308],[128.27404,35.2574],[128.2699,35.25623],[128.25891,35.25603],[128.24506,35.25342],[128.23823,35.25366],[128.2338,35.25497],[128.23144,35.25618],[128.22879,35.25876],[128.22508,35.26083],[128.21948,35.26468],[128.21765,35.26487],[128.21542,35.26402],[128.21514,35.26452],[128.21181,35.26528],[128.2109,35.2648],[128.2097,35.26499],[128.20595,35.26295],[128.20577,35.2622],[128.20497,35.26174],[128.20445,35.26091],[128.20401,35.25942],[128.2033,35.25852],[128.20344,35.2577],[128.20283,35.25518],[128.20149,35.25366],[128.20025,35.25349],[128.19777,35.25424],[128.19624,35.25567],[128.19387,35.25645],[128.19574,35.2602],[128.19579,35.26325],[128.19548,35.26438],[128.19507,35.26463],[128.19573,35.26563],[128.19474,35.26585],[128.19377,35.26675],[128.19132,35.26725],[128.19075,35.26954],[128.18957,35.27018],[128.19015,35.27208],[128.18792,35.27488],[128.18706,35.27543],[128.18481,35.27536],[128.18338,35.27655],[128.18294,35.27733],[128.1822,35.27755],[128.18016,35.27907],[128.17933,35.28128],[128.17937,35.2822],[128.18103,35.28525],[128.17955,35.28575],[128.17887,35.28682],[128.17671,35.28852],[128.17612,35.2907],[128.1747,35.29187],[128.17421,35.2943],[128.17743,35.29798],[128.17755,35.29895],[128.17716,35.30002],[128.17623,35.30049],[128.17617,35.30105],[128.1751,35.30157],[128.17476,35.3031],[128.17421,35.30369],[128.17447,35.30556],[128.17273,35.30824],[128.17311,35.30947],[128.17392,35.31061],[128.17263,35.314],[128.17323,35.31467],[128.17397,35.31467],[128.1749,35.31557],[128.17757,35.31665],[128.17808,35.31745],[128.1779,35.31849],[128.17904,35.3196],[128.17843,35.32264],[128.17775,35.32321],[128.1773,35.3242],[128.17618,35.32475],[128.17417,35.32643],[128.17353,35.32824],[128.17192,35.32817],[128.17047,35.33018],[128.16691,35.33348],[128.16658,35.33463],[128.16435,35.33617],[128.16378,35.33815],[128.16398,35.33962],[128.16358,35.3405],[128.16399,35.34162],[128.1636,35.34246],[128.16004,35.34406],[128.15802,35.34582],[128.1583,35.3465],[128.15692,35.34839],[128.15638,35.35047],[128.15491,35.35113],[128.15374,35.35079],[128.15233,35.34966],[128.15016,35.34992],[128.14711,35.34807],[128.14585,35.34861],[128.14378,35.34708],[128.14344,35.34645],[128.14239,35.34629],[128.14146,35.34549],[128.14057,35.34525],[128.13871,35.34341],[128.13829,35.34242],[128.13538,35.34192],[128.13347,35.34119],[128.13319,35.33928],[128.13263,35.33839],[128.1299,35.33644],[128.12823,35.33567],[128.12722,35.33555],[128.12428,35.33311],[128.12217,35.33246],[128.12013,35.33244],[128.11924,35.33112],[128.11685,35.33072],[128.11564,35.33004],[128.11461,35.33113],[128.11449,35.33204],[128.1152,35.33284],[128.11519,35.33329],[128.1142,35.3349],[128.11337,35.3355],[128.11139,35.33595],[128.11046,35.33786],[128.10944,35.33811],[128.10839,35.33779],[128.10686,35.33798],[128.10585,35.33904],[128.10395,35.33951],[128.10301,35.34117],[128.10081,35.34129],[128.09935,35.34089],[128.09745,35.34168],[128.09649,35.34152],[128.09657,35.34268],[128.09619,35.34345],[128.09489,35.34394],[128.09419,35.34489],[128.0945,35.34567],[128.09208,35.34832],[128.09387,35.34883],[128.0947,35.35004],[128.09623,35.35078],[128.09749,35.35209],[128.09727,35.35221],[128.09753,35.35212],[128.09911,35.35351],[128.09914,35.3543],[128.0981,35.35523],[128.09824,35.35579],[128.09737,35.35649],[128.09536,35.35734],[128.09523,35.35821],[128.09566,35.3589],[128.09537,35.35985],[128.09717,35.36121],[128.09998,35.36162],[128.10091,35.36353],[128.1016,35.36417],[128.10239,35.36712],[128.10112,35.36686],[128.10047,35.36718],[128.10034,35.36681],[128.09982,35.36667],[128.09867,35.36714],[128.09756,35.36717],[128.09722,35.36686],[128.09649,35.36683],[128.0954,35.36589],[128.09322,35.36529],[128.09049,35.3663],[128.08815,35.36617],[128.08747,35.36568],[128.08587,35.36725],[128.0858,35.36788],[128.08449,35.36857],[128.08315,35.36883],[128.08258,35.36962],[128.08978,35.36805],[128.0959,35.36793],[128.09908,35.36819],[128.09929,35.36839],[128.09788,35.36828],[128.09867,35.36879],[128.09893,35.37114],[128.09978,35.37176],[128.10046,35.37175],[128.10158,35.37289],[128.10188,35.37232],[128.10197,35.37293],[128.10247,35.37314],[128.1024,35.37269],[128.10305,35.37289],[128.10452,35.37665],[128.10638,35.37676],[128.10704,35.37709],[128.10919,35.38008],[128.11147,35.38124],[128.11241,35.38232],[128.11294,35.38223],[128.11367,35.38117],[128.11351,35.38081],[128.11393,35.37979],[128.11453,35.37958],[128.11543,35.37973],[128.11631,35.37866],[128.11682,35.37903],[128.11773,35.37906],[128.11829,35.37818],[128.11871,35.37825],[128.11955,35.3775],[128.12028,35.37737],[128.12134,35.37813],[128.12194,35.37812],[128.1221,35.37757],[128.12289,35.37741],[128.12412,35.37428],[128.12508,35.3739],[128.12574,35.37302],[128.12689,35.37224],[128.12764,35.37229],[128.12815,35.37299],[128.13005,35.37323],[128.12927,35.37442],[128.12795,35.37796],[128.12734,35.37874],[128.12647,35.37893],[128.12606,35.37984],[128.12659,35.38056],[128.12625,35.38273],[128.1266,35.38309],[128.12659,35.38386],[128.12582,35.38384],[128.12537,35.38461],[128.12648,35.38502],[128.12655,35.38623],[128.12875,35.38768],[128.13106,35.38722],[128.13318,35.38635],[128.13481,35.38659],[128.14207,35.38543],[128.14298,35.38575],[128.14342,35.38646],[128.14419,35.38655],[128.14463,35.38604],[128.14574,35.38643],[128.14679,35.38577],[128.14766,35.38577],[128.14876,35.38653],[128.15001,35.38666],[128.15159,35.38842],[128.15269,35.38828],[128.15599,35.38992],[128.15618,35.39082],[128.15675,35.39115],[128.15827,35.39154],[128.15942,35.39087],[128.16141,35.39105],[128.16475,35.39314],[128.16704,35.39402],[128.1719,35.39428],[128.17331,35.39451],[128.17346,35.39486],[128.17493,35.39493],[128.17604,35.39558],[128.17964,35.39575],[128.18317,35.3971],[128.18605,35.39769],[128.18659,35.39815],[128.18782,35.39825],[128.1899,35.39898],[128.18983,35.40127],[128.18938,35.40242],[128.18983,35.40314],[128.19012,35.40571],[128.19069,35.40633],[128.19157,35.40856],[128.19089,35.41156],[128.18885,35.41467],[128.18648,35.41588],[128.18626,35.41725],[128.18521,35.41915],[128.18617,35.41958],[128.1872,35.42119],[128.18912,35.42202],[128.19017,35.42351],[128.19254,35.42468],[128.19263,35.42627],[128.19304,35.4268],[128.19411,35.4274],[128.1947,35.4283],[128.19745,35.42977],[128.19827,35.43093],[128.20017,35.43223],[128.20076,35.4342],[128.20204,35.43623],[128.20326,35.43658],[128.20249,35.43811],[128.203,35.44264],[128.20396,35.4438],[128.20412,35.44512],[128.20619,35.44671],[128.2063,35.44739],[128.20713,35.4484],[128.20766,35.45064],[128.20739,35.45148],[128.20831,35.45304],[128.20833,35.45365],[128.20783,35.45436],[128.20807,35.45597],[128.20746,35.45806],[128.20784,35.45904],[128.20777,35.46013],[128.20987,35.46125],[128.21064,35.46211],[128.21482,35.46124],[128.21629,35.46172],[128.21626,35.46331],[128.21532,35.46444],[128.21246,35.46558],[128.21017,35.46727],[128.20889,35.4675],[128.20748,35.46845],[128.20637,35.46878],[128.20626,35.46988],[128.20564,35.47075],[128.20392,35.47239],[128.20258,35.473],[128.20072,35.47537],[128.20058,35.47609],[128.20165,35.47792],[128.20344,35.47831],[128.20602,35.47821],[128.20689,35.47997],[128.20954,35.4837],[128.2108,35.48426],[128.21299,35.4847],[128.21383,35.48429],[128.21734,35.48441],[128.22227,35.48773],[128.22427,35.48854],[128.22431,35.48887],[128.22532,35.48785],[128.22762,35.48852],[128.2265,35.4897],[128.2268,35.49112],[128.22696,35.49094],[128.22816,35.49144],[128.22839,35.49086],[128.2295,35.4905],[128.22982,35.49077],[128.23,35.49038],[128.23077,35.49148],[128.23786,35.49469],[128.24444,35.49448],[128.24648,35.4947],[128.24885,35.49322],[128.25094,35.49375],[128.25228,35.49512],[128.25324,35.49402],[128.25509,35.49417],[128.2573,35.49614],[128.25843,35.49605],[128.25902,35.49647],[128.26193,35.49719],[128.26137,35.50123],[128.26084,35.50209],[128.26253,35.50554],[128.26463,35.50681],[128.26543,35.50797],[128.2657,35.50902],[128.26648,35.5099],[128.26782,35.51027],[128.2693,35.51121],[128.27118,35.5101],[128.27249,35.50994],[128.27641,35.50975],[128.27834,35.51026],[128.28167,35.51024],[128.28332,35.51099],[128.28513,35.51107],[128.29024,35.51232],[128.28943,35.51503],[128.29265,35.51738],[128.29584,35.51711],[128.29804,35.5161],[128.29921,35.51593],[128.30236,35.5162],[128.30334,35.51536],[128.30405,35.51553],[128.30577,35.5167],[128.30783,35.51708],[128.30895,35.51669],[128.3123,35.51676],[128.31446,35.51579],[128.31586,35.51574],[128.31623,35.51422],[128.31714,35.5132],[128.31761,35.51148],[128.31893,35.51072],[128.31935,35.51008],[128.32008,35.51012],[128.32044,35.50924],[128.32176,35.50825],[128.32454,35.50849],[128.32655,35.50779],[128.32775,35.50808],[128.3307,35.50757],[128.333,35.50865],[128.33599,35.50846],[128.33669,35.5086],[128.33801,35.50962],[128.33898,35.50958],[128.33941,35.50934],[128.33955,35.50742],[128.34055,35.50627],[128.34154,35.50555],[128.34263,35.50533],[128.34365,35.50473],[128.34492,35.50458],[128.34501,35.5041],[128.34701,35.50194],[128.34906,35.50165],[128.34962,35.5006],[128.35074,35.501],[128.35153,35.50073],[128.35232,35.50152],[128.35173,35.50236],[128.35189,35.50265],[128.3533,35.50302],[128.35621,35.50239],[128.35838,35.50317],[128.35941,35.50319],[128.3649,35.50018],[128.36746,35.50031],[128.36877,35.50137],[128.3714,35.50183],[128.37238,35.50226],[128.37337,35.50392],[128.37286,35.50684],[128.37001,35.51043],[128.36914,35.51403],[128.36945,35.51502],[128.37027,35.51567],[128.37228,35.51471],[128.37445,35.51263],[128.37535,35.51229],[128.37781,35.51254],[128.37986,35.51363],[128.38332,35.51248],[128.38884,35.51128],[128.39437,35.50889],[128.39991,35.50599],[128.40543,35.50385],[128.41198,35.50071],[128.41651,35.49625],[128.41978,35.49354],[128.42168,35.4831],[128.42097,35.47745],[128.41208,35.4697],[128.40374,35.46734],[128.40021,35.46541],[128.392,35.46224],[128.38293,35.46115],[128.38025,35.45641],[128.37595,35.45355],[128.37473,35.44556],[128.37598,35.43971],[128.3784,35.43649],[128.38038,35.43478],[128.38826,35.42587],[128.39779,35.42154],[128.41157,35.41823],[128.42324,35.41591],[128.43023,35.40618],[128.43374,35.39756],[128.43745,35.39279],[128.43137,35.39103],[128.42829,35.38887],[128.41978,35.37838],[128.41975,35.37729],[128.42185,35.37369],[128.42845,35.36651],[128.42876,35.36579],[128.42846,35.36512],[128.42458,35.36289],[128.42122,35.36207],[128.42024,35.36197],[128.41747,35.36286],[128.41583,35.36267],[128.41427,35.35924],[128.41484,35.35882],[128.41463,35.35834],[128.412,35.35867],[128.40649,35.36082],[128.40099,35.36076],[128.38999,35.36006],[128.3873,35.35971],[128.3845,35.3587],[128.38308,35.35701],[128.38159,35.35408],[128.38153,35.35186],[128.38458,35.34827],[128.38949,35.34469],[128.39011,35.34371],[128.39306,35.34111],[128.39566,35.33751],[128.39643,35.33571],[128.39647,35.33515],[128.39568,35.33391],[128.39019,35.33274],[128.38469,35.33323],[128.37918,35.33415],[128.37368,35.33446],[128.36266,35.33697],[128.3554,35.33934],[128.35464,35.33968],[128.35162,35.34259],[128.34568,35.35167],[128.34265,35.35526],[128.33833,35.35884],[128.33294,35.36115],[128.32749,35.36239],[128.32395,35.36286],[128.32211,35.36278],[128.3176,35.36188],[128.31648,35.36137],[128.31252,35.35706],[128.31201,35.35509],[128.31178,35.35149],[128.31201,35.34788],[128.31362,35.34068],[128.31398,35.33708],[128.31684,35.32796],[128.31792,35.32628],[128.31747,35.32532],[128.31328,35.3234],[128.30719,35.32215]]]]},"properties":{"id":"SGG:48720","layer":"L3","admin_code":"48720","name":"경상남도 의령군","sido":"경상남도","sgg":"의령군","provisional":false,"source":"통계청 행정동 경계(BND_ADM_DONG_PG, 2025-06-30) 를 시군구로 합침","source_kind":"derived","derived_from":"행정동 경계 union · 20 m 단순화"}}]}