{"type":"FeatureCollection","features":[{"type":"Feature","id":"SGG:52140","geometry":{"type":"MultiPolygon","coordinates":[[[[126.95095,35.90854],[126.94498,35.91147],[126.94199,35.91246],[126.93967,35.91279],[126.93857,35.91267],[126.93477,35.91448],[126.93213,35.91467],[126.93186,35.91078],[126.92764,35.90978],[126.92212,35.90767],[126.9215,35.90789],[126.91944,35.90742],[126.91488,35.90528],[126.91403,35.9043],[126.91315,35.90385],[126.91218,35.90344],[126.91122,35.90345],[126.91121,35.9032],[126.90995,35.90315],[126.90891,35.90337],[126.89556,35.9122],[126.89394,35.91377],[126.89286,35.91415],[126.89156,35.91407],[126.89061,35.91342],[126.89003,35.91218],[126.88707,35.9124],[126.88534,35.9121],[126.88356,35.91319],[126.87302,35.91153],[126.86564,35.90828],[126.86306,35.90636],[126.86081,35.90566],[126.85794,35.90644],[126.85679,35.90705],[126.85312,35.9096],[126.85222,35.91095],[126.85171,35.9129],[126.85141,35.91691],[126.85282,35.91774],[126.85434,35.91742],[126.85422,35.91786],[126.85523,35.91819],[126.85539,35.91879],[126.85781,35.91865],[126.85774,35.91838],[126.85892,35.91818],[126.85853,35.91788],[126.85912,35.91728],[126.85964,35.91749],[126.86041,35.91857],[126.86092,35.9188],[126.86156,35.92125],[126.86249,35.92162],[126.86299,35.92113],[126.86363,35.92145],[126.86354,35.92179],[126.86472,35.92229],[126.86529,35.92331],[126.86551,35.92261],[126.86573,35.92376],[126.86977,35.92732],[126.87379,35.93019],[126.87639,35.93278],[126.87756,35.93328],[126.87866,35.93449],[126.88183,35.93946],[126.88186,35.94028],[126.88099,35.9406],[126.88088,35.94094],[126.88206,35.94393],[126.8828,35.94391],[126.88334,35.94791],[126.883,35.94799],[126.89367,35.95513],[126.89254,35.95653],[126.89266,35.95736],[126.89098,35.95834],[126.89078,35.9597],[126.89006,35.95975],[126.8892,35.95893],[126.88835,35.95905],[126.88571,35.9596],[126.88509,35.96082],[126.89979,35.97098],[126.90099,35.97214],[126.90298,35.97213],[126.90229,35.97837],[126.90465,35.97928],[126.90464,35.97994],[126.90642,35.9804],[126.9064,35.98072],[126.91018,35.98199],[126.90934,35.98363],[126.90786,35.9836],[126.90821,35.98705],[126.91168,35.98909],[126.91276,35.99016],[126.91514,35.99671],[126.91535,36.0014],[126.91495,36.00429],[126.91406,36.00476],[126.91394,36.00556],[126.90943,36.00581],[126.90801,36.00685],[126.90631,36.0069],[126.90456,36.00746],[126.90113,36.00786],[126.89856,36.01149],[126.89632,36.01378],[126.89423,36.01468],[126.89027,36.01771],[126.8873,36.02124],[126.88625,36.02311],[126.885,36.02381],[126.88419,36.02598],[126.88229,36.0271],[126.88098,36.02731],[126.87961,36.02834],[126.87906,36.02996],[126.87799,36.02971],[126.87628,36.03066],[126.87441,36.0307],[126.87386,36.03095],[126.87395,36.03158],[126.87163,36.03275],[126.87055,36.03283],[126.87068,36.036],[126.87118,36.03656],[126.87145,36.03834],[126.87258,36.03904],[126.87329,36.04041],[126.87319,36.04098],[126.87414,36.04243],[126.87424,36.04333],[126.87379,36.04316],[126.873,36.04349],[126.87221,36.04395],[126.87195,36.04451],[126.86995,36.04497],[126.86854,36.04586],[126.86816,36.04871],[126.86699,36.0501],[126.86681,36.05284],[126.86706,36.05364],[126.86563,36.05427],[126.86472,36.05609],[126.86537,36.05645],[126.86592,36.05617],[126.86505,36.06071],[126.86804,36.06241],[126.87082,36.0674],[126.87109,36.07157],[126.87359,36.08683],[126.87414,36.0993],[126.87381,36.11044],[126.87748,36.11714],[126.87915,36.12379],[126.88164,36.12879],[126.88221,36.13129],[126.88776,36.13795],[126.8897,36.13962],[126.89525,36.14245],[126.89776,36.14268],[126.9008,36.1424],[126.90415,36.14129],[126.90698,36.13988],[126.90859,36.13823],[126.91109,36.13657],[126.91327,36.13601],[126.9147,36.13574],[126.91969,36.1363],[126.92247,36.1385],[126.92525,36.13991],[126.93096,36.14244],[126.93305,36.14293],[126.93136,36.14293],[126.9344,36.14685],[126.93892,36.15077],[126.93969,36.14947],[126.93968,36.15118],[126.94135,36.15211],[126.94446,36.15351],[126.95663,36.15657],[126.96303,36.15628],[126.97146,36.15103],[126.97719,36.14852],[126.98081,36.14796],[126.98719,36.14769],[126.99387,36.14685],[126.99803,36.14685],[127.00135,36.14796],[127.00534,36.15062],[127.00671,36.1499],[127.00586,36.14721],[127.00619,36.14714],[127.00655,36.14764],[127.00767,36.14679],[127.00881,36.14716],[127.00963,36.14624],[127.01097,36.14609],[127.01126,36.14582],[127.01247,36.14603],[127.01385,36.14688],[127.01449,36.14803],[127.01544,36.14876],[127.01631,36.14807],[127.01629,36.14743],[127.01743,36.14702],[127.01716,36.14665],[127.01813,36.14411],[127.01892,36.14324],[127.01915,36.14177],[127.01952,36.14158],[127.01945,36.14036],[127.01973,36.13962],[127.02021,36.13954],[127.02041,36.13824],[127.02119,36.13767],[127.0216,36.13782],[127.02256,36.13745],[127.02344,36.13665],[127.02406,36.1365],[127.0266,36.13646],[127.02749,36.13678],[127.02978,36.13662],[127.03096,36.13764],[127.03039,36.13777],[127.0343,36.13872],[127.03493,36.13925],[127.03615,36.13894],[127.03846,36.13906],[127.03969,36.13827],[127.04006,36.13991],[127.03977,36.14157],[127.0402,36.1419],[127.04089,36.14153],[127.04136,36.14421],[127.04216,36.14506],[127.04252,36.14648],[127.04484,36.14609],[127.04419,36.14345],[127.04546,36.14305],[127.04417,36.14323],[127.04428,36.14295],[127.04324,36.14278],[127.04442,36.14166],[127.04483,36.1396],[127.04553,36.13865],[127.04486,36.13861],[127.04453,36.13759],[127.04549,36.13795],[127.04581,36.13774],[127.04516,36.13597],[127.04533,36.13526],[127.04467,36.13473],[127.04476,36.13446],[127.04575,36.13437],[127.0462,36.13529],[127.04645,36.13515],[127.04625,36.13449],[127.04781,36.13385],[127.04826,36.13396],[127.04821,36.13428],[127.05013,36.13416],[127.04951,36.13285],[127.05035,36.13217],[127.05071,36.13091],[127.05564,36.13012],[127.0551,36.12786],[127.05632,36.12766],[127.05611,36.12678],[127.06077,36.12604],[127.06021,36.12373],[127.06195,36.12512],[127.06301,36.12522],[127.06106,36.11719],[127.06173,36.11708],[127.06231,36.11595],[127.05875,36.11674],[127.05849,36.11581],[127.05725,36.11604],[127.05697,36.11509],[127.05772,36.11495],[127.05696,36.11312],[127.05815,36.1129],[127.05789,36.11198],[127.05867,36.11183],[127.05839,36.11089],[127.05896,36.11078],[127.05781,36.10705],[127.06001,36.10664],[127.05992,36.10634],[127.06049,36.10624],[127.06031,36.10561],[127.06105,36.10548],[127.06036,36.10392],[127.06078,36.10323],[127.0603,36.10242],[127.06033,36.10053],[127.06123,36.09968],[127.06052,36.09681],[127.06066,36.09527],[127.06019,36.09487],[127.06055,36.09462],[127.06045,36.09391],[127.06093,36.0938],[127.06313,36.09157],[127.06258,36.09099],[127.0626,36.09029],[127.06123,36.08964],[127.0609,36.08904],[127.06273,36.08938],[127.06365,36.08907],[127.06404,36.08949],[127.06524,36.08983],[127.06736,36.08844],[127.07011,36.0876],[127.07171,36.08463],[127.07548,36.08489],[127.07696,36.0836],[127.07658,36.08308],[127.07695,36.083],[127.07732,36.082],[127.08028,36.08088],[127.08014,36.08052],[127.08138,36.07942],[127.08226,36.07776],[127.08448,36.07716],[127.08783,36.07556],[127.08818,36.07403],[127.09038,36.0718],[127.09154,36.07305],[127.09225,36.0756],[127.09271,36.07599],[127.09381,36.07482],[127.09442,36.07326],[127.09547,36.07351],[127.09569,36.07414],[127.09913,36.07457],[127.0995,36.07499],[127.10059,36.07501],[127.10067,36.07565],[127.1013,36.0755],[127.10203,36.07578],[127.10359,36.07403],[127.10444,36.0739],[127.10549,36.07328],[127.10626,36.07196],[127.1075,36.07201],[127.10845,36.07264],[127.10935,36.0726],[127.11056,36.07081],[127.11265,36.06925],[127.11558,36.06766],[127.11812,36.06712],[127.12088,36.06471],[127.12126,36.06369],[127.12205,36.06303],[127.12319,36.06425],[127.1306,36.06588],[127.13103,36.06578],[127.13133,36.06318],[127.13153,36.06353],[127.13238,36.06323],[127.13358,36.06166],[127.13623,36.05992],[127.13751,36.05817],[127.13972,36.05697],[127.1387,36.05621],[127.13814,36.05468],[127.13538,36.05289],[127.13309,36.04761],[127.13234,36.04718],[127.13238,36.04648],[127.13164,36.04532],[127.12912,36.04367],[127.12892,36.04209],[127.12465,36.03852],[127.12432,36.03779],[127.11976,36.03336],[127.11951,36.03278],[127.1163,36.03049],[127.11824,36.02616],[127.11646,36.02497],[127.1158,36.0241],[127.11768,36.02355],[127.11816,36.02233],[127.12115,36.02039],[127.12119,36.01852],[127.12231,36.01671],[127.12234,36.01415],[127.12468,36.01287],[127.12551,36.01168],[127.12546,36.01012],[127.12456,36.00924],[127.12553,36.00654],[127.12555,36.00536],[127.12284,36.00519],[127.12035,36.00234],[127.11875,36.00226],[127.11815,36.00136],[127.11285,35.99865],[127.11176,35.99846],[127.11157,35.99732],[127.10962,35.9968],[127.10746,35.99539],[127.10774,35.99304],[127.10865,35.99261],[127.10813,35.99105],[127.10842,35.98976],[127.10972,35.98812],[127.10939,35.98732],[127.10958,35.9861],[127.10866,35.98449],[127.10796,35.982],[127.10799,35.98092],[127.10689,35.97885],[127.10702,35.97716],[127.10658,35.97691],[127.10673,35.97469],[127.1041,35.96854],[127.10449,35.96407],[127.10644,35.96071],[127.10632,35.95941],[127.10553,35.95737],[127.10388,35.95619],[127.1038,35.95432],[127.10298,35.95344],[127.10276,35.9521],[127.10221,35.95147],[127.10015,35.95042],[127.09971,35.94861],[127.09742,35.94584],[127.09713,35.94383],[127.09465,35.9404],[127.09431,35.93934],[127.09434,35.93587],[127.09403,35.93473],[127.09268,35.93272],[127.09259,35.93159],[127.09176,35.93036],[127.08954,35.92912],[127.0886,35.92755],[127.08777,35.92688],[127.08596,35.9264],[127.08501,35.92475],[127.08097,35.92217],[127.08057,35.92144],[127.07711,35.92064],[127.07684,35.92216],[127.07184,35.91865],[127.06677,35.91569],[127.06539,35.91617],[127.06395,35.9173],[127.06109,35.91828],[127.06051,35.91924],[127.05537,35.92186],[127.04991,35.92307],[127.04994,35.92329],[127.04863,35.92339],[127.0475,35.92395],[127.04408,35.92407],[127.04399,35.9247],[127.04333,35.92479],[127.04223,35.92557],[127.04076,35.9256],[127.03904,35.92123],[127.03654,35.91893],[127.03587,35.91853],[127.03518,35.91859],[127.03511,35.919],[127.03122,35.91903],[127.03035,35.91839],[127.03018,35.91747],[127.02969,35.91751],[127.02963,35.91714],[127.02871,35.91736],[127.02922,35.91705],[127.02891,35.91654],[127.02943,35.91615],[127.02911,35.91536],[127.03077,35.91458],[127.03118,35.91312],[127.03184,35.91265],[127.03151,35.91211],[127.03178,35.91041],[127.03234,35.91015],[127.03462,35.91068],[127.03639,35.90906],[127.0356,35.90858],[127.0342,35.90887],[127.03365,35.90865],[127.03308,35.90671],[127.03251,35.90612],[127.03405,35.90538],[127.03428,35.9047],[127.03511,35.90431],[127.03556,35.90423],[127.03576,35.90496],[127.03698,35.90513],[127.03722,35.90483],[127.0374,35.90429],[127.03677,35.90269],[127.03687,35.90231],[127.03783,35.90212],[127.03863,35.90071],[127.038,35.90035],[127.03831,35.89781],[127.0275,35.89796],[127.02231,35.89659],[127.02029,35.89644],[127.01942,35.89563],[127.01954,35.89421],[127.01519,35.89559],[127.01339,35.89554],[127.0007,35.89321],[127.00067,35.89196],[127.00158,35.89002],[127.00155,35.8893],[126.99932,35.88691],[126.99784,35.88418],[126.99713,35.88363],[126.99527,35.88349],[126.99453,35.88376],[126.99364,35.88503],[126.99316,35.88695],[126.99322,35.88822],[126.99372,35.88861],[126.9967,35.88943],[126.9972,35.89015],[126.99708,35.89078],[126.99526,35.89172],[126.99077,35.89206],[126.99003,35.8928],[126.98952,35.89588],[126.98837,35.89663],[126.97865,35.8991],[126.97568,35.89781],[126.97465,35.89678],[126.97311,35.89685],[126.97172,35.89847],[126.97166,35.89985],[126.97136,35.90021],[126.96778,35.90061],[126.96529,35.90045],[126.96203,35.90199],[126.95668,35.90862],[126.95664,35.91577],[126.95602,35.91653],[126.9552,35.9164],[126.95459,35.91591],[126.95236,35.91394],[126.95201,35.91327],[126.95265,35.90958],[126.95225,35.90873],[126.95095,35.90854]]]]},"properties":{"id":"SGG:52140","layer":"L3","admin_code":"52140","name":"전북특별자치도 익산시","sido":"전북특별자치도","sgg":"익산시","provisional":false,"source":"통계청 행정동 경계(BND_ADM_DONG_PG, 2025-06-30) 를 시군구로 합침","source_kind":"derived","derived_from":"행정동 경계 union · 20 m 단순화"}}]}