{"type":"FeatureCollection","features":[{"type":"Feature","id":"SGG:27170","geometry":{"type":"MultiPolygon","coordinates":[[[[128.5585,35.85822],[128.54809,35.8543],[128.54745,35.85653],[128.54359,35.85578],[128.54342,35.85635],[128.542,35.85607],[128.54201,35.85638],[128.54021,35.85627],[128.54055,35.85768],[128.53996,35.85872],[128.53327,35.85875],[128.53391,35.86206],[128.53286,35.86158],[128.52735,35.86181],[128.52649,35.86321],[128.5277,35.86456],[128.52739,35.86486],[128.52546,35.86585],[128.52482,35.86712],[128.52067,35.86748],[128.51879,35.86964],[128.51996,35.87064],[128.52115,35.87265],[128.52043,35.87391],[128.52035,35.87641],[128.51975,35.87795],[128.51635,35.88307],[128.51662,35.88381],[128.51765,35.88466],[128.51931,35.88489],[128.52083,35.88592],[128.52156,35.88577],[128.52319,35.88638],[128.52481,35.88643],[128.52578,35.88711],[128.52554,35.88725],[128.52636,35.88834],[128.52888,35.88596],[128.53308,35.88562],[128.5347,35.88582],[128.53616,35.88645],[128.5383,35.88984],[128.53877,35.89151],[128.54088,35.89352],[128.54379,35.89453],[128.54639,35.89499],[128.55189,35.89722],[128.55326,35.89545],[128.55228,35.89458],[128.55235,35.89429],[128.55179,35.89422],[128.55215,35.89405],[128.55179,35.894],[128.55493,35.89084],[128.57593,35.8876],[128.58184,35.8851],[128.58,35.87913],[128.57773,35.8796],[128.57796,35.87661],[128.57836,35.87587],[128.5791,35.87539],[128.57851,35.87538],[128.57672,35.87618],[128.57626,35.87453],[128.57549,35.87386],[128.57558,35.8731],[128.57641,35.87272],[128.57676,35.87188],[128.5779,35.87199],[128.57817,35.8724],[128.57879,35.87232],[128.5794,35.8728],[128.57967,35.87038],[128.57841,35.86878],[128.57377,35.86537],[128.57418,35.8626],[128.5585,35.85822]]]]},"properties":{"id":"SGG:27170","layer":"L3","admin_code":"27170","name":"대구광역시 서구","sido":"대구광역시","sgg":"서구","provisional":false,"source":"통계청 행정동 경계(BND_ADM_DONG_PG, 2025-06-30) 를 시군구로 합침","source_kind":"derived","derived_from":"행정동 경계 union · 20 m 단순화"}}]}