{"type":"FeatureCollection","features":[{"type":"Feature","id":"SGG:48860","geometry":{"type":"MultiPolygon","coordinates":[[[[127.86516,35.25858],[127.86339,35.2541],[127.86119,35.25381],[127.85993,35.25261],[127.85934,35.25095],[127.8568,35.24893],[127.85709,35.2475],[127.85657,35.24667],[127.85803,35.24521],[127.85757,35.24437],[127.85781,35.24248],[127.85598,35.24104],[127.85584,35.24034],[127.8551,35.23949],[127.85309,35.23841],[127.85304,35.23759],[127.85196,35.23718],[127.85074,35.23603],[127.8472,35.23549],[127.84564,35.23375],[127.84572,35.23309],[127.8452,35.23277],[127.84563,35.2308],[127.84468,35.22841],[127.84324,35.22758],[127.8402,35.22866],[127.83533,35.22963],[127.83383,35.2279],[127.83373,35.22714],[127.83233,35.22544],[127.83173,35.22573],[127.82976,35.22457],[127.82823,35.2243],[127.82791,35.22332],[127.82655,35.22249],[127.82429,35.2221],[127.82238,35.22199],[127.82155,35.22247],[127.81902,35.22235],[127.81669,35.22191],[127.81426,35.22183],[127.81279,35.2211],[127.80835,35.22117],[127.80559,35.22042],[127.80422,35.22061],[127.80178,35.21999],[127.80126,35.2195],[127.79956,35.21927],[127.79809,35.21974],[127.79662,35.21965],[127.79492,35.21998],[127.79369,35.22068],[127.791,35.22001],[127.78906,35.22082],[127.78609,35.22034],[127.78273,35.22094],[127.78203,35.2203],[127.78191,35.21903],[127.78011,35.2196],[127.77606,35.21948],[127.77348,35.22142],[127.7725,35.223],[127.76972,35.22348],[127.76831,35.22335],[127.76727,35.22442],[127.76546,35.22753],[127.76336,35.22819],[127.76105,35.22826],[127.76025,35.22856],[127.76009,35.22945],[127.75778,35.23152],[127.7564,35.2321],[127.75568,35.2335],[127.75426,35.23468],[127.75282,35.23688],[127.75286,35.23774],[127.7536,35.23913],[127.75166,35.24085],[127.75012,35.24548],[127.75062,35.24684],[127.74891,35.24945],[127.7458,35.25135],[127.74345,35.25322],[127.73756,35.25547],[127.73644,35.25558],[127.73381,35.25483],[127.73239,35.25512],[127.73039,35.25657],[127.72645,35.25748],[127.72565,35.25823],[127.7244,35.25862],[127.71795,35.25953],[127.7166,35.25995],[127.71575,35.26086],[127.71463,35.26134],[127.70569,35.26433],[127.70481,35.26487],[127.70265,35.27036],[127.70265,35.27134],[127.70148,35.27258],[127.70032,35.27478],[127.69564,35.27707],[127.6933,35.28095],[127.69026,35.28356],[127.69023,35.28424],[127.6927,35.28775],[127.68897,35.2928],[127.68854,35.29412],[127.68951,35.29597],[127.68827,35.30243],[127.68871,35.30377],[127.68874,35.30726],[127.68791,35.30961],[127.6887,35.31241],[127.68841,35.31496],[127.68878,35.31921],[127.69029,35.31836],[127.69175,35.31826],[127.69373,35.31886],[127.69496,35.31867],[127.69718,35.31754],[127.69889,35.31604],[127.69956,35.31576],[127.70061,35.31607],[127.70637,35.32036],[127.70766,35.32556],[127.70893,35.32691],[127.71031,35.32759],[127.71109,35.32838],[127.71305,35.32903],[127.7185,35.33436],[127.72118,35.3355],[127.72405,35.33549],[127.73066,35.33691],[127.73125,35.33747],[127.73139,35.33891],[127.73192,35.34016],[127.73332,35.34187],[127.73516,35.34712],[127.73511,35.351],[127.7329,35.35521],[127.73307,35.35597],[127.73436,35.35766],[127.73412,35.36119],[127.7388,35.36484],[127.73905,35.36568],[127.7389,35.36777],[127.73816,35.37107],[127.73861,35.37242],[127.73949,35.37327],[127.7428,35.37534],[127.74603,35.37645],[127.74871,35.37911],[127.74991,35.38144],[127.75078,35.38231],[127.75257,35.38323],[127.75258,35.38449],[127.75101,35.38685],[127.74925,35.39093],[127.74921,35.39283],[127.74812,35.39597],[127.74837,35.39715],[127.74928,35.39791],[127.75083,35.39836],[127.75607,35.40085],[127.75847,35.40267],[127.7594,35.40385],[127.76005,35.40639],[127.75902,35.41404],[127.75931,35.41525],[127.76276,35.41703],[127.7626,35.41743],[127.76325,35.41847],[127.76383,35.41832],[127.7651,35.4187],[127.76543,35.4191],[127.76871,35.41989],[127.76997,35.42067],[127.77018,35.42178],[127.76992,35.42262],[127.76872,35.42326],[127.7689,35.42621],[127.77084,35.42719],[127.77191,35.42836],[127.7735,35.42918],[127.77609,35.43192],[127.77848,35.43369],[127.78005,35.43433],[127.77739,35.43679],[127.77586,35.43933],[127.77504,35.43973],[127.77273,35.43975],[127.77283,35.44303],[127.7733,35.44471],[127.775,35.44612],[127.77732,35.44686],[127.78065,35.44648],[127.78583,35.44427],[127.78673,35.44432],[127.78832,35.44505],[127.78934,35.44601],[127.78945,35.44649],[127.78943,35.45178],[127.78234,35.45711],[127.78207,35.45787],[127.78235,35.45907],[127.78295,35.45982],[127.78534,35.4609],[127.78849,35.4629],[127.79597,35.46619],[127.80034,35.46778],[127.81159,35.46882],[127.81329,35.46969],[127.81405,35.47051],[127.81449,35.47156],[127.81345,35.47329],[127.80766,35.47812],[127.80951,35.48274],[127.80667,35.48415],[127.80532,35.4856],[127.80536,35.48937],[127.80611,35.49122],[127.80783,35.49067],[127.8108,35.4913],[127.81187,35.49063],[127.81352,35.49031],[127.81459,35.49086],[127.81628,35.49065],[127.81656,35.49159],[127.81727,35.49199],[127.81758,35.49292],[127.82042,35.49607],[127.82055,35.49828],[127.8209,35.49881],[127.82277,35.49972],[127.82269,35.50131],[127.82294,35.50164],[127.82255,35.5021],[127.82285,35.50419],[127.82244,35.50623],[127.82291,35.50664],[127.82231,35.50823],[127.82102,35.50833],[127.82025,35.50969],[127.82101,35.51107],[127.82072,35.5129],[127.82294,35.51523],[127.82329,35.51664],[127.82121,35.51895],[127.82042,35.51878],[127.81959,35.51898],[127.8172,35.52088],[127.81718,35.52153],[127.81596,35.52166],[127.81698,35.52383],[127.81685,35.52544],[127.81784,35.52599],[127.81826,35.52668],[127.81922,35.52633],[127.82006,35.52644],[127.82074,35.52693],[127.82106,35.52761],[127.82188,35.52757],[127.82278,35.52791],[127.82426,35.52914],[127.82518,35.53035],[127.82548,35.53189],[127.82596,35.53175],[127.82684,35.53213],[127.82737,35.53365],[127.82856,35.53449],[127.82983,35.53617],[127.82965,35.53675],[127.83019,35.53685],[127.83158,35.538],[127.83199,35.53985],[127.83259,35.54043],[127.83325,35.54047],[127.83602,35.54297],[127.83696,35.5433],[127.83729,35.544],[127.83865,35.54444],[127.84041,35.54578],[127.84125,35.54713],[127.84157,35.54933],[127.84316,35.55033],[127.84366,35.55176],[127.84448,35.5523],[127.84469,35.55318],[127.84629,35.55428],[127.84654,35.55616],[127.84753,35.55702],[127.84779,35.558],[127.84996,35.55866],[127.85229,35.56057],[127.85253,35.56141],[127.85208,35.56187],[127.85384,35.56484],[127.8539,35.56575],[127.85514,35.56697],[127.85563,35.56841],[127.85639,35.56941],[127.85718,35.56937],[127.85862,35.56991],[127.85917,35.57051],[127.85844,35.57108],[127.85861,35.57137],[127.86002,35.5718],[127.86069,35.57343],[127.86135,35.57392],[127.86197,35.57501],[127.86404,35.57621],[127.86604,35.57509],[127.86757,35.57485],[127.86909,35.57499],[127.87025,35.57565],[127.87085,35.57552],[127.87127,35.57424],[127.87092,35.57282],[127.87134,35.57142],[127.87207,35.57093],[127.87221,35.5702],[127.87361,35.56908],[127.87481,35.56721],[127.87476,35.56541],[127.87282,35.56319],[127.8727,35.56244],[127.86934,35.55949],[127.86941,35.55898],[127.87023,35.55868],[127.86987,35.55796],[127.87009,35.55639],[127.8704,35.55543],[127.87111,35.55502],[127.87119,35.55395],[127.8721,35.55296],[127.87201,35.55222],[127.87666,35.55091],[127.87745,35.55044],[127.87647,35.54698],[127.87654,35.54593],[127.87609,35.54543],[127.87672,35.54371],[127.87536,35.54173],[127.87578,35.54006],[127.87455,35.53837],[127.87708,35.53642],[127.87767,35.53555],[127.87739,35.53331],[127.87796,35.53326],[127.88058,35.53155],[127.87821,35.52787],[127.88079,35.52696],[127.88248,35.52825],[127.88354,35.52978],[127.88558,35.53078],[127.88652,35.53075],[127.88758,35.5314],[127.88968,35.53088],[127.88993,35.53054],[127.8904,35.53079],[127.89312,35.53059],[127.89395,35.53016],[127.89716,35.53241],[127.89808,35.53359],[127.90195,35.53498],[127.90301,35.53427],[127.90393,35.53399],[127.90417,35.53416],[127.90509,35.533],[127.90587,35.53302],[127.90666,35.53261],[127.90727,35.53145],[127.90837,35.53082],[127.90857,35.52995],[127.90832,35.52932],[127.90874,35.52869],[127.90974,35.52846],[127.91061,35.5276],[127.91236,35.52697],[127.91322,35.52563],[127.91882,35.52518],[127.92011,35.52416],[127.92129,35.52367],[127.92117,35.52147],[127.91998,35.51997],[127.92114,35.51831],[127.92193,35.51769],[127.92407,35.51708],[127.92533,35.51535],[127.92622,35.51589],[127.92736,35.51546],[127.92826,35.516],[127.92973,35.51603],[127.93204,35.51543],[127.93316,35.51596],[127.93452,35.51559],[127.93547,35.51476],[127.93647,35.51516],[127.93962,35.5144],[127.94123,35.51443],[127.94272,35.51569],[127.94313,35.51677],[127.9442,35.51716],[127.94622,35.51955],[127.94651,35.51931],[127.94767,35.51941],[127.949,35.51984],[127.95078,35.51921],[127.95215,35.51961],[127.95294,35.51927],[127.95475,35.51919],[127.9568,35.51792],[127.95986,35.51798],[127.96095,35.51666],[127.96115,35.51511],[127.9601,35.51231],[127.9604,35.51079],[127.9614,35.50912],[127.96204,35.50685],[127.96212,35.5047],[127.96296,35.50415],[127.9623,35.50269],[127.96258,35.50002],[127.96375,35.50013],[127.96433,35.4995],[127.96503,35.49946],[127.96533,35.49898],[127.96748,35.49772],[127.96945,35.4969],[127.97041,35.49682],[127.97296,35.49524],[127.9746,35.49493],[127.97521,35.49164],[127.97497,35.49063],[127.97586,35.48906],[127.9757,35.48835],[127.97656,35.48702],[127.97592,35.48623],[127.9757,35.48361],[127.97477,35.48129],[127.97569,35.47964],[127.97553,35.4788],[127.97463,35.47833],[127.97395,35.47697],[127.97436,35.47528],[127.97634,35.47141],[127.97927,35.46735],[127.97938,35.46681],[127.97907,35.46638],[127.97962,35.46544],[127.97852,35.46342],[127.97829,35.46242],[127.97851,35.46195],[127.98012,35.46007],[127.98179,35.45941],[127.98138,35.45886],[127.9815,35.45856],[127.98328,35.45808],[127.98487,35.45651],[127.98476,35.45516],[127.98413,35.4542],[127.98425,35.45343],[127.98243,35.45251],[127.98165,35.45153],[127.98489,35.45143],[127.98632,35.45102],[127.98702,35.44883],[127.98671,35.4456],[127.99097,35.44265],[127.99226,35.44085],[127.992,35.44039],[127.99393,35.43922],[127.9956,35.43871],[127.99595,35.43751],[127.99572,35.437],[127.99646,35.43625],[127.99703,35.4361],[127.99764,35.43657],[127.99991,35.43599],[128.0018,35.43798],[128.0039,35.43725],[128.00485,35.43629],[128.00537,35.43618],[128.00636,35.43653],[128.0075,35.43613],[128.00833,35.43542],[128.00869,35.43396],[128.00814,35.4316],[128.00933,35.43062],[128.00916,35.42961],[128.00944,35.42864],[128.01131,35.42648],[128.01166,35.42619],[128.01237,35.42659],[128.01452,35.42625],[128.01501,35.42557],[128.01647,35.42596],[128.01878,35.42516],[128.01964,35.42589],[128.02078,35.42613],[128.02194,35.42596],[128.02313,35.42638],[128.02418,35.42553],[128.02408,35.42453],[128.02363,35.42406],[128.02585,35.42102],[128.02692,35.42081],[128.02764,35.41885],[128.02942,35.41792],[128.02936,35.41765],[128.03126,35.41629],[128.03226,35.41644],[128.03471,35.41568],[128.03485,35.41621],[128.03614,35.41595],[128.03912,35.41719],[128.04031,35.41866],[128.04156,35.41933],[128.04204,35.41879],[128.04373,35.41797],[128.04525,35.41578],[128.04765,35.41624],[128.04871,35.41722],[128.04998,35.41749],[128.05151,35.41738],[128.05219,35.418],[128.05303,35.41772],[128.05417,35.41671],[128.05498,35.41461],[128.05601,35.41341],[128.05625,35.41139],[128.05794,35.40966],[128.05814,35.40784],[128.05913,35.40649],[128.05893,35.40606],[128.05922,35.40537],[128.05989,35.40545],[128.06172,35.40467],[128.06245,35.40466],[128.06316,35.40345],[128.06417,35.40348],[128.06607,35.40228],[128.0649,35.39878],[128.06628,35.39722],[128.06623,35.39633],[128.06725,35.39535],[128.06919,35.39447],[128.07196,35.3925],[128.07212,35.38972],[128.07292,35.38896],[128.07564,35.38898],[128.07811,35.3895],[128.08068,35.38909],[128.0816,35.38776],[128.08302,35.38727],[128.0829,35.386],[128.0835,35.38483],[128.08483,35.38345],[128.08624,35.38271],[128.08729,35.38165],[128.08928,35.3812],[128.08833,35.37823],[128.08714,35.37709],[128.08683,35.37536],[128.08488,35.37376],[128.0839,35.37368],[128.0839,35.37339],[128.08337,35.37328],[128.08278,35.37261],[128.08133,35.37198],[128.08024,35.37024],[128.08231,35.36982],[128.08315,35.36883],[128.08449,35.36857],[128.0858,35.36788],[128.08587,35.36725],[128.08747,35.36568],[128.08815,35.36617],[128.09049,35.3663],[128.09322,35.36529],[128.0954,35.36589],[128.09649,35.36683],[128.09722,35.36686],[128.09756,35.36717],[128.09867,35.36714],[128.09982,35.36667],[128.10034,35.36681],[128.10047,35.36718],[128.10112,35.36686],[128.10239,35.36712],[128.1016,35.36417],[128.10091,35.36353],[128.09998,35.36162],[128.09717,35.36121],[128.09537,35.35985],[128.09566,35.3589],[128.09523,35.35821],[128.09536,35.35734],[128.09737,35.35649],[128.09824,35.35579],[128.0981,35.35523],[128.09914,35.3543],[128.09911,35.35351],[128.09753,35.35212],[128.09727,35.35221],[128.09749,35.35209],[128.09623,35.35078],[128.0947,35.35004],[128.09387,35.34883],[128.09208,35.34832],[128.0945,35.34567],[128.09419,35.34489],[128.09489,35.34394],[128.09619,35.34345],[128.09657,35.34268],[128.09649,35.34152],[128.09745,35.34168],[128.09935,35.34089],[128.10081,35.34129],[128.10301,35.34117],[128.10395,35.33951],[128.10585,35.33904],[128.10686,35.33798],[128.10839,35.33779],[128.10944,35.33811],[128.11046,35.33786],[128.11139,35.33595],[128.11337,35.3355],[128.1142,35.3349],[128.1152,35.33284],[128.11449,35.33204],[128.11474,35.33116],[128.11232,35.33168],[128.10878,35.33018],[128.10741,35.33179],[128.10649,35.33166],[128.10624,35.3324],[128.10498,35.33252],[128.10311,35.33333],[128.10213,35.33538],[128.10165,35.33501],[128.09642,35.33491],[128.09294,35.33535],[128.09198,35.336],[128.09,35.3357],[128.08767,35.33624],[128.08538,35.33606],[128.08525,35.33659],[128.08417,35.33663],[128.08277,35.33597],[128.08176,35.33614],[128.08049,35.33704],[128.0781,35.33639],[128.07431,35.33588],[128.07477,35.3345],[128.07412,35.33374],[128.0723,35.33295],[128.07074,35.33303],[128.06893,35.33243],[128.06723,35.33243],[128.06633,35.33327],[128.0652,35.33346],[128.06375,35.33315],[128.06248,35.33347],[128.05862,35.33357],[128.05643,35.32838],[128.05284,35.32453],[128.05109,35.32149],[128.05113,35.31727],[128.05233,35.31269],[128.04941,35.30975],[128.04948,35.30911],[128.04854,35.30799],[128.04728,35.30784],[128.04341,35.30474],[128.04142,35.30385],[128.0355,35.30685],[128.03462,35.30781],[128.03347,35.30731],[128.03231,35.30742],[128.03022,35.30652],[128.02921,35.30653],[128.02608,35.30557],[128.02494,35.30559],[128.02447,35.3052],[128.02138,35.30496],[128.02073,35.30448],[128.02004,35.30446],[128.01884,35.30276],[128.01711,35.30314],[128.01613,35.30284],[128.01519,35.30312],[128.01368,35.30076],[128.01343,35.29962],[128.0127,35.29903],[128.01189,35.2986],[128.01057,35.29858],[128.0099,35.29821],[128.00763,35.29815],[128.00594,35.29741],[128.00506,35.29568],[128.00432,35.29309],[128.00278,35.29129],[128.00149,35.29035],[127.99953,35.29024],[127.99929,35.2894],[127.99802,35.28853],[127.99713,35.28742],[127.996,35.28683],[127.99598,35.28551],[127.9952,35.2852],[127.99167,35.28616],[127.99017,35.28633],[127.98994,35.28603],[127.98955,35.28639],[127.98809,35.28606],[127.98625,35.28691],[127.9853,35.28467],[127.98548,35.28384],[127.98464,35.28289],[127.98433,35.28183],[127.98483,35.28116],[127.98489,35.27958],[127.9863,35.27711],[127.9861,35.27565],[127.98551,35.27521],[127.98536,35.27363],[127.98386,35.27265],[127.98391,35.272],[127.98289,35.27052],[127.98213,35.27074],[127.97995,35.27025],[127.9793,35.27077],[127.97798,35.27056],[127.97745,35.27009],[127.97649,35.27046],[127.97355,35.27003],[127.97311,35.26901],[127.97334,35.26831],[127.97294,35.26755],[127.97305,35.26626],[127.97264,35.26575],[127.97316,35.26179],[127.97266,35.26056],[127.97281,35.25936],[127.97233,35.25906],[127.97198,35.25777],[127.97236,35.25629],[127.97198,35.25558],[127.97172,35.25252],[127.97217,35.25118],[127.9714,35.25009],[127.97027,35.25129],[127.96973,35.25133],[127.969,35.24862],[127.96725,35.24685],[127.96444,35.24587],[127.96217,35.24568],[127.95666,35.24429],[127.95324,35.24259],[127.95142,35.24203],[127.95009,35.24171],[127.94757,35.24165],[127.9459,35.24435],[127.9445,35.24529],[127.94241,35.24546],[127.94257,35.24578],[127.94167,35.2472],[127.94099,35.24764],[127.93885,35.24807],[127.93812,35.2496],[127.93656,35.24905],[127.93449,35.25027],[127.93184,35.25066],[127.92869,35.25033],[127.92554,35.24938],[127.92433,35.24933],[127.92328,35.25023],[127.92291,35.25238],[127.92197,35.25216],[127.92092,35.25233],[127.92004,35.25195],[127.91933,35.25118],[127.91924,35.24905],[127.91834,35.24892],[127.91799,35.24772],[127.91756,35.2483],[127.91662,35.2483],[127.9164,35.24725],[127.91579,35.2469],[127.91526,35.24549],[127.91472,35.24503],[127.91269,35.2444],[127.91356,35.24323],[127.91196,35.24073],[127.91131,35.24025],[127.91158,35.23929],[127.9111,35.23881],[127.91194,35.23754],[127.91142,35.23621],[127.91165,35.23528],[127.91055,35.23279],[127.91071,35.23106],[127.91034,35.22994],[127.91079,35.22953],[127.91097,35.22751],[127.91034,35.22705],[127.91004,35.22539],[127.91029,35.2252],[127.90868,35.22353],[127.90723,35.22367],[127.90607,35.22274],[127.90555,35.22259],[127.90397,35.22305],[127.90203,35.22413],[127.90155,35.22525],[127.89939,35.22657],[127.89927,35.22742],[127.89816,35.22752],[127.89546,35.2262],[127.89487,35.22604],[127.89409,35.22629],[127.89322,35.22576],[127.89238,35.22603],[127.89214,35.22724],[127.89127,35.22612],[127.89068,35.22598],[127.89032,35.2265],[127.88986,35.22753],[127.89027,35.22787],[127.88993,35.2312],[127.89021,35.23299],[127.88782,35.23762],[127.88917,35.24006],[127.89311,35.25044],[127.89197,35.25034],[127.89206,35.2511],[127.89004,35.2509],[127.88875,35.25035],[127.88782,35.25037],[127.88697,35.24995],[127.88652,35.24924],[127.88444,35.25052],[127.88296,35.25071],[127.88226,35.25043],[127.88049,35.25127],[127.87574,35.25131],[127.87447,35.25094],[127.87465,35.25366],[127.87541,35.25472],[127.87582,35.25663],[127.87497,35.2577],[127.87329,35.2587],[127.86916,35.26005],[127.86516,35.25858]]]]},"properties":{"id":"SGG:48860","layer":"L3","admin_code":"48860","name":"경상남도 산청군","sido":"경상남도","sgg":"산청군","provisional":false,"source":"통계청 행정동 경계(BND_ADM_DONG_PG, 2025-06-30) 를 시군구로 합침","source_kind":"derived","derived_from":"행정동 경계 union · 20 m 단순화"}}]}