{"type":"FeatureCollection","features":[{"type":"Feature","id":"SGG:12810","geometry":{"type":"MultiPolygon","coordinates":[[[[126.36789,34.99107],[126.36793,34.98944],[126.36657,34.98668],[126.36584,34.98603],[126.36626,34.98342],[126.366,34.98218],[126.36549,34.98169],[126.36585,34.98062],[126.36641,34.98043],[126.36656,34.97981],[126.3662,34.98003],[126.36619,34.97997],[126.369,34.97765],[126.3701,34.97482],[126.36974,34.97478],[126.36959,34.97528],[126.36822,34.97478],[126.36801,34.9741],[126.36697,34.9731],[126.36434,34.9719],[126.36113,34.97212],[126.3599,34.97034],[126.35921,34.96858],[126.35924,34.968],[126.36081,34.967],[126.36131,34.96619],[126.36114,34.9651],[126.36034,34.96371],[126.35973,34.96347],[126.35965,34.96263],[126.36061,34.96206],[126.36101,34.96239],[126.36284,34.96278],[126.36348,34.96353],[126.36334,34.96307],[126.36403,34.9631],[126.36347,34.96293],[126.36695,34.96327],[126.36825,34.96292],[126.37046,34.96072],[126.37161,34.95865],[126.37397,34.9571],[126.37492,34.95711],[126.37556,34.95767],[126.37554,34.95674],[126.37528,34.95672],[126.37661,34.95587],[126.37739,34.95502],[126.37523,34.95664],[126.37352,34.95597],[126.37234,34.95506],[126.37144,34.95385],[126.37104,34.95251],[126.371,34.9504],[126.37201,34.94884],[126.37163,34.9476],[126.37059,34.94775],[126.36948,34.94737],[126.36695,34.94593],[126.36588,34.94492],[126.36555,34.94251],[126.36782,34.94239],[126.36938,34.94188],[126.37108,34.94176],[126.37082,34.94144],[126.37153,34.94125],[126.37359,34.9416],[126.37395,34.94066],[126.37358,34.93941],[126.36888,34.93671],[126.36896,34.93574],[126.36845,34.93408],[126.36633,34.9326],[126.36622,34.92973],[126.36654,34.92971],[126.36653,34.93025],[126.36699,34.92946],[126.36679,34.92749],[126.36727,34.92645],[126.36949,34.92497],[126.37038,34.92473],[126.37088,34.92494],[126.37124,34.92417],[126.37262,34.9242],[126.37093,34.92387],[126.37022,34.92402],[126.36878,34.92279],[126.36819,34.92142],[126.36866,34.91999],[126.36841,34.9197],[126.3667,34.92036],[126.36447,34.92005],[126.36435,34.91967],[126.36398,34.91961],[126.36323,34.92039],[126.36147,34.92032],[126.3607,34.92111],[126.35929,34.92181],[126.35933,34.9221],[126.35688,34.92179],[126.353,34.9223],[126.35115,34.92095],[126.3515,34.91897],[126.35098,34.91781],[126.35102,34.91699],[126.35021,34.91671],[126.34941,34.91692],[126.34948,34.91726],[126.3457,34.91595],[126.34343,34.91489],[126.34362,34.91403],[126.34221,34.91517],[126.33916,34.91582],[126.33891,34.91583],[126.33871,34.9152],[126.33906,34.91499],[126.33784,34.91508],[126.33802,34.9156],[126.33658,34.91651],[126.33472,34.91689],[126.3327,34.91705],[126.33093,34.91685],[126.32922,34.91596],[126.32879,34.91645],[126.32881,34.91863],[126.32921,34.91974],[126.32995,34.91993],[126.32776,34.92493],[126.32809,34.92553],[126.32983,34.92601],[126.32973,34.92713],[126.32931,34.92776],[126.32957,34.92829],[126.32633,34.93066],[126.32563,34.93051],[126.3248,34.93089],[126.32209,34.93058],[126.32225,34.92959],[126.3218,34.92858],[126.32067,34.92967],[126.31993,34.9318],[126.31926,34.93214],[126.31724,34.93184],[126.31529,34.92982],[126.31317,34.92856],[126.31299,34.92758],[126.31145,34.92653],[126.30976,34.92704],[126.30937,34.92756],[126.30778,34.92832],[126.30669,34.92813],[126.30628,34.92722],[126.30598,34.92952],[126.30627,34.93034],[126.30566,34.93184],[126.30558,34.93319],[126.30468,34.93376],[126.30461,34.93455],[126.3051,34.93485],[126.30568,34.93457],[126.30633,34.93352],[126.30773,34.93341],[126.30819,34.933],[126.31013,34.93364],[126.31064,34.93498],[126.31111,34.93513],[126.31043,34.93545],[126.3116,34.93625],[126.31553,34.93694],[126.31644,34.93744],[126.31696,34.93814],[126.3169,34.941],[126.31766,34.94101],[126.31772,34.94157],[126.32134,34.94356],[126.32032,34.94443],[126.31433,34.9468],[126.31206,34.94691],[126.31121,34.94774],[126.30975,34.94834],[126.30841,34.94959],[126.30858,34.95227],[126.30737,34.95342],[126.30665,34.95475],[126.30638,34.95538],[126.30664,34.95597],[126.3016,34.95746],[126.30145,34.95727],[126.30132,34.95756],[126.30105,34.95719],[126.30049,34.95735],[126.30064,34.95941],[126.2991,34.96],[126.29806,34.96121],[126.29622,34.96062],[126.29754,34.96129],[126.29688,34.96318],[126.29487,34.96528],[126.29597,34.9671],[126.29575,34.96916],[126.29723,34.97117],[126.29818,34.9736],[126.29508,34.97367],[126.29796,34.97375],[126.29798,34.97436],[126.29733,34.97478],[126.29727,34.97568],[126.29758,34.97634],[126.29856,34.97694],[126.29908,34.97706],[126.30061,34.9764],[126.30385,34.9771],[126.3037,34.97778],[126.30413,34.97877],[126.30394,34.98009],[126.30462,34.98084],[126.30521,34.98241],[126.30486,34.98358],[126.3051,34.98438],[126.30476,34.9851],[126.30601,34.98641],[126.30707,34.98631],[126.3083,34.98545],[126.31004,34.98553],[126.31116,34.98629],[126.31213,34.98759],[126.31349,34.9884],[126.31377,34.98591],[126.31272,34.98477],[126.31809,34.9813],[126.31909,34.98086],[126.32001,34.98114],[126.31916,34.98076],[126.31918,34.98032],[126.32084,34.97648],[126.32106,34.97319],[126.322,34.97191],[126.32474,34.97238],[126.32494,34.97294],[126.32541,34.9722],[126.3265,34.97168],[126.32707,34.97024],[126.32622,34.9688],[126.32666,34.96747],[126.32726,34.96694],[126.3283,34.96681],[126.33024,34.96712],[126.33184,34.96931],[126.33187,34.96982],[126.33586,34.97182],[126.33843,34.97252],[126.34221,34.97217],[126.34278,34.97187],[126.34403,34.97248],[126.34553,34.97364],[126.34518,34.97393],[126.34586,34.97454],[126.34541,34.97517],[126.34604,34.9747],[126.34791,34.97595],[126.34895,34.97728],[126.34947,34.97964],[126.35059,34.98198],[126.35171,34.98318],[126.35551,34.98467],[126.35696,34.98443],[126.35705,34.98397],[126.35663,34.98345],[126.35733,34.9836],[126.35807,34.9843],[126.3593,34.98677],[126.3579,34.98963],[126.3587,34.99287],[126.35708,34.99335],[126.35493,34.9926],[126.3527,34.99341],[126.35077,34.99544],[126.34795,34.9951],[126.34483,34.99538],[126.34334,34.99576],[126.34312,34.99637],[126.34072,34.99742],[126.33896,34.99726],[126.33594,34.99514],[126.33498,34.99383],[126.33622,34.99238],[126.33489,34.99371],[126.33455,34.9932],[126.33448,34.99265],[126.33477,34.9925],[126.33434,34.99127],[126.33374,34.99145],[126.33299,34.99282],[126.332,34.99284],[126.33197,34.99303],[126.33294,34.99297],[126.3329,34.99325],[126.33239,34.99338],[126.33411,34.995],[126.34134,34.99886],[126.34099,35.0007],[126.34141,34.99935],[126.3426,34.99963],[126.3446,35.00077],[126.345,35.00194],[126.35127,35.00453],[126.34839,35.0066],[126.35145,35.00464],[126.35209,35.00481],[126.3619,35.00915],[126.36587,35.0114],[126.37307,35.01615],[126.37137,35.0206],[126.37136,35.02194],[126.37089,35.02208],[126.37191,35.02201],[126.37142,35.02063],[126.37311,35.01636],[126.37959,35.01969],[126.37868,35.02065],[126.37981,35.01962],[126.38127,35.02018],[126.38182,35.02018],[126.38174,35.01993],[126.38398,35.0212],[126.3843,35.02191],[126.38391,35.02276],[126.3855,35.02378],[126.38773,35.02415],[126.38923,35.02391],[126.39026,35.02431],[126.39007,35.02506],[126.39055,35.02601],[126.39077,35.02929],[126.39051,35.03208],[126.38793,35.03861],[126.3819,35.04763],[126.38198,35.04841],[126.38084,35.04943],[126.38028,35.04882],[126.38038,35.04846],[126.37953,35.04862],[126.37935,35.04704],[126.37946,35.04863],[126.3769,35.0474],[126.37597,35.04654],[126.37552,35.04573],[126.37557,35.04475],[126.37491,35.04429],[126.37411,35.04466],[126.37408,35.04521],[126.37301,35.04639],[126.37292,35.04703],[126.37109,35.0475],[126.36861,35.04681],[126.36824,35.04619],[126.36813,35.0465],[126.36688,35.04595],[126.36564,35.04479],[126.36564,35.04408],[126.36542,35.04465],[126.36395,35.04391],[126.36269,35.04369],[126.36335,35.04374],[126.36289,35.04328],[126.36304,35.04271],[126.3626,35.04356],[126.36109,35.04286],[126.35785,35.04261],[126.35681,35.04204],[126.3576,35.03935],[126.35802,35.04059],[126.35817,35.04017],[126.35767,35.03912],[126.35799,35.03925],[126.35708,35.03838],[126.35305,35.0386],[126.35229,35.0391],[126.35012,35.04202],[126.3492,35.04461],[126.34818,35.0453],[126.34772,35.04668],[126.34797,35.04825],[126.34684,35.0508],[126.34686,35.05165],[126.34733,35.05144],[126.34812,35.0517],[126.34931,35.05129],[126.35129,35.05154],[126.35277,35.05273],[126.35162,35.05296],[126.35046,35.05529],[126.34995,35.05538],[126.35024,35.05556],[126.34945,35.05571],[126.3498,35.05573],[126.349,35.05696],[126.34733,35.05823],[126.34566,35.05895],[126.33933,35.06049],[126.33583,35.06058],[126.3352,35.06026],[126.33514,35.05899],[126.33447,35.05898],[126.33336,35.05941],[126.33296,35.06069],[126.33117,35.0619],[126.33366,35.06315],[126.33413,35.063],[126.33422,35.06191],[126.3352,35.06173],[126.33677,35.06207],[126.33959,35.06325],[126.34347,35.06726],[126.34452,35.06944],[126.34469,35.07076],[126.34446,35.07118],[126.34323,35.07076],[126.34431,35.07124],[126.34413,35.07197],[126.33978,35.07639],[126.33862,35.07814],[126.33794,35.08113],[126.33727,35.08256],[126.3354,35.08481],[126.33388,35.08591],[126.33362,35.08756],[126.33268,35.08797],[126.3323,35.08742],[126.33268,35.08819],[126.32767,35.08904],[126.32736,35.08931],[126.32657,35.08926],[126.32722,35.08914],[126.32696,35.0889],[126.32592,35.08936],[126.32171,35.08929],[126.32026,35.08868],[126.31992,35.08878],[126.31987,35.08853],[126.31958,35.08884],[126.31638,35.08712],[126.31622,35.08667],[126.31705,35.08543],[126.31704,35.08475],[126.31558,35.08361],[126.3167,35.07948],[126.31766,35.07947],[126.31793,35.07843],[126.31699,35.07781],[126.31577,35.07781],[126.31133,35.07572],[126.3119,35.0735],[126.31389,35.07215],[126.31576,35.07165],[126.31646,35.07054],[126.31445,35.06951],[126.31403,35.06832],[126.31248,35.06701],[126.3117,35.06761],[126.31094,35.06777],[126.30884,35.0674],[126.30738,35.06674],[126.30519,35.06643],[126.30362,35.0648],[126.30243,35.06416],[126.30193,35.06246],[126.30061,35.06193],[126.30058,35.0621],[126.30041,35.06209],[126.30035,35.06093],[126.30142,35.05968],[126.3029,35.05971],[126.30543,35.05902],[126.3094,35.05955],[126.31279,35.05857],[126.31378,35.05746],[126.31456,35.05501],[126.31427,35.05403],[126.3127,35.05303],[126.31269,35.0527],[126.31204,35.05256],[126.3122,35.05212],[126.31196,35.05201],[126.31198,35.05254],[126.30975,35.05098],[126.30734,35.04977],[126.30548,35.04722],[126.30601,35.04671],[126.30553,35.04686],[126.30516,35.04654],[126.30482,35.04548],[126.30418,35.04553],[126.30258,35.04439],[126.29813,35.04221],[126.29594,35.04159],[126.29921,35.04329],[126.30082,35.04455],[126.30203,35.04594],[126.302,35.04684],[126.30146,35.04711],[126.30111,35.04801],[126.29851,35.04897],[126.29714,35.04894],[126.29649,35.04977],[126.29707,35.04925],[126.29721,35.04921],[126.29647,35.04986],[126.29422,35.05022],[126.29374,35.04984],[126.29098,35.04934],[126.29139,35.04994],[126.29433,35.05155],[126.29578,35.05295],[126.29586,35.05476],[126.29178,35.0574],[126.29154,35.05979],[126.28826,35.06085],[126.28735,35.06064],[126.28725,35.06019],[126.28727,35.06067],[126.28554,35.06208],[126.28386,35.06183],[126.28258,35.06218],[126.28169,35.06181],[126.28075,35.06027],[126.28135,35.05941],[126.28119,35.05752],[126.28026,35.05698],[126.27981,35.0561],[126.27779,35.05469],[126.27458,35.05367],[126.27339,35.05358],[126.27321,35.05295],[126.27319,35.05364],[126.27182,35.05441],[126.27022,35.05481],[126.26782,35.05297],[126.26725,35.05284],[126.26619,35.05284],[126.26423,35.05414],[126.26183,35.05364],[126.26202,35.05848],[126.26147,35.06431],[126.26098,35.06548],[126.257,35.06932],[126.24959,35.07383],[126.24669,35.07486],[126.24514,35.076],[126.24459,35.07713],[126.2444,35.07973],[126.24485,35.08496],[126.24531,35.08594],[126.24766,35.08859],[126.24894,35.09152],[126.24918,35.09422],[126.24828,35.09711],[126.25091,35.09672],[126.25356,35.10162],[126.25588,35.10186],[126.25774,35.10133],[126.25896,35.10067],[126.25794,35.09939],[126.25748,35.09795],[126.25935,35.09704],[126.25782,35.09399],[126.25849,35.09375],[126.25921,35.09395],[126.2594,35.09331],[126.25974,35.09318],[126.25998,35.09482],[126.26277,35.09593],[126.26197,35.09953],[126.26149,35.09945],[126.26109,35.09981],[126.26199,35.1013],[126.26193,35.10205],[126.26143,35.10219],[126.26085,35.10292],[126.26016,35.10433],[126.25243,35.10694],[126.25168,35.10789],[126.24921,35.10856],[126.24862,35.11099],[126.24354,35.11156],[126.2422,35.11125],[126.24112,35.10975],[126.24202,35.11123],[126.24213,35.11271],[126.24457,35.11445],[126.24562,35.11574],[126.24505,35.11657],[126.24483,35.11769],[126.24632,35.11859],[126.24694,35.11943],[126.24635,35.12094],[126.24658,35.12162],[126.24776,35.12289],[126.24793,35.12388],[126.24999,35.12617],[126.24988,35.12669],[126.25111,35.12866],[126.25314,35.13043],[126.25352,35.13156],[126.25199,35.13277],[126.25199,35.13331],[126.25304,35.13425],[126.25519,35.13439],[126.25573,35.13379],[126.25928,35.13522],[126.25927,35.13596],[126.25791,35.13723],[126.25681,35.13727],[126.25612,35.13736],[126.25403,35.13887],[126.25282,35.13851],[126.25258,35.13861],[126.2539,35.13894],[126.2544,35.13959],[126.25461,35.13923],[126.25433,35.13886],[126.25589,35.13754],[126.25806,35.13724],[126.25763,35.13785],[126.25664,35.13834],[126.25639,35.1389],[126.25689,35.1396],[126.25647,35.14003],[126.25869,35.14257],[126.25909,35.1429],[126.25967,35.1427],[126.26017,35.14324],[126.25985,35.14283],[126.26043,35.14304],[126.26161,35.14414],[126.26149,35.14456],[126.26236,35.14522],[126.26385,35.14579],[126.26429,35.14545],[126.26583,35.1455],[126.2665,35.14504],[126.26657,35.14447],[126.26718,35.1444],[126.2682,35.14472],[126.26902,35.14604],[126.26933,35.14609],[126.27048,35.14496],[126.27067,35.14543],[126.27091,35.14506],[126.27148,35.1453],[126.27226,35.14598],[126.27121,35.14698],[126.27082,35.14803],[126.27058,35.14897],[126.27106,35.15012],[126.273,35.15013],[126.27449,35.15095],[126.27482,35.15095],[126.2742,35.15056],[126.2743,35.14997],[126.27365,35.14854],[126.27454,35.14762],[126.27471,35.14677],[126.27585,35.14704],[126.2747,35.14668],[126.27378,35.14572],[126.27642,35.14306],[126.27832,35.14233],[126.27817,35.13974],[126.27854,35.13899],[126.27959,35.13848],[126.27803,35.13651],[126.27897,35.1357],[126.28125,35.13478],[126.28468,35.1344],[126.28424,35.13485],[126.28653,35.13477],[126.29072,35.13598],[126.29215,35.13697],[126.2923,35.13909],[126.29052,35.13982],[126.29034,35.14019],[126.28945,35.14026],[126.29033,35.14024],[126.29069,35.14096],[126.29177,35.14142],[126.29213,35.1407],[126.29201,35.13973],[126.29454,35.13928],[126.29466,35.13864],[126.29581,35.13853],[126.29673,35.13773],[126.30112,35.13871],[126.3023,35.13831],[126.30741,35.1377],[126.30838,35.13693],[126.30897,35.13725],[126.30834,35.1366],[126.30858,35.13556],[126.3115,35.13493],[126.30994,35.13494],[126.30871,35.13537],[126.30769,35.13497],[126.30853,35.13265],[126.3058,35.13171],[126.30793,35.12754],[126.30991,35.12792],[126.3108,35.12881],[126.31116,35.12834],[126.32062,35.12748],[126.322,35.12857],[126.32133,35.13059],[126.32495,35.13311],[126.32715,35.13539],[126.32971,35.13914],[126.32969,35.13959],[126.33091,35.14153],[126.3311,35.14263],[126.32969,35.14496],[126.32573,35.14614],[126.32536,35.14699],[126.32599,35.148],[126.3255,35.14855],[126.326,35.14959],[126.32739,35.1507],[126.32836,35.15065],[126.32976,35.15124],[126.3302,35.14998],[126.33,35.14867],[126.3317,35.14893],[126.33229,35.14986],[126.33304,35.14927],[126.33411,35.14933],[126.33539,35.15007],[126.34146,35.15508],[126.34425,35.15783],[126.34478,35.15901],[126.3458,35.15973],[126.34666,35.15946],[126.34785,35.15759],[126.3483,35.1575],[126.34746,35.15732],[126.3465,35.15657],[126.34675,35.15632],[126.34639,35.1565],[126.34549,35.15567],[126.34545,35.15511],[126.34585,35.15507],[126.34569,35.15401],[126.34653,35.15398],[126.34715,35.15505],[126.34737,35.15497],[126.34667,35.1538],[126.34529,35.15364],[126.34462,35.15086],[126.34568,35.14756],[126.3449,35.14483],[126.34463,35.14078],[126.34524,35.13969],[126.34602,35.13911],[126.3466,35.13908],[126.34684,35.13871],[126.34651,35.13716],[126.34565,35.13619],[126.34529,35.13491],[126.34435,35.13358],[126.34446,35.13324],[126.34339,35.13242],[126.34415,35.13202],[126.34276,35.13227],[126.34098,35.13055],[126.34109,35.12928],[126.34263,35.1288],[126.34276,35.12853],[126.34248,35.12807],[126.34132,35.12762],[126.34061,35.12697],[126.34048,35.12573],[126.33989,35.12519],[126.33847,35.12244],[126.33863,35.12145],[126.33963,35.12141],[126.34055,35.12101],[126.34108,35.12035],[126.34007,35.12013],[126.33928,35.11896],[126.34039,35.12014],[126.34109,35.12032],[126.34147,35.12017],[126.34043,35.12009],[126.33934,35.1189],[126.33769,35.11812],[126.33711,35.11741],[126.33585,35.11708],[126.33459,35.11599],[126.33185,35.11538],[126.33104,35.11489],[126.33332,35.11309],[126.33308,35.11109],[126.3324,35.10989],[126.33067,35.10967],[126.32963,35.10915],[126.32967,35.10815],[126.3317,35.10477],[126.33383,35.10479],[126.33511,35.10305],[126.33668,35.10258],[126.33695,35.10339],[126.33674,35.10257],[126.33758,35.10231],[126.33711,35.10237],[126.33718,35.10202],[126.33674,35.10215],[126.33704,35.1024],[126.3355,35.10284],[126.33515,35.10266],[126.33539,35.10231],[126.33489,35.10159],[126.33516,35.09992],[126.33495,35.09943],[126.33549,35.0975],[126.33508,35.09701],[126.33268,35.09658],[126.33118,35.09482],[126.33194,35.09325],[126.33343,35.09279],[126.33473,35.09156],[126.33825,35.09194],[126.34212,35.09153],[126.34355,35.09179],[126.34458,35.09303],[126.34637,35.09404],[126.34862,35.09383],[126.34957,35.09478],[126.34984,35.09654],[126.34962,35.09724],[126.35021,35.09872],[126.35,35.09963],[126.3515,35.10026],[126.35333,35.09975],[126.35288,35.09922],[126.35329,35.09787],[126.35276,35.09766],[126.35253,35.09718],[126.35114,35.09656],[126.3506,35.09557],[126.35064,35.09247],[126.352,35.0895],[126.35205,35.08847],[126.35037,35.08591],[126.35034,35.08526],[126.3499,35.08597],[126.35021,35.08599],[126.35018,35.08664],[126.34978,35.08693],[126.34911,35.0868],[126.34987,35.08703],[126.34927,35.08829],[126.34768,35.08779],[126.34661,35.08793],[126.34656,35.08822],[126.34522,35.08809],[126.34512,35.08692],[126.34454,35.0865],[126.34373,35.0867],[126.34245,35.0864],[126.34297,35.0842],[126.34542,35.08312],[126.3443,35.08055],[126.34494,35.07909],[126.3445,35.07801],[126.34455,35.07668],[126.34543,35.07551],[126.34843,35.07539],[126.34972,35.07608],[126.34957,35.07649],[126.35005,35.07627],[126.3501,35.07662],[126.34958,35.07663],[126.35008,35.07675],[126.35031,35.07764],[126.35029,35.07948],[126.35301,35.07888],[126.35395,35.07799],[126.35652,35.0765],[126.35759,35.07523],[126.35736,35.07524],[126.35862,35.0749],[126.36098,35.07494],[126.36216,35.07545],[126.36245,35.07626],[126.36151,35.07786],[126.36195,35.07842],[126.36266,35.07866],[126.36273,35.07923],[126.36402,35.07947],[126.36519,35.0786],[126.3662,35.07852],[126.36762,35.07735],[126.36791,35.07751],[126.36777,35.07698],[126.36485,35.07596],[126.36387,35.07483],[126.36574,35.07271],[126.36745,35.07165],[126.3675,35.07025],[126.36718,35.06951],[126.36726,35.06778],[126.36683,35.06666],[126.36703,35.06776],[126.36498,35.06508],[126.3668,35.064],[126.36712,35.06265],[126.37057,35.06178],[126.37209,35.06219],[126.37173,35.06215],[126.3726,35.06293],[126.37283,35.06352],[126.37256,35.06355],[126.37366,35.0638],[126.37435,35.06454],[126.37441,35.06482],[126.37342,35.06425],[126.37402,35.06521],[126.37434,35.06486],[126.37405,35.06526],[126.37467,35.0663],[126.37487,35.06716],[126.37468,35.06676],[126.3745,35.06692],[126.37492,35.06726],[126.37511,35.06828],[126.3748,35.06794],[126.37487,35.06829],[126.37608,35.06954],[126.37612,35.07002],[126.37573,35.07015],[126.37617,35.07018],[126.37581,35.07034],[126.3766,35.0707],[126.37751,35.07175],[126.37738,35.07336],[126.37754,35.07222],[126.37788,35.07227],[126.38295,35.0776],[126.38198,35.08001],[126.38068,35.08144],[126.38063,35.08213],[126.38105,35.08211],[126.38123,35.08251],[126.38164,35.08234],[126.38722,35.08515],[126.38814,35.08637],[126.38707,35.08712],[126.38902,35.08656],[126.38945,35.08614],[126.3906,35.08636],[126.39125,35.08583],[126.3928,35.08647],[126.39162,35.08581],[126.39129,35.08509],[126.39124,35.08406],[126.3916,35.08342],[126.39327,35.08293],[126.39513,35.08308],[126.39497,35.08277],[126.39424,35.08259],[126.39009,35.08262],[126.38935,35.08202],[126.38888,35.08068],[126.38663,35.07892],[126.38674,35.07818],[126.38739,35.07776],[126.38752,35.07631],[126.38686,35.07559],[126.38594,35.07599],[126.38516,35.0749],[126.38675,35.0727],[126.38589,35.07209],[126.38607,35.0713],[126.38559,35.07179],[126.38503,35.07149],[126.38508,35.07048],[126.38399,35.07035],[126.38384,35.06887],[126.38437,35.06665],[126.38497,35.06603],[126.38539,35.06632],[126.38483,35.06575],[126.38614,35.06586],[126.38693,35.06554],[126.38742,35.06585],[126.38853,35.06572],[126.39059,35.06457],[126.39083,35.06473],[126.39206,35.0662],[126.39156,35.06621],[126.39215,35.06629],[126.39151,35.06631],[126.39191,35.06644],[126.39252,35.06878],[126.39256,35.07168],[126.3941,35.07267],[126.3948,35.0737],[126.39494,35.07341],[126.39534,35.07352],[126.39553,35.07395],[126.39517,35.07438],[126.39571,35.07475],[126.39569,35.07552],[126.39671,35.07604],[126.39847,35.07529],[126.39968,35.07322],[126.40059,35.07235],[126.40104,35.07273],[126.40093,35.07236],[126.40409,35.07095],[126.40459,35.06855],[126.40412,35.06911],[126.40495,35.06736],[126.40431,35.06822],[126.40576,35.06562],[126.40496,35.06621],[126.40396,35.06858],[126.40373,35.06805],[126.40264,35.06724],[126.4027,35.06592],[126.40411,35.06541],[126.40533,35.06444],[126.40558,35.06464],[126.40639,35.06432],[126.40633,35.0646],[126.40767,35.06388],[126.40551,35.06435],[126.40653,35.06348],[126.40691,35.06136],[126.40799,35.06224],[126.40857,35.06255],[126.40772,35.06295],[126.4077,35.06352],[126.40732,35.06369],[126.40774,35.06364],[126.4077,35.06384],[126.40792,35.06296],[126.41057,35.0622],[126.41192,35.06166],[126.41024,35.06168],[126.41008,35.06183],[126.41058,35.06175],[126.41075,35.06204],[126.40866,35.06252],[126.40687,35.06126],[126.40691,35.06008],[126.40565,35.05762],[126.40496,35.0571],[126.4007,35.05549],[126.39832,35.05258],[126.39882,35.05257],[126.39891,35.05221],[126.40014,35.05163],[126.40269,35.05112],[126.40256,35.05042],[126.40166,35.04983],[126.39965,35.0494],[126.39717,35.04834],[126.39454,35.04809],[126.39413,35.0482],[126.39424,35.04843],[126.39271,35.04855],[126.39363,35.04777],[126.3934,35.04698],[126.3917,35.04546],[126.39048,35.04317],[126.39314,35.04148],[126.39513,35.04121],[126.39505,35.04164],[126.39528,35.04136],[126.39518,35.04169],[126.39537,35.04144],[126.39672,35.04257],[126.39638,35.04285],[126.39691,35.04262],[126.3982,35.04359],[126.40133,35.04329],[126.40135,35.04246],[126.40086,35.04168],[126.40147,35.03606],[126.40078,35.03535],[126.40113,35.03634],[126.40051,35.03531],[126.39917,35.03464],[126.39857,35.03296],[126.40001,35.03139],[126.40062,35.03126],[126.40135,35.0296],[126.40222,35.02864],[126.40148,35.02937],[126.4017,35.02893],[126.40334,35.02708],[126.40254,35.02657],[126.40452,35.02735],[126.40554,35.02732],[126.40602,35.02795],[126.40526,35.02786],[126.40798,35.02884],[126.41111,35.02934],[126.41175,35.02928],[126.4118,35.0289],[126.41324,35.02818],[126.41548,35.02766],[126.41498,35.02748],[126.4167,35.02683],[126.41662,35.02661],[126.41761,35.0265],[126.41777,35.02675],[126.42132,35.02759],[126.42216,35.02738],[126.42368,35.0277],[126.42486,35.02762],[126.42695,35.02718],[126.4275,35.02742],[126.42642,35.02853],[126.42658,35.02978],[126.42564,35.03075],[126.42541,35.03173],[126.42417,35.03252],[126.42443,35.03213],[126.4242,35.03225],[126.42343,35.03381],[126.42265,35.03381],[126.42335,35.03412],[126.42291,35.0359],[126.42135,35.03672],[126.42013,35.03833],[126.41936,35.03825],[126.41829,35.03971],[126.41805,35.039],[126.41836,35.03867],[126.41798,35.03891],[126.41785,35.03818],[126.41761,35.03823],[126.41818,35.03979],[126.41768,35.03932],[126.41776,35.03983],[126.41846,35.04138],[126.41806,35.04064],[126.41813,35.04102],[126.41905,35.04263],[126.42012,35.0437],[126.41965,35.04329],[126.41965,35.04355],[126.42092,35.04471],[126.42149,35.04541],[126.41967,35.0438],[126.41976,35.04422],[126.42197,35.04662],[126.42206,35.04717],[126.42258,35.04709],[126.42292,35.0477],[126.42241,35.04775],[126.42333,35.04789],[126.42295,35.04794],[126.42583,35.04967],[126.43004,35.05143],[126.43092,35.05249],[126.43134,35.05246],[126.43142,35.05189],[126.43196,35.05187],[126.4362,35.05347],[126.44058,35.05609],[126.44249,35.05785],[126.4437,35.05845],[126.44447,35.05918],[126.44463,35.06015],[126.44504,35.06024],[126.44742,35.06337],[126.44731,35.06464],[126.4479,35.06466],[126.45072,35.0692],[126.45029,35.07008],[126.44943,35.07026],[126.45117,35.07008],[126.45189,35.07163],[126.45164,35.07219],[126.45296,35.07275],[126.45297,35.07309],[126.45337,35.07216],[126.45658,35.07374],[126.45756,35.07399],[126.45782,35.07369],[126.45862,35.07379],[126.45874,35.0734],[126.45992,35.07321],[126.4635,35.07109],[126.4639,35.07141],[126.46468,35.07131],[126.46569,35.06975],[126.46686,35.06986],[126.46776,35.06918],[126.46816,35.06841],[126.46897,35.06808],[126.4691,35.067],[126.47113,35.06639],[126.47244,35.06644],[126.47328,35.06677],[126.47428,35.06641],[126.47493,35.06517],[126.47571,35.06528],[126.47979,35.06466],[126.47981,35.06433],[126.47861,35.06458],[126.47894,35.06418],[126.47882,35.06374],[126.47974,35.06254],[126.4797,35.06148],[126.47619,35.0598],[126.47486,35.05759],[126.47447,35.05551],[126.47287,35.05351],[126.47275,35.05283],[126.47099,35.05295],[126.47027,35.05147],[126.4696,35.05107],[126.46553,35.04597],[126.46456,35.04377],[126.46463,35.04277],[126.46424,35.04222],[126.46346,35.04196],[126.46419,35.04002],[126.46396,35.03933],[126.46484,35.0385],[126.46496,35.03794],[126.4641,35.03378],[126.46451,35.03238],[126.46403,35.03122],[126.46546,35.03045],[126.4665,35.02912],[126.46836,35.02801],[126.46837,35.02753],[126.46752,35.02786],[126.46688,35.02768],[126.46665,35.02698],[126.46688,35.02534],[126.46636,35.02482],[126.47009,35.02155],[126.47167,35.02137],[126.47296,35.02257],[126.47434,35.02249],[126.47513,35.0239],[126.47698,35.02486],[126.47817,35.02629],[126.4804,35.02683],[126.48146,35.02419],[126.48105,35.02284],[126.48231,35.02193],[126.48263,35.02027],[126.48213,35.01918],[126.48353,35.01718],[126.48557,35.01879],[126.4876,35.0182],[126.49079,35.01627],[126.49103,35.01663],[126.49173,35.01678],[126.49183,35.01622],[126.49354,35.01779],[126.49669,35.01807],[126.4974,35.01773],[126.4986,35.01589],[126.49967,35.01554],[126.50046,35.01489],[126.50062,35.01404],[126.49984,35.01403],[126.50011,35.01373],[126.50005,35.01259],[126.49895,35.01107],[126.4986,35.00904],[126.49787,35.0079],[126.49831,35.00681],[126.49867,35.007],[126.49896,35.00661],[126.50067,35.00606],[126.50049,35.00533],[126.49928,35.00422],[126.49774,35.00448],[126.49631,35.00306],[126.49289,35.00237],[126.49084,35.00157],[126.49061,35.00093],[126.49252,34.99999],[126.49266,34.99953],[126.49152,34.99885],[126.49336,34.99693],[126.49346,34.99604],[126.49455,34.9951],[126.49463,34.99452],[126.4954,34.99359],[126.4964,34.99272],[126.49758,34.99256],[126.49849,34.99143],[126.49832,34.99036],[126.49982,34.98877],[126.49924,34.98742],[126.4999,34.98557],[126.50304,34.98589],[126.50538,34.98574],[126.50641,34.98601],[126.50763,34.98679],[126.50795,34.98872],[126.50925,34.98973],[126.51018,34.99021],[126.51201,34.99014],[126.51246,34.98996],[126.51268,34.98863],[126.51365,34.98719],[126.51508,34.9861],[126.51583,34.98593],[126.51774,34.98326],[126.51833,34.9835],[126.52137,34.98291],[126.52495,34.98334],[126.52548,34.98275],[126.52635,34.9824],[126.52679,34.98134],[126.52866,34.98124],[126.52988,34.98041],[126.53057,34.9794],[126.53287,34.97783],[126.5345,34.97799],[126.53525,34.9775],[126.53741,34.97738],[126.53892,34.97619],[126.53888,34.97538],[126.54118,34.97503],[126.53955,34.97018],[126.53756,34.96705],[126.53552,34.9623],[126.53598,34.96238],[126.53071,34.95438],[126.52916,34.94964],[126.53128,34.94082],[126.53664,34.93245],[126.54163,34.92721],[126.54263,34.92353],[126.54241,34.91992],[126.54107,34.91826],[126.53798,34.91782],[126.53572,34.91801],[126.53392,34.91989],[126.53021,34.92545],[126.52481,34.9287],[126.52196,34.9288],[126.51937,34.9286],[126.51468,34.92576],[126.51388,34.92421],[126.51331,34.92078],[126.51396,34.9186],[126.52216,34.90903],[126.52577,34.90415],[126.53323,34.89592],[126.53375,34.89667],[126.53459,34.89583],[126.5348,34.89594],[126.54554,34.88693],[126.5504,34.87993],[126.55553,34.87001],[126.55649,34.86915],[126.557,34.86905],[126.55327,34.86246],[126.55265,34.85444],[126.54796,34.82722],[126.54564,34.81908],[126.54307,34.81287],[126.5394,34.80915],[126.53266,34.80311],[126.52779,34.80131],[126.52296,34.79891],[126.52106,34.7975],[126.51928,34.79562],[126.5189,34.7945],[126.52021,34.79024],[126.52042,34.78808],[126.51776,34.77963],[126.51657,34.77811],[126.5165,34.7767],[126.51336,34.77262],[126.50851,34.76929],[126.50565,34.76857],[126.49797,34.76871],[126.4946,34.76936],[126.4924,34.77013],[126.48415,34.77811],[126.47571,34.78382],[126.46843,34.78987],[126.46342,34.79222],[126.45834,34.79337],[126.45825,34.80596],[126.45898,34.80598],[126.45942,34.80635],[126.45942,34.80858],[126.45859,34.80853],[126.45797,34.80815],[126.45758,34.81082],[126.45511,34.81081],[126.45508,34.81475],[126.45461,34.81474],[126.45493,34.81508],[126.45483,34.81679],[126.45438,34.81763],[126.45305,34.81848],[126.44928,34.8192],[126.44889,34.81881],[126.44546,34.82007],[126.4448,34.81985],[126.44213,34.82004],[126.44024,34.82097],[126.43841,34.82119],[126.43736,34.82437],[126.43811,34.82527],[126.4382,34.82619],[126.43903,34.8278],[126.43879,34.82946],[126.43929,34.83039],[126.43873,34.83152],[126.43925,34.83224],[126.43879,34.8331],[126.43905,34.83409],[126.43806,34.83522],[126.43786,34.83598],[126.43685,34.8364],[126.43611,34.8375],[126.43437,34.83818],[126.43308,34.83763],[126.43226,34.83812],[126.43024,34.83829],[126.42795,34.83784],[126.42511,34.83885],[126.42529,34.83913],[126.42506,34.83882],[126.42367,34.84058],[126.42284,34.84245],[126.42135,34.84223],[126.42113,34.84089],[126.42004,34.8414],[126.41976,34.84192],[126.41991,34.8438],[126.41922,34.84436],[126.41729,34.844],[126.41235,34.84384],[126.41224,34.84568],[126.41158,34.84549],[126.41059,34.84593],[126.41003,34.84577],[126.40919,34.84623],[126.40844,34.84623],[126.40909,34.84636],[126.40881,34.84733],[126.40686,34.84774],[126.40615,34.84738],[126.40482,34.84826],[126.40478,34.84907],[126.40579,34.8494],[126.40646,34.85009],[126.40723,34.85206],[126.40609,34.85376],[126.40549,34.85725],[126.4042,34.85755],[126.40344,34.8572],[126.40283,34.85711],[126.40405,34.85758],[126.40344,34.8577],[126.40172,34.86102],[126.40221,34.86218],[126.40335,34.86301],[126.40361,34.86428],[126.40215,34.86519],[126.40134,34.86508],[126.40065,34.86414],[126.3983,34.86532],[126.39841,34.86621],[126.39751,34.86634],[126.39597,34.86741],[126.3957,34.86828],[126.39524,34.86819],[126.39558,34.86836],[126.39504,34.86941],[126.39436,34.86919],[126.39521,34.86985],[126.39558,34.87341],[126.39657,34.87364],[126.39771,34.87438],[126.39908,34.87705],[126.40183,34.87864],[126.40207,34.87947],[126.40098,34.88065],[126.39449,34.88213],[126.39393,34.88198],[126.39227,34.88235],[126.39211,34.88268],[126.39171,34.88253],[126.39108,34.88135],[126.38958,34.87981],[126.38886,34.87796],[126.38769,34.87725],[126.3868,34.87782],[126.38638,34.88018],[126.3864,34.88238],[126.38816,34.88253],[126.38981,34.88405],[126.3904,34.88502],[126.39015,34.8861],[126.38934,34.88734],[126.38991,34.88904],[126.38932,34.88967],[126.38973,34.89023],[126.39106,34.89097],[126.39281,34.89328],[126.39156,34.89399],[126.39302,34.89362],[126.39382,34.89495],[126.3938,34.89556],[126.39305,34.89587],[126.39199,34.89433],[126.39163,34.89442],[126.39199,34.8945],[126.39302,34.89601],[126.39275,34.89648],[126.39294,34.89711],[126.39088,34.89996],[126.3913,34.8998],[126.39199,34.90024],[126.39393,34.89927],[126.39532,34.89906],[126.39566,34.89847],[126.39658,34.89839],[126.39698,34.89804],[126.39758,34.89816],[126.39817,34.89889],[126.40016,34.90003],[126.40088,34.90123],[126.40028,34.90234],[126.40117,34.90262],[126.4032,34.90459],[126.4032,34.90524],[126.40262,34.90613],[126.40408,34.90784],[126.40506,34.91061],[126.40466,34.91195],[126.40141,34.91133],[126.40467,34.91204],[126.40376,34.91412],[126.40381,34.91474],[126.40316,34.91521],[126.40171,34.91555],[126.39974,34.91723],[126.39835,34.91555],[126.39716,34.91481],[126.39837,34.91565],[126.39965,34.91726],[126.39945,34.9175],[126.39979,34.91756],[126.39944,34.91756],[126.39929,34.91816],[126.39752,34.91873],[126.3954,34.91861],[126.39356,34.91968],[126.39114,34.9223],[126.39132,34.92283],[126.39044,34.92717],[126.38977,34.92747],[126.38911,34.92697],[126.3875,34.92668],[126.38748,34.92692],[126.38886,34.92702],[126.38971,34.92754],[126.38864,34.92822],[126.38766,34.92777],[126.38721,34.92715],[126.38755,34.92783],[126.38841,34.92827],[126.38969,34.92818],[126.39046,34.92917],[126.39227,34.93039],[126.39439,34.93103],[126.39812,34.9348],[126.39776,34.93509],[126.39852,34.93524],[126.39727,34.9372],[126.39645,34.93571],[126.39167,34.93568],[126.39168,34.93908],[126.38936,34.94075],[126.38893,34.94072],[126.38929,34.9409],[126.38928,34.94192],[126.38873,34.94463],[126.38783,34.94695],[126.38819,34.94876],[126.38926,34.94988],[126.38991,34.95244],[126.38959,34.95326],[126.38993,34.95458],[126.39036,34.95503],[126.39191,34.95547],[126.3946,34.96209],[126.39225,34.96291],[126.39377,34.96252],[126.39296,34.9641],[126.39396,34.96335],[126.39358,34.96426],[126.39322,34.96439],[126.3935,34.96495],[126.39051,34.96709],[126.38998,34.9669],[126.39039,34.96683],[126.39012,34.96664],[126.38975,34.96658],[126.38995,34.96689],[126.3895,34.96677],[126.38965,34.96638],[126.39014,34.96623],[126.3896,34.96632],[126.38922,34.96722],[126.38852,34.96763],[126.38305,34.96856],[126.38199,34.96933],[126.38088,34.97094],[126.38036,34.97121],[126.3801,34.97073],[126.3795,34.97121],[126.37915,34.97198],[126.37941,34.97435],[126.37929,34.9739],[126.37907,34.97645],[126.37945,34.97845],[126.38049,34.97998],[126.37963,34.98266],[126.38012,34.98613],[126.38067,34.98746],[126.37724,34.9895],[126.37438,34.98911],[126.37404,34.98824],[126.37427,34.98914],[126.37351,34.98991],[126.37377,34.99103],[126.37462,34.99174],[126.3741,34.99294],[126.37434,34.99556],[126.37408,34.99562],[126.37448,34.99634],[126.37356,34.99749],[126.37366,34.99891],[126.37219,34.99942],[126.37206,34.9988],[126.3711,34.99797],[126.37073,34.99804],[126.37122,34.99775],[126.37036,34.99654],[126.36778,34.99553],[126.36813,34.99505],[126.36736,34.99434],[126.36683,34.99297],[126.36723,34.99298],[126.36754,34.99249],[126.36789,34.99107]]],[[[126.4197,35.03778],[126.41964,35.03749],[126.42159,35.03548],[126.42154,35.03527],[126.41925,35.03741],[126.41954,35.03772],[126.41922,35.0381],[126.4197,35.03778]]],[[[126.40316,34.85461],[126.40341,34.85513],[126.40381,34.85514],[126.40347,34.85457],[126.40316,34.85461]]],[[[126.40136,35.08131],[126.40137,35.08],[126.40054,35.07943],[126.39992,35.07819],[126.4002,35.08039],[126.40101,35.08117],[126.40136,35.08131]]],[[[126.40041,35.04367],[126.40042,35.04359],[126.40039,35.04366],[126.40041,35.04367]]],[[[126.40021,35.0434],[126.39995,35.04351],[126.40021,35.04344],[126.40021,35.0434]]],[[[126.39739,35.08352],[126.39796,35.08275],[126.39768,35.08227],[126.39733,35.08216],[126.39673,35.08273],[126.39677,35.08339],[126.39739,35.08352]]],[[[126.3981,34.8595],[126.39947,34.85706],[126.39774,34.85644],[126.39659,34.85797],[126.39623,34.8598],[126.39679,34.86016],[126.3981,34.8595]]],[[[126.39523,35.04197],[126.39135,35.0434],[126.39218,35.04551],[126.39459,35.0446],[126.39557,35.04388],[126.39589,35.04336],[126.39523,35.04197]]],[[[126.39325,34.85939],[126.3933,34.86081],[126.39354,34.86097],[126.3941,34.86041],[126.39432,34.85952],[126.39325,34.85939]]],[[[126.38752,35.08569],[126.38741,35.08576],[126.38758,35.08572],[126.38752,35.08569]]],[[[126.38671,35.08574],[126.38674,35.08577],[126.38676,35.08575],[126.38671,35.08574]]],[[[126.38665,35.08613],[126.38666,35.08609],[126.38663,35.08611],[126.38665,35.08613]]],[[[126.38698,35.02907],[126.38664,35.02886],[126.3863,35.02912],[126.38659,35.02938],[126.38698,35.02907]]],[[[126.38771,34.88711],[126.38801,34.88665],[126.38755,34.88648],[126.38799,34.88624],[126.38656,34.8861],[126.38545,34.8855],[126.38555,34.88501],[126.38518,34.88586],[126.38542,34.88658],[126.38625,34.88704],[126.38771,34.88711]]],[[[126.38635,35.08623],[126.38614,35.08631],[126.38633,35.08627],[126.38635,35.08623]]],[[[126.38623,35.08594],[126.38628,35.08597],[126.38629,35.08596],[126.38623,35.08594]]],[[[126.38532,35.08435],[126.38528,35.08447],[126.3854,35.08437],[126.38532,35.08435]]],[[[126.3842,34.92147],[126.38492,34.92079],[126.38253,34.92099],[126.38153,34.92063],[126.38435,34.9225],[126.38472,34.92211],[126.3842,34.92147]]],[[[126.38311,35.09066],[126.38316,35.09068],[126.38314,35.09065],[126.38311,35.09066]]],[[[126.38312,35.09086],[126.38303,35.09094],[126.38315,35.09089],[126.38312,35.09086]]],[[[126.38246,35.09177],[126.38303,35.09097],[126.38265,35.09092],[126.38253,35.09027],[126.38124,35.0913],[126.38167,35.0917],[126.38198,35.09147],[126.38246,35.09177]]],[[[126.38279,35.09145],[126.38285,35.09145],[126.38285,35.09143],[126.38279,35.09145]]],[[[126.38277,35.09143],[126.3828,35.09143],[126.38282,35.09141],[126.38277,35.09143]]],[[[126.38055,34.85776],[126.38002,34.85821],[126.37976,34.85946],[126.38004,34.86014],[126.37971,34.86309],[126.37998,34.86364],[126.38074,34.864],[126.38195,34.86354],[126.38234,34.86251],[126.38245,34.85921],[126.38207,34.85812],[126.38163,34.85778],[126.38055,34.85776]]],[[[126.37861,34.95927],[126.37694,34.95807],[126.3768,34.95849],[126.37764,34.95964],[126.3798,34.95972],[126.37861,34.95927]]],[[[126.37647,35.09718],[126.37642,35.09726],[126.37649,35.09725],[126.37647,35.09718]]],[[[126.3746,35.09765],[126.37634,35.09728],[126.37577,35.09624],[126.37456,35.0967],[126.37407,35.09728],[126.3746,35.09765]]],[[[126.37566,34.90962],[126.37508,34.90943],[126.37464,34.90966],[126.37602,34.91106],[126.37643,34.91057],[126.37566,34.90962]]],[[[126.37444,35.02442],[126.37352,35.02446],[126.373,35.02408],[126.37242,35.02499],[126.37464,35.02867],[126.37437,35.02677],[126.37485,35.02569],[126.37444,35.02442]]],[[[126.37402,34.94283],[126.37407,34.9423],[126.37369,34.94179],[126.37349,34.94203],[126.37402,34.94283]]],[[[126.37228,34.90744],[126.37187,34.90744],[126.37186,34.90769],[126.37227,34.90777],[126.37228,34.90744]]],[[[126.37167,34.91974],[126.37142,34.91965],[126.37078,34.91986],[126.37132,34.92015],[126.37167,34.91974]]],[[[126.36987,34.97462],[126.37073,34.97329],[126.37077,34.97298],[126.37031,34.97357],[126.36964,34.97377],[126.37003,34.9738],[126.36987,34.97462]]],[[[126.36951,34.97373],[126.36948,34.97368],[126.36874,34.97353],[126.36862,34.97358],[126.36951,34.97373]]],[[[126.36832,34.97359],[126.36777,34.97349],[126.36763,34.97351],[126.36832,34.97359]]],[[[126.35178,35.10537],[126.35145,35.10453],[126.35087,35.1045],[126.35093,35.1049],[126.35178,35.10537]]],[[[126.35065,35.10026],[126.35076,35.10019],[126.35058,35.10018],[126.35065,35.10026]]],[[[126.33833,35.16544],[126.33831,35.16531],[126.33825,35.16536],[126.33833,35.16544]]],[[[126.33698,35.16716],[126.33777,35.16638],[126.33783,35.16569],[126.33825,35.16528],[126.33744,35.16466],[126.3372,35.16289],[126.3367,35.16256],[126.3354,35.16299],[126.3347,35.16461],[126.33589,35.16609],[126.33623,35.16715],[126.33698,35.16716]]],[[[126.33562,35.16182],[126.33548,35.16187],[126.33549,35.1619],[126.33562,35.16182]]],[[[126.33555,35.16265],[126.33481,35.1625],[126.33529,35.16298],[126.33555,35.16265]]],[[[126.33531,35.16198],[126.33518,35.16182],[126.335,35.16192],[126.33531,35.16198]]],[[[126.33369,35.0767],[126.33333,35.07721],[126.33386,35.07686],[126.33369,35.0767]]],[[[126.33202,35.00575],[126.33185,35.00573],[126.33203,35.00581],[126.33202,35.00575]]],[[[126.33174,35.00586],[126.33177,35.00587],[126.33177,35.00585],[126.33174,35.00586]]],[[[126.3291,35.02065],[126.32911,35.02068],[126.32914,35.02066],[126.3291,35.02065]]],[[[126.32892,35.02047],[126.32888,35.02059],[126.32895,35.02059],[126.32892,35.02047]]],[[[126.32891,35.02094],[126.32888,35.021],[126.32896,35.02098],[126.32891,35.02094]]],[[[126.32539,35.00739],[126.32516,35.00722],[126.32485,35.0071],[126.32479,35.00754],[126.32539,35.00739]]],[[[126.32231,34.92273],[126.32402,34.92316],[126.32481,34.92345],[126.32541,34.92351],[126.32568,34.92327],[126.32529,34.92271],[126.32231,34.92273]]],[[[126.32204,34.92439],[126.32463,34.92507],[126.32513,34.92351],[126.32474,34.92346],[126.3227,34.92288],[126.32204,34.92439]]],[[[126.3168,35.01506],[126.317,35.01471],[126.31884,35.01404],[126.31931,35.01345],[126.31818,35.01262],[126.31705,35.01093],[126.31758,35.00943],[126.3186,35.00845],[126.31793,35.00767],[126.31809,35.00698],[126.31795,35.00613],[126.31777,35.00704],[126.31673,35.00683],[126.31647,35.00651],[126.3176,35.00578],[126.3179,35.00605],[126.31764,35.00576],[126.31934,35.0047],[126.31894,35.0042],[126.31879,35.00497],[126.31637,35.00651],[126.31583,35.00607],[126.31508,35.00453],[126.31454,35.00031],[126.31439,35.0],[126.31392,34.99998],[126.31324,35.00182],[126.31349,35.00275],[126.31295,35.00319],[126.31277,35.00394],[126.313,35.00489],[126.31228,35.00543],[126.31143,35.00739],[126.31201,35.00807],[126.31294,35.00805],[126.31351,35.00856],[126.3137,35.00972],[126.31414,35.0099],[126.31387,35.01109],[126.31278,35.01283],[126.31213,35.01317],[126.31082,35.01291],[126.31043,35.01328],[126.31046,35.01383],[126.31106,35.01449],[126.31159,35.01426],[126.31479,35.01462],[126.31617,35.01538],[126.31642,35.01499],[126.3168,35.01506]]],[[[126.31442,35.0176],[126.31452,35.01796],[126.31482,35.01796],[126.31442,35.0176]]],[[[126.31326,35.04229],[126.3128,35.04268],[126.31411,35.04283],[126.31391,35.04224],[126.31326,35.04229]]],[[[126.30206,34.92789],[126.30246,34.92778],[126.30218,34.92745],[126.30199,34.92756],[126.30206,34.92789]]],[[[126.27237,35.04963],[126.27224,35.04986],[126.27248,35.0501],[126.27283,35.04969],[126.27237,35.04963]]],[[[126.247,35.1262],[126.2468,35.12661],[126.24689,35.12668],[126.247,35.1262]]]]},"properties":{"id":"SGG:12810","layer":"L3","admin_code":"12810","name":"전남광주통합특별시 무안군","sido":"전남광주통합특별시","sgg":"무안군","provisional":false,"source":"통계청 행정동 경계(BND_ADM_DONG_PG, 2025-06-30) 를 시군구로 합침","source_kind":"derived","derived_from":"행정동 경계 union · 20 m 단순화"}}]}