{"type":"FeatureCollection","features":[{"type":"Feature","id":"FLD:12750:274:3804","geometry":{"type":"MultiPolygon","coordinates":[[[[127.141439,34.818265],[127.141583,34.818347],[127.141649,34.818399],[127.141655,34.818423],[127.141659,34.818488],[127.141623,34.818605],[127.141626,34.818637],[127.141611,34.818752],[127.141635,34.818806],[127.141678,34.818793],[127.141733,34.818801],[127.14178,34.818801],[127.141812,34.81883],[127.14183,34.818855],[127.141856,34.81887],[127.141879,34.818878],[127.141806,34.819003],[127.141725,34.819085],[127.141656,34.819111],[127.141635,34.819089],[127.141543,34.819146],[127.1416,34.819224],[127.141553,34.819283],[127.141484,34.819314],[127.141439,34.819335],[127.141389,34.819346],[127.141309,34.819363],[127.141244,34.81937],[127.141151,34.819366],[127.141088,34.819353],[127.141083,34.819344],[127.141021,34.819166],[127.140981,34.819175],[127.140963,34.819183],[127.140931,34.819107],[127.141044,34.819035],[127.141275,34.818951],[127.141296,34.818914],[127.14132,34.818849],[127.141358,34.818796],[127.141381,34.818711],[127.141515,34.818572],[127.141563,34.818604],[127.141592,34.818593],[127.141556,34.818477],[127.141508,34.818472],[127.141309,34.818513],[127.141285,34.818483],[127.141255,34.818357],[127.141439,34.818265]]]]},"properties":{"id":"FLD:12750:274:3804","layer":"FLOOD_TRACE","admin_code":"12750","sido_code":"46","flood_year":"2014","occurred_at":"2014-08-02","ended_at":"2014-08-03","begin_time":"1400","end_time":"1000","disaster_name":"2014년 집중호우","cause_detail":"집중호우","flood_grade":2,"flood_depth_m":1.734,"flood_area_m2":35828.828,"source_sn":274,"data_status":"actual","official_data":true,"is_prediction":false,"source":"행정안전부 침수흔적도 · 재난안전데이터공유플랫폼 DSSP-IF-00117","collected_at":"2026-08-19T16:46:51+09:00","source_crs":"EPSG:3857","display_badges":["행안부 침수흔적도","과거 기록"]}},{"type":"Feature","id":"FLD:12750:275:3805","geometry":{"type":"MultiPolygon","coordinates":[[[[127.141889,34.818869],[127.141879,34.818878],[127.141856,34.81887],[127.14183,34.818855],[127.141812,34.81883],[127.14178,34.818801],[127.141733,34.818801],[127.141678,34.818793],[127.141635,34.818806],[127.141615,34.818761],[127.14165,34.818745],[127.141673,34.818734],[127.141693,34.818732],[127.141708,34.81873],[127.141735,34.818677],[127.141786,34.8185],[127.141778,34.818462],[127.141758,34.818362],[127.141749,34.818338],[127.14175,34.818308],[127.141665,34.818205],[127.141649,34.818185],[127.141519,34.818041],[127.141491,34.818009],[127.141416,34.817866],[127.141416,34.817738],[127.141416,34.817694],[127.141451,34.817525],[127.141474,34.817344],[127.141668,34.817626],[127.141792,34.817786],[127.141844,34.817949],[127.141907,34.81823],[127.141923,34.818267],[127.141919,34.818297],[127.14195,34.818405],[127.141866,34.818426],[127.141814,34.818499],[127.141836,34.818736],[127.141841,34.818758],[127.141852,34.818793],[127.141872,34.818839],[127.141876,34.818845],[127.141889,34.818869]]]]},"properties":{"id":"FLD:12750:275:3805","layer":"FLOOD_TRACE","admin_code":"12750","sido_code":"46","flood_year":"2014","occurred_at":"2014-08-02","ended_at":"2014-08-03","begin_time":"1400","end_time":"1000","disaster_name":"2014년 집중호우","cause_detail":"집중호우","flood_grade":5,"flood_depth_m":2.829,"flood_area_m2":35828.828,"source_sn":275,"data_status":"actual","official_data":true,"is_prediction":false,"source":"행정안전부 침수흔적도 · 재난안전데이터공유플랫폼 DSSP-IF-00117","collected_at":"2026-08-19T16:46:51+09:00","source_crs":"EPSG:3857","display_badges":["행안부 침수흔적도","과거 기록"]}},{"type":"Feature","id":"FLD:12750:276:4946","geometry":{"type":"MultiPolygon","coordinates":[[[[127.149582,34.829878],[127.149565,34.829838],[127.149401,34.829719],[127.149867,34.829585],[127.150577,34.829322],[127.150881,34.82917],[127.151103,34.829044],[127.151134,34.829032],[127.151166,34.82902],[127.15124,34.829081],[127.151548,34.829328],[127.151308,34.829456],[127.151071,34.829603],[127.151019,34.829654],[127.150966,34.829738],[127.150731,34.829717],[127.150617,34.829715],[127.150556,34.829714],[127.150452,34.829708],[127.150409,34.829721],[127.150449,34.82982],[127.150417,34.829831],[127.150393,34.829764],[127.150375,34.829757],[127.150323,34.829747],[127.150295,34.829749],[127.150281,34.829753],[127.150261,34.829767],[127.150246,34.829788],[127.150222,34.829829],[127.150166,34.829909],[127.150016,34.829845],[127.149993,34.829831],[127.149945,34.829845],[127.149908,34.829863],[127.149868,34.829889],[127.149856,34.829846],[127.149791,34.829854],[127.14977,34.829854],[127.149677,34.829853],[127.149582,34.829878]]]]},"properties":{"id":"FLD:12750:276:4946","layer":"FLOOD_TRACE","admin_code":"12750","sido_code":"46","flood_year":"2014","occurred_at":"2014-08-02","ended_at":"2014-08-03","begin_time":"1400","end_time":"1000","disaster_name":"2014년  집중호우","cause_detail":"집중호우","flood_grade":3,"flood_depth_m":1.088,"flood_area_m2":9832.229,"source_sn":276,"data_status":"actual","official_data":true,"is_prediction":false,"source":"행정안전부 침수흔적도 · 재난안전데이터공유플랫폼 DSSP-IF-00117","collected_at":"2026-08-19T16:46:51+09:00","source_crs":"EPSG:3857","display_badges":["행안부 침수흔적도","과거 기록"]}},{"type":"Feature","id":"FLD:12750:273:4958","geometry":{"type":"MultiPolygon","coordinates":[[[[127.149582,34.829878],[127.149677,34.829853],[127.14977,34.829854],[127.149791,34.829854],[127.149856,34.829846],[127.149868,34.829889],[127.149908,34.829863],[127.149945,34.829845],[127.149993,34.829831],[127.150016,34.829845],[127.150166,34.829909],[127.150222,34.829829],[127.150246,34.829788],[127.150261,34.829767],[127.150281,34.829753],[127.150295,34.829749],[127.150323,34.829747],[127.150375,34.829757],[127.150393,34.829764],[127.150417,34.829831],[127.150449,34.82982],[127.150409,34.829721],[127.150452,34.829708],[127.150556,34.829714],[127.150617,34.829715],[127.150628,34.82973],[127.15067,34.829774],[127.150677,34.829803],[127.150684,34.829832],[127.150658,34.829877],[127.150632,34.82991],[127.150528,34.829899],[127.150476,34.829877],[127.150445,34.829924],[127.150439,34.829942],[127.150413,34.82995],[127.150373,34.829955],[127.150302,34.82997],[127.15026,34.829992],[127.150226,34.83005],[127.150194,34.830067],[127.150156,34.830016],[127.150139,34.83002],[127.150114,34.830041],[127.150028,34.830197],[127.149968,34.830242],[127.14995,34.830263],[127.149731,34.830034],[127.149582,34.829878]]]]},"properties":{"id":"FLD:12750:273:4958","layer":"FLOOD_TRACE","admin_code":"12750","sido_code":"46","flood_year":"2014","occurred_at":"2014-08-02","ended_at":"2014-08-03","begin_time":"1400","end_time":"1000","disaster_name":"2014년  집중호우","cause_detail":"집중호우","flood_grade":2,"flood_depth_m":0.882,"flood_area_m2":9832.229,"source_sn":273,"data_status":"actual","official_data":true,"is_prediction":false,"source":"행정안전부 침수흔적도 · 재난안전데이터공유플랫폼 DSSP-IF-00117","collected_at":"2026-08-19T16:46:51+09:00","source_crs":"EPSG:3857","display_badges":["행안부 침수흔적도","과거 기록"]}},{"type":"Feature","id":"FLD:12750:277:4959","geometry":{"type":"MultiPolygon","coordinates":[[[[127.141041,34.818193],[127.141041,34.818187],[127.14104,34.818056],[127.141019,34.817993],[127.141007,34.817957],[127.140987,34.81789],[127.140974,34.817859],[127.140914,34.817649],[127.140801,34.817127],[127.140895,34.817195],[127.140988,34.817222],[127.141309,34.817269],[127.141442,34.817152],[127.141493,34.817139],[127.141581,34.817049],[127.141662,34.817],[127.141779,34.816961],[127.141914,34.816868],[127.142008,34.816716],[127.142047,34.816601],[127.142107,34.816507],[127.142153,34.816434],[127.142216,34.81628],[127.142272,34.816152],[127.142281,34.816132],[127.142329,34.815961],[127.142335,34.815938],[127.142406,34.815783],[127.142422,34.815738],[127.14245,34.815659],[127.142544,34.815489],[127.142602,34.815376],[127.142626,34.815246],[127.142632,34.815105],[127.142632,34.815093],[127.142686,34.814991],[127.142724,34.814885],[127.142756,34.814794],[127.142784,34.814795],[127.142905,34.814817],[127.143078,34.8148],[127.143211,34.814801],[127.143256,34.81479],[127.143297,34.814772],[127.143331,34.814766],[127.143295,34.81493],[127.143287,34.814963],[127.143234,34.815173],[127.143191,34.815317],[127.143149,34.815461],[127.143144,34.815476],[127.143088,34.815634],[127.143083,34.815649],[127.143077,34.815657],[127.142963,34.81588],[127.1429,34.81613],[127.142892,34.81614],[127.142836,34.816284],[127.14283,34.816301],[127.142742,34.816373],[127.142675,34.81655],[127.142694,34.81665],[127.142652,34.816738],[127.142346,34.817531],[127.142342,34.81754],[127.142291,34.817677],[127.142245,34.817785],[127.142169,34.81801],[127.142143,34.81811],[127.142124,34.818197],[127.142114,34.818238],[127.142113,34.818241],[127.142096,34.818309],[127.142094,34.818321],[127.142072,34.818426],[127.142066,34.818468],[127.14202,34.818472],[127.141983,34.81843],[127.14195,34.818405],[127.141919,34.818297],[127.141923,34.818267],[127.141907,34.81823],[127.141844,34.817949],[127.141792,34.817786],[127.141668,34.817626],[127.141474,34.817344],[127.141451,34.817525],[127.141416,34.817694],[127.141416,34.817738],[127.141416,34.817866],[127.141491,34.818009],[127.141519,34.818041],[127.141649,34.818185],[127.141665,34.818205],[127.14175,34.818308],[127.141749,34.818338],[127.141758,34.818362],[127.141786,34.8185],[127.141735,34.818677],[127.141708,34.81873],[127.141693,34.818732],[127.141673,34.818734],[127.14165,34.818745],[127.141615,34.818761],[127.141611,34.818752],[127.141626,34.818637],[127.141623,34.818605],[127.141625,34.818598],[127.141659,34.818488],[127.141655,34.818423],[127.141649,34.818399],[127.141583,34.818347],[127.141439,34.818265],[127.141456,34.818252],[127.141378,34.818185],[127.14133,34.818181],[127.141264,34.818176],[127.141066,34.818195],[127.141041,34.818193]]]]},"properties":{"id":"FLD:12750:277:4959","layer":"FLOOD_TRACE","admin_code":"12750","sido_code":"46","flood_year":"2014","occurred_at":"2014-08-02","ended_at":"2014-08-03","begin_time":"1400","end_time":"1000","disaster_name":"2014년 집중호우","cause_detail":"집중호우","flood_grade":3,"flood_depth_m":1.367,"flood_area_m2":35828.828,"source_sn":277,"data_status":"actual","official_data":true,"is_prediction":false,"source":"행정안전부 침수흔적도 · 재난안전데이터공유플랫폼 DSSP-IF-00117","collected_at":"2026-08-19T16:46:51+09:00","source_crs":"EPSG:3857","display_badges":["행안부 침수흔적도","과거 기록"]}},{"type":"Feature","id":"FLD:12750:326:8201","geometry":{"type":"MultiPolygon","coordinates":[[[[127.088704,34.765253],[127.088714,34.765423],[127.088792,34.766337],[127.088827,34.766742],[127.088725,34.767052],[127.088577,34.767392],[127.088451,34.767394],[127.087647,34.767143],[127.087458,34.767116],[127.086638,34.767022],[127.086494,34.766665],[127.08748,34.765922],[127.088193,34.765473],[127.088265,34.765412],[127.088676,34.765239],[127.088704,34.765253]]]]},"properties":{"id":"FLD:12750:326:8201","layer":"FLOOD_TRACE","admin_code":"12750","sido_code":"46","flood_year":"2018","occurred_at":"2018-07-01","ended_at":"2018-07-01","begin_time":"0400","end_time":"1100","disaster_name":"2018년 국지성 집중호우","cause_detail":"집중호우에 의한 하천범람","flood_grade":1,"flood_depth_m":0.392,"flood_area_m2":32103.221,"source_sn":326,"data_status":"actual","official_data":true,"is_prediction":false,"source":"행정안전부 침수흔적도 · 재난안전데이터공유플랫폼 DSSP-IF-00117","collected_at":"2026-08-19T16:46:51+09:00","source_crs":"EPSG:3857","display_badges":["행안부 침수흔적도","과거 기록"]}},{"type":"Feature","id":"FLD:12750:328:8202","geometry":{"type":"MultiPolygon","coordinates":[[[[127.089503,34.768255],[127.089416,34.768375],[127.089538,34.768537],[127.08975,34.768483],[127.090249,34.768647],[127.091182,34.769263],[127.090793,34.769211],[127.09023,34.769057],[127.089445,34.768722],[127.089023,34.768274],[127.088825,34.767972],[127.089197,34.768013],[127.089508,34.7681],[127.089503,34.768255]]]]},"properties":{"id":"FLD:12750:328:8202","layer":"FLOOD_TRACE","admin_code":"12750","sido_code":"46","flood_year":"2018","occurred_at":"2018-07-01","ended_at":"2018-07-01","begin_time":"0400","end_time":"1100","disaster_name":"2018년 국지성 집중호우","cause_detail":"집중호우에 의한 하천범람","flood_grade":2,"flood_depth_m":0.545,"flood_area_m2":29410.504,"source_sn":328,"data_status":"actual","official_data":true,"is_prediction":false,"source":"행정안전부 침수흔적도 · 재난안전데이터공유플랫폼 DSSP-IF-00117","collected_at":"2026-08-19T16:46:51+09:00","source_crs":"EPSG:3857","display_badges":["행안부 침수흔적도","과거 기록"]}},{"type":"Feature","id":"FLD:12750:330:8203","geometry":{"type":"MultiPolygon","coordinates":[[[[127.092563,34.76902],[127.093404,34.769584],[127.092183,34.769372],[127.091951,34.769312],[127.091182,34.769263],[127.090249,34.768647],[127.090519,34.768625],[127.09078,34.768426],[127.090931,34.768464],[127.091191,34.768536],[127.092682,34.768941],[127.092563,34.76902]]]]},"properties":{"id":"FLD:12750:330:8203","layer":"FLOOD_TRACE","admin_code":"12750","sido_code":"46","flood_year":"2018","occurred_at":"2018-07-01","ended_at":"2018-07-01","begin_time":"0400","end_time":"1100","disaster_name":"2018년 국지성 집중호우","cause_detail":"집중호우에 의한 하천범람","flood_grade":2,"flood_depth_m":0.524,"flood_area_m2":29410.504,"source_sn":330,"data_status":"actual","official_data":true,"is_prediction":false,"source":"행정안전부 침수흔적도 · 재난안전데이터공유플랫폼 DSSP-IF-00117","collected_at":"2026-08-19T16:46:51+09:00","source_crs":"EPSG:3857","display_badges":["행안부 침수흔적도","과거 기록"]}},{"type":"Feature","id":"FLD:12750:323:8914","geometry":{"type":"MultiPolygon","coordinates":[[[[127.088676,34.765239],[127.088624,34.765023],[127.088587,34.765002],[127.088142,34.764667],[127.087678,34.764364],[127.087139,34.764097],[127.086757,34.763889],[127.086397,34.763764],[127.086363,34.763834],[127.08621,34.763782],[127.08627,34.763687],[127.086287,34.763687],[127.086502,34.763751],[127.086957,34.763919],[127.087342,34.764085],[127.088191,34.764593],[127.088533,34.764829],[127.08864,34.765007],[127.088704,34.765253],[127.088676,34.765239]]]]},"properties":{"id":"FLD:12750:323:8914","layer":"FLOOD_TRACE","admin_code":"12750","sido_code":"46","flood_year":"2018","occurred_at":"2018-07-01","ended_at":"2018-07-01","begin_time":"0400","end_time":"1100","disaster_name":"2018년 국지성 집중호우","cause_detail":"집중호우에 의한 하천범람","flood_grade":2,"flood_depth_m":0.921,"flood_area_m2":32103.221,"source_sn":323,"data_status":"actual","official_data":true,"is_prediction":false,"source":"행정안전부 침수흔적도 · 재난안전데이터공유플랫폼 DSSP-IF-00117","collected_at":"2026-08-19T16:46:51+09:00","source_crs":"EPSG:3857","display_badges":["행안부 침수흔적도","과거 기록"]}},{"type":"Feature","id":"FLD:12750:327:8915","geometry":{"type":"MultiPolygon","coordinates":[[[[127.086364,34.767205],[127.086595,34.767271],[127.088387,34.767707],[127.088669,34.768328],[127.088647,34.768506],[127.088969,34.768818],[127.089153,34.768924],[127.08963,34.769205],[127.089816,34.769276],[127.090917,34.769562],[127.091893,34.769671],[127.092789,34.76978],[127.093037,34.769906],[127.093959,34.770165],[127.094429,34.770809],[127.093374,34.770649],[127.0929,34.770208],[127.09258,34.769949],[127.092362,34.769871],[127.091917,34.770158],[127.091811,34.770164],[127.091529,34.769807],[127.090631,34.769626],[127.088609,34.768958],[127.088117,34.768716],[127.087966,34.768625],[127.087465,34.76799],[127.08726,34.767803],[127.086936,34.767649],[127.086777,34.767609],[127.086451,34.767593],[127.086364,34.767205]]]]},"properties":{"id":"FLD:12750:327:8915","layer":"FLOOD_TRACE","admin_code":"12750","sido_code":"46","flood_year":"2018","occurred_at":"2018-07-01","ended_at":"2018-07-01","begin_time":"0400","end_time":"1100","disaster_name":"2018년 국지성 집중호우","cause_detail":"집중호우에 의한 하천범람","flood_grade":1,"flood_depth_m":0.175,"flood_area_m2":106777.2,"source_sn":327,"data_status":"actual","official_data":true,"is_prediction":false,"source":"행정안전부 침수흔적도 · 재난안전데이터공유플랫폼 DSSP-IF-00117","collected_at":"2026-08-19T16:46:51+09:00","source_crs":"EPSG:3857","display_badges":["행안부 침수흔적도","과거 기록"]}},{"type":"Feature","id":"FLD:12750:324:8916","geometry":{"type":"MultiPolygon","coordinates":[[[[127.089067,34.765993],[127.089043,34.765272],[127.08882,34.764823],[127.089221,34.764816],[127.089467,34.764664],[127.089784,34.764888],[127.089838,34.765386],[127.089775,34.765923],[127.089067,34.765993]]]]},"properties":{"id":"FLD:12750:324:8916","layer":"FLOOD_TRACE","admin_code":"12750","sido_code":"46","flood_year":"2018","occurred_at":"2018-07-01","ended_at":"2018-07-01","begin_time":"0400","end_time":"1100","disaster_name":"2018년 국지성 집중호우","cause_detail":"집중호우에 의한 하천범람","flood_grade":2,"flood_depth_m":0.861,"flood_area_m2":20455.203,"source_sn":324,"data_status":"actual","official_data":true,"is_prediction":false,"source":"행정안전부 침수흔적도 · 재난안전데이터공유플랫폼 DSSP-IF-00117","collected_at":"2026-08-19T16:46:51+09:00","source_crs":"EPSG:3857","display_badges":["행안부 침수흔적도","과거 기록"]}},{"type":"Feature","id":"FLD:12750:332:8917","geometry":{"type":"MultiPolygon","coordinates":[[[[127.14235,34.817553],[127.142152,34.818224],[127.142054,34.818709],[127.141806,34.81886],[127.14168,34.8188],[127.141382,34.819207],[127.141427,34.819354],[127.141201,34.819365],[127.141089,34.819329],[127.141018,34.819174],[127.140968,34.819125],[127.141251,34.819026],[127.141596,34.818734],[127.141615,34.818494],[127.141551,34.818203],[127.141314,34.818053],[127.141013,34.818122],[127.140894,34.817731],[127.140914,34.817651],[127.140798,34.817122],[127.141369,34.817256],[127.14235,34.817553]]]]},"properties":{"id":"FLD:12750:332:8917","layer":"FLOOD_TRACE","admin_code":"12750","sido_code":"46","flood_year":"2018","occurred_at":"2018-07-01","ended_at":"2018-07-01","begin_time":"0400","end_time":"1100","disaster_name":"2018년 국지성 집중호우","cause_detail":"집중호우에 의한 하천범람","flood_grade":2,"flood_depth_m":0.863,"flood_area_m2":34935.011,"source_sn":332,"data_status":"actual","official_data":true,"is_prediction":false,"source":"행정안전부 침수흔적도 · 재난안전데이터공유플랫폼 DSSP-IF-00117","collected_at":"2026-08-19T16:46:51+09:00","source_crs":"EPSG:3857","display_badges":["행안부 침수흔적도","과거 기록"]}},{"type":"Feature","id":"FLD:12750:333:8918","geometry":{"type":"MultiPolygon","coordinates":[[[[127.141369,34.817256],[127.141734,34.816858],[127.141811,34.816956],[127.142033,34.817069],[127.142133,34.817031],[127.142226,34.816628],[127.142107,34.816506],[127.142336,34.815961],[127.142642,34.815296],[127.142829,34.814821],[127.143188,34.814792],[127.143249,34.814474],[127.143294,34.814041],[127.143362,34.814038],[127.143436,34.813846],[127.143553,34.81387],[127.14345,34.814354],[127.143241,34.81518],[127.142926,34.816079],[127.142674,34.816703],[127.14235,34.817553],[127.141369,34.817256]]]]},"properties":{"id":"FLD:12750:333:8918","layer":"FLOOD_TRACE","admin_code":"12750","sido_code":"46","flood_year":"2018","occurred_at":"2018-07-01","ended_at":"2018-07-01","begin_time":"0400","end_time":"1100","disaster_name":"2018년 국지성 집중호우","cause_detail":"집중호우에 의한 하천범람","flood_grade":1,"flood_depth_m":0.214,"flood_area_m2":34935.011,"source_sn":333,"data_status":"actual","official_data":true,"is_prediction":false,"source":"행정안전부 침수흔적도 · 재난안전데이터공유플랫폼 DSSP-IF-00117","collected_at":"2026-08-19T16:46:51+09:00","source_crs":"EPSG:3857","display_badges":["행안부 침수흔적도","과거 기록"]}},{"type":"Feature","id":"FLD:12750:331:9450","geometry":{"type":"MultiPolygon","coordinates":[[[[127.090519,34.768625],[127.090249,34.768647],[127.08975,34.768483],[127.089538,34.768537],[127.089416,34.768375],[127.089503,34.768255],[127.089508,34.7681],[127.089867,34.768201],[127.09013,34.768263],[127.09078,34.768426],[127.090519,34.768625]]]]},"properties":{"id":"FLD:12750:331:9450","layer":"FLOOD_TRACE","admin_code":"12750","sido_code":"46","flood_year":"2018","occurred_at":"2018-07-01","ended_at":"2018-07-01","begin_time":"0400","end_time":"1100","disaster_name":"2018년 국지성 집중호우","cause_detail":"집중호우에 의한 하천범람","flood_grade":1,"flood_depth_m":0.378,"flood_area_m2":29410.504,"source_sn":331,"data_status":"actual","official_data":true,"is_prediction":false,"source":"행정안전부 침수흔적도 · 재난안전데이터공유플랫폼 DSSP-IF-00117","collected_at":"2026-08-19T16:46:51+09:00","source_crs":"EPSG:3857","display_badges":["행안부 침수흔적도","과거 기록"]}},{"type":"Feature","id":"FLD:12750:322:9451","geometry":{"type":"MultiPolygon","coordinates":[[[[127.089775,34.765923],[127.089947,34.766215],[127.089864,34.766422],[127.089772,34.766769],[127.089585,34.766993],[127.089462,34.767361],[127.0893,34.767702],[127.08888,34.767331],[127.089096,34.766858],[127.089067,34.765993],[127.089775,34.765923]]]]},"properties":{"id":"FLD:12750:322:9451","layer":"FLOOD_TRACE","admin_code":"12750","sido_code":"46","flood_year":"2018","occurred_at":"2018-07-01","ended_at":"2018-07-01","begin_time":"0400","end_time":"1100","disaster_name":"2018년 국지성 집중호우","cause_detail":"집중호우에 의한 하천범람","flood_grade":1,"flood_depth_m":0.469,"flood_area_m2":20455.203,"source_sn":322,"data_status":"actual","official_data":true,"is_prediction":false,"source":"행정안전부 침수흔적도 · 재난안전데이터공유플랫폼 DSSP-IF-00117","collected_at":"2026-08-19T16:46:51+09:00","source_crs":"EPSG:3857","display_badges":["행안부 침수흔적도","과거 기록"]}},{"type":"Feature","id":"FLD:12750:325:9452","geometry":{"type":"MultiPolygon","coordinates":[[[[127.092563,34.76902],[127.092682,34.768941],[127.093665,34.76929],[127.093965,34.769506],[127.0938,34.769665],[127.093404,34.769584],[127.092563,34.76902]]]]},"properties":{"id":"FLD:12750:325:9452","layer":"FLOOD_TRACE","admin_code":"12750","sido_code":"46","flood_year":"2018","occurred_at":"2018-07-01","ended_at":"2018-07-01","begin_time":"0400","end_time":"1100","disaster_name":"2018년 국지성 집중호우","cause_detail":"집중호우에 의한 하천범람","flood_grade":1,"flood_depth_m":0.285,"flood_area_m2":29410.504,"source_sn":325,"data_status":"actual","official_data":true,"is_prediction":false,"source":"행정안전부 침수흔적도 · 재난안전데이터공유플랫폼 DSSP-IF-00117","collected_at":"2026-08-19T16:46:51+09:00","source_crs":"EPSG:3857","display_badges":["행안부 침수흔적도","과거 기록"]}},{"type":"Feature","id":"FLD:12750:329:9453","geometry":{"type":"MultiPolygon","coordinates":[[[[127.086451,34.767593],[127.086149,34.767767],[127.085981,34.767749],[127.085872,34.767802],[127.085839,34.767784],[127.086029,34.76768],[127.08598,34.76756],[127.085763,34.767626],[127.085515,34.767679],[127.085324,34.767729],[127.084954,34.767832],[127.084705,34.767885],[127.084224,34.767935],[127.083876,34.767975],[127.08364,34.767999],[127.083414,34.76799],[127.082795,34.767726],[127.082277,34.767554],[127.081953,34.767395],[127.081506,34.767417],[127.080558,34.767157],[127.080499,34.767019],[127.079856,34.76674],[127.079004,34.76649],[127.07761,34.766175],[127.077265,34.766149],[127.076602,34.766191],[127.076255,34.766257],[127.075795,34.766397],[127.075777,34.76637],[127.076284,34.766218],[127.076551,34.766167],[127.077234,34.76612],[127.077601,34.766142],[127.078176,34.765886],[127.079569,34.765975],[127.079721,34.766063],[127.080081,34.76616],[127.080325,34.766203],[127.080977,34.766294],[127.083289,34.7667],[127.0837,34.766674],[127.083912,34.766704],[127.084327,34.766769],[127.085143,34.766887],[127.086007,34.767047],[127.086364,34.767205],[127.086451,34.767593]]]]},"properties":{"id":"FLD:12750:329:9453","layer":"FLOOD_TRACE","admin_code":"12750","sido_code":"46","flood_year":"2018","occurred_at":"2018-07-01","ended_at":"2018-07-01","begin_time":"0400","end_time":"1100","disaster_name":"2018년 국지성 집중호우","cause_detail":"집중호우에 의한 하천범람","flood_grade":1,"flood_depth_m":0.442,"flood_area_m2":106777.2,"source_sn":329,"data_status":"actual","official_data":true,"is_prediction":false,"source":"행정안전부 침수흔적도 · 재난안전데이터공유플랫폼 DSSP-IF-00117","collected_at":"2026-08-19T16:46:51+09:00","source_crs":"EPSG:3857","display_badges":["행안부 침수흔적도","과거 기록"]}},{"type":"Feature","id":"FLD:12750:312:9548","geometry":{"type":"MultiPolygon","coordinates":[[[[127.154911,34.809536],[127.154661,34.809482],[127.15482,34.808959],[127.154874,34.808764],[127.154875,34.808393],[127.155273,34.808593],[127.155416,34.808652],[127.15572,34.808576],[127.15672,34.808779],[127.156049,34.809599],[127.155525,34.809485],[127.155421,34.809347],[127.155023,34.809231],[127.154911,34.809536]]]]},"properties":{"id":"FLD:12750:312:9548","layer":"FLOOD_TRACE","admin_code":"12750","sido_code":"46","flood_year":"2019","occurred_at":"2019-10-02","ended_at":"2019-10-03","begin_time":"2300","end_time":"0800","disaster_name":"태풍 미탁 집중호우","cause_detail":"배수시설 불량으로 인한 침수","flood_grade":3,"flood_depth_m":1.3,"flood_area_m2":91110.2,"source_sn":312,"data_status":"actual","official_data":true,"is_prediction":false,"source":"행정안전부 침수흔적도 · 재난안전데이터공유플랫폼 DSSP-IF-00117","collected_at":"2026-08-19T16:46:51+09:00","source_crs":"EPSG:3857","display_badges":["행안부 침수흔적도","과거 기록"]}},{"type":"Feature","id":"FLD:12750:313:9549","geometry":{"type":"MultiPolygon","coordinates":[[[[127.150903,34.8293],[127.151022,34.829423],[127.151148,34.829553],[127.151111,34.829575],[127.151053,34.829637],[127.150996,34.829737],[127.150964,34.829803],[127.15084,34.829983],[127.150735,34.830125],[127.150618,34.830073],[127.150618,34.830052],[127.150548,34.830044],[127.150475,34.830022],[127.150418,34.829974],[127.150402,34.82996],[127.150297,34.82998],[127.150256,34.829939],[127.150222,34.82989],[127.150156,34.82991],[127.150098,34.829921],[127.150038,34.829878],[127.149982,34.829805],[127.149859,34.829853],[127.149757,34.829859],[127.149753,34.829744],[127.149744,34.8296],[127.14996,34.829552],[127.150084,34.829526],[127.15016,34.829512],[127.15024,34.829514],[127.150311,34.829522],[127.15038,34.829544],[127.15042,34.829514],[127.150553,34.829465],[127.150616,34.829421],[127.150721,34.829389],[127.150861,34.829362],[127.150903,34.8293]]]]},"properties":{"id":"FLD:12750:313:9549","layer":"FLOOD_TRACE","admin_code":"12750","sido_code":"46","flood_year":"2019","occurred_at":"2019-10-02","ended_at":"2019-10-03","begin_time":"2300","end_time":"0800","disaster_name":"태풍 미탁 집중호우","cause_detail":"배수시설 불량으로 인한 침수","flood_grade":2,"flood_depth_m":0.761,"flood_area_m2":8097.7,"source_sn":313,"data_status":"actual","official_data":true,"is_prediction":false,"source":"행정안전부 침수흔적도 · 재난안전데이터공유플랫폼 DSSP-IF-00117","collected_at":"2026-08-19T16:46:51+09:00","source_crs":"EPSG:3857","display_badges":["행안부 침수흔적도","과거 기록"]}},{"type":"Feature","id":"FLD:12750:315:9550","geometry":{"type":"MultiPolygon","coordinates":[[[[127.151148,34.829553],[127.151022,34.829423],[127.150903,34.8293],[127.151083,34.829037],[127.151167,34.829009],[127.15148,34.829211],[127.151579,34.829302],[127.15126,34.829484],[127.151148,34.829553]]]]},"properties":{"id":"FLD:12750:315:9550","layer":"FLOOD_TRACE","admin_code":"12750","sido_code":"46","flood_year":"2019","occurred_at":"2019-10-02","ended_at":"2019-10-03","begin_time":"2300","end_time":"0800","disaster_name":"태풍 미탁 집중호우","cause_detail":"배수시설 불량으로 인한 침수","flood_grade":1,"flood_depth_m":0.358,"flood_area_m2":8097.7,"source_sn":315,"data_status":"actual","official_data":true,"is_prediction":false,"source":"행정안전부 침수흔적도 · 재난안전데이터공유플랫폼 DSSP-IF-00117","collected_at":"2026-08-19T16:46:51+09:00","source_crs":"EPSG:3857","display_badges":["행안부 침수흔적도","과거 기록"]}},{"type":"Feature","id":"FLD:12750:317:9551","geometry":{"type":"MultiPolygon","coordinates":[[[[127.153149,34.809673],[127.153157,34.809722],[127.153137,34.809788],[127.153089,34.809998],[127.153057,34.810168],[127.15304,34.810253],[127.153025,34.810489],[127.152943,34.810849],[127.152791,34.811074],[127.152594,34.811188],[127.152267,34.8114],[127.152079,34.811503],[127.152064,34.811482],[127.152015,34.811406],[127.151929,34.811242],[127.151826,34.810936],[127.151781,34.810803],[127.152127,34.810615],[127.15254,34.810313],[127.152849,34.809997],[127.153149,34.809673]]]]},"properties":{"id":"FLD:12750:317:9551","layer":"FLOOD_TRACE","admin_code":"12750","sido_code":"46","flood_year":"2019","occurred_at":"2019-10-02","ended_at":"2019-10-03","begin_time":"2300","end_time":"0800","disaster_name":"태풍 미탁 집중호우","cause_detail":"배수시설 불량으로 인한 침수","flood_grade":3,"flood_depth_m":1.2,"flood_area_m2":91110.2,"source_sn":317,"data_status":"actual","official_data":true,"is_prediction":false,"source":"행정안전부 침수흔적도 · 재난안전데이터공유플랫폼 DSSP-IF-00117","collected_at":"2026-08-19T16:46:51+09:00","source_crs":"EPSG:3857","display_badges":["행안부 침수흔적도","과거 기록"]}},{"type":"Feature","id":"FLD:12750:314:9552","geometry":{"type":"MultiPolygon","coordinates":[[[[127.154743,34.81049],[127.154384,34.810418],[127.153382,34.810216],[127.153057,34.810168],[127.153089,34.809998],[127.153137,34.809788],[127.153157,34.809722],[127.153149,34.809673],[127.153284,34.809526],[127.153625,34.809072],[127.15366,34.808856],[127.153678,34.808572],[127.153849,34.807974],[127.154513,34.808195],[127.154617,34.808264],[127.154875,34.808393],[127.154874,34.808764],[127.15482,34.808959],[127.154661,34.809482],[127.154911,34.809536],[127.154846,34.809715],[127.154936,34.809849],[127.154743,34.81049]]]]},"properties":{"id":"FLD:12750:314:9552","layer":"FLOOD_TRACE","admin_code":"12750","sido_code":"46","flood_year":"2019","occurred_at":"2019-10-02","ended_at":"2019-10-03","begin_time":"2300","end_time":"0800","disaster_name":"태풍 미탁 집중호우","cause_detail":"배수시설 불량으로 인한 침수","flood_grade":1,"flood_depth_m":0.4,"flood_area_m2":91110.2,"source_sn":314,"data_status":"actual","official_data":true,"is_prediction":false,"source":"행정안전부 침수흔적도 · 재난안전데이터공유플랫폼 DSSP-IF-00117","collected_at":"2026-08-19T16:46:51+09:00","source_crs":"EPSG:3857","display_badges":["행안부 침수흔적도","과거 기록"]}},{"type":"Feature","id":"FLD:12750:316:9553","geometry":{"type":"MultiPolygon","coordinates":[[[[127.154145,34.812456],[127.15226,34.811753],[127.152079,34.811503],[127.152267,34.8114],[127.152594,34.811188],[127.152791,34.811074],[127.152943,34.810849],[127.153025,34.810489],[127.15304,34.810253],[127.153057,34.810168],[127.153382,34.810216],[127.154384,34.810418],[127.154743,34.81049],[127.154467,34.811406],[127.154234,34.812166],[127.154145,34.812456]]]]},"properties":{"id":"FLD:12750:316:9553","layer":"FLOOD_TRACE","admin_code":"12750","sido_code":"46","flood_year":"2019","occurred_at":"2019-10-02","ended_at":"2019-10-03","begin_time":"2300","end_time":"0800","disaster_name":"태풍 미탁 집중호우","cause_detail":"배수시설 불량으로 인한 침수","flood_grade":2,"flood_depth_m":0.8,"flood_area_m2":91110.2,"source_sn":316,"data_status":"actual","official_data":true,"is_prediction":false,"source":"행정안전부 침수흔적도 · 재난안전데이터공유플랫폼 DSSP-IF-00117","collected_at":"2026-08-19T16:46:51+09:00","source_crs":"EPSG:3857","display_badges":["행안부 침수흔적도","과거 기록"]}},{"type":"Feature","id":"FLD:12750:318:9554","geometry":{"type":"MultiPolygon","coordinates":[[[[127.141442,34.817331],[127.141463,34.817203],[127.141518,34.817137],[127.141657,34.81702],[127.141799,34.816963],[127.14203,34.817084],[127.142119,34.817057],[127.142135,34.816955],[127.142208,34.816746],[127.142217,34.81663],[127.142226,34.81662],[127.14249,34.816664],[127.142666,34.81673],[127.14247,34.817257],[127.142192,34.81797],[127.142075,34.818471],[127.142018,34.818477],[127.141981,34.818435],[127.141945,34.818402],[127.141916,34.818304],[127.141765,34.818364],[127.141794,34.818501],[127.141745,34.818673],[127.141709,34.818735],[127.141734,34.818807],[127.141615,34.818908],[127.141576,34.818958],[127.141511,34.81906],[127.141484,34.819121],[127.141416,34.819191],[127.141403,34.819243],[127.141404,34.819263],[127.141447,34.819306],[127.14145,34.819341],[127.14128,34.819374],[127.141181,34.819374],[127.141086,34.819364],[127.141062,34.819314],[127.141014,34.81916],[127.141128,34.819119],[127.141086,34.819014],[127.141072,34.818948],[127.141217,34.81889],[127.14126,34.818768],[127.141295,34.818762],[127.141272,34.818647],[127.141225,34.818601],[127.141243,34.818544],[127.14121,34.818432],[127.141211,34.818375],[127.141448,34.818254],[127.141377,34.818193],[127.141315,34.818186],[127.141377,34.818114],[127.141506,34.818113],[127.141444,34.818054],[127.141373,34.817962],[127.141352,34.817817],[127.141359,34.81775],[127.141442,34.817331]]]]},"properties":{"id":"FLD:12750:318:9554","layer":"FLOOD_TRACE","admin_code":"12750","sido_code":"46","flood_year":"2019","occurred_at":"2019-10-02","ended_at":"2019-10-03","begin_time":"2300","end_time":"0800","disaster_name":"태풍 미탁 집중호우","cause_detail":"배수시설 불량으로 인한 침수","flood_grade":3,"flood_depth_m":1.028,"flood_area_m2":18547.3,"source_sn":318,"data_status":"actual","official_data":true,"is_prediction":false,"source":"행정안전부 침수흔적도 · 재난안전데이터공유플랫폼 DSSP-IF-00117","collected_at":"2026-08-19T16:46:51+09:00","source_crs":"EPSG:3857","display_badges":["행안부 침수흔적도","과거 기록"]}},{"type":"Feature","id":"FLD:12750:728:34066","geometry":{"type":"MultiPolygon","coordinates":[[[[127.343539,34.838615],[127.343561,34.838597],[127.343638,34.838574],[127.343633,34.838555],[127.343605,34.838539],[127.343574,34.838462],[127.34357,34.838453],[127.343611,34.838373],[127.34364,34.838335],[127.343684,34.838312],[127.343714,34.838293],[127.343725,34.838287],[127.34381,34.838249],[127.343849,34.83822],[127.343887,34.83819],[127.343955,34.838106],[127.343974,34.838076],[127.343983,34.838063],[127.344021,34.838014],[127.34408,34.837941],[127.344112,34.837899],[127.344178,34.837815],[127.344265,34.837686],[127.344291,34.837647],[127.34431,34.837604],[127.344405,34.837451],[127.344463,34.837345],[127.34445,34.837307],[127.344361,34.837258],[127.344263,34.837197],[127.344224,34.837161],[127.344032,34.83704],[127.343852,34.836941],[127.343698,34.836854],[127.343539,34.836786],[127.343464,34.836735],[127.343407,34.836711],[127.343371,34.836689],[127.343222,34.836622],[127.343126,34.836581],[127.343093,34.836568],[127.343023,34.836538],[127.342908,34.836481],[127.342869,34.836442],[127.342863,34.836399],[127.342787,34.836378],[127.342746,34.836367],[127.342883,34.836087],[127.342911,34.836008],[127.342918,34.836007],[127.343005,34.835997],[127.343043,34.836001],[127.343067,34.836002],[127.343221,34.836009],[127.343454,34.836026],[127.343481,34.836028],[127.343525,34.83603],[127.343709,34.836029],[127.343752,34.836019],[127.343758,34.836055],[127.343754,34.836124],[127.343745,34.836227],[127.343736,34.836227],[127.343718,34.836254],[127.343681,34.836333],[127.343672,34.836379],[127.343665,34.836416],[127.343669,34.836489],[127.343678,34.836492],[127.343693,34.836497],[127.34374,34.836501],[127.343997,34.836588],[127.344058,34.83661],[127.344372,34.8367],[127.344469,34.836776],[127.344489,34.836811],[127.3445,34.836851],[127.344494,34.836906],[127.344476,34.837004],[127.344549,34.837011],[127.344569,34.837013],[127.344599,34.836988],[127.344642,34.836987],[127.344711,34.837003],[127.344798,34.836991],[127.344861,34.837038],[127.344878,34.837067],[127.344899,34.837055],[127.344989,34.837034],[127.34509,34.837035],[127.345129,34.837046],[127.345188,34.837067],[127.345427,34.837198],[127.345492,34.837241],[127.345505,34.837243],[127.345534,34.83725],[127.345552,34.837259],[127.34561,34.837258],[127.345651,34.837249],[127.345805,34.837167],[127.345809,34.837135],[127.345834,34.8371],[127.345847,34.837103],[127.34587,34.837106],[127.345858,34.83719],[127.345884,34.837453],[127.345896,34.837678],[127.345896,34.837687],[127.34585,34.837888],[127.345824,34.838005],[127.345818,34.838092],[127.345821,34.838171],[127.345825,34.838219],[127.345841,34.838426],[127.345819,34.838378],[127.345794,34.83837],[127.345665,34.838372],[127.345565,34.838364],[127.345487,34.838369],[127.345404,34.838366],[127.345371,34.838361],[127.34529,34.838369],[127.34528,34.838368],[127.345188,34.838351],[127.34516,34.838344],[127.345006,34.838311],[127.344969,34.838324],[127.344948,34.838339],[127.344831,34.838354],[127.344758,34.838368],[127.344698,34.838379],[127.344626,34.838384],[127.344505,34.838402],[127.344433,34.83844],[127.344426,34.838442],[127.344374,34.838456],[127.344334,34.83846],[127.344331,34.83846],[127.344306,34.838459],[127.344204,34.838453],[127.344164,34.838456],[127.344139,34.838462],[127.344058,34.838479],[127.343996,34.838496],[127.343971,34.838506],[127.343959,34.838527],[127.343955,34.838533],[127.343924,34.838575],[127.343883,34.83861],[127.343844,34.838619],[127.343751,34.838614],[127.343691,34.838619],[127.343657,34.838632],[127.343601,34.83865],[127.343578,34.838668],[127.343539,34.838615]]]]},"properties":{"id":"FLD:12750:728:34066","layer":"FLOOD_TRACE","admin_code":"12750","sido_code":"46","flood_year":"2009","occurred_at":"2009-08-07","ended_at":"2009-08-08","begin_time":"0000","end_time":"0000","disaster_name":"2009년 7월 집중호우","cause_detail":"해수 월류(만조 시)로 인한 피해와 지반유실로 인한 침수","flood_grade":2,"flood_depth_m":0.5,"flood_area_m2":100206,"source_sn":728,"data_status":"actual","official_data":true,"is_prediction":false,"source":"행정안전부 침수흔적도 · 재난안전데이터공유플랫폼 DSSP-IF-00117","collected_at":"2026-08-19T16:46:51+09:00","source_crs":"EPSG:3857","display_badges":["행안부 침수흔적도","과거 기록"]}},{"type":"Feature","id":"FLD:12750:730:34072","geometry":{"type":"MultiPolygon","coordinates":[[[[127.346531,34.83989],[127.345945,34.839982],[127.345647,34.840029],[127.345526,34.839977],[127.345445,34.839928],[127.345353,34.839834],[127.34534,34.839816],[127.345325,34.839819],[127.345301,34.83977],[127.345299,34.839731],[127.345254,34.839732],[127.345202,34.839733],[127.345161,34.83973],[127.345124,34.839699],[127.345112,34.839665],[127.345114,34.839579],[127.345139,34.839501],[127.345199,34.839502],[127.345215,34.839501],[127.34522,34.839544],[127.345255,34.839556],[127.345303,34.83955],[127.34529,34.839515],[127.345432,34.839441],[127.345578,34.839367],[127.345546,34.839312],[127.345546,34.839228],[127.345571,34.839171],[127.34561,34.839159],[127.345578,34.839076],[127.345552,34.839012],[127.345527,34.83897],[127.345515,34.838951],[127.345364,34.838814],[127.345267,34.838799],[127.345245,34.838858],[127.345196,34.838867],[127.345172,34.838875],[127.345146,34.838881],[127.345036,34.838857],[127.345,34.838909],[127.344918,34.83888],[127.344797,34.838869],[127.344738,34.838831],[127.344718,34.838866],[127.344672,34.83888],[127.344633,34.838862],[127.344651,34.838958],[127.344647,34.839029],[127.344695,34.839042],[127.344713,34.839108],[127.344759,34.839202],[127.344781,34.839257],[127.344854,34.839327],[127.344921,34.839406],[127.344952,34.839454],[127.345026,34.839478],[127.345046,34.839553],[127.345023,34.83957],[127.345008,34.839619],[127.34502,34.839655],[127.344943,34.839637],[127.344839,34.839525],[127.344836,34.839519],[127.344746,34.839485],[127.344732,34.839478],[127.344545,34.839354],[127.344394,34.83929],[127.344277,34.83924],[127.344079,34.839179],[127.343981,34.83915],[127.343822,34.839117],[127.343763,34.839111],[127.343705,34.83888],[127.343689,34.838797],[127.343666,34.83877],[127.343605,34.8387],[127.343578,34.838668],[127.343601,34.83865],[127.343657,34.838632],[127.343691,34.838619],[127.343751,34.838614],[127.343844,34.838619],[127.343883,34.83861],[127.343895,34.8386],[127.343924,34.838575],[127.343955,34.838533],[127.343959,34.838527],[127.343971,34.838506],[127.343996,34.838496],[127.344058,34.838479],[127.344139,34.838462],[127.344164,34.838456],[127.344204,34.838453],[127.344306,34.838459],[127.344334,34.83846],[127.344374,34.838456],[127.344426,34.838442],[127.344433,34.83844],[127.344505,34.838402],[127.344626,34.838384],[127.344698,34.838379],[127.344758,34.838368],[127.344831,34.838354],[127.344948,34.838339],[127.344969,34.838324],[127.345006,34.838311],[127.34516,34.838344],[127.345188,34.838351],[127.345194,34.838352],[127.34528,34.838368],[127.34529,34.838369],[127.345371,34.838361],[127.345404,34.838366],[127.345487,34.838369],[127.345565,34.838364],[127.345665,34.838372],[127.345794,34.83837],[127.345819,34.838378],[127.345841,34.838426],[127.345832,34.838499],[127.345802,34.838567],[127.345778,34.838666],[127.345782,34.838729],[127.345802,34.83879],[127.345874,34.838895],[127.345895,34.838949],[127.345947,34.839087],[127.345985,34.839185],[127.346004,34.839187],[127.346111,34.839147],[127.346173,34.839132],[127.34621,34.839132],[127.34627,34.839126],[127.346357,34.839132],[127.346406,34.839118],[127.346429,34.83914],[127.346431,34.839165],[127.346404,34.839187],[127.346451,34.839392],[127.346414,34.839398],[127.346471,34.839639],[127.346531,34.83989]]]]},"properties":{"id":"FLD:12750:730:34072","layer":"FLOOD_TRACE","admin_code":"12750","sido_code":"46","flood_year":"2009","occurred_at":"2009-08-07","ended_at":"2009-08-08","begin_time":"0000","end_time":"0000","disaster_name":"2009년 7월 집중호우","cause_detail":"해수 월류(만조 시)로 인한 피해와 지반유실로 인한 침수","flood_grade":1,"flood_depth_m":0.3,"flood_area_m2":100206,"source_sn":730,"data_status":"actual","official_data":true,"is_prediction":false,"source":"행정안전부 침수흔적도 · 재난안전데이터공유플랫폼 DSSP-IF-00117","collected_at":"2026-08-19T16:46:51+09:00","source_crs":"EPSG:3857","display_badges":["행안부 침수흔적도","과거 기록"]}},{"type":"Feature","id":"FLD:12750:729:34110","geometry":{"type":"MultiPolygon","coordinates":[[[[127.343763,34.839111],[127.34324,34.839063],[127.343082,34.839049],[127.342936,34.839047],[127.342821,34.839038],[127.342733,34.839031],[127.342539,34.839016],[127.342441,34.839009],[127.342299,34.838996],[127.342272,34.838984],[127.342223,34.838992],[127.342094,34.838774],[127.342049,34.838698],[127.341875,34.838438],[127.341802,34.838343],[127.341839,34.838264],[127.341851,34.838238],[127.34186,34.838218],[127.34187,34.838195],[127.341962,34.837995],[127.341986,34.837969],[127.342033,34.837891],[127.342088,34.837773],[127.342239,34.837448],[127.342313,34.837292],[127.342366,34.837175],[127.342411,34.837076],[127.342423,34.837048],[127.34248,34.836924],[127.342591,34.836677],[127.342717,34.836423],[127.342746,34.836367],[127.342863,34.836399],[127.342869,34.836442],[127.342908,34.836481],[127.343023,34.836538],[127.343093,34.836568],[127.343126,34.836581],[127.343222,34.836622],[127.343371,34.836689],[127.343407,34.836711],[127.343464,34.836735],[127.343539,34.836786],[127.343698,34.836854],[127.343852,34.836941],[127.344032,34.83704],[127.344092,34.837076],[127.344224,34.837161],[127.344263,34.837197],[127.344361,34.837258],[127.344379,34.837268],[127.34445,34.837307],[127.344463,34.837345],[127.344405,34.837451],[127.34431,34.837604],[127.344291,34.837647],[127.344265,34.837686],[127.344178,34.837815],[127.344112,34.837899],[127.34408,34.837941],[127.344021,34.838014],[127.343983,34.838063],[127.343974,34.838076],[127.343955,34.838106],[127.343887,34.83819],[127.343849,34.83822],[127.343811,34.838249],[127.343725,34.838287],[127.343714,34.838293],[127.343684,34.838312],[127.34364,34.838335],[127.343611,34.838373],[127.34357,34.838453],[127.343574,34.838462],[127.343605,34.838539],[127.343633,34.838555],[127.343638,34.838574],[127.343561,34.838597],[127.343539,34.838615],[127.343578,34.838668],[127.343666,34.83877],[127.343689,34.838797],[127.343705,34.83888],[127.343763,34.839111]]]]},"properties":{"id":"FLD:12750:729:34110","layer":"FLOOD_TRACE","admin_code":"12750","sido_code":"46","flood_year":"2009","occurred_at":"2009-08-07","ended_at":"2009-08-08","begin_time":"0000","end_time":"0000","disaster_name":"2009년 7월 집중호우","cause_detail":"해수 월류(만조 시)로 인한 피해와 지반유실로 인한 침수","flood_grade":1,"flood_depth_m":0.4,"flood_area_m2":100206,"source_sn":729,"data_status":"actual","official_data":true,"is_prediction":false,"source":"행정안전부 침수흔적도 · 재난안전데이터공유플랫폼 DSSP-IF-00117","collected_at":"2026-08-19T16:46:51+09:00","source_crs":"EPSG:3857","display_badges":["행안부 침수흔적도","과거 기록"]}},{"type":"Feature","id":"FLD:12750:113:36066","geometry":{"type":"MultiPolygon","coordinates":[[[[127.34434,34.847921],[127.344553,34.84779],[127.344572,34.847789],[127.34466,34.847773],[127.344743,34.847753],[127.344757,34.847716],[127.344932,34.84762],[127.345058,34.84755],[127.345078,34.847536],[127.345116,34.847513],[127.345228,34.847442],[127.345277,34.847406],[127.345333,34.847366],[127.345604,34.847222],[127.34594,34.847007],[127.346019,34.846958],[127.346276,34.846795],[127.346377,34.846731],[127.346487,34.846661],[127.346523,34.846638],[127.346642,34.846564],[127.346654,34.846558],[127.346788,34.846471],[127.34693,34.846383],[127.347067,34.846297],[127.347094,34.846278],[127.347207,34.846209],[127.347227,34.846195],[127.347357,34.846113],[127.347493,34.846027],[127.347548,34.845993],[127.347692,34.845901],[127.347802,34.845829],[127.347877,34.845796],[127.347926,34.84576],[127.34828,34.845497],[127.348648,34.845226],[127.349039,34.844932],[127.349281,34.844748],[127.349412,34.844721],[127.349517,34.844694],[127.349534,34.844692],[127.34957,34.844664],[127.349611,34.844675],[127.349615,34.844678],[127.349629,34.844686],[127.349703,34.844733],[127.349737,34.844755],[127.349758,34.844768],[127.349825,34.844811],[127.349845,34.844824],[127.350007,34.844946],[127.350031,34.844984],[127.350063,34.845058],[127.350044,34.845082],[127.349872,34.845141],[127.349843,34.845121],[127.349803,34.845107],[127.349766,34.845114],[127.34967,34.845131],[127.34958,34.845161],[127.349435,34.845227],[127.349406,34.84524],[127.34931,34.845314],[127.349187,34.845411],[127.348986,34.845583],[127.348883,34.845671],[127.348769,34.84577],[127.348691,34.845838],[127.348603,34.845912],[127.348385,34.846098],[127.348397,34.846124],[127.348381,34.846142],[127.348528,34.846239],[127.348593,34.846307],[127.348631,34.846359],[127.34865,34.846556],[127.348678,34.846605],[127.348752,34.846756],[127.348752,34.846792],[127.348662,34.84686],[127.348268,34.847059],[127.348155,34.847116],[127.348125,34.847185],[127.348165,34.847317],[127.348179,34.847381],[127.348198,34.847464],[127.348294,34.847811],[127.348309,34.84782],[127.348234,34.847846],[127.348201,34.847859],[127.348066,34.847885],[127.347934,34.84791],[127.347855,34.847919],[127.347526,34.847956],[127.347377,34.847974],[127.347316,34.84798],[127.347288,34.847983],[127.347244,34.847988],[127.347192,34.847994],[127.34716,34.847997],[127.347027,34.848011],[127.34688,34.848028],[127.346804,34.848036],[127.34668,34.848049],[127.346497,34.84807],[127.346417,34.84808],[127.346377,34.848084],[127.346198,34.848101],[127.346124,34.848111],[127.346026,34.848121],[127.345866,34.848131],[127.345779,34.848136],[127.34569,34.848141],[127.345667,34.848143],[127.345478,34.848154],[127.345226,34.848158],[127.345079,34.848161],[127.344902,34.848165],[127.344806,34.848168],[127.344715,34.848169],[127.344606,34.848176],[127.34456,34.848146],[127.344516,34.848106],[127.344432,34.848017],[127.34434,34.847921]]]]},"properties":{"id":"FLD:12750:113:36066","layer":"FLOOD_TRACE","admin_code":"12750","sido_code":"46","flood_year":"2007","occurred_at":"2007-09-13","ended_at":"2007-09-18","begin_time":"0000","end_time":"0000","disaster_name":"집중호우 및 제11호 태풍 ‘나리’피","cause_detail":"해수 월류(만조 시)로 인한 피해 발생","flood_grade":1,"flood_depth_m":0.31,"flood_area_m2":370779.3,"source_sn":113,"data_status":"actual","official_data":true,"is_prediction":false,"source":"행정안전부 침수흔적도 · 재난안전데이터공유플랫폼 DSSP-IF-00117","collected_at":"2026-08-19T16:46:51+09:00","source_crs":"EPSG:3857","display_badges":["행안부 침수흔적도","과거 기록"]}},{"type":"Feature","id":"FLD:12750:111:36122","geometry":{"type":"MultiPolygon","coordinates":[[[[127.358221,34.838077],[127.358872,34.839904],[127.359132,34.840566],[127.360615,34.840283],[127.360938,34.841018],[127.362779,34.841556],[127.364607,34.842177],[127.364638,34.842174],[127.365817,34.841906],[127.366,34.841845],[127.366056,34.841838],[127.366047,34.841874],[127.366059,34.841941],[127.366655,34.843715],[127.366846,34.844103],[127.365779,34.844389],[127.365315,34.844189],[127.365243,34.844146],[127.364519,34.843829],[127.36394,34.843579],[127.363589,34.843418],[127.36337,34.843327],[127.363235,34.843268],[127.363138,34.843225],[127.362685,34.843029],[127.36232,34.842868],[127.36219,34.842811],[127.362163,34.84282],[127.362088,34.842776],[127.362067,34.842756],[127.361843,34.842657],[127.361463,34.842489],[127.36134,34.842431],[127.360553,34.84209],[127.360263,34.841961],[127.359867,34.841783],[127.35967,34.841697],[127.359473,34.84161],[127.359384,34.841574],[127.358633,34.841242],[127.3585,34.841183],[127.358433,34.841153],[127.358254,34.84108],[127.357899,34.840917],[127.357875,34.840902],[127.357543,34.840752],[127.357539,34.840737],[127.357524,34.840741],[127.357445,34.840707],[127.357141,34.840572],[127.356882,34.840385],[127.356616,34.840167],[127.356521,34.839937],[127.356547,34.839679],[127.356556,34.839592],[127.356538,34.839293],[127.356973,34.838772],[127.357238,34.838591],[127.358066,34.838148],[127.358221,34.838077]]]]},"properties":{"id":"FLD:12750:111:36122","layer":"FLOOD_TRACE","admin_code":"12750","sido_code":"46","flood_year":"2007","occurred_at":"2007-09-13","ended_at":"2007-09-18","begin_time":"0000","end_time":"0000","disaster_name":"집중호우 및 제11호 태풍“나리”피해","cause_detail":"해수 월류(만조 시)로 인한 피해와 지반유실로인한 침수","flood_grade":1,"flood_depth_m":0.1,"flood_area_m2":695095.7,"source_sn":111,"data_status":"actual","official_data":true,"is_prediction":false,"source":"행정안전부 침수흔적도 · 재난안전데이터공유플랫폼 DSSP-IF-00117","collected_at":"2026-08-19T16:46:51+09:00","source_crs":"EPSG:3857","display_badges":["행안부 침수흔적도","과거 기록"]}},{"type":"Feature","id":"FLD:12750:110:36157","geometry":{"type":"MultiPolygon","coordinates":[[[[127.350717,34.838866],[127.350666,34.839108],[127.350615,34.839351],[127.350605,34.839397],[127.350554,34.839638],[127.350503,34.839882],[127.350439,34.840185],[127.350297,34.840161],[127.349847,34.840116],[127.349479,34.840093],[127.349096,34.840073],[127.348807,34.84007],[127.348558,34.840081],[127.348478,34.840094],[127.348355,34.840101],[127.34784,34.840126],[127.347747,34.840136],[127.347318,34.840189],[127.347246,34.840192],[127.346973,34.840218],[127.346637,34.840203],[127.346218,34.84018],[127.345882,34.840116],[127.345714,34.840056],[127.345647,34.840029],[127.345526,34.839977],[127.345445,34.839928],[127.34534,34.839816],[127.345325,34.839819],[127.345301,34.83977],[127.345299,34.839731],[127.345385,34.839697],[127.345438,34.839669],[127.345521,34.839605],[127.345552,34.839581],[127.345652,34.83954],[127.345683,34.839528],[127.345834,34.839504],[127.345941,34.839517],[127.345984,34.839514],[127.346005,34.839498],[127.346104,34.839393],[127.346185,34.839294],[127.346262,34.839244],[127.346404,34.839187],[127.346464,34.839139],[127.346549,34.839115],[127.346666,34.839086],[127.346768,34.839069],[127.346917,34.839075],[127.346988,34.839083],[127.347069,34.839087],[127.347205,34.839074],[127.347346,34.839051],[127.347423,34.839035],[127.3475,34.839015],[127.347602,34.838971],[127.34769,34.838932],[127.347802,34.838868],[127.347861,34.838831],[127.34793,34.838777],[127.347967,34.838717],[127.348001,34.838667],[127.348036,34.838582],[127.348104,34.838465],[127.34815,34.838371],[127.348162,34.838341],[127.348243,34.838078],[127.348254,34.838038],[127.34826,34.837951],[127.348287,34.837757],[127.348315,34.837632],[127.348325,34.837571],[127.348329,34.837484],[127.348328,34.837429],[127.348328,34.837374],[127.34838,34.837133],[127.348405,34.837144],[127.348735,34.837299],[127.349095,34.837468],[127.349345,34.837586],[127.349377,34.837601],[127.349811,34.837801],[127.349854,34.837829],[127.349867,34.837826],[127.350274,34.838012],[127.350467,34.8381],[127.350673,34.838199],[127.35066,34.838215],[127.35051,34.838336],[127.350243,34.838443],[127.350199,34.838456],[127.350181,34.838541],[127.35013,34.838785],[127.350717,34.838866]]]]},"properties":{"id":"FLD:12750:110:36157","layer":"FLOOD_TRACE","admin_code":"12750","sido_code":"46","flood_year":"2007","occurred_at":"2007-09-13","ended_at":"2007-09-18","begin_time":"0000","end_time":"0000","disaster_name":"집중호우 및 제11호 태풍“나리”피해","cause_detail":"해수 월류(만조 시)로 인한 피해와 지반유실로인한 침수","flood_grade":2,"flood_depth_m":0.71,"flood_area_m2":695095.7,"source_sn":110,"data_status":"actual","official_data":true,"is_prediction":false,"source":"행정안전부 침수흔적도 · 재난안전데이터공유플랫폼 DSSP-IF-00117","collected_at":"2026-08-19T16:46:51+09:00","source_crs":"EPSG:3857","display_badges":["행안부 침수흔적도","과거 기록"]}},{"type":"Feature","id":"FLD:12750:109:36158","geometry":{"type":"MultiPolygon","coordinates":[[[[127.360191,34.837434],[127.362567,34.836756],[127.362834,34.836868],[127.362888,34.837015],[127.362928,34.837128],[127.363048,34.837489],[127.364424,34.837164],[127.364475,34.837314],[127.364614,34.837721],[127.364661,34.837861],[127.364763,34.838163],[127.364843,34.838402],[127.3649,34.838572],[127.364942,34.838703],[127.364987,34.83882],[127.365028,34.838937],[127.365069,34.839056],[127.365097,34.839141],[127.365146,34.839167],[127.364945,34.839229],[127.363686,34.839541],[127.363676,34.839501],[127.363429,34.838779],[127.361935,34.839124],[127.36188,34.839141],[127.360401,34.839479],[127.360361,34.839357],[127.360319,34.839233],[127.360285,34.83913],[127.360208,34.839077],[127.360198,34.839049],[127.360149,34.838902],[127.359908,34.838211],[127.359815,34.837937],[127.359771,34.837804],[127.360191,34.837434]]]]},"properties":{"id":"FLD:12750:109:36158","layer":"FLOOD_TRACE","admin_code":"12750","sido_code":"46","flood_year":"2007","occurred_at":"2007-09-13","ended_at":"2007-09-18","begin_time":"0000","end_time":"0000","disaster_name":"집중호우 및 제11호 태풍“나리”피해","cause_detail":"해수 월류(만조 시)로 인한 피해와 지반유실로인한 침수","flood_grade":3,"flood_depth_m":1,"flood_area_m2":695095.7,"source_sn":109,"data_status":"actual","official_data":true,"is_prediction":false,"source":"행정안전부 침수흔적도 · 재난안전데이터공유플랫폼 DSSP-IF-00117","collected_at":"2026-08-19T16:46:51+09:00","source_crs":"EPSG:3857","display_badges":["행안부 침수흔적도","과거 기록"]}},{"type":"Feature","id":"FLD:12750:115:36159","geometry":{"type":"MultiPolygon","coordinates":[[[[127.364607,34.842177],[127.362779,34.841556],[127.360938,34.841018],[127.360615,34.840283],[127.359132,34.840566],[127.358872,34.839904],[127.358285,34.838265],[127.358221,34.838077],[127.358394,34.837999],[127.358889,34.837822],[127.360191,34.837434],[127.359771,34.837804],[127.359908,34.838211],[127.360208,34.839077],[127.360285,34.83913],[127.360401,34.839479],[127.36188,34.839141],[127.361935,34.839124],[127.363429,34.838779],[127.363471,34.838902],[127.363513,34.83903],[127.363686,34.839541],[127.364945,34.839229],[127.365146,34.839167],[127.365185,34.839247],[127.36521,34.8394],[127.366056,34.841838],[127.366,34.841845],[127.365817,34.841906],[127.364638,34.842174],[127.364607,34.842177]]]]},"properties":{"id":"FLD:12750:115:36159","layer":"FLOOD_TRACE","admin_code":"12750","sido_code":"46","flood_year":"2007","occurred_at":"2007-09-13","ended_at":"2007-09-18","begin_time":"0000","end_time":"0000","disaster_name":"집중호우 및 제11호 태풍“나리”피해","cause_detail":"해수 월류(만조 시)로 인한 피해와 지반유실로인한 침수","flood_grade":2,"flood_depth_m":0.68,"flood_area_m2":695095.7,"source_sn":115,"data_status":"actual","official_data":true,"is_prediction":false,"source":"행정안전부 침수흔적도 · 재난안전데이터공유플랫폼 DSSP-IF-00117","collected_at":"2026-08-19T16:46:51+09:00","source_crs":"EPSG:3857","display_badges":["행안부 침수흔적도","과거 기록"]}},{"type":"Feature","id":"FLD:12750:112:36160","geometry":{"type":"MultiPolygon","coordinates":[[[[127.350841,34.838276],[127.35119,34.838433],[127.351395,34.838525],[127.351429,34.838541],[127.351984,34.838792],[127.351984,34.838795],[127.351994,34.838796],[127.352537,34.839042],[127.35257,34.839057],[127.352804,34.839162],[127.353281,34.839379],[127.353216,34.839543],[127.353122,34.839707],[127.353023,34.839851],[127.352895,34.839979],[127.352741,34.840096],[127.352535,34.840233],[127.352288,34.840397],[127.352153,34.840445],[127.352034,34.840455],[127.351614,34.840423],[127.351127,34.840322],[127.351057,34.840313],[127.351019,34.840303],[127.350855,34.840285],[127.350439,34.840185],[127.350503,34.839882],[127.350554,34.839638],[127.350605,34.839397],[127.350615,34.839351],[127.350666,34.839108],[127.350717,34.838866],[127.350841,34.838276]]]]},"properties":{"id":"FLD:12750:112:36160","layer":"FLOOD_TRACE","admin_code":"12750","sido_code":"46","flood_year":"2007","occurred_at":"2007-09-13","ended_at":"2007-09-18","begin_time":"0000","end_time":"0000","disaster_name":"집중호우 및 제11호 태풍“나리”피해","cause_detail":"해수 월류(만조 시)로 인한 피해와 지반유실로인한 침수","flood_grade":1,"flood_depth_m":0.22,"flood_area_m2":695095.7,"source_sn":112,"data_status":"actual","official_data":true,"is_prediction":false,"source":"행정안전부 침수흔적도 · 재난안전데이터공유플랫폼 DSSP-IF-00117","collected_at":"2026-08-19T16:46:51+09:00","source_crs":"EPSG:3857","display_badges":["행안부 침수흔적도","과거 기록"]}},{"type":"Feature","id":"FLD:12750:114:36195","geometry":{"type":"MultiPolygon","coordinates":[[[[127.34428,34.841355],[127.344524,34.841518],[127.344417,34.841652],[127.344424,34.841655],[127.344568,34.841721],[127.344587,34.84173],[127.344676,34.841772],[127.344688,34.841778],[127.344802,34.841835],[127.344818,34.841843],[127.344985,34.841925],[127.345013,34.841931],[127.345128,34.841782],[127.346324,34.842425],[127.346213,34.842553],[127.346024,34.842447],[127.345943,34.842535],[127.34601,34.842571],[127.346062,34.842599],[127.346255,34.842698],[127.346311,34.842715],[127.346315,34.842708],[127.346427,34.842741],[127.346557,34.842779],[127.346553,34.84279],[127.346567,34.842795],[127.346722,34.84284],[127.346845,34.842874],[127.347021,34.842923],[127.347082,34.84294],[127.347115,34.842951],[127.347142,34.842961],[127.347275,34.842996],[127.347384,34.843031],[127.34749,34.843066],[127.347637,34.84312],[127.347829,34.84319],[127.348008,34.843256],[127.348129,34.843299],[127.348216,34.84333],[127.348338,34.843375],[127.34853,34.843477],[127.348594,34.843511],[127.348545,34.843551],[127.348424,34.843649],[127.348329,34.843725],[127.348275,34.843768],[127.348146,34.843871],[127.348056,34.843947],[127.347729,34.84419],[127.34771,34.844118],[127.347571,34.844084],[127.34753,34.844075],[127.34752,34.844073],[127.347393,34.844049],[127.347336,34.844037],[127.347272,34.844024],[127.347194,34.844008],[127.347164,34.844002],[127.346969,34.843959],[127.346852,34.843937],[127.346762,34.843917],[127.346593,34.843878],[127.346467,34.843851],[127.346143,34.843783],[127.34573,34.843693],[127.345649,34.843673],[127.345503,34.843642],[127.345324,34.843603],[127.345228,34.843583],[127.345171,34.843572],[127.345077,34.843551],[127.344634,34.843456],[127.344625,34.843442],[127.344595,34.843512],[127.344579,34.843559],[127.344511,34.843774],[127.344494,34.843829],[127.34448,34.843875],[127.344465,34.843922],[127.34443,34.844033],[127.344291,34.844029],[127.344224,34.844015],[127.343981,34.843965],[127.34394,34.843954],[127.343876,34.843942],[127.343782,34.843924],[127.34377,34.843918],[127.34357,34.843892],[127.343584,34.843806],[127.34359,34.843741],[127.343593,34.843658],[127.343583,34.843591],[127.343576,34.843543],[127.343571,34.843506],[127.34355,34.843422],[127.343564,34.843419],[127.343558,34.843367],[127.343554,34.843331],[127.343537,34.843238],[127.343505,34.843107],[127.343479,34.843014],[127.343454,34.842906],[127.343438,34.842845],[127.3434,34.842688],[127.34338,34.842605],[127.343353,34.842493],[127.343336,34.842419],[127.343329,34.842397],[127.343299,34.842291],[127.34335,34.842171],[127.343298,34.842147],[127.343289,34.84211],[127.343271,34.842051],[127.343248,34.841973],[127.343234,34.841923],[127.343228,34.841903],[127.343211,34.841815],[127.343205,34.841801],[127.343389,34.841724],[127.343691,34.8416],[127.34428,34.841355]]]]},"properties":{"id":"FLD:12750:114:36195","layer":"FLOOD_TRACE","admin_code":"12750","sido_code":"46","flood_year":"2007","occurred_at":"2007-09-13","ended_at":"2007-09-18","begin_time":"0000","end_time":"0000","disaster_name":"집중호우 및 제11호 태풍 ‘나리’피","cause_detail":"해수 월류(만조 시)로 인한 피해 발생","flood_grade":2,"flood_depth_m":0.82,"flood_area_m2":370779.3,"source_sn":114,"data_status":"actual","official_data":true,"is_prediction":false,"source":"행정안전부 침수흔적도 · 재난안전데이터공유플랫폼 DSSP-IF-00117","collected_at":"2026-08-19T16:46:51+09:00","source_crs":"EPSG:3857","display_badges":["행안부 침수흔적도","과거 기록"]}},{"type":"Feature","id":"FLD:12750:108:36201","geometry":{"type":"MultiPolygon","coordinates":[[[[127.34838,34.837133],[127.348328,34.837374],[127.348329,34.837484],[127.348325,34.837571],[127.348315,34.837632],[127.348287,34.837757],[127.34826,34.837951],[127.348254,34.838038],[127.348243,34.838078],[127.348162,34.838341],[127.34815,34.838371],[127.348104,34.838465],[127.348036,34.838582],[127.348001,34.838667],[127.347967,34.838717],[127.34793,34.838777],[127.347861,34.838831],[127.34769,34.838932],[127.347602,34.838971],[127.3475,34.839015],[127.347423,34.839035],[127.347346,34.839051],[127.347205,34.839074],[127.347069,34.839087],[127.346917,34.839075],[127.346768,34.839069],[127.346666,34.839086],[127.346549,34.839115],[127.346464,34.839139],[127.346404,34.839187],[127.346262,34.839244],[127.346185,34.839294],[127.346104,34.839393],[127.346005,34.839498],[127.345984,34.839514],[127.345972,34.839485],[127.346015,34.839386],[127.346014,34.839332],[127.345965,34.839298],[127.345934,34.839273],[127.345924,34.839209],[127.34592,34.839196],[127.345909,34.839142],[127.345887,34.839109],[127.345867,34.839033],[127.345862,34.839014],[127.345839,34.838946],[127.345842,34.838916],[127.345833,34.838903],[127.345791,34.838829],[127.34578,34.83881],[127.345747,34.838726],[127.34575,34.838701],[127.345736,34.838665],[127.345761,34.838551],[127.345497,34.838573],[127.345422,34.838571],[127.345408,34.838553],[127.345388,34.838565],[127.345307,34.838563],[127.345256,34.838577],[127.345206,34.83855],[127.345136,34.838526],[127.345115,34.838573],[127.345062,34.838567],[127.345042,34.838567],[127.34499,34.838539],[127.344973,34.838558],[127.344933,34.838556],[127.344915,34.838596],[127.344898,34.838587],[127.344828,34.838584],[127.344774,34.838596],[127.344731,34.838595],[127.344678,34.838603],[127.34461,34.838609],[127.344558,34.838631],[127.34451,34.838622],[127.344497,34.838646],[127.34442,34.838627],[127.344361,34.838617],[127.34437,34.83869],[127.344386,34.838874],[127.34436,34.838909],[127.344429,34.838973],[127.34447,34.839029],[127.344491,34.839056],[127.344502,34.839071],[127.344566,34.839118],[127.34462,34.839175],[127.344703,34.839306],[127.344836,34.839519],[127.344725,34.839477],[127.344545,34.839354],[127.344277,34.83924],[127.344079,34.839179],[127.343981,34.83915],[127.343822,34.839117],[127.343763,34.839111],[127.34324,34.839063],[127.343082,34.839049],[127.342936,34.839047],[127.342821,34.839038],[127.342733,34.839031],[127.342539,34.839016],[127.342462,34.838982],[127.342449,34.838959],[127.342277,34.838664],[127.34219,34.838527],[127.342054,34.838319],[127.342044,34.838304],[127.34202,34.838269],[127.341992,34.838229],[127.341954,34.838169],[127.342067,34.837917],[127.342346,34.837296],[127.342313,34.837292],[127.342366,34.837175],[127.342385,34.837176],[127.342425,34.837095],[127.342492,34.836969],[127.342511,34.836929],[127.342627,34.836679],[127.342653,34.836621],[127.342752,34.836444],[127.342762,34.836425],[127.342787,34.836378],[127.342868,34.836222],[127.342919,34.836125],[127.343043,34.836002],[127.343067,34.836002],[127.343318,34.835904],[127.34375,34.835949],[127.343932,34.835968],[127.344588,34.836056],[127.345052,34.836117],[127.345508,34.836175],[127.345497,34.836198],[127.345509,34.836222],[127.345526,34.836236],[127.345694,34.836231],[127.346038,34.836315],[127.346581,34.836449],[127.346825,34.83651],[127.346889,34.836533],[127.346912,34.836542],[127.347762,34.836871],[127.348027,34.836983],[127.348348,34.83712],[127.34838,34.837133]]]]},"properties":{"id":"FLD:12750:108:36201","layer":"FLOOD_TRACE","admin_code":"12750","sido_code":"46","flood_year":"2007","occurred_at":"2007-09-13","ended_at":"2007-09-18","begin_time":"0000","end_time":"0000","disaster_name":"집중호우 및 제11호 태풍“나리”피해","cause_detail":"해수 월류(만조 시)로 인한 피해와 지반유실로인한 침수","flood_grade":1,"flood_depth_m":0.31,"flood_area_m2":695095.7,"source_sn":108,"data_status":"actual","official_data":true,"is_prediction":false,"source":"행정안전부 침수흔적도 · 재난안전데이터공유플랫폼 DSSP-IF-00117","collected_at":"2026-08-19T16:46:51+09:00","source_crs":"EPSG:3857","display_badges":["행안부 침수흔적도","과거 기록"]}},{"type":"Feature","id":"FLD:12750:107:36202","geometry":{"type":"MultiPolygon","coordinates":[[[[127.347729,34.84419],[127.34747,34.84439],[127.347272,34.844542],[127.347279,34.844563],[127.347233,34.844592],[127.347209,34.844608],[127.347189,34.844621],[127.346967,34.844766],[127.346771,34.844895],[127.346534,34.845054],[127.346467,34.845099],[127.34644,34.845118],[127.346106,34.845347],[127.346093,34.84536],[127.345564,34.845711],[127.345216,34.845935],[127.344835,34.846163],[127.344489,34.846375],[127.344317,34.846479],[127.344223,34.846532],[127.344145,34.846578],[127.344076,34.846623],[127.343923,34.846723],[127.343851,34.846769],[127.343816,34.846792],[127.343786,34.846811],[127.343755,34.846831],[127.343727,34.846849],[127.343695,34.846869],[127.343666,34.846888],[127.343618,34.846919],[127.343576,34.846947],[127.34354,34.846971],[127.343513,34.846988],[127.343556,34.847034],[127.343388,34.847141],[127.343347,34.847094],[127.343295,34.847126],[127.343208,34.847182],[127.343141,34.847225],[127.343082,34.847263],[127.342873,34.847397],[127.342866,34.847402],[127.342843,34.847417],[127.34283,34.847425],[127.342646,34.84754],[127.342587,34.847578],[127.342531,34.847613],[127.342499,34.847634],[127.342412,34.847688],[127.342257,34.847785],[127.342054,34.847917],[127.341948,34.847983],[127.341853,34.84808],[127.341773,34.848156],[127.341772,34.848166],[127.341763,34.848172],[127.341638,34.84808],[127.341574,34.848138],[127.341567,34.848144],[127.341548,34.84816],[127.341482,34.848214],[127.341379,34.848264],[127.341356,34.848275],[127.341311,34.848297],[127.341336,34.848309],[127.34132,34.848334],[127.341286,34.848303],[127.341108,34.848392],[127.341098,34.848383],[127.34094,34.848433],[127.340825,34.84847],[127.340691,34.848508],[127.340546,34.848553],[127.340404,34.848621],[127.3404,34.848617],[127.340254,34.848436],[127.340152,34.848301],[127.340282,34.848229],[127.340393,34.848167],[127.340508,34.848102],[127.340567,34.848068],[127.34065,34.847996],[127.340714,34.84794],[127.340818,34.84784],[127.340827,34.847824],[127.340931,34.847696],[127.341031,34.847564],[127.341039,34.847553],[127.341095,34.847478],[127.341566,34.846833],[127.341595,34.846794],[127.341635,34.84674],[127.341665,34.846699],[127.341698,34.846656],[127.341715,34.846633],[127.341767,34.846564],[127.341776,34.846552],[127.341812,34.846458],[127.341825,34.846421],[127.341838,34.846382],[127.34185,34.846347],[127.341852,34.846338],[127.341885,34.846253],[127.341889,34.846224],[127.341854,34.846175],[127.341824,34.845981],[127.341809,34.845886],[127.341812,34.845866],[127.341811,34.845855],[127.341809,34.845845],[127.341791,34.845697],[127.341806,34.845661],[127.341806,34.845653],[127.341799,34.84554],[127.341802,34.84552],[127.341812,34.845438],[127.34182,34.845399],[127.341981,34.845417],[127.342007,34.84542],[127.342038,34.845291],[127.342066,34.845176],[127.34209,34.845064],[127.342092,34.845054],[127.342115,34.844948],[127.342137,34.844853],[127.342158,34.844754],[127.342199,34.844574],[127.342139,34.844565],[127.34202,34.844548],[127.34204,34.844485],[127.341998,34.84448],[127.341945,34.844478],[127.341884,34.844444],[127.341784,34.844442],[127.341774,34.844427],[127.341695,34.844417],[127.341591,34.844356],[127.341508,34.84432],[127.341468,34.844294],[127.341502,34.84422],[127.341547,34.844153],[127.34171,34.843865],[127.341774,34.843715],[127.341801,34.843701],[127.341844,34.843574],[127.341894,34.843415],[127.342034,34.84313],[127.342124,34.843035],[127.342174,34.842978],[127.342279,34.842922],[127.342295,34.842896],[127.342331,34.842838],[127.342377,34.842803],[127.342382,34.842799],[127.342581,34.842647],[127.342589,34.84264],[127.342622,34.842641],[127.342635,34.842479],[127.342622,34.842349],[127.342612,34.84227],[127.342614,34.842209],[127.342638,34.842143],[127.342644,34.84209],[127.342664,34.842027],[127.342666,34.842021],[127.342675,34.841977],[127.342705,34.841938],[127.342827,34.841917],[127.342867,34.841905],[127.342854,34.841876],[127.342842,34.841851],[127.342825,34.841814],[127.342763,34.84172],[127.342758,34.841712],[127.342751,34.841701],[127.342731,34.841669],[127.342688,34.841548],[127.342583,34.841565],[127.342552,34.841453],[127.342548,34.841438],[127.342486,34.84135],[127.342472,34.841282],[127.342494,34.841191],[127.34243,34.841205],[127.342424,34.841154],[127.34242,34.841103],[127.342404,34.841011],[127.342391,34.840948],[127.34243,34.840925],[127.342455,34.840973],[127.342474,34.840925],[127.342421,34.840891],[127.34235,34.840853],[127.342314,34.840818],[127.342292,34.840796],[127.34221,34.840689],[127.342213,34.840669],[127.342221,34.840617],[127.342185,34.84053],[127.342094,34.840458],[127.341956,34.840407],[127.341915,34.840426],[127.341857,34.840416],[127.341828,34.840411],[127.341813,34.840401],[127.341706,34.840325],[127.341662,34.840312],[127.34159,34.840293],[127.341583,34.84031],[127.341554,34.840301],[127.341442,34.840263],[127.341426,34.840244],[127.341394,34.840208],[127.341273,34.840164],[127.341308,34.840101],[127.341315,34.84009],[127.341344,34.840041],[127.34135,34.840033],[127.341355,34.840024],[127.34137,34.840001],[127.341444,34.839932],[127.341491,34.839929],[127.341575,34.839922],[127.341655,34.839913],[127.341723,34.839905],[127.341823,34.839882],[127.341873,34.839887],[127.341931,34.839912],[127.341987,34.839932],[127.342013,34.839929],[127.342066,34.839924],[127.34217,34.839898],[127.342244,34.839887],[127.342329,34.839894],[127.342332,34.839895],[127.342386,34.839917],[127.342692,34.840152],[127.342747,34.840228],[127.342768,34.840258],[127.34287,34.840375],[127.342962,34.840475],[127.343003,34.840518],[127.343147,34.84065],[127.343179,34.840676],[127.343492,34.840905],[127.343671,34.840996],[127.343738,34.841034],[127.344095,34.841238],[127.344219,34.841317],[127.344222,34.841319],[127.34428,34.841355],[127.343691,34.8416],[127.343389,34.841724],[127.343205,34.841801],[127.343211,34.841815],[127.343228,34.841903],[127.343234,34.841923],[127.343248,34.841973],[127.343271,34.842051],[127.343289,34.84211],[127.343298,34.842147],[127.34335,34.842171],[127.343299,34.842291],[127.343329,34.842397],[127.343336,34.842419],[127.343353,34.842493],[127.34338,34.842605],[127.3434,34.842688],[127.343438,34.842845],[127.343454,34.842906],[127.343479,34.843014],[127.343505,34.843107],[127.343537,34.843238],[127.343554,34.843331],[127.343558,34.843367],[127.343564,34.843419],[127.34355,34.843422],[127.343571,34.843506],[127.343576,34.843543],[127.343583,34.843591],[127.343593,34.843658],[127.34359,34.843741],[127.343584,34.843806],[127.34357,34.843892],[127.34377,34.843918],[127.343782,34.843924],[127.343876,34.843942],[127.34394,34.843954],[127.343981,34.843965],[127.344224,34.844015],[127.344285,34.844028],[127.344291,34.844029],[127.34443,34.844033],[127.344465,34.843922],[127.34448,34.843875],[127.344494,34.843829],[127.344511,34.843774],[127.344579,34.843559],[127.344595,34.843512],[127.344625,34.843442],[127.344634,34.843456],[127.345077,34.843551],[127.345171,34.843572],[127.345228,34.843583],[127.345324,34.843603],[127.345503,34.843642],[127.345649,34.843673],[127.34573,34.843693],[127.346143,34.843783],[127.346467,34.843851],[127.346593,34.843878],[127.346762,34.843917],[127.346852,34.843937],[127.346969,34.843959],[127.347164,34.844002],[127.347194,34.844008],[127.347272,34.844024],[127.347336,34.844037],[127.347393,34.844049],[127.34752,34.844073],[127.34753,34.844075],[127.347571,34.844084],[127.34771,34.844118],[127.347729,34.84419]]]]},"properties":{"id":"FLD:12750:107:36202","layer":"FLOOD_TRACE","admin_code":"12750","sido_code":"46","flood_year":"2007","occurred_at":"2007-09-13","ended_at":"2007-09-18","begin_time":"0000","end_time":"0000","disaster_name":"집중호우 및 제11호 태풍 ‘나리’피","cause_detail":"해수 월류(만조 시)로 인한 피해 발생","flood_grade":1,"flood_depth_m":0.33,"flood_area_m2":370779.3,"source_sn":107,"data_status":"actual","official_data":true,"is_prediction":false,"source":"행정안전부 침수흔적도 · 재난안전데이터공유플랫폼 DSSP-IF-00117","collected_at":"2026-08-19T16:46:51+09:00","source_crs":"EPSG:3857","display_badges":["행안부 침수흔적도","과거 기록"]}}]}