{"type":"FeatureCollection","features":[{"type":"Feature","id":"FLD:48330:421:3684","geometry":{"type":"MultiPolygon","coordinates":[[[[129.02765,35.349536],[129.027618,35.349516],[129.027592,35.349487],[129.027687,35.349406],[129.028487,35.348816],[129.028757,35.348551],[129.029414,35.347901],[129.029538,35.348002],[129.029643,35.348303],[129.029681,35.348423],[129.029945,35.349405],[129.030035,35.349741],[129.030085,35.349923],[129.030162,35.350048],[129.030208,35.350123],[129.030205,35.350144],[129.030184,35.350152],[129.030153,35.350136],[129.02998,35.349919],[129.02985,35.349621],[129.029763,35.349294],[129.029754,35.349203],[129.029458,35.348116],[129.029374,35.348116],[129.029279,35.348206],[129.029087,35.348392],[129.028638,35.348766],[129.028282,35.349038],[129.027757,35.349445],[129.02765,35.349536]]]]},"properties":{"id":"FLD:48330:421:3684","layer":"FLOOD_TRACE","admin_code":"48330","sido_code":"48","flood_year":"2016","occurred_at":"2016-10-05","ended_at":"2016-10-05","begin_time":"1000","end_time":"1300","disaster_name":"태풍차바","cause_detail":"저지대 및 내수배제 불량","flood_grade":2,"flood_depth_m":0.75,"flood_area_m2":4933.97991,"source_sn":421,"data_status":"actual","official_data":true,"is_prediction":false,"source":"행정안전부 침수흔적도 · 재난안전데이터공유플랫폼 DSSP-IF-00117","collected_at":"2026-08-19T16:46:51+09:00","source_crs":"EPSG:3857","display_badges":["행안부 침수흔적도","과거 기록"]}},{"type":"Feature","id":"FLD:48330:420:3685","geometry":{"type":"MultiPolygon","coordinates":[[[[129.025378,35.344252],[129.025406,35.344186],[129.0255,35.344161],[129.025667,35.344105],[129.025732,35.344059],[129.026543,35.343494],[129.026754,35.343333],[129.026616,35.343155],[129.026267,35.342718],[129.026176,35.342603],[129.026187,35.342584],[129.026262,35.342544],[129.026287,35.342535],[129.026319,35.342534],[129.026431,35.342594],[129.027005,35.343322],[129.027254,35.343655],[129.027337,35.34377],[129.027383,35.343856],[129.027407,35.344111],[129.027445,35.344261],[129.027517,35.344369],[129.027636,35.34447],[129.027848,35.344649],[129.028558,35.345222],[129.028589,35.345282],[129.028332,35.345399],[129.027955,35.345539],[129.027618,35.345653],[129.027406,35.345713],[129.027282,35.345723],[129.027043,35.345631],[129.026838,35.345576],[129.026437,35.345463],[129.026265,35.345367],[129.026071,35.345371],[129.025734,35.345261],[129.025033,35.345362],[129.024958,35.34531],[129.024957,35.345235],[129.025098,35.344962],[129.025193,35.344798],[129.025346,35.344363],[129.025378,35.344252]]]]},"properties":{"id":"FLD:48330:420:3685","layer":"FLOOD_TRACE","admin_code":"48330","sido_code":"48","flood_year":"2016","occurred_at":"2016-10-05","ended_at":"2016-10-05","begin_time":"1000","end_time":"1300","disaster_name":"태풍차바","cause_detail":"저지대 및 내수배제 불량","flood_grade":3,"flood_depth_m":1.25,"flood_area_m2":49047.18382,"source_sn":420,"data_status":"actual","official_data":true,"is_prediction":false,"source":"행정안전부 침수흔적도 · 재난안전데이터공유플랫폼 DSSP-IF-00117","collected_at":"2026-08-19T16:46:51+09:00","source_crs":"EPSG:3857","display_badges":["행안부 침수흔적도","과거 기록"]}},{"type":"Feature","id":"FLD:48330:422:3687","geometry":{"type":"MultiPolygon","coordinates":[[[[129.031048,35.350702],[129.032408,35.352205],[129.032684,35.352565],[129.033051,35.353156],[129.033228,35.353558],[129.031717,35.354056],[129.03168,35.354061],[129.031207,35.353182],[129.031293,35.353151],[129.031359,35.353117],[129.031659,35.352891],[129.031732,35.352837],[129.031807,35.352716],[129.03186,35.352601],[129.031869,35.352515],[129.031835,35.352401],[129.03182,35.352372],[129.03164,35.352211],[129.031638,35.352161],[129.031759,35.351853],[129.03172,35.351774],[129.031013,35.350873],[129.030881,35.350742],[129.030882,35.350725],[129.030906,35.350684],[129.03095,35.350668],[129.030998,35.350667],[129.031048,35.350702]]]]},"properties":{"id":"FLD:48330:422:3687","layer":"FLOOD_TRACE","admin_code":"48330","sido_code":"48","flood_year":"2016","occurred_at":"2016-10-05","ended_at":"2016-10-05","begin_time":"1000","end_time":"1300","disaster_name":"태풍차바","cause_detail":"저지대 및 내수배제 불량","flood_grade":3,"flood_depth_m":1.25,"flood_area_m2":26900.27097,"source_sn":422,"data_status":"actual","official_data":true,"is_prediction":false,"source":"행정안전부 침수흔적도 · 재난안전데이터공유플랫폼 DSSP-IF-00117","collected_at":"2026-08-19T16:46:51+09:00","source_crs":"EPSG:3857","display_badges":["행안부 침수흔적도","과거 기록"]}},{"type":"Feature","id":"FLD:48330:424:3688","geometry":{"type":"MultiPolygon","coordinates":[[[[129.160282,35.412611],[129.160626,35.412595],[129.160752,35.41258],[129.160995,35.412496],[129.161536,35.41224],[129.161657,35.412159],[129.161688,35.412047],[129.16165,35.411786],[129.161762,35.41171],[129.161845,35.41193],[129.16204,35.412188],[129.162187,35.412463],[129.162166,35.412609],[129.161724,35.412761],[129.161537,35.412783],[129.161336,35.41289],[129.161059,35.412932],[129.16071,35.412936],[129.160501,35.41288],[129.160288,35.412745],[129.160264,35.412652],[129.160272,35.412616],[129.160282,35.412611]]]]},"properties":{"id":"FLD:48330:424:3688","layer":"FLOOD_TRACE","admin_code":"48330","sido_code":"48","flood_year":"2016","occurred_at":"2016-10-05","ended_at":"2016-10-05","begin_time":"1000","end_time":"1300","disaster_name":"태풍차바","cause_detail":"저지대 및 내수배제 불량","flood_grade":2,"flood_depth_m":0.75,"flood_area_m2":9222.17422,"source_sn":424,"data_status":"actual","official_data":true,"is_prediction":false,"source":"행정안전부 침수흔적도 · 재난안전데이터공유플랫폼 DSSP-IF-00117","collected_at":"2026-08-19T16:46:51+09:00","source_crs":"EPSG:3857","display_badges":["행안부 침수흔적도","과거 기록"]}},{"type":"Feature","id":"FLD:48330:423:3717","geometry":{"type":"MultiPolygon","coordinates":[[[[129.161762,35.41171],[129.161945,35.411711],[129.162085,35.411719],[129.162156,35.411723],[129.162212,35.411741],[129.162312,35.411828],[129.162426,35.411923],[129.162528,35.411984],[129.162802,35.412009],[129.162978,35.412051],[129.163027,35.412177],[129.16299,35.412324],[129.162949,35.412523],[129.162956,35.412636],[129.162492,35.412853],[129.162371,35.412815],[129.162275,35.412716],[129.162166,35.412609],[129.162187,35.412463],[129.16204,35.412188],[129.161845,35.41193],[129.161762,35.41171]]]]},"properties":{"id":"FLD:48330:423:3717","layer":"FLOOD_TRACE","admin_code":"48330","sido_code":"48","flood_year":"2016","occurred_at":"2016-10-05","ended_at":"2016-10-05","begin_time":"1000","end_time":"1300","disaster_name":"태풍차바","cause_detail":"저지대 및 내수배제 불량","flood_grade":3,"flood_depth_m":1.25,"flood_area_m2":8122.89282,"source_sn":423,"data_status":"actual","official_data":true,"is_prediction":false,"source":"행정안전부 침수흔적도 · 재난안전데이터공유플랫폼 DSSP-IF-00117","collected_at":"2026-08-19T16:46:51+09:00","source_crs":"EPSG:3857","display_badges":["행안부 침수흔적도","과거 기록"]}},{"type":"Feature","id":"FLD:48330:426:3718","geometry":{"type":"MultiPolygon","coordinates":[[[[129.159365,35.391592],[129.159321,35.391496],[129.159127,35.390982],[129.159068,35.390895],[129.159018,35.390809],[129.158885,35.390567],[129.158832,35.390479],[129.158876,35.390458],[129.159067,35.390525],[129.15935,35.390649],[129.159746,35.390915],[129.160055,35.391156],[129.160252,35.391297],[129.160256,35.391328],[129.160195,35.391347],[129.16,35.391335],[129.159365,35.391592]]]]},"properties":{"id":"FLD:48330:426:3718","layer":"FLOOD_TRACE","admin_code":"48330","sido_code":"48","flood_year":"2016","occurred_at":"2016-10-05","ended_at":"2016-10-05","begin_time":"1000","end_time":"1300","disaster_name":"태풍차바","cause_detail":"저지대, 하천범람 및 내수배제 불량","flood_grade":3,"flood_depth_m":1.25,"flood_area_m2":6459.52726,"source_sn":426,"data_status":"actual","official_data":true,"is_prediction":false,"source":"행정안전부 침수흔적도 · 재난안전데이터공유플랫폼 DSSP-IF-00117","collected_at":"2026-08-19T16:46:51+09:00","source_crs":"EPSG:3857","display_badges":["행안부 침수흔적도","과거 기록"]}},{"type":"Feature","id":"FLD:48330:425:3719","geometry":{"type":"MultiPolygon","coordinates":[[[[129.157121,35.389801],[129.157029,35.389771],[129.156981,35.389715],[129.156592,35.388989],[129.156145,35.388192],[129.156141,35.388168],[129.156155,35.388121],[129.156257,35.388014],[129.1563,35.38801],[129.156371,35.388039],[129.156445,35.38809],[129.156558,35.38814],[129.156678,35.388311],[129.156781,35.38837],[129.156989,35.388461],[129.157017,35.388499],[129.157197,35.388773],[129.157325,35.388997],[129.157439,35.389109],[129.157495,35.3892],[129.157482,35.389258],[129.157359,35.38937],[129.157332,35.389463],[129.157349,35.389548],[129.157365,35.38965],[129.157344,35.389708],[129.157309,35.389746],[129.157253,35.389775],[129.15717,35.3898],[129.157121,35.389801]]]]},"properties":{"id":"FLD:48330:425:3719","layer":"FLOOD_TRACE","admin_code":"48330","sido_code":"48","flood_year":"2016","occurred_at":"2016-10-05","ended_at":"2016-10-05","begin_time":"1000","end_time":"1300","disaster_name":"태풍차바","cause_detail":"저지대, 하천범람 및 내수배제 불량","flood_grade":2,"flood_depth_m":0.75,"flood_area_m2":10385.31441,"source_sn":425,"data_status":"actual","official_data":true,"is_prediction":false,"source":"행정안전부 침수흔적도 · 재난안전데이터공유플랫폼 DSSP-IF-00117","collected_at":"2026-08-19T16:46:51+09:00","source_crs":"EPSG:3857","display_badges":["행안부 침수흔적도","과거 기록"]}},{"type":"Feature","id":"FLD:48330:427:3720","geometry":{"type":"MultiPolygon","coordinates":[[[[128.986931,35.310876],[128.986766,35.310719],[128.986607,35.310628],[128.986348,35.310238],[128.986256,35.310107],[128.986185,35.309904],[128.986056,35.309623],[128.98584,35.308869],[128.985784,35.308635],[128.985615,35.308289],[128.985566,35.308168],[128.985585,35.308003],[128.985615,35.307855],[128.985615,35.307727],[128.985665,35.307593],[128.985768,35.307479],[128.985938,35.307452],[128.986048,35.307498],[128.986114,35.307577],[128.986051,35.307718],[128.986024,35.307923],[128.986033,35.308212],[128.986155,35.308609],[128.986242,35.308957],[128.986421,35.30947],[128.986538,35.309872],[128.986581,35.31],[128.986695,35.310152],[128.986803,35.310274],[128.987079,35.310566],[128.987173,35.310683],[128.987171,35.310768],[128.987121,35.310817],[128.987054,35.310861],[128.987018,35.310876],[128.986931,35.310876]]]]},"properties":{"id":"FLD:48330:427:3720","layer":"FLOOD_TRACE","admin_code":"48330","sido_code":"48","flood_year":"2016","occurred_at":"2016-10-05","ended_at":"2016-10-05","begin_time":"1000","end_time":"1300","disaster_name":"태풍차바","cause_detail":"저지대 및 내수배제 불량","flood_grade":2,"flood_depth_m":0.75,"flood_area_m2":14002.11185,"source_sn":427,"data_status":"actual","official_data":true,"is_prediction":false,"source":"행정안전부 침수흔적도 · 재난안전데이터공유플랫폼 DSSP-IF-00117","collected_at":"2026-08-19T16:46:51+09:00","source_crs":"EPSG:3857","display_badges":["행안부 침수흔적도","과거 기록"]}},{"type":"Feature","id":"FLD:48330:428:3721","geometry":{"type":"MultiPolygon","coordinates":[[[[128.982236,35.309026],[128.982234,35.309039],[128.981973,35.309202],[128.981235,35.309564],[128.980665,35.309857],[128.980302,35.310086],[128.980243,35.310135],[128.980133,35.310183],[128.980021,35.310172],[128.979949,35.310149],[128.979899,35.310095],[128.979885,35.309996],[128.979965,35.309796],[128.980162,35.309613],[128.981023,35.309128],[128.981455,35.308877],[128.98158,35.308821],[128.981749,35.308773],[128.981865,35.308764],[128.982008,35.308819],[128.982158,35.308945],[128.982217,35.308998],[128.982236,35.309026]]]]},"properties":{"id":"FLD:48330:428:3721","layer":"FLOOD_TRACE","admin_code":"48330","sido_code":"48","flood_year":"2016","occurred_at":"2016-10-05","ended_at":"2016-10-05","begin_time":"1000","end_time":"1300","disaster_name":"태풍차바","cause_detail":"저지대 및 내수배제 불량","flood_grade":2,"flood_depth_m":0.75,"flood_area_m2":11602.41364,"source_sn":428,"data_status":"actual","official_data":true,"is_prediction":false,"source":"행정안전부 침수흔적도 · 재난안전데이터공유플랫폼 DSSP-IF-00117","collected_at":"2026-08-19T16:46:51+09:00","source_crs":"EPSG:3857","display_badges":["행안부 침수흔적도","과거 기록"]}},{"type":"Feature","id":"FLD:48330:429:3723","geometry":{"type":"MultiPolygon","coordinates":[[[[128.980591,35.343767],[128.980583,35.343773],[128.980557,35.343771],[128.980497,35.343779],[128.980461,35.34381],[128.980427,35.343932],[128.980367,35.343985],[128.980233,35.344031],[128.980075,35.344041],[128.979942,35.344041],[128.979744,35.344097],[128.979651,35.344087],[128.979552,35.344062],[128.979315,35.343991],[128.979233,35.344012],[128.979192,35.344068],[128.979228,35.344173],[128.979209,35.344292],[128.97918,35.344374],[128.979136,35.344492],[128.97912,35.344636],[128.979096,35.344711],[128.979149,35.344832],[128.979141,35.344849],[128.979109,35.344864],[128.979059,35.344856],[128.978979,35.344798],[128.978889,35.344774],[128.978825,35.344774],[128.978768,35.344827],[128.978707,35.344871],[128.978622,35.344865],[128.978578,35.344841],[128.978553,35.344786],[128.978557,35.344654],[128.978542,35.344393],[128.978485,35.344079],[128.978389,35.343678],[128.97833,35.343471],[128.978233,35.34326],[128.978193,35.343163],[128.978209,35.343129],[128.978308,35.343124],[128.97838,35.343171],[128.978455,35.343312],[128.9785,35.343397],[128.978538,35.343522],[128.978605,35.343735],[128.978633,35.343783],[128.978684,35.343814],[128.978845,35.343804],[128.979041,35.343762],[128.979072,35.343739],[128.979065,35.343676],[128.979159,35.34364],[128.979222,35.343632],[128.979299,35.343629],[128.979402,35.343647],[128.979447,35.3437],[128.979454,35.343796],[128.979464,35.343885],[128.979507,35.343931],[128.979615,35.343975],[128.979692,35.343964],[128.979728,35.343872],[128.979737,35.343821],[128.979785,35.343745],[128.979882,35.343695],[128.979922,35.343673],[128.979912,35.343616],[128.979934,35.343575],[128.980004,35.343534],[128.980045,35.343535],[128.98013,35.343587],[128.980218,35.343631],[128.980291,35.343658],[128.980394,35.343664],[128.98046,35.343671],[128.980514,35.343682],[128.980581,35.343719],[128.980599,35.343731],[128.980599,35.343757],[128.980591,35.343767]]]]},"properties":{"id":"FLD:48330:429:3723","layer":"FLOOD_TRACE","admin_code":"48330","sido_code":"48","flood_year":"2016","occurred_at":"2016-10-05","ended_at":"2016-10-05","begin_time":"1000","end_time":"1300","disaster_name":"태풍차바","cause_detail":"저지대 및 구거정비 미흡으로 인한 배수 불량","flood_grade":2,"flood_depth_m":0.75,"flood_area_m2":12637.63202,"source_sn":429,"data_status":"actual","official_data":true,"is_prediction":false,"source":"행정안전부 침수흔적도 · 재난안전데이터공유플랫폼 DSSP-IF-00117","collected_at":"2026-08-19T16:46:51+09:00","source_crs":"EPSG:3857","display_badges":["행안부 침수흔적도","과거 기록"]}},{"type":"Feature","id":"FLD:48330:436:3724","geometry":{"type":"MultiPolygon","coordinates":[[[[129.049244,35.391467],[129.049156,35.391475],[129.049096,35.391456],[129.049037,35.391412],[129.048932,35.391032],[129.048315,35.391096],[129.04831,35.391124],[129.048242,35.391167],[129.048184,35.391134],[129.048105,35.391043],[129.048047,35.390864],[129.048044,35.390836],[129.048063,35.390662],[129.04805,35.390603],[129.04798,35.390484],[129.047976,35.390451],[129.048049,35.390059],[129.048671,35.389922],[129.048524,35.389379],[129.04855,35.389313],[129.048496,35.389227],[129.04856,35.389179],[129.049454,35.388587],[129.049578,35.388475],[129.049846,35.388107],[129.049968,35.388177],[129.049992,35.389266],[129.049985,35.389696],[129.049244,35.391467]]]]},"properties":{"id":"FLD:48330:436:3724","layer":"FLOOD_TRACE","admin_code":"48330","sido_code":"48","flood_year":"2016","occurred_at":"2016-10-05","ended_at":"2016-10-05","begin_time":"1000","end_time":"1300","disaster_name":"태풍차바","cause_detail":"양산천 범람 및 소하천 배수불량으로 인한 하천역류","flood_grade":2,"flood_depth_m":1.75,"flood_area_m2":37320.87778,"source_sn":436,"data_status":"actual","official_data":true,"is_prediction":false,"source":"행정안전부 침수흔적도 · 재난안전데이터공유플랫폼 DSSP-IF-00117","collected_at":"2026-08-19T16:46:51+09:00","source_crs":"EPSG:3857","display_badges":["행안부 침수흔적도","과거 기록"]}},{"type":"Feature","id":"FLD:48330:435:3755","geometry":{"type":"MultiPolygon","coordinates":[[[[129.056999,35.411939],[129.057,35.411939],[129.056802,35.412069],[129.056729,35.412109],[129.056624,35.412147],[129.05666,35.412227],[129.056614,35.412266],[129.056598,35.412307],[129.056597,35.41234],[129.056593,35.412383],[129.056662,35.412641],[129.056724,35.412892],[129.056756,35.412934],[129.056781,35.412958],[129.056945,35.413038],[129.057047,35.413081],[129.057109,35.413136],[129.05716,35.41318],[129.05736,35.413314],[129.057514,35.413404],[129.057548,35.413413],[129.057571,35.413411],[129.057658,35.413361],[129.057373,35.412761],[129.057283,35.412119],[129.057262,35.412051],[129.05721,35.411999],[129.057225,35.411987],[129.057289,35.411968],[129.057457,35.411944],[129.057563,35.411939],[129.057713,35.411956],[129.05782,35.411994],[129.057868,35.412116],[129.057876,35.412191],[129.057596,35.412219],[129.057607,35.412315],[129.05766,35.412711],[129.05776,35.412959],[129.057873,35.413292],[129.057859,35.413384],[129.056878,35.413711],[129.056854,35.413758],[129.05691,35.413935],[129.056964,35.414098],[129.057157,35.414494],[129.057373,35.41486],[129.057661,35.415284],[129.058103,35.415719],[129.058393,35.415976],[129.058718,35.416247],[129.05874,35.416295],[129.058733,35.41634],[129.058709,35.416363],[129.058648,35.416383],[129.058605,35.416387],[129.05857,35.416377],[129.058309,35.416188],[129.058144,35.416073],[129.057942,35.415897],[129.057797,35.415768],[129.057652,35.415622],[129.057528,35.415492],[129.057318,35.415254],[129.057182,35.415094],[129.057067,35.414923],[129.056944,35.414689],[129.056738,35.414323],[129.056719,35.414259],[129.056703,35.414119],[129.056622,35.413917],[129.056542,35.41365],[129.056483,35.413314],[129.056393,35.412802],[129.056305,35.412075],[129.056129,35.411224],[129.056036,35.410486],[129.056057,35.410452],[129.056361,35.410458],[129.056507,35.410483],[129.056622,35.410523],[129.056627,35.41087],[129.056627,35.410965],[129.056737,35.411238],[129.056838,35.411505],[129.056879,35.411666],[129.056899,35.411802],[129.056999,35.411939]]]]},"properties":{"id":"FLD:48330:435:3755","layer":"FLOOD_TRACE","admin_code":"48330","sido_code":"48","flood_year":"2016","occurred_at":"2016-10-05","ended_at":"2016-10-05","begin_time":"1000","end_time":"1300","disaster_name":"태풍차바","cause_detail":"저지대 및 양산천, 소하천 범람","flood_grade":2,"flood_depth_m":0.75,"flood_area_m2":31783.08269,"source_sn":435,"data_status":"actual","official_data":true,"is_prediction":false,"source":"행정안전부 침수흔적도 · 재난안전데이터공유플랫폼 DSSP-IF-00117","collected_at":"2026-08-19T16:46:51+09:00","source_crs":"EPSG:3857","display_badges":["행안부 침수흔적도","과거 기록"]}},{"type":"Feature","id":"FLD:48330:430:3756","geometry":{"type":"MultiPolygon","coordinates":[[[[129.057658,35.413361],[129.057571,35.413411],[129.057548,35.413413],[129.057514,35.413404],[129.05736,35.413314],[129.05716,35.41318],[129.057109,35.413136],[129.057047,35.413081],[129.056945,35.413038],[129.056781,35.412958],[129.056756,35.412934],[129.056724,35.412892],[129.056662,35.412641],[129.056593,35.412383],[129.056597,35.41234],[129.056598,35.412307],[129.056614,35.412266],[129.05666,35.412227],[129.056728,35.412209],[129.056909,35.412147],[129.057103,35.412069],[129.05721,35.411999],[129.05722,35.412009],[129.057262,35.412051],[129.057283,35.412119],[129.057373,35.412761],[129.057472,35.412961],[129.057658,35.413361]]]]},"properties":{"id":"FLD:48330:430:3756","layer":"FLOOD_TRACE","admin_code":"48330","sido_code":"48","flood_year":"2016","occurred_at":"2016-10-05","ended_at":"2016-10-05","begin_time":"1000","end_time":"1300","disaster_name":"태풍차바","cause_detail":"저지대 및 양산천, 소하천 범람","flood_grade":3,"flood_depth_m":1.25,"flood_area_m2":7672.15655,"source_sn":430,"data_status":"actual","official_data":true,"is_prediction":false,"source":"행정안전부 침수흔적도 · 재난안전데이터공유플랫폼 DSSP-IF-00117","collected_at":"2026-08-19T16:46:51+09:00","source_crs":"EPSG:3857","display_badges":["행안부 침수흔적도","과거 기록"]}},{"type":"Feature","id":"FLD:48330:432:3757","geometry":{"type":"MultiPolygon","coordinates":[[[[129.066703,35.440008],[129.066207,35.439786],[129.065954,35.439526],[129.066029,35.437825],[129.066473,35.435607],[129.066504,35.434772],[129.066244,35.432216],[129.066437,35.432214],[129.066968,35.432677],[129.06758,35.432686],[129.068687,35.434682],[129.069081,35.435445],[129.069221,35.435895],[129.069255,35.436119],[129.069187,35.436309],[129.069056,35.436837],[129.068913,35.437302],[129.068423,35.43809],[129.06819,35.438249],[129.067869,35.438628],[129.067547,35.439178],[129.067392,35.439584],[129.067264,35.439934],[129.066932,35.440019],[129.066703,35.440008]]]]},"properties":{"id":"FLD:48330:432:3757","layer":"FLOOD_TRACE","admin_code":"48330","sido_code":"48","flood_year":"2016","occurred_at":"2016-10-05","ended_at":"2016-10-05","begin_time":"1000","end_time":"1300","disaster_name":"태풍차바","cause_detail":"양산천 범람","flood_grade":2,"flood_depth_m":0.75,"flood_area_m2":160010.82971,"source_sn":432,"data_status":"actual","official_data":true,"is_prediction":false,"source":"행정안전부 침수흔적도 · 재난안전데이터공유플랫폼 DSSP-IF-00117","collected_at":"2026-08-19T16:46:51+09:00","source_crs":"EPSG:3857","display_badges":["행안부 침수흔적도","과거 기록"]}},{"type":"Feature","id":"FLD:48330:431:3758","geometry":{"type":"MultiPolygon","coordinates":[[[[129.047854,35.389033],[129.047805,35.388457],[129.047682,35.388191],[129.047554,35.387717],[129.04737,35.387164],[129.047521,35.387184],[129.047919,35.387144],[129.048216,35.387227],[129.048446,35.38736],[129.04946,35.387947],[129.049773,35.387967],[129.049846,35.388107],[129.049578,35.388475],[129.049454,35.388587],[129.04856,35.389179],[129.048436,35.389263],[129.048294,35.389217],[129.048115,35.389328],[129.048031,35.389359],[129.04796,35.389366],[129.047848,35.389353],[129.047854,35.389033]]]]},"properties":{"id":"FLD:48330:431:3758","layer":"FLOOD_TRACE","admin_code":"48330","sido_code":"48","flood_year":"2016","occurred_at":"2016-10-05","ended_at":"2016-10-05","begin_time":"1000","end_time":"1300","disaster_name":"태풍차바","cause_detail":"양산천 범람 및 소하천 배수불량으로 인한 하천역류","flood_grade":2,"flood_depth_m":0.75,"flood_area_m2":30593.26669,"source_sn":431,"data_status":"actual","official_data":true,"is_prediction":false,"source":"행정안전부 침수흔적도 · 재난안전데이터공유플랫폼 DSSP-IF-00117","collected_at":"2026-08-19T16:46:51+09:00","source_crs":"EPSG:3857","display_badges":["행안부 침수흔적도","과거 기록"]}},{"type":"Feature","id":"FLD:48330:433:3759","geometry":{"type":"MultiPolygon","coordinates":[[[[129.064623,35.431996],[129.06412,35.432153],[129.063829,35.432225],[129.06381,35.432197],[129.064118,35.431734],[129.064205,35.43154],[129.064307,35.430992],[129.064373,35.430615],[129.064414,35.430578],[129.064478,35.430577],[129.064703,35.431398],[129.064734,35.431755],[129.064711,35.431904],[129.064623,35.431996]]]]},"properties":{"id":"FLD:48330:433:3759","layer":"FLOOD_TRACE","admin_code":"48330","sido_code":"48","flood_year":"2016","occurred_at":"2016-10-05","ended_at":"2016-10-05","begin_time":"1000","end_time":"1300","disaster_name":"태풍차바","cause_detail":"양산천 범람","flood_grade":2,"flood_depth_m":0.75,"flood_area_m2":6786.70098,"source_sn":433,"data_status":"actual","official_data":true,"is_prediction":false,"source":"행정안전부 침수흔적도 · 재난안전데이터공유플랫폼 DSSP-IF-00117","collected_at":"2026-08-19T16:46:51+09:00","source_crs":"EPSG:3857","display_badges":["행안부 침수흔적도","과거 기록"]}},{"type":"Feature","id":"FLD:48330:434:3760","geometry":{"type":"MultiPolygon","coordinates":[[[[129.064662,35.433498],[129.06452,35.433462],[129.064373,35.433413],[129.06429,35.433357],[129.064237,35.433301],[129.064206,35.433243],[129.064175,35.433173],[129.064103,35.432995],[129.064105,35.432867],[129.06403,35.432669],[129.063952,35.432537],[129.063909,35.432387],[129.063926,35.432376],[129.06428,35.432281],[129.064352,35.432323],[129.064518,35.432377],[129.064638,35.432385],[129.064654,35.432402],[129.064622,35.432757],[129.064711,35.433408],[129.064696,35.433475],[129.064662,35.433498]]]]},"properties":{"id":"FLD:48330:434:3760","layer":"FLOOD_TRACE","admin_code":"48330","sido_code":"48","flood_year":"2016","occurred_at":"2016-10-05","ended_at":"2016-10-05","begin_time":"1000","end_time":"1300","disaster_name":"태풍차바","cause_detail":"양산천 범람","flood_grade":2,"flood_depth_m":0.75,"flood_area_m2":6290.50541,"source_sn":434,"data_status":"actual","official_data":true,"is_prediction":false,"source":"행정안전부 침수흔적도 · 재난안전데이터공유플랫폼 DSSP-IF-00117","collected_at":"2026-08-19T16:46:51+09:00","source_crs":"EPSG:3857","display_badges":["행안부 침수흔적도","과거 기록"]}},{"type":"Feature","id":"FLD:48330:4787:14944","geometry":{"type":"MultiPolygon","coordinates":[[[[128.939004,35.348062],[128.939239,35.34795],[128.939424,35.348247],[128.939183,35.348362],[128.939048,35.348171],[128.939004,35.348062]]]]},"properties":{"id":"FLD:48330:4787:14944","layer":"FLOOD_TRACE","admin_code":"48330","sido_code":"48","flood_year":"2020","occurred_at":"2020-08-08","ended_at":"2020-08-09","begin_time":"0800","end_time":"0500","disaster_name":"2020.8.7~8.9 집중호우","cause_detail":"집중호우","flood_grade":3,"flood_depth_m":1.432,"flood_area_m2":2290.6,"source_sn":4787,"data_status":"actual","official_data":true,"is_prediction":false,"source":"행정안전부 침수흔적도 · 재난안전데이터공유플랫폼 DSSP-IF-00117","collected_at":"2026-08-19T16:46:51+09:00","source_crs":"EPSG:3857","display_badges":["행안부 침수흔적도","과거 기록"]}},{"type":"Feature","id":"FLD:48330:4786:14945","geometry":{"type":"MultiPolygon","coordinates":[[[[128.938872,35.347869],[128.93889,35.347834],[128.939048,35.34784],[128.939134,35.347871],[128.939232,35.347939],[128.939239,35.34795],[128.939004,35.348062],[128.938985,35.348015],[128.938932,35.347921],[128.938872,35.347869]]]]},"properties":{"id":"FLD:48330:4786:14945","layer":"FLOOD_TRACE","admin_code":"48330","sido_code":"48","flood_year":"2020","occurred_at":"2020-08-08","ended_at":"2020-08-09","begin_time":"0800","end_time":"0500","disaster_name":"2020.8.7~8.9 집중호우","cause_detail":"집중호우","flood_grade":2,"flood_depth_m":1.982,"flood_area_m2":2290.6,"source_sn":4786,"data_status":"actual","official_data":true,"is_prediction":false,"source":"행정안전부 침수흔적도 · 재난안전데이터공유플랫폼 DSSP-IF-00117","collected_at":"2026-08-19T16:46:51+09:00","source_crs":"EPSG:3857","display_badges":["행안부 침수흔적도","과거 기록"]}},{"type":"Feature","id":"FLD:48330:4785:14946","geometry":{"type":"MultiPolygon","coordinates":[[[[128.939326,35.348541],[128.939541,35.348439],[128.939564,35.34848],[128.939634,35.34857],[128.939552,35.348631],[128.939353,35.348558],[128.939326,35.348541]]]]},"properties":{"id":"FLD:48330:4785:14946","layer":"FLOOD_TRACE","admin_code":"48330","sido_code":"48","flood_year":"2020","occurred_at":"2020-08-08","ended_at":"2020-08-09","begin_time":"0800","end_time":"0500","disaster_name":"2020.8.7~8.9 집중호우","cause_detail":"집중호우","flood_grade":1,"flood_depth_m":0.232,"flood_area_m2":2290.6,"source_sn":4785,"data_status":"actual","official_data":true,"is_prediction":false,"source":"행정안전부 침수흔적도 · 재난안전데이터공유플랫폼 DSSP-IF-00117","collected_at":"2026-08-19T16:46:51+09:00","source_crs":"EPSG:3857","display_badges":["행안부 침수흔적도","과거 기록"]}},{"type":"Feature","id":"FLD:48330:4788:14947","geometry":{"type":"MultiPolygon","coordinates":[[[[128.939183,35.348362],[128.939424,35.348247],[128.939517,35.348395],[128.939541,35.348439],[128.939326,35.348541],[128.939303,35.348526],[128.93923,35.348428],[128.939183,35.348362]]]]},"properties":{"id":"FLD:48330:4788:14947","layer":"FLOOD_TRACE","admin_code":"48330","sido_code":"48","flood_year":"2020","occurred_at":"2020-08-08","ended_at":"2020-08-09","begin_time":"0800","end_time":"0500","disaster_name":"2020.8.7~8.9 집중호우","cause_detail":"집중호우","flood_grade":2,"flood_depth_m":0.832,"flood_area_m2":2290.6,"source_sn":4788,"data_status":"actual","official_data":true,"is_prediction":false,"source":"행정안전부 침수흔적도 · 재난안전데이터공유플랫폼 DSSP-IF-00117","collected_at":"2026-08-19T16:46:51+09:00","source_crs":"EPSG:3857","display_badges":["행안부 침수흔적도","과거 기록"]}},{"type":"Feature","id":"FLD:48330:4789:14948","geometry":{"type":"MultiPolygon","coordinates":[[[[129.057216,35.398964],[129.05719,35.398844],[129.057272,35.398832],[129.057558,35.398834],[129.057619,35.39911],[129.057407,35.399118],[129.057216,35.398964]]]]},"properties":{"id":"FLD:48330:4789:14948","layer":"FLOOD_TRACE","admin_code":"48330","sido_code":"48","flood_year":"2020","occurred_at":"2020-08-08","ended_at":"2020-08-09","begin_time":"0800","end_time":"0500","disaster_name":"2020.8.7~8.9 집중호우","cause_detail":"집중호우","flood_grade":1,"flood_depth_m":0.482,"flood_area_m2":6898.7,"source_sn":4789,"data_status":"actual","official_data":true,"is_prediction":false,"source":"행정안전부 침수흔적도 · 재난안전데이터공유플랫폼 DSSP-IF-00117","collected_at":"2026-08-19T16:46:51+09:00","source_crs":"EPSG:3857","display_badges":["행안부 침수흔적도","과거 기록"]}},{"type":"Feature","id":"FLD:48330:4793:14949","geometry":{"type":"MultiPolygon","coordinates":[[[[129.056779,35.398369],[129.056812,35.398321],[129.056929,35.398366],[129.057044,35.398434],[129.057112,35.398487],[129.057206,35.398591],[129.057272,35.398832],[129.05719,35.398844],[129.057127,35.398651],[129.057091,35.398567],[129.057002,35.398489],[129.056779,35.398369]]]]},"properties":{"id":"FLD:48330:4793:14949","layer":"FLOOD_TRACE","admin_code":"48330","sido_code":"48","flood_year":"2020","occurred_at":"2020-08-08","ended_at":"2020-08-09","begin_time":"0800","end_time":"0500","disaster_name":"2020.8.7~8.9 집중호우","cause_detail":"집중호우","flood_grade":3,"flood_depth_m":1.379,"flood_area_m2":6898.7,"source_sn":4793,"data_status":"actual","official_data":true,"is_prediction":false,"source":"행정안전부 침수흔적도 · 재난안전데이터공유플랫폼 DSSP-IF-00117","collected_at":"2026-08-19T16:46:51+09:00","source_crs":"EPSG:3857","display_badges":["행안부 침수흔적도","과거 기록"]}},{"type":"Feature","id":"FLD:48330:4792:15681","geometry":{"type":"MultiPolygon","coordinates":[[[[129.056214,35.398017],[129.056256,35.397964],[129.056374,35.398068],[129.056532,35.398182],[129.056812,35.398321],[129.056779,35.398369],[129.056499,35.398218],[129.056214,35.398017]]]]},"properties":{"id":"FLD:48330:4792:15681","layer":"FLOOD_TRACE","admin_code":"48330","sido_code":"48","flood_year":"2020","occurred_at":"2020-08-08","ended_at":"2020-08-09","begin_time":"0800","end_time":"0500","disaster_name":"2020.8.7~8.9 집중호우","cause_detail":"집중호우","flood_grade":2,"flood_depth_m":0.541,"flood_area_m2":6898.7,"source_sn":4792,"data_status":"actual","official_data":true,"is_prediction":false,"source":"행정안전부 침수흔적도 · 재난안전데이터공유플랫폼 DSSP-IF-00117","collected_at":"2026-08-19T16:46:51+09:00","source_crs":"EPSG:3857","display_badges":["행안부 침수흔적도","과거 기록"]}},{"type":"Feature","id":"FLD:48330:4791:15682","geometry":{"type":"MultiPolygon","coordinates":[[[[129.057166,35.398185],[129.057156,35.398198],[129.056969,35.398213],[129.056877,35.398212],[129.056812,35.398321],[129.056532,35.398182],[129.056374,35.398068],[129.056256,35.397964],[129.056214,35.398017],[129.056137,35.39784],[129.056218,35.397757],[129.056278,35.397656],[129.056332,35.397529],[129.056463,35.397583],[129.056454,35.397754],[129.056491,35.397914],[129.056593,35.39791],[129.056679,35.398067],[129.057147,35.398083],[129.057153,35.398183],[129.057166,35.398185]]]]},"properties":{"id":"FLD:48330:4791:15682","layer":"FLOOD_TRACE","admin_code":"48330","sido_code":"48","flood_year":"2020","occurred_at":"2020-08-08","ended_at":"2020-08-09","begin_time":"0800","end_time":"0500","disaster_name":"2020.8.7~8.9 집중호우","cause_detail":"집중호우","flood_grade":1,"flood_depth_m":0.357,"flood_area_m2":6898.7,"source_sn":4791,"data_status":"actual","official_data":true,"is_prediction":false,"source":"행정안전부 침수흔적도 · 재난안전데이터공유플랫폼 DSSP-IF-00117","collected_at":"2026-08-19T16:46:51+09:00","source_crs":"EPSG:3857","display_badges":["행안부 침수흔적도","과거 기록"]}},{"type":"Feature","id":"FLD:48330:4790:15683","geometry":{"type":"MultiPolygon","coordinates":[[[[129.057558,35.398834],[129.057272,35.398832],[129.057206,35.398591],[129.057112,35.398487],[129.057044,35.398434],[129.056929,35.398366],[129.056812,35.398321],[129.056877,35.398212],[129.056969,35.398213],[129.057156,35.398198],[129.057166,35.398185],[129.057424,35.398233],[129.057558,35.398834]]]]},"properties":{"id":"FLD:48330:4790:15683","layer":"FLOOD_TRACE","admin_code":"48330","sido_code":"48","flood_year":"2020","occurred_at":"2020-08-08","ended_at":"2020-08-09","begin_time":"0800","end_time":"0500","disaster_name":"2020.8.7~8.9 집중호우","cause_detail":"집중호우","flood_grade":2,"flood_depth_m":0.743,"flood_area_m2":6898.7,"source_sn":4790,"data_status":"actual","official_data":true,"is_prediction":false,"source":"행정안전부 침수흔적도 · 재난안전데이터공유플랫폼 DSSP-IF-00117","collected_at":"2026-08-19T16:46:51+09:00","source_crs":"EPSG:3857","display_badges":["행안부 침수흔적도","과거 기록"]}}]}