{"type":"FeatureCollection","features":[{"type":"Feature","id":"FLD:51830:1693:11794","geometry":{"type":"MultiPolygon","coordinates":[[[[128.61631,38.073054],[128.616283,38.073429],[128.616015,38.073738],[128.615768,38.073696],[128.615595,38.073682],[128.615332,38.073789],[128.614452,38.074081],[128.614316,38.073296],[128.614457,38.073135],[128.61475,38.072999],[128.615113,38.072995],[128.615388,38.072978],[128.615761,38.073018],[128.616026,38.073029],[128.61631,38.073054]]]]},"properties":{"id":"FLD:51830:1693:11794","layer":"FLOOD_TRACE","admin_code":"51830","sido_code":"42","flood_year":"2020","occurred_at":"2020-09-02","ended_at":"2020-09-03","begin_time":"2000","end_time":"0400","disaster_name":"제9호 태풍 마이삭","cause_detail":"태풍에 의한 침수","flood_grade":2,"flood_depth_m":0.622,"flood_area_m2":14673.8,"source_sn":1693,"data_status":"actual","official_data":true,"is_prediction":false,"source":"행정안전부 침수흔적도 · 재난안전데이터공유플랫폼 DSSP-IF-00117","collected_at":"2026-08-19T16:46:51+09:00","source_crs":"EPSG:3857","display_badges":["행안부 침수흔적도","과거 기록"]}},{"type":"Feature","id":"FLD:51830:1692:11795","geometry":{"type":"MultiPolygon","coordinates":[[[[128.626477,38.069363],[128.626814,38.069203],[128.627032,38.06874],[128.627521,38.068777],[128.628131,38.068753],[128.628979,38.069083],[128.629517,38.069115],[128.629619,38.069278],[128.630097,38.069832],[128.630202,38.070143],[128.630289,38.070329],[128.630617,38.070651],[128.630728,38.071029],[128.630162,38.071165],[128.629896,38.070985],[128.629565,38.070794],[128.629122,38.070603],[128.628574,38.070224],[128.628155,38.069909],[128.627413,38.069786],[128.627161,38.069793],[128.626477,38.069363]]]]},"properties":{"id":"FLD:51830:1692:11795","layer":"FLOOD_TRACE","admin_code":"51830","sido_code":"42","flood_year":"2020","occurred_at":"2020-09-02","ended_at":"2020-09-03","begin_time":"2000","end_time":"0400","disaster_name":"제9호 태풍 마이삭","cause_detail":"태풍에 의한 침수","flood_grade":2,"flood_depth_m":0.569,"flood_area_m2":44419.6,"source_sn":1692,"data_status":"actual","official_data":true,"is_prediction":false,"source":"행정안전부 침수흔적도 · 재난안전데이터공유플랫폼 DSSP-IF-00117","collected_at":"2026-08-19T16:46:51+09:00","source_crs":"EPSG:3857","display_badges":["행안부 침수흔적도","과거 기록"]}},{"type":"Feature","id":"FLD:51830:1691:11796","geometry":{"type":"MultiPolygon","coordinates":[[[[128.618431,38.07215],[128.617797,38.071847],[128.617897,38.071547],[128.618192,38.070872],[128.619061,38.071164],[128.61944,38.071395],[128.619678,38.071576],[128.620431,38.072009],[128.61993,38.072555],[128.62046,38.072791],[128.620486,38.073165],[128.620762,38.073269],[128.620197,38.073762],[128.619784,38.073626],[128.619264,38.073412],[128.619493,38.073098],[128.618191,38.073075],[128.618149,38.072751],[128.618431,38.07215]]]]},"properties":{"id":"FLD:51830:1691:11796","layer":"FLOOD_TRACE","admin_code":"51830","sido_code":"42","flood_year":"2020","occurred_at":"2020-09-02","ended_at":"2020-09-03","begin_time":"2000","end_time":"0400","disaster_name":"제9호 태풍 마이삭","cause_detail":"태풍에 의한 침수","flood_grade":2,"flood_depth_m":0.783,"flood_area_m2":43579.9,"source_sn":1691,"data_status":"actual","official_data":true,"is_prediction":false,"source":"행정안전부 침수흔적도 · 재난안전데이터공유플랫폼 DSSP-IF-00117","collected_at":"2026-08-19T16:46:51+09:00","source_crs":"EPSG:3857","display_badges":["행안부 침수흔적도","과거 기록"]}},{"type":"Feature","id":"FLD:51830:1690:11797","geometry":{"type":"MultiPolygon","coordinates":[[[[128.627145,38.078219],[128.626843,38.078406],[128.625023,38.077721],[128.623611,38.077123],[128.622782,38.076808],[128.620887,38.076042],[128.621894,38.075826],[128.622184,38.075409],[128.62294,38.074186],[128.623495,38.074524],[128.624005,38.075077],[128.624281,38.076182],[128.624805,38.076416],[128.625975,38.076873],[128.626609,38.077541],[128.627145,38.078219]]]]},"properties":{"id":"FLD:51830:1690:11797","layer":"FLOOD_TRACE","admin_code":"51830","sido_code":"42","flood_year":"2020","occurred_at":"2020-09-02","ended_at":"2020-09-03","begin_time":"2000","end_time":"0400","disaster_name":"제9호 태풍 마이삭","cause_detail":"태풍에 의한 침수","flood_grade":2,"flood_depth_m":0.6,"flood_area_m2":78864.4,"source_sn":1690,"data_status":"actual","official_data":true,"is_prediction":false,"source":"행정안전부 침수흔적도 · 재난안전데이터공유플랫폼 DSSP-IF-00117","collected_at":"2026-08-19T16:46:51+09:00","source_crs":"EPSG:3857","display_badges":["행안부 침수흔적도","과거 기록"]}},{"type":"Feature","id":"FLD:51830:1694:11798","geometry":{"type":"MultiPolygon","coordinates":[[[[128.722378,38.022691],[128.722413,38.022834],[128.722431,38.022866],[128.721925,38.02283],[128.721507,38.022784],[128.721157,38.02269],[128.721232,38.0225],[128.721376,38.022445],[128.721791,38.022562],[128.722141,38.022673],[128.722378,38.022691]]]]},"properties":{"id":"FLD:51830:1694:11798","layer":"FLOOD_TRACE","admin_code":"51830","sido_code":"42","flood_year":"2020","occurred_at":"2020-09-02","ended_at":"2020-09-03","begin_time":"2000","end_time":"0400","disaster_name":"제9호 태풍 마이삭","cause_detail":"태풍에 의한 침수","flood_grade":1,"flood_depth_m":0.461,"flood_area_m2":2759.7,"source_sn":1694,"data_status":"actual","official_data":true,"is_prediction":false,"source":"행정안전부 침수흔적도 · 재난안전데이터공유플랫폼 DSSP-IF-00117","collected_at":"2026-08-19T16:46:51+09:00","source_crs":"EPSG:3857","display_badges":["행안부 침수흔적도","과거 기록"]}},{"type":"Feature","id":"FLD:51830:1695:11799","geometry":{"type":"MultiPolygon","coordinates":[[[[128.721248,38.019192],[128.721122,38.019489],[128.720903,38.019771],[128.720538,38.020052],[128.720116,38.019896],[128.719791,38.019584],[128.719683,38.018797],[128.720102,38.018633],[128.720531,38.018768],[128.720544,38.018965],[128.720475,38.019085],[128.720765,38.019085],[128.721169,38.018999],[128.721248,38.019192]]]]},"properties":{"id":"FLD:51830:1695:11799","layer":"FLOOD_TRACE","admin_code":"51830","sido_code":"42","flood_year":"2020","occurred_at":"2020-09-02","ended_at":"2020-09-03","begin_time":"2000","end_time":"0400","disaster_name":"제9호 태풍 마이삭","cause_detail":"태풍에 의한 침수","flood_grade":3,"flood_depth_m":1.432,"flood_area_m2":13527.7,"source_sn":1695,"data_status":"actual","official_data":true,"is_prediction":false,"source":"행정안전부 침수흔적도 · 재난안전데이터공유플랫폼 DSSP-IF-00117","collected_at":"2026-08-19T16:46:51+09:00","source_crs":"EPSG:3857","display_badges":["행안부 침수흔적도","과거 기록"]}}]}