{"type":"FeatureCollection","features":[{"type":"Feature","id":"FLD:48870:2037:1128","geometry":{"type":"MultiPolygon","coordinates":[[[[127.822828,35.635457],[127.822874,35.635405],[127.822944,35.635326],[127.822969,35.635288],[127.823002,35.635248],[127.823149,35.635067],[127.823237,35.635112],[127.824167,35.635618],[127.824227,35.635641],[127.824761,35.635934],[127.824781,35.635955],[127.824832,35.635968],[127.824931,35.636009],[127.825109,35.636135],[127.825111,35.636157],[127.825158,35.636181],[127.825203,35.636233],[127.82525,35.63628],[127.825282,35.636318],[127.825374,35.636418],[127.825219,35.636354],[127.825193,35.636285],[127.825057,35.636197],[127.825003,35.636154],[127.824984,35.636124],[127.824903,35.636115],[127.824814,35.636086],[127.824603,35.636032],[127.824419,35.636004],[127.824206,35.636012],[127.82407,35.636013],[127.823917,35.63603],[127.823902,35.63603],[127.823883,35.636031],[127.823847,35.636031],[127.823704,35.636031],[127.823549,35.635975],[127.823405,35.635934],[127.823302,35.635901],[127.82326,35.635888],[127.823218,35.635874],[127.823197,35.635852],[127.823173,35.635827],[127.823117,35.635766],[127.823098,35.635745],[127.823076,35.635709],[127.823007,35.635591],[127.823041,35.635552],[127.822946,35.635474],[127.822929,35.635468],[127.822894,35.635504],[127.82287,35.635487],[127.822828,35.635457]]]]},"properties":{"id":"FLD:48870:2037:1128","layer":"FLOOD_TRACE","admin_code":"48870","sido_code":"48","flood_year":"2012","occurred_at":"2012-09-17","ended_at":"2012-09-17","begin_time":"1000","end_time":"1900","disaster_name":"태풍'산바'","cause_detail":"태풍으로 인한 집중호우","flood_grade":2,"flood_depth_m":0.834,"flood_area_m2":15724.3,"source_sn":2037,"data_status":"actual","official_data":true,"is_prediction":false,"source":"행정안전부 침수흔적도 · 재난안전데이터공유플랫폼 DSSP-IF-00117","collected_at":"2026-08-19T16:46:51+09:00","source_crs":"EPSG:3857","display_badges":["행안부 침수흔적도","과거 기록"]}},{"type":"Feature","id":"FLD:48870:2028:1129","geometry":{"type":"MultiPolygon","coordinates":[[[[127.831796,35.605466],[127.831744,35.605447],[127.831714,35.605435],[127.831701,35.60543],[127.832038,35.605222],[127.832097,35.605196],[127.832196,35.605141],[127.832222,35.605131],[127.832356,35.60508],[127.832509,35.604981],[127.832518,35.605019],[127.832435,35.605078],[127.832307,35.605156],[127.832179,35.605222],[127.832065,35.605279],[127.831966,35.605346],[127.831858,35.605431],[127.831796,35.605466]]]]},"properties":{"id":"FLD:48870:2028:1129","layer":"FLOOD_TRACE","admin_code":"48870","sido_code":"48","flood_year":"2012","occurred_at":"2012-09-17","ended_at":"2012-09-17","begin_time":"1000","end_time":"1900","disaster_name":"태풍'산바'","cause_detail":"태풍으로 인한 집중호우","flood_grade":2,"flood_depth_m":0.917,"flood_area_m2":1452.44,"source_sn":2028,"data_status":"actual","official_data":true,"is_prediction":false,"source":"행정안전부 침수흔적도 · 재난안전데이터공유플랫폼 DSSP-IF-00117","collected_at":"2026-08-19T16:46:51+09:00","source_crs":"EPSG:3857","display_badges":["행안부 침수흔적도","과거 기록"]}},{"type":"Feature","id":"FLD:48870:2031:1130","geometry":{"type":"MultiPolygon","coordinates":[[[[127.832085,35.605504],[127.83207,35.605504],[127.832007,35.605486],[127.83199,35.605467],[127.831968,35.605444],[127.832037,35.60539],[127.832208,35.605285],[127.832394,35.605202],[127.832483,35.605157],[127.832622,35.605067],[127.832672,35.604965],[127.832674,35.604945],[127.832677,35.604921],[127.83268,35.604907],[127.832702,35.604861],[127.832762,35.604789],[127.832826,35.604714],[127.832882,35.604683],[127.832904,35.604677],[127.832929,35.604671],[127.832995,35.60466],[127.833021,35.604643],[127.833053,35.604623],[127.833115,35.604564],[127.833166,35.604508],[127.833214,35.604452],[127.833203,35.604552],[127.832995,35.604838],[127.832934,35.60496],[127.832919,35.604982],[127.832823,35.605048],[127.832777,35.605069],[127.832744,35.605104],[127.832685,35.605128],[127.832506,35.605234],[127.832494,35.605241],[127.832398,35.605296],[127.832299,35.605346],[127.832229,35.60538],[127.83217,35.605426],[127.832113,35.605459],[127.832085,35.605504]]]]},"properties":{"id":"FLD:48870:2031:1130","layer":"FLOOD_TRACE","admin_code":"48870","sido_code":"48","flood_year":"2012","occurred_at":"2012-09-17","ended_at":"2012-09-17","begin_time":"1000","end_time":"1900","disaster_name":"태풍'산바'","cause_detail":"태풍으로 인한 집중호우","flood_grade":1,"flood_depth_m":0.399,"flood_area_m2":1452.44,"source_sn":2031,"data_status":"actual","official_data":true,"is_prediction":false,"source":"행정안전부 침수흔적도 · 재난안전데이터공유플랫폼 DSSP-IF-00117","collected_at":"2026-08-19T16:46:51+09:00","source_crs":"EPSG:3857","display_badges":["행안부 침수흔적도","과거 기록"]}},{"type":"Feature","id":"FLD:48870:2025:1131","geometry":{"type":"MultiPolygon","coordinates":[[[[127.832874,35.603715],[127.832678,35.603514],[127.832679,35.603508],[127.832719,35.603413],[127.832765,35.603355],[127.832805,35.6033],[127.832843,35.603218],[127.832841,35.603193],[127.832876,35.603164],[127.832895,35.60319],[127.832892,35.603348],[127.832843,35.603428],[127.832805,35.603487],[127.832827,35.60359],[127.832837,35.603634],[127.832841,35.603641],[127.832866,35.603686],[127.832874,35.603715]]]]},"properties":{"id":"FLD:48870:2025:1131","layer":"FLOOD_TRACE","admin_code":"48870","sido_code":"48","flood_year":"2012","occurred_at":"2012-09-17","ended_at":"2012-09-17","begin_time":"1000","end_time":"1900","disaster_name":"태풍'산바'","cause_detail":"태풍으로 인한 집중호우","flood_grade":2,"flood_depth_m":0.914,"flood_area_m2":1452.44,"source_sn":2025,"data_status":"actual","official_data":true,"is_prediction":false,"source":"행정안전부 침수흔적도 · 재난안전데이터공유플랫폼 DSSP-IF-00117","collected_at":"2026-08-19T16:46:51+09:00","source_crs":"EPSG:3857","display_badges":["행안부 침수흔적도","과거 기록"]}},{"type":"Feature","id":"FLD:48870:2033:1132","geometry":{"type":"MultiPolygon","coordinates":[[[[127.833032,35.603318],[127.832992,35.603251],[127.833003,35.603193],[127.832997,35.603125],[127.832996,35.603107],[127.832986,35.603013],[127.833007,35.602976],[127.833049,35.602908],[127.833112,35.602808],[127.833192,35.602712],[127.833299,35.602604],[127.833345,35.602683],[127.833347,35.602695],[127.833365,35.602767],[127.833374,35.602803],[127.833343,35.60286],[127.833317,35.602913],[127.833304,35.602936],[127.833284,35.602976],[127.83325,35.602963],[127.83322,35.602999],[127.833237,35.603072],[127.833235,35.603169],[127.833204,35.603236],[127.833112,35.603294],[127.833086,35.603297],[127.833047,35.603302],[127.833032,35.603318]]]]},"properties":{"id":"FLD:48870:2033:1132","layer":"FLOOD_TRACE","admin_code":"48870","sido_code":"48","flood_year":"2012","occurred_at":"2012-09-17","ended_at":"2012-09-17","begin_time":"1000","end_time":"1900","disaster_name":"태풍'산바'","cause_detail":"태풍으로 인한 집중호우","flood_grade":1,"flood_depth_m":0.112,"flood_area_m2":1452.44,"source_sn":2033,"data_status":"actual","official_data":true,"is_prediction":false,"source":"행정안전부 침수흔적도 · 재난안전데이터공유플랫폼 DSSP-IF-00117","collected_at":"2026-08-19T16:46:51+09:00","source_crs":"EPSG:3857","display_badges":["행안부 침수흔적도","과거 기록"]}},{"type":"Feature","id":"FLD:48870:2035:1133","geometry":{"type":"MultiPolygon","coordinates":[[[[127.831452,35.606043],[127.831408,35.606061],[127.831363,35.60605],[127.831341,35.606045],[127.831305,35.606009],[127.831297,35.60599],[127.831282,35.605983],[127.831233,35.605973],[127.831236,35.605963],[127.831253,35.6059],[127.831297,35.605838],[127.831396,35.605786],[127.831433,35.605781],[127.831541,35.6057],[127.831694,35.605606],[127.831945,35.605461],[127.831955,35.605486],[127.831971,35.605499],[127.832002,35.605524],[127.831992,35.605525],[127.831918,35.605556],[127.831815,35.605625],[127.831752,35.605667],[127.83165,35.605801],[127.831452,35.606043]]]]},"properties":{"id":"FLD:48870:2035:1133","layer":"FLOOD_TRACE","admin_code":"48870","sido_code":"48","flood_year":"2012","occurred_at":"2012-09-17","ended_at":"2012-09-17","begin_time":"1000","end_time":"1900","disaster_name":"태풍'산바'","cause_detail":"태풍으로 인한 집중호우","flood_grade":2,"flood_depth_m":0.717,"flood_area_m2":1452.44,"source_sn":2035,"data_status":"actual","official_data":true,"is_prediction":false,"source":"행정안전부 침수흔적도 · 재난안전데이터공유플랫폼 DSSP-IF-00117","collected_at":"2026-08-19T16:46:51+09:00","source_crs":"EPSG:3857","display_badges":["행안부 침수흔적도","과거 기록"]}},{"type":"Feature","id":"FLD:48870:2032:1134","geometry":{"type":"MultiPolygon","coordinates":[[[[127.820565,35.634474],[127.820565,35.634465],[127.820565,35.634423],[127.820605,35.634359],[127.820658,35.634326],[127.820734,35.634305],[127.820777,35.634292],[127.820826,35.634313],[127.820916,35.634318],[127.821029,35.634314],[127.821047,35.634321],[127.821157,35.634297],[127.821227,35.634312],[127.821532,35.634424],[127.821554,35.634432],[127.821585,35.634441],[127.821599,35.634448],[127.822151,35.634766],[127.822292,35.634595],[127.822319,35.634613],[127.823149,35.635067],[127.823002,35.635248],[127.822969,35.635288],[127.822944,35.635326],[127.822874,35.635405],[127.822828,35.635457],[127.822817,35.635449],[127.822724,35.63538],[127.822471,35.635239],[127.822435,35.635201],[127.822342,35.635157],[127.822271,35.635137],[127.822,35.635001],[127.821968,35.634985],[127.821754,35.634878],[127.821612,35.63481],[127.821473,35.63474],[127.821443,35.634728],[127.821275,35.634664],[127.820974,35.63456],[127.820767,35.634504],[127.820595,35.634469],[127.820565,35.634474]]]]},"properties":{"id":"FLD:48870:2032:1134","layer":"FLOOD_TRACE","admin_code":"48870","sido_code":"48","flood_year":"2012","occurred_at":"2012-09-17","ended_at":"2012-09-17","begin_time":"1000","end_time":"1900","disaster_name":"태풍'산바'","cause_detail":"태풍으로 인한 집중호우","flood_grade":2,"flood_depth_m":1.7,"flood_area_m2":15724.3,"source_sn":2032,"data_status":"actual","official_data":true,"is_prediction":false,"source":"행정안전부 침수흔적도 · 재난안전데이터공유플랫폼 DSSP-IF-00117","collected_at":"2026-08-19T16:46:51+09:00","source_crs":"EPSG:3857","display_badges":["행안부 침수흔적도","과거 기록"]}},{"type":"Feature","id":"FLD:48870:2030:1135","geometry":{"type":"MultiPolygon","coordinates":[[[[127.819009,35.634361],[127.818925,35.634297],[127.818866,35.634233],[127.818641,35.633987],[127.818604,35.634002],[127.818552,35.633932],[127.818491,35.633817],[127.818496,35.633645],[127.818544,35.633599],[127.818627,35.633526],[127.818657,35.633477],[127.818746,35.633327],[127.818797,35.633298],[127.818837,35.633229],[127.818921,35.633118],[127.818978,35.633152],[127.81901,35.633172],[127.819259,35.633323],[127.819768,35.633634],[127.819802,35.633665],[127.819915,35.633767],[127.819941,35.633805],[127.819866,35.633837],[127.819784,35.633866],[127.819763,35.633894],[127.819756,35.633922],[127.819701,35.633946],[127.819418,35.634066],[127.819268,35.634155],[127.819162,35.634224],[127.81905,35.63429],[127.819009,35.634361]]]]},"properties":{"id":"FLD:48870:2030:1135","layer":"FLOOD_TRACE","admin_code":"48870","sido_code":"48","flood_year":"2012","occurred_at":"2012-09-17","ended_at":"2012-09-17","begin_time":"1000","end_time":"1900","disaster_name":"태풍'산바'","cause_detail":"태풍으로 인한 집중호우","flood_grade":2,"flood_depth_m":0.955,"flood_area_m2":15724.3,"source_sn":2030,"data_status":"actual","official_data":true,"is_prediction":false,"source":"행정안전부 침수흔적도 · 재난안전데이터공유플랫폼 DSSP-IF-00117","collected_at":"2026-08-19T16:46:51+09:00","source_crs":"EPSG:3857","display_badges":["행안부 침수흔적도","과거 기록"]}},{"type":"Feature","id":"FLD:48870:2029:2391","geometry":{"type":"MultiPolygon","coordinates":[[[[127.832841,35.603193],[127.832765,35.603162],[127.832749,35.603133],[127.832742,35.603121],[127.832741,35.603031],[127.83274,35.60302],[127.832789,35.602942],[127.832825,35.602919],[127.832835,35.602766],[127.832919,35.602619],[127.832942,35.602478],[127.832909,35.602424],[127.832933,35.602373],[127.832936,35.602236],[127.833,35.602182],[127.833033,35.602129],[127.833047,35.602074],[127.833069,35.602037],[127.83309,35.602001],[127.833112,35.601976],[127.833119,35.601967],[127.833125,35.602025],[127.833145,35.602123],[127.833154,35.602193],[127.83317,35.602319],[127.833196,35.602446],[127.833155,35.602564],[127.833061,35.602683],[127.833001,35.602717],[127.83295,35.602812],[127.832912,35.602927],[127.832907,35.602939],[127.832896,35.602964],[127.832868,35.603029],[127.832868,35.603109],[127.832872,35.603137],[127.832876,35.603164],[127.832841,35.603193]]]]},"properties":{"id":"FLD:48870:2029:2391","layer":"FLOOD_TRACE","admin_code":"48870","sido_code":"48","flood_year":"2012","occurred_at":"2012-09-17","ended_at":"2012-09-17","begin_time":"1000","end_time":"1900","disaster_name":"태풍'산바'","cause_detail":"태풍으로 인한 집중호우","flood_grade":1,"flood_depth_m":0.133,"flood_area_m2":1452.44,"source_sn":2029,"data_status":"actual","official_data":true,"is_prediction":false,"source":"행정안전부 침수흔적도 · 재난안전데이터공유플랫폼 DSSP-IF-00117","collected_at":"2026-08-19T16:46:51+09:00","source_crs":"EPSG:3857","display_badges":["행안부 침수흔적도","과거 기록"]}},{"type":"Feature","id":"FLD:48870:2036:2392","geometry":{"type":"MultiPolygon","coordinates":[[[[127.831614,35.607292],[127.83163,35.607287],[127.831665,35.607275],[127.831708,35.607242],[127.831759,35.607235],[127.831806,35.607378],[127.831816,35.607472],[127.831814,35.60751],[127.831806,35.607585],[127.8318,35.607653],[127.831775,35.607695],[127.831763,35.607722],[127.831721,35.607854],[127.831666,35.607888],[127.831651,35.607944],[127.831624,35.608007],[127.8316,35.60803],[127.831601,35.608119],[127.831592,35.60815],[127.831594,35.608209],[127.83159,35.608219],[127.83155,35.608229],[127.831546,35.608227],[127.831545,35.608152],[127.831548,35.60813],[127.831555,35.608059],[127.83153,35.607901],[127.831531,35.607804],[127.831536,35.60769],[127.831567,35.607616],[127.83158,35.607596],[127.831606,35.607558],[127.831624,35.607483],[127.831633,35.607402],[127.831608,35.607319],[127.831614,35.607292]]]]},"properties":{"id":"FLD:48870:2036:2392","layer":"FLOOD_TRACE","admin_code":"48870","sido_code":"48","flood_year":"2012","occurred_at":"2012-09-17","ended_at":"2012-09-17","begin_time":"1000","end_time":"1900","disaster_name":"태풍'산바'","cause_detail":"태풍으로 인한 집중호우","flood_grade":2,"flood_depth_m":1.505,"flood_area_m2":1452.44,"source_sn":2036,"data_status":"actual","official_data":true,"is_prediction":false,"source":"행정안전부 침수흔적도 · 재난안전데이터공유플랫폼 DSSP-IF-00117","collected_at":"2026-08-19T16:46:51+09:00","source_crs":"EPSG:3857","display_badges":["행안부 침수흔적도","과거 기록"]}},{"type":"Feature","id":"FLD:48870:2027:2394","geometry":{"type":"MultiPolygon","coordinates":[[[[127.819941,35.633805],[127.820045,35.633962],[127.820159,35.634104],[127.820247,35.634215],[127.820331,35.634304],[127.8205,35.634421],[127.82049,35.634431],[127.820483,35.634438],[127.820456,35.634469],[127.820439,35.634496],[127.820336,35.634513],[127.820186,35.634538],[127.820143,35.634541],[127.820083,35.634545],[127.819975,35.634543],[127.819913,35.634542],[127.8198,35.63454],[127.819714,35.634539],[127.81964,35.634538],[127.819481,35.634536],[127.819387,35.634526],[127.819204,35.634448],[127.819102,35.634414],[127.819009,35.634361],[127.81905,35.63429],[127.819162,35.634224],[127.819268,35.634155],[127.819418,35.634066],[127.819701,35.633946],[127.819756,35.633922],[127.819763,35.633894],[127.819784,35.633866],[127.819866,35.633837],[127.819941,35.633805]]]]},"properties":{"id":"FLD:48870:2027:2394","layer":"FLOOD_TRACE","admin_code":"48870","sido_code":"48","flood_year":"2012","occurred_at":"2012-09-17","ended_at":"2012-09-17","begin_time":"1000","end_time":"1900","disaster_name":"태풍'산바'","cause_detail":"태풍으로 인한 집중호우","flood_grade":1,"flood_depth_m":0.078,"flood_area_m2":15724.3,"source_sn":2027,"data_status":"actual","official_data":true,"is_prediction":false,"source":"행정안전부 침수흔적도 · 재난안전데이터공유플랫폼 DSSP-IF-00117","collected_at":"2026-08-19T16:46:51+09:00","source_crs":"EPSG:3857","display_badges":["행안부 침수흔적도","과거 기록"]}},{"type":"Feature","id":"FLD:48870:2026:2395","geometry":{"type":"MultiPolygon","coordinates":[[[[127.831614,35.607292],[127.831595,35.607236],[127.831562,35.607168],[127.831531,35.60709],[127.831523,35.607072],[127.831489,35.607006],[127.831411,35.606945],[127.831392,35.606949],[127.831318,35.606905],[127.831234,35.606804],[127.83122,35.606729],[127.831213,35.606589],[127.831217,35.606555],[127.831216,35.606526],[127.831237,35.60638],[127.831237,35.606298],[127.831179,35.606167],[127.831205,35.606038],[127.831227,35.605987],[127.831259,35.605997],[127.831281,35.606009],[127.831316,35.606045],[127.831319,35.606048],[127.831344,35.606066],[127.831291,35.606175],[127.831314,35.60627],[127.831319,35.606324],[127.831353,35.606439],[127.831383,35.606477],[127.831444,35.606556],[127.831535,35.606681],[127.831563,35.606777],[127.831545,35.606801],[127.831603,35.606905],[127.83163,35.606938],[127.831655,35.606999],[127.8317,35.607066],[127.831694,35.607107],[127.831735,35.607171],[127.831759,35.607235],[127.831708,35.607242],[127.831665,35.607275],[127.83163,35.607287],[127.831614,35.607292]]]]},"properties":{"id":"FLD:48870:2026:2395","layer":"FLOOD_TRACE","admin_code":"48870","sido_code":"48","flood_year":"2012","occurred_at":"2012-09-17","ended_at":"2012-09-17","begin_time":"1000","end_time":"1900","disaster_name":"태풍'산바'","cause_detail":"태풍으로 인한 집중호우","flood_grade":2,"flood_depth_m":0.587,"flood_area_m2":1452.44,"source_sn":2026,"data_status":"actual","official_data":true,"is_prediction":false,"source":"행정안전부 침수흔적도 · 재난안전데이터공유플랫폼 DSSP-IF-00117","collected_at":"2026-08-19T16:46:51+09:00","source_crs":"EPSG:3857","display_badges":["행안부 침수흔적도","과거 기록"]}},{"type":"Feature","id":"FLD:48870:2034:2396","geometry":{"type":"MultiPolygon","coordinates":[[[[127.817637,35.63424],[127.817666,35.634162],[127.817741,35.634045],[127.817742,35.634043],[127.817763,35.634032],[127.817821,35.634001],[127.817917,35.63396],[127.817997,35.633928],[127.818132,35.633896],[127.818231,35.633886],[127.818305,35.633868],[127.818368,35.633886],[127.81843,35.633937],[127.818465,35.634016],[127.818546,35.634113],[127.818638,35.634218],[127.818729,35.634312],[127.818813,35.634376],[127.818879,35.634425],[127.819027,35.634542],[127.819102,35.634585],[127.819153,35.634618],[127.819227,35.634631],[127.819408,35.63465],[127.819639,35.634671],[127.819891,35.634667],[127.82001,35.634688],[127.820142,35.634681],[127.820256,35.634666],[127.820486,35.634676],[127.820779,35.634713],[127.821022,35.634738],[127.821127,35.634724],[127.821246,35.634744],[127.821307,35.634791],[127.821378,35.634862],[127.821476,35.634887],[127.82162,35.634959],[127.821753,35.635049],[127.821988,35.635168],[127.822162,35.635272],[127.822372,35.635384],[127.822479,35.635455],[127.822597,35.635529],[127.822677,35.635572],[127.822784,35.635652],[127.822896,35.63578],[127.822891,35.635861],[127.822855,35.635907],[127.822845,35.635925],[127.822825,35.635965],[127.822769,35.635991],[127.822704,35.635959],[127.822567,35.635884],[127.822219,35.635772],[127.821975,35.635744],[127.821627,35.635679],[127.821419,35.635641],[127.821196,35.635523],[127.821105,35.635483],[127.820934,35.635436],[127.820894,35.635416],[127.820755,35.635415],[127.820635,35.635396],[127.820456,35.635369],[127.82036,35.635338],[127.82035,35.635337],[127.820256,35.635317],[127.820195,35.635279],[127.820158,35.635231],[127.820102,35.635169],[127.820035,35.635125],[127.820004,35.635109],[127.819949,35.635081],[127.819898,35.635073],[127.819823,35.635064],[127.819706,35.635043],[127.819663,35.635035],[127.819547,35.635023],[127.819463,35.634987],[127.819294,35.634922],[127.819167,35.634886],[127.819091,35.634866],[127.81904,35.634837],[127.818991,35.634805],[127.818926,35.634794],[127.818887,35.634791],[127.818818,35.634784],[127.818462,35.634646],[127.817987,35.634478],[127.817988,35.63446],[127.817943,35.634358],[127.817923,35.634334],[127.817858,35.634319],[127.817826,35.634306],[127.817794,35.634268],[127.817717,35.634247],[127.817685,35.634244],[127.817637,35.63424]]]]},"properties":{"id":"FLD:48870:2034:2396","layer":"FLOOD_TRACE","admin_code":"48870","sido_code":"48","flood_year":"2012","occurred_at":"2012-09-17","ended_at":"2012-09-17","begin_time":"1000","end_time":"1900","disaster_name":"태풍'산바'","cause_detail":"태풍으로 인한 집중호우","flood_grade":2,"flood_depth_m":0.808,"flood_area_m2":15724.3,"source_sn":2034,"data_status":"actual","official_data":true,"is_prediction":false,"source":"행정안전부 침수흔적도 · 재난안전데이터공유플랫폼 DSSP-IF-00117","collected_at":"2026-08-19T16:46:51+09:00","source_crs":"EPSG:3857","display_badges":["행안부 침수흔적도","과거 기록"]}}]}