{"type":"FeatureCollection","features":[{"type":"Feature","id":"FLD:28200:1:1205","geometry":{"type":"MultiPolygon","coordinates":[[[[126.711273,37.431573],[126.711418,37.431561],[126.711467,37.431556],[126.711465,37.431612],[126.711263,37.43163],[126.711273,37.431573]]]]},"properties":{"id":"FLD:28200:1:1205","layer":"FLOOD_TRACE","admin_code":"28200","sido_code":"28","flood_year":"2013","occurred_at":"2013-07-13","ended_at":"2013-07-13","begin_time":"0300","end_time":"0900","disaster_name":"7월 집중호우","cause_detail":"집중호우","flood_grade":1,"flood_depth_m":0.197,"flood_area_m2":109,"source_sn":1,"data_status":"actual","official_data":true,"is_prediction":false,"source":"행정안전부 침수흔적도 · 재난안전데이터공유플랫폼 DSSP-IF-00117","collected_at":"2026-08-19T16:46:51+09:00","source_crs":"EPSG:3857","display_badges":["행안부 침수흔적도","과거 기록"]}},{"type":"Feature","id":"FLD:28200:12:9153","geometry":{"type":"MultiPolygon","coordinates":[[[[126.706561,37.437994],[126.706664,37.437637],[126.707109,37.436083],[126.707398,37.435071],[126.707554,37.43453],[126.707598,37.434533],[126.707696,37.434552],[126.707733,37.434617],[126.707769,37.43463],[126.707817,37.434644],[126.707941,37.434605],[126.708065,37.434565],[126.70808,37.434632],[126.708106,37.434698],[126.708148,37.434778],[126.708151,37.434779],[126.708143,37.434806],[126.708139,37.434835],[126.708127,37.434896],[126.708103,37.435044],[126.708086,37.435144],[126.708054,37.435395],[126.708159,37.435501],[126.708144,37.4356],[126.70813,37.435694],[126.708131,37.43579],[126.708144,37.435841],[126.70816,37.435905],[126.708102,37.436013],[126.708061,37.436081],[126.708075,37.436295],[126.708018,37.436318],[126.70799,37.436612],[126.708,37.436651],[126.707988,37.436647],[126.707965,37.436738],[126.707981,37.43688],[126.70799,37.436945],[126.707592,37.437007],[126.707401,37.437076],[126.70737,37.437087],[126.707334,37.437064],[126.707079,37.43795],[126.707059,37.437954],[126.706826,37.438016],[126.706762,37.438024],[126.706561,37.437994]]]]},"properties":{"id":"FLD:28200:12:9153","layer":"FLOOD_TRACE","admin_code":"28200","sido_code":"28","flood_year":"2012","occurred_at":"2012-07-06","ended_at":"2012-07-06","begin_time":"0000","end_time":"0600","disaster_name":"2012 집중호우","cause_detail":"집중호우","flood_grade":1,"flood_depth_m":0.41,"flood_area_m2":25818,"source_sn":12,"data_status":"actual","official_data":true,"is_prediction":false,"source":"행정안전부 침수흔적도 · 재난안전데이터공유플랫폼 DSSP-IF-00117","collected_at":"2026-08-19T16:46:51+09:00","source_crs":"EPSG:3857","display_badges":["행안부 침수흔적도","과거 기록"]}},{"type":"Feature","id":"FLD:28200:5583:19938","geometry":{"type":"MultiPolygon","coordinates":[[[[126.747678,37.446805],[126.747742,37.446881],[126.747739,37.446978],[126.747617,37.447074],[126.747374,37.446958],[126.747355,37.446865],[126.747544,37.446769],[126.747678,37.446805]]]]},"properties":{"id":"FLD:28200:5583:19938","layer":"FLOOD_TRACE","admin_code":"28200","sido_code":"28","flood_year":"2022","occurred_at":"2022-08-08","ended_at":"2022-08-09","begin_time":"2100","end_time":"0000","disaster_name":"집중호우로 인한 침수","cause_detail":"내수침수","flood_grade":2,"flood_depth_m":0.588,"flood_area_m2":769.3,"source_sn":5583,"data_status":"actual","official_data":true,"is_prediction":false,"source":"행정안전부 침수흔적도 · 재난안전데이터공유플랫폼 DSSP-IF-00117","collected_at":"2026-08-19T16:46:51+09:00","source_crs":"EPSG:3857","display_badges":["행안부 침수흔적도","과거 기록"]}},{"type":"Feature","id":"FLD:28200:5584:19939","geometry":{"type":"MultiPolygon","coordinates":[[[[126.73237,37.439678],[126.731869,37.439695],[126.731898,37.439323],[126.732405,37.439288],[126.73237,37.439678]]]]},"properties":{"id":"FLD:28200:5584:19939","layer":"FLOOD_TRACE","admin_code":"28200","sido_code":"28","flood_year":"2022","occurred_at":"2022-08-08","ended_at":"2022-08-09","begin_time":"2100","end_time":"0000","disaster_name":"집중호우로인한침수","cause_detail":"내수침수","flood_grade":1,"flood_depth_m":0.258,"flood_area_m2":1878,"source_sn":5584,"data_status":"actual","official_data":true,"is_prediction":false,"source":"행정안전부 침수흔적도 · 재난안전데이터공유플랫폼 DSSP-IF-00117","collected_at":"2026-08-19T16:46:51+09:00","source_crs":"EPSG:3857","display_badges":["행안부 침수흔적도","과거 기록"]}},{"type":"Feature","id":"FLD:28200:5585:19940","geometry":{"type":"MultiPolygon","coordinates":[[[[126.73237,37.439678],[126.731869,37.439695],[126.731898,37.439323],[126.732405,37.439288],[126.73237,37.439678]]]]},"properties":{"id":"FLD:28200:5585:19940","layer":"FLOOD_TRACE","admin_code":"28200","sido_code":"28","flood_year":"2022","occurred_at":"2022-08-08","ended_at":"2022-08-09","begin_time":"2100","end_time":"0000","disaster_name":"집중호우로인한침수","cause_detail":"내수침수","flood_grade":1,"flood_depth_m":0.258,"flood_area_m2":1878,"source_sn":5585,"data_status":"actual","official_data":true,"is_prediction":false,"source":"행정안전부 침수흔적도 · 재난안전데이터공유플랫폼 DSSP-IF-00117","collected_at":"2026-08-19T16:46:51+09:00","source_crs":"EPSG:3857","display_badges":["행안부 침수흔적도","과거 기록"]}},{"type":"Feature","id":"FLD:28200:5586:19941","geometry":{"type":"MultiPolygon","coordinates":[[[[126.73237,37.439678],[126.731869,37.439695],[126.731898,37.439323],[126.732405,37.439288],[126.73237,37.439678]]]]},"properties":{"id":"FLD:28200:5586:19941","layer":"FLOOD_TRACE","admin_code":"28200","sido_code":"28","flood_year":"2022","occurred_at":"2022-08-08","ended_at":"2022-08-09","begin_time":"2100","end_time":"0000","disaster_name":"집중호우로인한침수","cause_detail":"내수침수","flood_grade":1,"flood_depth_m":0.258,"flood_area_m2":1878,"source_sn":5586,"data_status":"actual","official_data":true,"is_prediction":false,"source":"행정안전부 침수흔적도 · 재난안전데이터공유플랫폼 DSSP-IF-00117","collected_at":"2026-08-19T16:46:51+09:00","source_crs":"EPSG:3857","display_badges":["행안부 침수흔적도","과거 기록"]}},{"type":"Feature","id":"FLD:28200:5587:19942","geometry":{"type":"MultiPolygon","coordinates":[[[[126.73237,37.439678],[126.731869,37.439695],[126.731898,37.439323],[126.732405,37.439288],[126.73237,37.439678]]]]},"properties":{"id":"FLD:28200:5587:19942","layer":"FLOOD_TRACE","admin_code":"28200","sido_code":"28","flood_year":"2022","occurred_at":"2022-08-08","ended_at":"2022-08-09","begin_time":"2100","end_time":"0000","disaster_name":"집중호우로인한침수","cause_detail":"내수침수","flood_grade":1,"flood_depth_m":0.258,"flood_area_m2":1878,"source_sn":5587,"data_status":"actual","official_data":true,"is_prediction":false,"source":"행정안전부 침수흔적도 · 재난안전데이터공유플랫폼 DSSP-IF-00117","collected_at":"2026-08-19T16:46:51+09:00","source_crs":"EPSG:3857","display_badges":["행안부 침수흔적도","과거 기록"]}},{"type":"Feature","id":"FLD:28200:13:36568","geometry":{"type":"MultiPolygon","coordinates":[[[[126.748669,37.458121],[126.748596,37.457896],[126.74855,37.457735],[126.748515,37.457605],[126.748476,37.457454],[126.748523,37.457445],[126.748554,37.457578],[126.748578,37.457675],[126.748658,37.457849],[126.748698,37.457981],[126.748727,37.458132],[126.748669,37.458121]]]]},"properties":{"id":"FLD:28200:13:36568","layer":"FLOOD_TRACE","admin_code":"28200","sido_code":"28","flood_year":"2012","occurred_at":"2012-08-15","ended_at":"2012-08-15","begin_time":"1100","end_time":"1200","disaster_name":"2012 집중호우","cause_detail":"집중호우","flood_grade":1,"flood_depth_m":0.32,"flood_area_m2":397,"source_sn":13,"data_status":"actual","official_data":true,"is_prediction":false,"source":"행정안전부 침수흔적도 · 재난안전데이터공유플랫폼 DSSP-IF-00117","collected_at":"2026-08-19T16:46:51+09:00","source_crs":"EPSG:3857","display_badges":["행안부 침수흔적도","과거 기록"]}},{"type":"Feature","id":"FLD:28200:15:36569","geometry":{"type":"MultiPolygon","coordinates":[[[[126.718015,37.427942],[126.718,37.427849],[126.717997,37.42783],[126.717994,37.4278],[126.71799,37.427777],[126.717982,37.427727],[126.71797,37.427643],[126.71796,37.42759],[126.71795,37.427545],[126.717946,37.42752],[126.717929,37.427436],[126.717885,37.427247],[126.717867,37.427165],[126.717816,37.426986],[126.717773,37.426835],[126.717683,37.426534],[126.717659,37.426456],[126.717628,37.426351],[126.717569,37.426155],[126.7175,37.425926],[126.71747,37.425829],[126.717394,37.425581],[126.717357,37.425459],[126.717637,37.425088],[126.71765,37.425069],[126.717661,37.425107],[126.717785,37.425515],[126.717823,37.425643],[126.717835,37.425683],[126.717891,37.425867],[126.717929,37.42599],[126.717929,37.425992],[126.717956,37.42608],[126.717959,37.426089],[126.718023,37.426301],[126.718039,37.426354],[126.718078,37.426486],[126.718125,37.426643],[126.718131,37.426666],[126.718174,37.42681],[126.718206,37.426923],[126.718208,37.42693],[126.718237,37.427036],[126.718269,37.427156],[126.718311,37.427332],[126.718319,37.42737],[126.718328,37.427408],[126.718334,37.42744],[126.718346,37.427492],[126.71836,37.427575],[126.71837,37.427632],[126.718371,37.427639],[126.718378,37.42769],[126.718385,37.427744],[126.718015,37.427942]]]]},"properties":{"id":"FLD:28200:15:36569","layer":"FLOOD_TRACE","admin_code":"28200","sido_code":"28","flood_year":"2012","occurred_at":"2012-08-15","ended_at":"2012-08-15","begin_time":"1100","end_time":"1200","disaster_name":"2012 집중호우","cause_detail":"집중호우","flood_grade":1,"flood_depth_m":0.4,"flood_area_m2":10376,"source_sn":15,"data_status":"actual","official_data":true,"is_prediction":false,"source":"행정안전부 침수흔적도 · 재난안전데이터공유플랫폼 DSSP-IF-00117","collected_at":"2026-08-19T16:46:51+09:00","source_crs":"EPSG:3857","display_badges":["행안부 침수흔적도","과거 기록"]}},{"type":"Feature","id":"FLD:28200:14:36570","geometry":{"type":"MultiPolygon","coordinates":[[[[126.703344,37.422959],[126.703338,37.422928],[126.703332,37.422898],[126.705873,37.422658],[126.709278,37.422387],[126.709281,37.422449],[126.708645,37.422498],[126.707811,37.422564],[126.7075,37.422589],[126.707018,37.422626],[126.706548,37.422662],[126.706176,37.422691],[126.706013,37.422704],[126.705647,37.42274],[126.705372,37.422766],[126.705061,37.422795],[126.704577,37.422843],[126.70397,37.422905],[126.703627,37.422936],[126.703344,37.422959]]]]},"properties":{"id":"FLD:28200:14:36570","layer":"FLOOD_TRACE","admin_code":"28200","sido_code":"28","flood_year":"2012","occurred_at":"2012-07-06","ended_at":"2012-07-06","begin_time":"0000","end_time":"0400","disaster_name":"2012 집중호우","cause_detail":"집중호우","flood_grade":1,"flood_depth_m":0.36,"flood_area_m2":3563,"source_sn":14,"data_status":"actual","official_data":true,"is_prediction":false,"source":"행정안전부 침수흔적도 · 재난안전데이터공유플랫폼 DSSP-IF-00117","collected_at":"2026-08-19T16:46:51+09:00","source_crs":"EPSG:3857","display_badges":["행안부 침수흔적도","과거 기록"]}},{"type":"Feature","id":"FLD:28200:17:36571","geometry":{"type":"MultiPolygon","coordinates":[[[[126.720963,37.419893],[126.721006,37.419841],[126.721187,37.41963],[126.721312,37.419497],[126.721458,37.419327],[126.721586,37.419176],[126.721704,37.419034],[126.72188,37.418825],[126.722324,37.418296],[126.722779,37.417754],[126.722869,37.417774],[126.722576,37.418126],[126.722181,37.418597],[126.721781,37.419072],[126.721448,37.419464],[126.721196,37.419727],[126.721035,37.419918],[126.720963,37.419893]]]]},"properties":{"id":"FLD:28200:17:36571","layer":"FLOOD_TRACE","admin_code":"28200","sido_code":"28","flood_year":"2012","occurred_at":"2012-07-06","ended_at":"2012-07-06","begin_time":"0000","end_time":"0300","disaster_name":"2012 집중호우","cause_detail":"집중호우","flood_grade":1,"flood_depth_m":0.33,"flood_area_m2":2232,"source_sn":17,"data_status":"actual","official_data":true,"is_prediction":false,"source":"행정안전부 침수흔적도 · 재난안전데이터공유플랫폼 DSSP-IF-00117","collected_at":"2026-08-19T16:46:51+09:00","source_crs":"EPSG:3857","display_badges":["행안부 침수흔적도","과거 기록"]}},{"type":"Feature","id":"FLD:28200:16:36572","geometry":{"type":"MultiPolygon","coordinates":[[[[126.734491,37.426167],[126.734322,37.425899],[126.734265,37.425818],[126.734198,37.425725],[126.734111,37.425598],[126.734078,37.425548],[126.733908,37.425299],[126.73384,37.425198],[126.73389,37.425178],[126.734008,37.425341],[126.734127,37.425503],[126.734313,37.425772],[126.734441,37.425953],[126.734509,37.426056],[126.734555,37.426123],[126.734491,37.426167]]]]},"properties":{"id":"FLD:28200:16:36572","layer":"FLOOD_TRACE","admin_code":"28200","sido_code":"28","flood_year":"2012","occurred_at":"2012-07-06","ended_at":"2012-07-06","begin_time":"0000","end_time":"0400","disaster_name":"2012 집중호우","cause_detail":"집중호우","flood_grade":1,"flood_depth_m":0.44,"flood_area_m2":763,"source_sn":16,"data_status":"actual","official_data":true,"is_prediction":false,"source":"행정안전부 침수흔적도 · 재난안전데이터공유플랫폼 DSSP-IF-00117","collected_at":"2026-08-19T16:46:51+09:00","source_crs":"EPSG:3857","display_badges":["행안부 침수흔적도","과거 기록"]}}]}