{"type":"FeatureCollection","features":[{"type":"Feature","id":"FLD:26320:55:1402","geometry":{"type":"MultiPolygon","coordinates":[[[[129.014689,35.195542],[129.014688,35.195577],[129.014688,35.195679],[129.014689,35.195781],[129.014689,35.195901],[129.01469,35.196013],[129.01469,35.196148],[129.014691,35.19626],[129.014691,35.196371],[129.014542,35.196402],[129.014414,35.196429],[129.014371,35.196438],[129.014243,35.196465],[129.014084,35.196498],[129.014054,35.196403],[129.014051,35.196393],[129.014019,35.196288],[129.013987,35.196183],[129.013954,35.196078],[129.013932,35.196008],[129.013851,35.196038],[129.013896,35.196183],[129.013751,35.196235],[129.013697,35.196054],[129.013571,35.1961],[129.013447,35.196145],[129.013399,35.196162],[129.013321,35.19619],[129.013218,35.196227],[129.013068,35.196312],[129.012819,35.196483],[129.012725,35.196547],[129.012706,35.19656],[129.012593,35.196638],[129.012469,35.196723],[129.012373,35.196789],[129.012269,35.196862],[129.012164,35.196933],[129.012188,35.197012],[129.012192,35.197025],[129.01221,35.197083],[129.011615,35.197416],[129.011374,35.197553],[129.01098,35.197731],[129.010689,35.197863],[129.010752,35.197971],[129.010793,35.198043],[129.0108,35.198074],[129.010752,35.198083],[129.010714,35.198103],[129.010624,35.198134],[129.010591,35.198158],[129.010539,35.198173],[129.010339,35.198229],[129.010352,35.198248],[129.010371,35.198275],[129.010313,35.198298],[129.010328,35.19832],[129.010202,35.198362],[129.010164,35.198374],[129.01006,35.198408],[129.009925,35.198452],[129.009904,35.198459],[129.009746,35.198509],[129.009738,35.198511],[129.009754,35.198574],[129.00977,35.198619],[129.009819,35.198762],[129.009809,35.198764],[129.009846,35.198862],[129.00972,35.198896],[129.009726,35.198913],[129.009709,35.198918],[129.009693,35.198922],[129.009685,35.198903],[129.009561,35.198935],[129.009436,35.198967],[129.009442,35.198985],[129.009427,35.19899],[129.009412,35.198993],[129.009404,35.198976],[129.009271,35.199011],[129.009144,35.199044],[129.00915,35.19906],[129.009134,35.199065],[129.009119,35.19907],[129.00911,35.199051],[129.008984,35.199087],[129.008863,35.199122],[129.008869,35.199139],[129.008854,35.199144],[129.008838,35.199149],[129.008829,35.199131],[129.008786,35.199036],[129.008659,35.199074],[129.008529,35.199113],[129.008572,35.199212],[129.008578,35.19923],[129.008566,35.199235],[129.008608,35.199315],[129.00847,35.199357],[129.008407,35.199231],[129.00834,35.199098],[129.00833,35.199078],[129.008114,35.199064],[129.008061,35.199035],[129.008029,35.199083],[129.007948,35.199097],[129.007934,35.19915],[129.007911,35.199143],[129.007914,35.199135],[129.007939,35.199068],[129.007873,35.199015],[129.007792,35.199085],[129.007827,35.199112],[129.007804,35.199132],[129.00778,35.199113],[129.007696,35.199185],[129.007635,35.199136],[129.007582,35.199275],[129.007572,35.199301],[129.007415,35.199261],[129.007414,35.199264],[129.007321,35.199328],[129.007216,35.199604],[129.007059,35.199564],[129.00694,35.199533],[129.006937,35.19954],[129.006815,35.199509],[129.00678,35.199603],[129.006748,35.199595],[129.006806,35.199442],[129.006651,35.19949],[129.006598,35.199537],[129.006663,35.199365],[129.006705,35.199397],[129.006891,35.199339],[129.007024,35.199298],[129.007055,35.199288],[129.007189,35.199247],[129.007322,35.199205],[129.007354,35.199195],[129.007425,35.199156],[129.007486,35.199105],[129.007505,35.199088],[129.007562,35.19904],[129.007577,35.199027],[129.007649,35.198965],[129.00775,35.198879],[129.00785,35.198793],[129.007866,35.19878],[129.007892,35.198757],[129.007958,35.198701],[129.008016,35.198652],[129.008015,35.1986],[129.008208,35.198519],[129.008275,35.198489],[129.008429,35.198421],[129.008538,35.198373],[129.008665,35.198317],[129.008794,35.19826],[129.008901,35.198213],[129.009056,35.198144],[129.009174,35.198092],[129.009314,35.19803],[129.009441,35.197974],[129.009449,35.19797],[129.009571,35.197917],[129.009725,35.197848],[129.009841,35.197797],[129.009947,35.19775],[129.009981,35.197735],[129.009995,35.197729],[129.01001,35.197722],[129.010063,35.197699],[129.010148,35.197662],[129.010264,35.197611],[129.010418,35.197543],[129.010544,35.197487],[129.010661,35.197435],[129.010681,35.197426],[129.010741,35.1974],[129.010788,35.197379],[129.010865,35.197345],[129.010944,35.19731],[129.011098,35.197242],[129.011144,35.197222],[129.011216,35.19719],[129.011332,35.197138],[129.01141,35.197104],[129.011526,35.197053],[129.011643,35.197001],[129.011797,35.196933],[129.011897,35.196894],[129.011997,35.196854],[129.012016,35.196847],[129.012045,35.196835],[129.012058,35.196831],[129.01215,35.196767],[129.01226,35.196691],[129.012366,35.196618],[129.012417,35.196583],[129.012511,35.196518],[129.012621,35.196443],[129.012728,35.196369],[129.012894,35.196255],[129.012885,35.196209],[129.01311,35.196089],[129.013191,35.19609],[129.013632,35.195928],[129.013631,35.19589],[129.013767,35.195855],[129.013849,35.195853],[129.01429,35.195694],[129.014563,35.195399],[129.014538,35.195352],[129.014623,35.195285],[129.014689,35.195542]]]]},"properties":{"id":"FLD:26320:55:1402","layer":"FLOOD_TRACE","admin_code":"26320","sido_code":"26","flood_year":"2014","occurred_at":"2014-08-25","ended_at":"2014-08-25","begin_time":"1400","end_time":"1600","disaster_name":"2014년 집중호우","cause_detail":"집중호우로 인한 급격한 우수량 증가","flood_grade":1,"flood_depth_m":0.354,"flood_area_m2":46074.572,"source_sn":55,"data_status":"actual","official_data":true,"is_prediction":false,"source":"행정안전부 침수흔적도 · 재난안전데이터공유플랫폼 DSSP-IF-00117","collected_at":"2026-08-19T16:46:51+09:00","source_crs":"EPSG:3857","display_badges":["행안부 침수흔적도","과거 기록"]}},{"type":"Feature","id":"FLD:26320:50:1407","geometry":{"type":"MultiPolygon","coordinates":[[[[129.017139,35.214248],[129.016808,35.214177],[129.016354,35.214066],[129.016192,35.214038],[129.015804,35.213974],[129.015672,35.213973],[129.015582,35.21395],[129.015302,35.213893],[129.015071,35.213835],[129.0151,35.213943],[129.014986,35.213957],[129.014964,35.21396],[129.014816,35.213978],[129.014784,35.213982],[129.014713,35.213991],[129.01468,35.213997],[129.014572,35.21402],[129.014363,35.214064],[129.014355,35.214066],[129.014231,35.214093],[129.014112,35.21412],[129.014061,35.214138],[129.01402,35.214152],[129.013981,35.214123],[129.014027,35.214003],[129.014063,35.21391],[129.014098,35.213817],[129.014105,35.2138],[129.014164,35.213642],[129.014212,35.213622],[129.014056,35.213582],[129.013674,35.213488],[129.013369,35.213413],[129.013301,35.213396],[129.012953,35.21331],[129.012796,35.213269],[129.012798,35.213273],[129.012824,35.213309],[129.01281,35.213348],[129.012799,35.213376],[129.012757,35.213491],[129.01275,35.21351],[129.01269,35.213674],[129.012641,35.213696],[129.012527,35.213667],[129.012374,35.21363],[129.012353,35.213624],[129.012212,35.21359],[129.012191,35.213584],[129.012066,35.213553],[129.012034,35.213546],[129.011907,35.213514],[129.011797,35.213487],[129.011767,35.21348],[129.011656,35.213452],[129.011617,35.213442],[129.011565,35.21343],[129.011362,35.213381],[129.010573,35.213182],[129.01065,35.212969],[129.010528,35.212939],[129.010385,35.212902],[129.010422,35.212804],[129.010467,35.212687],[129.010454,35.212542],[129.010655,35.212592],[129.010884,35.212649],[129.011093,35.212701],[129.011263,35.212743],[129.011418,35.212782],[129.011568,35.212819],[129.011617,35.212801],[129.01162,35.212799],[129.011661,35.212688],[129.011698,35.212586],[129.011753,35.212436],[129.011729,35.212396],[129.011617,35.212368],[129.011412,35.212318],[129.011381,35.21231],[129.01125,35.212277],[129.011134,35.212249],[129.010947,35.212202],[129.010905,35.212192],[129.010735,35.21215],[129.010617,35.21212],[129.010627,35.212065],[129.010678,35.212078],[129.0108,35.212109],[129.010832,35.212116],[129.010959,35.212148],[129.011085,35.212179],[129.011116,35.212187],[129.01124,35.212217],[129.011396,35.212256],[129.011428,35.212264],[129.011584,35.212303],[129.011617,35.212312],[129.011746,35.212344],[129.011794,35.212322],[129.011824,35.212241],[129.011865,35.212129],[129.011949,35.211904],[129.011787,35.211862],[129.011625,35.211822],[129.01149,35.211789],[129.011089,35.211688],[129.010984,35.211662],[129.010784,35.211613],[129.010684,35.211588],[129.010619,35.211576],[129.010577,35.211565],[129.010491,35.211543],[129.010401,35.211518],[129.010339,35.211503],[129.010121,35.211449],[129.009788,35.211366],[129.0097,35.211345],[129.009566,35.211311],[129.009423,35.211275],[129.009341,35.211499],[129.009328,35.211533],[129.009294,35.211625],[129.009268,35.211694],[129.009226,35.211807],[129.009203,35.211869],[129.009172,35.211953],[129.009159,35.211988],[129.009142,35.212032],[129.009092,35.212167],[129.009117,35.212209],[129.00896,35.212169],[129.008871,35.212147],[129.00877,35.212121],[129.008655,35.212092],[129.00854,35.212064],[129.007859,35.211895],[129.007831,35.211853],[129.007966,35.211495],[129.00801,35.211381],[129.008136,35.211042],[129.008166,35.210962],[129.00808,35.210942],[129.007882,35.210892],[129.007683,35.210842],[129.007432,35.210779],[129.00727,35.210739],[129.007228,35.210728],[129.007066,35.210687],[129.0069,35.210645],[129.006815,35.210623],[129.006664,35.210585],[129.006511,35.210547],[129.006318,35.210499],[129.006125,35.210451],[129.006066,35.210436],[129.005936,35.210404],[129.005821,35.210375],[129.005716,35.210414],[129.005592,35.210459],[129.005373,35.210539],[129.005297,35.210566],[129.005249,35.210694],[129.005207,35.210808],[129.005142,35.210989],[129.005124,35.211042],[129.005079,35.211168],[129.005006,35.211359],[129.004955,35.211497],[129.004937,35.211544],[129.004908,35.211621],[129.004869,35.211728],[129.004824,35.211848],[129.00475,35.212043],[129.004677,35.21224],[129.004633,35.21236],[129.004563,35.212555],[129.004493,35.212751],[129.004445,35.212879],[129.004413,35.212964],[129.004374,35.213067],[129.004363,35.213094],[129.004325,35.213196],[129.004294,35.213276],[129.004328,35.213321],[129.003961,35.21323],[129.003841,35.213202],[129.003713,35.213173],[129.003602,35.213147],[129.003505,35.212763],[129.003428,35.212458],[129.003401,35.212349],[129.003391,35.212309],[129.003383,35.212278],[129.00338,35.212265],[129.003379,35.212264],[129.003276,35.211848],[129.00321,35.211581],[129.003204,35.211555],[129.003162,35.211387],[129.00328,35.211421],[129.00338,35.211446],[129.00348,35.211471],[129.003659,35.211516],[129.003816,35.211555],[129.003849,35.211563],[129.004004,35.211602],[129.004127,35.211633],[129.004348,35.211688],[129.00452,35.21173],[129.004539,35.211678],[129.00462,35.211464],[129.004701,35.211251],[129.004738,35.211116],[129.004815,35.210908],[129.004831,35.210864],[129.004893,35.210696],[129.004917,35.210645],[129.004961,35.210528],[129.005005,35.210408],[129.005004,35.210407],[129.004892,35.210259],[129.004839,35.21019],[129.004788,35.210121],[129.004664,35.210091],[129.004521,35.210055],[129.004077,35.209945],[129.003993,35.209924],[129.003792,35.209874],[129.003753,35.209864],[129.003717,35.209857],[129.003651,35.209841],[129.003628,35.209837],[129.003378,35.209747],[129.003091,35.209681],[129.003078,35.209678],[129.002821,35.209638],[129.002754,35.209634],[129.002521,35.209621],[129.00241,35.209615],[129.002327,35.209611],[129.002276,35.209607],[129.002161,35.209603],[129.002114,35.209603],[129.002133,35.209627],[129.002254,35.209785],[129.002017,35.209861],[129.001946,35.209763],[129.001881,35.209672],[129.001844,35.209621],[129.001791,35.20962],[129.001577,35.209606],[129.001497,35.209601],[129.001466,35.209601],[129.001453,35.2096],[129.001452,35.209604],[129.001399,35.2096],[129.001327,35.209596],[129.001173,35.209589],[129.000881,35.209557],[129.000788,35.209553],[129.000759,35.209552],[129.000742,35.209333],[129.000746,35.209309],[129.000754,35.209264],[129.000936,35.209279],[129.000966,35.209281],[129.001057,35.209287],[129.001091,35.20929],[129.001135,35.209293],[129.001322,35.209306],[129.00134,35.209308],[129.001528,35.209322],[129.001564,35.209325],[129.001622,35.209329],[129.001934,35.209351],[129.001968,35.209349],[129.002044,35.209347],[129.002095,35.209346],[129.002113,35.209346],[129.00224,35.209343],[129.002313,35.209341],[129.00235,35.20934],[129.002374,35.209363],[129.002436,35.209358],[129.002455,35.209355],[129.002496,35.209349],[129.002585,35.209335],[129.002642,35.209317],[129.002658,35.209312],[129.002708,35.209297],[129.002783,35.2093],[129.002819,35.209302],[129.002746,35.20937],[129.00278,35.209387],[129.002797,35.209383],[129.002816,35.209388],[129.002866,35.209399],[129.002932,35.209404],[129.003067,35.209416],[129.003205,35.209428],[129.003323,35.209439],[129.003305,35.209366],[129.003313,35.209339],[129.003279,35.209194],[129.003272,35.209155],[129.003248,35.209022],[129.003205,35.208868],[129.003254,35.208857],[129.003243,35.2088],[129.00319,35.20872],[129.00314,35.208732],[129.003106,35.208658],[129.003052,35.208547],[129.003018,35.208476],[129.002972,35.208395],[129.003025,35.208389],[129.003016,35.208371],[129.003126,35.208356],[129.003102,35.208234],[129.003231,35.208212],[129.003303,35.208187],[129.003694,35.208125],[129.003729,35.208119],[129.003757,35.208113],[129.003826,35.208101],[129.004269,35.208029],[129.004366,35.207978],[129.004386,35.207984],[129.004383,35.207961],[129.004433,35.207954],[129.004452,35.208058],[129.004462,35.208112],[129.004471,35.208112],[129.004475,35.208124],[129.004483,35.208124],[129.004488,35.208143],[129.004497,35.208199],[129.004504,35.208237],[129.004504,35.20824],[129.004494,35.208243],[129.004504,35.208297],[129.004488,35.208301],[129.004492,35.208318],[129.004499,35.208344],[129.004432,35.208353],[129.004448,35.208439],[129.004465,35.208539],[129.0045,35.208729],[129.004508,35.208775],[129.00455,35.209011],[129.004562,35.209012],[129.004569,35.209014],[129.00454,35.209067],[129.004535,35.209075],[129.004499,35.20911],[129.004488,35.209119],[129.004452,35.209149],[129.004443,35.209101],[129.004331,35.209178],[129.004241,35.209238],[129.004216,35.209246],[129.004194,35.209146],[129.004055,35.209165],[129.004033,35.209168],[129.003917,35.209183],[129.003902,35.209185],[129.003778,35.209202],[129.003645,35.20922],[129.003506,35.209238],[129.003507,35.209252],[129.003541,35.209329],[129.003424,35.209328],[129.003372,35.209334],[129.003389,35.209373],[129.003404,35.209444],[129.003409,35.209468],[129.003773,35.209587],[129.003809,35.209596],[129.003832,35.209602],[129.003921,35.209624],[129.004011,35.209647],[129.004046,35.209656],[129.004128,35.209674],[129.004484,35.209763],[129.004886,35.209864],[129.005148,35.20977],[129.005207,35.209748],[129.005257,35.20973],[129.005334,35.209703],[129.005571,35.209696],[129.005814,35.210004],[129.005899,35.210111],[129.006006,35.210138],[129.006125,35.210168],[129.006139,35.210172],[129.006262,35.210203],[129.006377,35.210232],[129.006511,35.210265],[129.006608,35.210289],[129.00675,35.210325],[129.006912,35.210366],[129.006995,35.210387],[129.00717,35.210431],[129.007312,35.210467],[129.007443,35.210499],[129.00754,35.210523],[129.007661,35.210553],[129.007722,35.210569],[129.007783,35.210584],[129.007906,35.210614],[129.008027,35.210644],[129.008176,35.210682],[129.008259,35.210703],[129.008442,35.210749],[129.008614,35.210792],[129.008702,35.210813],[129.008801,35.210837],[129.008871,35.210854],[129.008943,35.210871],[129.009016,35.210889],[129.009174,35.210929],[129.009432,35.210993],[129.009516,35.211014],[129.009625,35.211042],[129.009719,35.211065],[129.00984,35.211095],[129.009869,35.211017],[129.009833,35.211006],[129.00986,35.210918],[129.009881,35.210852],[129.009912,35.210841],[129.010054,35.210876],[129.010051,35.210885],[129.010007,35.211004],[129.009956,35.21099],[129.009899,35.211],[129.009883,35.211042],[129.009859,35.211101],[129.01001,35.211137],[129.010074,35.211153],[129.010136,35.211168],[129.010156,35.211174],[129.010248,35.211198],[129.01028,35.211206],[129.010376,35.21123],[129.010442,35.211246],[129.010587,35.211283],[129.010672,35.211302],[129.010888,35.211356],[129.010929,35.211366],[129.011021,35.211389],[129.011264,35.211449],[129.011334,35.211467],[129.011519,35.211512],[129.011617,35.211536],[129.011639,35.211542],[129.011672,35.21155],[129.011783,35.211578],[129.012046,35.211644],[129.012094,35.211656],[129.012125,35.211664],[129.012172,35.211675],[129.012366,35.211724],[129.012532,35.211765],[129.012553,35.211771],[129.012665,35.211798],[129.012968,35.211874],[129.013094,35.211906],[129.013185,35.211928],[129.013322,35.211963],[129.013406,35.211984],[129.013573,35.212026],[129.013705,35.212059],[129.013802,35.212083],[129.013924,35.212114],[129.013945,35.212119],[129.014159,35.212172],[129.014362,35.212222],[129.014381,35.212227],[129.014589,35.212279],[129.014614,35.212285],[129.014648,35.212294],[129.014673,35.2123],[129.015957,35.212618],[129.015957,35.212618],[129.01604,35.212639],[129.016261,35.212693],[129.016356,35.212717],[129.016368,35.21272],[129.016473,35.212746],[129.016706,35.212803],[129.016857,35.212841],[129.016868,35.212844],[129.016876,35.212846],[129.017048,35.212889],[129.017108,35.212904],[129.017145,35.212913],[129.017239,35.212937],[129.017408,35.212979],[129.017435,35.212981],[129.017469,35.212986],[129.017496,35.212991],[129.017677,35.212996],[129.01778,35.212999],[129.017854,35.213001],[129.018072,35.213008],[129.018181,35.213011],[129.018339,35.213016],[129.018355,35.213016],[129.018583,35.213023],[129.01867,35.213024],[129.018893,35.213031],[129.019067,35.213036],[129.019929,35.213062],[129.019982,35.213064],[129.020026,35.213065],[129.020147,35.213069],[129.020235,35.213071],[129.020714,35.213086],[129.020936,35.213093],[129.021092,35.213098],[129.021348,35.213106],[129.02139,35.213108],[129.021649,35.213115],[129.021715,35.213118],[129.021802,35.21312],[129.02179,35.21339],[129.021702,35.213386],[129.019925,35.213332],[129.019836,35.213331],[129.019029,35.213307],[129.018996,35.213306],[129.018662,35.213296],[129.018572,35.213293],[129.01817,35.213282],[129.018137,35.213281],[129.017876,35.213273],[129.017745,35.213269],[129.017563,35.213263],[129.017443,35.213259],[129.017406,35.213441],[129.017395,35.213493],[129.017354,35.213695],[129.017331,35.213811],[129.017273,35.214094],[129.017302,35.214128],[129.017292,35.214142],[129.017237,35.214139],[129.017201,35.214137],[129.017139,35.214248]],[[129.015641,35.213834],[129.015973,35.213897],[129.016188,35.213937],[129.016366,35.21397],[129.01714,35.214116],[129.017186,35.214091],[129.017211,35.21397],[129.017182,35.213964],[129.017223,35.213784],[129.017208,35.213759],[129.01645,35.213572],[129.015797,35.21341],[129.01577,35.213422],[129.0157,35.213618],[129.015681,35.213613],[129.015614,35.213793],[129.015641,35.213834]],[[129.014378,35.21309],[129.014362,35.21313],[129.014239,35.213453],[129.014264,35.213492],[129.014363,35.213517],[129.015482,35.213796],[129.015529,35.213774],[129.015664,35.21341],[129.015639,35.213371],[129.014428,35.213069],[129.014378,35.21309]],[[129.013143,35.212446],[129.013179,35.212347],[129.013225,35.212222],[129.013057,35.212179],[129.012941,35.21215],[129.012807,35.212117],[129.012627,35.212072],[129.012093,35.211939],[129.012032,35.212101],[129.012003,35.212174],[129.011929,35.212368],[129.011945,35.212394],[129.012461,35.212521],[129.012625,35.212561],[129.012751,35.212593],[129.012782,35.2126],[129.012908,35.212631],[129.013025,35.212661],[129.013071,35.21264],[129.013117,35.212516],[129.013143,35.212446]],[[129.013115,35.212774],[129.013089,35.212844],[129.013064,35.212911],[129.013023,35.213021],[129.012978,35.213142],[129.013004,35.213179],[129.013932,35.21341],[129.014104,35.213452],[129.014154,35.21343],[129.014291,35.213071],[129.014266,35.213027],[129.014093,35.212984],[129.01353,35.212844],[129.013166,35.212753],[129.013115,35.212774]],[[129.012612,35.212615],[129.011927,35.212445],[129.011894,35.21246],[129.011853,35.212574],[129.011821,35.21265],[129.011752,35.212839],[129.011755,35.212844],[129.01177,35.21287],[129.012459,35.213043],[129.012846,35.213141],[129.012896,35.213118],[129.012996,35.212849],[129.013031,35.212755],[129.013004,35.212712],[129.012612,35.212615]],[[129.016468,35.213519],[129.017209,35.213701],[129.017241,35.213687],[129.017278,35.213512],[129.017255,35.213469],[129.016553,35.213296],[129.015926,35.21314],[129.015868,35.213169],[129.015805,35.213342],[129.015815,35.213358],[129.016468,35.213519]],[[129.015108,35.213182],[129.015657,35.213319],[129.01568,35.213309],[129.015752,35.213113],[129.015732,35.213091],[129.015193,35.212957],[129.014737,35.212844],[129.014537,35.212794],[129.014508,35.212808],[129.014435,35.213],[129.014446,35.213018],[129.015108,35.213182]],[[129.014334,35.212955],[129.014406,35.212764],[129.014193,35.21271],[129.014096,35.212686],[129.01398,35.212657],[129.013264,35.212476],[129.013239,35.212488],[129.013168,35.212678],[129.013183,35.212702],[129.013754,35.212844],[129.013898,35.21288],[129.013997,35.212905],[129.014029,35.212912],[129.014109,35.212933],[129.014285,35.212977],[129.014334,35.212955]],[[129.016573,35.213244],[129.017108,35.213377],[129.017281,35.21342],[129.017304,35.213411],[129.017332,35.213245],[129.017108,35.213189],[129.016638,35.213071],[129.015967,35.212904],[129.015912,35.213052],[129.015921,35.213083],[129.016573,35.213244]],[[129.015782,35.213031],[129.015839,35.212872],[129.015726,35.212844],[129.015275,35.212731],[129.0146,35.212565],[129.014539,35.212723],[129.014551,35.21274],[129.014969,35.212844],[129.014972,35.212845],[129.015212,35.212905],[129.015759,35.213042],[129.015782,35.213031]],[[129.014437,35.212679],[129.01449,35.212538],[129.014362,35.212506],[129.013885,35.212387],[129.013329,35.212248],[129.01327,35.212404],[129.013286,35.212425],[129.013815,35.212558],[129.014364,35.212696],[129.014437,35.212679]],[[129.003997,35.21187],[129.003915,35.211849],[129.003792,35.21182],[129.003743,35.211807],[129.003677,35.211792],[129.003571,35.211765],[129.003525,35.211754],[129.003498,35.211831],[129.003518,35.211836],[129.003491,35.211914],[129.003622,35.211945],[129.003598,35.212014],[129.00363,35.212022],[129.003713,35.212042],[129.003755,35.211927],[129.003876,35.211956],[129.003959,35.211976],[129.003997,35.21187]],[[129.014718,35.213747],[129.01463,35.213725],[129.014574,35.21387],[129.014643,35.213857],[129.014743,35.213837],[129.014718,35.213747]]]]},"properties":{"id":"FLD:26320:50:1407","layer":"FLOOD_TRACE","admin_code":"26320","sido_code":"26","flood_year":"2014","occurred_at":"2014-08-25","ended_at":"2014-08-25","begin_time":"1400","end_time":"1600","disaster_name":"2014년 집중호우","cause_detail":"집중호우로 인한 급격한 우수량증가","flood_grade":1,"flood_depth_m":0.423,"flood_area_m2":153678.417,"source_sn":50,"data_status":"actual","official_data":true,"is_prediction":false,"source":"행정안전부 침수흔적도 · 재난안전데이터공유플랫폼 DSSP-IF-00117","collected_at":"2026-08-19T16:46:51+09:00","source_crs":"EPSG:3857","display_badges":["행안부 침수흔적도","과거 기록"]}},{"type":"Feature","id":"FLD:26320:48:1408","geometry":{"type":"MultiPolygon","coordinates":[[[[129.003491,35.211914],[129.003518,35.211836],[129.003498,35.211831],[129.003525,35.211754],[129.003571,35.211765],[129.003677,35.211792],[129.003743,35.211807],[129.003792,35.21182],[129.003915,35.211849],[129.003997,35.21187],[129.003959,35.211976],[129.003876,35.211956],[129.003755,35.211927],[129.003713,35.212042],[129.00363,35.212022],[129.003598,35.212014],[129.003622,35.211945],[129.003491,35.211914]]]]},"properties":{"id":"FLD:26320:48:1408","layer":"FLOOD_TRACE","admin_code":"26320","sido_code":"26","flood_year":"2014","occurred_at":"2014-08-25","ended_at":"2014-08-25","begin_time":"1400","end_time":"1600","disaster_name":"2014년 집중호우","cause_detail":"집중호우로 인한 급격한 우수량증가","flood_grade":2,"flood_depth_m":0.594,"flood_area_m2":153678.417,"source_sn":48,"data_status":"actual","official_data":true,"is_prediction":false,"source":"행정안전부 침수흔적도 · 재난안전데이터공유플랫폼 DSSP-IF-00117","collected_at":"2026-08-19T16:46:51+09:00","source_crs":"EPSG:3857","display_badges":["행안부 침수흔적도","과거 기록"]}},{"type":"Feature","id":"FLD:26320:53:1409","geometry":{"type":"MultiPolygon","coordinates":[[[[128.996121,35.202679],[128.996186,35.202763],[128.996221,35.202777],[128.99623,35.202782],[128.996293,35.202859],[128.996454,35.203056],[128.996466,35.203057],[128.996489,35.203136],[128.99639,35.203218],[128.996349,35.203245],[128.996315,35.203269],[128.996271,35.20329],[128.996147,35.203344],[128.996052,35.203386],[128.995976,35.203421],[128.995795,35.203519],[128.995679,35.203467],[128.995636,35.203447],[128.99563,35.203444],[128.995559,35.203411],[128.995143,35.203239],[128.995027,35.20319],[128.994934,35.20311],[128.994894,35.203076],[128.994709,35.202904],[128.994787,35.202843],[128.994846,35.202797],[128.994907,35.20275],[128.994953,35.202718],[128.995077,35.202622],[128.995143,35.20257],[128.995184,35.202539],[128.995313,35.202439],[128.995367,35.202462],[128.995547,35.202537],[128.995569,35.202566],[128.99556,35.202585],[128.99562,35.2026],[128.995671,35.202565],[128.995714,35.202536],[128.99573,35.202526],[128.995755,35.20251],[128.995833,35.202458],[128.996004,35.202588],[128.996121,35.202679]]]]},"properties":{"id":"FLD:26320:53:1409","layer":"FLOOD_TRACE","admin_code":"26320","sido_code":"26","flood_year":"2014","occurred_at":"2014-08-25","ended_at":"2014-08-25","begin_time":"1400","end_time":"1600","disaster_name":"2014년 집중호우","cause_detail":"집중호우로 우수량의 급격한 증가","flood_grade":2,"flood_depth_m":0.824,"flood_area_m2":20367.322,"source_sn":53,"data_status":"actual","official_data":true,"is_prediction":false,"source":"행정안전부 침수흔적도 · 재난안전데이터공유플랫폼 DSSP-IF-00117","collected_at":"2026-08-19T16:46:51+09:00","source_crs":"EPSG:3857","display_badges":["행안부 침수흔적도","과거 기록"]}},{"type":"Feature","id":"FLD:26320:51:1410","geometry":{"type":"MultiPolygon","coordinates":[[[[129.003696,35.201885],[129.003741,35.20185],[129.00376,35.201836],[129.003816,35.201797],[129.0039,35.201779],[129.003985,35.201848],[129.003973,35.201863],[129.0039,35.201928],[129.003892,35.201928],[129.003857,35.201929],[129.003801,35.201929],[129.003737,35.201924],[129.003696,35.201885]]]]},"properties":{"id":"FLD:26320:51:1410","layer":"FLOOD_TRACE","admin_code":"26320","sido_code":"26","flood_year":"2014","occurred_at":"2014-08-25","ended_at":"2014-08-25","begin_time":"1400","end_time":"1600","disaster_name":"2014년 집중호우","cause_detail":"집중호우로 인한 급격한 우수량 증가","flood_grade":3,"flood_depth_m":1.125,"flood_area_m2":18408.972,"source_sn":51,"data_status":"actual","official_data":true,"is_prediction":false,"source":"행정안전부 침수흔적도 · 재난안전데이터공유플랫폼 DSSP-IF-00117","collected_at":"2026-08-19T16:46:51+09:00","source_crs":"EPSG:3857","display_badges":["행안부 침수흔적도","과거 기록"]}},{"type":"Feature","id":"FLD:26320:52:1411","geometry":{"type":"MultiPolygon","coordinates":[[[[129.014691,35.196371],[129.014691,35.19626],[129.01469,35.196148],[129.01469,35.196013],[129.014689,35.195901],[129.014689,35.195781],[129.014688,35.195679],[129.014688,35.195577],[129.014689,35.195542],[129.014623,35.195285],[129.014692,35.195261],[129.014945,35.194987],[129.015057,35.195089],[129.015144,35.195083],[129.015399,35.195285],[129.015556,35.19549],[129.015474,35.195573],[129.015368,35.19568],[129.015293,35.195704],[129.015176,35.195741],[129.015133,35.195769],[129.014954,35.195882],[129.014777,35.195883],[129.014777,35.195959],[129.014777,35.196019],[129.014778,35.196059],[129.014778,35.196086],[129.014778,35.196128],[129.014808,35.19619],[129.014848,35.196225],[129.014779,35.196323],[129.014779,35.196377],[129.014691,35.196371]]]]},"properties":{"id":"FLD:26320:52:1411","layer":"FLOOD_TRACE","admin_code":"26320","sido_code":"26","flood_year":"2014","occurred_at":"2014-08-25","ended_at":"2014-08-25","begin_time":"1400","end_time":"1600","disaster_name":"2014년 집중호우","cause_detail":"집중호우로 인한 급격한 우수량 증가","flood_grade":3,"flood_depth_m":1.085,"flood_area_m2":46074.572,"source_sn":52,"data_status":"actual","official_data":true,"is_prediction":false,"source":"행정안전부 침수흔적도 · 재난안전데이터공유플랫폼 DSSP-IF-00117","collected_at":"2026-08-19T16:46:51+09:00","source_crs":"EPSG:3857","display_badges":["행안부 침수흔적도","과거 기록"]}},{"type":"Feature","id":"FLD:26320:54:1412","geometry":{"type":"MultiPolygon","coordinates":[[[[128.995547,35.202537],[128.995539,35.202527],[128.995553,35.202497],[128.995646,35.202519],[128.995711,35.202499],[128.99571,35.202476],[128.995872,35.202418],[128.995911,35.202373],[128.995931,35.202393],[128.996034,35.202326],[128.996146,35.20225],[128.996134,35.202229],[128.996211,35.202172],[128.996253,35.202163],[128.996279,35.20216],[128.996305,35.202144],[128.996463,35.202038],[128.996483,35.202024],[128.996469,35.202001],[128.996534,35.201956],[128.996538,35.201893],[128.996522,35.201892],[128.996522,35.20188],[128.996634,35.201879],[128.996627,35.201817],[128.996687,35.201816],[128.996705,35.20181],[128.996703,35.201761],[128.996642,35.201689],[128.996792,35.201661],[128.996949,35.201599],[128.99698,35.201631],[128.996999,35.201651],[128.996862,35.201718],[128.996903,35.20176],[128.997025,35.201679],[128.99704,35.201671],[128.997176,35.20158],[128.997184,35.201576],[128.997267,35.201523],[128.99739,35.201441],[128.997408,35.201429],[128.997415,35.201425],[128.997538,35.201347],[128.997634,35.201282],[128.997727,35.201221],[128.997783,35.201185],[128.997789,35.201182],[128.997809,35.201206],[128.997827,35.201214],[128.998034,35.201434],[128.998017,35.201445],[128.997911,35.201514],[128.997878,35.201536],[128.997718,35.20164],[128.997626,35.201701],[128.997506,35.201781],[128.997489,35.201792],[128.997474,35.201801],[128.99741,35.201842],[128.997396,35.201851],[128.997237,35.201948],[128.99715,35.202001],[128.997011,35.202093],[128.996967,35.202123],[128.996885,35.202176],[128.996788,35.202241],[128.996563,35.202389],[128.996512,35.202423],[128.996474,35.202449],[128.996472,35.20245],[128.996366,35.20252],[128.996292,35.202567],[128.996216,35.202617],[128.996121,35.202679],[128.996004,35.202588],[128.995833,35.202458],[128.995755,35.20251],[128.99573,35.202526],[128.995714,35.202536],[128.995671,35.202565],[128.99562,35.2026],[128.99556,35.202585],[128.995569,35.202566],[128.995547,35.202537]]]]},"properties":{"id":"FLD:26320:54:1412","layer":"FLOOD_TRACE","admin_code":"26320","sido_code":"26","flood_year":"2014","occurred_at":"2014-08-25","ended_at":"2014-08-25","begin_time":"1400","end_time":"1600","disaster_name":"2014년 집중호우","cause_detail":"집중호우로 우수량의 급격한 증가","flood_grade":1,"flood_depth_m":0.354,"flood_area_m2":20367.322,"source_sn":54,"data_status":"actual","official_data":true,"is_prediction":false,"source":"행정안전부 침수흔적도 · 재난안전데이터공유플랫폼 DSSP-IF-00117","collected_at":"2026-08-19T16:46:51+09:00","source_crs":"EPSG:3857","display_badges":["행안부 침수흔적도","과거 기록"]}},{"type":"Feature","id":"FLD:26320:56:1415","geometry":{"type":"MultiPolygon","coordinates":[[[[129.0039,35.201779],[129.003816,35.201797],[129.00376,35.201836],[129.003741,35.20185],[129.003696,35.201885],[129.003662,35.201857],[129.003573,35.201821],[129.003479,35.201782],[129.003531,35.201719],[129.003652,35.201522],[129.003705,35.201382],[129.00371,35.201344],[129.003716,35.201294],[129.003646,35.201038],[129.003648,35.200957],[129.003731,35.20098],[129.003886,35.201022],[129.004083,35.201071],[129.004331,35.201136],[129.00436,35.201143],[129.00441,35.201155],[129.004491,35.201179],[129.004646,35.201206],[129.0047,35.201113],[129.004717,35.201083],[129.00497,35.200544],[129.005052,35.20037],[129.00505,35.200326],[129.005062,35.200221],[129.005063,35.200211],[129.005074,35.200151],[129.005053,35.2001],[129.00504,35.200069],[129.005043,35.200051],[129.005045,35.200023],[129.005226,35.200069],[129.005282,35.200045],[129.005307,35.199977],[129.005357,35.199844],[129.005419,35.19968],[129.005429,35.199654],[129.005465,35.199559],[129.005531,35.199383],[129.00554,35.199357],[129.005577,35.19926],[129.005622,35.19914],[129.005648,35.199071],[129.00567,35.199012],[129.005677,35.198993],[129.00568,35.198986],[129.005717,35.198887],[129.005722,35.198869],[129.005724,35.198851],[129.005947,35.19889],[129.005913,35.198976],[129.00583,35.199195],[129.005769,35.199357],[129.0057,35.199543],[129.005695,35.199555],[129.00569,35.199568],[129.005638,35.199706],[129.005574,35.199876],[129.005543,35.199958],[129.005514,35.200035],[129.005489,35.200101],[129.00544,35.200236],[129.005385,35.20038],[129.005337,35.200509],[129.005288,35.200638],[129.005257,35.200719],[129.005246,35.20075],[129.005233,35.200784],[129.005219,35.20082],[129.005206,35.200854],[129.005184,35.200914],[129.005152,35.200999],[129.005131,35.201053],[129.005116,35.201094],[129.005092,35.201156],[129.005061,35.20124],[129.00509,35.201285],[129.005042,35.201414],[129.00512,35.201434],[129.005064,35.201579],[129.005113,35.201591],[129.005089,35.201657],[129.005051,35.201703],[129.005047,35.201708],[129.005015,35.201774],[129.005008,35.201771],[129.004954,35.201834],[129.004943,35.201847],[129.004888,35.201913],[129.004824,35.20199],[129.004787,35.201972],[129.004715,35.202161],[129.004498,35.202126],[129.004578,35.201913],[129.004597,35.201864],[129.004613,35.201822],[129.004426,35.201773],[129.00441,35.201814],[129.00437,35.201824],[129.004354,35.201828],[129.004233,35.201877],[129.004176,35.201824],[129.004075,35.201752],[129.003985,35.201848],[129.0039,35.201779]]]]},"properties":{"id":"FLD:26320:56:1415","layer":"FLOOD_TRACE","admin_code":"26320","sido_code":"26","flood_year":"2014","occurred_at":"2014-08-25","ended_at":"2014-08-25","begin_time":"1400","end_time":"1600","disaster_name":"2014년 집중호우","cause_detail":"집중호우로 인한 급격한 우수량 증가","flood_grade":1,"flood_depth_m":0.385,"flood_area_m2":18408.972,"source_sn":56,"data_status":"actual","official_data":true,"is_prediction":false,"source":"행정안전부 침수흔적도 · 재난안전데이터공유플랫폼 DSSP-IF-00117","collected_at":"2026-08-19T16:46:51+09:00","source_crs":"EPSG:3857","display_badges":["행안부 침수흔적도","과거 기록"]}},{"type":"Feature","id":"FLD:26320:28:2692","geometry":{"type":"MultiPolygon","coordinates":[[[[129.010159,35.225874],[129.010103,35.2258],[129.010026,35.225699],[129.009922,35.225546],[129.010015,35.22553],[129.010274,35.2255],[129.010275,35.225501],[129.010284,35.225514],[129.010407,35.225681],[129.010442,35.225729],[129.010159,35.225874]]]]},"properties":{"id":"FLD:26320:28:2692","layer":"FLOOD_TRACE","admin_code":"26320","sido_code":"26","flood_year":"2014","occurred_at":"2014-08-25","ended_at":"2014-08-25","begin_time":"1400","end_time":"1600","disaster_name":"2014년 집중호우","cause_detail":"집중호우로 인한 급격한 우수량 증가","flood_grade":1,"flood_depth_m":0.36,"flood_area_m2":4470.363,"source_sn":28,"data_status":"actual","official_data":true,"is_prediction":false,"source":"행정안전부 침수흔적도 · 재난안전데이터공유플랫폼 DSSP-IF-00117","collected_at":"2026-08-19T16:46:51+09:00","source_crs":"EPSG:3857","display_badges":["행안부 침수흔적도","과거 기록"]}},{"type":"Feature","id":"FLD:26320:25:2695","geometry":{"type":"MultiPolygon","coordinates":[[[[129.013994,35.226984],[129.013986,35.226943],[129.013898,35.226872],[129.014058,35.226728],[129.014174,35.2267],[129.014314,35.226569],[129.014856,35.22647],[129.014912,35.226469],[129.015146,35.226457],[129.015267,35.226507],[129.015352,35.22657],[129.015367,35.226618],[129.015353,35.226657],[129.015331,35.226632],[129.015178,35.226644],[129.015095,35.226639],[129.015026,35.226625],[129.015004,35.226654],[129.014956,35.226703],[129.014882,35.226772],[129.014804,35.226818],[129.014698,35.226878],[129.014606,35.226906],[129.014453,35.226983],[129.014337,35.227034],[129.014253,35.227034],[129.014101,35.227107],[129.014037,35.227114],[129.013994,35.226984]]]]},"properties":{"id":"FLD:26320:25:2695","layer":"FLOOD_TRACE","admin_code":"26320","sido_code":"26","flood_year":"2014","occurred_at":"2014-08-25","ended_at":"2014-08-25","begin_time":"1400","end_time":"1600","disaster_name":"2014년 집중호우","cause_detail":"집중호우로 인한 급격한 우수량 증가","flood_grade":2,"flood_depth_m":0.982,"flood_area_m2":17096.887,"source_sn":25,"data_status":"actual","official_data":true,"is_prediction":false,"source":"행정안전부 침수흔적도 · 재난안전데이터공유플랫폼 DSSP-IF-00117","collected_at":"2026-08-19T16:46:51+09:00","source_crs":"EPSG:3857","display_badges":["행안부 침수흔적도","과거 기록"]}},{"type":"Feature","id":"FLD:26320:34:2696","geometry":{"type":"MultiPolygon","coordinates":[[[[129.0189,35.242933],[129.018912,35.242883],[129.018914,35.242838],[129.019131,35.242812],[129.01923,35.242966],[129.019171,35.242984],[129.019102,35.242981],[129.019078,35.242984],[129.019018,35.242995],[129.018932,35.242949],[129.0189,35.242933]]]]},"properties":{"id":"FLD:26320:34:2696","layer":"FLOOD_TRACE","admin_code":"26320","sido_code":"26","flood_year":"2014","occurred_at":"2014-08-25","ended_at":"2014-08-25","begin_time":"1400","end_time":"1600","disaster_name":"2014년 집중호우","cause_detail":"집중호우로 인한 급격한 우수량증가","flood_grade":2,"flood_depth_m":0.756,"flood_area_m2":27895.06,"source_sn":34,"data_status":"actual","official_data":true,"is_prediction":false,"source":"행정안전부 침수흔적도 · 재난안전데이터공유플랫폼 DSSP-IF-00117","collected_at":"2026-08-19T16:46:51+09:00","source_crs":"EPSG:3857","display_badges":["행안부 침수흔적도","과거 기록"]}},{"type":"Feature","id":"FLD:26320:33:2697","geometry":{"type":"MultiPolygon","coordinates":[[[[129.013904,35.240827],[129.013918,35.240759],[129.013919,35.240747],[129.013935,35.240621],[129.013936,35.240621],[129.013936,35.24062],[129.013945,35.240549],[129.013953,35.240483],[129.013963,35.240408],[129.013969,35.24029],[129.013969,35.240276],[129.013968,35.240239],[129.013964,35.240153],[129.013963,35.240138],[129.013963,35.240135],[129.013957,35.240047],[129.013953,35.239989],[129.01394,35.239806],[129.013928,35.239552],[129.013924,35.239464],[129.013923,35.239437],[129.013916,35.239285],[129.013888,35.238812],[129.013886,35.238774],[129.013881,35.238702],[129.014403,35.238702],[129.014541,35.238847],[129.014755,35.238907],[129.014757,35.238907],[129.01497,35.238973],[129.015113,35.239016],[129.015136,35.239024],[129.01527,35.239067],[129.01538,35.239103],[129.015449,35.239089],[129.015495,35.239033],[129.015567,35.239007],[129.01566,35.238981],[129.015749,35.238947],[129.015803,35.238971],[129.015794,35.238991],[129.015804,35.239018],[129.015818,35.239023],[129.015831,35.23904],[129.015863,35.239065],[129.01588,35.239096],[129.015897,35.239136],[129.015882,35.239181],[129.016008,35.239112],[129.016045,35.239201],[129.016093,35.239318],[129.016066,35.239327],[129.016263,35.239332],[129.016309,35.239331],[129.016363,35.239327],[129.016409,35.23937],[129.016436,35.23943],[129.016493,35.239438],[129.016513,35.23946],[129.016564,35.239461],[129.0166,35.239514],[129.016652,35.23957],[129.016751,35.239476],[129.016794,35.239486],[129.016802,35.239488],[129.016777,35.239582],[129.016791,35.239619],[129.0168,35.23964],[129.016811,35.239671],[129.016823,35.239691],[129.016849,35.239705],[129.016881,35.239707],[129.016957,35.239669],[129.016973,35.239671],[129.017046,35.239672],[129.017077,35.239654],[129.017113,35.239697],[129.017123,35.239709],[129.017122,35.23975],[129.017114,35.239797],[129.017113,35.239798],[129.017099,35.239814],[129.017025,35.239839],[129.016991,35.239845],[129.016898,35.239837],[129.017021,35.23987],[129.017063,35.239843],[129.017113,35.239851],[129.017168,35.239846],[129.017296,35.239773],[129.017353,35.239731],[129.017385,35.239723],[129.017419,35.23973],[129.017488,35.239798],[129.017564,35.239864],[129.017431,35.239882],[129.017459,35.23993],[129.017495,35.239915],[129.017429,35.239991],[129.017395,35.240042],[129.017378,35.240083],[129.017409,35.240086],[129.017458,35.240095],[129.017495,35.240109],[129.017497,35.240114],[129.017506,35.240162],[129.017551,35.240162],[129.017575,35.240162],[129.017618,35.240125],[129.017658,35.240111],[129.017678,35.240126],[129.017684,35.240122],[129.017728,35.240184],[129.017575,35.24025],[129.017563,35.240265],[129.017623,35.2403],[129.017651,35.240316],[129.017684,35.240313],[129.017824,35.240347],[129.017825,35.240332],[129.017867,35.240279],[129.017898,35.240282],[129.017937,35.24026],[129.017999,35.240273],[129.018066,35.240314],[129.018086,35.240336],[129.01807,35.240355],[129.018214,35.240404],[129.018204,35.240423],[129.01818,35.240481],[129.018184,35.240496],[129.018182,35.240501],[129.018171,35.240519],[129.01809,35.240547],[129.018085,35.240572],[129.018152,35.240612],[129.018189,35.240634],[129.018174,35.240664],[129.018418,35.24081],[129.018507,35.240863],[129.018534,35.240878],[129.018623,35.240887],[129.018744,35.240959],[129.018761,35.240966],[129.018784,35.240979],[129.018916,35.241056],[129.018966,35.241085],[129.019079,35.24115],[129.019135,35.241184],[129.019185,35.241212],[129.019193,35.241217],[129.019217,35.241234],[129.019249,35.241251],[129.019258,35.241257],[129.019333,35.241301],[129.019344,35.241307],[129.019509,35.241402],[129.019538,35.241419],[129.019541,35.241433],[129.019518,35.241462],[129.019506,35.241477],[129.019477,35.241513],[129.019467,35.241526],[129.019448,35.241549],[129.019425,35.241593],[129.019437,35.241612],[129.019422,35.241619],[129.019382,35.24164],[129.019303,35.241684],[129.019298,35.241686],[129.01926,35.241707],[129.019251,35.241747],[129.019262,35.241797],[129.01924,35.241919],[129.019168,35.241927],[129.019093,35.241937],[129.019089,35.241917],[129.019079,35.24187],[129.019055,35.241726],[129.019145,35.241674],[129.019085,35.241569],[129.019015,35.241578],[129.019014,35.241574],[129.018915,35.241632],[129.018899,35.241634],[129.018834,35.241658],[129.018793,35.24166],[129.018791,35.241657],[129.018703,35.241692],[129.018685,35.241699],[129.018623,35.241634],[129.0186,35.241641],[129.018594,35.241628],[129.018567,35.241617],[129.018547,35.241585],[129.018481,35.241475],[129.018491,35.241425],[129.018521,35.241328],[129.01848,35.241304],[129.018452,35.241297],[129.018437,35.241293],[129.018321,35.241243],[129.018254,35.241213],[129.018203,35.241183],[129.018188,35.241169],[129.018168,35.241203],[129.018034,35.241291],[129.017988,35.24131],[129.017946,35.24134],[129.017694,35.241098],[129.017579,35.240985],[129.017498,35.240932],[129.01731,35.240812],[129.01731,35.240813],[129.017277,35.240795],[129.017207,35.240745],[129.017113,35.24066],[129.017076,35.240615],[129.017037,35.240613],[129.017043,35.240579],[129.01687,35.240477],[129.016868,35.240476],[129.016523,35.240314],[129.016247,35.240156],[129.016101,35.240082],[129.016095,35.240079],[129.015987,35.239997],[129.015918,35.239944],[129.0159,35.239942],[129.015726,35.239919],[129.015616,35.239887],[129.015505,35.239853],[129.015407,35.239818],[129.015271,35.239768],[129.015154,35.239722],[129.015107,35.23969],[129.015059,35.239657],[129.014787,35.239543],[129.014712,35.239535],[129.014677,35.239538],[129.01458,35.239455],[129.014374,35.239488],[129.014221,35.239491],[129.014182,35.239491],[129.014282,35.23989],[129.014286,35.239979],[129.014287,35.239999],[129.014289,35.240035],[129.014291,35.240085],[129.014294,35.240157],[129.014298,35.240233],[129.014299,35.240246],[129.014303,35.240328],[129.014302,35.240329],[129.014301,35.240366],[129.014301,35.240398],[129.014298,35.240481],[129.014292,35.240531],[129.014288,35.240567],[129.014273,35.240665],[129.014231,35.240875],[129.013904,35.240827]]]]},"properties":{"id":"FLD:26320:33:2697","layer":"FLOOD_TRACE","admin_code":"26320","sido_code":"26","flood_year":"2014","occurred_at":"2014-08-25","ended_at":"2014-08-25","begin_time":"1400","end_time":"1600","disaster_name":"2014년 집중호우","cause_detail":"집중호우로 인한 급격한 우수량 증가","flood_grade":1,"flood_depth_m":0.35,"flood_area_m2":74507.831,"source_sn":33,"data_status":"actual","official_data":true,"is_prediction":false,"source":"행정안전부 침수흔적도 · 재난안전데이터공유플랫폼 DSSP-IF-00117","collected_at":"2026-08-19T16:46:51+09:00","source_crs":"EPSG:3857","display_badges":["행안부 침수흔적도","과거 기록"]}},{"type":"Feature","id":"FLD:26320:35:2700","geometry":{"type":"MultiPolygon","coordinates":[[[[129.015689,35.226647],[129.015734,35.226715],[129.015743,35.22673],[129.015813,35.226838],[129.015891,35.226957],[129.01592,35.227007],[129.015799,35.227058],[129.015786,35.227033],[129.015753,35.226981],[129.01573,35.226949],[129.015708,35.226917],[129.015684,35.226887],[129.015592,35.226869],[129.015442,35.226841],[129.015433,35.226844],[129.015273,35.226887],[129.015188,35.226916],[129.015158,35.226918],[129.014406,35.227114],[129.014283,35.227163],[129.014105,35.227209],[129.014075,35.227217],[129.014004,35.227222],[129.013843,35.227265],[129.013785,35.22728],[129.013744,35.22729],[129.013743,35.22729],[129.013736,35.227292],[129.013606,35.227318],[129.013588,35.227321],[129.013585,35.227321],[129.013584,35.227321],[129.013558,35.227325],[129.013557,35.227325],[129.013507,35.227318],[129.013444,35.227296],[129.013308,35.227298],[129.013204,35.227301],[129.01307,35.227305],[129.012944,35.227271],[129.012896,35.227266],[129.012881,35.227264],[129.012777,35.227252],[129.012647,35.227257],[129.012567,35.227255],[129.012285,35.227193],[129.012098,35.227174],[129.012117,35.227112],[129.012171,35.227071],[129.012019,35.227039],[129.011916,35.22703],[129.011879,35.227173],[129.011714,35.22716],[129.011772,35.227011],[129.011828,35.226995],[129.011845,35.226959],[129.011863,35.226911],[129.011963,35.226872],[129.012063,35.226866],[129.012111,35.226861],[129.012192,35.226853],[129.012285,35.226864],[129.012361,35.226872],[129.012433,35.226874],[129.01253,35.226905],[129.012654,35.226929],[129.012751,35.226928],[129.012854,35.226919],[129.012932,35.226925],[129.012967,35.226923],[129.013019,35.226921],[129.013082,35.226923],[129.013157,35.226942],[129.013246,35.226987],[129.013417,35.227006],[129.013488,35.227003],[129.013496,35.226987],[129.013473,35.226965],[129.013401,35.226881],[129.013287,35.226798],[129.013351,35.226805],[129.013483,35.226822],[129.013543,35.226873],[129.013646,35.226942],[129.013727,35.226974],[129.013827,35.226969],[129.013893,35.22688],[129.013898,35.226872],[129.013986,35.226943],[129.013994,35.226984],[129.014037,35.227114],[129.014101,35.227107],[129.014253,35.227034],[129.014337,35.227034],[129.014453,35.226983],[129.014606,35.226906],[129.014698,35.226878],[129.014804,35.226818],[129.014882,35.226772],[129.014956,35.226703],[129.015004,35.226654],[129.015026,35.226625],[129.015095,35.226639],[129.015178,35.226644],[129.015331,35.226632],[129.015353,35.226657],[129.015367,35.226618],[129.015352,35.22657],[129.015267,35.226507],[129.015146,35.226457],[129.014912,35.226469],[129.015028,35.226423],[129.01485,35.226171],[129.01493,35.226084],[129.01497,35.226119],[129.015014,35.226153],[129.015042,35.226173],[129.015068,35.226192],[129.015112,35.22622],[129.015137,35.226236],[129.015172,35.226255],[129.015173,35.226256],[129.01521,35.226276],[129.015263,35.226299],[129.015325,35.226326],[129.015491,35.226426],[129.015561,35.226499],[129.015629,35.226573],[129.015678,35.22663],[129.015689,35.226647]]]]},"properties":{"id":"FLD:26320:35:2700","layer":"FLOOD_TRACE","admin_code":"26320","sido_code":"26","flood_year":"2014","occurred_at":"2014-08-25","ended_at":"2014-08-25","begin_time":"1400","end_time":"1600","disaster_name":"2014년 집중호우","cause_detail":"집중호우로 인한 급격한 우수량 증가","flood_grade":1,"flood_depth_m":0.423,"flood_area_m2":17096.887,"source_sn":35,"data_status":"actual","official_data":true,"is_prediction":false,"source":"행정안전부 침수흔적도 · 재난안전데이터공유플랫폼 DSSP-IF-00117","collected_at":"2026-08-19T16:46:51+09:00","source_crs":"EPSG:3857","display_badges":["행안부 침수흔적도","과거 기록"]}},{"type":"Feature","id":"FLD:26320:39:2701","geometry":{"type":"MultiPolygon","coordinates":[[[[129.005487,35.219972],[129.005414,35.219759],[129.00534,35.219545],[129.005321,35.21949],[129.005236,35.219217],[129.00521,35.219132],[129.005221,35.219137],[129.00525,35.219148],[129.005273,35.219155],[129.005333,35.219174],[129.005448,35.219212],[129.005603,35.219208],[129.005645,35.219199],[129.005722,35.219183],[129.005747,35.219182],[129.005819,35.219179],[129.00583,35.21918],[129.005956,35.219188],[129.005999,35.219165],[129.006056,35.219153],[129.006126,35.219155],[129.006139,35.219172],[129.006193,35.219298],[129.006228,35.219288],[129.006275,35.219394],[129.006295,35.219388],[129.006302,35.219402],[129.006307,35.219414],[129.006288,35.219421],[129.006343,35.219547],[129.006334,35.219553],[129.006275,35.21958],[129.006304,35.219643],[129.006322,35.219672],[129.006296,35.219691],[129.006224,35.219743],[129.006193,35.219755],[129.00614,35.219791],[129.006137,35.219793],[129.006126,35.219799],[129.006079,35.219827],[129.006011,35.219865],[129.006,35.219885],[129.005993,35.21993],[129.005923,35.219923],[129.005932,35.219868],[129.005962,35.219823],[129.005918,35.219836],[129.00578,35.21988],[129.005641,35.219924],[129.005487,35.219972]]]]},"properties":{"id":"FLD:26320:39:2701","layer":"FLOOD_TRACE","admin_code":"26320","sido_code":"26","flood_year":"2014","occurred_at":"2014-08-25","ended_at":"2014-08-25","begin_time":"1400","end_time":"1600","disaster_name":"2014년 집중호우","cause_detail":"집중호우로 인한 급격한 우수량 증가","flood_grade":2,"flood_depth_m":0.547,"flood_area_m2":6457.847,"source_sn":39,"data_status":"actual","official_data":true,"is_prediction":false,"source":"행정안전부 침수흔적도 · 재난안전데이터공유플랫폼 DSSP-IF-00117","collected_at":"2026-08-19T16:46:51+09:00","source_crs":"EPSG:3857","display_badges":["행안부 침수흔적도","과거 기록"]}},{"type":"Feature","id":"FLD:26320:38:2702","geometry":{"type":"MultiPolygon","coordinates":[[[[129.032354,35.247613],[129.032307,35.247611],[129.032289,35.247642],[129.032329,35.247659],[129.032387,35.247721],[129.032436,35.247733],[129.03245,35.247788],[129.032482,35.247797],[129.032564,35.247871],[129.032529,35.247883],[129.032475,35.24788],[129.03242,35.247832],[129.032315,35.247818],[129.032225,35.247772],[129.032178,35.247755],[129.032056,35.247618],[129.032001,35.247592],[129.03196,35.247568],[129.031938,35.247561],[129.031864,35.247516],[129.031798,35.24752],[129.031748,35.247506],[129.031711,35.247491],[129.031676,35.247485],[129.031649,35.247474],[129.031595,35.247434],[129.031555,35.247433],[129.031514,35.24743],[129.031425,35.247386],[129.031386,35.247355],[129.03143,35.247334],[129.031404,35.24733],[129.031315,35.247343],[129.031197,35.24735],[129.031078,35.247255],[129.031089,35.247357],[129.031034,35.247428],[129.031048,35.247533],[129.031081,35.247515],[129.031137,35.247511],[129.031193,35.247542],[129.031202,35.247574],[129.031527,35.247685],[129.031635,35.247682],[129.031803,35.247703],[129.031937,35.247771],[129.031961,35.247791],[129.032,35.247853],[129.032032,35.247927],[129.032039,35.247992],[129.032024,35.248102],[129.031998,35.248234],[129.031917,35.248455],[129.031864,35.248471],[129.03184,35.24849],[129.031772,35.248514],[129.031479,35.248531],[129.031414,35.248499],[129.031385,35.248526],[129.031266,35.248416],[129.031208,35.248347],[129.031084,35.248255],[129.031034,35.248227],[129.030918,35.248242],[129.030524,35.248012],[129.030138,35.247485],[129.03016,35.247411],[129.030081,35.247282],[129.03014,35.247178],[129.030014,35.247127],[129.029818,35.247233],[129.029542,35.24709],[129.029689,35.246944],[129.029807,35.246826],[129.029795,35.246766],[129.029752,35.246713],[129.02973,35.24667],[129.029646,35.24667],[129.029636,35.246667],[129.029559,35.246645],[129.029518,35.246621],[129.029514,35.246603],[129.02954,35.246596],[129.029506,35.246544],[129.02946,35.246505],[129.029392,35.246458],[129.029356,35.246422],[129.029391,35.246399],[129.02936,35.246378],[129.029343,35.246357],[129.029223,35.246329],[129.029174,35.246317],[129.029126,35.246214],[129.029054,35.246143],[129.028978,35.246168],[129.028886,35.246188],[129.028837,35.246097],[129.028892,35.246077],[129.028874,35.246045],[129.028985,35.246064],[129.028991,35.24604],[129.029016,35.246025],[129.029078,35.246075],[129.029104,35.246002],[129.029165,35.246001],[129.029039,35.245919],[129.029043,35.245886],[129.028995,35.245851],[129.029005,35.245799],[129.029049,35.245788],[129.029105,35.245785],[129.029129,35.245787],[129.029232,35.24569],[129.029185,35.245538],[129.029139,35.245499],[129.029089,35.245492],[129.029078,35.245455],[129.029107,35.245441],[129.028863,35.24529],[129.028862,35.245289],[129.028726,35.245251],[129.028633,35.245243],[129.028553,35.245224],[129.028544,35.245207],[129.028535,35.245119],[129.028535,35.24511],[129.028435,35.245064],[129.028398,35.245015],[129.02825,35.244959],[129.028164,35.244955],[129.028101,35.244974],[129.028042,35.244988],[129.027968,35.244983],[129.027995,35.245089],[129.028089,35.245122],[129.028062,35.245144],[129.027815,35.245083],[129.02781,35.245145],[129.027786,35.245239],[129.027739,35.245303],[129.027963,35.245302],[129.028017,35.24529],[129.028068,35.245278],[129.028079,35.24529],[129.028102,35.245316],[129.028135,35.245353],[129.028102,35.245366],[129.028086,35.245372],[129.027984,35.245364],[129.027969,35.245468],[129.028048,35.24551],[129.028078,35.245584],[129.028068,35.245593],[129.028019,35.245637],[129.027942,35.245725],[129.027747,35.246064],[129.027836,35.24606],[129.027923,35.24605],[129.028009,35.246053],[129.027963,35.246164],[129.027664,35.246345],[129.027627,35.246278],[129.027654,35.246246],[129.027556,35.24619],[129.027404,35.246055],[129.027358,35.246068],[129.027294,35.246109],[129.027223,35.246142],[129.027224,35.246151],[129.027228,35.24621],[129.02717,35.246302],[129.027153,35.246374],[129.027133,35.246365],[129.027116,35.246336],[129.027106,35.246184],[129.027133,35.246167],[129.027095,35.246128],[129.027087,35.246062],[129.027045,35.246035],[129.027028,35.245962],[129.026998,35.245962],[129.026899,35.245923],[129.026967,35.245724],[129.027019,35.245664],[129.027143,35.245625],[129.027312,35.245608],[129.027378,35.245631],[129.027455,35.245698],[129.02748,35.245742],[129.027408,35.245774],[129.027438,35.245807],[129.02749,35.245834],[129.027539,35.245879],[129.027666,35.245732],[129.027558,35.245681],[129.027515,35.245635],[129.027482,35.24553],[129.027484,35.245447],[129.027529,35.245346],[129.027561,35.245354],[129.027604,35.245298],[129.027609,35.245186],[129.027575,35.245028],[129.02761,35.244925],[129.027614,35.244909],[129.027584,35.2449],[129.027547,35.244873],[129.027577,35.244813],[129.027364,35.244791],[129.02732,35.244744],[129.027267,35.244659],[129.027213,35.244594],[129.027225,35.244553],[129.027215,35.244483],[129.027178,35.244416],[129.027175,35.24435],[129.027125,35.244325],[129.026935,35.244244],[129.026717,35.244148],[129.026589,35.244001],[129.026539,35.243985],[129.026478,35.244015],[129.026422,35.243975],[129.026305,35.243956],[129.026266,35.243951],[129.026206,35.243919],[129.026044,35.243902],[129.025861,35.243885],[129.025844,35.243853],[129.025769,35.243826],[129.02571,35.243818],[129.025656,35.243832],[129.025568,35.243819],[129.025526,35.243797],[129.025523,35.243879],[129.02548,35.243963],[129.02544,35.243958],[129.025479,35.243797],[129.025476,35.243745],[129.025484,35.243728],[129.025479,35.243717],[129.025466,35.243695],[129.025425,35.243561],[129.025387,35.243617],[129.025336,35.243633],[129.02514,35.243529],[129.025026,35.243445],[129.025162,35.243414],[129.024839,35.243008],[129.024584,35.242813],[129.02442,35.242629],[129.024408,35.242609],[129.024505,35.24258],[129.024576,35.242551],[129.024687,35.242514],[129.024758,35.242526],[129.024766,35.242498],[129.024765,35.242443],[129.024794,35.242416],[129.024828,35.242411],[129.024977,35.242464],[129.025175,35.242421],[129.025935,35.243112],[129.026323,35.243388],[129.02654,35.243511],[129.026695,35.243566],[129.026725,35.243521],[129.026798,35.243509],[129.026843,35.243485],[129.026849,35.243437],[129.026925,35.243414],[129.026958,35.243415],[129.027125,35.243457],[129.027147,35.243518],[129.027165,35.24357],[129.027091,35.243634],[129.027378,35.243768],[129.027503,35.243818],[129.027546,35.243857],[129.027635,35.243904],[129.027722,35.244244],[129.027893,35.24432],[129.027958,35.244391],[129.028101,35.2445],[129.028106,35.244503],[129.028378,35.244627],[129.028421,35.244656],[129.028639,35.244779],[129.028685,35.244794],[129.028812,35.244856],[129.02893,35.244905],[129.028993,35.244953],[129.029242,35.245099],[129.029264,35.245136],[129.029296,35.245193],[129.029357,35.245249],[129.029475,35.245265],[129.029493,35.24529],[129.029494,35.24529],[129.029606,35.245322],[129.029804,35.24537],[129.029843,35.24539],[129.029862,35.245392],[129.029863,35.245407],[129.029912,35.245459],[129.029895,35.245529],[129.029942,35.245494],[129.029991,35.245497],[129.030023,35.245541],[129.030041,35.245546],[129.030174,35.245577],[129.030361,35.24572],[129.030396,35.245726],[129.030441,35.245741],[129.030539,35.245788],[129.030607,35.245804],[129.030671,35.245854],[129.030718,35.245956],[129.030764,35.246058],[129.030953,35.246208],[129.031,35.246264],[129.030941,35.246542],[129.030962,35.246642],[129.031015,35.246915],[129.031058,35.247039],[129.031036,35.247085],[129.031072,35.247212],[129.031079,35.247212],[129.03112,35.247213],[129.031165,35.247238],[129.031194,35.24726],[129.031184,35.247289],[129.031249,35.247319],[129.031288,35.247316],[129.031386,35.247293],[129.031264,35.247228],[129.031224,35.247176],[129.031265,35.247045],[129.031285,35.246962],[129.031353,35.24696],[129.031373,35.246943],[129.031431,35.246929],[129.031435,35.246978],[129.031407,35.247037],[129.031385,35.247254],[129.031405,35.247287],[129.031588,35.24734],[129.031641,35.24735],[129.031721,35.247361],[129.031788,35.247365],[129.03189,35.247397],[129.03203,35.247431],[129.032183,35.247459],[129.032318,35.247519],[129.032366,35.24749],[129.032453,35.247529],[129.032439,35.247595],[129.032354,35.247613]]]]},"properties":{"id":"FLD:26320:38:2702","layer":"FLOOD_TRACE","admin_code":"26320","sido_code":"26","flood_year":"2014","occurred_at":"2014-08-25","ended_at":"2014-08-25","begin_time":"1400","end_time":"1600","disaster_name":"2014년 집중호우","cause_detail":"집중호우로 인한 급격한 우수량 증가","flood_grade":2,"flood_depth_m":0.65,"flood_area_m2":83781.924,"source_sn":38,"data_status":"actual","official_data":true,"is_prediction":false,"source":"행정안전부 침수흔적도 · 재난안전데이터공유플랫폼 DSSP-IF-00117","collected_at":"2026-08-19T16:46:51+09:00","source_crs":"EPSG:3857","display_badges":["행안부 침수흔적도","과거 기록"]}},{"type":"Feature","id":"FLD:26320:26:2705","geometry":{"type":"MultiPolygon","coordinates":[[[[129.017988,35.24131],[129.018034,35.241291],[129.018168,35.241203],[129.018188,35.241169],[129.018203,35.241183],[129.018254,35.241213],[129.018321,35.241243],[129.018437,35.241293],[129.018452,35.241297],[129.01848,35.241304],[129.018521,35.241328],[129.018491,35.241425],[129.018481,35.241475],[129.018547,35.241585],[129.018567,35.241617],[129.018594,35.241628],[129.0186,35.241641],[129.018623,35.241634],[129.018685,35.241699],[129.018703,35.241692],[129.018791,35.241657],[129.018793,35.24166],[129.018834,35.241658],[129.018899,35.241634],[129.018915,35.241632],[129.019014,35.241574],[129.019015,35.241578],[129.019085,35.241569],[129.019145,35.241674],[129.019055,35.241726],[129.019079,35.24187],[129.019089,35.241917],[129.019093,35.241937],[129.019089,35.241937],[129.018988,35.241959],[129.018952,35.241968],[129.018921,35.241964],[129.018865,35.24198],[129.018838,35.241981],[129.018812,35.241971],[129.01868,35.24188],[129.018594,35.241807],[129.018454,35.241737],[129.018361,35.241624],[129.018342,35.241644],[129.018328,35.241659],[129.018323,35.241664],[129.018216,35.241574],[129.018036,35.24142],[129.017946,35.24134],[129.017988,35.24131]]]]},"properties":{"id":"FLD:26320:26:2705","layer":"FLOOD_TRACE","admin_code":"26320","sido_code":"26","flood_year":"2014","occurred_at":"2014-08-25","ended_at":"2014-08-25","begin_time":"1400","end_time":"1600","disaster_name":"2014년 집중호우","cause_detail":"집중호우로 인한 급격한 우수량 증가","flood_grade":2,"flood_depth_m":0.803,"flood_area_m2":74507.831,"source_sn":26,"data_status":"actual","official_data":true,"is_prediction":false,"source":"행정안전부 침수흔적도 · 재난안전데이터공유플랫폼 DSSP-IF-00117","collected_at":"2026-08-19T16:46:51+09:00","source_crs":"EPSG:3857","display_badges":["행안부 침수흔적도","과거 기록"]}},{"type":"Feature","id":"FLD:26320:31:2706","geometry":{"type":"MultiPolygon","coordinates":[[[[129.034114,35.249909],[129.034147,35.249827],[129.034161,35.249768],[129.03435,35.24973],[129.034635,35.249691],[129.034696,35.249665],[129.03478,35.249653],[129.034821,35.249663],[129.034882,35.249658],[129.034981,35.249664],[129.035151,35.249709],[129.035297,35.249758],[129.035384,35.249784],[129.035433,35.249797],[129.035667,35.249864],[129.035911,35.249977],[129.036102,35.250094],[129.036145,35.250112],[129.036149,35.250139],[129.036121,35.250147],[129.036054,35.25014],[129.036105,35.250164],[129.036166,35.250161],[129.0362,35.250225],[129.036265,35.250295],[129.036307,35.250283],[129.036337,35.250326],[129.036379,35.250305],[129.036406,35.250306],[129.036413,35.250356],[129.03644,35.250405],[129.036417,35.250435],[129.03673,35.25076],[129.036833,35.25069],[129.0369,35.250656],[129.036946,35.250654],[129.03702,35.250669],[129.037108,35.25066],[129.037197,35.250687],[129.037313,35.250664],[129.037383,35.250608],[129.037563,35.250595],[129.037649,35.250551],[129.037713,35.250475],[129.037786,35.250459],[129.037877,35.250498],[129.038042,35.250542],[129.038135,35.2505],[129.038191,35.250513],[129.038182,35.250543],[129.03827,35.250637],[129.038245,35.250734],[129.03829,35.250775],[129.038216,35.250775],[129.038173,35.250783],[129.038147,35.250847],[129.038164,35.250893],[129.038155,35.250942],[129.038241,35.251037],[129.039005,35.251304],[129.038424,35.251615],[129.038399,35.251629],[129.038401,35.251791],[129.038461,35.251833],[129.038472,35.251866],[129.038518,35.251906],[129.03836,35.252034],[129.038262,35.252042],[129.038226,35.252022],[129.038136,35.252034],[129.037978,35.252045],[129.037875,35.25202],[129.037813,35.251971],[129.037808,35.251887],[129.037712,35.251772],[129.037574,35.251702],[129.037573,35.251694],[129.037558,35.251632],[129.037453,35.251585],[129.037311,35.251425],[129.037184,35.251393],[129.037102,35.251327],[129.037103,35.251302],[129.037096,35.251245],[129.037038,35.251228],[129.036748,35.251087],[129.036325,35.250768],[129.036164,35.250589],[129.035969,35.250375],[129.035953,35.250392],[129.035877,35.25039],[129.035834,35.250453],[129.035745,35.250507],[129.035678,35.250565],[129.035642,35.250623],[129.035659,35.250666],[129.035672,35.250706],[129.035678,35.250739],[129.035667,35.250823],[129.035629,35.250832],[129.035561,35.250863],[129.035533,35.25089],[129.035417,35.250854],[129.035319,35.250786],[129.035334,35.250677],[129.035368,35.250602],[129.035424,35.250593],[129.035442,35.250495],[129.035462,35.250463],[129.035422,35.250384],[129.035442,35.250321],[129.035399,35.250246],[129.035345,35.250187],[129.035273,35.250166],[129.035233,35.250138],[129.035226,35.250103],[129.035192,35.250072],[129.035184,35.250042],[129.035065,35.250003],[129.034911,35.249977],[129.034772,35.249947],[129.034685,35.249941],[129.034591,35.249966],[129.034506,35.249971],[129.034385,35.249939],[129.03429,35.249936],[129.034199,35.24995],[129.034321,35.250119],[129.034304,35.250169],[129.034297,35.250281],[129.034249,35.250301],[129.034216,35.250262],[129.034114,35.249909]]],[[[129.039154,35.251383],[129.03927,35.251374],[129.039323,35.251359],[129.039404,35.251346],[129.03942,35.251336],[129.039551,35.251311],[129.039643,35.251328],[129.039757,35.251312],[129.03986,35.25137],[129.039847,35.251398],[129.039724,35.251429],[129.039577,35.251428],[129.039469,35.251442],[129.039261,35.251438],[129.039171,35.251417],[129.039154,35.251383]]]]},"properties":{"id":"FLD:26320:31:2706","layer":"FLOOD_TRACE","admin_code":"26320","sido_code":"26","flood_year":"2014","occurred_at":"2014-08-25","ended_at":"2014-08-25","begin_time":"1400","end_time":"1600","disaster_name":"2014년 집중호우","cause_detail":"집중호우로 인한 급격한 우수량 증가","flood_grade":1,"flood_depth_m":0.461,"flood_area_m2":30765.157,"source_sn":31,"data_status":"actual","official_data":true,"is_prediction":false,"source":"행정안전부 침수흔적도 · 재난안전데이터공유플랫폼 DSSP-IF-00117","collected_at":"2026-08-19T16:46:51+09:00","source_crs":"EPSG:3857","display_badges":["행안부 침수흔적도","과거 기록"]}},{"type":"Feature","id":"FLD:26320:43:2707","geometry":{"type":"MultiPolygon","coordinates":[[[[129.013773,35.24246],[129.013708,35.242694],[129.013689,35.242764],[129.01367,35.242832],[129.013644,35.242926],[129.013567,35.243191],[129.01353,35.243318],[129.013515,35.243371],[129.013467,35.243536],[129.013467,35.243537],[129.013455,35.243578],[129.01315,35.24353],[129.013129,35.243527],[129.013233,35.243167],[129.013252,35.243104],[129.013285,35.242989],[129.013317,35.242878],[129.013394,35.242605],[129.013451,35.242402],[129.013773,35.24246]]]]},"properties":{"id":"FLD:26320:43:2707","layer":"FLOOD_TRACE","admin_code":"26320","sido_code":"26","flood_year":"2014","occurred_at":"2014-08-25","ended_at":"2014-08-25","begin_time":"1400","end_time":"1600","disaster_name":"2014년 집중호우","cause_detail":"집중호우로 인한 급격한 우수량 증가","flood_grade":1,"flood_depth_m":0.43,"flood_area_m2":74507.831,"source_sn":43,"data_status":"actual","official_data":true,"is_prediction":false,"source":"행정안전부 침수흔적도 · 재난안전데이터공유플랫폼 DSSP-IF-00117","collected_at":"2026-08-19T16:46:51+09:00","source_crs":"EPSG:3857","display_badges":["행안부 침수흔적도","과거 기록"]}},{"type":"Feature","id":"FLD:26320:27:2708","geometry":{"type":"MultiPolygon","coordinates":[[[[129.018751,35.242499],[129.018857,35.242326],[129.019057,35.242439],[129.019022,35.242494],[129.018937,35.242468],[129.018872,35.242464],[129.018813,35.242489],[129.018751,35.242499]]]]},"properties":{"id":"FLD:26320:27:2708","layer":"FLOOD_TRACE","admin_code":"26320","sido_code":"26","flood_year":"2014","occurred_at":"2014-08-25","ended_at":"2014-08-25","begin_time":"1400","end_time":"1600","disaster_name":"2014년 집중호우","cause_detail":"집중호우로 인한 급격한 우수량증가","flood_grade":2,"flood_depth_m":0.75,"flood_area_m2":27895.06,"source_sn":27,"data_status":"actual","official_data":true,"is_prediction":false,"source":"행정안전부 침수흔적도 · 재난안전데이터공유플랫폼 DSSP-IF-00117","collected_at":"2026-08-19T16:46:51+09:00","source_crs":"EPSG:3857","display_badges":["행안부 침수흔적도","과거 기록"]}},{"type":"Feature","id":"FLD:26320:36:2709","geometry":{"type":"MultiPolygon","coordinates":[[[[129.032354,35.247613],[129.032307,35.247611],[129.032289,35.247642],[129.032329,35.247659],[129.032387,35.247721],[129.032436,35.247733],[129.03245,35.247788],[129.032482,35.247797],[129.032564,35.247871],[129.032529,35.247883],[129.032475,35.24788],[129.03242,35.247832],[129.032315,35.247818],[129.032225,35.247772],[129.032178,35.247755],[129.032056,35.247618],[129.032001,35.247592],[129.03196,35.247568],[129.031938,35.247561],[129.031864,35.247516],[129.031798,35.24752],[129.031748,35.247506],[129.031711,35.247491],[129.031676,35.247485],[129.031649,35.247474],[129.031595,35.247434],[129.031555,35.247433],[129.031514,35.24743],[129.031425,35.247386],[129.031386,35.247355],[129.03143,35.247334],[129.031404,35.24733],[129.031315,35.247343],[129.031197,35.24735],[129.031078,35.247255],[129.031089,35.247357],[129.031034,35.247428],[129.031048,35.247533],[129.031081,35.247515],[129.031137,35.247511],[129.031193,35.247542],[129.031202,35.247574],[129.031527,35.247685],[129.031635,35.247682],[129.031803,35.247703],[129.031937,35.247771],[129.031961,35.247791],[129.032,35.247853],[129.032032,35.247927],[129.032039,35.247992],[129.032024,35.248102],[129.031998,35.248234],[129.031917,35.248455],[129.031864,35.248471],[129.03184,35.24849],[129.031772,35.248514],[129.031479,35.248531],[129.031414,35.248499],[129.031385,35.248526],[129.031266,35.248416],[129.031208,35.248347],[129.031084,35.248255],[129.031034,35.248227],[129.030918,35.248242],[129.030524,35.248012],[129.030138,35.247485],[129.03016,35.247411],[129.030081,35.247282],[129.03014,35.247178],[129.030014,35.247127],[129.029818,35.247233],[129.029542,35.24709],[129.029689,35.246944],[129.029807,35.246826],[129.029795,35.246766],[129.029752,35.246713],[129.02973,35.24667],[129.029646,35.24667],[129.029636,35.246667],[129.029559,35.246645],[129.029518,35.246621],[129.029514,35.246603],[129.02954,35.246596],[129.029506,35.246544],[129.02946,35.246505],[129.029392,35.246458],[129.029356,35.246422],[129.029391,35.246399],[129.02936,35.246378],[129.029343,35.246357],[129.029223,35.246329],[129.029174,35.246317],[129.029126,35.246214],[129.029054,35.246143],[129.028978,35.246168],[129.028886,35.246188],[129.028837,35.246097],[129.028892,35.246077],[129.028874,35.246045],[129.028985,35.246064],[129.028991,35.24604],[129.029016,35.246025],[129.029078,35.246075],[129.029104,35.246002],[129.029165,35.246001],[129.029039,35.245919],[129.029043,35.245886],[129.028995,35.245851],[129.029005,35.245799],[129.029049,35.245788],[129.029105,35.245785],[129.029129,35.245787],[129.029232,35.24569],[129.029185,35.245538],[129.029139,35.245499],[129.029089,35.245492],[129.029078,35.245455],[129.029107,35.245441],[129.028863,35.24529],[129.028862,35.245289],[129.028726,35.245251],[129.028633,35.245243],[129.028553,35.245224],[129.028544,35.245207],[129.028535,35.245119],[129.028535,35.24511],[129.028435,35.245064],[129.028398,35.245015],[129.02825,35.244959],[129.028164,35.244955],[129.028101,35.244974],[129.028042,35.244988],[129.027968,35.244983],[129.027995,35.245089],[129.028089,35.245122],[129.028062,35.245144],[129.027815,35.245083],[129.02781,35.245145],[129.027786,35.245239],[129.027739,35.245303],[129.027963,35.245302],[129.028017,35.24529],[129.028068,35.245278],[129.028079,35.24529],[129.028102,35.245316],[129.028135,35.245353],[129.028102,35.245366],[129.028086,35.245372],[129.027984,35.245364],[129.027969,35.245468],[129.028048,35.24551],[129.028078,35.245584],[129.028068,35.245593],[129.028019,35.245637],[129.027942,35.245725],[129.027747,35.246064],[129.027836,35.24606],[129.027923,35.24605],[129.028009,35.246053],[129.027963,35.246164],[129.027664,35.246345],[129.027627,35.246278],[129.027654,35.246246],[129.027556,35.24619],[129.027404,35.246055],[129.027358,35.246068],[129.027294,35.246109],[129.027223,35.246142],[129.027224,35.246151],[129.027228,35.24621],[129.02717,35.246302],[129.027153,35.246374],[129.027133,35.246365],[129.027116,35.246336],[129.027106,35.246184],[129.027133,35.246167],[129.027095,35.246128],[129.027087,35.246062],[129.027045,35.246035],[129.027028,35.245962],[129.026998,35.245962],[129.026899,35.245923],[129.026967,35.245724],[129.027019,35.245664],[129.027143,35.245625],[129.027312,35.245608],[129.027378,35.245631],[129.027455,35.245698],[129.02748,35.245742],[129.027408,35.245774],[129.027438,35.245807],[129.02749,35.245834],[129.027539,35.245879],[129.027666,35.245732],[129.027558,35.245681],[129.027515,35.245635],[129.027482,35.24553],[129.027484,35.245447],[129.027529,35.245346],[129.027561,35.245354],[129.027604,35.245298],[129.027609,35.245186],[129.027575,35.245028],[129.02761,35.244925],[129.027614,35.244909],[129.027584,35.2449],[129.027547,35.244873],[129.027577,35.244813],[129.027364,35.244791],[129.02732,35.244744],[129.027267,35.244659],[129.027213,35.244594],[129.027225,35.244553],[129.027215,35.244483],[129.027178,35.244416],[129.027175,35.24435],[129.027125,35.244325],[129.026935,35.244244],[129.026717,35.244148],[129.026589,35.244001],[129.026539,35.243985],[129.026478,35.244015],[129.026422,35.243975],[129.026305,35.243956],[129.026266,35.243951],[129.026206,35.243919],[129.026044,35.243902],[129.025861,35.243885],[129.025844,35.243853],[129.025769,35.243826],[129.02571,35.243818],[129.025656,35.243832],[129.025568,35.243819],[129.025526,35.243797],[129.025523,35.243879],[129.02548,35.243963],[129.02544,35.243958],[129.025479,35.243797],[129.025476,35.243745],[129.025484,35.243728],[129.025479,35.243717],[129.025466,35.243695],[129.025425,35.243561],[129.025387,35.243617],[129.025336,35.243633],[129.02514,35.243529],[129.025026,35.243445],[129.025162,35.243414],[129.024839,35.243008],[129.024584,35.242813],[129.02442,35.242629],[129.024408,35.242609],[129.024505,35.24258],[129.024576,35.242551],[129.024687,35.242514],[129.024758,35.242526],[129.024766,35.242498],[129.024765,35.242443],[129.024794,35.242416],[129.024828,35.242411],[129.024977,35.242464],[129.025175,35.242421],[129.025935,35.243112],[129.026323,35.243388],[129.02654,35.243511],[129.026695,35.243566],[129.026725,35.243521],[129.026798,35.243509],[129.026843,35.243485],[129.026849,35.243437],[129.026925,35.243414],[129.026958,35.243415],[129.027125,35.243457],[129.027147,35.243518],[129.027165,35.24357],[129.027091,35.243634],[129.027378,35.243768],[129.027503,35.243818],[129.027546,35.243857],[129.027635,35.243904],[129.027722,35.244244],[129.027893,35.24432],[129.027958,35.244391],[129.028101,35.2445],[129.028106,35.244503],[129.028378,35.244627],[129.028421,35.244656],[129.028639,35.244779],[129.028685,35.244794],[129.028812,35.244856],[129.02893,35.244905],[129.028993,35.244953],[129.029242,35.245099],[129.029264,35.245136],[129.029296,35.245193],[129.029357,35.245249],[129.029475,35.245265],[129.029493,35.24529],[129.029494,35.24529],[129.029606,35.245322],[129.029804,35.24537],[129.029843,35.24539],[129.029862,35.245392],[129.029863,35.245407],[129.029912,35.245459],[129.029895,35.245529],[129.029942,35.245494],[129.029991,35.245497],[129.030023,35.245541],[129.030041,35.245546],[129.030174,35.245577],[129.030361,35.24572],[129.030396,35.245726],[129.030441,35.245741],[129.030539,35.245788],[129.030607,35.245804],[129.030671,35.245854],[129.030718,35.245956],[129.030764,35.246058],[129.030953,35.246208],[129.031,35.246264],[129.030941,35.246542],[129.030962,35.246642],[129.031015,35.246915],[129.031058,35.247039],[129.031036,35.247085],[129.031072,35.247212],[129.031079,35.247212],[129.03112,35.247213],[129.031165,35.247238],[129.031194,35.24726],[129.031184,35.247289],[129.031249,35.247319],[129.031288,35.247316],[129.031386,35.247293],[129.031264,35.247228],[129.031224,35.247176],[129.031265,35.247045],[129.031285,35.246962],[129.031353,35.24696],[129.031373,35.246943],[129.031431,35.246929],[129.031435,35.246978],[129.031407,35.247037],[129.031385,35.247254],[129.031405,35.247287],[129.031588,35.24734],[129.031641,35.24735],[129.031721,35.247361],[129.031788,35.247365],[129.03189,35.247397],[129.03203,35.247431],[129.032183,35.247459],[129.032318,35.247519],[129.032366,35.24749],[129.032453,35.247529],[129.032439,35.247595],[129.032354,35.247613]]]]},"properties":{"id":"FLD:26320:36:2709","layer":"FLOOD_TRACE","admin_code":"26320","sido_code":"26","flood_year":"2014","occurred_at":"2014-08-25","ended_at":"2014-08-25","begin_time":"1400","end_time":"1600","disaster_name":"2014년 집중호우","cause_detail":"집중호우로 인한 급격한 우수량 증가","flood_grade":2,"flood_depth_m":0.65,"flood_area_m2":83781.924,"source_sn":36,"data_status":"actual","official_data":true,"is_prediction":false,"source":"행정안전부 침수흔적도 · 재난안전데이터공유플랫폼 DSSP-IF-00117","collected_at":"2026-08-19T16:46:51+09:00","source_crs":"EPSG:3857","display_badges":["행안부 침수흔적도","과거 기록"]}},{"type":"Feature","id":"FLD:26320:40:2710","geometry":{"type":"MultiPolygon","coordinates":[[[[129.009915,35.225547],[129.009914,35.225535],[129.009913,35.225519],[129.009903,35.225498],[129.009895,35.225483],[129.009844,35.225372],[129.009816,35.225321],[129.009758,35.225187],[129.009731,35.225119],[129.009779,35.225101],[129.01004,35.225002],[129.01025,35.224948],[129.010293,35.22506],[129.01036,35.225043],[129.010401,35.225157],[129.010458,35.225317],[129.010258,35.225367],[129.010235,35.225369],[129.010206,35.225369],[129.010196,35.225365],[129.010274,35.2255],[129.010015,35.22553],[129.009922,35.225546],[129.009915,35.225547]]]]},"properties":{"id":"FLD:26320:40:2710","layer":"FLOOD_TRACE","admin_code":"26320","sido_code":"26","flood_year":"2014","occurred_at":"2014-08-25","ended_at":"2014-08-25","begin_time":"1400","end_time":"1600","disaster_name":"2014년 집중호우","cause_detail":"집중호우로 인한 급격한 우수량 증가","flood_grade":2,"flood_depth_m":0.78,"flood_area_m2":4470.363,"source_sn":40,"data_status":"actual","official_data":true,"is_prediction":false,"source":"행정안전부 침수흔적도 · 재난안전데이터공유플랫폼 DSSP-IF-00117","collected_at":"2026-08-19T16:46:51+09:00","source_crs":"EPSG:3857","display_badges":["행안부 침수흔적도","과거 기록"]}},{"type":"Feature","id":"FLD:26320:24:2711","geometry":{"type":"MultiPolygon","coordinates":[[[[129.009731,35.225119],[129.009716,35.225081],[129.009652,35.22492],[129.00998,35.224849],[129.01004,35.225002],[129.009779,35.225101],[129.009731,35.225119]]]]},"properties":{"id":"FLD:26320:24:2711","layer":"FLOOD_TRACE","admin_code":"26320","sido_code":"26","flood_year":"2014","occurred_at":"2014-08-25","ended_at":"2014-08-25","begin_time":"1400","end_time":"1600","disaster_name":"2014년 집중호우","cause_detail":"집중호우로 인한 급격한 우수량 증가","flood_grade":1,"flood_depth_m":0.372,"flood_area_m2":4470.363,"source_sn":24,"data_status":"actual","official_data":true,"is_prediction":false,"source":"행정안전부 침수흔적도 · 재난안전데이터공유플랫폼 DSSP-IF-00117","collected_at":"2026-08-19T16:46:51+09:00","source_crs":"EPSG:3857","display_badges":["행안부 침수흔적도","과거 기록"]}},{"type":"Feature","id":"FLD:26320:29:2712","geometry":{"type":"MultiPolygon","coordinates":[[[[129.014157,35.2378],[129.014102,35.236758],[129.013769,35.236769],[129.013754,35.236531],[129.013731,35.236451],[129.013706,35.236017],[129.013693,35.235818],[129.013686,35.235818],[129.013682,35.235758],[129.013667,35.23554],[129.013705,35.235548],[129.013764,35.235554],[129.013792,35.235556],[129.013831,35.235576],[129.013871,35.23556],[129.01388,35.235559],[129.013992,35.235543],[129.014017,35.235545],[129.014032,35.235541],[129.014108,35.235517],[129.014127,35.235532],[129.01413,35.235589],[129.014069,35.235635],[129.014121,35.23564],[129.014168,35.235614],[129.014176,35.23566],[129.014182,35.235707],[129.014191,35.235764],[129.0142,35.235817],[129.014201,35.235829],[129.014231,35.235825],[129.014228,35.235844],[129.014225,35.235859],[129.014226,35.235931],[129.014226,35.235957],[129.014203,35.236308],[129.01421,35.236468],[129.01433,35.236465],[129.014331,35.236492],[129.014211,35.236495],[129.014216,35.236647],[129.01423,35.236647],[129.014234,35.236755],[129.014233,35.236971],[129.014239,35.237123],[129.014318,35.23712],[129.014353,35.237091],[129.014359,35.237256],[129.014362,35.237351],[129.014366,35.237459],[129.01437,35.237567],[129.014373,35.237675],[129.014376,35.237761],[129.014338,35.237794],[129.014157,35.2378]]]]},"properties":{"id":"FLD:26320:29:2712","layer":"FLOOD_TRACE","admin_code":"26320","sido_code":"26","flood_year":"2014","occurred_at":"2014-08-25","ended_at":"2014-08-25","begin_time":"1400","end_time":"1600","disaster_name":"2014년 집중호우","cause_detail":"집중호우로 인한 급격한 우수량 증가","flood_grade":1,"flood_depth_m":0.367,"flood_area_m2":74507.831,"source_sn":29,"data_status":"actual","official_data":true,"is_prediction":false,"source":"행정안전부 침수흔적도 · 재난안전데이터공유플랫폼 DSSP-IF-00117","collected_at":"2026-08-19T16:46:51+09:00","source_crs":"EPSG:3857","display_badges":["행안부 침수흔적도","과거 기록"]}},{"type":"Feature","id":"FLD:26320:41:2713","geometry":{"type":"MultiPolygon","coordinates":[[[[129.017306,35.241533],[129.017411,35.241507],[129.017434,35.241501],[129.017654,35.241638],[129.017731,35.241686],[129.017803,35.241732],[129.017809,35.241736],[129.017925,35.241797],[129.018001,35.241943],[129.017853,35.24223],[129.017806,35.242393],[129.017083,35.242212],[129.017122,35.242185],[129.017066,35.242165],[129.017092,35.242151],[129.01714,35.241936],[129.017161,35.24185],[129.017193,35.241723],[129.017208,35.24163],[129.017223,35.241566],[129.017245,35.241535],[129.017306,35.241533]]]]},"properties":{"id":"FLD:26320:41:2713","layer":"FLOOD_TRACE","admin_code":"26320","sido_code":"26","flood_year":"2014","occurred_at":"2014-08-25","ended_at":"2014-08-25","begin_time":"1400","end_time":"1600","disaster_name":"2014년 집중호우","cause_detail":"집중호우로 인한 급격한 우수량증가","flood_grade":3,"flood_depth_m":1.205,"flood_area_m2":27895.06,"source_sn":41,"data_status":"actual","official_data":true,"is_prediction":false,"source":"행정안전부 침수흔적도 · 재난안전데이터공유플랫폼 DSSP-IF-00117","collected_at":"2026-08-19T16:46:51+09:00","source_crs":"EPSG:3857","display_badges":["행안부 침수흔적도","과거 기록"]}},{"type":"Feature","id":"FLD:26320:49:2771","geometry":{"type":"MultiPolygon","coordinates":[[[[129.012129,35.204743],[129.012269,35.204654],[129.012479,35.204691],[129.01275,35.204582],[129.013078,35.204192],[129.013288,35.204003],[129.013589,35.204131],[129.014152,35.204371],[129.0142,35.204389],[129.014579,35.204557],[129.013813,35.205405],[129.013766,35.205468],[129.013754,35.205463],[129.013111,35.205178],[129.013061,35.205156],[129.012129,35.204743]]]]},"properties":{"id":"FLD:26320:49:2771","layer":"FLOOD_TRACE","admin_code":"26320","sido_code":"26","flood_year":"2014","occurred_at":"2014-08-25","ended_at":"2014-08-25","begin_time":"1400","end_time":"1600","disaster_name":"2014년 집중호우","cause_detail":"집중호우로 인한 급격한 우수량 증가","flood_grade":2,"flood_depth_m":0.643,"flood_area_m2":126663.677,"source_sn":49,"data_status":"actual","official_data":true,"is_prediction":false,"source":"행정안전부 침수흔적도 · 재난안전데이터공유플랫폼 DSSP-IF-00117","collected_at":"2026-08-19T16:46:51+09:00","source_crs":"EPSG:3857","display_badges":["행안부 침수흔적도","과거 기록"]}},{"type":"Feature","id":"FLD:26320:46:2772","geometry":{"type":"MultiPolygon","coordinates":[[[[129.01273,35.20754],[129.012692,35.207669],[129.012529,35.208231],[129.012714,35.208388],[129.012729,35.208398],[129.012793,35.208423],[129.012726,35.208648],[129.012693,35.208756],[129.012688,35.208765],[129.012682,35.208772],[129.012676,35.20878],[129.012671,35.208787],[129.012663,35.208793],[129.012655,35.2088],[129.012647,35.208805],[129.012638,35.20881],[129.012629,35.208815],[129.012623,35.208818],[129.012615,35.208821],[129.012608,35.208823],[129.012601,35.208824],[129.012587,35.208826],[129.012357,35.208771],[129.012194,35.208535],[129.012203,35.208342],[129.011946,35.208186],[129.011951,35.208151],[129.012007,35.207814],[129.011943,35.207798],[129.012029,35.207557],[129.012009,35.207513],[129.011733,35.207444],[129.011664,35.207427],[129.011612,35.207414],[129.011591,35.207408],[129.011526,35.207392],[129.011374,35.207354],[129.011217,35.207314],[129.011112,35.207288],[129.011041,35.207305],[129.010909,35.20743],[129.010902,35.207437],[129.010893,35.207445],[129.010814,35.20752],[129.010778,35.207625],[129.010701,35.207839],[129.010691,35.207868],[129.01068,35.207898],[129.010665,35.207942],[129.010657,35.207964],[129.010642,35.208005],[129.010627,35.208043],[129.01057,35.208194],[129.010537,35.208281],[129.010572,35.208325],[129.010379,35.208275],[129.010422,35.208256],[129.010432,35.208252],[129.01049,35.208091],[129.010509,35.208038],[129.010523,35.207996],[129.010544,35.207939],[129.010584,35.20783],[129.010636,35.207693],[129.010669,35.207603],[129.010679,35.207578],[129.010698,35.207523],[129.010708,35.207494],[129.010699,35.207492],[129.010758,35.207435],[129.010927,35.207276],[129.010913,35.207238],[129.010838,35.207219],[129.010451,35.207122],[129.01002,35.207013],[129.009973,35.207002],[129.009897,35.207014],[129.009779,35.207095],[129.009595,35.20722],[129.009667,35.207238],[129.009624,35.207323],[129.009628,35.207389],[129.009569,35.207375],[129.009493,35.207358],[129.009416,35.207451],[129.009384,35.207442],[129.009343,35.207511],[129.009465,35.207545],[129.009411,35.207661],[129.009398,35.207658],[129.009324,35.207779],[129.009279,35.207852],[129.009241,35.207912],[129.009142,35.207938],[129.009122,35.207944],[129.009004,35.207954],[129.008982,35.207934],[129.008953,35.207926],[129.008839,35.207897],[129.008746,35.207873],[129.008817,35.207873],[129.008838,35.207798],[129.008862,35.20776],[129.009,35.207657],[129.009086,35.207583],[129.009114,35.207549],[129.009159,35.207492],[129.009161,35.207456],[129.009163,35.207389],[129.009167,35.20738],[129.009218,35.207225],[129.009261,35.207137],[129.009366,35.207164],[129.009416,35.207022],[129.009534,35.207052],[129.009591,35.206905],[129.009768,35.206951],[129.009842,35.206894],[129.009885,35.206777],[129.009914,35.206698],[129.009923,35.206672],[129.009797,35.20664],[129.009835,35.206538],[129.009961,35.20657],[129.009993,35.206577],[129.010088,35.206601],[129.010131,35.206482],[129.010223,35.20643],[129.010254,35.206398],[129.010173,35.206281],[129.010069,35.206131],[129.010053,35.206109],[129.009983,35.206007],[129.009952,35.205963],[129.009928,35.205929],[129.009842,35.205803],[129.009898,35.205696],[129.009923,35.205668],[129.010002,35.205632],[129.010091,35.205583],[129.010127,35.205564],[129.010173,35.205539],[129.010256,35.205494],[129.01033,35.205454],[129.010323,35.205446],[129.010423,35.205392],[129.010433,35.205387],[129.010537,35.20533],[129.010546,35.205326],[129.010652,35.205269],[129.010716,35.205349],[129.010848,35.20544],[129.01088,35.205534],[129.010982,35.205479],[129.010985,35.205477],[129.011075,35.205429],[129.011244,35.205339],[129.011274,35.205322],[129.011312,35.205186],[129.01135,35.205048],[129.011353,35.205036],[129.011382,35.204933],[129.011392,35.204896],[129.011395,35.204887],[129.011403,35.204857],[129.011407,35.204843],[129.011426,35.204775],[129.011439,35.204737],[129.011454,35.204695],[129.011447,35.204693],[129.011377,35.204676],[129.011199,35.204633],[129.011072,35.204602],[129.011021,35.204589],[129.010949,35.204572],[129.01087,35.204553],[129.010859,35.20455],[129.010801,35.204536],[129.010653,35.2045],[129.01049,35.20446],[129.010325,35.20442],[129.010181,35.204385],[129.0101,35.204366],[129.010129,35.20434],[129.010179,35.204295],[129.010197,35.204243],[129.010197,35.204222],[129.010258,35.204219],[129.010287,35.204229],[129.010633,35.203676],[129.010752,35.203585],[129.010997,35.203522],[129.011237,35.203437],[129.011873,35.203618],[129.012104,35.203681],[129.012246,35.203779],[129.012691,35.20391],[129.013064,35.203968],[129.013078,35.204192],[129.01275,35.204582],[129.012479,35.204691],[129.012269,35.204654],[129.012129,35.204743],[129.013061,35.205156],[129.013111,35.205178],[129.013754,35.205463],[129.013748,35.205521],[129.013717,35.205784],[129.013576,35.207003],[129.012928,35.207147],[129.01273,35.20754]],[[129.011175,35.207228],[129.011333,35.207268],[129.011444,35.207296],[129.011475,35.207304],[129.011591,35.207333],[129.011719,35.207365],[129.011736,35.20737],[129.01175,35.207373],[129.011877,35.207405],[129.012025,35.207442],[129.012079,35.207418],[129.012116,35.207315],[129.012146,35.20723],[129.012214,35.207041],[129.012183,35.206996],[129.012098,35.206974],[129.011922,35.20693],[129.011761,35.20689],[129.01166,35.206865],[129.011579,35.206844],[129.011509,35.206859],[129.011452,35.206913],[129.011345,35.207018],[129.011237,35.20712],[129.011162,35.207191],[129.011175,35.207228]],[[129.010597,35.206717],[129.010536,35.206702],[129.010433,35.206676],[129.010369,35.206739],[129.010331,35.206776],[129.010287,35.206819],[129.010239,35.206865],[129.010205,35.206898],[129.010135,35.206967],[129.01024,35.206993],[129.010338,35.207018],[129.010473,35.207052],[129.01061,35.207086],[129.010746,35.20712],[129.010976,35.207178],[129.011047,35.207162],[129.011113,35.2071],[129.011184,35.207033],[129.011251,35.206969],[129.011323,35.2069],[129.011394,35.206832],[129.011381,35.206794],[129.011258,35.206763],[129.011134,35.206732],[129.01101,35.206701],[129.010886,35.20667],[129.010762,35.206639],[129.010705,35.206625],[129.010638,35.206608],[129.010597,35.206717]]]]},"properties":{"id":"FLD:26320:46:2772","layer":"FLOOD_TRACE","admin_code":"26320","sido_code":"26","flood_year":"2014","occurred_at":"2014-08-25","ended_at":"2014-08-25","begin_time":"1400","end_time":"1600","disaster_name":"2014년 집중호우","cause_detail":"집중호우로 인한 급격한 우수량 증가","flood_grade":1,"flood_depth_m":0.415,"flood_area_m2":126663.677,"source_sn":46,"data_status":"actual","official_data":true,"is_prediction":false,"source":"행정안전부 침수흔적도 · 재난안전데이터공유플랫폼 DSSP-IF-00117","collected_at":"2026-08-19T16:46:51+09:00","source_crs":"EPSG:3857","display_badges":["행안부 침수흔적도","과거 기록"]}},{"type":"Feature","id":"FLD:26320:44:2773","geometry":{"type":"MultiPolygon","coordinates":[[[[129.014574,35.21387],[129.01463,35.213725],[129.014718,35.213747],[129.014743,35.213837],[129.014643,35.213857],[129.014574,35.21387]]]]},"properties":{"id":"FLD:26320:44:2773","layer":"FLOOD_TRACE","admin_code":"26320","sido_code":"26","flood_year":"2014","occurred_at":"2014-08-25","ended_at":"2014-08-25","begin_time":"1400","end_time":"1600","disaster_name":"2014년 집중호우","cause_detail":"집중호우로 인한 급격한 우수량증가","flood_grade":2,"flood_depth_m":0.581,"flood_area_m2":153678.417,"source_sn":44,"data_status":"actual","official_data":true,"is_prediction":false,"source":"행정안전부 침수흔적도 · 재난안전데이터공유플랫폼 DSSP-IF-00117","collected_at":"2026-08-19T16:46:51+09:00","source_crs":"EPSG:3857","display_badges":["행안부 침수흔적도","과거 기록"]}},{"type":"Feature","id":"FLD:26320:45:2774","geometry":{"type":"MultiPolygon","coordinates":[[[[129.0151,35.213943],[129.0151,35.213942],[129.015071,35.213835],[129.015302,35.213893],[129.015298,35.213918],[129.0151,35.213943]]]]},"properties":{"id":"FLD:26320:45:2774","layer":"FLOOD_TRACE","admin_code":"26320","sido_code":"26","flood_year":"2014","occurred_at":"2014-08-25","ended_at":"2014-08-25","begin_time":"1400","end_time":"1600","disaster_name":"2014년 집중호우","cause_detail":"집중호우로 인한 급격한 우수량증가","flood_grade":2,"flood_depth_m":0.654,"flood_area_m2":153678.417,"source_sn":45,"data_status":"actual","official_data":true,"is_prediction":false,"source":"행정안전부 침수흔적도 · 재난안전데이터공유플랫폼 DSSP-IF-00117","collected_at":"2026-08-19T16:46:51+09:00","source_crs":"EPSG:3857","display_badges":["행안부 침수흔적도","과거 기록"]}},{"type":"Feature","id":"FLD:26320:47:2775","geometry":{"type":"MultiPolygon","coordinates":[[[[129.015641,35.213834],[129.015614,35.213793],[129.015681,35.213613],[129.0157,35.213618],[129.016045,35.213701],[129.016255,35.213752],[129.016374,35.213781],[129.01643,35.213794],[129.016535,35.213818],[129.016641,35.213842],[129.01675,35.213866],[129.016859,35.213891],[129.016967,35.213915],[129.017075,35.21394],[129.017182,35.213964],[129.017211,35.21397],[129.017186,35.214091],[129.017175,35.214097],[129.01714,35.214116],[129.017108,35.214111],[129.016366,35.21397],[129.016188,35.213937],[129.015973,35.213897],[129.015641,35.213834]]]]},"properties":{"id":"FLD:26320:47:2775","layer":"FLOOD_TRACE","admin_code":"26320","sido_code":"26","flood_year":"2014","occurred_at":"2014-08-25","ended_at":"2014-08-25","begin_time":"1400","end_time":"1600","disaster_name":"2014년 집중호우","cause_detail":"집중호우로 인한 급격한 우수량증가","flood_grade":2,"flood_depth_m":0.72,"flood_area_m2":153678.417,"source_sn":47,"data_status":"actual","official_data":true,"is_prediction":false,"source":"행정안전부 침수흔적도 · 재난안전데이터공유플랫폼 DSSP-IF-00117","collected_at":"2026-08-19T16:46:51+09:00","source_crs":"EPSG:3857","display_badges":["행안부 침수흔적도","과거 기록"]}},{"type":"Feature","id":"FLD:26320:37:3343","geometry":{"type":"MultiPolygon","coordinates":[[[[129.013881,35.238702],[129.01386,35.238386],[129.013844,35.238148],[129.013839,35.237994],[129.013799,35.237261],[129.013769,35.236769],[129.014102,35.236758],[129.014157,35.2378],[129.014161,35.237854],[129.014169,35.238046],[129.014198,35.238486],[129.014403,35.238702],[129.013881,35.238702]]]]},"properties":{"id":"FLD:26320:37:3343","layer":"FLOOD_TRACE","admin_code":"26320","sido_code":"26","flood_year":"2014","occurred_at":"2014-08-25","ended_at":"2014-08-25","begin_time":"1400","end_time":"1600","disaster_name":"2014년 집중호우","cause_detail":"집중호우로 인한 급격한 우수량 증가","flood_grade":2,"flood_depth_m":0.757,"flood_area_m2":74507.831,"source_sn":37,"data_status":"actual","official_data":true,"is_prediction":false,"source":"행정안전부 침수흔적도 · 재난안전데이터공유플랫폼 DSSP-IF-00117","collected_at":"2026-08-19T16:46:51+09:00","source_crs":"EPSG:3857","display_badges":["행안부 침수흔적도","과거 기록"]}},{"type":"Feature","id":"FLD:26320:30:3344","geometry":{"type":"MultiPolygon","coordinates":[[[[129.018001,35.241943],[129.018059,35.242032],[129.01823,35.242172],[129.017832,35.242938],[129.017099,35.242646],[129.017079,35.242638],[129.01705,35.242626],[129.017011,35.242609],[129.017002,35.242604],[129.016992,35.242599],[129.016983,35.242594],[129.016974,35.242589],[129.016931,35.242561],[129.016914,35.24255],[129.016897,35.242538],[129.016881,35.242526],[129.016865,35.242513],[129.01685,35.2425],[129.016957,35.24228],[129.017026,35.242176],[129.017161,35.24185],[129.01714,35.241936],[129.017092,35.242151],[129.017066,35.242165],[129.017122,35.242185],[129.017083,35.242212],[129.017806,35.242393],[129.017853,35.24223],[129.018001,35.241943]]]]},"properties":{"id":"FLD:26320:30:3344","layer":"FLOOD_TRACE","admin_code":"26320","sido_code":"26","flood_year":"2014","occurred_at":"2014-08-25","ended_at":"2014-08-25","begin_time":"1400","end_time":"1600","disaster_name":"2014년 집중호우","cause_detail":"집중호우로 인한 급격한 우수량증가","flood_grade":2,"flood_depth_m":0.831,"flood_area_m2":27895.06,"source_sn":30,"data_status":"actual","official_data":true,"is_prediction":false,"source":"행정안전부 침수흔적도 · 재난안전데이터공유플랫폼 DSSP-IF-00117","collected_at":"2026-08-19T16:46:51+09:00","source_crs":"EPSG:3857","display_badges":["행안부 침수흔적도","과거 기록"]}},{"type":"Feature","id":"FLD:26320:42:3345","geometry":{"type":"MultiPolygon","coordinates":[[[[129.019102,35.242981],[129.019171,35.242984],[129.01923,35.242966],[129.019131,35.242812],[129.018914,35.242838],[129.018912,35.242883],[129.0189,35.242933],[129.018793,35.242918],[129.018756,35.242914],[129.018677,35.242906],[129.018643,35.242895],[129.018631,35.242893],[129.018618,35.242917],[129.018614,35.242925],[129.018559,35.242909],[129.018534,35.242898],[129.018459,35.242866],[129.018476,35.242832],[129.018516,35.242748],[129.018504,35.242722],[129.018416,35.242691],[129.01841,35.24269],[129.01839,35.242696],[129.018377,35.242699],[129.018368,35.242696],[129.018277,35.242664],[129.018176,35.242629],[129.018085,35.242598],[129.018023,35.242714],[129.017915,35.242916],[129.017832,35.242938],[129.01823,35.242172],[129.018059,35.242032],[129.018001,35.241943],[129.017925,35.241797],[129.017809,35.241736],[129.017803,35.241732],[129.017731,35.241686],[129.017654,35.241638],[129.017434,35.241501],[129.017411,35.241507],[129.017306,35.241533],[129.017245,35.241535],[129.017302,35.241518],[129.017332,35.241489],[129.017347,35.241474],[129.017366,35.241456],[129.017384,35.241437],[129.017417,35.241405],[129.017437,35.241385],[129.017461,35.241361],[129.017535,35.241417],[129.017578,35.24145],[129.01766,35.241513],[129.017736,35.241532],[129.017808,35.241586],[129.017858,35.241617],[129.017894,35.241645],[129.01811,35.241811],[129.018135,35.241829],[129.018188,35.241862],[129.018374,35.241974],[129.018428,35.242004],[129.018483,35.242034],[129.01865,35.242121],[129.018734,35.242164],[129.018777,35.242184],[129.018898,35.242238],[129.019002,35.242277],[129.01899,35.242292],[129.019286,35.242388],[129.019332,35.242403],[129.019487,35.242453],[129.019558,35.242477],[129.019559,35.242477],[129.01967,35.242513],[129.019783,35.24255],[129.019924,35.242596],[129.019925,35.242597],[129.019952,35.242606],[129.02,35.242622],[129.020074,35.242646],[129.020222,35.242696],[129.020304,35.242723],[129.020357,35.242741],[129.020353,35.242755],[129.020346,35.242779],[129.020343,35.242789],[129.020348,35.242793],[129.020448,35.242895],[129.020382,35.243009],[129.020358,35.243052],[129.020337,35.243084],[129.020291,35.243172],[129.020215,35.24315],[129.020217,35.243144],[129.020191,35.243136],[129.020185,35.243154],[129.020173,35.24317],[129.020148,35.243155],[129.020131,35.243146],[129.020126,35.243128],[129.020022,35.243087],[129.019992,35.243079],[129.019875,35.243048],[129.019852,35.243031],[129.019672,35.242995],[129.019636,35.243109],[129.019619,35.243179],[129.019608,35.243222],[129.019504,35.243252],[129.019415,35.243219],[129.019374,35.243151],[129.019351,35.243115],[129.0193,35.243089],[129.019296,35.243023],[129.019254,35.243011],[129.019244,35.242994],[129.019184,35.243011],[129.019118,35.243006],[129.019091,35.243012],[129.019078,35.242984],[129.019102,35.242981]],[[129.018751,35.242499],[129.018813,35.242489],[129.018872,35.242464],[129.018937,35.242468],[129.019022,35.242494],[129.019057,35.242439],[129.018857,35.242326],[129.018751,35.242499]]]]},"properties":{"id":"FLD:26320:42:3345","layer":"FLOOD_TRACE","admin_code":"26320","sido_code":"26","flood_year":"2014","occurred_at":"2014-08-25","ended_at":"2014-08-25","begin_time":"1400","end_time":"1600","disaster_name":"2014년 집중호우","cause_detail":"집중호우로 인한 급격한 우수량증가","flood_grade":1,"flood_depth_m":0.34,"flood_area_m2":27895.06,"source_sn":42,"data_status":"actual","official_data":true,"is_prediction":false,"source":"행정안전부 침수흔적도 · 재난안전데이터공유플랫폼 DSSP-IF-00117","collected_at":"2026-08-19T16:46:51+09:00","source_crs":"EPSG:3857","display_badges":["행안부 침수흔적도","과거 기록"]}},{"type":"Feature","id":"FLD:26320:32:3346","geometry":{"type":"MultiPolygon","coordinates":[[[[129.013451,35.242402],[129.013452,35.242397],[129.013502,35.242221],[129.013605,35.24186],[129.013635,35.241769],[129.013743,35.241371],[129.013816,35.241107],[129.013828,35.241064],[129.013841,35.241026],[129.013871,35.240935],[129.013897,35.240858],[129.013904,35.240827],[129.014231,35.240875],[129.014226,35.240899],[129.014214,35.240937],[129.014211,35.240946],[129.014171,35.241063],[129.014159,35.241107],[129.014121,35.241247],[129.014114,35.241272],[129.014064,35.241453],[129.014,35.241684],[129.013999,35.241687],[129.013975,35.241776],[129.013974,35.241779],[129.013966,35.241803],[129.013926,35.241921],[129.013924,35.241926],[129.013904,35.241998],[129.013823,35.242283],[129.013786,35.242414],[129.013773,35.242459],[129.013773,35.24246],[129.013451,35.242402]]]]},"properties":{"id":"FLD:26320:32:3346","layer":"FLOOD_TRACE","admin_code":"26320","sido_code":"26","flood_year":"2014","occurred_at":"2014-08-25","ended_at":"2014-08-25","begin_time":"1400","end_time":"1600","disaster_name":"2014년 집중호우","cause_detail":"집중호우로 인한 급격한 우수량 증가","flood_grade":2,"flood_depth_m":0.759,"flood_area_m2":74507.831,"source_sn":32,"data_status":"actual","official_data":true,"is_prediction":false,"source":"행정안전부 침수흔적도 · 재난안전데이터공유플랫폼 DSSP-IF-00117","collected_at":"2026-08-19T16:46:51+09:00","source_crs":"EPSG:3857","display_badges":["행안부 침수흔적도","과거 기록"]}}]}