{"type":"FeatureCollection","features":[{"type":"Feature","id":"FLD:12830:583:687","geometry":{"type":"MultiPolygon","coordinates":[[[[126.50248,35.199063],[126.502547,35.199178],[126.502573,35.199169],[126.502752,35.199084],[126.502803,35.199146],[126.502803,35.199213],[126.50279,35.199257],[126.502737,35.199295],[126.502744,35.199327],[126.502608,35.199358],[126.50262,35.19938],[126.502642,35.199398],[126.502637,35.199424],[126.502685,35.199514],[126.502733,35.199559],[126.502726,35.199602],[126.502559,35.199625],[126.502485,35.199636],[126.502448,35.199592],[126.502434,35.199601],[126.50218,35.19964],[126.502121,35.199648],[126.5021,35.199615],[126.502089,35.199566],[126.502103,35.19955],[126.502194,35.199496],[126.502231,35.199471],[126.502173,35.199377],[126.502082,35.199232],[126.502108,35.199223],[126.502124,35.199214],[126.502223,35.199174],[126.502323,35.199134],[126.502391,35.199097],[126.502409,35.199088],[126.50248,35.199063]]]]},"properties":{"id":"FLD:12830:583:687","layer":"FLOOD_TRACE","admin_code":"12830","sido_code":"46","flood_year":"2012","occurred_at":"2012-08-30","ended_at":"2012-08-30","begin_time":"1200","end_time":"1500","disaster_name":"제14호 태풍 덴빈","cause_detail":"집중호우대비 배수시설미비","flood_grade":2,"flood_depth_m":0.84,"flood_area_m2":6147.55,"source_sn":583,"data_status":"actual","official_data":true,"is_prediction":false,"source":"행정안전부 침수흔적도 · 재난안전데이터공유플랫폼 DSSP-IF-00117","collected_at":"2026-08-19T16:46:51+09:00","source_crs":"EPSG:3857","display_badges":["행안부 침수흔적도","과거 기록"]}},{"type":"Feature","id":"FLD:12830:581:688","geometry":{"type":"MultiPolygon","coordinates":[[[[126.502082,35.199232],[126.502173,35.199377],[126.502231,35.199471],[126.502194,35.199496],[126.502103,35.19955],[126.502089,35.199566],[126.5021,35.199615],[126.502121,35.199648],[126.501902,35.199682],[126.501889,35.199648],[126.501852,35.199563],[126.501679,35.199403],[126.50173,35.199364],[126.501788,35.199339],[126.501946,35.199285],[126.502082,35.199232]]]]},"properties":{"id":"FLD:12830:581:688","layer":"FLOOD_TRACE","admin_code":"12830","sido_code":"46","flood_year":"2012","occurred_at":"2012-08-30","ended_at":"2012-08-30","begin_time":"1200","end_time":"1500","disaster_name":"제14호 태풍 덴빈","cause_detail":"집중호우대비 배수시설미비","flood_grade":3,"flood_depth_m":1.313,"flood_area_m2":6147.55,"source_sn":581,"data_status":"actual","official_data":true,"is_prediction":false,"source":"행정안전부 침수흔적도 · 재난안전데이터공유플랫폼 DSSP-IF-00117","collected_at":"2026-08-19T16:46:51+09:00","source_crs":"EPSG:3857","display_badges":["행안부 침수흔적도","과거 기록"]}},{"type":"Feature","id":"FLD:12830:582:689","geometry":{"type":"MultiPolygon","coordinates":[[[[126.502737,35.199295],[126.50279,35.199257],[126.502803,35.199213],[126.502803,35.199146],[126.502752,35.199084],[126.502573,35.199169],[126.502547,35.199178],[126.50248,35.199063],[126.502506,35.199053],[126.502554,35.199029],[126.502575,35.199009],[126.502598,35.198979],[126.502625,35.198929],[126.502671,35.198895],[126.502738,35.198872],[126.502832,35.198849],[126.502926,35.199026],[126.503038,35.198994],[126.503131,35.198977],[126.503141,35.199089],[126.503125,35.199171],[126.503064,35.199241],[126.503162,35.199314],[126.503074,35.199373],[126.503023,35.199377],[126.503017,35.199375],[126.503007,35.199379],[126.502867,35.199352],[126.502744,35.199327],[126.502737,35.199295]]]]},"properties":{"id":"FLD:12830:582:689","layer":"FLOOD_TRACE","admin_code":"12830","sido_code":"46","flood_year":"2012","occurred_at":"2012-08-30","ended_at":"2012-08-30","begin_time":"1200","end_time":"1500","disaster_name":"제14호 태풍 덴빈","cause_detail":"집중호우대비 배수시설미비","flood_grade":1,"flood_depth_m":0.24,"flood_area_m2":6147.55,"source_sn":582,"data_status":"actual","official_data":true,"is_prediction":false,"source":"행정안전부 침수흔적도 · 재난안전데이터공유플랫폼 DSSP-IF-00117","collected_at":"2026-08-19T16:46:51+09:00","source_crs":"EPSG:3857","display_badges":["행안부 침수흔적도","과거 기록"]}},{"type":"Feature","id":"FLD:12830:591:690","geometry":{"type":"MultiPolygon","coordinates":[[[[126.353564,35.216946],[126.353508,35.217068],[126.353447,35.217204],[126.3534,35.217307],[126.353359,35.217294],[126.353295,35.217272],[126.353263,35.217264],[126.35311,35.217228],[126.353034,35.21721],[126.353001,35.217202],[126.35297,35.217159],[126.352969,35.217154],[126.352947,35.217031],[126.352959,35.216986],[126.353036,35.216792],[126.353046,35.216767],[126.353576,35.216919],[126.353564,35.216946]]]]},"properties":{"id":"FLD:12830:591:690","layer":"FLOOD_TRACE","admin_code":"12830","sido_code":"46","flood_year":"2012","occurred_at":"2012-08-30","ended_at":"2012-08-30","begin_time":"1200","end_time":"1500","disaster_name":"14호 태풍 덴빈","cause_detail":"저지대침수(배수시설미비)","flood_grade":3,"flood_depth_m":1.3125,"flood_area_m2":25557.5,"source_sn":591,"data_status":"actual","official_data":true,"is_prediction":false,"source":"행정안전부 침수흔적도 · 재난안전데이터공유플랫폼 DSSP-IF-00117","collected_at":"2026-08-19T16:46:51+09:00","source_crs":"EPSG:3857","display_badges":["행안부 침수흔적도","과거 기록"]}},{"type":"Feature","id":"FLD:12830:593:691","geometry":{"type":"MultiPolygon","coordinates":[[[[126.344361,35.213886],[126.344263,35.214243],[126.344254,35.214272],[126.344042,35.214233],[126.344015,35.214227],[126.343999,35.214237],[126.343923,35.214224],[126.343756,35.214194],[126.343697,35.214182],[126.343292,35.214096],[126.343264,35.214091],[126.342946,35.214035],[126.342507,35.213969],[126.342569,35.213828],[126.342694,35.21355],[126.342737,35.213457],[126.342855,35.213457],[126.342865,35.213472],[126.342904,35.213494],[126.342965,35.213572],[126.34314,35.213614],[126.343136,35.213746],[126.343054,35.213861],[126.342967,35.213913],[126.342805,35.213893],[126.342789,35.213959],[126.342949,35.213983],[126.343049,35.213953],[126.343132,35.213886],[126.343481,35.213695],[126.343755,35.213755],[126.343827,35.21377],[126.344361,35.213886]]]]},"properties":{"id":"FLD:12830:593:691","layer":"FLOOD_TRACE","admin_code":"12830","sido_code":"46","flood_year":"2012","occurred_at":"2012-08-30","ended_at":"2012-08-30","begin_time":"1200","end_time":"1500","disaster_name":"14호 태풍 덴빈","cause_detail":"저지대침수(배수시설미비)","flood_grade":2,"flood_depth_m":0.74,"flood_area_m2":25557.5,"source_sn":593,"data_status":"actual","official_data":true,"is_prediction":false,"source":"행정안전부 침수흔적도 · 재난안전데이터공유플랫폼 DSSP-IF-00117","collected_at":"2026-08-19T16:46:51+09:00","source_crs":"EPSG:3857","display_badges":["행안부 침수흔적도","과거 기록"]}},{"type":"Feature","id":"FLD:12830:586:692","geometry":{"type":"MultiPolygon","coordinates":[[[[126.301618,35.232478],[126.30226,35.232446],[126.302766,35.232536],[126.303591,35.232567],[126.304168,35.232381],[126.305185,35.231998],[126.306086,35.231627],[126.306164,35.231424],[126.306278,35.231486],[126.306332,35.231516],[126.306345,35.231547],[126.306365,35.231567],[126.306375,35.231577],[126.306415,35.231617],[126.306471,35.231707],[126.306578,35.231854],[126.306717,35.231983],[126.30674,35.232041],[126.306733,35.232088],[126.306731,35.232106],[126.306741,35.232153],[126.306743,35.23218],[126.306732,35.232247],[126.306733,35.2323],[126.306732,35.232324],[126.306782,35.23248],[126.306815,35.232561],[126.306833,35.232643],[126.306756,35.232706],[126.306679,35.232741],[126.30659,35.232803],[126.30654,35.232883],[126.306489,35.232983],[126.306398,35.233052],[126.306279,35.2331],[126.306093,35.233115],[126.306014,35.233009],[126.30599,35.233026],[126.305965,35.233057],[126.305932,35.233119],[126.305936,35.233176],[126.305886,35.233219],[126.305869,35.233288],[126.305808,35.233358],[126.305748,35.233403],[126.305712,35.233447],[126.305625,35.2335],[126.305567,35.233515],[126.305438,35.233621],[126.305239,35.233735],[126.305126,35.233758],[126.305096,35.233763],[126.305084,35.233765],[126.304925,35.233816],[126.304866,35.233842],[126.304799,35.233874],[126.304709,35.233929],[126.304533,35.23402],[126.304459,35.23405],[126.304361,35.234084],[126.304272,35.23412],[126.304212,35.234126],[126.304102,35.234144],[126.304014,35.234206],[126.303971,35.234291],[126.303922,35.234322],[126.303844,35.234428],[126.303773,35.234562],[126.303747,35.234599],[126.303744,35.234653],[126.303743,35.234669],[126.303743,35.23467],[126.303318,35.234607],[126.30311,35.234259],[126.302895,35.234273],[126.30245,35.234144],[126.302094,35.234132],[126.302088,35.234279],[126.301876,35.234252],[126.301876,35.234241],[126.301819,35.234226],[126.301789,35.234132],[126.301831,35.234061],[126.301883,35.233998],[126.301897,35.233981],[126.301943,35.233932],[126.302025,35.233863],[126.301942,35.233848],[126.301893,35.233823],[126.30181,35.233808],[126.301627,35.233811],[126.301595,35.233353],[126.301571,35.232709],[126.301479,35.232702],[126.30148,35.232395],[126.301618,35.232478]]]]},"properties":{"id":"FLD:12830:586:692","layer":"FLOOD_TRACE","admin_code":"12830","sido_code":"46","flood_year":"2012","occurred_at":"2012-08-30","ended_at":"2012-08-30","begin_time":"1200","end_time":"1500","disaster_name":"14호태풍 덴빈","cause_detail":"집중호우 대비 배수시설 미비","flood_grade":2,"flood_depth_m":0.848,"flood_area_m2":202904.48,"source_sn":586,"data_status":"actual","official_data":true,"is_prediction":false,"source":"행정안전부 침수흔적도 · 재난안전데이터공유플랫폼 DSSP-IF-00117","collected_at":"2026-08-19T16:46:51+09:00","source_crs":"EPSG:3857","display_badges":["행안부 침수흔적도","과거 기록"]}},{"type":"Feature","id":"FLD:12830:589:695","geometry":{"type":"MultiPolygon","coordinates":[[[[126.35207,35.216365],[126.352048,35.216394],[126.352173,35.216495],[126.35219,35.216501],[126.352388,35.216573],[126.352462,35.216595],[126.352472,35.216623],[126.352462,35.216703],[126.352483,35.216771],[126.352513,35.216797],[126.352557,35.21694],[126.352617,35.217128],[126.352614,35.217141],[126.352663,35.21714],[126.352827,35.217139],[126.352836,35.217119],[126.3529,35.217106],[126.352933,35.217217],[126.35292,35.217243],[126.352946,35.217249],[126.353031,35.217268],[126.353106,35.217286],[126.353156,35.217298],[126.353174,35.217303],[126.35336,35.217356],[126.353385,35.217363],[126.353371,35.217402],[126.35336,35.217429],[126.353411,35.217461],[126.353408,35.217467],[126.353607,35.217524],[126.353626,35.217529],[126.35365,35.217535],[126.35369,35.217534],[126.353834,35.217568],[126.353856,35.217578],[126.353893,35.217613],[126.353849,35.217782],[126.353842,35.217809],[126.353833,35.217853],[126.353807,35.217976],[126.353804,35.21799],[126.353777,35.218128],[126.353771,35.218154],[126.353714,35.218175],[126.353617,35.218327],[126.353557,35.218428],[126.353635,35.218472],[126.353704,35.218511],[126.353663,35.218635],[126.353696,35.218646],[126.353648,35.21878],[126.353721,35.218805],[126.353654,35.218848],[126.353503,35.218957],[126.353386,35.219057],[126.353315,35.219116],[126.353184,35.219214],[126.353101,35.219276],[126.353067,35.219299],[126.352924,35.219403],[126.352815,35.219381],[126.352861,35.21921],[126.352884,35.219093],[126.352897,35.219027],[126.352915,35.219029],[126.352969,35.219036],[126.352991,35.219039],[126.352991,35.219052],[126.352999,35.219053],[126.353146,35.219088],[126.353176,35.219017],[126.353207,35.218946],[126.353098,35.218906],[126.353115,35.21885],[126.353125,35.21882],[126.353161,35.218702],[126.353087,35.218697],[126.353092,35.218671],[126.353101,35.218622],[126.353116,35.218546],[126.353106,35.218533],[126.353068,35.218528],[126.353067,35.218502],[126.353066,35.218479],[126.353064,35.218413],[126.353052,35.218411],[126.353005,35.218407],[126.352988,35.218405],[126.352931,35.2184],[126.352881,35.218396],[126.352866,35.218171],[126.352879,35.21805],[126.352869,35.218003],[126.352865,35.217984],[126.352863,35.217976],[126.352856,35.217944],[126.352842,35.21792],[126.352835,35.217892],[126.352807,35.217785],[126.352793,35.217733],[126.352791,35.217721],[126.35277,35.217674],[126.352749,35.217605],[126.35263,35.217643],[126.35251,35.217654],[126.352452,35.217528],[126.352496,35.217503],[126.352534,35.21748],[126.352574,35.217457],[126.352603,35.21745],[126.352659,35.217434],[126.35268,35.21743],[126.352675,35.21742],[126.352642,35.217353],[126.35262,35.217308],[126.352588,35.217321],[126.352558,35.217333],[126.352524,35.217339],[126.352402,35.217341],[126.352348,35.217241],[126.352328,35.217204],[126.352379,35.21719],[126.352536,35.217146],[126.352552,35.217144],[126.35252,35.217023],[126.352516,35.216967],[126.352506,35.216958],[126.352442,35.216992],[126.352408,35.21701],[126.35231,35.21688],[126.352345,35.216849],[126.352373,35.216838],[126.352253,35.216732],[126.352134,35.216796],[126.352039,35.216651],[126.352107,35.216603],[126.352076,35.216575],[126.351956,35.216468],[126.351799,35.216331],[126.351692,35.216279],[126.35167,35.216214],[126.351688,35.216175],[126.351734,35.216071],[126.351894,35.216097],[126.351966,35.216201],[126.351939,35.216227],[126.352085,35.216348],[126.35207,35.216365]]]]},"properties":{"id":"FLD:12830:589:695","layer":"FLOOD_TRACE","admin_code":"12830","sido_code":"46","flood_year":"2012","occurred_at":"2012-08-30","ended_at":"2012-08-30","begin_time":"1200","end_time":"1500","disaster_name":"14호 태풍 덴빈","cause_detail":"저지대침수(배수시설미비)","flood_grade":1,"flood_depth_m":0.28,"flood_area_m2":25557.5,"source_sn":589,"data_status":"actual","official_data":true,"is_prediction":false,"source":"행정안전부 침수흔적도 · 재난안전데이터공유플랫폼 DSSP-IF-00117","collected_at":"2026-08-19T16:46:51+09:00","source_crs":"EPSG:3857","display_badges":["행안부 침수흔적도","과거 기록"]}},{"type":"Feature","id":"FLD:12830:584:696","geometry":{"type":"MultiPolygon","coordinates":[[[[126.302088,35.234279],[126.302094,35.234132],[126.30245,35.234144],[126.302895,35.234273],[126.30311,35.234259],[126.303318,35.234607],[126.303743,35.23467],[126.303732,35.234708],[126.303739,35.234746],[126.303731,35.2348],[126.303759,35.234939],[126.303795,35.234975],[126.303723,35.235174],[126.30365,35.235217],[126.303566,35.235242],[126.303558,35.235382],[126.303519,35.2354],[126.303425,35.235411],[126.303349,35.235383],[126.303265,35.235308],[126.303238,35.235264],[126.303262,35.235208],[126.303265,35.235155],[126.30327,35.235063],[126.303238,35.235061],[126.303193,35.235072],[126.303147,35.235075],[126.303087,35.235064],[126.302991,35.235056],[126.302961,35.235066],[126.302872,35.235063],[126.302763,35.235044],[126.302763,35.234948],[126.302769,35.234904],[126.302652,35.234891],[126.302582,35.234882],[126.302528,35.234874],[126.302213,35.234883],[126.302204,35.23469],[126.302133,35.234599],[126.30205,35.234535],[126.302018,35.234526],[126.301982,35.234538],[126.301924,35.234542],[126.30192,35.234527],[126.301904,35.234488],[126.30189,35.234403],[126.301871,35.234362],[126.301876,35.234252],[126.302088,35.234279]]]]},"properties":{"id":"FLD:12830:584:696","layer":"FLOOD_TRACE","admin_code":"12830","sido_code":"46","flood_year":"2012","occurred_at":"2012-08-30","ended_at":"2012-08-30","begin_time":"1200","end_time":"1500","disaster_name":"14호태풍 덴빈","cause_detail":"집중호우 대비 배수시설 미비","flood_grade":1,"flood_depth_m":0.41,"flood_area_m2":202904.48,"source_sn":584,"data_status":"actual","official_data":true,"is_prediction":false,"source":"행정안전부 침수흔적도 · 재난안전데이터공유플랫폼 DSSP-IF-00117","collected_at":"2026-08-19T16:46:51+09:00","source_crs":"EPSG:3857","display_badges":["행안부 침수흔적도","과거 기록"]}},{"type":"Feature","id":"FLD:12830:594:697","geometry":{"type":"MultiPolygon","coordinates":[[[[126.345326,35.214446],[126.34538,35.21426],[126.345029,35.214176],[126.345059,35.214035],[126.34531,35.214089],[126.34541,35.214126],[126.346067,35.214304],[126.346217,35.214346],[126.346277,35.214363],[126.346513,35.214428],[126.346683,35.214475],[126.346991,35.214559],[126.347314,35.214647],[126.347322,35.214628],[126.347522,35.214677],[126.347772,35.214738],[126.347994,35.214793],[126.348034,35.214802],[126.347976,35.214968],[126.347941,35.214963],[126.347726,35.214934],[126.347375,35.214881],[126.34725,35.214861],[126.346848,35.214782],[126.346637,35.21474],[126.346479,35.214711],[126.346158,35.21465],[126.346115,35.214642],[126.345951,35.214599],[126.345351,35.214482],[126.345326,35.214446]]]]},"properties":{"id":"FLD:12830:594:697","layer":"FLOOD_TRACE","admin_code":"12830","sido_code":"46","flood_year":"2012","occurred_at":"2012-08-30","ended_at":"2012-08-30","begin_time":"1200","end_time":"1500","disaster_name":"14호 태풍 덴빈","cause_detail":"저지대침수(배수시설미비)","flood_grade":2,"flood_depth_m":0.672,"flood_area_m2":25557.5,"source_sn":594,"data_status":"actual","official_data":true,"is_prediction":false,"source":"행정안전부 침수흔적도 · 재난안전데이터공유플랫폼 DSSP-IF-00117","collected_at":"2026-08-19T16:46:51+09:00","source_crs":"EPSG:3857","display_badges":["행안부 침수흔적도","과거 기록"]}},{"type":"Feature","id":"FLD:12830:587:698","geometry":{"type":"MultiPolygon","coordinates":[[[[126.354389,35.217137],[126.354066,35.21705],[126.353994,35.21703],[126.353861,35.216994],[126.353659,35.216938],[126.353615,35.216928],[126.353576,35.216919],[126.353605,35.216855],[126.354463,35.2171],[126.354448,35.217153],[126.354389,35.217137]]]]},"properties":{"id":"FLD:12830:587:698","layer":"FLOOD_TRACE","admin_code":"12830","sido_code":"46","flood_year":"2012","occurred_at":"2012-08-30","ended_at":"2012-08-30","begin_time":"1200","end_time":"1500","disaster_name":"14호 태풍 덴빈","cause_detail":"저지대침수(배수시설미비)","flood_grade":1,"flood_depth_m":0.343,"flood_area_m2":25557.5,"source_sn":587,"data_status":"actual","official_data":true,"is_prediction":false,"source":"행정안전부 침수흔적도 · 재난안전데이터공유플랫폼 DSSP-IF-00117","collected_at":"2026-08-19T16:46:51+09:00","source_crs":"EPSG:3857","display_badges":["행안부 침수흔적도","과거 기록"]}},{"type":"Feature","id":"FLD:12830:588:699","geometry":{"type":"MultiPolygon","coordinates":[[[[126.367693,35.175435],[126.367679,35.175206],[126.367668,35.175164],[126.367665,35.175106],[126.36761,35.175059],[126.367565,35.175001],[126.367549,35.174993],[126.367478,35.174918],[126.367394,35.174962],[126.367361,35.17492],[126.367205,35.174962],[126.367162,35.174821],[126.366925,35.174693],[126.3669,35.17468],[126.366938,35.174628],[126.367022,35.174578],[126.367008,35.174536],[126.367007,35.174361],[126.367014,35.174325],[126.367054,35.173936],[126.367095,35.173913],[126.367169,35.173875],[126.367184,35.173897],[126.367271,35.173816],[126.367297,35.173792],[126.367314,35.173847],[126.367318,35.173863],[126.367379,35.174033],[126.367478,35.174219],[126.367575,35.174374],[126.367813,35.174689],[126.367866,35.174759],[126.368383,35.175451],[126.368444,35.175549],[126.368466,35.175578],[126.368575,35.175743],[126.368693,35.175923],[126.368553,35.175995],[126.368548,35.176001],[126.36795,35.17574],[126.36785,35.175792],[126.367696,35.175778],[126.367659,35.175754],[126.367781,35.175717],[126.367672,35.175434],[126.367693,35.175435]]]]},"properties":{"id":"FLD:12830:588:699","layer":"FLOOD_TRACE","admin_code":"12830","sido_code":"46","flood_year":"2012","occurred_at":"2012-08-30","ended_at":"2012-08-30","begin_time":"1200","end_time":"1500","disaster_name":"제14호 태풍 덴빈","cause_detail":"집중호우 대비 배수시설미비","flood_grade":1,"flood_depth_m":0.35,"flood_area_m2":13671.12,"source_sn":588,"data_status":"actual","official_data":true,"is_prediction":false,"source":"행정안전부 침수흔적도 · 재난안전데이터공유플랫폼 DSSP-IF-00117","collected_at":"2026-08-19T16:46:51+09:00","source_crs":"EPSG:3857","display_badges":["행안부 침수흔적도","과거 기록"]}},{"type":"Feature","id":"FLD:12830:585:700","geometry":{"type":"MultiPolygon","coordinates":[[[[126.306086,35.231627],[126.305185,35.231998],[126.304168,35.232381],[126.303591,35.232567],[126.302766,35.232536],[126.30226,35.232446],[126.301618,35.232478],[126.30148,35.232395],[126.301313,35.232054],[126.301251,35.231902],[126.301234,35.231777],[126.301248,35.231408],[126.30125,35.23123],[126.301251,35.231167],[126.300976,35.231169],[126.300911,35.231169],[126.300655,35.23117],[126.300628,35.231185],[126.300593,35.230936],[126.30058,35.230848],[126.300507,35.230306],[126.300753,35.230282],[126.300972,35.230257],[126.30172,35.230166],[126.301862,35.230147],[126.302171,35.230101],[126.302394,35.230067],[126.302633,35.230027],[126.302864,35.229987],[126.303262,35.229937],[126.304136,35.229829],[126.304569,35.229771],[126.30455,35.230164],[126.304537,35.230423],[126.30461,35.23065],[126.304691,35.230746],[126.304787,35.230805],[126.305207,35.230971],[126.305514,35.231108],[126.305898,35.231279],[126.30614,35.231411],[126.306164,35.231424],[126.306086,35.231627]]]]},"properties":{"id":"FLD:12830:585:700","layer":"FLOOD_TRACE","admin_code":"12830","sido_code":"46","flood_year":"2012","occurred_at":"2012-08-30","ended_at":"2012-08-30","begin_time":"1200","end_time":"1500","disaster_name":"14호태풍 덴빈","cause_detail":"집중호우 대비 배수시설 미비","flood_grade":3,"flood_depth_m":1.068,"flood_area_m2":202904.48,"source_sn":585,"data_status":"actual","official_data":true,"is_prediction":false,"source":"행정안전부 침수흔적도 · 재난안전데이터공유플랫폼 DSSP-IF-00117","collected_at":"2026-08-19T16:46:51+09:00","source_crs":"EPSG:3857","display_badges":["행안부 침수흔적도","과거 기록"]}},{"type":"Feature","id":"FLD:12830:595:701","geometry":{"type":"MultiPolygon","coordinates":[[[[126.367361,35.17492],[126.367394,35.174962],[126.367478,35.174918],[126.367549,35.174993],[126.367565,35.175001],[126.36761,35.175059],[126.367665,35.175106],[126.367668,35.175164],[126.367679,35.175206],[126.367693,35.175435],[126.367672,35.175434],[126.367566,35.175432],[126.367532,35.175399],[126.367533,35.175385],[126.367508,35.175386],[126.367485,35.175249],[126.367429,35.175192],[126.367352,35.175115],[126.367324,35.175089],[126.36722,35.175025],[126.367205,35.174962],[126.367361,35.17492]]]]},"properties":{"id":"FLD:12830:595:701","layer":"FLOOD_TRACE","admin_code":"12830","sido_code":"46","flood_year":"2012","occurred_at":"2012-08-30","ended_at":"2012-08-30","begin_time":"1200","end_time":"1500","disaster_name":"제14호 태풍 덴빈","cause_detail":"집중호우 대비 배수시설미비","flood_grade":2,"flood_depth_m":0.85,"flood_area_m2":13671.12,"source_sn":595,"data_status":"actual","official_data":true,"is_prediction":false,"source":"행정안전부 침수흔적도 · 재난안전데이터공유플랫폼 DSSP-IF-00117","collected_at":"2026-08-19T16:46:51+09:00","source_crs":"EPSG:3857","display_badges":["행안부 침수흔적도","과거 기록"]}},{"type":"Feature","id":"FLD:12830:592:829","geometry":{"type":"MultiPolygon","coordinates":[[[[126.300849,35.230178],[126.300819,35.229243],[126.300769,35.228675],[126.300728,35.228281],[126.300634,35.22728],[126.300555,35.2261],[126.300987,35.226067],[126.303297,35.225899],[126.303603,35.225877],[126.304974,35.225777],[126.304772,35.227726],[126.304764,35.227806],[126.304723,35.228191],[126.304719,35.228235],[126.304698,35.228437],[126.304694,35.228477],[126.304657,35.228856],[126.304579,35.229674],[126.303263,35.229852],[126.302902,35.229901],[126.301754,35.230055],[126.301315,35.230114],[126.300993,35.230158],[126.300849,35.230178]]]]},"properties":{"id":"FLD:12830:592:829","layer":"FLOOD_TRACE","admin_code":"12830","sido_code":"46","flood_year":"2012","occurred_at":"2012-08-30","ended_at":"2012-08-30","begin_time":"1500","end_time":"1200","disaster_name":"제14호 태풍 덴빈","cause_detail":"집중호우 관련 배수시설미비","flood_grade":3,"flood_depth_m":1.318,"flood_area_m2":163328,"source_sn":592,"data_status":"actual","official_data":true,"is_prediction":false,"source":"행정안전부 침수흔적도 · 재난안전데이터공유플랫폼 DSSP-IF-00117","collected_at":"2026-08-19T16:46:51+09:00","source_crs":"EPSG:3857","display_badges":["행안부 침수흔적도","과거 기록"]}},{"type":"Feature","id":"FLD:12830:590:830","geometry":{"type":"MultiPolygon","coordinates":[[[[126.344263,35.214243],[126.344361,35.213886],[126.344554,35.213928],[126.344873,35.213996],[126.345043,35.214032],[126.345059,35.214035],[126.345029,35.214176],[126.34538,35.21426],[126.345326,35.214446],[126.345351,35.214482],[126.34495,35.214405],[126.344779,35.214372],[126.344254,35.214272],[126.344263,35.214243]]]]},"properties":{"id":"FLD:12830:590:830","layer":"FLOOD_TRACE","admin_code":"12830","sido_code":"46","flood_year":"2012","occurred_at":"2012-08-30","ended_at":"2012-08-30","begin_time":"1200","end_time":"1500","disaster_name":"14호 태풍 덴빈","cause_detail":"저지대침수(배수시설미비)","flood_grade":1,"flood_depth_m":0.357,"flood_area_m2":25557.5,"source_sn":590,"data_status":"actual","official_data":true,"is_prediction":false,"source":"행정안전부 침수흔적도 · 재난안전데이터공유플랫폼 DSSP-IF-00117","collected_at":"2026-08-19T16:46:51+09:00","source_crs":"EPSG:3857","display_badges":["행안부 침수흔적도","과거 기록"]}},{"type":"Feature","id":"FLD:12830:596:831","geometry":{"type":"MultiPolygon","coordinates":[[[[126.474408,35.328561],[126.474354,35.328539],[126.474408,35.328479],[126.474416,35.328477],[126.474461,35.328488],[126.474482,35.328458],[126.474495,35.328462],[126.474628,35.328517],[126.474553,35.328616],[126.474501,35.328679],[126.474377,35.328605],[126.474408,35.328561]]]]},"properties":{"id":"FLD:12830:596:831","layer":"FLOOD_TRACE","admin_code":"12830","sido_code":"46","flood_year":"2012","occurred_at":"2012-08-30","ended_at":"2012-08-30","begin_time":"1200","end_time":"1500","disaster_name":"제14호 태풍 덴빈","cause_detail":"집중호우 대비 배수시설 미비","flood_grade":1,"flood_depth_m":0.4,"flood_area_m2":1535.7,"source_sn":596,"data_status":"actual","official_data":true,"is_prediction":false,"source":"행정안전부 침수흔적도 · 재난안전데이터공유플랫폼 DSSP-IF-00117","collected_at":"2026-08-19T16:46:51+09:00","source_crs":"EPSG:3857","display_badges":["행안부 침수흔적도","과거 기록"]}},{"type":"Feature","id":"FLD:12830:597:832","geometry":{"type":"MultiPolygon","coordinates":[[[[126.474631,35.328369],[126.474584,35.32835],[126.47453,35.328344],[126.474482,35.328458],[126.474461,35.328488],[126.474416,35.328477],[126.474408,35.328479],[126.474354,35.328539],[126.474408,35.328561],[126.474377,35.328605],[126.474347,35.328632],[126.474327,35.328624],[126.474188,35.328515],[126.474058,35.328509],[126.474073,35.328476],[126.474085,35.328446],[126.474209,35.328478],[126.474317,35.328231],[126.474426,35.32826],[126.474656,35.328321],[126.474631,35.328369]]]]},"properties":{"id":"FLD:12830:597:832","layer":"FLOOD_TRACE","admin_code":"12830","sido_code":"46","flood_year":"2012","occurred_at":"2012-08-30","ended_at":"2012-08-30","begin_time":"1200","end_time":"1500","disaster_name":"제14호 태풍 덴빈","cause_detail":"집중호우 대비 배수시설 미비","flood_grade":2,"flood_depth_m":1.906,"flood_area_m2":1535.7,"source_sn":597,"data_status":"actual","official_data":true,"is_prediction":false,"source":"행정안전부 침수흔적도 · 재난안전데이터공유플랫폼 DSSP-IF-00117","collected_at":"2026-08-19T16:46:51+09:00","source_crs":"EPSG:3857","display_badges":["행안부 침수흔적도","과거 기록"]}},{"type":"Feature","id":"FLD:12830:598:833","geometry":{"type":"MultiPolygon","coordinates":[[[[126.474495,35.328462],[126.474482,35.328458],[126.47453,35.328344],[126.474584,35.32835],[126.474631,35.328369],[126.474656,35.328321],[126.474752,35.328346],[126.474639,35.328503],[126.474628,35.328517],[126.474495,35.328462]]]]},"properties":{"id":"FLD:12830:598:833","layer":"FLOOD_TRACE","admin_code":"12830","sido_code":"46","flood_year":"2012","occurred_at":"2012-08-30","ended_at":"2012-08-30","begin_time":"1200","end_time":"1500","disaster_name":"제14호 태풍 덴빈","cause_detail":"집중호우 대비 배수시설 미비","flood_grade":2,"flood_depth_m":0.917,"flood_area_m2":1535.7,"source_sn":598,"data_status":"actual","official_data":true,"is_prediction":false,"source":"행정안전부 침수흔적도 · 재난안전데이터공유플랫폼 DSSP-IF-00117","collected_at":"2026-08-19T16:46:51+09:00","source_crs":"EPSG:3857","display_badges":["행안부 침수흔적도","과거 기록"]}},{"type":"Feature","id":"FLD:12830:298:4605","geometry":{"type":"MultiPolygon","coordinates":[[[[126.514003,35.319411],[126.513976,35.319306],[126.513968,35.319277],[126.513902,35.319154],[126.513815,35.31903],[126.513837,35.31904],[126.513897,35.319057],[126.514537,35.319061],[126.51471,35.319099],[126.515281,35.31906],[126.515486,35.318971],[126.515607,35.318911],[126.515759,35.319125],[126.516213,35.319839],[126.516218,35.31986],[126.51617,35.319891],[126.514993,35.320403],[126.514622,35.320021],[126.51444,35.319716],[126.514059,35.319518],[126.514003,35.319465],[126.514003,35.319411]]]]},"properties":{"id":"FLD:12830:298:4605","layer":"FLOOD_TRACE","admin_code":"12830","sido_code":"46","flood_year":"2014","occurred_at":"2014-08-18","ended_at":"2014-08-19","begin_time":"0500","end_time":"0600","disaster_name":"2014년8월18일 집중호우","cause_detail":"하천범람 및 내수침수","flood_grade":2,"flood_depth_m":1.663,"flood_area_m2":31816.461,"source_sn":298,"data_status":"actual","official_data":true,"is_prediction":false,"source":"행정안전부 침수흔적도 · 재난안전데이터공유플랫폼 DSSP-IF-00117","collected_at":"2026-08-19T16:46:51+09:00","source_crs":"EPSG:3857","display_badges":["행안부 침수흔적도","과거 기록"]}},{"type":"Feature","id":"FLD:12830:296:4606","geometry":{"type":"MultiPolygon","coordinates":[[[[126.516213,35.319839],[126.515759,35.319125],[126.515607,35.318911],[126.516451,35.318492],[126.516785,35.318343],[126.516908,35.318586],[126.516699,35.318823],[126.516562,35.319138],[126.516275,35.319648],[126.51626,35.319833],[126.516218,35.31986],[126.516213,35.319839]]]]},"properties":{"id":"FLD:12830:296:4606","layer":"FLOOD_TRACE","admin_code":"12830","sido_code":"46","flood_year":"2014","occurred_at":"2014-08-18","ended_at":"2014-08-19","begin_time":"0500","end_time":"0600","disaster_name":"2014년8월18일 집중호우","cause_detail":"하천범람 및 내수침수","flood_grade":2,"flood_depth_m":0.642,"flood_area_m2":31816.461,"source_sn":296,"data_status":"actual","official_data":true,"is_prediction":false,"source":"행정안전부 침수흔적도 · 재난안전데이터공유플랫폼 DSSP-IF-00117","collected_at":"2026-08-19T16:46:51+09:00","source_crs":"EPSG:3857","display_badges":["행안부 침수흔적도","과거 기록"]}},{"type":"Feature","id":"FLD:12830:297:4607","geometry":{"type":"MultiPolygon","coordinates":[[[[126.516965,35.318507],[126.516909,35.318583],[126.516786,35.318338],[126.51688,35.318176],[126.517124,35.31806],[126.51743,35.317952],[126.517611,35.317819],[126.517653,35.31798],[126.51768,35.318025],[126.517774,35.318113],[126.517847,35.318155],[126.517938,35.318252],[126.517985,35.318353],[126.517725,35.318581],[126.517549,35.318665],[126.517282,35.318635],[126.516965,35.318507]]]]},"properties":{"id":"FLD:12830:297:4607","layer":"FLOOD_TRACE","admin_code":"12830","sido_code":"46","flood_year":"2014","occurred_at":"2014-08-18","ended_at":"2014-08-19","begin_time":"0500","end_time":"0600","disaster_name":"2014년8월18일 집중호우","cause_detail":"하천범람 및 내수침수","flood_grade":1,"flood_depth_m":0.375,"flood_area_m2":5993.102,"source_sn":297,"data_status":"actual","official_data":true,"is_prediction":false,"source":"행정안전부 침수흔적도 · 재난안전데이터공유플랫폼 DSSP-IF-00117","collected_at":"2026-08-19T16:46:51+09:00","source_crs":"EPSG:3857","display_badges":["행안부 침수흔적도","과거 기록"]}},{"type":"Feature","id":"FLD:12830:295:4608","geometry":{"type":"MultiPolygon","coordinates":[[[[126.509723,35.319425],[126.51183,35.319287],[126.511777,35.318645],[126.512247,35.318791],[126.512822,35.318921],[126.512844,35.319086],[126.511947,35.319349],[126.511484,35.319736],[126.510692,35.319813],[126.510331,35.319741],[126.50978,35.319498],[126.509723,35.319425]]]]},"properties":{"id":"FLD:12830:295:4608","layer":"FLOOD_TRACE","admin_code":"12830","sido_code":"46","flood_year":"2014","occurred_at":"2014-08-18","ended_at":"2014-08-19","begin_time":"0500","end_time":"0600","disaster_name":"2014년8월18일 집중호우","cause_detail":"하천범람 및 내수침수","flood_grade":3,"flood_depth_m":1.104,"flood_area_m2":11813.74,"source_sn":295,"data_status":"actual","official_data":true,"is_prediction":false,"source":"행정안전부 침수흔적도 · 재난안전데이터공유플랫폼 DSSP-IF-00117","collected_at":"2026-08-19T16:46:51+09:00","source_crs":"EPSG:3857","display_badges":["행안부 침수흔적도","과거 기록"]}},{"type":"Feature","id":"FLD:12830:294:4629","geometry":{"type":"MultiPolygon","coordinates":[[[[126.513902,35.319154],[126.513968,35.319277],[126.513976,35.319306],[126.514003,35.319411],[126.514003,35.319465],[126.513973,35.319437],[126.512846,35.319084],[126.512821,35.318916],[126.513299,35.318904],[126.513574,35.318919],[126.513815,35.31903],[126.513902,35.319154]]]]},"properties":{"id":"FLD:12830:294:4629","layer":"FLOOD_TRACE","admin_code":"12830","sido_code":"46","flood_year":"2014","occurred_at":"2014-08-18","ended_at":"2014-08-19","begin_time":"0500","end_time":"0600","disaster_name":"2014년8월18일 집중호우","cause_detail":"하천범람 및 내수침수","flood_grade":1,"flood_depth_m":0.357,"flood_area_m2":31816.461,"source_sn":294,"data_status":"actual","official_data":true,"is_prediction":false,"source":"행정안전부 침수흔적도 · 재난안전데이터공유플랫폼 DSSP-IF-00117","collected_at":"2026-08-19T16:46:51+09:00","source_crs":"EPSG:3857","display_badges":["행안부 침수흔적도","과거 기록"]}},{"type":"Feature","id":"FLD:12830:300:4630","geometry":{"type":"MultiPolygon","coordinates":[[[[126.463445,35.256517],[126.463113,35.25668],[126.462835,35.256823],[126.462744,35.25682],[126.462733,35.256819],[126.462903,35.255888],[126.462338,35.255365],[126.461519,35.255029],[126.460982,35.254445],[126.46095,35.25421],[126.460961,35.2542],[126.460998,35.254184],[126.461031,35.254169],[126.461079,35.254182],[126.461127,35.254195],[126.461183,35.25421],[126.461191,35.254214],[126.461199,35.254202],[126.461232,35.25419],[126.461254,35.254159],[126.461254,35.254157],[126.461308,35.254131],[126.461413,35.254134],[126.461453,35.254134],[126.46151,35.254107],[126.461513,35.254107],[126.461596,35.254103],[126.461589,35.254073],[126.461578,35.254027],[126.461567,35.253996],[126.461561,35.253978],[126.46154,35.253933],[126.46153,35.253913],[126.461533,35.253905],[126.461549,35.253904],[126.461609,35.253898],[126.461706,35.253868],[126.461721,35.253846],[126.461731,35.253834],[126.461748,35.253821],[126.462307,35.254345],[126.46312,35.255456],[126.463129,35.255556],[126.463742,35.256369],[126.463445,35.256517]]]]},"properties":{"id":"FLD:12830:300:4630","layer":"FLOOD_TRACE","admin_code":"12830","sido_code":"46","flood_year":"2014","occurred_at":"2014-08-18","ended_at":"2014-08-19","begin_time":"0500","end_time":"0600","disaster_name":"2014년8월18일 집중호우","cause_detail":"하천범람 및 내수침수","flood_grade":2,"flood_depth_m":0.997,"flood_area_m2":59715.384,"source_sn":300,"data_status":"actual","official_data":true,"is_prediction":false,"source":"행정안전부 침수흔적도 · 재난안전데이터공유플랫폼 DSSP-IF-00117","collected_at":"2026-08-19T16:46:51+09:00","source_crs":"EPSG:3857","display_badges":["행안부 침수흔적도","과거 기록"]}},{"type":"Feature","id":"FLD:12830:299:4631","geometry":{"type":"MultiPolygon","coordinates":[[[[126.462744,35.25682],[126.462835,35.256823],[126.463113,35.25668],[126.463445,35.256517],[126.463742,35.256369],[126.464941,35.25796],[126.463438,35.258714],[126.462828,35.25794],[126.462697,35.257508],[126.462703,35.256985],[126.462733,35.256819],[126.462744,35.25682]]]]},"properties":{"id":"FLD:12830:299:4631","layer":"FLOOD_TRACE","admin_code":"12830","sido_code":"46","flood_year":"2014","occurred_at":"2014-08-18","ended_at":"2014-08-19","begin_time":"0500","end_time":"0600","disaster_name":"2014년8월18일 집중호우","cause_detail":"하천범람 및 내수침수","flood_grade":3,"flood_depth_m":1.029,"flood_area_m2":59715.384,"source_sn":299,"data_status":"actual","official_data":true,"is_prediction":false,"source":"행정안전부 침수흔적도 · 재난안전데이터공유플랫폼 DSSP-IF-00117","collected_at":"2026-08-19T16:46:51+09:00","source_crs":"EPSG:3857","display_badges":["행안부 침수흔적도","과거 기록"]}},{"type":"Feature","id":"FLD:12830:301:4632","geometry":{"type":"MultiPolygon","coordinates":[[[[126.461731,35.253834],[126.461721,35.253846],[126.461706,35.253868],[126.461609,35.253898],[126.461549,35.253904],[126.461533,35.253905],[126.46153,35.253913],[126.46154,35.253933],[126.461561,35.253978],[126.461567,35.253996],[126.461578,35.254027],[126.461589,35.254073],[126.461596,35.254103],[126.461513,35.254107],[126.46151,35.254107],[126.461453,35.254134],[126.461413,35.254134],[126.461308,35.254131],[126.461254,35.254157],[126.461254,35.254159],[126.461232,35.25419],[126.461199,35.254202],[126.461191,35.254214],[126.461183,35.25421],[126.461127,35.254195],[126.461079,35.254182],[126.461031,35.254169],[126.460998,35.254184],[126.460961,35.2542],[126.46095,35.25421],[126.46105,35.253938],[126.460992,35.253758],[126.461435,35.253489],[126.461748,35.253821],[126.461731,35.253834]]]]},"properties":{"id":"FLD:12830:301:4632","layer":"FLOOD_TRACE","admin_code":"12830","sido_code":"46","flood_year":"2014","occurred_at":"2014-08-18","ended_at":"2014-08-19","begin_time":"0500","end_time":"0600","disaster_name":"2014년8월18일 집중호우","cause_detail":"하천범람 및 내수침수","flood_grade":2,"flood_depth_m":0.508,"flood_area_m2":59715.384,"source_sn":301,"data_status":"actual","official_data":true,"is_prediction":false,"source":"행정안전부 침수흔적도 · 재난안전데이터공유플랫폼 DSSP-IF-00117","collected_at":"2026-08-19T16:46:51+09:00","source_crs":"EPSG:3857","display_badges":["행안부 침수흔적도","과거 기록"]}},{"type":"Feature","id":"FLD:12830:314:4633","geometry":{"type":"MultiPolygon","coordinates":[[[[126.366814,35.172941],[126.36693,35.173277],[126.366991,35.173534],[126.367043,35.173797],[126.367042,35.173798],[126.367027,35.173789],[126.366007,35.173782],[126.3655,35.173794],[126.364785,35.173913],[126.364149,35.174235],[126.363655,35.174315],[126.363154,35.174547],[126.362566,35.174589],[126.362288,35.174693],[126.361658,35.174525],[126.361076,35.17474],[126.360804,35.174783],[126.360889,35.174329],[126.360933,35.174329],[126.36353,35.173712],[126.366813,35.17294],[126.366814,35.172941]]]]},"properties":{"id":"FLD:12830:314:4633","layer":"FLOOD_TRACE","admin_code":"12830","sido_code":"46","flood_year":"2014","occurred_at":"2014-08-18","ended_at":"2014-08-19","begin_time":"0500","end_time":"0600","disaster_name":"2014년8월18일 집중호우","cause_detail":"하천범람 및 내수침수","flood_grade":2,"flood_depth_m":1.629,"flood_area_m2":85299.954,"source_sn":314,"data_status":"actual","official_data":true,"is_prediction":false,"source":"행정안전부 침수흔적도 · 재난안전데이터공유플랫폼 DSSP-IF-00117","collected_at":"2026-08-19T16:46:51+09:00","source_crs":"EPSG:3857","display_badges":["행안부 침수흔적도","과거 기록"]}},{"type":"Feature","id":"FLD:12830:304:4634","geometry":{"type":"MultiPolygon","coordinates":[[[[126.400521,35.220587],[126.400565,35.220516],[126.400674,35.220186],[126.400659,35.219973],[126.400673,35.219868],[126.400884,35.220072],[126.401463,35.220184],[126.402018,35.220379],[126.402151,35.220482],[126.402173,35.220518],[126.402087,35.22061],[126.40197,35.220769],[126.401684,35.220972],[126.40056,35.220602],[126.400521,35.220587]]]]},"properties":{"id":"FLD:12830:304:4634","layer":"FLOOD_TRACE","admin_code":"12830","sido_code":"46","flood_year":"2014","occurred_at":"2014-08-18","ended_at":"2014-08-19","begin_time":"0500","end_time":"0600","disaster_name":"2014년8월18일 집중호우","cause_detail":"내수침수 및 하천범람","flood_grade":1,"flood_depth_m":0.224,"flood_area_m2":9435.664,"source_sn":304,"data_status":"actual","official_data":true,"is_prediction":false,"source":"행정안전부 침수흔적도 · 재난안전데이터공유플랫폼 DSSP-IF-00117","collected_at":"2026-08-19T16:46:51+09:00","source_crs":"EPSG:3857","display_badges":["행안부 침수흔적도","과거 기록"]}},{"type":"Feature","id":"FLD:12830:306:4635","geometry":{"type":"MultiPolygon","coordinates":[[[[126.397511,35.219258],[126.397576,35.219273],[126.39858,35.219592],[126.398652,35.219612],[126.39968,35.21994],[126.399735,35.21997],[126.400416,35.220185],[126.400449,35.220203],[126.400435,35.220266],[126.40028,35.220517],[126.399579,35.220299],[126.397353,35.219595],[126.397509,35.219258],[126.397511,35.219258]]]]},"properties":{"id":"FLD:12830:306:4635","layer":"FLOOD_TRACE","admin_code":"12830","sido_code":"46","flood_year":"2014","occurred_at":"2014-08-18","ended_at":"2014-08-19","begin_time":"0500","end_time":"0600","disaster_name":"2014년8월18일 집중호우","cause_detail":"하천범람 및 내수침수","flood_grade":2,"flood_depth_m":0.702,"flood_area_m2":39110.239,"source_sn":306,"data_status":"actual","official_data":true,"is_prediction":false,"source":"행정안전부 침수흔적도 · 재난안전데이터공유플랫폼 DSSP-IF-00117","collected_at":"2026-08-19T16:46:51+09:00","source_crs":"EPSG:3857","display_badges":["행안부 침수흔적도","과거 기록"]}},{"type":"Feature","id":"FLD:12830:315:4636","geometry":{"type":"MultiPolygon","coordinates":[[[[126.40013,35.21899],[126.400107,35.219031],[126.400019,35.219157],[126.400009,35.219171],[126.399687,35.218833],[126.399408,35.218635],[126.399025,35.218523],[126.398221,35.218326],[126.397687,35.218192],[126.397623,35.218177],[126.397658,35.217966],[126.398017,35.21806],[126.398294,35.218143],[126.399016,35.218311],[126.399447,35.218439],[126.39954,35.218459],[126.399718,35.218576],[126.400269,35.218767],[126.40013,35.21899]]]]},"properties":{"id":"FLD:12830:315:4636","layer":"FLOOD_TRACE","admin_code":"12830","sido_code":"46","flood_year":"2014","occurred_at":"2014-08-18","ended_at":"2014-08-19","begin_time":"0500","end_time":"0600","disaster_name":"2014년8월18일 집중호우","cause_detail":"하천범람 및 내수침수","flood_grade":2,"flood_depth_m":0.992,"flood_area_m2":15626.138,"source_sn":315,"data_status":"actual","official_data":true,"is_prediction":false,"source":"행정안전부 침수흔적도 · 재난안전데이터공유플랫폼 DSSP-IF-00117","collected_at":"2026-08-19T16:46:51+09:00","source_crs":"EPSG:3857","display_badges":["행안부 침수흔적도","과거 기록"]}},{"type":"Feature","id":"FLD:12830:312:4637","geometry":{"type":"MultiPolygon","coordinates":[[[[126.343689,35.214208],[126.344772,35.214399],[126.345917,35.214608],[126.346115,35.214642],[126.346158,35.21465],[126.34725,35.214861],[126.347726,35.214934],[126.348293,35.215033],[126.349075,35.215169],[126.349761,35.215524],[126.350031,35.215649],[126.350068,35.215691],[126.347925,35.215379],[126.345729,35.21503],[126.345089,35.214557],[126.344705,35.214468],[126.344664,35.214585],[126.344381,35.214491],[126.344201,35.214468],[126.343977,35.214372],[126.343687,35.214308],[126.343518,35.214533],[126.342595,35.214363],[126.342722,35.214042],[126.343689,35.214208]]]]},"properties":{"id":"FLD:12830:312:4637","layer":"FLOOD_TRACE","admin_code":"12830","sido_code":"46","flood_year":"2014","occurred_at":"2014-08-18","ended_at":"2014-08-19","begin_time":"0500","end_time":"0600","disaster_name":"2014년8월18일 집중호우","cause_detail":"하천범람 및 내수침수","flood_grade":1,"flood_depth_m":0.092,"flood_area_m2":256982.355,"source_sn":312,"data_status":"actual","official_data":true,"is_prediction":false,"source":"행정안전부 침수흔적도 · 재난안전데이터공유플랫폼 DSSP-IF-00117","collected_at":"2026-08-19T16:46:51+09:00","source_crs":"EPSG:3857","display_badges":["행안부 침수흔적도","과거 기록"]}},{"type":"Feature","id":"FLD:12830:316:4638","geometry":{"type":"MultiPolygon","coordinates":[[[[126.345043,35.214032],[126.345007,35.214174],[126.345374,35.214259],[126.345311,35.214475],[126.345306,35.214497],[126.344772,35.214399],[126.34424,35.214305],[126.344243,35.214303],[126.344263,35.214243],[126.344361,35.213886],[126.344362,35.213885],[126.345044,35.214032],[126.345043,35.214032]]]]},"properties":{"id":"FLD:12830:316:4638","layer":"FLOOD_TRACE","admin_code":"12830","sido_code":"46","flood_year":"2014","occurred_at":"2014-08-18","ended_at":"2014-08-19","begin_time":"0500","end_time":"0600","disaster_name":"2014년8월18일 집중호우","cause_detail":"하천범람 및 내수침수","flood_grade":1,"flood_depth_m":0.384,"flood_area_m2":256982.355,"source_sn":316,"data_status":"actual","official_data":true,"is_prediction":false,"source":"행정안전부 침수흔적도 · 재난안전데이터공유플랫폼 DSSP-IF-00117","collected_at":"2026-08-19T16:46:51+09:00","source_crs":"EPSG:3857","display_badges":["행안부 침수흔적도","과거 기록"]}},{"type":"Feature","id":"FLD:12830:305:4639","geometry":{"type":"MultiPolygon","coordinates":[[[[126.367043,35.173797],[126.366991,35.173534],[126.36693,35.173277],[126.366814,35.172941],[126.366813,35.17294],[126.367304,35.172825],[126.36757,35.173351],[126.367622,35.173391],[126.367706,35.17341],[126.36756,35.173548],[126.36783,35.173748],[126.368372,35.17415],[126.368972,35.17509],[126.368641,35.175381],[126.368574,35.175445],[126.36839,35.175614],[126.368384,35.175604],[126.36781,35.174812],[126.367169,35.173875],[126.367042,35.173798],[126.367043,35.173797]]]]},"properties":{"id":"FLD:12830:305:4639","layer":"FLOOD_TRACE","admin_code":"12830","sido_code":"46","flood_year":"2014","occurred_at":"2014-08-18","ended_at":"2014-08-19","begin_time":"0500","end_time":"0600","disaster_name":"2014년8월18일 집중호우","cause_detail":"하천범람 및 내수침수","flood_grade":5,"flood_depth_m":2.108,"flood_area_m2":85299.954,"source_sn":305,"data_status":"actual","official_data":true,"is_prediction":false,"source":"행정안전부 침수흔적도 · 재난안전데이터공유플랫폼 DSSP-IF-00117","collected_at":"2026-08-19T16:46:51+09:00","source_crs":"EPSG:3857","display_badges":["행안부 침수흔적도","과거 기록"]}},{"type":"Feature","id":"FLD:12830:302:4674","geometry":{"type":"MultiPolygon","coordinates":[[[[126.345311,35.214475],[126.345374,35.214259],[126.345007,35.214174],[126.345043,35.214032],[126.345044,35.214032],[126.34531,35.214089],[126.34541,35.214126],[126.346067,35.214304],[126.346513,35.214428],[126.347314,35.214647],[126.347322,35.214628],[126.348034,35.214802],[126.348052,35.214746],[126.348677,35.214855],[126.348692,35.214907],[126.349179,35.214952],[126.349165,35.215015],[126.349075,35.215169],[126.348293,35.215033],[126.347726,35.214934],[126.34725,35.214861],[126.346158,35.21465],[126.346115,35.214642],[126.345917,35.214608],[126.345306,35.214497],[126.345311,35.214475]]]]},"properties":{"id":"FLD:12830:302:4674","layer":"FLOOD_TRACE","admin_code":"12830","sido_code":"46","flood_year":"2014","occurred_at":"2014-08-18","ended_at":"2014-08-19","begin_time":"0500","end_time":"0600","disaster_name":"2014년8월18일 집중호우","cause_detail":"하천범람 및 내수침수","flood_grade":2,"flood_depth_m":0.826,"flood_area_m2":256982.355,"source_sn":302,"data_status":"actual","official_data":true,"is_prediction":false,"source":"행정안전부 침수흔적도 · 재난안전데이터공유플랫폼 DSSP-IF-00117","collected_at":"2026-08-19T16:46:51+09:00","source_crs":"EPSG:3857","display_badges":["행안부 침수흔적도","과거 기록"]}},{"type":"Feature","id":"FLD:12830:317:4675","geometry":{"type":"MultiPolygon","coordinates":[[[[126.368574,35.175445],[126.368641,35.175381],[126.368972,35.17509],[126.370687,35.177778],[126.369962,35.178415],[126.369496,35.177491],[126.36937,35.177375],[126.36894,35.176544],[126.36869,35.176019],[126.368624,35.175896],[126.368402,35.175637],[126.36839,35.175614],[126.368574,35.175445]]]]},"properties":{"id":"FLD:12830:317:4675","layer":"FLOOD_TRACE","admin_code":"12830","sido_code":"46","flood_year":"2014","occurred_at":"2014-08-18","ended_at":"2014-08-19","begin_time":"0500","end_time":"0600","disaster_name":"2014년8월18일 집중호우","cause_detail":"하천범람 및 내수침수","flood_grade":2,"flood_depth_m":1.532,"flood_area_m2":85299.954,"source_sn":317,"data_status":"actual","official_data":true,"is_prediction":false,"source":"행정안전부 침수흔적도 · 재난안전데이터공유플랫폼 DSSP-IF-00117","collected_at":"2026-08-19T16:46:51+09:00","source_crs":"EPSG:3857","display_badges":["행안부 침수흔적도","과거 기록"]}},{"type":"Feature","id":"FLD:12830:308:4676","geometry":{"type":"MultiPolygon","coordinates":[[[[126.353862,35.217037],[126.353649,35.21749],[126.353607,35.217524],[126.353408,35.217467],[126.353411,35.217461],[126.35336,35.217429],[126.353385,35.217363],[126.35336,35.217356],[126.353156,35.217298],[126.35292,35.217243],[126.352933,35.217217],[126.352894,35.217086],[126.352898,35.217038],[126.352997,35.216753],[126.353036,35.216693],[126.353351,35.216782],[126.353902,35.21694],[126.353862,35.217037]]]]},"properties":{"id":"FLD:12830:308:4676","layer":"FLOOD_TRACE","admin_code":"12830","sido_code":"46","flood_year":"2014","occurred_at":"2014-08-18","ended_at":"2014-08-19","begin_time":"0500","end_time":"0600","disaster_name":"2014년8월18일 집중호우","cause_detail":"하천범람 및 내수침수","flood_grade":3,"flood_depth_m":1.376,"flood_area_m2":256982.355,"source_sn":308,"data_status":"actual","official_data":true,"is_prediction":false,"source":"행정안전부 침수흔적도 · 재난안전데이터공유플랫폼 DSSP-IF-00117","collected_at":"2026-08-19T16:46:51+09:00","source_crs":"EPSG:3857","display_badges":["행안부 침수흔적도","과거 기록"]}},{"type":"Feature","id":"FLD:12830:310:4677","geometry":{"type":"MultiPolygon","coordinates":[[[[126.344361,35.213886],[126.344263,35.214243],[126.344243,35.214303],[126.34424,35.214305],[126.343689,35.214208],[126.342722,35.214042],[126.342927,35.213522],[126.342965,35.213572],[126.343481,35.213695],[126.343827,35.21377],[126.344362,35.213885],[126.344361,35.213886]]]]},"properties":{"id":"FLD:12830:310:4677","layer":"FLOOD_TRACE","admin_code":"12830","sido_code":"46","flood_year":"2014","occurred_at":"2014-08-18","ended_at":"2014-08-19","begin_time":"0500","end_time":"0600","disaster_name":"2014년8월18일 집중호우","cause_detail":"하천범람 및 내수침수","flood_grade":2,"flood_depth_m":0.966,"flood_area_m2":256982.355,"source_sn":310,"data_status":"actual","official_data":true,"is_prediction":false,"source":"행정안전부 침수흔적도 · 재난안전데이터공유플랫폼 DSSP-IF-00117","collected_at":"2026-08-19T16:46:51+09:00","source_crs":"EPSG:3857","display_badges":["행안부 침수흔적도","과거 기록"]}},{"type":"Feature","id":"FLD:12830:307:4678","geometry":{"type":"MultiPolygon","coordinates":[[[[126.400019,35.219157],[126.400107,35.219031],[126.40013,35.21899],[126.400269,35.218767],[126.402018,35.220379],[126.401463,35.220184],[126.400884,35.220072],[126.400673,35.219868],[126.400009,35.219171],[126.400019,35.219157]]]]},"properties":{"id":"FLD:12830:307:4678","layer":"FLOOD_TRACE","admin_code":"12830","sido_code":"46","flood_year":"2014","occurred_at":"2014-08-18","ended_at":"2014-08-19","begin_time":"0500","end_time":"0600","disaster_name":"2014년8월18일 집중호우","cause_detail":"하천범람 및 내수침수","flood_grade":1,"flood_depth_m":0.076,"flood_area_m2":15626.138,"source_sn":307,"data_status":"actual","official_data":true,"is_prediction":false,"source":"행정안전부 침수흔적도 · 재난안전데이터공유플랫폼 DSSP-IF-00117","collected_at":"2026-08-19T16:46:51+09:00","source_crs":"EPSG:3857","display_badges":["행안부 침수흔적도","과거 기록"]}},{"type":"Feature","id":"FLD:12830:311:4679","geometry":{"type":"MultiPolygon","coordinates":[[[[126.349165,35.215015],[126.34948,35.215102],[126.349711,35.215182],[126.349906,35.215236],[126.350191,35.215344],[126.350437,35.215496],[126.350428,35.215509],[126.350656,35.215584],[126.350744,35.215613],[126.350854,35.215649],[126.350949,35.215688],[126.351283,35.215821],[126.351348,35.215911],[126.351529,35.21603],[126.351599,35.216018],[126.351657,35.216049],[126.351734,35.216071],[126.351894,35.216097],[126.351966,35.216201],[126.351939,35.216227],[126.352085,35.216348],[126.35207,35.216365],[126.352222,35.216419],[126.352214,35.216458],[126.352431,35.216541],[126.352462,35.216703],[126.352557,35.21694],[126.352617,35.217128],[126.352614,35.217141],[126.352663,35.21714],[126.352762,35.217394],[126.352933,35.217942],[126.352842,35.21792],[126.352134,35.216796],[126.350068,35.215691],[126.350031,35.215649],[126.349761,35.215524],[126.349075,35.215169],[126.349165,35.215015]]]]},"properties":{"id":"FLD:12830:311:4679","layer":"FLOOD_TRACE","admin_code":"12830","sido_code":"46","flood_year":"2014","occurred_at":"2014-08-18","ended_at":"2014-08-19","begin_time":"0500","end_time":"0600","disaster_name":"2014년8월18일 집중호우","cause_detail":"하천범람 및 내수침수","flood_grade":1,"flood_depth_m":0.366,"flood_area_m2":256982.355,"source_sn":311,"data_status":"actual","official_data":true,"is_prediction":false,"source":"행정안전부 침수흔적도 · 재난안전데이터공유플랫폼 DSSP-IF-00117","collected_at":"2026-08-19T16:46:51+09:00","source_crs":"EPSG:3857","display_badges":["행안부 침수흔적도","과거 기록"]}},{"type":"Feature","id":"FLD:12830:303:4680","geometry":{"type":"MultiPolygon","coordinates":[[[[126.352417,35.216265],[126.353018,35.214847],[126.355095,35.215435],[126.35441,35.217085],[126.353351,35.216782],[126.352795,35.216625],[126.352433,35.216542],[126.352311,35.216495],[126.352417,35.216265]]]]},"properties":{"id":"FLD:12830:303:4680","layer":"FLOOD_TRACE","admin_code":"12830","sido_code":"46","flood_year":"2014","occurred_at":"2014-08-18","ended_at":"2014-08-19","begin_time":"0500","end_time":"0600","disaster_name":"2014년8월18일 집중호우","cause_detail":"하천범람 및 내수침수","flood_grade":3,"flood_depth_m":1.265,"flood_area_m2":256982.355,"source_sn":303,"data_status":"actual","official_data":true,"is_prediction":false,"source":"행정안전부 침수흔적도 · 재난안전데이터공유플랫폼 DSSP-IF-00117","collected_at":"2026-08-19T16:46:51+09:00","source_crs":"EPSG:3857","display_badges":["행안부 침수흔적도","과거 기록"]}},{"type":"Feature","id":"FLD:12830:313:4681","geometry":{"type":"MultiPolygon","coordinates":[[[[126.400416,35.220185],[126.399735,35.21997],[126.39968,35.21994],[126.398652,35.219612],[126.39858,35.219592],[126.397576,35.219273],[126.397511,35.219258],[126.397509,35.219258],[126.397945,35.218322],[126.399083,35.218606],[126.399351,35.218686],[126.399536,35.218802],[126.400531,35.219835],[126.400449,35.220203],[126.400416,35.220185]]]]},"properties":{"id":"FLD:12830:313:4681","layer":"FLOOD_TRACE","admin_code":"12830","sido_code":"46","flood_year":"2014","occurred_at":"2014-08-18","ended_at":"2014-08-19","begin_time":"0500","end_time":"0600","disaster_name":"2014년8월18일 집중호우","cause_detail":"하천범람 및 내수침수","flood_grade":1,"flood_depth_m":0.35,"flood_area_m2":39110.239,"source_sn":313,"data_status":"actual","official_data":true,"is_prediction":false,"source":"행정안전부 침수흔적도 · 재난안전데이터공유플랫폼 DSSP-IF-00117","collected_at":"2026-08-19T16:46:51+09:00","source_crs":"EPSG:3857","display_badges":["행안부 침수흔적도","과거 기록"]}},{"type":"Feature","id":"FLD:12830:324:4701","geometry":{"type":"MultiPolygon","coordinates":[[[[126.460642,35.331325],[126.461175,35.331382],[126.461252,35.331391],[126.461052,35.33263],[126.461015,35.332608],[126.460816,35.332278],[126.460783,35.332186],[126.460796,35.331832],[126.460655,35.331428],[126.460614,35.331323],[126.460642,35.331325]]]]},"properties":{"id":"FLD:12830:324:4701","layer":"FLOOD_TRACE","admin_code":"12830","sido_code":"46","flood_year":"2014","occurred_at":"2014-08-18","ended_at":"2014-08-19","begin_time":"0500","end_time":"0600","disaster_name":"2014년8월18일집중호우","cause_detail":"하천범람 및 내수침수","flood_grade":3,"flood_depth_m":1.324,"flood_area_m2":57539.261,"source_sn":324,"data_status":"actual","official_data":true,"is_prediction":false,"source":"행정안전부 침수흔적도 · 재난안전데이터공유플랫폼 DSSP-IF-00117","collected_at":"2026-08-19T16:46:51+09:00","source_crs":"EPSG:3857","display_badges":["행안부 침수흔적도","과거 기록"]}},{"type":"Feature","id":"FLD:12830:320:4702","geometry":{"type":"MultiPolygon","coordinates":[[[[126.460699,35.332394],[126.460536,35.332205],[126.460453,35.332004],[126.460497,35.331824],[126.460447,35.331589],[126.46048,35.331519],[126.460655,35.331428],[126.460796,35.331832],[126.460783,35.332186],[126.460816,35.332278],[126.461015,35.332608],[126.460699,35.332394]]]]},"properties":{"id":"FLD:12830:320:4702","layer":"FLOOD_TRACE","admin_code":"12830","sido_code":"46","flood_year":"2014","occurred_at":"2014-08-18","ended_at":"2014-08-19","begin_time":"0500","end_time":"0600","disaster_name":"2014년8월18일집중호우","cause_detail":"하천범람 및 내수침수","flood_grade":2,"flood_depth_m":0.506,"flood_area_m2":2703.88,"source_sn":320,"data_status":"actual","official_data":true,"is_prediction":false,"source":"행정안전부 침수흔적도 · 재난안전데이터공유플랫폼 DSSP-IF-00117","collected_at":"2026-08-19T16:46:51+09:00","source_crs":"EPSG:3857","display_badges":["행안부 침수흔적도","과거 기록"]}},{"type":"Feature","id":"FLD:12830:321:4703","geometry":{"type":"MultiPolygon","coordinates":[[[[126.488616,35.330772],[126.488581,35.330721],[126.488566,35.330692],[126.488517,35.330549],[126.488363,35.330385],[126.488263,35.330368],[126.488156,35.330574],[126.487885,35.330831],[126.487837,35.330871],[126.48776,35.330946],[126.487649,35.330982],[126.487318,35.331021],[126.487152,35.331085],[126.487045,35.331151],[126.486149,35.330191],[126.487158,35.329796],[126.489628,35.328842],[126.489564,35.329886],[126.489488,35.330337],[126.489534,35.330561],[126.488753,35.330896],[126.488616,35.330772]]]]},"properties":{"id":"FLD:12830:321:4703","layer":"FLOOD_TRACE","admin_code":"12830","sido_code":"46","flood_year":"2014","occurred_at":"2014-08-18","ended_at":"2014-08-19","begin_time":"0500","end_time":"0600","disaster_name":"2014년8월18일집중호우","cause_detail":"하천범람 및 내수침수","flood_grade":6,"flood_depth_m":3.467,"flood_area_m2":49271.316,"source_sn":321,"data_status":"actual","official_data":true,"is_prediction":false,"source":"행정안전부 침수흔적도 · 재난안전데이터공유플랫폼 DSSP-IF-00117","collected_at":"2026-08-19T16:46:51+09:00","source_crs":"EPSG:3857","display_badges":["행안부 침수흔적도","과거 기록"]}},{"type":"Feature","id":"FLD:12830:319:4704","geometry":{"type":"MultiPolygon","coordinates":[[[[126.487152,35.331085],[126.487318,35.331021],[126.487649,35.330982],[126.48776,35.330946],[126.487837,35.330871],[126.487885,35.330831],[126.488156,35.330574],[126.488263,35.330368],[126.488363,35.330385],[126.488517,35.330549],[126.488566,35.330692],[126.488581,35.330721],[126.488616,35.330772],[126.488753,35.330896],[126.48738,35.331485],[126.487196,35.331313],[126.487045,35.331151],[126.487152,35.331085]]]]},"properties":{"id":"FLD:12830:319:4704","layer":"FLOOD_TRACE","admin_code":"12830","sido_code":"46","flood_year":"2014","occurred_at":"2014-08-18","ended_at":"2014-08-19","begin_time":"0500","end_time":"0600","disaster_name":"2014년8월18일집중호우","cause_detail":"하천범람 및 내수침수","flood_grade":5,"flood_depth_m":2.342,"flood_area_m2":49271.316,"source_sn":319,"data_status":"actual","official_data":true,"is_prediction":false,"source":"행정안전부 침수흔적도 · 재난안전데이터공유플랫폼 DSSP-IF-00117","collected_at":"2026-08-19T16:46:51+09:00","source_crs":"EPSG:3857","display_badges":["행안부 침수흔적도","과거 기록"]}},{"type":"Feature","id":"FLD:12830:322:4705","geometry":{"type":"MultiPolygon","coordinates":[[[[126.477163,35.329275],[126.478843,35.328689],[126.478824,35.329793],[126.480155,35.329807],[126.480123,35.330264],[126.485803,35.330329],[126.486781,35.331274],[126.484251,35.331245],[126.484074,35.330871],[126.483917,35.330747],[126.483693,35.330754],[126.483252,35.331072],[126.480831,35.331091],[126.479991,35.331112],[126.479267,35.33072],[126.478366,35.330422],[126.477989,35.330123],[126.477163,35.329275]]]]},"properties":{"id":"FLD:12830:322:4705","layer":"FLOOD_TRACE","admin_code":"12830","sido_code":"46","flood_year":"2014","occurred_at":"2014-08-18","ended_at":"2014-08-19","begin_time":"0500","end_time":"0600","disaster_name":"2014년8월18일집중호우","cause_detail":"하천범람 및 내수침수","flood_grade":5,"flood_depth_m":2.417,"flood_area_m2":82139.552,"source_sn":322,"data_status":"actual","official_data":true,"is_prediction":false,"source":"행정안전부 침수흔적도 · 재난안전데이터공유플랫폼 DSSP-IF-00117","collected_at":"2026-08-19T16:46:51+09:00","source_crs":"EPSG:3857","display_badges":["행안부 침수흔적도","과거 기록"]}},{"type":"Feature","id":"FLD:12830:309:11247","geometry":{"type":"MultiPolygon","coordinates":[[[[126.352762,35.217394],[126.352663,35.21714],[126.352614,35.217141],[126.352617,35.217128],[126.352557,35.21694],[126.352462,35.216703],[126.352431,35.216541],[126.352433,35.216542],[126.352795,35.216625],[126.353036,35.216693],[126.352997,35.216753],[126.352898,35.217038],[126.352894,35.217086],[126.352933,35.217217],[126.35292,35.217243],[126.353156,35.217298],[126.35336,35.217356],[126.353385,35.217363],[126.35336,35.217429],[126.353411,35.217461],[126.353408,35.217467],[126.353607,35.217524],[126.353649,35.21749],[126.353862,35.217037],[126.353902,35.21694],[126.35441,35.217085],[126.354389,35.217137],[126.354351,35.217332],[126.354004,35.218196],[126.352933,35.217942],[126.352762,35.217394]]]]},"properties":{"id":"FLD:12830:309:11247","layer":"FLOOD_TRACE","admin_code":"12830","sido_code":"46","flood_year":"2014","occurred_at":"2014-08-18","ended_at":"2014-08-19","begin_time":"0500","end_time":"0600","disaster_name":"2014년8월18일 집중호우","cause_detail":"하천범람 및 내수침수","flood_grade":2,"flood_depth_m":0.562,"flood_area_m2":256982.355,"source_sn":309,"data_status":"actual","official_data":true,"is_prediction":false,"source":"행정안전부 침수흔적도 · 재난안전데이터공유플랫폼 DSSP-IF-00117","collected_at":"2026-08-19T16:46:51+09:00","source_crs":"EPSG:3857","display_badges":["행안부 침수흔적도","과거 기록"]}},{"type":"Feature","id":"FLD:12830:318:11248","geometry":{"type":"MultiPolygon","coordinates":[[[[126.352417,35.216265],[126.352311,35.216495],[126.352214,35.216458],[126.352222,35.216419],[126.35207,35.216365],[126.352085,35.216348],[126.351939,35.216227],[126.351966,35.216201],[126.351894,35.216097],[126.351734,35.216071],[126.351657,35.216049],[126.351599,35.216018],[126.351529,35.21603],[126.351348,35.215911],[126.351283,35.215821],[126.350949,35.215688],[126.350854,35.215649],[126.350744,35.215613],[126.350656,35.215584],[126.350428,35.215509],[126.350437,35.215496],[126.350191,35.215344],[126.349906,35.215236],[126.349711,35.215182],[126.34948,35.215102],[126.349165,35.215015],[126.349179,35.214952],[126.348692,35.214907],[126.348677,35.214855],[126.348052,35.214746],[126.348034,35.214802],[126.347322,35.214628],[126.347314,35.214647],[126.346513,35.214428],[126.346067,35.214304],[126.34541,35.214126],[126.34531,35.214089],[126.343827,35.21377],[126.343481,35.213695],[126.342965,35.213572],[126.342927,35.213522],[126.343469,35.212145],[126.353018,35.214847],[126.352417,35.216265]]]]},"properties":{"id":"FLD:12830:318:11248","layer":"FLOOD_TRACE","admin_code":"12830","sido_code":"46","flood_year":"2014","occurred_at":"2014-08-18","ended_at":"2014-08-19","begin_time":"0500","end_time":"0600","disaster_name":"2014년8월18일 집중호우","cause_detail":"하천범람 및 내수침수","flood_grade":2,"flood_depth_m":0.924,"flood_area_m2":256982.355,"source_sn":318,"data_status":"actual","official_data":true,"is_prediction":false,"source":"행정안전부 침수흔적도 · 재난안전데이터공유플랫폼 DSSP-IF-00117","collected_at":"2026-08-19T16:46:51+09:00","source_crs":"EPSG:3857","display_badges":["행안부 침수흔적도","과거 기록"]}},{"type":"Feature","id":"FLD:12830:323:11311","geometry":{"type":"MultiPolygon","coordinates":[[[[126.461175,35.331382],[126.460642,35.331325],[126.460614,35.331323],[126.460439,35.330879],[126.460237,35.330592],[126.459874,35.330269],[126.459072,35.329721],[126.458342,35.329236],[126.45805,35.328963],[126.457573,35.328415],[126.45728,35.3279],[126.456933,35.327335],[126.457579,35.327067],[126.457883,35.327041],[126.45841,35.327168],[126.458259,35.328102],[126.461426,35.330316],[126.461252,35.331391],[126.461175,35.331382]]]]},"properties":{"id":"FLD:12830:323:11311","layer":"FLOOD_TRACE","admin_code":"12830","sido_code":"46","flood_year":"2014","occurred_at":"2014-08-18","ended_at":"2014-08-19","begin_time":"0500","end_time":"0600","disaster_name":"2014년8월18일집중호우","cause_detail":"하천범람 및 내수침수","flood_grade":5,"flood_depth_m":2.023,"flood_area_m2":57539.261,"source_sn":323,"data_status":"actual","official_data":true,"is_prediction":false,"source":"행정안전부 침수흔적도 · 재난안전데이터공유플랫폼 DSSP-IF-00117","collected_at":"2026-08-19T16:46:51+09:00","source_crs":"EPSG:3857","display_badges":["행안부 침수흔적도","과거 기록"]}},{"type":"Feature","id":"FLD:12830:4440:16003","geometry":{"type":"MultiPolygon","coordinates":[[[[126.470337,35.38644],[126.469686,35.386657],[126.468883,35.38712],[126.468213,35.387425],[126.467113,35.387494],[126.466098,35.38741],[126.465249,35.387304],[126.464553,35.386805],[126.463445,35.385997],[126.462822,35.385419],[126.46239,35.384432],[126.461663,35.382751],[126.46119,35.381627],[126.460767,35.381109],[126.460096,35.380525],[126.458836,35.379608],[126.45795,35.378875],[126.457032,35.378353],[126.45629,35.379228],[126.456044,35.38278],[126.454916,35.38274],[126.454504,35.383697],[126.453887,35.383694],[126.453837,35.384723],[126.454283,35.385021],[126.45415,35.38577],[126.453932,35.386466],[126.453035,35.386776],[126.45214,35.386929],[126.451954,35.386074],[126.451724,35.385358],[126.45173,35.384556],[126.450579,35.384603],[126.450321,35.384916],[126.450167,35.385682],[126.446931,35.385493],[126.447229,35.382391],[126.445014,35.382294],[126.445085,35.38137],[126.445492,35.380919],[126.445562,35.380082],[126.445395,35.379558],[126.444651,35.379416],[126.443544,35.379306],[126.44301,35.379582],[126.442136,35.379631],[126.441842,35.382105],[126.441817,35.382628],[126.440752,35.38264],[126.440756,35.3821],[126.439862,35.381974],[126.43916,35.381883],[126.438719,35.381027],[126.43778,35.381267],[126.437613,35.380778],[126.437362,35.380044],[126.438004,35.379577],[126.437496,35.379138],[126.435924,35.378608],[126.435578,35.379321],[126.435046,35.379232],[126.435244,35.378448],[126.434776,35.378289],[126.43456,35.378741],[126.434198,35.378757],[126.433876,35.378581],[126.433216,35.378476],[126.433387,35.377956],[126.432476,35.377698],[126.431589,35.377735],[126.430488,35.377823],[126.429318,35.377321],[126.427725,35.377358],[126.42621,35.376788],[126.425545,35.376074],[126.425478,35.375377],[126.425808,35.374683],[126.426063,35.374536],[126.427035,35.375207],[126.427903,35.375315],[126.427995,35.375004],[126.427545,35.374765],[126.426716,35.374302],[126.426811,35.373666],[126.426814,35.373206],[126.427351,35.372772],[126.427446,35.372382],[126.427407,35.372098],[126.427367,35.371796],[126.427291,35.371504],[126.427324,35.371026],[126.427327,35.370505],[126.426697,35.369328],[126.426683,35.369199],[126.426813,35.369059],[126.427201,35.368972],[126.427984,35.369105],[126.428784,35.3691],[126.429677,35.37115],[126.429232,35.37164],[126.429334,35.371876],[126.429687,35.372376],[126.430508,35.37267],[126.431067,35.373138],[126.432457,35.373485],[126.433669,35.373476],[126.439667,35.374881],[126.440899,35.375165],[126.441809,35.375176],[126.442916,35.375316],[126.444379,35.375653],[126.447607,35.374374],[126.44996,35.373442],[126.451224,35.372793],[126.452727,35.371746],[126.4538,35.370943],[126.470337,35.38644]]]]},"properties":{"id":"FLD:12830:4440:16003","layer":"FLOOD_TRACE","admin_code":"12830","sido_code":"46","flood_year":"2020","occurred_at":"2020-08-08","ended_at":"2020-08-10","begin_time":"0900","end_time":"1000","disaster_name":"7.28~8.11 집중호우","cause_detail":"내수침수","flood_grade":2,"flood_depth_m":0.5,"flood_area_m2":400618,"source_sn":4440,"data_status":"actual","official_data":true,"is_prediction":false,"source":"행정안전부 침수흔적도 · 재난안전데이터공유플랫폼 DSSP-IF-00117","collected_at":"2026-08-19T16:46:51+09:00","source_crs":"EPSG:3857","display_badges":["행안부 침수흔적도","과거 기록"]}},{"type":"Feature","id":"FLD:12830:4441:16004","geometry":{"type":"MultiPolygon","coordinates":[[[[126.472229,35.314957],[126.472243,35.31413],[126.472149,35.314024],[126.470823,35.313817],[126.469788,35.3136],[126.469253,35.313395],[126.470846,35.312619],[126.472059,35.312067],[126.472748,35.311934],[126.473642,35.311781],[126.47471,35.311419],[126.475585,35.311068],[126.476286,35.310469],[126.476531,35.310216],[126.476912,35.309779],[126.477069,35.309472],[126.477428,35.3099],[126.478026,35.310553],[126.477064,35.311088],[126.475049,35.312316],[126.474249,35.312835],[126.474906,35.313602],[126.474004,35.314162],[126.474354,35.314586],[126.473265,35.31493],[126.472928,35.314559],[126.472229,35.314957]]]]},"properties":{"id":"FLD:12830:4441:16004","layer":"FLOOD_TRACE","admin_code":"12830","sido_code":"46","flood_year":"2020","occurred_at":"2020-08-08","ended_at":"2020-08-10","begin_time":"0900","end_time":"1000","disaster_name":"7.28~8.11 집중호우","cause_detail":"내수침수","flood_grade":2,"flood_depth_m":0.5,"flood_area_m2":511356,"source_sn":4441,"data_status":"actual","official_data":true,"is_prediction":false,"source":"행정안전부 침수흔적도 · 재난안전데이터공유플랫폼 DSSP-IF-00117","collected_at":"2026-08-19T16:46:51+09:00","source_crs":"EPSG:3857","display_badges":["행안부 침수흔적도","과거 기록"]}},{"type":"Feature","id":"FLD:12830:4442:16005","geometry":{"type":"MultiPolygon","coordinates":[[[[126.486152,35.326362],[126.482414,35.326204],[126.480988,35.326079],[126.480779,35.325589],[126.481871,35.325191],[126.481586,35.324574],[126.482629,35.324215],[126.482524,35.323962],[126.483606,35.323627],[126.483463,35.32335],[126.484558,35.322994],[126.486152,35.326362]]]]},"properties":{"id":"FLD:12830:4442:16005","layer":"FLOOD_TRACE","admin_code":"12830","sido_code":"46","flood_year":"2020","occurred_at":"2020-08-08","ended_at":"2020-08-10","begin_time":"0900","end_time":"1000","disaster_name":"7.28~8.11 집중호우","cause_detail":"내수침수","flood_grade":2,"flood_depth_m":0.5,"flood_area_m2":432923,"source_sn":4442,"data_status":"actual","official_data":true,"is_prediction":false,"source":"행정안전부 침수흔적도 · 재난안전데이터공유플랫폼 DSSP-IF-00117","collected_at":"2026-08-19T16:46:51+09:00","source_crs":"EPSG:3857","display_badges":["행안부 침수흔적도","과거 기록"]}},{"type":"Feature","id":"FLD:12830:4443:16006","geometry":{"type":"MultiPolygon","coordinates":[[[[126.434952,35.251249],[126.434071,35.250443],[126.433214,35.251119],[126.432551,35.250483],[126.43335,35.24976],[126.433854,35.250206],[126.434733,35.249596],[126.435535,35.250251],[126.43646,35.249623],[126.435294,35.248428],[126.442714,35.242898],[126.443183,35.243419],[126.444192,35.242732],[126.443689,35.242304],[126.444001,35.242098],[126.445062,35.241867],[126.445568,35.24185],[126.447252,35.240604],[126.447265,35.240595],[126.447798,35.240558],[126.448015,35.240879],[126.44755,35.241214],[126.447661,35.241437],[126.447833,35.241729],[126.448089,35.241905],[126.447726,35.242935],[126.447073,35.2439],[126.446144,35.243119],[126.445224,35.243791],[126.446491,35.244893],[126.446301,35.245333],[126.445806,35.245775],[126.443486,35.243647],[126.442527,35.244358],[126.44225,35.244095],[126.441278,35.244732],[126.442454,35.245802],[126.440613,35.247166],[126.441116,35.247612],[126.440248,35.248288],[126.439549,35.247822],[126.434952,35.251249]]]]},"properties":{"id":"FLD:12830:4443:16006","layer":"FLOOD_TRACE","admin_code":"12830","sido_code":"46","flood_year":"2020","occurred_at":"2020-08-08","ended_at":"2020-08-10","begin_time":"0900","end_time":"1000","disaster_name":"7.28~8.11 집중호우","cause_detail":"내수침수","flood_grade":3,"flood_depth_m":1,"flood_area_m2":386751,"source_sn":4443,"data_status":"actual","official_data":true,"is_prediction":false,"source":"행정안전부 침수흔적도 · 재난안전데이터공유플랫폼 DSSP-IF-00117","collected_at":"2026-08-19T16:46:51+09:00","source_crs":"EPSG:3857","display_badges":["행안부 침수흔적도","과거 기록"]}},{"type":"Feature","id":"FLD:12830:4446:16033","geometry":{"type":"MultiPolygon","coordinates":[[[[126.429312,35.262941],[126.430395,35.263422],[126.429025,35.265093],[126.426445,35.263641],[126.427522,35.262458],[126.428765,35.260845],[126.429696,35.259751],[126.43099,35.258555],[126.43312,35.256991],[126.436579,35.254816],[126.438325,35.253755],[126.439973,35.252547],[126.441734,35.253564],[126.441295,35.255195],[126.440874,35.255821],[126.439715,35.257387],[126.438246,35.256614],[126.435214,35.259973],[126.433814,35.261627],[126.431648,35.260295],[126.429312,35.262941]]]]},"properties":{"id":"FLD:12830:4446:16033","layer":"FLOOD_TRACE","admin_code":"12830","sido_code":"46","flood_year":"2020","occurred_at":"2020-08-08","ended_at":"2020-08-10","begin_time":"0900","end_time":"1000","disaster_name":"7.28~8.11 집중호우","cause_detail":"내수침수","flood_grade":2,"flood_depth_m":0.5,"flood_area_m2":252104,"source_sn":4446,"data_status":"actual","official_data":true,"is_prediction":false,"source":"행정안전부 침수흔적도 · 재난안전데이터공유플랫폼 DSSP-IF-00117","collected_at":"2026-08-19T16:46:51+09:00","source_crs":"EPSG:3857","display_badges":["행안부 침수흔적도","과거 기록"]}},{"type":"Feature","id":"FLD:12830:4447:16034","geometry":{"type":"MultiPolygon","coordinates":[[[[126.415585,35.274608],[126.414295,35.274622],[126.413108,35.274627],[126.413098,35.274257],[126.414349,35.274274],[126.414287,35.273883],[126.415564,35.273878],[126.415547,35.272588],[126.416863,35.272574],[126.416831,35.271601],[126.418101,35.270864],[126.418114,35.270708],[126.419091,35.270883],[126.419144,35.270957],[126.419219,35.271274],[126.419421,35.271941],[126.419392,35.272438],[126.419311,35.272903],[126.416873,35.272944],[126.416838,35.274212],[126.415639,35.274238],[126.415585,35.274608]]]]},"properties":{"id":"FLD:12830:4447:16034","layer":"FLOOD_TRACE","admin_code":"12830","sido_code":"46","flood_year":"2020","occurred_at":"2020-08-08","ended_at":"2020-08-10","begin_time":"0900","end_time":"1000","disaster_name":"7.28~8.11 집중호우","cause_detail":"내수침수","flood_grade":2,"flood_depth_m":0.5,"flood_area_m2":322062,"source_sn":4447,"data_status":"actual","official_data":true,"is_prediction":false,"source":"행정안전부 침수흔적도 · 재난안전데이터공유플랫폼 DSSP-IF-00117","collected_at":"2026-08-19T16:46:51+09:00","source_crs":"EPSG:3857","display_badges":["행안부 침수흔적도","과거 기록"]}},{"type":"Feature","id":"FLD:12830:4444:16035","geometry":{"type":"MultiPolygon","coordinates":[[[[126.398924,35.26432],[126.394622,35.261788],[126.397131,35.260121],[126.396327,35.259344],[126.394772,35.257725],[126.394098,35.258138],[126.390804,35.2548],[126.390756,35.254738],[126.392619,35.253834],[126.393407,35.25462],[126.39367,35.254552],[126.395427,35.256003],[126.395138,35.256161],[126.394764,35.25645],[126.395511,35.257201],[126.39618,35.256845],[126.396926,35.257645],[126.398055,35.256896],[126.398853,35.257711],[126.400407,35.256597],[126.401262,35.257481],[126.402763,35.259025],[126.403815,35.258359],[126.404603,35.259173],[126.405002,35.258898],[126.405406,35.259059],[126.405944,35.259569],[126.402684,35.261751],[126.403472,35.262509],[126.401929,35.263554],[126.401217,35.262763],[126.398924,35.26432]]]]},"properties":{"id":"FLD:12830:4444:16035","layer":"FLOOD_TRACE","admin_code":"12830","sido_code":"46","flood_year":"2020","occurred_at":"2020-08-08","ended_at":"2020-08-10","begin_time":"0900","end_time":"1000","disaster_name":"7.28~8.11 집중호우","cause_detail":"내수침수","flood_grade":2,"flood_depth_m":0.5,"flood_area_m2":581964,"source_sn":4444,"data_status":"actual","official_data":true,"is_prediction":false,"source":"행정안전부 침수흔적도 · 재난안전데이터공유플랫폼 DSSP-IF-00117","collected_at":"2026-08-19T16:46:51+09:00","source_crs":"EPSG:3857","display_badges":["행안부 침수흔적도","과거 기록"]}},{"type":"Feature","id":"FLD:12830:4445:16036","geometry":{"type":"MultiPolygon","coordinates":[[[[126.426827,35.257172],[126.425697,35.25762],[126.425151,35.256659],[126.424028,35.257147],[126.423631,35.256488],[126.424446,35.255625],[126.424611,35.25575],[126.425713,35.255336],[126.42467,35.253555],[126.42575,35.253135],[126.424627,35.251183],[126.425163,35.250546],[126.425563,35.250174],[126.427011,35.249574],[126.428266,35.250035],[126.428667,35.249137],[126.428484,35.248853],[126.429044,35.248057],[126.429284,35.24733],[126.429302,35.246758],[126.429949,35.246673],[126.429361,35.250298],[126.428801,35.250132],[126.428183,35.251359],[126.428362,35.251469],[126.427754,35.251709],[126.428769,35.253279],[126.427734,35.255589],[126.42628,35.256228],[126.426827,35.257172]]]]},"properties":{"id":"FLD:12830:4445:16036","layer":"FLOOD_TRACE","admin_code":"12830","sido_code":"46","flood_year":"2020","occurred_at":"2020-08-08","ended_at":"2020-08-10","begin_time":"0900","end_time":"1000","disaster_name":"7.28~8.11 집중호우","cause_detail":"내수침수","flood_grade":3,"flood_depth_m":1,"flood_area_m2":204490,"source_sn":4445,"data_status":"actual","official_data":true,"is_prediction":false,"source":"행정안전부 침수흔적도 · 재난안전데이터공유플랫폼 DSSP-IF-00117","collected_at":"2026-08-19T16:46:51+09:00","source_crs":"EPSG:3857","display_badges":["행안부 침수흔적도","과거 기록"]}},{"type":"Feature","id":"FLD:12830:4451:16037","geometry":{"type":"MultiPolygon","coordinates":[[[[126.45081,35.236494],[126.450226,35.238007],[126.450865,35.238133],[126.44928,35.238966],[126.448951,35.239643],[126.448941,35.239986],[126.44844,35.239878],[126.447817,35.238689],[126.447445,35.238318],[126.447134,35.237287],[126.446483,35.236454],[126.445216,35.235419],[126.444469,35.235016],[126.442639,35.234055],[126.44225,35.2335],[126.442032,35.2325],[126.441982,35.231578],[126.441687,35.2309],[126.441015,35.230405],[126.44092,35.230099],[126.444453,35.230233],[126.444823,35.230492],[126.447199,35.232175],[126.44787,35.233695],[126.448023,35.234855],[126.448811,35.234968],[126.449689,35.234821],[126.449906,35.235757],[126.450584,35.235682],[126.45081,35.236494]]]]},"properties":{"id":"FLD:12830:4451:16037","layer":"FLOOD_TRACE","admin_code":"12830","sido_code":"46","flood_year":"2020","occurred_at":"2020-08-08","ended_at":"2020-08-10","begin_time":"0900","end_time":"1000","disaster_name":"7.28~8.11 집중호우","cause_detail":"내수침수","flood_grade":2,"flood_depth_m":0.5,"flood_area_m2":629878,"source_sn":4451,"data_status":"actual","official_data":true,"is_prediction":false,"source":"행정안전부 침수흔적도 · 재난안전데이터공유플랫폼 DSSP-IF-00117","collected_at":"2026-08-19T16:46:51+09:00","source_crs":"EPSG:3857","display_badges":["행안부 침수흔적도","과거 기록"]}},{"type":"Feature","id":"FLD:12830:4450:16038","geometry":{"type":"MultiPolygon","coordinates":[[[[126.432933,35.244729],[126.430338,35.246622],[126.429302,35.246758],[126.4287,35.244609],[126.428077,35.244523],[126.427547,35.244294],[126.427258,35.244337],[126.426417,35.244071],[126.426184,35.243833],[126.426039,35.243435],[126.42629,35.243244],[126.426182,35.243078],[126.426363,35.242912],[126.426757,35.243477],[126.427438,35.243218],[126.427448,35.242911],[126.427093,35.242295],[126.428134,35.241896],[126.427398,35.241061],[126.428298,35.240764],[126.428823,35.241586],[126.429242,35.241339],[126.42988,35.241],[126.431148,35.241528],[126.431542,35.242002],[126.430585,35.242551],[126.432933,35.244729]]]]},"properties":{"id":"FLD:12830:4450:16038","layer":"FLOOD_TRACE","admin_code":"12830","sido_code":"46","flood_year":"2020","occurred_at":"2020-08-08","ended_at":"2020-08-10","begin_time":"0900","end_time":"1000","disaster_name":"7.28~8.11 집중호우","cause_detail":"내수침수","flood_grade":2,"flood_depth_m":0.5,"flood_area_m2":1168451,"source_sn":4450,"data_status":"actual","official_data":true,"is_prediction":false,"source":"행정안전부 침수흔적도 · 재난안전데이터공유플랫폼 DSSP-IF-00117","collected_at":"2026-08-19T16:46:51+09:00","source_crs":"EPSG:3857","display_badges":["행안부 침수흔적도","과거 기록"]}},{"type":"Feature","id":"FLD:12830:4448:16039","geometry":{"type":"MultiPolygon","coordinates":[[[[126.399767,35.221386],[126.399,35.22264],[126.396523,35.2229],[126.394449,35.223038],[126.393467,35.225229],[126.393384,35.225235],[126.392659,35.225215],[126.390396,35.225129],[126.388707,35.222299],[126.382308,35.220237],[126.382093,35.22069],[126.381843,35.220784],[126.380358,35.220303],[126.380087,35.219773],[126.382289,35.21499],[126.382442,35.214817],[126.383017,35.214828],[126.383568,35.215207],[126.384484,35.215476],[126.385545,35.215653],[126.386541,35.215909],[126.387471,35.216376],[126.387983,35.216827],[126.389298,35.216196],[126.388207,35.215381],[126.386765,35.214549],[126.386446,35.214168],[126.387274,35.213726],[126.387718,35.213547],[126.388644,35.213502],[126.388254,35.214482],[126.388585,35.214624],[126.389749,35.214985],[126.390512,35.215195],[126.391877,35.217168],[126.392594,35.21808],[126.393136,35.21828],[126.393498,35.218257],[126.39479,35.217678],[126.395146,35.217608],[126.399042,35.218684],[126.399623,35.219033],[126.400072,35.219588],[126.400471,35.219978],[126.400428,35.220316],[126.399767,35.221386]]]]},"properties":{"id":"FLD:12830:4448:16039","layer":"FLOOD_TRACE","admin_code":"12830","sido_code":"46","flood_year":"2020","occurred_at":"2020-08-08","ended_at":"2020-08-10","begin_time":"0900","end_time":"1000","disaster_name":"7.28~8.11 집중호우","cause_detail":"내수침수","flood_grade":2,"flood_depth_m":0.5,"flood_area_m2":203300,"source_sn":4448,"data_status":"actual","official_data":true,"is_prediction":false,"source":"행정안전부 침수흔적도 · 재난안전데이터공유플랫폼 DSSP-IF-00117","collected_at":"2026-08-19T16:46:51+09:00","source_crs":"EPSG:3857","display_badges":["행안부 침수흔적도","과거 기록"]}},{"type":"Feature","id":"FLD:12830:4449:16040","geometry":{"type":"MultiPolygon","coordinates":[[[[126.359728,35.213884],[126.358012,35.217917],[126.357675,35.21815],[126.35707,35.218068],[126.356346,35.21786],[126.355574,35.217709],[126.355015,35.217697],[126.354374,35.217576],[126.353637,35.217514],[126.353246,35.217307],[126.352914,35.217217],[126.352548,35.216893],[126.352181,35.216471],[126.350807,35.215781],[126.349943,35.215366],[126.34801,35.214624],[126.344884,35.213619],[126.345584,35.211797],[126.344578,35.211526],[126.34487,35.210638],[126.346028,35.210957],[126.346369,35.210068],[126.359728,35.213884]]]]},"properties":{"id":"FLD:12830:4449:16040","layer":"FLOOD_TRACE","admin_code":"12830","sido_code":"46","flood_year":"2020","occurred_at":"2020-08-08","ended_at":"2020-08-10","begin_time":"0900","end_time":"1000","disaster_name":"7.28~8.11 집중호우","cause_detail":"내수침수","flood_grade":2,"flood_depth_m":0.5,"flood_area_m2":231259,"source_sn":4449,"data_status":"actual","official_data":true,"is_prediction":false,"source":"행정안전부 침수흔적도 · 재난안전데이터공유플랫폼 DSSP-IF-00117","collected_at":"2026-08-19T16:46:51+09:00","source_crs":"EPSG:3857","display_badges":["행안부 침수흔적도","과거 기록"]}},{"type":"Feature","id":"FLD:12830:4453:16041","geometry":{"type":"MultiPolygon","coordinates":[[[[126.458326,35.425867],[126.457135,35.426015],[126.457216,35.424863],[126.456106,35.424825],[126.454943,35.424798],[126.453638,35.42477],[126.45227,35.424749],[126.452329,35.423886],[126.451247,35.423881],[126.451234,35.423106],[126.451631,35.422645],[126.451777,35.422236],[126.451628,35.42184],[126.452415,35.421866],[126.452708,35.416836],[126.451734,35.416758],[126.451734,35.415832],[126.45519,35.415976],[126.455259,35.416342],[126.455309,35.416833],[126.455263,35.417154],[126.455475,35.417547],[126.455857,35.417959],[126.455676,35.418272],[126.455485,35.418637],[126.455615,35.41926],[126.455897,35.419993],[126.456,35.420615],[126.456073,35.421672],[126.456525,35.422274],[126.457006,35.422583],[126.458132,35.422698],[126.458425,35.423043],[126.459667,35.423261],[126.459587,35.424453],[126.458497,35.424368],[126.458326,35.425867]]]]},"properties":{"id":"FLD:12830:4453:16041","layer":"FLOOD_TRACE","admin_code":"12830","sido_code":"46","flood_year":"2020","occurred_at":"2020-08-08","ended_at":"2020-08-10","begin_time":"0900","end_time":"1000","disaster_name":"7.28~8.11 집중호우","cause_detail":"내수침수","flood_grade":2,"flood_depth_m":0.5,"flood_area_m2":160980,"source_sn":4453,"data_status":"actual","official_data":true,"is_prediction":false,"source":"행정안전부 침수흔적도 · 재난안전데이터공유플랫폼 DSSP-IF-00117","collected_at":"2026-08-19T16:46:51+09:00","source_crs":"EPSG:3857","display_badges":["행안부 침수흔적도","과거 기록"]}},{"type":"Feature","id":"FLD:12830:4436:16053","geometry":{"type":"MultiPolygon","coordinates":[[[[126.310065,35.243762],[126.31029,35.244133],[126.309771,35.244631],[126.309473,35.244703],[126.308583,35.243118],[126.309793,35.242606],[126.309586,35.242008],[126.308742,35.241671],[126.30842,35.242126],[126.307505,35.241721],[126.306999,35.242453],[126.306115,35.24217],[126.305519,35.241709],[126.305416,35.241291],[126.305581,35.240982],[126.305939,35.240817],[126.306719,35.241008],[126.307413,35.240844],[126.30772,35.239386],[126.308179,35.238738],[126.308083,35.237679],[126.308665,35.237668],[126.309495,35.237295],[126.309926,35.237603],[126.309392,35.237979],[126.308993,35.238578],[126.309321,35.238958],[126.310042,35.238898],[126.310884,35.239339],[126.310401,35.240071],[126.311181,35.240438],[126.310663,35.241337],[126.311908,35.241812],[126.312183,35.241921],[126.312749,35.241115],[126.312614,35.241052],[126.31317,35.240232],[126.313846,35.240528],[126.3144,35.239694],[126.315119,35.240003],[126.314556,35.24085],[126.314404,35.240799],[126.313856,35.241597],[126.313442,35.241452],[126.312904,35.242267],[126.312338,35.243153],[126.312145,35.243316],[126.311927,35.243362],[126.311184,35.243345],[126.311044,35.24347],[126.310881,35.243362],[126.310065,35.243762]]]]},"properties":{"id":"FLD:12830:4436:16053","layer":"FLOOD_TRACE","admin_code":"12830","sido_code":"46","flood_year":"2020","occurred_at":"2020-08-08","ended_at":"2020-08-10","begin_time":"0900","end_time":"1000","disaster_name":"7.28~8.11 집중호우","cause_detail":"내수침수","flood_grade":2,"flood_depth_m":0.5,"flood_area_m2":86751,"source_sn":4436,"data_status":"actual","official_data":true,"is_prediction":false,"source":"행정안전부 침수흔적도 · 재난안전데이터공유플랫폼 DSSP-IF-00117","collected_at":"2026-08-19T16:46:51+09:00","source_crs":"EPSG:3857","display_badges":["행안부 침수흔적도","과거 기록"]}},{"type":"Feature","id":"FLD:12830:4439:16054","geometry":{"type":"MultiPolygon","coordinates":[[[[126.485743,35.393838],[126.485155,35.394022],[126.484716,35.393834],[126.483961,35.393012],[126.483431,35.392573],[126.48322,35.392048],[126.482824,35.391556],[126.482679,35.391216],[126.482802,35.390802],[126.483042,35.390711],[126.484083,35.390381],[126.484644,35.390558],[126.488163,35.392932],[126.487949,35.393095],[126.487547,35.393409],[126.486865,35.393647],[126.486211,35.393644],[126.485743,35.393838]]]]},"properties":{"id":"FLD:12830:4439:16054","layer":"FLOOD_TRACE","admin_code":"12830","sido_code":"46","flood_year":"2020","occurred_at":"2020-08-08","ended_at":"2020-08-10","begin_time":"0900","end_time":"1000","disaster_name":"7.28~8.11 집중호우","cause_detail":"내수침수","flood_grade":2,"flood_depth_m":0.5,"flood_area_m2":135383,"source_sn":4439,"data_status":"actual","official_data":true,"is_prediction":false,"source":"행정안전부 침수흔적도 · 재난안전데이터공유플랫폼 DSSP-IF-00117","collected_at":"2026-08-19T16:46:51+09:00","source_crs":"EPSG:3857","display_badges":["행안부 침수흔적도","과거 기록"]}},{"type":"Feature","id":"FLD:12830:4438:16055","geometry":{"type":"MultiPolygon","coordinates":[[[[126.54921,35.30895],[126.552334,35.309926],[126.552008,35.310608],[126.5467,35.308902],[126.546845,35.308613],[126.547788,35.306589],[126.548856,35.306926],[126.54898,35.306661],[126.549023,35.306615],[126.550067,35.306908],[126.54921,35.30895]]]]},"properties":{"id":"FLD:12830:4438:16055","layer":"FLOOD_TRACE","admin_code":"12830","sido_code":"46","flood_year":"2020","occurred_at":"2020-08-08","ended_at":"2020-08-10","begin_time":"0900","end_time":"1000","disaster_name":"7.28~8.11 집중호우","cause_detail":"내수침수","flood_grade":2,"flood_depth_m":0.5,"flood_area_m2":103665,"source_sn":4438,"data_status":"actual","official_data":true,"is_prediction":false,"source":"행정안전부 침수흔적도 · 재난안전데이터공유플랫폼 DSSP-IF-00117","collected_at":"2026-08-19T16:46:51+09:00","source_crs":"EPSG:3857","display_badges":["행안부 침수흔적도","과거 기록"]}},{"type":"Feature","id":"FLD:12830:4452:16075","geometry":{"type":"MultiPolygon","coordinates":[[[[126.475438,35.42766],[126.474654,35.426944],[126.474278,35.427307],[126.473224,35.4267],[126.472293,35.426288],[126.471383,35.425826],[126.471254,35.425724],[126.47041,35.424887],[126.469493,35.42418],[126.470855,35.423233],[126.471533,35.422644],[126.472039,35.422261],[126.472797,35.421599],[126.474174,35.420402],[126.475091,35.421065],[126.476183,35.42157],[126.476659,35.421772],[126.477017,35.422254],[126.477279,35.422529],[126.477774,35.422758],[126.47818,35.422714],[126.47795,35.422916],[126.478764,35.423576],[126.477907,35.424375],[126.478712,35.425006],[126.477909,35.425733],[126.479013,35.426662],[126.477772,35.427653],[126.476658,35.426774],[126.475438,35.42766]]]]},"properties":{"id":"FLD:12830:4452:16075","layer":"FLOOD_TRACE","admin_code":"12830","sido_code":"46","flood_year":"2020","occurred_at":"2020-08-08","ended_at":"2020-08-10","begin_time":"0900","end_time":"1000","disaster_name":"7.28~8.11 집중호우","cause_detail":"내수침수","flood_grade":2,"flood_depth_m":0.5,"flood_area_m2":150562,"source_sn":4452,"data_status":"actual","official_data":true,"is_prediction":false,"source":"행정안전부 침수흔적도 · 재난안전데이터공유플랫폼 DSSP-IF-00117","collected_at":"2026-08-19T16:46:51+09:00","source_crs":"EPSG:3857","display_badges":["행안부 침수흔적도","과거 기록"]}},{"type":"Feature","id":"FLD:12830:4434:17177","geometry":{"type":"MultiPolygon","coordinates":[[[[126.302161,35.233146],[126.302149,35.233804],[126.301694,35.233826],[126.301558,35.232717],[126.301562,35.232486],[126.301247,35.231911],[126.301271,35.231161],[126.300806,35.231109],[126.300666,35.230943],[126.300618,35.230205],[126.304452,35.22974],[126.304482,35.22978],[126.304496,35.230039],[126.30482,35.230314],[126.306501,35.230383],[126.30762,35.230437],[126.308351,35.230123],[126.308622,35.230179],[126.308989,35.230229],[126.309565,35.230435],[126.309897,35.231083],[126.309551,35.231275],[126.308386,35.230658],[126.308059,35.231349],[126.308564,35.231609],[126.308224,35.23189],[126.307976,35.231921],[126.3074,35.232238],[126.306739,35.232066],[126.306002,35.232713],[126.305862,35.232988],[126.305332,35.233195],[126.305632,35.233461],[126.305259,35.233735],[126.304638,35.233342],[126.304615,35.232884],[126.304408,35.232509],[126.304164,35.232442],[126.303637,35.232702],[126.3032,35.233277],[126.302791,35.233268],[126.302739,35.232994],[126.302161,35.233146]]]]},"properties":{"id":"FLD:12830:4434:17177","layer":"FLOOD_TRACE","admin_code":"12830","sido_code":"46","flood_year":"2020","occurred_at":"2020-08-08","ended_at":"2020-08-10","begin_time":"0900","end_time":"1000","disaster_name":"7.28~8.11 집중호우","cause_detail":"내수침수","flood_grade":2,"flood_depth_m":0.5,"flood_area_m2":2658469,"source_sn":4434,"data_status":"actual","official_data":true,"is_prediction":false,"source":"행정안전부 침수흔적도 · 재난안전데이터공유플랫폼 DSSP-IF-00117","collected_at":"2026-08-19T16:46:51+09:00","source_crs":"EPSG:3857","display_badges":["행안부 침수흔적도","과거 기록"]}},{"type":"Feature","id":"FLD:12830:4433:17178","geometry":{"type":"MultiPolygon","coordinates":[[[[126.46814,35.255996],[126.46684,35.255624],[126.465556,35.255303],[126.464317,35.25495],[126.46264,35.254014],[126.462107,35.253641],[126.461803,35.253276],[126.461652,35.253025],[126.461446,35.25293],[126.459447,35.253191],[126.459469,35.253322],[126.458611,35.253463],[126.458449,35.253732],[126.457775,35.253779],[126.457593,35.253218],[126.456476,35.253433],[126.456448,35.253347],[126.455264,35.253523],[126.454553,35.250363],[126.454796,35.250009],[126.455496,35.25],[126.459865,35.25],[126.461285,35.250034],[126.461821,35.250044],[126.462466,35.250019],[126.463345,35.249913],[126.463565,35.250524],[126.464216,35.250377],[126.465437,35.249901],[126.465522,35.253179],[126.466753,35.253216],[126.46689,35.2552],[126.468161,35.25516],[126.46814,35.255996]]]]},"properties":{"id":"FLD:12830:4433:17178","layer":"FLOOD_TRACE","admin_code":"12830","sido_code":"46","flood_year":"2020","occurred_at":"2020-08-08","ended_at":"2020-08-10","begin_time":"0900","end_time":"1000","disaster_name":"7.28~8.11 집중호우","cause_detail":"내수침수","flood_grade":2,"flood_depth_m":0.5,"flood_area_m2":108028,"source_sn":4433,"data_status":"actual","official_data":true,"is_prediction":false,"source":"행정안전부 침수흔적도 · 재난안전데이터공유플랫폼 DSSP-IF-00117","collected_at":"2026-08-19T16:46:51+09:00","source_crs":"EPSG:3857","display_badges":["행안부 침수흔적도","과거 기록"]}},{"type":"Feature","id":"FLD:12830:4432:17179","geometry":{"type":"MultiPolygon","coordinates":[[[[126.469536,35.302876],[126.469645,35.303718],[126.469973,35.305251],[126.470762,35.30639],[126.47056,35.3069],[126.469514,35.307384],[126.468618,35.306776],[126.467875,35.306072],[126.467541,35.30499],[126.467433,35.304761],[126.46677,35.303521],[126.46762,35.303086],[126.467679,35.302697],[126.467793,35.302692],[126.468168,35.302815],[126.468573,35.302562],[126.468752,35.302388],[126.468789,35.302104],[126.468946,35.301942],[126.469505,35.302136],[126.469536,35.302876]]]]},"properties":{"id":"FLD:12830:4432:17179","layer":"FLOOD_TRACE","admin_code":"12830","sido_code":"46","flood_year":"2020","occurred_at":"2020-08-08","ended_at":"2020-08-10","begin_time":"0900","end_time":"1000","disaster_name":"7.28~8.11 집중호우","cause_detail":"내수침수","flood_grade":2,"flood_depth_m":0.5,"flood_area_m2":406505,"source_sn":4432,"data_status":"actual","official_data":true,"is_prediction":false,"source":"행정안전부 침수흔적도 · 재난안전데이터공유플랫폼 DSSP-IF-00117","collected_at":"2026-08-19T16:46:51+09:00","source_crs":"EPSG:3857","display_badges":["행안부 침수흔적도","과거 기록"]}},{"type":"Feature","id":"FLD:12830:4435:17180","geometry":{"type":"MultiPolygon","coordinates":[[[[126.488294,35.330433],[126.487909,35.33087],[126.48689,35.331245],[126.487293,35.332173],[126.486342,35.332187],[126.485732,35.33223],[126.485283,35.332176],[126.485315,35.33127],[126.484385,35.331212],[126.484379,35.330314],[126.482904,35.330304],[126.482916,35.330973],[126.481601,35.331045],[126.481623,35.328727],[126.482997,35.328976],[126.484385,35.329185],[126.485277,35.329113],[126.486431,35.328975],[126.487196,35.32876],[126.487439,35.328712],[126.487796,35.328635],[126.488643,35.330098],[126.488294,35.330433]]]]},"properties":{"id":"FLD:12830:4435:17180","layer":"FLOOD_TRACE","admin_code":"12830","sido_code":"46","flood_year":"2020","occurred_at":"2020-08-08","ended_at":"2020-08-10","begin_time":"0900","end_time":"1000","disaster_name":"7.28~8.11 집중호우","cause_detail":"내수침수","flood_grade":2,"flood_depth_m":0.5,"flood_area_m2":82772,"source_sn":4435,"data_status":"actual","official_data":true,"is_prediction":false,"source":"행정안전부 침수흔적도 · 재난안전데이터공유플랫폼 DSSP-IF-00117","collected_at":"2026-08-19T16:46:51+09:00","source_crs":"EPSG:3857","display_badges":["행안부 침수흔적도","과거 기록"]}},{"type":"Feature","id":"FLD:12830:4437:17181","geometry":{"type":"MultiPolygon","coordinates":[[[[126.467091,35.333085],[126.465898,35.332987],[126.464837,35.332884],[126.464819,35.332968],[126.463365,35.332842],[126.463613,35.330937],[126.462512,35.330792],[126.462776,35.329185],[126.463863,35.329316],[126.465119,35.329552],[126.465304,35.32962],[126.466364,35.329786],[126.466454,35.329008],[126.467652,35.329112],[126.467188,35.332011],[126.468342,35.332107],[126.468312,35.332836],[126.467166,35.332726],[126.467091,35.333085]]]]},"properties":{"id":"FLD:12830:4437:17181","layer":"FLOOD_TRACE","admin_code":"12830","sido_code":"46","flood_year":"2020","occurred_at":"2020-08-08","ended_at":"2020-08-10","begin_time":"0900","end_time":"1000","disaster_name":"7.28~8.11 집중호우","cause_detail":"내수침수","flood_grade":2,"flood_depth_m":0.5,"flood_area_m2":112578,"source_sn":4437,"data_status":"actual","official_data":true,"is_prediction":false,"source":"행정안전부 침수흔적도 · 재난안전데이터공유플랫폼 DSSP-IF-00117","collected_at":"2026-08-19T16:46:51+09:00","source_crs":"EPSG:3857","display_badges":["행안부 침수흔적도","과거 기록"]}},{"type":"Feature","id":"FLD:12830:117:33486","geometry":{"type":"MultiPolygon","coordinates":[[[[126.44705,35.357613],[126.447101,35.35767],[126.447241,35.357566],[126.447362,35.357476],[126.447483,35.357386],[126.44755,35.357336],[126.447691,35.357229],[126.447698,35.357224],[126.447712,35.357228],[126.447671,35.357383],[126.447668,35.357399],[126.447663,35.357433],[126.447649,35.357529],[126.447637,35.357634],[126.447622,35.357768],[126.447604,35.357996],[126.447594,35.358098],[126.447579,35.358229],[126.447578,35.358244],[126.447577,35.358266],[126.44766,35.358276],[126.447656,35.358329],[126.447645,35.358433],[126.447628,35.358611],[126.447626,35.358631],[126.447606,35.358835],[126.447599,35.358908],[126.447592,35.358981],[126.447566,35.359146],[126.447562,35.359165],[126.447551,35.359247],[126.447536,35.359362],[126.447522,35.359572],[126.447519,35.35961],[126.44748,35.359674],[126.447401,35.359804],[126.447392,35.35982],[126.447321,35.359937],[126.447295,35.359988],[126.447233,35.360108],[126.447229,35.360116],[126.447184,35.360208],[126.447144,35.360289],[126.447102,35.360373],[126.44702,35.360539],[126.446973,35.360633],[126.446933,35.360715],[126.446889,35.360802],[126.446849,35.360883],[126.446808,35.360964],[126.446807,35.360967],[126.446775,35.361011],[126.446737,35.361065],[126.446687,35.361126],[126.446757,35.361191],[126.446809,35.361242],[126.446862,35.361292],[126.446911,35.361339],[126.446964,35.361389],[126.447019,35.36144],[126.447083,35.361502],[126.447015,35.361529],[126.446981,35.361544],[126.446629,35.361686],[126.446607,35.361694],[126.446578,35.361704],[126.446392,35.36176],[126.446303,35.361757],[126.446123,35.361806],[126.445952,35.361852],[126.445872,35.361889],[126.445671,35.361988],[126.445647,35.361998],[126.445501,35.362066],[126.445514,35.362105],[126.445442,35.362139],[126.445322,35.362202],[126.445172,35.362237],[126.445193,35.362277],[126.445123,35.362277],[126.445085,35.362278],[126.44509,35.362311],[126.445016,35.362334],[126.444842,35.36239],[126.44486,35.362431],[126.444835,35.362446],[126.444803,35.362456],[126.444755,35.36245],[126.444681,35.362449],[126.444626,35.362483],[126.444581,35.362511],[126.4445,35.362533],[126.444484,35.362513],[126.444452,35.362525],[126.444323,35.362572],[126.444253,35.362562],[126.444213,35.362525],[126.444145,35.362508],[126.444114,35.362501],[126.444058,35.362516],[126.44402,35.362528],[126.44401,35.362488],[126.444003,35.362378],[126.443895,35.362413],[126.4438,35.362443],[126.443748,35.36246],[126.443722,35.362468],[126.443672,35.362484],[126.443642,35.362498],[126.443553,35.362538],[126.443515,35.362554],[126.443433,35.362508],[126.44339,35.3625],[126.443319,35.362482],[126.443268,35.362466],[126.443153,35.362427],[126.443102,35.362423],[126.443113,35.362379],[126.443111,35.362366],[126.443097,35.362267],[126.443079,35.362193],[126.44305,35.362079],[126.443042,35.362081],[126.443023,35.362026],[126.443129,35.361993],[126.443135,35.362004],[126.443141,35.362002],[126.443174,35.362058],[126.443186,35.36207],[126.44324,35.362042],[126.443268,35.362027],[126.44323,35.361964],[126.44333,35.361921],[126.443354,35.361955],[126.44347,35.361912],[126.4436,35.361853],[126.443693,35.361816],[126.443701,35.361829],[126.443704,35.361828],[126.443773,35.361939],[126.443804,35.361926],[126.443799,35.361916],[126.443748,35.361829],[126.443858,35.361789],[126.443871,35.361809],[126.443922,35.36179],[126.444012,35.361755],[126.444029,35.361784],[126.444088,35.361758],[126.444186,35.361719],[126.444345,35.361657],[126.44439,35.361712],[126.444425,35.361699],[126.44439,35.361635],[126.444557,35.361554],[126.444485,35.361467],[126.444635,35.361379],[126.444823,35.361262],[126.444988,35.361144],[126.445257,35.360956],[126.44548,35.360787],[126.445477,35.36076],[126.445527,35.360728],[126.445546,35.36073],[126.445882,35.360479],[126.445996,35.360343],[126.44605,35.360246],[126.446207,35.359894],[126.446282,35.359693],[126.446322,35.35956],[126.446366,35.359377],[126.446391,35.35927],[126.446442,35.359012],[126.446422,35.358986],[126.446339,35.358952],[126.446349,35.358859],[126.446398,35.358858],[126.446478,35.358814],[126.446697,35.357629],[126.446713,35.357422],[126.447032,35.357602],[126.44705,35.357613]]]]},"properties":{"id":"FLD:12830:117:33486","layer":"FLOOD_TRACE","admin_code":"12830","sido_code":"46","flood_year":"2007","occurred_at":"2007-03-31","ended_at":"2007-03-31","begin_time":"0150","end_time":"0210","disaster_name":"법성면 법성,진내리","cause_detail":"2007년 3월 해수범람(만조 시)으로 인한 침수피해","flood_grade":1,"flood_depth_m":0.3,"flood_area_m2":74070,"source_sn":117,"data_status":"actual","official_data":true,"is_prediction":false,"source":"행정안전부 침수흔적도 · 재난안전데이터공유플랫폼 DSSP-IF-00117","collected_at":"2026-08-19T16:46:51+09:00","source_crs":"EPSG:3857","display_badges":["행안부 침수흔적도","과거 기록"]}},{"type":"Feature","id":"FLD:12830:116:36196","geometry":{"type":"MultiPolygon","coordinates":[[[[126.375926,35.210648],[126.375981,35.210652],[126.375934,35.211101],[126.375885,35.211531],[126.375893,35.211678],[126.375958,35.211676],[126.375952,35.211694],[126.375969,35.211702],[126.376207,35.211812],[126.376218,35.21181],[126.376456,35.211864],[126.37645,35.211877],[126.376487,35.211887],[126.376491,35.211872],[126.376654,35.211909],[126.376668,35.211864],[126.376834,35.211902],[126.376612,35.212212],[126.376603,35.212225],[126.376512,35.212202],[126.376494,35.212197],[126.376391,35.212171],[126.376221,35.212128],[126.376258,35.212065],[126.376121,35.211992],[126.375983,35.211925],[126.375939,35.211928],[126.375893,35.211909],[126.375906,35.211837],[126.37538,35.211825],[126.375346,35.211867],[126.375348,35.211696],[126.375351,35.211336],[126.375853,35.211346],[126.375883,35.211067],[126.375926,35.210648]]]]},"properties":{"id":"FLD:12830:116:36196","layer":"FLOOD_TRACE","admin_code":"12830","sido_code":"46","flood_year":"2007","occurred_at":"2007-09-29","ended_at":"2007-09-29","begin_time":"1627","end_time":"1637","disaster_name":"영광군 염산면 설도항","cause_detail":"2007년 3월 해수월류(만조 시)으로 인한 침수피해","flood_grade":1,"flood_depth_m":0.39,"flood_area_m2":5451,"source_sn":116,"data_status":"actual","official_data":true,"is_prediction":false,"source":"행정안전부 침수흔적도 · 재난안전데이터공유플랫폼 DSSP-IF-00117","collected_at":"2026-08-19T16:46:51+09:00","source_crs":"EPSG:3857","display_badges":["행안부 침수흔적도","과거 기록"]}}]}