{"type":"FeatureCollection","features":[{"type":"Feature","id":"FLD:44200:309:971","geometry":{"type":"MultiPolygon","coordinates":[[[[127.068857,36.775436],[127.06879,36.775495],[127.068727,36.775469],[127.068892,36.775377],[127.068928,36.775424],[127.068857,36.775436]]]]},"properties":{"id":"FLD:44200:309:971","layer":"FLOOD_TRACE","admin_code":"44200","sido_code":"44","flood_year":"2018","occurred_at":"2018-08-27","ended_at":"2018-08-27","begin_time":"1200","end_time":"1700","disaster_name":"2018.08.27 집중호우","cause_detail":"주위 구거에서 역류하여 침수","flood_grade":3,"flood_depth_m":1.158,"flood_area_m2":174.198,"source_sn":309,"data_status":"actual","official_data":true,"is_prediction":false,"source":"행정안전부 침수흔적도 · 재난안전데이터공유플랫폼 DSSP-IF-00117","collected_at":"2026-08-19T16:46:51+09:00","source_crs":"EPSG:3857","display_badges":["행안부 침수흔적도","과거 기록"]}},{"type":"Feature","id":"FLD:44200:307:972","geometry":{"type":"MultiPolygon","coordinates":[[[[127.06692,36.774274],[127.066898,36.774459],[127.066835,36.774525],[127.066702,36.774401],[127.066791,36.774242],[127.066914,36.774208],[127.066879,36.774065],[127.066965,36.774072],[127.067032,36.774355],[127.06692,36.774274]]]]},"properties":{"id":"FLD:44200:307:972","layer":"FLOOD_TRACE","admin_code":"44200","sido_code":"44","flood_year":"2018","occurred_at":"2018-08-27","ended_at":"2018-08-27","begin_time":"1200","end_time":"1700","disaster_name":"2018.08.27 집중호우","cause_detail":"피해지대가 주변지대보다 낮고 구거가 역류하여 침수된 상황.","flood_grade":1,"flood_depth_m":0.3,"flood_area_m2":1602.379,"source_sn":307,"data_status":"actual","official_data":true,"is_prediction":false,"source":"행정안전부 침수흔적도 · 재난안전데이터공유플랫폼 DSSP-IF-00117","collected_at":"2026-08-19T16:46:51+09:00","source_crs":"EPSG:3857","display_badges":["행안부 침수흔적도","과거 기록"]}},{"type":"Feature","id":"FLD:44200:227:4780","geometry":{"type":"MultiPolygon","coordinates":[[[[127.058508,36.821843],[127.058414,36.821721],[127.058272,36.821588],[127.058152,36.821409],[127.05808,36.821324],[127.057938,36.821193],[127.057919,36.821029],[127.058069,36.820929],[127.058631,36.821661],[127.058598,36.8218],[127.058634,36.821958],[127.058508,36.821843]]]]},"properties":{"id":"FLD:44200:227:4780","layer":"FLOOD_TRACE","admin_code":"44200","sido_code":"44","flood_year":"2014","occurred_at":"2014-07-18","ended_at":"2014-07-18","begin_time":"0500","end_time":"0700","disaster_name":"2014년07월 집중호우","cause_detail":"집중호우로 유수량 배출불가","flood_grade":5,"flood_depth_m":2.168,"flood_area_m2":15954.436,"source_sn":227,"data_status":"actual","official_data":true,"is_prediction":false,"source":"행정안전부 침수흔적도 · 재난안전데이터공유플랫폼 DSSP-IF-00117","collected_at":"2026-08-19T16:46:51+09:00","source_crs":"EPSG:3857","display_badges":["행안부 침수흔적도","과거 기록"]}},{"type":"Feature","id":"FLD:44200:225:4781","geometry":{"type":"MultiPolygon","coordinates":[[[[127.057725,36.821266],[127.057705,36.821149],[127.057731,36.821061],[127.057566,36.820962],[127.057711,36.820811],[127.057828,36.820749],[127.057871,36.820726],[127.057928,36.820696],[127.058069,36.820929],[127.057919,36.821029],[127.057938,36.821193],[127.057725,36.821266]]]]},"properties":{"id":"FLD:44200:225:4781","layer":"FLOOD_TRACE","admin_code":"44200","sido_code":"44","flood_year":"2014","occurred_at":"2014-07-18","ended_at":"2014-07-18","begin_time":"0500","end_time":"0700","disaster_name":"2014년07월 집중호우","cause_detail":"집중호우로 유수량 배출불가","flood_grade":2,"flood_depth_m":1.755,"flood_area_m2":15954.436,"source_sn":225,"data_status":"actual","official_data":true,"is_prediction":false,"source":"행정안전부 침수흔적도 · 재난안전데이터공유플랫폼 DSSP-IF-00117","collected_at":"2026-08-19T16:46:51+09:00","source_crs":"EPSG:3857","display_badges":["행안부 침수흔적도","과거 기록"]}},{"type":"Feature","id":"FLD:44200:226:4782","geometry":{"type":"MultiPolygon","coordinates":[[[[127.057731,36.821061],[127.057705,36.821149],[127.057725,36.821266],[127.05807,36.821648],[127.057991,36.821713],[127.057848,36.821773],[127.057499,36.821389],[127.057505,36.821355],[127.057447,36.820985],[127.057566,36.820962],[127.057731,36.821061]]]]},"properties":{"id":"FLD:44200:226:4782","layer":"FLOOD_TRACE","admin_code":"44200","sido_code":"44","flood_year":"2014","occurred_at":"2014-07-18","ended_at":"2014-07-18","begin_time":"0500","end_time":"0700","disaster_name":"2014년07월 집중호우","cause_detail":"집중호우로 유수량 배출불가","flood_grade":2,"flood_depth_m":0.875,"flood_area_m2":15954.436,"source_sn":226,"data_status":"actual","official_data":true,"is_prediction":false,"source":"행정안전부 침수흔적도 · 재난안전데이터공유플랫폼 DSSP-IF-00117","collected_at":"2026-08-19T16:46:51+09:00","source_crs":"EPSG:3857","display_badges":["행안부 침수흔적도","과거 기록"]}},{"type":"Feature","id":"FLD:44200:229:4783","geometry":{"type":"MultiPolygon","coordinates":[[[[127.058069,36.820929],[127.057748,36.820399],[127.057947,36.820193],[127.058126,36.820378],[127.058163,36.820794],[127.058353,36.82096],[127.058652,36.821519],[127.058631,36.821661],[127.058069,36.820929]]]]},"properties":{"id":"FLD:44200:229:4783","layer":"FLOOD_TRACE","admin_code":"44200","sido_code":"44","flood_year":"2014","occurred_at":"2014-07-18","ended_at":"2014-07-18","begin_time":"0500","end_time":"0700","disaster_name":"2014년07월 집중호우","cause_detail":"집중호우로 유수량 배출불가","flood_grade":3,"flood_depth_m":1.235,"flood_area_m2":15954.436,"source_sn":229,"data_status":"actual","official_data":true,"is_prediction":false,"source":"행정안전부 침수흔적도 · 재난안전데이터공유플랫폼 DSSP-IF-00117","collected_at":"2026-08-19T16:46:51+09:00","source_crs":"EPSG:3857","display_badges":["행안부 침수흔적도","과거 기록"]}},{"type":"Feature","id":"FLD:44200:230:4784","geometry":{"type":"MultiPolygon","coordinates":[[[[127.057938,36.821193],[127.05808,36.821324],[127.058152,36.821409],[127.058272,36.821588],[127.058414,36.821721],[127.05823,36.821789],[127.058168,36.821851],[127.057951,36.821886],[127.057848,36.821773],[127.057991,36.821713],[127.05807,36.821648],[127.057725,36.821266],[127.057938,36.821193]]]]},"properties":{"id":"FLD:44200:230:4784","layer":"FLOOD_TRACE","admin_code":"44200","sido_code":"44","flood_year":"2014","occurred_at":"2014-07-18","ended_at":"2014-07-18","begin_time":"0500","end_time":"0700","disaster_name":"2014년07월 집중호우","cause_detail":"집중호우로 유수량 배출불가","flood_grade":3,"flood_depth_m":1.007,"flood_area_m2":15954.436,"source_sn":230,"data_status":"actual","official_data":true,"is_prediction":false,"source":"행정안전부 침수흔적도 · 재난안전데이터공유플랫폼 DSSP-IF-00117","collected_at":"2026-08-19T16:46:51+09:00","source_crs":"EPSG:3857","display_badges":["행안부 침수흔적도","과거 기록"]}},{"type":"Feature","id":"FLD:44200:231:4785","geometry":{"type":"MultiPolygon","coordinates":[[[[127.057711,36.820811],[127.057566,36.820962],[127.057447,36.820985],[127.057295,36.820923],[127.057454,36.820703],[127.057546,36.820608],[127.057613,36.820691],[127.05775,36.820737],[127.057828,36.820749],[127.057711,36.820811]]]]},"properties":{"id":"FLD:44200:231:4785","layer":"FLOOD_TRACE","admin_code":"44200","sido_code":"44","flood_year":"2014","occurred_at":"2014-07-18","ended_at":"2014-07-18","begin_time":"0500","end_time":"0700","disaster_name":"2014년07월 집중호우","cause_detail":"집중호우로 유수량 배출불가","flood_grade":3,"flood_depth_m":1.05,"flood_area_m2":15954.436,"source_sn":231,"data_status":"actual","official_data":true,"is_prediction":false,"source":"행정안전부 침수흔적도 · 재난안전데이터공유플랫폼 DSSP-IF-00117","collected_at":"2026-08-19T16:46:51+09:00","source_crs":"EPSG:3857","display_badges":["행안부 침수흔적도","과거 기록"]}},{"type":"Feature","id":"FLD:44200:228:4786","geometry":{"type":"MultiPolygon","coordinates":[[[[127.058635,36.822322],[127.058542,36.822271],[127.058498,36.82222],[127.058446,36.822133],[127.058425,36.822075],[127.058423,36.821971],[127.058438,36.821883],[127.058508,36.821843],[127.058634,36.821958],[127.058674,36.82213],[127.058707,36.822332],[127.058635,36.822322]]]]},"properties":{"id":"FLD:44200:228:4786","layer":"FLOOD_TRACE","admin_code":"44200","sido_code":"44","flood_year":"2014","occurred_at":"2014-07-18","ended_at":"2014-07-18","begin_time":"0500","end_time":"0700","disaster_name":"2014년07월 집중호우","cause_detail":"집중호우로 유수량 배출불가","flood_grade":3,"flood_depth_m":1.199,"flood_area_m2":15954.436,"source_sn":228,"data_status":"actual","official_data":true,"is_prediction":false,"source":"행정안전부 침수흔적도 · 재난안전데이터공유플랫폼 DSSP-IF-00117","collected_at":"2026-08-19T16:46:51+09:00","source_crs":"EPSG:3857","display_badges":["행안부 침수흔적도","과거 기록"]}},{"type":"Feature","id":"FLD:44200:224:4787","geometry":{"type":"MultiPolygon","coordinates":[[[[127.058168,36.821851],[127.05823,36.821789],[127.058414,36.821721],[127.058508,36.821843],[127.058438,36.821883],[127.058423,36.821971],[127.058425,36.822075],[127.058446,36.822133],[127.058498,36.82222],[127.058542,36.822271],[127.058635,36.822322],[127.058707,36.822332],[127.058698,36.822567],[127.058459,36.8225],[127.058299,36.822421],[127.058216,36.82227],[127.058204,36.822196],[127.058174,36.822152],[127.058153,36.822106],[127.058071,36.822011],[127.057954,36.821956],[127.057951,36.821886],[127.058168,36.821851]]]]},"properties":{"id":"FLD:44200:224:4787","layer":"FLOOD_TRACE","admin_code":"44200","sido_code":"44","flood_year":"2014","occurred_at":"2014-07-18","ended_at":"2014-07-18","begin_time":"0500","end_time":"0700","disaster_name":"2014년07월 집중호우","cause_detail":"집중호우로 유수량 배출불가","flood_grade":1,"flood_depth_m":0.395,"flood_area_m2":15954.436,"source_sn":224,"data_status":"actual","official_data":true,"is_prediction":false,"source":"행정안전부 침수흔적도 · 재난안전데이터공유플랫폼 DSSP-IF-00117","collected_at":"2026-08-19T16:46:51+09:00","source_crs":"EPSG:3857","display_badges":["행안부 침수흔적도","과거 기록"]}},{"type":"Feature","id":"FLD:44200:223:6308","geometry":{"type":"MultiPolygon","coordinates":[[[[127.057828,36.820749],[127.05775,36.820737],[127.057613,36.820691],[127.057546,36.820608],[127.057748,36.820399],[127.057928,36.820696],[127.057828,36.820749]]]]},"properties":{"id":"FLD:44200:223:6308","layer":"FLOOD_TRACE","admin_code":"44200","sido_code":"44","flood_year":"2014","occurred_at":"2014-07-18","ended_at":"2014-07-18","begin_time":"0500","end_time":"0700","disaster_name":"2014년07월 집중호우","cause_detail":"집중호우로 유수량 배출불가","flood_grade":2,"flood_depth_m":0.857,"flood_area_m2":15954.436,"source_sn":223,"data_status":"actual","official_data":true,"is_prediction":false,"source":"행정안전부 침수흔적도 · 재난안전데이터공유플랫폼 DSSP-IF-00117","collected_at":"2026-08-19T16:46:51+09:00","source_crs":"EPSG:3857","display_badges":["행안부 침수흔적도","과거 기록"]}},{"type":"Feature","id":"FLD:44200:314:8188","geometry":{"type":"MultiPolygon","coordinates":[[[[127.068254,36.774517],[127.068339,36.774656],[127.06827,36.774688],[127.068244,36.774622],[127.068218,36.774535],[127.068254,36.774517]]]]},"properties":{"id":"FLD:44200:314:8188","layer":"FLOOD_TRACE","admin_code":"44200","sido_code":"44","flood_year":"2018","occurred_at":"2018-08-27","ended_at":"2018-08-27","begin_time":"1200","end_time":"1700","disaster_name":"2018.08.27 집중호우","cause_detail":"피해지대가 주변지대보다 낮고 구거가 역류하는 상황","flood_grade":3,"flood_depth_m":1.2,"flood_area_m2":492.2,"source_sn":314,"data_status":"actual","official_data":true,"is_prediction":false,"source":"행정안전부 침수흔적도 · 재난안전데이터공유플랫폼 DSSP-IF-00117","collected_at":"2026-08-19T16:46:51+09:00","source_crs":"EPSG:3857","display_badges":["행안부 침수흔적도","과거 기록"]}},{"type":"Feature","id":"FLD:44200:312:8189","geometry":{"type":"MultiPolygon","coordinates":[[[[127.068164,36.774382],[127.068093,36.774366],[127.068211,36.774268],[127.068335,36.774394],[127.068383,36.77448],[127.068254,36.774517],[127.068164,36.774382]]]]},"properties":{"id":"FLD:44200:312:8189","layer":"FLOOD_TRACE","admin_code":"44200","sido_code":"44","flood_year":"2018","occurred_at":"2018-08-27","ended_at":"2018-08-27","begin_time":"1200","end_time":"1700","disaster_name":"2018.08.27 집중호우","cause_detail":"피해지대가 주변지대보다 낮고 구거가 역류하는 상황","flood_grade":1,"flood_depth_m":0.3,"flood_area_m2":492.2,"source_sn":312,"data_status":"actual","official_data":true,"is_prediction":false,"source":"행정안전부 침수흔적도 · 재난안전데이터공유플랫폼 DSSP-IF-00117","collected_at":"2026-08-19T16:46:51+09:00","source_crs":"EPSG:3857","display_badges":["행안부 침수흔적도","과거 기록"]}},{"type":"Feature","id":"FLD:44200:311:8190","geometry":{"type":"MultiPolygon","coordinates":[[[[127.06692,36.774274],[127.067032,36.774355],[127.067137,36.7745],[127.067172,36.774576],[127.067411,36.774588],[127.067365,36.774507],[127.067441,36.774459],[127.067521,36.774559],[127.067657,36.77461],[127.067143,36.774606],[127.06704,36.77444],[127.066965,36.774435],[127.066898,36.774459],[127.06692,36.774274]]]]},"properties":{"id":"FLD:44200:311:8190","layer":"FLOOD_TRACE","admin_code":"44200","sido_code":"44","flood_year":"2018","occurred_at":"2018-08-27","ended_at":"2018-08-27","begin_time":"1200","end_time":"1700","disaster_name":"2018.08.27 집중호우","cause_detail":"피해지대가 주변지대보다 낮고 구거가 역류하여 침수된 상황.","flood_grade":2,"flood_depth_m":0.5,"flood_area_m2":1602.379,"source_sn":311,"data_status":"actual","official_data":true,"is_prediction":false,"source":"행정안전부 침수흔적도 · 재난안전데이터공유플랫폼 DSSP-IF-00117","collected_at":"2026-08-19T16:46:51+09:00","source_crs":"EPSG:3857","display_badges":["행안부 침수흔적도","과거 기록"]}},{"type":"Feature","id":"FLD:44200:313:8191","geometry":{"type":"MultiPolygon","coordinates":[[[[127.068164,36.774382],[127.068254,36.774517],[127.068218,36.774535],[127.068093,36.774366],[127.068164,36.774382]]]]},"properties":{"id":"FLD:44200:313:8191","layer":"FLOOD_TRACE","admin_code":"44200","sido_code":"44","flood_year":"2018","occurred_at":"2018-08-27","ended_at":"2018-08-27","begin_time":"1200","end_time":"1700","disaster_name":"2018.08.27 집중호우","cause_detail":"피해지대가 주변지대보다 낮고 구거가 역류하는 상황","flood_grade":2,"flood_depth_m":0.5,"flood_area_m2":492.2,"source_sn":313,"data_status":"actual","official_data":true,"is_prediction":false,"source":"행정안전부 침수흔적도 · 재난안전데이터공유플랫폼 DSSP-IF-00117","collected_at":"2026-08-19T16:46:51+09:00","source_crs":"EPSG:3857","display_badges":["행안부 침수흔적도","과거 기록"]}},{"type":"Feature","id":"FLD:44200:308:8192","geometry":{"type":"MultiPolygon","coordinates":[[[[127.068857,36.775436],[127.068928,36.775424],[127.068982,36.775444],[127.068906,36.775513],[127.06879,36.775495],[127.068857,36.775436]]]]},"properties":{"id":"FLD:44200:308:8192","layer":"FLOOD_TRACE","admin_code":"44200","sido_code":"44","flood_year":"2018","occurred_at":"2018-08-27","ended_at":"2018-08-27","begin_time":"1200","end_time":"1700","disaster_name":"2018.08.27 집중호우","cause_detail":"주위 구거에서 역류하여 침수","flood_grade":2,"flood_depth_m":0.5,"flood_area_m2":174.198,"source_sn":308,"data_status":"actual","official_data":true,"is_prediction":false,"source":"행정안전부 침수흔적도 · 재난안전데이터공유플랫폼 DSSP-IF-00117","collected_at":"2026-08-19T16:46:51+09:00","source_crs":"EPSG:3857","display_badges":["행안부 침수흔적도","과거 기록"]}},{"type":"Feature","id":"FLD:44200:310:8193","geometry":{"type":"MultiPolygon","coordinates":[[[[127.06704,36.77444],[127.067143,36.774606],[127.067657,36.77461],[127.067618,36.774642],[127.067296,36.774663],[127.06701,36.774668],[127.067033,36.77461],[127.066965,36.774435],[127.06704,36.77444]]]]},"properties":{"id":"FLD:44200:310:8193","layer":"FLOOD_TRACE","admin_code":"44200","sido_code":"44","flood_year":"2018","occurred_at":"2018-08-27","ended_at":"2018-08-27","begin_time":"1200","end_time":"1700","disaster_name":"2018.08.27 집중호우","cause_detail":"피해지대가 주변지대보다 낮고 구거가 역류하여 침수된 상황.","flood_grade":2,"flood_depth_m":1.5,"flood_area_m2":1602.379,"source_sn":310,"data_status":"actual","official_data":true,"is_prediction":false,"source":"행정안전부 침수흔적도 · 재난안전데이터공유플랫폼 DSSP-IF-00117","collected_at":"2026-08-19T16:46:51+09:00","source_crs":"EPSG:3857","display_badges":["행안부 침수흔적도","과거 기록"]}},{"type":"Feature","id":"FLD:44200:2780:13517","geometry":{"type":"MultiPolygon","coordinates":[[[[127.030313,36.774925],[127.028253,36.775454],[127.028202,36.775374],[127.028175,36.775333],[127.028124,36.775281],[127.028065,36.775241],[127.027985,36.775168],[127.027952,36.775121],[127.027937,36.775104],[127.028023,36.775053],[127.028058,36.77503],[127.02807,36.775018],[127.028104,36.774973],[127.02814,36.774923],[127.028194,36.774843],[127.028203,36.774827],[127.02821,36.774819],[127.02824,36.774796],[127.028306,36.774747],[127.028362,36.77465],[127.0284,36.774552],[127.028407,36.774506],[127.028546,36.774543],[127.028663,36.774547],[127.028711,36.774527],[127.028968,36.774484],[127.029243,36.774496],[127.029295,36.774492],[127.02941,36.774518],[127.029593,36.774529],[127.029773,36.774601],[127.029846,36.774621],[127.029901,36.77465],[127.029935,36.77468],[127.030061,36.774615],[127.030095,36.774671],[127.030313,36.774925]]]]},"properties":{"id":"FLD:44200:2780:13517","layer":"FLOOD_TRACE","admin_code":"44200","sido_code":"44","flood_year":"2020","occurred_at":"2020-08-03","ended_at":"2020-08-03","begin_time":"1300","end_time":"1900","disaster_name":"8.3 집중호우","cause_detail":"하천범람으로 인한 침수","flood_grade":2,"flood_depth_m":0.761,"flood_area_m2":42058.9,"source_sn":2780,"data_status":"actual","official_data":true,"is_prediction":false,"source":"행정안전부 침수흔적도 · 재난안전데이터공유플랫폼 DSSP-IF-00117","collected_at":"2026-08-19T16:46:51+09:00","source_crs":"EPSG:3857","display_badges":["행안부 침수흔적도","과거 기록"]}},{"type":"Feature","id":"FLD:44200:2781:13518","geometry":{"type":"MultiPolygon","coordinates":[[[[127.030324,36.774299],[127.030325,36.774062],[127.030348,36.773588],[127.030545,36.773516],[127.030684,36.773397],[127.030801,36.773182],[127.030789,36.772822],[127.031111,36.772785],[127.031289,36.7736],[127.031334,36.773988],[127.030808,36.774458],[127.030702,36.774489],[127.030625,36.774483],[127.030394,36.774323],[127.030324,36.774299]]]]},"properties":{"id":"FLD:44200:2781:13518","layer":"FLOOD_TRACE","admin_code":"44200","sido_code":"44","flood_year":"2020","occurred_at":"2020-08-03","ended_at":"2020-08-03","begin_time":"1300","end_time":"1900","disaster_name":"8.3 집중호우","cause_detail":"하천범람으로 인한 침수","flood_grade":2,"flood_depth_m":0.878,"flood_area_m2":42058.9,"source_sn":2781,"data_status":"actual","official_data":true,"is_prediction":false,"source":"행정안전부 침수흔적도 · 재난안전데이터공유플랫폼 DSSP-IF-00117","collected_at":"2026-08-19T16:46:51+09:00","source_crs":"EPSG:3857","display_badges":["행안부 침수흔적도","과거 기록"]}},{"type":"Feature","id":"FLD:44200:2782:13519","geometry":{"type":"MultiPolygon","coordinates":[[[[127.030061,36.774615],[127.029935,36.77468],[127.029901,36.77465],[127.029846,36.774621],[127.029773,36.774601],[127.029593,36.774529],[127.02941,36.774518],[127.029295,36.774492],[127.029243,36.774496],[127.028968,36.774484],[127.028711,36.774527],[127.028663,36.774547],[127.028546,36.774543],[127.028407,36.774506],[127.0284,36.774552],[127.028362,36.77465],[127.028306,36.774747],[127.02824,36.774796],[127.02821,36.774819],[127.028203,36.774827],[127.028194,36.774843],[127.02814,36.774923],[127.028104,36.774973],[127.02807,36.775018],[127.028058,36.77503],[127.028023,36.775053],[127.027937,36.775104],[127.027952,36.775121],[127.027985,36.775168],[127.028065,36.775241],[127.028124,36.775281],[127.028175,36.775333],[127.028202,36.775374],[127.028253,36.775454],[127.027661,36.775606],[127.027501,36.775621],[127.027306,36.775511],[127.027534,36.774602],[127.027676,36.774027],[127.027905,36.774035],[127.027925,36.774187],[127.02798,36.774397],[127.028176,36.774313],[127.028269,36.774274],[127.028457,36.77426],[127.028651,36.77428],[127.02879,36.774163],[127.029007,36.774127],[127.030325,36.774062],[127.030324,36.774299],[127.030203,36.774452],[127.030061,36.774615]]]]},"properties":{"id":"FLD:44200:2782:13519","layer":"FLOOD_TRACE","admin_code":"44200","sido_code":"44","flood_year":"2020","occurred_at":"2020-08-03","ended_at":"2020-08-03","begin_time":"1300","end_time":"1900","disaster_name":"8.3 집중호우","cause_detail":"하천범람으로 인한 침수","flood_grade":3,"flood_depth_m":1.327,"flood_area_m2":42058.9,"source_sn":2782,"data_status":"actual","official_data":true,"is_prediction":false,"source":"행정안전부 침수흔적도 · 재난안전데이터공유플랫폼 DSSP-IF-00117","collected_at":"2026-08-19T16:46:51+09:00","source_crs":"EPSG:3857","display_badges":["행안부 침수흔적도","과거 기록"]}},{"type":"Feature","id":"FLD:44200:2783:13520","geometry":{"type":"MultiPolygon","coordinates":[[[[127.034303,36.777005],[127.034313,36.777121],[127.034349,36.777295],[127.034387,36.777474],[127.034428,36.777688],[127.034426,36.777954],[127.034429,36.778126],[127.034131,36.778195],[127.033961,36.778107],[127.033821,36.77807],[127.033812,36.777834],[127.033793,36.777473],[127.033819,36.777276],[127.034164,36.777013],[127.034303,36.777005]]]]},"properties":{"id":"FLD:44200:2783:13520","layer":"FLOOD_TRACE","admin_code":"44200","sido_code":"44","flood_year":"2020","occurred_at":"2020-08-03","ended_at":"2020-08-03","begin_time":"0900","end_time":"1500","disaster_name":"2020년 집중호우","cause_detail":"하천범람으로 인한 침수","flood_grade":1,"flood_depth_m":0.474,"flood_area_m2":9070,"source_sn":2783,"data_status":"actual","official_data":true,"is_prediction":false,"source":"행정안전부 침수흔적도 · 재난안전데이터공유플랫폼 DSSP-IF-00117","collected_at":"2026-08-19T16:46:51+09:00","source_crs":"EPSG:3857","display_badges":["행안부 침수흔적도","과거 기록"]}},{"type":"Feature","id":"FLD:44200:2784:13521","geometry":{"type":"MultiPolygon","coordinates":[[[[127.034426,36.777954],[127.034428,36.777688],[127.034387,36.777474],[127.034349,36.777295],[127.034313,36.777121],[127.034303,36.777005],[127.034484,36.776994],[127.034748,36.777083],[127.034876,36.777287],[127.034742,36.777358],[127.034831,36.777485],[127.034645,36.777588],[127.034608,36.777634],[127.034607,36.77792],[127.034426,36.777954]]]]},"properties":{"id":"FLD:44200:2784:13521","layer":"FLOOD_TRACE","admin_code":"44200","sido_code":"44","flood_year":"2020","occurred_at":"2020-08-03","ended_at":"2020-08-03","begin_time":"0900","end_time":"1500","disaster_name":"2020년 집중호우","cause_detail":"하천범람으로 인한 침수","flood_grade":2,"flood_depth_m":0.788,"flood_area_m2":9070,"source_sn":2784,"data_status":"actual","official_data":true,"is_prediction":false,"source":"행정안전부 침수흔적도 · 재난안전데이터공유플랫폼 DSSP-IF-00117","collected_at":"2026-08-19T16:46:51+09:00","source_crs":"EPSG:3857","display_badges":["행안부 침수흔적도","과거 기록"]}},{"type":"Feature","id":"FLD:44200:2785:13522","geometry":{"type":"MultiPolygon","coordinates":[[[[127.033327,36.774264],[127.033154,36.773713],[127.03307,36.772979],[127.033524,36.772952],[127.033688,36.773331],[127.03401,36.773265],[127.034495,36.77318],[127.034529,36.773129],[127.034592,36.773137],[127.034802,36.773196],[127.035093,36.773533],[127.035208,36.773765],[127.033327,36.774264]]]]},"properties":{"id":"FLD:44200:2785:13522","layer":"FLOOD_TRACE","admin_code":"44200","sido_code":"44","flood_year":"2020","occurred_at":"2020-08-03","ended_at":"2020-08-03","begin_time":"1300","end_time":"1900","disaster_name":"8.3 집중호우","cause_detail":"하천범람으로 인한 침수","flood_grade":2,"flood_depth_m":0.784,"flood_area_m2":16521.3,"source_sn":2785,"data_status":"actual","official_data":true,"is_prediction":false,"source":"행정안전부 침수흔적도 · 재난안전데이터공유플랫폼 DSSP-IF-00117","collected_at":"2026-08-19T16:46:51+09:00","source_crs":"EPSG:3857","display_badges":["행안부 침수흔적도","과거 기록"]}},{"type":"Feature","id":"FLD:44200:2789:13523","geometry":{"type":"MultiPolygon","coordinates":[[[[126.991305,36.802366],[126.99133,36.80231],[126.991923,36.80008],[126.992194,36.800104],[126.992959,36.80029],[126.993672,36.800501],[126.994221,36.800659],[126.993963,36.801594],[126.993766,36.802278],[126.993628,36.802767],[126.992433,36.802558],[126.991305,36.802366]]]]},"properties":{"id":"FLD:44200:2789:13523","layer":"FLOOD_TRACE","admin_code":"44200","sido_code":"44","flood_year":"2020","occurred_at":"2020-08-03","ended_at":"2020-08-03","begin_time":"0900","end_time":"1500","disaster_name":"8.3 집중호우","cause_detail":"하천범람으로 인한 침수","flood_grade":2,"flood_depth_m":0.599,"flood_area_m2":100313.6,"source_sn":2789,"data_status":"actual","official_data":true,"is_prediction":false,"source":"행정안전부 침수흔적도 · 재난안전데이터공유플랫폼 DSSP-IF-00117","collected_at":"2026-08-19T16:46:51+09:00","source_crs":"EPSG:3857","display_badges":["행안부 침수흔적도","과거 기록"]}},{"type":"Feature","id":"FLD:44200:2786:13524","geometry":{"type":"MultiPolygon","coordinates":[[[[126.981235,36.807256],[126.981326,36.807217],[126.981358,36.807167],[126.981546,36.807184],[126.981553,36.807174],[126.981614,36.807045],[126.981654,36.806976],[126.981744,36.806949],[126.981848,36.807],[126.981914,36.806924],[126.982033,36.806829],[126.982106,36.806826],[126.982147,36.806741],[126.982229,36.806695],[126.982476,36.806628],[126.983175,36.806698],[126.984113,36.806686],[126.983986,36.806903],[126.983674,36.806976],[126.983742,36.80713],[126.983736,36.807182],[126.983667,36.807229],[126.983088,36.807485],[126.98241,36.807782],[126.982089,36.807938],[126.981632,36.808073],[126.981161,36.808331],[126.980926,36.807868],[126.980901,36.807734],[126.980991,36.807604],[126.981235,36.807256]]]]},"properties":{"id":"FLD:44200:2786:13524","layer":"FLOOD_TRACE","admin_code":"44200","sido_code":"44","flood_year":"2020","occurred_at":"2020-08-03","ended_at":"2020-08-03","begin_time":"1300","end_time":"1900","disaster_name":"8.3 집중호우","cause_detail":"하천범람에 의한 침수","flood_grade":2,"flood_depth_m":0.667,"flood_area_m2":38758.3,"source_sn":2786,"data_status":"actual","official_data":true,"is_prediction":false,"source":"행정안전부 침수흔적도 · 재난안전데이터공유플랫폼 DSSP-IF-00117","collected_at":"2026-08-19T16:46:51+09:00","source_crs":"EPSG:3857","display_badges":["행안부 침수흔적도","과거 기록"]}},{"type":"Feature","id":"FLD:44200:2788:13537","geometry":{"type":"MultiPolygon","coordinates":[[[[126.989433,36.799778],[126.989165,36.799783],[126.989046,36.799827],[126.988948,36.799889],[126.988883,36.799963],[126.988866,36.800006],[126.988854,36.800093],[126.988866,36.80018],[126.988894,36.800279],[126.988948,36.800321],[126.988836,36.800926],[126.988696,36.80118],[126.98848,36.801609],[126.988435,36.801689],[126.988371,36.801808],[126.98816,36.802165],[126.988017,36.8021],[126.987161,36.801744],[126.98694,36.801633],[126.986686,36.801523],[126.986438,36.80142],[126.987011,36.800587],[126.987239,36.800666],[126.987586,36.800146],[126.987696,36.79998],[126.987554,36.799919],[126.987535,36.799854],[126.987481,36.7998],[126.987412,36.799743],[126.987384,36.799659],[126.987446,36.799632],[126.987574,36.79961],[126.98804,36.7996],[126.988445,36.799607],[126.988769,36.799636],[126.989074,36.799679],[126.989396,36.799675],[126.989433,36.799778]]]]},"properties":{"id":"FLD:44200:2788:13537","layer":"FLOOD_TRACE","admin_code":"44200","sido_code":"44","flood_year":"2020","occurred_at":"2020-08-03","ended_at":"2020-08-03","begin_time":"0900","end_time":"1500","disaster_name":"8.3 집중호우","cause_detail":"하천범람으로 인한 침수","flood_grade":1,"flood_depth_m":0.423,"flood_area_m2":62736.4,"source_sn":2788,"data_status":"actual","official_data":true,"is_prediction":false,"source":"행정안전부 침수흔적도 · 재난안전데이터공유플랫폼 DSSP-IF-00117","collected_at":"2026-08-19T16:46:51+09:00","source_crs":"EPSG:3857","display_badges":["행안부 침수흔적도","과거 기록"]}},{"type":"Feature","id":"FLD:44200:2787:13538","geometry":{"type":"MultiPolygon","coordinates":[[[[126.982476,36.806628],[126.982229,36.806695],[126.982147,36.806741],[126.982106,36.806826],[126.982033,36.806829],[126.981914,36.806924],[126.981848,36.807],[126.981744,36.806949],[126.981654,36.806976],[126.981614,36.807045],[126.981553,36.807174],[126.981546,36.807184],[126.981358,36.807167],[126.981326,36.807217],[126.981235,36.807256],[126.980267,36.806501],[126.980763,36.80603],[126.982104,36.806527],[126.982476,36.806628]]]]},"properties":{"id":"FLD:44200:2787:13538","layer":"FLOOD_TRACE","admin_code":"44200","sido_code":"44","flood_year":"2020","occurred_at":"2020-08-03","ended_at":"2020-08-03","begin_time":"1300","end_time":"1900","disaster_name":"8.3 집중호우","cause_detail":"하천범람에 의한 침수","flood_grade":3,"flood_depth_m":1.273,"flood_area_m2":38758.3,"source_sn":2787,"data_status":"actual","official_data":true,"is_prediction":false,"source":"행정안전부 침수흔적도 · 재난안전데이터공유플랫폼 DSSP-IF-00117","collected_at":"2026-08-19T16:46:51+09:00","source_crs":"EPSG:3857","display_badges":["행안부 침수흔적도","과거 기록"]}},{"type":"Feature","id":"FLD:44200:2790:13539","geometry":{"type":"MultiPolygon","coordinates":[[[[126.987384,36.799659],[126.987412,36.799743],[126.987481,36.7998],[126.987535,36.799854],[126.987554,36.799919],[126.987696,36.79998],[126.987586,36.800146],[126.987239,36.800666],[126.987011,36.800587],[126.986438,36.80142],[126.984897,36.800777],[126.984879,36.800739],[126.986121,36.799986],[126.987123,36.79971],[126.987384,36.799659]]]]},"properties":{"id":"FLD:44200:2790:13539","layer":"FLOOD_TRACE","admin_code":"44200","sido_code":"44","flood_year":"2020","occurred_at":"2020-08-03","ended_at":"2020-08-03","begin_time":"0900","end_time":"1500","disaster_name":"8.3 집중호우","cause_detail":"하천범람으로 인한 침수","flood_grade":3,"flood_depth_m":1.097,"flood_area_m2":62736.4,"source_sn":2790,"data_status":"actual","official_data":true,"is_prediction":false,"source":"행정안전부 침수흔적도 · 재난안전데이터공유플랫폼 DSSP-IF-00117","collected_at":"2026-08-19T16:46:51+09:00","source_crs":"EPSG:3857","display_badges":["행안부 침수흔적도","과거 기록"]}},{"type":"Feature","id":"FLD:44200:2791:13540","geometry":{"type":"MultiPolygon","coordinates":[[[[126.989006,36.801873],[126.989086,36.801485],[126.989468,36.800808],[126.989728,36.800459],[126.990076,36.800215],[126.990833,36.799979],[126.991923,36.80008],[126.99133,36.80231],[126.991305,36.802366],[126.990785,36.802295],[126.990433,36.802232],[126.990094,36.802172],[126.990125,36.802057],[126.989712,36.801984],[126.989006,36.801873]]]]},"properties":{"id":"FLD:44200:2791:13540","layer":"FLOOD_TRACE","admin_code":"44200","sido_code":"44","flood_year":"2020","occurred_at":"2020-08-03","ended_at":"2020-08-03","begin_time":"0900","end_time":"1500","disaster_name":"8.3 집중호우","cause_detail":"하천범람으로 인한 침수","flood_grade":1,"flood_depth_m":0.288,"flood_area_m2":100313.6,"source_sn":2791,"data_status":"actual","official_data":true,"is_prediction":false,"source":"행정안전부 침수흔적도 · 재난안전데이터공유플랫폼 DSSP-IF-00117","collected_at":"2026-08-19T16:46:51+09:00","source_crs":"EPSG:3857","display_badges":["행안부 침수흔적도","과거 기록"]}},{"type":"Feature","id":"FLD:44200:2792:13541","geometry":{"type":"MultiPolygon","coordinates":[[[[127.00557,36.742127],[127.005546,36.741983],[127.005492,36.74141],[127.006494,36.741367],[127.006866,36.741324],[127.007158,36.74131],[127.007476,36.741399],[127.007758,36.741455],[127.008307,36.741572],[127.008662,36.74168],[127.009086,36.741776],[127.009422,36.741816],[127.009606,36.74181],[127.010567,36.742005],[127.009965,36.742883],[127.009788,36.742977],[127.008935,36.742817],[127.007624,36.742507],[127.006905,36.742348],[127.006427,36.742252],[127.006305,36.742228],[127.006226,36.74222],[127.00557,36.742127]]]]},"properties":{"id":"FLD:44200:2792:13541","layer":"FLOOD_TRACE","admin_code":"44200","sido_code":"44","flood_year":"2020","occurred_at":"2020-08-03","ended_at":"2020-08-03","begin_time":"1300","end_time":"1900","disaster_name":"8.3 집중호우","cause_detail":"하천범람으로 인한 침수","flood_grade":3,"flood_depth_m":1.425,"flood_area_m2":47480.6,"source_sn":2792,"data_status":"actual","official_data":true,"is_prediction":false,"source":"행정안전부 침수흔적도 · 재난안전데이터공유플랫폼 DSSP-IF-00117","collected_at":"2026-08-19T16:46:51+09:00","source_crs":"EPSG:3857","display_badges":["행안부 침수흔적도","과거 기록"]}}]}