{"type":"FeatureCollection","features":[{"type":"Feature","id":"FLD:11200:60:30179","geometry":{"type":"MultiPolygon","coordinates":[[[[127.050944,37.538026],[127.050936,37.538091],[127.050915,37.538144],[127.05083,37.53823],[127.050815,37.538224],[127.050783,37.538185],[127.050736,37.538132],[127.050771,37.538123],[127.050754,37.538082],[127.050709,37.538017],[127.050825,37.538016],[127.050944,37.538026]]]]},"properties":{"id":"FLD:11200:60:30179","layer":"FLOOD_TRACE","admin_code":"11200","sido_code":"11","flood_year":"2022","occurred_at":"2022-09-05","ended_at":"2022-09-06","begin_time":"0000","end_time":"0900","disaster_name":"2022년 9.3~7. 제11호 태풍 힌남노","cause_detail":"개인배수문제","flood_grade":1,"flood_depth_m":0.1,"flood_area_m2":165,"source_sn":60,"data_status":"actual","official_data":true,"is_prediction":false,"source":"행정안전부 침수흔적도 · 재난안전데이터공유플랫폼 DSSP-IF-00117","collected_at":"2026-08-19T16:46:51+09:00","source_crs":"EPSG:3857","display_badges":["행안부 침수흔적도","과거 기록"]}},{"type":"Feature","id":"FLD:11200:61:30180","geometry":{"type":"MultiPolygon","coordinates":[[[[127.062437,37.539771],[127.062483,37.539853],[127.062452,37.539893],[127.062349,37.539837],[127.062425,37.53975],[127.062437,37.539771]]]]},"properties":{"id":"FLD:11200:61:30180","layer":"FLOOD_TRACE","admin_code":"11200","sido_code":"11","flood_year":"2022","occurred_at":"2022-09-14","ended_at":"2022-09-14","begin_time":"1600","end_time":"2100","disaster_name":"2022년 9.3~7. 제11호 태풍 힌남노","cause_detail":"개인배수문제","flood_grade":1,"flood_depth_m":0.1,"flood_area_m2":200,"source_sn":61,"data_status":"actual","official_data":true,"is_prediction":false,"source":"행정안전부 침수흔적도 · 재난안전데이터공유플랫폼 DSSP-IF-00117","collected_at":"2026-08-19T16:46:51+09:00","source_crs":"EPSG:3857","display_badges":["행안부 침수흔적도","과거 기록"]}},{"type":"Feature","id":"FLD:11200:62:30181","geometry":{"type":"MultiPolygon","coordinates":[[[[127.063136,37.541745],[127.063034,37.541776],[127.063022,37.541772],[127.062984,37.54176],[127.062952,37.541702],[127.063087,37.541656],[127.063136,37.541745]]]]},"properties":{"id":"FLD:11200:62:30181","layer":"FLOOD_TRACE","admin_code":"11200","sido_code":"11","flood_year":"2022","occurred_at":"2022-09-06","ended_at":"2022-09-07","begin_time":"0000","end_time":"0900","disaster_name":"2022년 9.3~7. 제11호 태풍 힌남노","cause_detail":"개인배수문제","flood_grade":1,"flood_depth_m":0.1,"flood_area_m2":100,"source_sn":62,"data_status":"actual","official_data":true,"is_prediction":false,"source":"행정안전부 침수흔적도 · 재난안전데이터공유플랫폼 DSSP-IF-00117","collected_at":"2026-08-19T16:46:51+09:00","source_crs":"EPSG:3857","display_badges":["행안부 침수흔적도","과거 기록"]}},{"type":"Feature","id":"FLD:11200:63:30182","geometry":{"type":"MultiPolygon","coordinates":[[[[127.056827,37.53982],[127.056795,37.53974],[127.057005,37.53969],[127.057037,37.539776],[127.056938,37.539802],[127.056934,37.539792],[127.056827,37.53982]]]]},"properties":{"id":"FLD:11200:63:30182","layer":"FLOOD_TRACE","admin_code":"11200","sido_code":"11","flood_year":"2022","occurred_at":"2022-09-14","ended_at":"2022-09-14","begin_time":"1600","end_time":"2100","disaster_name":"2022년 9.3~7. 제11호 태풍 힌남노","cause_detail":"개인배수문제","flood_grade":1,"flood_depth_m":0.1,"flood_area_m2":80,"source_sn":63,"data_status":"actual","official_data":true,"is_prediction":false,"source":"행정안전부 침수흔적도 · 재난안전데이터공유플랫폼 DSSP-IF-00117","collected_at":"2026-08-19T16:46:51+09:00","source_crs":"EPSG:3857","display_badges":["행안부 침수흔적도","과거 기록"]}}]}