{"type":"FeatureCollection","features":[{"type":"Feature","id":"FLD:12740:102:35986","geometry":{"type":"MultiPolygon","coordinates":[[[[127.12228,34.458561],[127.122128,34.458424],[127.122239,34.45834],[127.122279,34.458311],[127.122428,34.458189],[127.122486,34.458143],[127.122508,34.458117],[127.122541,34.458085],[127.12254,34.458067],[127.12278,34.457943],[127.122833,34.457915],[127.122884,34.457888],[127.12309,34.458158],[127.123186,34.458286],[127.123213,34.458322],[127.123424,34.458586],[127.123452,34.458598],[127.123477,34.45859],[127.123488,34.458582],[127.123569,34.458628],[127.123681,34.45869],[127.123701,34.458718],[127.123755,34.458759],[127.123828,34.458813],[127.123872,34.458852],[127.12393,34.458902],[127.123968,34.458935],[127.124004,34.458963],[127.124045,34.458952],[127.124095,34.458937],[127.124139,34.458912],[127.124177,34.458955],[127.124205,34.458977],[127.124244,34.459007],[127.124257,34.459012],[127.124275,34.459021],[127.124305,34.459047],[127.124338,34.459097],[127.124359,34.459121],[127.124382,34.45916],[127.124418,34.459198],[127.124442,34.459232],[127.124472,34.459293],[127.124498,34.459346],[127.124515,34.459364],[127.124516,34.459368],[127.124559,34.459361],[127.124599,34.459364],[127.124615,34.45939],[127.124624,34.459414],[127.12463,34.459423],[127.124686,34.459447],[127.124783,34.459489],[127.124824,34.459507],[127.124838,34.45951],[127.124879,34.459517],[127.124989,34.459611],[127.124992,34.459636],[127.124996,34.459666],[127.12504,34.459838],[127.125049,34.459869],[127.125058,34.45987],[127.125089,34.459873],[127.125129,34.459878],[127.125179,34.459885],[127.125216,34.459896],[127.125221,34.459899],[127.125292,34.459943],[127.12537,34.459992],[127.125384,34.46],[127.125505,34.46005],[127.125557,34.460088],[127.125646,34.460091],[127.125729,34.460096],[127.12575,34.460094],[127.125761,34.460108],[127.12577,34.46012],[127.125789,34.460144],[127.125798,34.460156],[127.12585,34.460199],[127.125884,34.460229],[127.126034,34.460359],[127.126144,34.460469],[127.126201,34.460526],[127.12638,34.46083],[127.126432,34.460911],[127.126514,34.461037],[127.126711,34.461338],[127.126763,34.461407],[127.126726,34.461431],[127.12664,34.461486],[127.126616,34.461503],[127.126679,34.461569],[127.126704,34.461596],[127.126772,34.461668],[127.126826,34.461727],[127.126867,34.461769],[127.126891,34.461795],[127.126913,34.461817],[127.126937,34.461841],[127.126955,34.461858],[127.12688,34.4619],[127.126795,34.46196],[127.126687,34.462036],[127.126536,34.462141],[127.12644,34.462164],[127.126407,34.462188],[127.126383,34.462206],[127.126351,34.462178],[127.126201,34.462044],[127.126131,34.461982],[127.126053,34.461914],[127.125903,34.461781],[127.125755,34.461648],[127.125468,34.461391],[127.125349,34.461285],[127.125304,34.461294],[127.12529,34.461291],[127.125275,34.461287],[127.125267,34.461286],[127.125165,34.46127],[127.125026,34.461235],[127.124905,34.461206],[127.124887,34.461201],[127.124806,34.461156],[127.124758,34.461112],[127.12471,34.461065],[127.124666,34.461031],[127.124559,34.460947],[127.124554,34.460942],[127.124452,34.460844],[127.124401,34.460758],[127.124369,34.460742],[127.124312,34.460733],[127.124291,34.460729],[127.12425,34.460729],[127.124143,34.460678],[127.124072,34.46058],[127.12398,34.460459],[127.123987,34.460447],[127.123989,34.460442],[127.123883,34.460308],[127.123812,34.460218],[127.123755,34.460148],[127.123659,34.460031],[127.12351,34.459848],[127.123499,34.459856],[127.123478,34.459818],[127.123401,34.459672],[127.123341,34.45958],[127.123261,34.459496],[127.123154,34.459384],[127.12309,34.459282],[127.123025,34.459222],[127.122655,34.458896],[127.122488,34.458745],[127.122465,34.458725],[127.122399,34.458667],[127.12228,34.458561]]]]},"properties":{"id":"FLD:12740:102:35986","layer":"FLOOD_TRACE","admin_code":"12740","sido_code":"46","flood_year":"2007","occurred_at":"2007-09-16","ended_at":"2007-09-18","begin_time":"0000","end_time":"0000","disaster_name":"집중호우 및 제11호 태풍“나리”피해","cause_detail":"집중호우와 하천의 범람","flood_grade":2,"flood_depth_m":0.84,"flood_area_m2":307519.1,"source_sn":102,"data_status":"actual","official_data":true,"is_prediction":false,"source":"행정안전부 침수흔적도 · 재난안전데이터공유플랫폼 DSSP-IF-00117","collected_at":"2026-08-19T16:46:51+09:00","source_crs":"EPSG:3857","display_badges":["행안부 침수흔적도","과거 기록"]}},{"type":"Feature","id":"FLD:12740:101:35999","geometry":{"type":"MultiPolygon","coordinates":[[[[127.119701,34.458156],[127.119697,34.458195],[127.119598,34.458233],[127.119561,34.458224],[127.119435,34.458273],[127.119153,34.458225],[127.11907,34.458192],[127.119078,34.458169],[127.118953,34.458128],[127.118852,34.458097],[127.118705,34.45805],[127.11864,34.458031],[127.118606,34.458012],[127.118558,34.457972],[127.118477,34.457913],[127.118253,34.457673],[127.118061,34.457485],[127.117709,34.457522],[127.117463,34.457527],[127.117148,34.457538],[127.116809,34.457552],[127.11642,34.457535],[127.116292,34.457545],[127.11629,34.457531],[127.116227,34.457523],[127.11622,34.457507],[127.116172,34.457509],[127.116104,34.457509],[127.116025,34.457529],[127.115986,34.45753],[127.115976,34.457506],[127.115974,34.457448],[127.115933,34.457434],[127.115949,34.457367],[127.115873,34.457382],[127.115778,34.457354],[127.115763,34.457326],[127.115593,34.457309],[127.115475,34.457303],[127.115387,34.45731],[127.115138,34.456638],[127.115131,34.456593],[127.114807,34.45572],[127.11437,34.454541],[127.114526,34.454479],[127.114925,34.454316],[127.115118,34.454215],[127.115157,34.4542],[127.115229,34.454194],[127.115366,34.454177],[127.115381,34.454172],[127.11546,34.454165],[127.115614,34.454151],[127.115913,34.454129],[127.115994,34.454122],[127.116092,34.454115],[127.11612,34.454113],[127.116159,34.454109],[127.116207,34.454104],[127.116337,34.454055],[127.116345,34.454048],[127.116375,34.454044],[127.116403,34.454032],[127.116408,34.454028],[127.11668,34.453908],[127.116865,34.453826],[127.116954,34.453789],[127.117003,34.453761],[127.117065,34.453724],[127.117125,34.453706],[127.117229,34.453676],[127.11727,34.453665],[127.11739,34.453613],[127.117427,34.453596],[127.117565,34.453549],[127.117635,34.453523],[127.117763,34.453543],[127.117778,34.453553],[127.117935,34.453657],[127.117959,34.453671],[127.118054,34.453756],[127.118068,34.453769],[127.118195,34.453869],[127.118362,34.454022],[127.11855,34.454132],[127.118587,34.454153],[127.118748,34.454257],[127.118845,34.454318],[127.118875,34.454337],[127.118909,34.45437],[127.11896,34.454419],[127.119024,34.454481],[127.119106,34.454558],[127.119326,34.454635],[127.119714,34.454743],[127.119808,34.454768],[127.119878,34.454797],[127.119983,34.454804],[127.120119,34.454813],[127.120175,34.455022],[127.120265,34.455205],[127.120353,34.455447],[127.120388,34.455551],[127.120428,34.455635],[127.120439,34.455676],[127.120467,34.45573],[127.120515,34.455842],[127.120557,34.455938],[127.120635,34.456076],[127.120714,34.45629],[127.120735,34.456326],[127.120753,34.456415],[127.120842,34.456602],[127.120869,34.456657],[127.120994,34.456917],[127.121149,34.457252],[127.12126,34.457524],[127.121276,34.45756],[127.121295,34.457606],[127.121343,34.457679],[127.12146,34.457976],[127.121443,34.457981],[127.121424,34.457977],[127.121371,34.457964],[127.121155,34.457882],[127.121044,34.457826],[127.120963,34.457772],[127.120869,34.457748],[127.120557,34.457888],[127.120379,34.457954],[127.120107,34.45804],[127.120075,34.458061],[127.120025,34.458086],[127.119967,34.458093],[127.119701,34.458156]]]]},"properties":{"id":"FLD:12740:101:35999","layer":"FLOOD_TRACE","admin_code":"12740","sido_code":"46","flood_year":"2007","occurred_at":"2007-09-16","ended_at":"2007-09-18","begin_time":"0000","end_time":"0000","disaster_name":"집중호우 및 제11호 태풍“나리”피해","cause_detail":"집중호우와 하천의 범람","flood_grade":2,"flood_depth_m":1.72,"flood_area_m2":307519.1,"source_sn":101,"data_status":"actual","official_data":true,"is_prediction":false,"source":"행정안전부 침수흔적도 · 재난안전데이터공유플랫폼 DSSP-IF-00117","collected_at":"2026-08-19T16:46:51+09:00","source_crs":"EPSG:3857","display_badges":["행안부 침수흔적도","과거 기록"]}},{"type":"Feature","id":"FLD:12740:103:36051","geometry":{"type":"MultiPolygon","coordinates":[[[[127.341626,34.666725],[127.341146,34.666462],[127.341098,34.666437],[127.340259,34.665966],[127.340194,34.665937],[127.339212,34.66539],[127.339185,34.665374],[127.338274,34.664861],[127.33811,34.665063],[127.338056,34.665034],[127.337124,34.664514],[127.337165,34.664493],[127.337208,34.664474],[127.337289,34.664439],[127.337306,34.664435],[127.337447,34.664408],[127.337587,34.664376],[127.3376,34.664373],[127.337656,34.664353],[127.337806,34.664289],[127.337844,34.664211],[127.337758,34.664122],[127.337819,34.664038],[127.337863,34.663984],[127.337983,34.663858],[127.338065,34.663783],[127.338119,34.663659],[127.33818,34.663586],[127.338894,34.663984],[127.338916,34.663995],[127.338954,34.664017],[127.339897,34.664531],[127.339908,34.664538],[127.340887,34.665079],[127.340905,34.66509],[127.340956,34.665117],[127.341588,34.665466],[127.341612,34.665522],[127.341711,34.665674],[127.341733,34.665728],[127.341787,34.665824],[127.34186,34.665874],[127.341921,34.665913],[127.342064,34.666092],[127.342173,34.666202],[127.342178,34.666236],[127.342159,34.666284],[127.342137,34.666359],[127.34213,34.666422],[127.342132,34.666454],[127.342169,34.666511],[127.342242,34.666609],[127.342071,34.666641],[127.341878,34.666676],[127.341736,34.666707],[127.341626,34.666725]]]]},"properties":{"id":"FLD:12740:103:36051","layer":"FLOOD_TRACE","admin_code":"12740","sido_code":"46","flood_year":"2007","occurred_at":"2007-09-14","ended_at":"2007-09-18","begin_time":"0000","end_time":"0000","disaster_name":"집중호우 및 제11호 태풍“나리”피해","cause_detail":"하천 배수여건 불량으로 하천범람","flood_grade":1,"flood_depth_m":0.43,"flood_area_m2":117563.1,"source_sn":103,"data_status":"actual","official_data":true,"is_prediction":false,"source":"행정안전부 침수흔적도 · 재난안전데이터공유플랫폼 DSSP-IF-00117","collected_at":"2026-08-19T16:46:51+09:00","source_crs":"EPSG:3857","display_badges":["행안부 침수흔적도","과거 기록"]}},{"type":"Feature","id":"FLD:12740:105:36052","geometry":{"type":"MultiPolygon","coordinates":[[[[127.32869,34.658701],[127.328808,34.658323],[127.32884,34.657968],[127.328683,34.657955],[127.328683,34.657754],[127.328716,34.657548],[127.328866,34.657568],[127.329592,34.657664],[127.330064,34.657728],[127.330061,34.657794],[127.330056,34.657839],[127.330036,34.658062],[127.330014,34.658298],[127.330011,34.658334],[127.329996,34.658497],[127.329996,34.658506],[127.329966,34.658838],[127.329964,34.658855],[127.329955,34.658952],[127.329936,34.65916],[127.329935,34.659177],[127.32988,34.659209],[127.329417,34.659198],[127.329354,34.659176],[127.329074,34.658987],[127.328812,34.658795],[127.32869,34.658701]]]]},"properties":{"id":"FLD:12740:105:36052","layer":"FLOOD_TRACE","admin_code":"12740","sido_code":"46","flood_year":"2007","occurred_at":"2007-09-14","ended_at":"2007-09-18","begin_time":"0000","end_time":"0000","disaster_name":"집중호우 및 제11호 태풍“나리”피해","cause_detail":"고지대 다량의 빗물 유입 및 하천범람","flood_grade":3,"flood_depth_m":1.34,"flood_area_m2":32649.8,"source_sn":105,"data_status":"actual","official_data":true,"is_prediction":false,"source":"행정안전부 침수흔적도 · 재난안전데이터공유플랫폼 DSSP-IF-00117","collected_at":"2026-08-19T16:46:51+09:00","source_crs":"EPSG:3857","display_badges":["행안부 침수흔적도","과거 기록"]}},{"type":"Feature","id":"FLD:12740:104:36053","geometry":{"type":"MultiPolygon","coordinates":[[[[127.326654,34.657339],[127.326701,34.657314],[127.326844,34.657271],[127.32725,34.65724],[127.327369,34.657261],[127.327679,34.657348],[127.327963,34.657425],[127.328134,34.657453],[127.328413,34.657509],[127.328716,34.657548],[127.328683,34.657754],[127.328683,34.657955],[127.32884,34.657968],[127.328808,34.658323],[127.32869,34.658701],[127.327996,34.658229],[127.3279,34.658163],[127.327593,34.657968],[127.327472,34.657891],[127.327334,34.657795],[127.32686,34.657475],[127.326674,34.657381],[127.326654,34.657339]]]]},"properties":{"id":"FLD:12740:104:36053","layer":"FLOOD_TRACE","admin_code":"12740","sido_code":"46","flood_year":"2007","occurred_at":"2007-09-14","ended_at":"2007-09-18","begin_time":"0000","end_time":"0000","disaster_name":"집중호우 및 제11호 태풍“나리”피해","cause_detail":"고지대 다량의 빗물 유입 및 하천범람","flood_grade":2,"flood_depth_m":0.75,"flood_area_m2":32649.8,"source_sn":104,"data_status":"actual","official_data":true,"is_prediction":false,"source":"행정안전부 침수흔적도 · 재난안전데이터공유플랫폼 DSSP-IF-00117","collected_at":"2026-08-19T16:46:51+09:00","source_crs":"EPSG:3857","display_badges":["행안부 침수흔적도","과거 기록"]}},{"type":"Feature","id":"FLD:12740:106:36054","geometry":{"type":"MultiPolygon","coordinates":[[[[127.334959,34.666723],[127.334978,34.666698],[127.335152,34.666461],[127.335317,34.666267],[127.335414,34.666165],[127.335557,34.665968],[127.33565,34.665827],[127.335715,34.665731],[127.33578,34.665626],[127.335862,34.665495],[127.335863,34.665496],[127.336037,34.665261],[127.336085,34.665196],[127.336203,34.665034],[127.336315,34.664947],[127.336432,34.664884],[127.336504,34.664855],[127.336591,34.664826],[127.336625,34.664815],[127.336676,34.664793],[127.336717,34.664757],[127.336803,34.664696],[127.336959,34.664607],[127.33709,34.664532],[127.337124,34.664514],[127.338056,34.665034],[127.33811,34.665063],[127.338274,34.664861],[127.339185,34.665374],[127.339212,34.66539],[127.340194,34.665937],[127.340259,34.665966],[127.341098,34.666437],[127.341146,34.666462],[127.341626,34.666725],[127.34145,34.666753],[127.341339,34.666782],[127.341226,34.666798],[127.340873,34.666802],[127.340809,34.6668],[127.340605,34.666814],[127.340506,34.666817],[127.340317,34.666816],[127.34001,34.666835],[127.339821,34.666834],[127.339739,34.666819],[127.339649,34.6668],[127.3392,34.66661],[127.338468,34.666283],[127.338118,34.666146],[127.337825,34.666004],[127.33759,34.665948],[127.337414,34.665939],[127.337108,34.666005],[127.337024,34.666],[127.336458,34.666118],[127.336145,34.666187],[127.336032,34.666228],[127.335955,34.666256],[127.335762,34.66635],[127.335132,34.666703],[127.335081,34.666726],[127.335036,34.666736],[127.335016,34.666738],[127.334959,34.666723]]]]},"properties":{"id":"FLD:12740:106:36054","layer":"FLOOD_TRACE","admin_code":"12740","sido_code":"46","flood_year":"2007","occurred_at":"2007-09-14","ended_at":"2007-09-18","begin_time":"0000","end_time":"0000","disaster_name":"집중호우 및 제11호 태풍“나리”피해","cause_detail":"하천 배수여건 불량으로 하천범람","flood_grade":2,"flood_depth_m":0.86,"flood_area_m2":117563.1,"source_sn":106,"data_status":"actual","official_data":true,"is_prediction":false,"source":"행정안전부 침수흔적도 · 재난안전데이터공유플랫폼 DSSP-IF-00117","collected_at":"2026-08-19T16:46:51+09:00","source_crs":"EPSG:3857","display_badges":["행안부 침수흔적도","과거 기록"]}},{"type":"Feature","id":"FLD:12740:85:36395","geometry":{"type":"MultiPolygon","coordinates":[[[[127.288361,34.608182],[127.288331,34.608092],[127.28825,34.607951],[127.288017,34.607661],[127.28778,34.607569],[127.287997,34.60754],[127.288172,34.607351],[127.289116,34.606769],[127.289164,34.606649],[127.289429,34.606488],[127.28952,34.60634],[127.289908,34.60621],[127.29063,34.605709],[127.290961,34.605626],[127.2911,34.605797],[127.289956,34.606532],[127.290311,34.606877],[127.29056,34.607455],[127.290076,34.607591],[127.289519,34.607861],[127.288361,34.608182]]]]},"properties":{"id":"FLD:12740:85:36395","layer":"FLOOD_TRACE","admin_code":"12740","sido_code":"46","flood_year":"2007","occurred_at":"2007-09-16","ended_at":"2007-09-18","begin_time":"0000","end_time":"0000","disaster_name":"집중호우 및 제11호 태풍 ‘나리’피","cause_detail":"집중호우와 하천 통수단면의 절대부족으로 하천범람","flood_grade":1,"flood_depth_m":0.4,"flood_area_m2":56815.1,"source_sn":85,"data_status":"actual","official_data":true,"is_prediction":false,"source":"행정안전부 침수흔적도 · 재난안전데이터공유플랫폼 DSSP-IF-00117","collected_at":"2026-08-19T16:46:51+09:00","source_crs":"EPSG:3857","display_badges":["행안부 침수흔적도","과거 기록"]}},{"type":"Feature","id":"FLD:12740:84:36396","geometry":{"type":"MultiPolygon","coordinates":[[[[127.285559,34.608366],[127.285546,34.608261],[127.285477,34.607947],[127.285302,34.607896],[127.285401,34.607444],[127.285407,34.607404],[127.285851,34.607403],[127.286517,34.6074],[127.286751,34.607429],[127.287311,34.607491],[127.28778,34.607569],[127.288017,34.607661],[127.28825,34.607951],[127.288331,34.608092],[127.288361,34.608182],[127.287752,34.608353],[127.287263,34.608466],[127.286792,34.608503],[127.286132,34.608415],[127.285799,34.608393],[127.285559,34.608366]]]]},"properties":{"id":"FLD:12740:84:36396","layer":"FLOOD_TRACE","admin_code":"12740","sido_code":"46","flood_year":"2007","occurred_at":"2007-09-16","ended_at":"2007-09-18","begin_time":"0000","end_time":"0000","disaster_name":"집중호우 및 제11호 태풍 ‘나리’피","cause_detail":"집중호우와 하천 통수단면의 절대부족으로 하천범람","flood_grade":2,"flood_depth_m":0.65,"flood_area_m2":56815.1,"source_sn":84,"data_status":"actual","official_data":true,"is_prediction":false,"source":"행정안전부 침수흔적도 · 재난안전데이터공유플랫폼 DSSP-IF-00117","collected_at":"2026-08-19T16:46:51+09:00","source_crs":"EPSG:3857","display_badges":["행안부 침수흔적도","과거 기록"]}},{"type":"Feature","id":"FLD:12740:91:36443","geometry":{"type":"MultiPolygon","coordinates":[[[[127.137963,34.573274],[127.137211,34.572869],[127.137628,34.572706],[127.137729,34.572709],[127.137814,34.572627],[127.13797,34.572444],[127.138102,34.572271],[127.138212,34.572145],[127.138368,34.572038],[127.138535,34.571903],[127.138596,34.571885],[127.139021,34.572116],[127.139158,34.572595],[127.139208,34.572723],[127.139158,34.573024],[127.139131,34.573044],[127.139085,34.57311],[127.139079,34.573133],[127.139,34.573135],[127.13896,34.573157],[127.138821,34.573254],[127.138779,34.573254],[127.138688,34.573228],[127.138631,34.573223],[127.1386,34.573216],[127.138568,34.573195],[127.138548,34.57319],[127.138462,34.573183],[127.138383,34.573193],[127.138235,34.573252],[127.137963,34.573274]]]]},"properties":{"id":"FLD:12740:91:36443","layer":"FLOOD_TRACE","admin_code":"12740","sido_code":"46","flood_year":"2007","occurred_at":"2007-09-14","ended_at":"2007-09-14","begin_time":"0000","end_time":"0000","disaster_name":"집중호우 및 제11호 태풍 ‘나리’피","cause_detail":"집중호우와 만조 시 해수유입으로 침수","flood_grade":1,"flood_depth_m":0.44,"flood_area_m2":61991.7,"source_sn":91,"data_status":"actual","official_data":true,"is_prediction":false,"source":"행정안전부 침수흔적도 · 재난안전데이터공유플랫폼 DSSP-IF-00117","collected_at":"2026-08-19T16:46:51+09:00","source_crs":"EPSG:3857","display_badges":["행안부 침수흔적도","과거 기록"]}},{"type":"Feature","id":"FLD:12740:89:36444","geometry":{"type":"MultiPolygon","coordinates":[[[[127.135926,34.53391],[127.135938,34.533544],[127.135927,34.533061],[127.135942,34.532636],[127.137892,34.532488],[127.138549,34.532441],[127.138775,34.534287],[127.137028,34.534434],[127.136556,34.534186],[127.135926,34.53391]]]]},"properties":{"id":"FLD:12740:89:36444","layer":"FLOOD_TRACE","admin_code":"12740","sido_code":"46","flood_year":"2007","occurred_at":"2007-09-16","ended_at":"2007-09-18","begin_time":"0000","end_time":"0000","disaster_name":"집중호우 및 제11호 태풍“나리”피해","cause_detail":"배수펌프장 노후와 하천 통수단면의 절대부족으로 하천범람","flood_grade":3,"flood_depth_m":1.22,"flood_area_m2":183191.1,"source_sn":89,"data_status":"actual","official_data":true,"is_prediction":false,"source":"행정안전부 침수흔적도 · 재난안전데이터공유플랫폼 DSSP-IF-00117","collected_at":"2026-08-19T16:46:51+09:00","source_crs":"EPSG:3857","display_badges":["행안부 침수흔적도","과거 기록"]}},{"type":"Feature","id":"FLD:12740:86:36445","geometry":{"type":"MultiPolygon","coordinates":[[[[127.134118,34.572315],[127.135175,34.572339],[127.135538,34.572567],[127.135878,34.572742],[127.136284,34.573171],[127.136565,34.573427],[127.137383,34.574013],[127.137356,34.574093],[127.137343,34.574166],[127.137326,34.574223],[127.137312,34.574305],[127.137287,34.574383],[127.13726,34.574452],[127.137221,34.574609],[127.137205,34.57466],[127.137174,34.574923],[127.137184,34.575036],[127.137239,34.575161],[127.136858,34.575152],[127.136794,34.575182],[127.136662,34.574515],[127.136636,34.574394],[127.136615,34.574324],[127.136605,34.574263],[127.136573,34.574157],[127.136527,34.574025],[127.136478,34.573973],[127.136387,34.57385],[127.136364,34.573788],[127.136355,34.573748],[127.136353,34.5737],[127.136338,34.57365],[127.136294,34.573593],[127.136246,34.573544],[127.136203,34.573475],[127.136146,34.573394],[127.136113,34.573368],[127.13609,34.573361],[127.135979,34.573249],[127.135932,34.573191],[127.135729,34.573],[127.135686,34.572975],[127.135091,34.572618],[127.135156,34.572469],[127.135155,34.572465],[127.1351,34.572432],[127.135082,34.572428],[127.135056,34.572464],[127.135021,34.572545],[127.134941,34.572523],[127.134873,34.572513],[127.134651,34.572483],[127.13458,34.572482],[127.134471,34.572481],[127.134285,34.572486],[127.134223,34.572489],[127.134159,34.572494],[127.13414,34.572466],[127.134118,34.572315]]]]},"properties":{"id":"FLD:12740:86:36445","layer":"FLOOD_TRACE","admin_code":"12740","sido_code":"46","flood_year":"2007","occurred_at":"2007-09-14","ended_at":"2007-09-14","begin_time":"0000","end_time":"0000","disaster_name":"집중호우 및 제11호 태풍 ‘나리’피","cause_detail":"집중호우와 만조 시 해수유입으로 침수","flood_grade":3,"flood_depth_m":1.25,"flood_area_m2":61991.7,"source_sn":86,"data_status":"actual","official_data":true,"is_prediction":false,"source":"행정안전부 침수흔적도 · 재난안전데이터공유플랫폼 DSSP-IF-00117","collected_at":"2026-08-19T16:46:51+09:00","source_crs":"EPSG:3857","display_badges":["행안부 침수흔적도","과거 기록"]}},{"type":"Feature","id":"FLD:12740:90:36446","geometry":{"type":"MultiPolygon","coordinates":[[[[127.137748,34.531813],[127.136908,34.531341],[127.136575,34.531113],[127.136489,34.531012],[127.136422,34.530794],[127.136456,34.530296],[127.136572,34.529763],[127.13666,34.529262],[127.136744,34.527875],[127.137349,34.526805],[127.137418,34.526169],[127.138468,34.526937],[127.138616,34.527051],[127.138737,34.527208],[127.138621,34.527657],[127.138559,34.52791],[127.138528,34.528044],[127.138376,34.528719],[127.138334,34.528906],[127.138132,34.529985],[127.13819,34.530188],[127.138429,34.530819],[127.138537,34.530818],[127.138083,34.531295],[127.137748,34.531813]]]]},"properties":{"id":"FLD:12740:90:36446","layer":"FLOOD_TRACE","admin_code":"12740","sido_code":"46","flood_year":"2007","occurred_at":"2007-09-16","ended_at":"2007-09-18","begin_time":"0000","end_time":"0000","disaster_name":"집중호우 및 제11호 태풍“나리”피해","cause_detail":"배수펌프장 노후와 하천 통수단면의 절대부족으로 하천범람","flood_grade":1,"flood_depth_m":0.44,"flood_area_m2":183191.1,"source_sn":90,"data_status":"actual","official_data":true,"is_prediction":false,"source":"행정안전부 침수흔적도 · 재난안전데이터공유플랫폼 DSSP-IF-00117","collected_at":"2026-08-19T16:46:51+09:00","source_crs":"EPSG:3857","display_badges":["행안부 침수흔적도","과거 기록"]}},{"type":"Feature","id":"FLD:12740:87:36447","geometry":{"type":"MultiPolygon","coordinates":[[[[127.138775,34.534287],[127.138549,34.532441],[127.137892,34.532488],[127.138292,34.532341],[127.13829,34.532153],[127.137835,34.531858],[127.137748,34.531813],[127.138083,34.531295],[127.138537,34.530818],[127.138698,34.530817],[127.13897,34.531063],[127.139102,34.531052],[127.13917,34.531149],[127.139279,34.531173],[127.139408,34.531123],[127.13948,34.531066],[127.139574,34.530946],[127.139887,34.530895],[127.140121,34.530879],[127.13999,34.532085],[127.139939,34.532582],[127.139751,34.534204],[127.138775,34.534287]]]]},"properties":{"id":"FLD:12740:87:36447","layer":"FLOOD_TRACE","admin_code":"12740","sido_code":"46","flood_year":"2007","occurred_at":"2007-09-16","ended_at":"2007-09-18","begin_time":"0000","end_time":"0000","disaster_name":"집중호우 및 제11호 태풍“나리”피해","cause_detail":"배수펌프장 노후와 하천 통수단면의 절대부족으로 하천범람","flood_grade":2,"flood_depth_m":0.6,"flood_area_m2":183191.1,"source_sn":87,"data_status":"actual","official_data":true,"is_prediction":false,"source":"행정안전부 침수흔적도 · 재난안전데이터공유플랫폼 DSSP-IF-00117","collected_at":"2026-08-19T16:46:51+09:00","source_crs":"EPSG:3857","display_badges":["행안부 침수흔적도","과거 기록"]}},{"type":"Feature","id":"FLD:12740:88:36448","geometry":{"type":"MultiPolygon","coordinates":[[[[127.134118,34.572315],[127.134168,34.57215],[127.134133,34.572041],[127.134227,34.571736],[127.134422,34.571502],[127.134587,34.5715],[127.134859,34.571452],[127.13502,34.571285],[127.135441,34.571278],[127.135584,34.57162],[127.135828,34.57196],[127.135879,34.571963],[127.135946,34.572007],[127.136017,34.5721],[127.13607,34.572192],[127.136097,34.5723],[127.136042,34.572489],[127.136041,34.572503],[127.136108,34.572558],[127.136144,34.572641],[127.136247,34.572747],[127.13638,34.572827],[127.13645,34.572882],[127.136502,34.572919],[127.136867,34.572983],[127.137211,34.572869],[127.137963,34.573274],[127.137765,34.573523],[127.137476,34.573817],[127.137409,34.573874],[127.137385,34.573926],[127.137383,34.574013],[127.136565,34.573427],[127.136284,34.573171],[127.135878,34.572742],[127.135538,34.572567],[127.135175,34.572339],[127.134118,34.572315]]]]},"properties":{"id":"FLD:12740:88:36448","layer":"FLOOD_TRACE","admin_code":"12740","sido_code":"46","flood_year":"2007","occurred_at":"2007-09-14","ended_at":"2007-09-14","begin_time":"0000","end_time":"0000","disaster_name":"집중호우 및 제11호 태풍 ‘나리’피","cause_detail":"집중호우와 만조 시 해수유입으로 침수","flood_grade":2,"flood_depth_m":0.85,"flood_area_m2":61991.7,"source_sn":88,"data_status":"actual","official_data":true,"is_prediction":false,"source":"행정안전부 침수흔적도 · 재난안전데이터공유플랫폼 DSSP-IF-00117","collected_at":"2026-08-19T16:46:51+09:00","source_crs":"EPSG:3857","display_badges":["행안부 침수흔적도","과거 기록"]}},{"type":"Feature","id":"FLD:12740:92:36449","geometry":{"type":"MultiPolygon","coordinates":[[[[127.209431,34.568895],[127.209711,34.568967],[127.209997,34.568999],[127.210503,34.569214],[127.210775,34.569291],[127.210971,34.56926],[127.211468,34.569061],[127.211669,34.568985],[127.211829,34.568945],[127.211936,34.569365],[127.212226,34.570117],[127.212034,34.570178],[127.212094,34.570591],[127.210947,34.570509],[127.210922,34.570329],[127.210381,34.570341],[127.21034,34.570234],[127.210321,34.570079],[127.210181,34.570154],[127.209698,34.570029],[127.209359,34.569812],[127.209295,34.569495],[127.209431,34.568895]]]]},"properties":{"id":"FLD:12740:92:36449","layer":"FLOOD_TRACE","admin_code":"12740","sido_code":"46","flood_year":"2007","occurred_at":"2007-09-14","ended_at":"2007-09-17","begin_time":"0000","end_time":"0000","disaster_name":"태풍나리 집중호우","cause_detail":"집중호우로 주택, 농경지 침수","flood_grade":2,"flood_depth_m":0.52,"flood_area_m2":242286,"source_sn":92,"data_status":"actual","official_data":true,"is_prediction":false,"source":"행정안전부 침수흔적도 · 재난안전데이터공유플랫폼 DSSP-IF-00117","collected_at":"2026-08-19T16:46:51+09:00","source_crs":"EPSG:3857","display_badges":["행안부 침수흔적도","과거 기록"]}},{"type":"Feature","id":"FLD:12740:95:36461","geometry":{"type":"MultiPolygon","coordinates":[[[[127.207624,34.565673],[127.208484,34.565696],[127.209349,34.56574],[127.209465,34.565768],[127.210789,34.56581],[127.212016,34.565846],[127.213126,34.565882],[127.2131,34.566411],[127.213073,34.566645],[127.213036,34.566738],[127.212845,34.566876],[127.21281,34.566958],[127.21285,34.567153],[127.212289,34.567888],[127.211939,34.56862],[127.211829,34.568945],[127.211669,34.568985],[127.211468,34.569061],[127.210971,34.56926],[127.210775,34.569291],[127.210503,34.569214],[127.209997,34.568999],[127.209711,34.568967],[127.209431,34.568897],[127.209217,34.568863],[127.209289,34.567483],[127.209298,34.567092],[127.207644,34.56704],[127.207544,34.566912],[127.207594,34.566205],[127.207624,34.565673]]]]},"properties":{"id":"FLD:12740:95:36461","layer":"FLOOD_TRACE","admin_code":"12740","sido_code":"46","flood_year":"2007","occurred_at":"2007-09-14","ended_at":"2007-09-17","begin_time":"0000","end_time":"0000","disaster_name":"태풍나리 집중호우","cause_detail":"집중호우로 주택, 농경지 침수","flood_grade":3,"flood_depth_m":1.22,"flood_area_m2":242286,"source_sn":95,"data_status":"actual","official_data":true,"is_prediction":false,"source":"행정안전부 침수흔적도 · 재난안전데이터공유플랫폼 DSSP-IF-00117","collected_at":"2026-08-19T16:46:51+09:00","source_crs":"EPSG:3857","display_badges":["행안부 침수흔적도","과거 기록"]}},{"type":"Feature","id":"FLD:12740:94:36495","geometry":{"type":"MultiPolygon","coordinates":[[[[127.212131,34.563412],[127.213019,34.563448],[127.213741,34.563465],[127.21381,34.56351],[127.213896,34.563975],[127.213972,34.564263],[127.214233,34.564529],[127.214471,34.564621],[127.214371,34.564673],[127.214324,34.565205],[127.214284,34.565394],[127.214216,34.565578],[127.213923,34.565802],[127.213496,34.565828],[127.213126,34.565882],[127.213158,34.565743],[127.212651,34.565728],[127.212044,34.565701],[127.212061,34.565196],[127.212072,34.564904],[127.212093,34.564539],[127.212105,34.564266],[127.212113,34.563975],[127.212131,34.563412]]]]},"properties":{"id":"FLD:12740:94:36495","layer":"FLOOD_TRACE","admin_code":"12740","sido_code":"46","flood_year":"2007","occurred_at":"2007-09-14","ended_at":"2007-09-17","begin_time":"0000","end_time":"0000","disaster_name":"태풍나리 집중호우","cause_detail":"집중호우로 주택, 농경지 침수","flood_grade":3,"flood_depth_m":1.4,"flood_area_m2":242286,"source_sn":94,"data_status":"actual","official_data":true,"is_prediction":false,"source":"행정안전부 침수흔적도 · 재난안전데이터공유플랫폼 DSSP-IF-00117","collected_at":"2026-08-19T16:46:51+09:00","source_crs":"EPSG:3857","display_badges":["행안부 침수흔적도","과거 기록"]}},{"type":"Feature","id":"FLD:12740:96:36496","geometry":{"type":"MultiPolygon","coordinates":[[[[127.207644,34.56704],[127.209298,34.567092],[127.209289,34.567483],[127.209217,34.568863],[127.208663,34.568736],[127.208675,34.568232],[127.208696,34.567525],[127.208017,34.567515],[127.207644,34.56704]]]]},"properties":{"id":"FLD:12740:96:36496","layer":"FLOOD_TRACE","admin_code":"12740","sido_code":"46","flood_year":"2007","occurred_at":"2007-09-14","ended_at":"2007-09-17","begin_time":"0000","end_time":"0000","disaster_name":"태풍나리 집중호우","cause_detail":"집중호우로 주택, 농경지 침수","flood_grade":2,"flood_depth_m":0.59,"flood_area_m2":242286,"source_sn":96,"data_status":"actual","official_data":true,"is_prediction":false,"source":"행정안전부 침수흔적도 · 재난안전데이터공유플랫폼 DSSP-IF-00117","collected_at":"2026-08-19T16:46:51+09:00","source_crs":"EPSG:3857","display_badges":["행안부 침수흔적도","과거 기록"]}},{"type":"Feature","id":"FLD:12740:93:36497","geometry":{"type":"MultiPolygon","coordinates":[[[[127.213126,34.565882],[127.213496,34.565828],[127.213923,34.565802],[127.214216,34.565578],[127.214284,34.565394],[127.214324,34.565205],[127.214371,34.564673],[127.214471,34.564621],[127.214647,34.564787],[127.214852,34.564926],[127.214978,34.565043],[127.214964,34.565185],[127.214928,34.565327],[127.214856,34.565453],[127.21471,34.56558],[127.21456,34.565767],[127.214471,34.5658],[127.21421,34.565994],[127.214129,34.566079],[127.213726,34.566279],[127.21356,34.566318],[127.213431,34.566366],[127.21334,34.56647],[127.213281,34.566564],[127.213245,34.566662],[127.213322,34.566736],[127.213395,34.5668],[127.213289,34.566952],[127.21315,34.567083],[127.212951,34.567257],[127.21285,34.567153],[127.21281,34.566958],[127.212845,34.566876],[127.213036,34.566738],[127.213073,34.566645],[127.2131,34.566411],[127.213126,34.565882]]]]},"properties":{"id":"FLD:12740:93:36497","layer":"FLOOD_TRACE","admin_code":"12740","sido_code":"46","flood_year":"2007","occurred_at":"2007-09-14","ended_at":"2007-09-17","begin_time":"0000","end_time":"0000","disaster_name":"태풍나리 집중호우","cause_detail":"집중호우로 주택, 농경지 침수","flood_grade":2,"flood_depth_m":0.63,"flood_area_m2":242286,"source_sn":93,"data_status":"actual","official_data":true,"is_prediction":false,"source":"행정안전부 침수흔적도 · 재난안전데이터공유플랫폼 DSSP-IF-00117","collected_at":"2026-08-19T16:46:51+09:00","source_crs":"EPSG:3857","display_badges":["행안부 침수흔적도","과거 기록"]}},{"type":"Feature","id":"FLD:12740:99:36498","geometry":{"type":"MultiPolygon","coordinates":[[[[127.169703,34.559642],[127.170638,34.559581],[127.171696,34.559549],[127.172189,34.559442],[127.172867,34.559386],[127.172877,34.559703],[127.172878,34.560008],[127.172276,34.560006],[127.172251,34.559834],[127.171775,34.559832],[127.171776,34.559996],[127.170635,34.559993],[127.169673,34.559999],[127.169703,34.559642]]]]},"properties":{"id":"FLD:12740:99:36498","layer":"FLOOD_TRACE","admin_code":"12740","sido_code":"46","flood_year":"2007","occurred_at":"2007-09-14","ended_at":"2007-09-17","begin_time":"0000","end_time":"0000","disaster_name":"태풍나리 집중호우","cause_detail":"집중호우로 주택, 농경지 침수","flood_grade":3,"flood_depth_m":1.18,"flood_area_m2":35000,"source_sn":99,"data_status":"actual","official_data":true,"is_prediction":false,"source":"행정안전부 침수흔적도 · 재난안전데이터공유플랫폼 DSSP-IF-00117","collected_at":"2026-08-19T16:46:51+09:00","source_crs":"EPSG:3857","display_badges":["행안부 침수흔적도","과거 기록"]}},{"type":"Feature","id":"FLD:12740:98:36499","geometry":{"type":"MultiPolygon","coordinates":[[[[127.168283,34.559105],[127.168428,34.55857],[127.168542,34.55821],[127.168606,34.557931],[127.168747,34.557381],[127.168861,34.556912],[127.168927,34.556664],[127.169061,34.556141],[127.169035,34.556142],[127.169043,34.55593],[127.169113,34.555703],[127.170202,34.555703],[127.170652,34.555708],[127.171789,34.555702],[127.17288,34.555708],[127.172876,34.556373],[127.172871,34.556922],[127.172872,34.557328],[127.172873,34.557763],[127.17287,34.558295],[127.172876,34.558648],[127.172872,34.558931],[127.17237,34.558945],[127.171707,34.558948],[127.170518,34.559064],[127.169827,34.559095],[127.169529,34.559126],[127.169026,34.559132],[127.168283,34.559105]]]]},"properties":{"id":"FLD:12740:98:36499","layer":"FLOOD_TRACE","admin_code":"12740","sido_code":"46","flood_year":"2007","occurred_at":"2007-09-14","ended_at":"2007-09-17","begin_time":"0000","end_time":"0000","disaster_name":"태풍나리 집중호우","cause_detail":"집중호우로 주택, 농경지 침수","flood_grade":2,"flood_depth_m":1.52,"flood_area_m2":35000,"source_sn":98,"data_status":"actual","official_data":true,"is_prediction":false,"source":"행정안전부 침수흔적도 · 재난안전데이터공유플랫폼 DSSP-IF-00117","collected_at":"2026-08-19T16:46:51+09:00","source_crs":"EPSG:3857","display_badges":["행안부 침수흔적도","과거 기록"]}},{"type":"Feature","id":"FLD:12740:97:36506","geometry":{"type":"MultiPolygon","coordinates":[[[[127.16812,34.559743],[127.168735,34.559719],[127.169219,34.559699],[127.169703,34.559642],[127.169673,34.559999],[127.170635,34.559993],[127.171776,34.559996],[127.171775,34.559832],[127.172251,34.559834],[127.172276,34.560006],[127.172291,34.560116],[127.172168,34.560149],[127.171953,34.560156],[127.171838,34.560187],[127.1717,34.560189],[127.171548,34.560209],[127.171558,34.560271],[127.171488,34.560342],[127.171347,34.560454],[127.171178,34.560539],[127.171118,34.56062],[127.171069,34.560673],[127.170927,34.560687],[127.170774,34.560607],[127.170658,34.560506],[127.170561,34.560405],[127.170454,34.560475],[127.170369,34.560442],[127.170377,34.560374],[127.170338,34.560346],[127.170135,34.560298],[127.170025,34.560298],[127.169845,34.56039],[127.169725,34.560509],[127.169676,34.560597],[127.169554,34.560911],[127.169482,34.561112],[127.169454,34.561323],[127.169427,34.561473],[127.169106,34.561425],[127.168844,34.561382],[127.168796,34.561342],[127.168601,34.561411],[127.167981,34.561367],[127.167841,34.561185],[127.167977,34.560808],[127.168152,34.560498],[127.168112,34.56016],[127.16812,34.559743]]]]},"properties":{"id":"FLD:12740:97:36506","layer":"FLOOD_TRACE","admin_code":"12740","sido_code":"46","flood_year":"2007","occurred_at":"2007-09-14","ended_at":"2007-09-17","begin_time":"0000","end_time":"0000","disaster_name":"태풍나리 집중호우","cause_detail":"집중호우로 주택, 농경지 침수","flood_grade":2,"flood_depth_m":0.63,"flood_area_m2":35000,"source_sn":97,"data_status":"actual","official_data":true,"is_prediction":false,"source":"행정안전부 침수흔적도 · 재난안전데이터공유플랫폼 DSSP-IF-00117","collected_at":"2026-08-19T16:46:51+09:00","source_crs":"EPSG:3857","display_badges":["행안부 침수흔적도","과거 기록"]}},{"type":"Feature","id":"FLD:12740:100:36507","geometry":{"type":"MultiPolygon","coordinates":[[[[127.122538,34.457924],[127.122884,34.457888],[127.122833,34.457915],[127.12278,34.457943],[127.12254,34.458067],[127.122541,34.458085],[127.122508,34.458117],[127.122486,34.458143],[127.122428,34.458189],[127.122279,34.458311],[127.122239,34.45834],[127.122128,34.458424],[127.12212,34.45843],[127.122041,34.458431],[127.121824,34.458281],[127.121795,34.458199],[127.121812,34.458196],[127.121793,34.458177],[127.121697,34.458115],[127.121691,34.458116],[127.121572,34.458044],[127.12146,34.457976],[127.121343,34.457679],[127.121295,34.457606],[127.121276,34.45756],[127.12126,34.457524],[127.121149,34.457252],[127.120994,34.456917],[127.120869,34.456657],[127.120842,34.456602],[127.120753,34.456415],[127.120735,34.456326],[127.120714,34.45629],[127.120635,34.456076],[127.120557,34.455938],[127.120515,34.455842],[127.120467,34.45573],[127.120439,34.455676],[127.120428,34.455635],[127.120388,34.455551],[127.120353,34.455447],[127.120265,34.455205],[127.120175,34.455022],[127.120119,34.454813],[127.120156,34.454816],[127.120201,34.454818],[127.120274,34.454815],[127.120343,34.454811],[127.12041,34.454792],[127.120437,34.454776],[127.120473,34.454765],[127.120503,34.454762],[127.120723,34.454674],[127.120892,34.454608],[127.120896,34.454628],[127.120912,34.454683],[127.120914,34.454704],[127.120934,34.454754],[127.120949,34.454807],[127.12095,34.454832],[127.120968,34.454889],[127.120976,34.454907],[127.12098,34.454913],[127.120963,34.454929],[127.121027,34.455015],[127.121079,34.455082],[127.121017,34.455115],[127.121165,34.455297],[127.12117,34.455294],[127.121234,34.455386],[127.121308,34.455492],[127.121285,34.455505],[127.121278,34.455514],[127.121396,34.455666],[127.121353,34.455703],[127.121467,34.455825],[127.121382,34.455888],[127.121613,34.456107],[127.121647,34.456183],[127.121819,34.456351],[127.121938,34.456381],[127.12196,34.456438],[127.121988,34.45651],[127.122079,34.456747],[127.12215,34.45693],[127.122153,34.456936],[127.122169,34.456913],[127.122222,34.457054],[127.122328,34.457325],[127.122378,34.457456],[127.122496,34.457871],[127.122538,34.457924]]]]},"properties":{"id":"FLD:12740:100:36507","layer":"FLOOD_TRACE","admin_code":"12740","sido_code":"46","flood_year":"2007","occurred_at":"2007-09-16","ended_at":"2007-09-18","begin_time":"0000","end_time":"0000","disaster_name":"집중호우 및 제11호 태풍“나리”피해","cause_detail":"집중호우와 하천의 범람","flood_grade":3,"flood_depth_m":1.24,"flood_area_m2":307519.1,"source_sn":100,"data_status":"actual","official_data":true,"is_prediction":false,"source":"행정안전부 침수흔적도 · 재난안전데이터공유플랫폼 DSSP-IF-00117","collected_at":"2026-08-19T16:46:51+09:00","source_crs":"EPSG:3857","display_badges":["행안부 침수흔적도","과거 기록"]}}]}