{"type":"FeatureCollection","features":[{"type":"Feature","id":"FLD:47250:1116:244","geometry":{"type":"MultiPolygon","coordinates":[[[[128.167133,36.402795],[128.167412,36.402774],[128.16769,36.402751],[128.16796,36.402732],[128.168328,36.402704],[128.16843,36.403352],[128.168336,36.403429],[128.168316,36.403445],[128.167947,36.403737],[128.167909,36.403476],[128.168082,36.403462],[128.16808,36.403448],[128.168064,36.403313],[128.167789,36.403332],[128.167805,36.403468],[128.167522,36.40349],[128.1672,36.403514],[128.166968,36.403533],[128.16683,36.403543],[128.166787,36.403192],[128.166724,36.402826],[128.166721,36.402809],[128.166855,36.402799],[128.167131,36.402778],[128.167133,36.402795]]]]},"properties":{"id":"FLD:47250:1116:244","layer":"FLOOD_TRACE","admin_code":"47250","sido_code":"47","flood_year":"2012","occurred_at":"2012-09-17","ended_at":"2012-09-19","begin_time":"1300","end_time":"1200","disaster_name":"2012년 태풍 산바에 따른 침수","cause_detail":"태풍산바에 따른 구거 범람","flood_grade":1,"flood_depth_m":0.321,"flood_area_m2":40488,"source_sn":1116,"data_status":"actual","official_data":true,"is_prediction":false,"source":"행정안전부 침수흔적도 · 재난안전데이터공유플랫폼 DSSP-IF-00117","collected_at":"2026-08-19T16:46:51+09:00","source_crs":"EPSG:3857","display_badges":["행안부 침수흔적도","과거 기록"]}},{"type":"Feature","id":"FLD:47250:1120:245","geometry":{"type":"MultiPolygon","coordinates":[[[[128.129619,36.364549],[128.12965,36.3645],[128.129697,36.364485],[128.129791,36.364466],[128.130244,36.364412],[128.13033,36.364402],[128.130574,36.364344],[128.130852,36.364359],[128.13131,36.364392],[128.131527,36.364506],[128.131899,36.36466],[128.132389,36.364866],[128.132641,36.364898],[128.132758,36.364948],[128.132863,36.364973],[128.132854,36.364976],[128.132882,36.365099],[128.132884,36.365183],[128.1329,36.365263],[128.132948,36.365386],[128.132913,36.365389],[128.132049,36.365463],[128.131978,36.365448],[128.131579,36.36545],[128.131437,36.365451],[128.131191,36.365448],[128.130998,36.365376],[128.130898,36.365321],[128.130697,36.365187],[128.130641,36.365127],[128.130272,36.364928],[128.130057,36.364789],[128.130001,36.364752],[128.129793,36.364626],[128.129619,36.364549]]]]},"properties":{"id":"FLD:47250:1120:245","layer":"FLOOD_TRACE","admin_code":"47250","sido_code":"47","flood_year":"2012","occurred_at":"2012-09-17","ended_at":"2012-09-19","begin_time":"1500","end_time":"1000","disaster_name":"2012년 태풍 산바","cause_detail":"태풍산바에 따른 구거 범람","flood_grade":3,"flood_depth_m":1.081,"flood_area_m2":21944,"source_sn":1120,"data_status":"actual","official_data":true,"is_prediction":false,"source":"행정안전부 침수흔적도 · 재난안전데이터공유플랫폼 DSSP-IF-00117","collected_at":"2026-08-19T16:46:51+09:00","source_crs":"EPSG:3857","display_badges":["행안부 침수흔적도","과거 기록"]}},{"type":"Feature","id":"FLD:47250:1122:246","geometry":{"type":"MultiPolygon","coordinates":[[[[128.1355,36.364836],[128.135475,36.364721],[128.135467,36.364694],[128.13545,36.364575],[128.13534,36.364066],[128.135336,36.364047],[128.135522,36.363764],[128.13565,36.363585],[128.135794,36.363557],[128.136035,36.363521],[128.136265,36.363488],[128.136412,36.363466],[128.136908,36.363395],[128.136948,36.36368],[128.136655,36.363752],[128.136621,36.363787],[128.136591,36.363907],[128.136523,36.364058],[128.136464,36.364192],[128.136484,36.364299],[128.136452,36.3644],[128.136484,36.364473],[128.1355,36.364836]]]]},"properties":{"id":"FLD:47250:1122:246","layer":"FLOOD_TRACE","admin_code":"47250","sido_code":"47","flood_year":"2012","occurred_at":"2012-09-17","ended_at":"2012-09-18","begin_time":"1500","end_time":"1500","disaster_name":"2012년 태풍 산바","cause_detail":"태풍 산바에 따른 구거 범람","flood_grade":1,"flood_depth_m":0.491,"flood_area_m2":60292,"source_sn":1122,"data_status":"actual","official_data":true,"is_prediction":false,"source":"행정안전부 침수흔적도 · 재난안전데이터공유플랫폼 DSSP-IF-00117","collected_at":"2026-08-19T16:46:51+09:00","source_crs":"EPSG:3857","display_badges":["행안부 침수흔적도","과거 기록"]}},{"type":"Feature","id":"FLD:47250:1121:247","geometry":{"type":"MultiPolygon","coordinates":[[[[128.136484,36.364473],[128.136482,36.364519],[128.136492,36.364559],[128.136569,36.364643],[128.136646,36.364638],[128.136742,36.364684],[128.136871,36.364829],[128.137028,36.364967],[128.137065,36.364988],[128.137121,36.365056],[128.137192,36.365166],[128.137258,36.365259],[128.137359,36.365302],[128.137701,36.365449],[128.137908,36.365612],[128.137967,36.365655],[128.137994,36.365712],[128.137973,36.365973],[128.137966,36.366057],[128.137958,36.366081],[128.137999,36.366183],[128.138217,36.366327],[128.138364,36.366444],[128.138418,36.366507],[128.138441,36.366611],[128.138449,36.366648],[128.138416,36.366666],[128.13841,36.366647],[128.138106,36.366905],[128.138112,36.36691],[128.138094,36.366928],[128.137871,36.367183],[128.13786,36.367197],[128.137733,36.367301],[128.137692,36.36735],[128.137582,36.367483],[128.137561,36.367507],[128.137448,36.367421],[128.137259,36.367276],[128.137115,36.367165],[128.137112,36.36717],[128.136962,36.367057],[128.136836,36.366963],[128.136821,36.36695],[128.136799,36.366933],[128.136552,36.366741],[128.136192,36.366459],[128.135984,36.366299],[128.135974,36.366291],[128.135905,36.366225],[128.135802,36.366078],[128.135722,36.365898],[128.135673,36.365684],[128.135597,36.365307],[128.13552,36.364931],[128.135509,36.36488],[128.1355,36.364836],[128.136484,36.364473]]]]},"properties":{"id":"FLD:47250:1121:247","layer":"FLOOD_TRACE","admin_code":"47250","sido_code":"47","flood_year":"2012","occurred_at":"2012-09-17","ended_at":"2012-09-18","begin_time":"1500","end_time":"1500","disaster_name":"2012년 태풍 산바","cause_detail":"태풍 산바에 따른 구거 범람","flood_grade":2,"flood_depth_m":0.678,"flood_area_m2":60292,"source_sn":1121,"data_status":"actual","official_data":true,"is_prediction":false,"source":"행정안전부 침수흔적도 · 재난안전데이터공유플랫폼 DSSP-IF-00117","collected_at":"2026-08-19T16:46:51+09:00","source_crs":"EPSG:3857","display_badges":["행안부 침수흔적도","과거 기록"]}},{"type":"Feature","id":"FLD:47250:1125:248","geometry":{"type":"MultiPolygon","coordinates":[[[[128.157788,36.384248],[128.157985,36.384095],[128.159075,36.385009],[128.158846,36.385129],[128.157788,36.384248]]]]},"properties":{"id":"FLD:47250:1125:248","layer":"FLOOD_TRACE","admin_code":"47250","sido_code":"47","flood_year":"2012","occurred_at":"2012-09-17","ended_at":"2012-09-19","begin_time":"1500","end_time":"1000","disaster_name":"2012년 태풍 산바","cause_detail":"태풍산바에 따른 구거 범람","flood_grade":1,"flood_depth_m":0.267,"flood_area_m2":161152,"source_sn":1125,"data_status":"actual","official_data":true,"is_prediction":false,"source":"행정안전부 침수흔적도 · 재난안전데이터공유플랫폼 DSSP-IF-00117","collected_at":"2026-08-19T16:46:51+09:00","source_crs":"EPSG:3857","display_badges":["행안부 침수흔적도","과거 기록"]}},{"type":"Feature","id":"FLD:47250:1126:249","geometry":{"type":"MultiPolygon","coordinates":[[[[128.15577,36.380493],[128.156535,36.381149],[128.15625,36.381366],[128.156111,36.38117],[128.155982,36.381076],[128.155736,36.380918],[128.155674,36.38087],[128.155581,36.380785],[128.155501,36.380703],[128.15577,36.380493]]]]},"properties":{"id":"FLD:47250:1126:249","layer":"FLOOD_TRACE","admin_code":"47250","sido_code":"47","flood_year":"2012","occurred_at":"2012-09-17","ended_at":"2012-09-19","begin_time":"1500","end_time":"1000","disaster_name":"2012년 태풍 산바","cause_detail":"태풍산바에 따른 구거 범람","flood_grade":1,"flood_depth_m":0.352,"flood_area_m2":161152,"source_sn":1126,"data_status":"actual","official_data":true,"is_prediction":false,"source":"행정안전부 침수흔적도 · 재난안전데이터공유플랫폼 DSSP-IF-00117","collected_at":"2026-08-19T16:46:51+09:00","source_crs":"EPSG:3857","display_badges":["행안부 침수흔적도","과거 기록"]}},{"type":"Feature","id":"FLD:47250:1124:250","geometry":{"type":"MultiPolygon","coordinates":[[[[128.157314,36.381886],[128.156542,36.381234],[128.157431,36.380551],[128.158203,36.381197],[128.157314,36.381886]]]]},"properties":{"id":"FLD:47250:1124:250","layer":"FLOOD_TRACE","admin_code":"47250","sido_code":"47","flood_year":"2012","occurred_at":"2012-09-17","ended_at":"2012-09-19","begin_time":"1500","end_time":"1000","disaster_name":"2012년 태풍 산바","cause_detail":"태풍산바에 따른 구거 범람","flood_grade":1,"flood_depth_m":0.139,"flood_area_m2":161152,"source_sn":1124,"data_status":"actual","official_data":true,"is_prediction":false,"source":"행정안전부 침수흔적도 · 재난안전데이터공유플랫폼 DSSP-IF-00117","collected_at":"2026-08-19T16:46:51+09:00","source_crs":"EPSG:3857","display_badges":["행안부 침수흔적도","과거 기록"]}},{"type":"Feature","id":"FLD:47250:1123:251","geometry":{"type":"MultiPolygon","coordinates":[[[[128.157985,36.384095],[128.157788,36.384248],[128.158846,36.385129],[128.158773,36.385169],[128.158711,36.385202],[128.158667,36.385215],[128.158583,36.385201],[128.158317,36.385133],[128.158275,36.385127],[128.158245,36.385133],[128.158202,36.385167],[128.158141,36.385273],[128.158095,36.385372],[128.158061,36.385409],[128.158042,36.385424],[128.158042,36.385426],[128.158023,36.385441],[128.157953,36.385503],[128.157772,36.385685],[128.157737,36.385683],[128.157697,36.385595],[128.157627,36.385435],[128.157569,36.385278],[128.15759,36.38507],[128.157601,36.384969],[128.157532,36.384601],[128.157526,36.384572],[128.157484,36.384484],[128.157454,36.384436],[128.157223,36.38413],[128.156877,36.383633],[128.156864,36.383614],[128.156813,36.383553],[128.156688,36.383332],[128.156672,36.383296],[128.156666,36.383296],[128.156568,36.383068],[128.156553,36.382999],[128.156544,36.382937],[128.156537,36.382885],[128.156518,36.38256],[128.156511,36.382508],[128.156454,36.38194],[128.15641,36.381701],[128.156374,36.381602],[128.156304,36.381459],[128.15625,36.381366],[128.156535,36.381149],[128.15577,36.380493],[128.155501,36.380703],[128.155467,36.380665],[128.155394,36.380584],[128.155355,36.38054],[128.155204,36.380354],[128.155062,36.380142],[128.154864,36.379871],[128.15486,36.379845],[128.154846,36.37978],[128.154691,36.379336],[128.154671,36.379262],[128.154664,36.379206],[128.154676,36.379155],[128.154734,36.37905],[128.154925,36.378802],[128.155094,36.378575],[128.155126,36.378521],[128.155276,36.378204],[128.155322,36.378122],[128.1554,36.37792],[128.15629,36.378676],[128.156153,36.378782],[128.156209,36.378825],[128.156989,36.37948],[128.156758,36.379663],[128.156612,36.379779],[128.15656,36.379817],[128.156596,36.379845],[128.157371,36.380503],[128.157417,36.380541],[128.157431,36.380551],[128.156542,36.381234],[128.157314,36.381886],[128.158203,36.381197],[128.158234,36.381228],[128.159011,36.381888],[128.159049,36.381921],[128.159065,36.381935],[128.159842,36.382585],[128.15988,36.382623],[128.160542,36.383186],[128.160484,36.383249],[128.160418,36.38335],[128.160322,36.383506],[128.160203,36.383688],[128.160106,36.38384],[128.160062,36.383889],[128.159908,36.384017],[128.159741,36.384054],[128.159544,36.384079],[128.159453,36.384095],[128.159338,36.384114],[128.159299,36.384128],[128.159285,36.384198],[128.159313,36.384559],[128.159374,36.384779],[128.159389,36.384807],[128.159354,36.384857],[128.159314,36.3849],[128.159309,36.384902],[128.15924,36.384942],[128.159126,36.384982],[128.159075,36.385009],[128.157985,36.384095]]]]},"properties":{"id":"FLD:47250:1123:251","layer":"FLOOD_TRACE","admin_code":"47250","sido_code":"47","flood_year":"2012","occurred_at":"2012-09-17","ended_at":"2012-09-19","begin_time":"1500","end_time":"1000","disaster_name":"2012년 태풍 산바","cause_detail":"태풍산바에 따른 구거 범람","flood_grade":2,"flood_depth_m":0.812,"flood_area_m2":161152,"source_sn":1123,"data_status":"actual","official_data":true,"is_prediction":false,"source":"행정안전부 침수흔적도 · 재난안전데이터공유플랫폼 DSSP-IF-00117","collected_at":"2026-08-19T16:46:51+09:00","source_crs":"EPSG:3857","display_badges":["행안부 침수흔적도","과거 기록"]}},{"type":"Feature","id":"FLD:47250:1131:253","geometry":{"type":"MultiPolygon","coordinates":[[[[128.174063,36.397882],[128.17329,36.398105],[128.172937,36.397307],[128.172857,36.397264],[128.172904,36.397244],[128.173185,36.397392],[128.173783,36.397713],[128.174165,36.397837],[128.174063,36.397882]]]]},"properties":{"id":"FLD:47250:1131:253","layer":"FLOOD_TRACE","admin_code":"47250","sido_code":"47","flood_year":"2012","occurred_at":"2012-09-17","ended_at":"2012-09-18","begin_time":"1500","end_time":"2000","disaster_name":"2012년 태풍 산바","cause_detail":"태풍산바에 따른 구거 범람 및 하천역류","flood_grade":2,"flood_depth_m":0.973,"flood_area_m2":58523,"source_sn":1131,"data_status":"actual","official_data":true,"is_prediction":false,"source":"행정안전부 침수흔적도 · 재난안전데이터공유플랫폼 DSSP-IF-00117","collected_at":"2026-08-19T16:46:51+09:00","source_crs":"EPSG:3857","display_badges":["행안부 침수흔적도","과거 기록"]}},{"type":"Feature","id":"FLD:47250:1132:254","geometry":{"type":"MultiPolygon","coordinates":[[[[128.165695,36.389945],[128.166493,36.390575],[128.166378,36.390671],[128.16615,36.39086],[128.165926,36.391046],[128.1658,36.39115],[128.165777,36.391178],[128.165707,36.391153],[128.165335,36.391025],[128.165174,36.390969],[128.165008,36.390912],[128.164852,36.390858],[128.164624,36.390785],[128.164586,36.390748],[128.164574,36.390734],[128.16436,36.390656],[128.164132,36.39057],[128.163877,36.390463],[128.163542,36.390327],[128.163452,36.390282],[128.163378,36.390245],[128.162961,36.390037],[128.162917,36.390015],[128.162646,36.389875],[128.162499,36.3898],[128.16227,36.38966],[128.162236,36.38964],[128.161843,36.389398],[128.161659,36.389273],[128.161518,36.38918],[128.161575,36.38918],[128.161832,36.388968],[128.161965,36.388857],[128.162157,36.388699],[128.16235,36.38854],[128.162631,36.388308],[128.162928,36.388061],[128.162988,36.388012],[128.163223,36.387814],[128.164019,36.388453],[128.164054,36.38848],[128.164075,36.388518],[128.164389,36.388757],[128.164891,36.389142],[128.164924,36.38917],[128.165765,36.389823],[128.165793,36.389863],[128.165695,36.389945]]]]},"properties":{"id":"FLD:47250:1132:254","layer":"FLOOD_TRACE","admin_code":"47250","sido_code":"47","flood_year":"2012","occurred_at":"2012-09-17","ended_at":"2012-09-19","begin_time":"1500","end_time":"0800","disaster_name":"2012년 태풍 산바에 따른 침수","cause_detail":"태풍 산바에 따른 구거 역류","flood_grade":2,"flood_depth_m":0.752,"flood_area_m2":104477,"source_sn":1132,"data_status":"actual","official_data":true,"is_prediction":false,"source":"행정안전부 침수흔적도 · 재난안전데이터공유플랫폼 DSSP-IF-00117","collected_at":"2026-08-19T16:46:51+09:00","source_crs":"EPSG:3857","display_badges":["행안부 침수흔적도","과거 기록"]}},{"type":"Feature","id":"FLD:47250:1134:255","geometry":{"type":"MultiPolygon","coordinates":[[[[128.171656,36.392982],[128.171619,36.392873],[128.171581,36.392748],[128.171546,36.392599],[128.171542,36.392446],[128.171535,36.39234],[128.17158,36.392331],[128.171622,36.392321],[128.17168,36.392413],[128.1717,36.392441],[128.171822,36.392574],[128.171876,36.39267],[128.171956,36.392782],[128.17177,36.392908],[128.171833,36.39307],[128.171802,36.393067],[128.171718,36.393068],[128.171673,36.39306],[128.171656,36.392982]]]]},"properties":{"id":"FLD:47250:1134:255","layer":"FLOOD_TRACE","admin_code":"47250","sido_code":"47","flood_year":"2012","occurred_at":"2012-09-17","ended_at":"2012-09-18","begin_time":"1500","end_time":"2000","disaster_name":"2012년 태풍 산바","cause_detail":"태풍산바에 따른 구거범람 및 하천역류","flood_grade":2,"flood_depth_m":0.93,"flood_area_m2":58523,"source_sn":1134,"data_status":"actual","official_data":true,"is_prediction":false,"source":"행정안전부 침수흔적도 · 재난안전데이터공유플랫폼 DSSP-IF-00117","collected_at":"2026-08-19T16:46:51+09:00","source_crs":"EPSG:3857","display_badges":["행안부 침수흔적도","과거 기록"]}},{"type":"Feature","id":"FLD:47250:1143:256","geometry":{"type":"MultiPolygon","coordinates":[[[[128.175356,36.403236],[128.175374,36.403208],[128.176694,36.403922],[128.176546,36.404127],[128.176337,36.40452],[128.176241,36.404605],[128.175454,36.403703],[128.175176,36.403402],[128.175356,36.403236]]]]},"properties":{"id":"FLD:47250:1143:256","layer":"FLOOD_TRACE","admin_code":"47250","sido_code":"47","flood_year":"2012","occurred_at":"2012-09-17","ended_at":"2012-09-18","begin_time":"1500","end_time":"1900","disaster_name":"2012년 태풍 산바","cause_detail":"태풍산바에 따른 구거 범람 및 하천역류","flood_grade":2,"flood_depth_m":0.826,"flood_area_m2":80952.5,"source_sn":1143,"data_status":"actual","official_data":true,"is_prediction":false,"source":"행정안전부 침수흔적도 · 재난안전데이터공유플랫폼 DSSP-IF-00117","collected_at":"2026-08-19T16:46:51+09:00","source_crs":"EPSG:3857","display_badges":["행안부 침수흔적도","과거 기록"]}},{"type":"Feature","id":"FLD:47250:1140:257","geometry":{"type":"MultiPolygon","coordinates":[[[[128.178283,36.40513],[128.178344,36.405212],[128.178379,36.4053],[128.178353,36.405408],[128.178386,36.405417],[128.17834,36.405574],[128.178284,36.405733],[128.178227,36.405879],[128.178211,36.405915],[128.178371,36.406015],[128.178492,36.406092],[128.178593,36.406153],[128.178708,36.406226],[128.178951,36.406385],[128.179193,36.406538],[128.179301,36.406605],[128.179428,36.406689],[128.179661,36.406847],[128.179904,36.406994],[128.180128,36.407137],[128.180092,36.407174],[128.180005,36.407272],[128.179923,36.407358],[128.179915,36.407365],[128.17973,36.407543],[128.179712,36.40756],[128.179662,36.407607],[128.179643,36.40763],[128.179584,36.407701],[128.17956,36.407778],[128.179547,36.407816],[128.17953,36.408123],[128.179514,36.408169],[128.179225,36.40784],[128.179185,36.407794],[128.179146,36.407749],[128.179073,36.40767],[128.178885,36.407465],[128.178608,36.407164],[128.178598,36.407153],[128.178343,36.406877],[128.178145,36.406643],[128.177939,36.406442],[128.177938,36.406432],[128.177908,36.406392],[128.17776,36.40624],[128.177697,36.406192],[128.1777,36.406186],[128.177464,36.405927],[128.177275,36.405716],[128.176791,36.405185],[128.176804,36.405103],[128.176926,36.404874],[128.177113,36.404667],[128.177302,36.404509],[128.177617,36.404476],[128.17791,36.404466],[128.178075,36.404715],[128.178212,36.404842],[128.178483,36.404979],[128.178544,36.405004],[128.178588,36.405008],[128.178572,36.405032],[128.178417,36.405158],[128.178283,36.40513]]]]},"properties":{"id":"FLD:47250:1140:257","layer":"FLOOD_TRACE","admin_code":"47250","sido_code":"47","flood_year":"2012","occurred_at":"2012-09-17","ended_at":"2012-09-18","begin_time":"1500","end_time":"1900","disaster_name":"2012년 태풍 산바","cause_detail":"태풍산바에 따른 구거범람 및 하천역류","flood_grade":1,"flood_depth_m":0.442,"flood_area_m2":80952.5,"source_sn":1140,"data_status":"actual","official_data":true,"is_prediction":false,"source":"행정안전부 침수흔적도 · 재난안전데이터공유플랫폼 DSSP-IF-00117","collected_at":"2026-08-19T16:46:51+09:00","source_crs":"EPSG:3857","display_badges":["행안부 침수흔적도","과거 기록"]}},{"type":"Feature","id":"FLD:47250:1139:435","geometry":{"type":"MultiPolygon","coordinates":[[[[128.177733,36.404295],[128.177712,36.404227],[128.177645,36.40414],[128.177592,36.404008],[128.177594,36.403924],[128.177771,36.403795],[128.177828,36.403713],[128.177862,36.40362],[128.17776,36.403528],[128.177712,36.403357],[128.177668,36.403286],[128.177493,36.403154],[128.177475,36.403128],[128.177672,36.403018],[128.177835,36.402938],[128.178072,36.402831],[128.178227,36.403092],[128.178158,36.403211],[128.178006,36.403535],[128.178108,36.403702],[128.178186,36.403803],[128.178203,36.403854],[128.178215,36.403876],[128.178245,36.403949],[128.178309,36.404091],[128.178344,36.404144],[128.178404,36.404256],[128.178451,36.404332],[128.178309,36.404333],[128.178294,36.404333],[128.178111,36.404373],[128.177935,36.404374],[128.177727,36.404359],[128.177733,36.404295]]]]},"properties":{"id":"FLD:47250:1139:435","layer":"FLOOD_TRACE","admin_code":"47250","sido_code":"47","flood_year":"2012","occurred_at":"2012-09-17","ended_at":"2012-09-18","begin_time":"1500","end_time":"1900","disaster_name":"2012년 태풍 산바","cause_detail":"태풍산바에 따른 구거 범람 및 하천역류","flood_grade":2,"flood_depth_m":0.786,"flood_area_m2":80952.5,"source_sn":1139,"data_status":"actual","official_data":true,"is_prediction":false,"source":"행정안전부 침수흔적도 · 재난안전데이터공유플랫폼 DSSP-IF-00117","collected_at":"2026-08-19T16:46:51+09:00","source_crs":"EPSG:3857","display_badges":["행안부 침수흔적도","과거 기록"]}},{"type":"Feature","id":"FLD:47250:1111:807","geometry":{"type":"MultiPolygon","coordinates":[[[[128.177392,36.414378],[128.177552,36.414386],[128.177754,36.414398],[128.178109,36.414416],[128.178171,36.41442],[128.178278,36.414425],[128.178617,36.414445],[128.178663,36.41386],[128.17882,36.413998],[128.179196,36.414475],[128.179284,36.414585],[128.179475,36.414879],[128.17955,36.414986],[128.179599,36.415216],[128.179612,36.41527],[128.179664,36.415514],[128.179737,36.415792],[128.179808,36.416011],[128.179815,36.416032],[128.179852,36.41615],[128.180032,36.416632],[128.180054,36.416691],[128.180428,36.417372],[128.181021,36.418049],[128.181358,36.418387],[128.181583,36.418685],[128.181446,36.418732],[128.18125,36.41871],[128.181098,36.418674],[128.181033,36.418659],[128.181009,36.41865],[128.181007,36.418649],[128.180841,36.418589],[128.1808,36.418575],[128.180766,36.418563],[128.18067,36.418528],[128.1804,36.41842],[128.180158,36.418309],[128.179966,36.418222],[128.179926,36.418204],[128.179377,36.41796],[128.179244,36.417901],[128.178963,36.417776],[128.178958,36.417766],[128.178907,36.417743],[128.178431,36.417562],[128.178252,36.417503],[128.178401,36.416956],[128.178057,36.416952],[128.177907,36.416986],[128.177778,36.417026],[128.177672,36.417067],[128.177588,36.417124],[128.177403,36.417203],[128.177291,36.417245],[128.177269,36.417269],[128.17713,36.417242],[128.177138,36.417188],[128.1771,36.417106],[128.17701,36.417175],[128.176982,36.417213],[128.176976,36.417212],[128.176867,36.417196],[128.176588,36.417151],[128.176315,36.417098],[128.176046,36.417045],[128.175767,36.416993],[128.17581,36.416532],[128.17581,36.416521],[128.176086,36.416535],[128.176359,36.416549],[128.176422,36.415837],[128.176425,36.415824],[128.176486,36.415105],[128.176487,36.415057],[128.17655,36.414333],[128.176543,36.414332],[128.176583,36.413807],[128.176591,36.413693],[128.176809,36.413703],[128.177144,36.413718],[128.177172,36.413719],[128.17744,36.413731],[128.177392,36.414378]]]]},"properties":{"id":"FLD:47250:1111:807","layer":"FLOOD_TRACE","admin_code":"47250","sido_code":"47","flood_year":"2012","occurred_at":"2012-09-17","ended_at":"2012-09-19","begin_time":"1300","end_time":"0800","disaster_name":"2012년 태풍 산바","cause_detail":"태풍 산바에 따른 구거 범람","flood_grade":2,"flood_depth_m":0.63,"flood_area_m2":138495,"source_sn":1111,"data_status":"actual","official_data":true,"is_prediction":false,"source":"행정안전부 침수흔적도 · 재난안전데이터공유플랫폼 DSSP-IF-00117","collected_at":"2026-08-19T16:46:51+09:00","source_crs":"EPSG:3857","display_badges":["행안부 침수흔적도","과거 기록"]}},{"type":"Feature","id":"FLD:47250:1113:808","geometry":{"type":"MultiPolygon","coordinates":[[[[128.17701,36.417175],[128.1771,36.417106],[128.177138,36.417188],[128.17713,36.417242],[128.176982,36.417213],[128.17701,36.417175]]]]},"properties":{"id":"FLD:47250:1113:808","layer":"FLOOD_TRACE","admin_code":"47250","sido_code":"47","flood_year":"2012","occurred_at":"2012-09-17","ended_at":"2012-09-19","begin_time":"1300","end_time":"0800","disaster_name":"2012년 태풍 산바","cause_detail":"태풍 산바에 따른 구거 범람","flood_grade":1,"flood_depth_m":0.118,"flood_area_m2":138495,"source_sn":1113,"data_status":"actual","official_data":true,"is_prediction":false,"source":"행정안전부 침수흔적도 · 재난안전데이터공유플랫폼 DSSP-IF-00117","collected_at":"2026-08-19T16:46:51+09:00","source_crs":"EPSG:3857","display_badges":["행안부 침수흔적도","과거 기록"]}},{"type":"Feature","id":"FLD:47250:1112:809","geometry":{"type":"MultiPolygon","coordinates":[[[[128.177291,36.417245],[128.177403,36.417203],[128.177588,36.417124],[128.177672,36.417067],[128.177778,36.417026],[128.177907,36.416986],[128.178057,36.416952],[128.178401,36.416956],[128.178252,36.417503],[128.178238,36.417497],[128.178024,36.417432],[128.177919,36.4174],[128.177731,36.41736],[128.177269,36.417269],[128.177291,36.417245]]]]},"properties":{"id":"FLD:47250:1112:809","layer":"FLOOD_TRACE","admin_code":"47250","sido_code":"47","flood_year":"2012","occurred_at":"2012-09-17","ended_at":"2012-09-19","begin_time":"1300","end_time":"0800","disaster_name":"2012년 태풍 산바","cause_detail":"태풍 산바에 따른 구거 범람","flood_grade":1,"flood_depth_m":0.497,"flood_area_m2":138495,"source_sn":1112,"data_status":"actual","official_data":true,"is_prediction":false,"source":"행정안전부 침수흔적도 · 재난안전데이터공유플랫폼 DSSP-IF-00117","collected_at":"2026-08-19T16:46:51+09:00","source_crs":"EPSG:3857","display_badges":["행안부 침수흔적도","과거 기록"]}},{"type":"Feature","id":"FLD:47250:1115:810","geometry":{"type":"MultiPolygon","coordinates":[[[[128.166251,36.414642],[128.166387,36.414648],[128.166409,36.414649],[128.166514,36.414654],[128.166536,36.414656],[128.166582,36.414736],[128.166632,36.414823],[128.166677,36.414904],[128.166705,36.414952],[128.166746,36.415027],[128.166937,36.415364],[128.166974,36.415434],[128.166992,36.415469],[128.167026,36.415551],[128.167056,36.415624],[128.167063,36.415646],[128.167131,36.415875],[128.166799,36.415869],[128.166567,36.415869],[128.166187,36.415887],[128.166166,36.415718],[128.166154,36.415606],[128.166156,36.415589],[128.166147,36.415346],[128.166165,36.415263],[128.166163,36.415239],[128.16616,36.415126],[128.166158,36.415024],[128.166155,36.414882],[128.166154,36.414861],[128.166152,36.414751],[128.166151,36.414637],[128.166251,36.414642]]]]},"properties":{"id":"FLD:47250:1115:810","layer":"FLOOD_TRACE","admin_code":"47250","sido_code":"47","flood_year":"2012","occurred_at":"2012-09-17","ended_at":"2012-09-18","begin_time":"1500","end_time":"0800","disaster_name":"2012년 태풍 산바","cause_detail":"태풍 산바에 따른 구거 범람","flood_grade":1,"flood_depth_m":0.33,"flood_area_m2":8652,"source_sn":1115,"data_status":"actual","official_data":true,"is_prediction":false,"source":"행정안전부 침수흔적도 · 재난안전데이터공유플랫폼 DSSP-IF-00117","collected_at":"2026-08-19T16:46:51+09:00","source_crs":"EPSG:3857","display_badges":["행안부 침수흔적도","과거 기록"]}},{"type":"Feature","id":"FLD:47250:1114:811","geometry":{"type":"MultiPolygon","coordinates":[[[[128.178617,36.414445],[128.178278,36.414425],[128.178171,36.41442],[128.178109,36.414416],[128.177754,36.414398],[128.177552,36.414386],[128.177392,36.414378],[128.17744,36.413731],[128.177603,36.413739],[128.17815,36.413764],[128.178326,36.413771],[128.178494,36.413783],[128.178648,36.413848],[128.178663,36.41386],[128.178617,36.414445]]]]},"properties":{"id":"FLD:47250:1114:811","layer":"FLOOD_TRACE","admin_code":"47250","sido_code":"47","flood_year":"2012","occurred_at":"2012-09-17","ended_at":"2012-09-19","begin_time":"1300","end_time":"0800","disaster_name":"2012년 태풍 산바","cause_detail":"태풍 산바에 따른 구거 범람","flood_grade":1,"flood_depth_m":0.488,"flood_area_m2":138495,"source_sn":1114,"data_status":"actual","official_data":true,"is_prediction":false,"source":"행정안전부 침수흔적도 · 재난안전데이터공유플랫폼 DSSP-IF-00117","collected_at":"2026-08-19T16:46:51+09:00","source_crs":"EPSG:3857","display_badges":["행안부 침수흔적도","과거 기록"]}},{"type":"Feature","id":"FLD:47250:1118:812","geometry":{"type":"MultiPolygon","coordinates":[[[[128.169066,36.402353],[128.169037,36.402314],[128.168976,36.402305],[128.168937,36.402294],[128.168836,36.40224],[128.168626,36.402124],[128.168496,36.402031],[128.168446,36.401996],[128.168397,36.401939],[128.168382,36.401922],[128.168352,36.401888],[128.168271,36.401823],[128.167915,36.401712],[128.167714,36.401664],[128.167557,36.401604],[128.167437,36.401529],[128.167302,36.401436],[128.167249,36.401385],[128.167174,36.401298],[128.167126,36.401271],[128.167054,36.401231],[128.166984,36.40114],[128.16686,36.400971],[128.1668,36.400939],[128.166634,36.400804],[128.166535,36.400726],[128.166386,36.400602],[128.166481,36.400594],[128.167455,36.401247],[128.167492,36.40127],[128.168273,36.401796],[128.16845,36.401918],[128.168482,36.401935],[128.169144,36.402378],[128.169237,36.402444],[128.169066,36.402353]]]]},"properties":{"id":"FLD:47250:1118:812","layer":"FLOOD_TRACE","admin_code":"47250","sido_code":"47","flood_year":"2012","occurred_at":"2012-09-17","ended_at":"2012-09-19","begin_time":"1300","end_time":"1200","disaster_name":"2012년 태풍 산바에 따른 침수","cause_detail":"태풍산바에 따른 구거 범람","flood_grade":1,"flood_depth_m":0.453,"flood_area_m2":40488,"source_sn":1118,"data_status":"actual","official_data":true,"is_prediction":false,"source":"행정안전부 침수흔적도 · 재난안전데이터공유플랫폼 DSSP-IF-00117","collected_at":"2026-08-19T16:46:51+09:00","source_crs":"EPSG:3857","display_badges":["행안부 침수흔적도","과거 기록"]}},{"type":"Feature","id":"FLD:47250:1117:813","geometry":{"type":"MultiPolygon","coordinates":[[[[128.1577,36.393439],[128.157713,36.393461],[128.157809,36.393632],[128.157787,36.393651],[128.157779,36.393795],[128.157769,36.39387],[128.157763,36.393908],[128.157734,36.394027],[128.157644,36.394284],[128.157624,36.394343],[128.157519,36.394637],[128.157314,36.395222],[128.157294,36.395285],[128.157284,36.395312],[128.156842,36.394696],[128.15682,36.394665],[128.156386,36.394053],[128.156365,36.394025],[128.155922,36.393406],[128.156002,36.393366],[128.156019,36.393359],[128.156231,36.393263],[128.15648,36.393149],[128.156725,36.393037],[128.157319,36.392769],[128.157372,36.392862],[128.1577,36.393439]]]]},"properties":{"id":"FLD:47250:1117:813","layer":"FLOOD_TRACE","admin_code":"47250","sido_code":"47","flood_year":"2012","occurred_at":"2012-09-17","ended_at":"2012-09-19","begin_time":"1000","end_time":"1000","disaster_name":"2012년 태풍 산바","cause_detail":"태풍산바에 따른 구거 범람","flood_grade":2,"flood_depth_m":0.634,"flood_area_m2":24308,"source_sn":1117,"data_status":"actual","official_data":true,"is_prediction":false,"source":"행정안전부 침수흔적도 · 재난안전데이터공유플랫폼 DSSP-IF-00117","collected_at":"2026-08-19T16:46:51+09:00","source_crs":"EPSG:3857","display_badges":["행안부 침수흔적도","과거 기록"]}},{"type":"Feature","id":"FLD:47250:1119:814","geometry":{"type":"MultiPolygon","coordinates":[[[[128.167249,36.401385],[128.167302,36.401436],[128.167437,36.401529],[128.167557,36.401604],[128.167714,36.401664],[128.167915,36.401712],[128.168271,36.401823],[128.168352,36.401888],[128.168382,36.401922],[128.168397,36.401939],[128.168446,36.401996],[128.168496,36.402031],[128.168626,36.402124],[128.168836,36.40224],[128.168937,36.402294],[128.168976,36.402305],[128.169037,36.402314],[128.169066,36.402353],[128.169237,36.402444],[128.169396,36.402554],[128.169365,36.402579],[128.169354,36.402588],[128.169321,36.402615],[128.169303,36.40263],[128.168948,36.402922],[128.168836,36.403014],[128.168593,36.403214],[128.16843,36.403352],[128.168328,36.402704],[128.16796,36.402732],[128.16769,36.402751],[128.167412,36.402774],[128.167133,36.402795],[128.167131,36.402778],[128.167042,36.402043],[128.166762,36.402064],[128.166698,36.402053],[128.166626,36.401336],[128.167052,36.401303],[128.167055,36.401309],[128.167174,36.401298],[128.167249,36.401385]]]]},"properties":{"id":"FLD:47250:1119:814","layer":"FLOOD_TRACE","admin_code":"47250","sido_code":"47","flood_year":"2012","occurred_at":"2012-09-17","ended_at":"2012-09-19","begin_time":"1300","end_time":"1200","disaster_name":"2012년 태풍 산바에 따른 침수","cause_detail":"태풍산바에 따른 구거 범람","flood_grade":2,"flood_depth_m":0.548,"flood_area_m2":40488,"source_sn":1119,"data_status":"actual","official_data":true,"is_prediction":false,"source":"행정안전부 침수흔적도 · 재난안전데이터공유플랫폼 DSSP-IF-00117","collected_at":"2026-08-19T16:46:51+09:00","source_crs":"EPSG:3857","display_badges":["행안부 침수흔적도","과거 기록"]}},{"type":"Feature","id":"FLD:47250:1136:815","geometry":{"type":"MultiPolygon","coordinates":[[[[128.168231,36.391943],[128.168205,36.391914],[128.167542,36.391171],[128.167578,36.391142],[128.167678,36.39106],[128.168476,36.391689],[128.168854,36.391377],[128.168926,36.391319],[128.168956,36.391346],[128.169466,36.391739],[128.169512,36.391757],[128.169495,36.391814],[128.169506,36.3919],[128.169473,36.391949],[128.169241,36.392078],[128.169056,36.39216],[128.168838,36.392317],[128.168656,36.392459],[128.168231,36.391943]]]]},"properties":{"id":"FLD:47250:1136:815","layer":"FLOOD_TRACE","admin_code":"47250","sido_code":"47","flood_year":"2012","occurred_at":"2012-09-17","ended_at":"2012-09-19","begin_time":"1500","end_time":"0800","disaster_name":"2012년 태풍 산바에 따른 침수","cause_detail":"태풍 산바에 따른 구거 역류","flood_grade":2,"flood_depth_m":0.79,"flood_area_m2":104477,"source_sn":1136,"data_status":"actual","official_data":true,"is_prediction":false,"source":"행정안전부 침수흔적도 · 재난안전데이터공유플랫폼 DSSP-IF-00117","collected_at":"2026-08-19T16:46:51+09:00","source_crs":"EPSG:3857","display_badges":["행안부 침수흔적도","과거 기록"]}},{"type":"Feature","id":"FLD:47250:1138:816","geometry":{"type":"MultiPolygon","coordinates":[[[[128.170932,36.391205],[128.171023,36.391243],[128.171118,36.391311],[128.171152,36.391357],[128.171169,36.391402],[128.171199,36.391527],[128.171285,36.391745],[128.171331,36.391838],[128.171386,36.391892],[128.171454,36.391933],[128.171496,36.3919],[128.171526,36.392091],[128.171575,36.392239],[128.171614,36.392309],[128.171622,36.392321],[128.17158,36.392331],[128.171535,36.39234],[128.171542,36.392446],[128.171546,36.392599],[128.171581,36.392748],[128.171619,36.392873],[128.171656,36.392982],[128.171673,36.39306],[128.171604,36.393063],[128.171464,36.39302],[128.170981,36.392869],[128.17036,36.392831],[128.169648,36.392813],[128.170243,36.392107],[128.17038,36.391922],[128.170796,36.391288],[128.170918,36.39114],[128.170932,36.391205]]]]},"properties":{"id":"FLD:47250:1138:816","layer":"FLOOD_TRACE","admin_code":"47250","sido_code":"47","flood_year":"2012","occurred_at":"2012-09-17","ended_at":"2012-09-18","begin_time":"1500","end_time":"2000","disaster_name":"2012년 태풍 산바","cause_detail":"태풍산바에 따른 구거범람 및 하천역류","flood_grade":3,"flood_depth_m":1.263,"flood_area_m2":58523,"source_sn":1138,"data_status":"actual","official_data":true,"is_prediction":false,"source":"행정안전부 침수흔적도 · 재난안전데이터공유플랫폼 DSSP-IF-00117","collected_at":"2026-08-19T16:46:51+09:00","source_crs":"EPSG:3857","display_badges":["행안부 침수흔적도","과거 기록"]}},{"type":"Feature","id":"FLD:47250:1133:817","geometry":{"type":"MultiPolygon","coordinates":[[[[128.168476,36.391689],[128.167678,36.39106],[128.168061,36.390745],[128.168854,36.391377],[128.168476,36.391689]]]]},"properties":{"id":"FLD:47250:1133:817","layer":"FLOOD_TRACE","admin_code":"47250","sido_code":"47","flood_year":"2012","occurred_at":"2012-09-17","ended_at":"2012-09-19","begin_time":"1500","end_time":"0800","disaster_name":"2012년 태풍 산바에 따른 침수","cause_detail":"태풍 산바에 따른 구거 역류","flood_grade":3,"flood_depth_m":1.157,"flood_area_m2":104477,"source_sn":1133,"data_status":"actual","official_data":true,"is_prediction":false,"source":"행정안전부 침수흔적도 · 재난안전데이터공유플랫폼 DSSP-IF-00117","collected_at":"2026-08-19T16:46:51+09:00","source_crs":"EPSG:3857","display_badges":["행안부 침수흔적도","과거 기록"]}},{"type":"Feature","id":"FLD:47250:1130:818","geometry":{"type":"MultiPolygon","coordinates":[[[[128.1658,36.39115],[128.165926,36.391046],[128.16615,36.39086],[128.166378,36.390671],[128.166493,36.390575],[128.165695,36.389945],[128.165793,36.389863],[128.166596,36.39049],[128.166647,36.390448],[128.166684,36.390473],[128.167508,36.391132],[128.167542,36.391171],[128.168205,36.391914],[128.168231,36.391943],[128.168656,36.392459],[128.16868,36.392488],[128.168561,36.392578],[128.168489,36.392524],[128.1682,36.392311],[128.168152,36.39225],[128.167884,36.39205],[128.167585,36.391887],[128.167461,36.391819],[128.167432,36.391806],[128.167344,36.391742],[128.167246,36.391669],[128.167119,36.391636],[128.166457,36.391412],[128.166263,36.391346],[128.166173,36.391315],[128.165862,36.391207],[128.165777,36.391178],[128.1658,36.39115]]]]},"properties":{"id":"FLD:47250:1130:818","layer":"FLOOD_TRACE","admin_code":"47250","sido_code":"47","flood_year":"2012","occurred_at":"2012-09-17","ended_at":"2012-09-19","begin_time":"1500","end_time":"0800","disaster_name":"2012년 태풍 산바에 따른 침수","cause_detail":"태풍 산바에 따른 구거 역류","flood_grade":1,"flood_depth_m":0.492,"flood_area_m2":104477,"source_sn":1130,"data_status":"actual","official_data":true,"is_prediction":false,"source":"행정안전부 침수흔적도 · 재난안전데이터공유플랫폼 DSSP-IF-00117","collected_at":"2026-08-19T16:46:51+09:00","source_crs":"EPSG:3857","display_badges":["행안부 침수흔적도","과거 기록"]}},{"type":"Feature","id":"FLD:47250:1137:819","geometry":{"type":"MultiPolygon","coordinates":[[[[128.172136,36.39848],[128.172516,36.399336],[128.172541,36.399394],[128.172226,36.399485],[128.172216,36.399468],[128.172198,36.399426],[128.171788,36.398583],[128.172136,36.39848]]]]},"properties":{"id":"FLD:47250:1137:819","layer":"FLOOD_TRACE","admin_code":"47250","sido_code":"47","flood_year":"2012","occurred_at":"2012-09-17","ended_at":"2012-09-18","begin_time":"1500","end_time":"2000","disaster_name":"2012년 태풍 산바","cause_detail":"태풍산바에 따른 구거 범람 및 하천역류","flood_grade":3,"flood_depth_m":1.143,"flood_area_m2":58523,"source_sn":1137,"data_status":"actual","official_data":true,"is_prediction":false,"source":"행정안전부 침수흔적도 · 재난안전데이터공유플랫폼 DSSP-IF-00117","collected_at":"2026-08-19T16:46:51+09:00","source_crs":"EPSG:3857","display_badges":["행안부 침수흔적도","과거 기록"]}},{"type":"Feature","id":"FLD:47250:1127:820","geometry":{"type":"MultiPolygon","coordinates":[[[[128.171454,36.391933],[128.171386,36.391892],[128.171331,36.391838],[128.171285,36.391745],[128.171199,36.391527],[128.171169,36.391402],[128.171152,36.391357],[128.171118,36.391311],[128.171023,36.391243],[128.170932,36.391205],[128.170918,36.39114],[128.170987,36.391093],[128.171038,36.391043],[128.171101,36.390925],[128.171198,36.390939],[128.171294,36.390919],[128.171548,36.390874],[128.171729,36.390883],[128.171762,36.390902],[128.171821,36.390917],[128.171858,36.390917],[128.17189,36.390901],[128.171962,36.390827],[128.172003,36.390814],[128.171981,36.390884],[128.171973,36.390911],[128.171905,36.391072],[128.171841,36.391241],[128.171794,36.391346],[128.171746,36.391423],[128.171702,36.391516],[128.171616,36.391627],[128.171557,36.391745],[128.171496,36.3919],[128.171454,36.391933]]]]},"properties":{"id":"FLD:47250:1127:820","layer":"FLOOD_TRACE","admin_code":"47250","sido_code":"47","flood_year":"2012","occurred_at":"2012-09-17","ended_at":"2012-09-18","begin_time":"1500","end_time":"2000","disaster_name":"2012년 태풍 산바","cause_detail":"태풍산바에 따른 구거범람 및 하천역류","flood_grade":2,"flood_depth_m":0.999,"flood_area_m2":58523,"source_sn":1127,"data_status":"actual","official_data":true,"is_prediction":false,"source":"행정안전부 침수흔적도 · 재난안전데이터공유플랫폼 DSSP-IF-00117","collected_at":"2026-08-19T16:46:51+09:00","source_crs":"EPSG:3857","display_badges":["행안부 침수흔적도","과거 기록"]}},{"type":"Feature","id":"FLD:47250:1135:821","geometry":{"type":"MultiPolygon","coordinates":[[[[128.17181,36.396541],[128.172195,36.397402],[128.172216,36.39745],[128.172326,36.397419],[128.172705,36.398274],[128.172772,36.398254],[128.17329,36.398105],[128.174063,36.397882],[128.174165,36.397837],[128.174316,36.397886],[128.174424,36.397905],[128.174616,36.397964],[128.174739,36.398077],[128.174711,36.398322],[128.174683,36.398452],[128.17465,36.398622],[128.17464,36.398671],[128.174638,36.398685],[128.174631,36.398722],[128.1745,36.39892],[128.174412,36.399153],[128.174383,36.399166],[128.17435,36.39931],[128.174332,36.399369],[128.174306,36.399426],[128.1743,36.399438],[128.174245,36.399518],[128.174196,36.399552],[128.174141,36.399589],[128.173877,36.399009],[128.173586,36.399093],[128.173446,36.399133],[128.173128,36.399225],[128.172812,36.399316],[128.17273,36.39934],[128.172542,36.399394],[128.172541,36.399394],[128.172516,36.399336],[128.172136,36.39848],[128.171788,36.398583],[128.171766,36.398545],[128.171359,36.3977],[128.171351,36.397685],[128.171336,36.39765],[128.171046,36.397069],[128.170924,36.396795],[128.17181,36.396541]]]]},"properties":{"id":"FLD:47250:1135:821","layer":"FLOOD_TRACE","admin_code":"47250","sido_code":"47","flood_year":"2012","occurred_at":"2012-09-17","ended_at":"2012-09-18","begin_time":"1500","end_time":"2000","disaster_name":"2012년 태풍 산바","cause_detail":"태풍산바에 따른 구거 범람 및 하천역류","flood_grade":5,"flood_depth_m":2.089,"flood_area_m2":58523,"source_sn":1135,"data_status":"actual","official_data":true,"is_prediction":false,"source":"행정안전부 침수흔적도 · 재난안전데이터공유플랫폼 DSSP-IF-00117","collected_at":"2026-08-19T16:46:51+09:00","source_crs":"EPSG:3857","display_badges":["행안부 침수흔적도","과거 기록"]}},{"type":"Feature","id":"FLD:47250:1128:822","geometry":{"type":"MultiPolygon","coordinates":[[[[128.172772,36.398254],[128.172705,36.398274],[128.172326,36.397419],[128.172216,36.39745],[128.172195,36.397402],[128.17181,36.396541],[128.170924,36.396795],[128.170893,36.396769],[128.170824,36.396625],[128.170853,36.396331],[128.17081,36.395911],[128.17085,36.395813],[128.17098,36.395776],[128.171211,36.395709],[128.171422,36.395648],[128.171588,36.3956],[128.171898,36.39551],[128.171948,36.395499],[128.172071,36.395811],[128.172101,36.395962],[128.172156,36.396362],[128.172489,36.396347],[128.172513,36.396436],[128.172508,36.396493],[128.172523,36.396587],[128.172514,36.396666],[128.172419,36.396978],[128.172428,36.396996],[128.172498,36.397032],[128.172661,36.397113],[128.1728,36.397189],[128.172904,36.397244],[128.172857,36.397264],[128.172937,36.397307],[128.17329,36.398105],[128.172772,36.398254]]]]},"properties":{"id":"FLD:47250:1128:822","layer":"FLOOD_TRACE","admin_code":"47250","sido_code":"47","flood_year":"2012","occurred_at":"2012-09-17","ended_at":"2012-09-18","begin_time":"1500","end_time":"2000","disaster_name":"2012년 태풍 산바","cause_detail":"태풍산바에 따른 구거 범람 및 하천역류","flood_grade":2,"flood_depth_m":1.628,"flood_area_m2":58523,"source_sn":1128,"data_status":"actual","official_data":true,"is_prediction":false,"source":"행정안전부 침수흔적도 · 재난안전데이터공유플랫폼 DSSP-IF-00117","collected_at":"2026-08-19T16:46:51+09:00","source_crs":"EPSG:3857","display_badges":["행안부 침수흔적도","과거 기록"]}},{"type":"Feature","id":"FLD:47250:1129:823","geometry":{"type":"MultiPolygon","coordinates":[[[[128.172542,36.399394],[128.17273,36.39934],[128.172812,36.399316],[128.173128,36.399225],[128.173446,36.399133],[128.173586,36.399093],[128.173877,36.399009],[128.174141,36.399589],[128.174097,36.399617],[128.17412,36.399643],[128.174019,36.399703],[128.173955,36.399742],[128.173895,36.399792],[128.173782,36.399886],[128.173763,36.399895],[128.173679,36.399934],[128.173481,36.40001],[128.173361,36.400057],[128.173213,36.400096],[128.173159,36.400104],[128.173069,36.400116],[128.17291,36.40017],[128.17268,36.400222],[128.172574,36.400243],[128.172405,36.399875],[128.172304,36.399689],[128.172328,36.399694],[128.172226,36.399485],[128.172542,36.399394]]]]},"properties":{"id":"FLD:47250:1129:823","layer":"FLOOD_TRACE","admin_code":"47250","sido_code":"47","flood_year":"2012","occurred_at":"2012-09-17","ended_at":"2012-09-18","begin_time":"1500","end_time":"2000","disaster_name":"2012년 태풍 산바","cause_detail":"태풍산바에 따른 구거 범람 및 하천역류","flood_grade":2,"flood_depth_m":1.677,"flood_area_m2":58523,"source_sn":1129,"data_status":"actual","official_data":true,"is_prediction":false,"source":"행정안전부 침수흔적도 · 재난안전데이터공유플랫폼 DSSP-IF-00117","collected_at":"2026-08-19T16:46:51+09:00","source_crs":"EPSG:3857","display_badges":["행안부 침수흔적도","과거 기록"]}},{"type":"Feature","id":"FLD:47250:1142:824","geometry":{"type":"MultiPolygon","coordinates":[[[[128.174486,36.402184],[128.174321,36.401984],[128.174195,36.401978],[128.17411,36.40184],[128.174053,36.401773],[128.17399,36.401583],[128.173939,36.401466],[128.173962,36.401443],[128.17394,36.401354],[128.173947,36.401303],[128.173939,36.401254],[128.173898,36.401169],[128.17392,36.401106],[128.173938,36.401137],[128.174,36.401249],[128.174084,36.401327],[128.174101,36.401341],[128.174136,36.401313],[128.17437,36.401198],[128.174443,36.401169],[128.174515,36.401133],[128.174587,36.401114],[128.1747,36.401054],[128.174743,36.401072],[128.174933,36.401024],[128.175133,36.401034],[128.175159,36.401106],[128.175248,36.401187],[128.17534,36.401291],[128.175486,36.401324],[128.17552,36.40134],[128.175616,36.401378],[128.175639,36.401443],[128.17561,36.40174],[128.17565,36.401895],[128.175694,36.401937],[128.175711,36.401972],[128.175806,36.402059],[128.175829,36.402085],[128.175855,36.40211],[128.175877,36.402147],[128.175847,36.402173],[128.175917,36.40225],[128.17596,36.402305],[128.176003,36.402388],[128.17605,36.402381],[128.176096,36.402442],[128.176159,36.402627],[128.17625,36.402799],[128.176261,36.402863],[128.176309,36.402902],[128.176391,36.402887],[128.176467,36.40285],[128.176499,36.402863],[128.176565,36.402917],[128.176629,36.402947],[128.17668,36.40295],[128.176776,36.403025],[128.176844,36.403109],[128.176969,36.403171],[128.177132,36.403074],[128.177216,36.403054],[128.177176,36.403019],[128.176996,36.402942],[128.176852,36.402856],[128.176861,36.40281],[128.177027,36.402817],[128.1771,36.40282],[128.177167,36.402845],[128.177207,36.402877],[128.177288,36.402942],[128.177388,36.403058],[128.177475,36.403128],[128.177493,36.403154],[128.177668,36.403286],[128.177712,36.403357],[128.17776,36.403528],[128.177862,36.40362],[128.177828,36.403713],[128.177771,36.403795],[128.177594,36.403924],[128.177592,36.404008],[128.177645,36.40414],[128.177712,36.404227],[128.177733,36.404295],[128.177727,36.404359],[128.177575,36.404344],[128.177366,36.404358],[128.177179,36.404423],[128.177101,36.40446],[128.176939,36.404591],[128.176749,36.404738],[128.176659,36.404813],[128.176535,36.404916],[128.176506,36.40489],[128.176459,36.404862],[128.176452,36.404847],[128.176241,36.404605],[128.176337,36.40452],[128.176546,36.404127],[128.176694,36.403922],[128.175374,36.403208],[128.175356,36.403236],[128.175176,36.403402],[128.175152,36.403376],[128.174535,36.402701],[128.174561,36.402663],[128.174773,36.40253],[128.174731,36.402482],[128.174698,36.402452],[128.174567,36.402325],[128.174532,36.402291],[128.174518,36.402257],[128.174486,36.402184]]]]},"properties":{"id":"FLD:47250:1142:824","layer":"FLOOD_TRACE","admin_code":"47250","sido_code":"47","flood_year":"2012","occurred_at":"2012-09-17","ended_at":"2012-09-18","begin_time":"1500","end_time":"1900","disaster_name":"2012년 태풍 산바","cause_detail":"태풍산바에 따른 구거 범람 및 하천역류","flood_grade":3,"flood_depth_m":1.103,"flood_area_m2":80952.5,"source_sn":1142,"data_status":"actual","official_data":true,"is_prediction":false,"source":"행정안전부 침수흔적도 · 재난안전데이터공유플랫폼 DSSP-IF-00117","collected_at":"2026-08-19T16:46:51+09:00","source_crs":"EPSG:3857","display_badges":["행안부 침수흔적도","과거 기록"]}},{"type":"Feature","id":"FLD:47250:1141:825","geometry":{"type":"MultiPolygon","coordinates":[[[[128.179428,36.406689],[128.179301,36.406605],[128.179193,36.406538],[128.178951,36.406385],[128.178708,36.406226],[128.178593,36.406153],[128.178492,36.406092],[128.178371,36.406015],[128.178211,36.405915],[128.178227,36.405879],[128.178284,36.405733],[128.17834,36.405574],[128.178386,36.405417],[128.178353,36.405408],[128.178379,36.4053],[128.178344,36.405212],[128.178283,36.40513],[128.178417,36.405158],[128.178972,36.405251],[128.179113,36.405275],[128.17919,36.40528],[128.179387,36.405337],[128.179489,36.405346],[128.17974,36.405407],[128.179883,36.405449],[128.179648,36.405741],[128.179672,36.405748],[128.179759,36.405785],[128.179883,36.40584],[128.180133,36.405951],[128.180364,36.406045],[128.180408,36.406066],[128.179725,36.406781],[128.179717,36.40679],[128.179695,36.406816],[128.179661,36.406847],[128.179428,36.406689]]]]},"properties":{"id":"FLD:47250:1141:825","layer":"FLOOD_TRACE","admin_code":"47250","sido_code":"47","flood_year":"2012","occurred_at":"2012-09-17","ended_at":"2012-09-18","begin_time":"1500","end_time":"1900","disaster_name":"2012년 태풍 산바","cause_detail":"태풍산바에 따른 구거범람 및 하천역류","flood_grade":2,"flood_depth_m":0.719,"flood_area_m2":80952.5,"source_sn":1141,"data_status":"actual","official_data":true,"is_prediction":false,"source":"행정안전부 침수흔적도 · 재난안전데이터공유플랫폼 DSSP-IF-00117","collected_at":"2026-08-19T16:46:51+09:00","source_crs":"EPSG:3857","display_badges":["행안부 침수흔적도","과거 기록"]}},{"type":"Feature","id":"FLD:47250:1145:826","geometry":{"type":"MultiPolygon","coordinates":[[[[128.177167,36.402845],[128.1771,36.40282],[128.177027,36.402817],[128.176991,36.40275],[128.176903,36.402409],[128.176568,36.402182],[128.176656,36.402154],[128.176701,36.40214],[128.176893,36.402097],[128.177006,36.402084],[128.17706,36.402103],[128.177106,36.402213],[128.177144,36.402274],[128.177242,36.402413],[128.177335,36.402546],[128.177443,36.402744],[128.177207,36.402877],[128.177167,36.402845]]]]},"properties":{"id":"FLD:47250:1145:826","layer":"FLOOD_TRACE","admin_code":"47250","sido_code":"47","flood_year":"2012","occurred_at":"2012-09-17","ended_at":"2012-09-18","begin_time":"1500","end_time":"1900","disaster_name":"2012년 태풍 산바","cause_detail":"태풍산바에 따른 구거 범람 및 하천역류","flood_grade":1,"flood_depth_m":0.393,"flood_area_m2":80952.5,"source_sn":1145,"data_status":"actual","official_data":true,"is_prediction":false,"source":"행정안전부 침수흔적도 · 재난안전데이터공유플랫폼 DSSP-IF-00117","collected_at":"2026-08-19T16:46:51+09:00","source_crs":"EPSG:3857","display_badges":["행안부 침수흔적도","과거 기록"]}},{"type":"Feature","id":"FLD:47250:1146:827","geometry":{"type":"MultiPolygon","coordinates":[[[[128.176861,36.40281],[128.176852,36.402856],[128.176996,36.402942],[128.177176,36.403019],[128.177216,36.403054],[128.177132,36.403074],[128.176969,36.403171],[128.176844,36.403109],[128.176776,36.403025],[128.17668,36.40295],[128.176629,36.402947],[128.176565,36.402917],[128.176499,36.402863],[128.176467,36.40285],[128.176391,36.402887],[128.176309,36.402902],[128.176261,36.402863],[128.17625,36.402799],[128.176159,36.402627],[128.176096,36.402442],[128.17605,36.402381],[128.176003,36.402388],[128.17596,36.402305],[128.175917,36.40225],[128.175847,36.402173],[128.175877,36.402147],[128.175855,36.40211],[128.175829,36.402085],[128.175806,36.402059],[128.175711,36.401972],[128.175694,36.401937],[128.17565,36.401895],[128.17561,36.40174],[128.175639,36.401443],[128.175616,36.401378],[128.17552,36.40134],[128.175486,36.401324],[128.17534,36.401291],[128.175248,36.401187],[128.175159,36.401106],[128.175133,36.401034],[128.174933,36.401024],[128.174743,36.401072],[128.1747,36.401054],[128.174629,36.400955],[128.174861,36.400727],[128.17504,36.400645],[128.175162,36.400635],[128.175327,36.400567],[128.175582,36.400491],[128.175652,36.400522],[128.175714,36.400538],[128.175924,36.400589],[128.176032,36.400608],[128.176331,36.400619],[128.176427,36.400591],[128.176545,36.400566],[128.176563,36.400602],[128.176527,36.400709],[128.176499,36.400797],[128.176448,36.400911],[128.176406,36.400995],[128.176356,36.401082],[128.176336,36.401152],[128.17629,36.401184],[128.176249,36.401222],[128.17632,36.401309],[128.176465,36.401443],[128.176671,36.401614],[128.17678,36.401701],[128.176872,36.401808],[128.177128,36.402031],[128.17706,36.402103],[128.177006,36.402084],[128.176893,36.402097],[128.176701,36.40214],[128.176656,36.402154],[128.176568,36.402182],[128.176903,36.402409],[128.176991,36.40275],[128.177027,36.402817],[128.176861,36.40281]]]]},"properties":{"id":"FLD:47250:1146:827","layer":"FLOOD_TRACE","admin_code":"47250","sido_code":"47","flood_year":"2012","occurred_at":"2012-09-17","ended_at":"2012-09-18","begin_time":"1500","end_time":"1900","disaster_name":"2012년 태풍 산바","cause_detail":"태풍산바에 따른 구거 범람 및 하천역류","flood_grade":2,"flood_depth_m":0.773,"flood_area_m2":80952.5,"source_sn":1146,"data_status":"actual","official_data":true,"is_prediction":false,"source":"행정안전부 침수흔적도 · 재난안전데이터공유플랫폼 DSSP-IF-00117","collected_at":"2026-08-19T16:46:51+09:00","source_crs":"EPSG:3857","display_badges":["행안부 침수흔적도","과거 기록"]}},{"type":"Feature","id":"FLD:47250:1144:828","geometry":{"type":"MultiPolygon","coordinates":[[[[128.173898,36.401169],[128.173939,36.401254],[128.173947,36.401303],[128.17394,36.401354],[128.173962,36.401443],[128.173939,36.401466],[128.17399,36.401583],[128.174053,36.401773],[128.17411,36.40184],[128.174195,36.401978],[128.174321,36.401984],[128.174486,36.402184],[128.174518,36.402257],[128.174498,36.402237],[128.174299,36.402357],[128.174283,36.402344],[128.174218,36.402311],[128.174108,36.402186],[128.173972,36.402032],[128.173856,36.40195],[128.173763,36.401866],[128.173641,36.401712],[128.17354,36.401542],[128.173467,36.401431],[128.173308,36.401273],[128.173407,36.401241],[128.17344,36.401199],[128.173541,36.401151],[128.173572,36.401112],[128.173611,36.401081],[128.173685,36.401038],[128.173843,36.400972],[128.173888,36.401059],[128.17392,36.401106],[128.173898,36.401169]]]]},"properties":{"id":"FLD:47250:1144:828","layer":"FLOOD_TRACE","admin_code":"47250","sido_code":"47","flood_year":"2012","occurred_at":"2012-09-17","ended_at":"2012-09-18","begin_time":"1500","end_time":"1900","disaster_name":"2012년 태풍 산바","cause_detail":"태풍산바에 따른 구거 범람 및 하천역류","flood_grade":2,"flood_depth_m":0.775,"flood_area_m2":80952.5,"source_sn":1144,"data_status":"actual","official_data":true,"is_prediction":false,"source":"행정안전부 침수흔적도 · 재난안전데이터공유플랫폼 DSSP-IF-00117","collected_at":"2026-08-19T16:46:51+09:00","source_crs":"EPSG:3857","display_badges":["행안부 침수흔적도","과거 기록"]}},{"type":"Feature","id":"FLD:47250:1147:2268","geometry":{"type":"MultiPolygon","coordinates":[[[[128.185647,36.432692],[128.184974,36.433172],[128.184937,36.433199],[128.184484,36.432778],[128.183808,36.432146],[128.18388,36.43215],[128.1837,36.431979],[128.183521,36.431809],[128.183336,36.431634],[128.183308,36.431607],[128.183125,36.431437],[128.182942,36.431266],[128.182762,36.431098],[128.182739,36.431077],[128.18256,36.430909],[128.183226,36.430434],[128.183251,36.43042],[128.183451,36.430607],[128.183815,36.430947],[128.183998,36.431118],[128.184026,36.431145],[128.184211,36.431318],[128.184393,36.431487],[128.18458,36.43166],[128.184763,36.43183],[128.184945,36.432],[128.185125,36.432168],[128.185312,36.432345],[128.185556,36.432572],[128.185671,36.432678],[128.185647,36.432692]]]]},"properties":{"id":"FLD:47250:1147:2268","layer":"FLOOD_TRACE","admin_code":"47250","sido_code":"47","flood_year":"2012","occurred_at":"2012-09-17","ended_at":"2012-09-18","begin_time":"1500","end_time":"0800","disaster_name":"2012년 태풍산바에 따른 침수","cause_detail":"태풍산바에 따른 구거 범람","flood_grade":1,"flood_depth_m":0.245,"flood_area_m2":65493,"source_sn":1147,"data_status":"actual","official_data":true,"is_prediction":false,"source":"행정안전부 침수흔적도 · 재난안전데이터공유플랫폼 DSSP-IF-00117","collected_at":"2026-08-19T16:46:51+09:00","source_crs":"EPSG:3857","display_badges":["행안부 침수흔적도","과거 기록"]}},{"type":"Feature","id":"FLD:47250:1149:2269","geometry":{"type":"MultiPolygon","coordinates":[[[[128.187396,36.435425],[128.187416,36.435411],[128.188065,36.434951],[128.188088,36.434935],[128.188454,36.435277],[128.188794,36.435595],[128.188817,36.435616],[128.188802,36.435631],[128.188424,36.4359],[128.188154,36.436092],[128.188132,36.436108],[128.188107,36.436126],[128.18792,36.43595],[128.187725,36.435778],[128.187367,36.435447],[128.187396,36.435425]]]]},"properties":{"id":"FLD:47250:1149:2269","layer":"FLOOD_TRACE","admin_code":"47250","sido_code":"47","flood_year":"2012","occurred_at":"2012-09-17","ended_at":"2012-09-18","begin_time":"1500","end_time":"0800","disaster_name":"2012년 태풍산바에 따른 침수","cause_detail":"태풍산바에 따른 구거 범람","flood_grade":3,"flood_depth_m":1.088,"flood_area_m2":65493,"source_sn":1149,"data_status":"actual","official_data":true,"is_prediction":false,"source":"행정안전부 침수흔적도 · 재난안전데이터공유플랫폼 DSSP-IF-00117","collected_at":"2026-08-19T16:46:51+09:00","source_crs":"EPSG:3857","display_badges":["행안부 침수흔적도","과거 기록"]}},{"type":"Feature","id":"FLD:47250:1148:2270","geometry":{"type":"MultiPolygon","coordinates":[[[[128.188065,36.434951],[128.187416,36.435411],[128.187396,36.435425],[128.187367,36.435447],[128.187082,36.435184],[128.186505,36.434649],[128.186238,36.434406],[128.18574,36.433945],[128.185375,36.433605],[128.185186,36.43343],[128.184937,36.433199],[128.184974,36.433172],[128.185647,36.432692],[128.185671,36.432678],[128.185698,36.432703],[128.185875,36.432869],[128.186242,36.43321],[128.186423,36.433379],[128.186603,36.433548],[128.186787,36.43372],[128.187141,36.434053],[128.187161,36.434072],[128.187367,36.434265],[128.187527,36.434413],[128.187545,36.43443],[128.188088,36.434935],[128.188065,36.434951]]]]},"properties":{"id":"FLD:47250:1148:2270","layer":"FLOOD_TRACE","admin_code":"47250","sido_code":"47","flood_year":"2012","occurred_at":"2012-09-17","ended_at":"2012-09-18","begin_time":"1500","end_time":"0800","disaster_name":"2012년 태풍산바에 따른 침수","cause_detail":"태풍산바에 따른 구거 범람","flood_grade":2,"flood_depth_m":0.867,"flood_area_m2":65493,"source_sn":1148,"data_status":"actual","official_data":true,"is_prediction":false,"source":"행정안전부 침수흔적도 · 재난안전데이터공유플랫폼 DSSP-IF-00117","collected_at":"2026-08-19T16:46:51+09:00","source_crs":"EPSG:3857","display_badges":["행안부 침수흔적도","과거 기록"]}},{"type":"Feature","id":"FLD:47250:1151:2271","geometry":{"type":"MultiPolygon","coordinates":[[[[128.172372,36.42997],[128.172435,36.429918],[128.172322,36.429901],[128.172308,36.429861],[128.172423,36.42987],[128.172207,36.429806],[128.172133,36.429788],[128.171963,36.429761],[128.171882,36.42975],[128.172212,36.429749],[128.172233,36.429748],[128.17235,36.429759],[128.172442,36.429785],[128.172641,36.429854],[128.172702,36.429876],[128.172719,36.429878],[128.172917,36.42994],[128.173147,36.430011],[128.173032,36.430075],[128.172782,36.429995],[128.172372,36.42997]]]]},"properties":{"id":"FLD:47250:1151:2271","layer":"FLOOD_TRACE","admin_code":"47250","sido_code":"47","flood_year":"2012","occurred_at":"2012-09-17","ended_at":"2012-09-18","begin_time":"1500","end_time":"1500","disaster_name":"2012년 태풍 산바","cause_detail":"태풍산바에 따른 구거범람","flood_grade":1,"flood_depth_m":0.335,"flood_area_m2":1037,"source_sn":1151,"data_status":"actual","official_data":true,"is_prediction":false,"source":"행정안전부 침수흔적도 · 재난안전데이터공유플랫폼 DSSP-IF-00117","collected_at":"2026-08-19T16:46:51+09:00","source_crs":"EPSG:3857","display_badges":["행안부 침수흔적도","과거 기록"]}},{"type":"Feature","id":"FLD:47250:1150:2272","geometry":{"type":"MultiPolygon","coordinates":[[[[128.170379,36.429914],[128.170475,36.429901],[128.170691,36.42987],[128.170696,36.429792],[128.170957,36.429803],[128.170959,36.429783],[128.171013,36.429763],[128.171005,36.429863],[128.171001,36.429906],[128.171007,36.429957],[128.17095,36.430393],[128.170924,36.430592],[128.170905,36.430746],[128.170904,36.430749],[128.170894,36.430745],[128.170836,36.430753],[128.170898,36.430363],[128.170946,36.429956],[128.170834,36.429921],[128.170663,36.429931],[128.170557,36.429936],[128.170376,36.429963],[128.170379,36.429914]]]]},"properties":{"id":"FLD:47250:1150:2272","layer":"FLOOD_TRACE","admin_code":"47250","sido_code":"47","flood_year":"2012","occurred_at":"2012-09-17","ended_at":"2012-09-18","begin_time":"1500","end_time":"1500","disaster_name":"2012년 태풍 산바","cause_detail":"태풍산바에 따른 구거범람","flood_grade":1,"flood_depth_m":0.47,"flood_area_m2":1037,"source_sn":1150,"data_status":"actual","official_data":true,"is_prediction":false,"source":"행정안전부 침수흔적도 · 재난안전데이터공유플랫폼 DSSP-IF-00117","collected_at":"2026-08-19T16:46:51+09:00","source_crs":"EPSG:3857","display_badges":["행안부 침수흔적도","과거 기록"]}}]}