{"type":"FeatureCollection","features":[{"type":"Feature","id":"FLD:51170:80:9580","geometry":{"type":"MultiPolygon","coordinates":[[[[129.130518,37.499036],[129.130518,37.499036],[129.13057,37.498975],[129.130538,37.498946],[129.130502,37.498665],[129.130422,37.498654],[129.130421,37.498522],[129.130419,37.498393],[129.130367,37.498391],[129.130367,37.498294],[129.130175,37.498297],[129.130188,37.498205],[129.130196,37.498152],[129.130209,37.498066],[129.13021,37.498057],[129.130196,37.498048],[129.130589,37.497525],[129.130749,37.497588],[129.130933,37.497535],[129.131337,37.497449],[129.131637,37.497554],[129.13166,37.49765],[129.131672,37.497745],[129.131673,37.497824],[129.131667,37.497924],[129.131658,37.497978],[129.131653,37.498009],[129.131645,37.498042],[129.131636,37.498084],[129.131619,37.49814],[129.131613,37.498151],[129.131574,37.498218],[129.131466,37.498358],[129.131403,37.498429],[129.131384,37.498449],[129.131273,37.49857],[129.131269,37.498574],[129.131233,37.498613],[129.131201,37.498647],[129.131076,37.498783],[129.131053,37.498808],[129.130962,37.498906],[129.130849,37.499024],[129.130865,37.499038],[129.130754,37.499158],[129.130518,37.499036]]]]},"properties":{"id":"FLD:51170:80:9580","layer":"FLOOD_TRACE","admin_code":"51170","sido_code":"42","flood_year":"2019","occurred_at":"2019-10-02","ended_at":"2019-10-03","begin_time":"2300","end_time":"0500","disaster_name":"2019년 제18호 태풍 미탁에 의한 침수","cause_detail":"집중호우","flood_grade":2,"flood_depth_m":0.719,"flood_area_m2":19018.1,"source_sn":80,"data_status":"actual","official_data":true,"is_prediction":false,"source":"행정안전부 침수흔적도 · 재난안전데이터공유플랫폼 DSSP-IF-00117","collected_at":"2026-08-19T16:46:51+09:00","source_crs":"EPSG:3857","display_badges":["행안부 침수흔적도","과거 기록"]}},{"type":"Feature","id":"FLD:51170:78:10150","geometry":{"type":"MultiPolygon","coordinates":[[[[129.128295,37.501138],[129.128422,37.501116],[129.128437,37.50109],[129.128579,37.501088],[129.128579,37.501051],[129.128578,37.500998],[129.128577,37.50075],[129.128661,37.500751],[129.128661,37.500736],[129.12873,37.500742],[129.128829,37.500747],[129.128957,37.500755],[129.129033,37.50067],[129.129134,37.500557],[129.129208,37.500474],[129.129209,37.500452],[129.129229,37.500461],[129.129529,37.500586],[129.1295,37.500621],[129.129187,37.500953],[129.129166,37.500976],[129.129158,37.500986],[129.129135,37.501011],[129.128973,37.501197],[129.128886,37.501293],[129.128707,37.501492],[129.128283,37.501958],[129.128187,37.502066],[129.128171,37.502118],[129.128116,37.502291],[129.128055,37.502488],[129.128009,37.502628],[129.127845,37.503163],[129.127796,37.503411],[129.127956,37.503629],[129.128117,37.503709],[129.128261,37.503797],[129.12823,37.503979],[129.12777,37.50425],[129.127449,37.504319],[129.127436,37.504084],[129.127107,37.502961],[129.127261,37.50259],[129.127384,37.502746],[129.127421,37.502788],[129.127543,37.502945],[129.127563,37.502801],[129.127593,37.502661],[129.127626,37.502536],[129.12773,37.502259],[129.127761,37.502197],[129.12777,37.502179],[129.127831,37.502067],[129.12788,37.501986],[129.127975,37.501849],[129.128034,37.50179],[129.128078,37.501739],[129.128205,37.501595],[129.12831,37.501475],[129.128295,37.501138]]]]},"properties":{"id":"FLD:51170:78:10150","layer":"FLOOD_TRACE","admin_code":"51170","sido_code":"42","flood_year":"2019","occurred_at":"2019-10-02","ended_at":"2019-10-03","begin_time":"2300","end_time":"0500","disaster_name":"2019년 제18호 태풍 미탁에 의한 침수","cause_detail":"집중호우","flood_grade":1,"flood_depth_m":0.365,"flood_area_m2":77282,"source_sn":78,"data_status":"actual","official_data":true,"is_prediction":false,"source":"행정안전부 침수흔적도 · 재난안전데이터공유플랫폼 DSSP-IF-00117","collected_at":"2026-08-19T16:46:51+09:00","source_crs":"EPSG:3857","display_badges":["행안부 침수흔적도","과거 기록"]}},{"type":"Feature","id":"FLD:51170:77:10151","geometry":{"type":"MultiPolygon","coordinates":[[[[129.129609,37.498759],[129.129626,37.498805],[129.129538,37.498921],[129.129515,37.498964],[129.129338,37.499018],[129.129154,37.499073],[129.12895,37.499141],[129.128838,37.499169],[129.128728,37.499207],[129.128624,37.499246],[129.128475,37.499298],[129.128469,37.499298],[129.128203,37.499329],[129.128022,37.499384],[129.128033,37.499436],[129.128117,37.4996],[129.128112,37.499645],[129.128075,37.499682],[129.128068,37.499711],[129.128079,37.499921],[129.128105,37.500161],[129.128109,37.500253],[129.128169,37.500253],[129.128413,37.500244],[129.12868,37.500239],[129.128673,37.500391],[129.128529,37.500379],[129.128402,37.500368],[129.128375,37.500366],[129.128367,37.500488],[129.128155,37.500471],[129.127934,37.500468],[129.127837,37.500467],[129.12777,37.500456],[129.127711,37.500447],[129.127575,37.500447],[129.127562,37.500447],[129.127498,37.500448],[129.127478,37.500448],[129.127401,37.500448],[129.127282,37.500448],[129.126991,37.500451],[129.126971,37.500287],[129.127032,37.500202],[129.127044,37.500177],[129.127039,37.500139],[129.127104,37.500054],[129.127128,37.500023],[129.127288,37.499815],[129.127322,37.49977],[129.127397,37.499674],[129.127455,37.499598],[129.12747,37.499441],[129.127592,37.499281],[129.127625,37.499239],[129.127657,37.499197],[129.127713,37.499123],[129.127699,37.499084],[129.128177,37.499157],[129.128232,37.499083],[129.12823,37.49908],[129.128569,37.499062],[129.129079,37.498514],[129.12937,37.498648],[129.129527,37.498721],[129.129609,37.498759]]]]},"properties":{"id":"FLD:51170:77:10151","layer":"FLOOD_TRACE","admin_code":"51170","sido_code":"42","flood_year":"2019","occurred_at":"2019-10-02","ended_at":"2019-10-03","begin_time":"2300","end_time":"0500","disaster_name":"2019년 제18호 태풍 미탁에 의한 침수","cause_detail":"집중호우","flood_grade":1,"flood_depth_m":0.476,"flood_area_m2":77282,"source_sn":77,"data_status":"actual","official_data":true,"is_prediction":false,"source":"행정안전부 침수흔적도 · 재난안전데이터공유플랫폼 DSSP-IF-00117","collected_at":"2026-08-19T16:46:51+09:00","source_crs":"EPSG:3857","display_badges":["행안부 침수흔적도","과거 기록"]}},{"type":"Feature","id":"FLD:51170:75:10152","geometry":{"type":"MultiPolygon","coordinates":[[[[129.127083,37.500805],[129.12739,37.500769],[129.127643,37.500742],[129.128032,37.500833],[129.128139,37.500828],[129.128127,37.500965],[129.128135,37.501127],[129.127818,37.501106],[129.127188,37.501134],[129.127124,37.500955],[129.127083,37.500805]]]]},"properties":{"id":"FLD:51170:75:10152","layer":"FLOOD_TRACE","admin_code":"51170","sido_code":"42","flood_year":"2019","occurred_at":"2019-10-02","ended_at":"2019-10-03","begin_time":"2300","end_time":"0500","disaster_name":"2019년 제18호 태풍 미탁에 의한 침수","cause_detail":"집중호우","flood_grade":1,"flood_depth_m":0.397,"flood_area_m2":77282,"source_sn":75,"data_status":"actual","official_data":true,"is_prediction":false,"source":"행정안전부 침수흔적도 · 재난안전데이터공유플랫폼 DSSP-IF-00117","collected_at":"2026-08-19T16:46:51+09:00","source_crs":"EPSG:3857","display_badges":["행안부 침수흔적도","과거 기록"]}},{"type":"Feature","id":"FLD:51170:76:10741","geometry":{"type":"MultiPolygon","coordinates":[[[[129.128673,37.500391],[129.128677,37.500512],[129.128677,37.500522],[129.128673,37.50063],[129.128661,37.500736],[129.128661,37.500751],[129.128577,37.50075],[129.128578,37.500998],[129.128579,37.501051],[129.128579,37.501088],[129.128437,37.50109],[129.128422,37.501116],[129.128295,37.501138],[129.128135,37.501127],[129.128127,37.500965],[129.128139,37.500828],[129.128032,37.500833],[129.127643,37.500742],[129.12739,37.500769],[129.127083,37.500805],[129.127025,37.500609],[129.126991,37.500451],[129.127282,37.500448],[129.127401,37.500448],[129.127478,37.500448],[129.127498,37.500448],[129.127562,37.500447],[129.127575,37.500447],[129.127711,37.500447],[129.12777,37.500456],[129.127837,37.500467],[129.127934,37.500468],[129.128155,37.500471],[129.128367,37.500488],[129.128375,37.500366],[129.128402,37.500368],[129.128529,37.500379],[129.128673,37.500391]]]]},"properties":{"id":"FLD:51170:76:10741","layer":"FLOOD_TRACE","admin_code":"51170","sido_code":"42","flood_year":"2019","occurred_at":"2019-10-02","ended_at":"2019-10-03","begin_time":"2300","end_time":"0500","disaster_name":"2019년 제18호 태풍 미탁에 의한 침수","cause_detail":"집중호우","flood_grade":3,"flood_depth_m":1.014,"flood_area_m2":77282,"source_sn":76,"data_status":"actual","official_data":true,"is_prediction":false,"source":"행정안전부 침수흔적도 · 재난안전데이터공유플랫폼 DSSP-IF-00117","collected_at":"2026-08-19T16:46:51+09:00","source_crs":"EPSG:3857","display_badges":["행안부 침수흔적도","과거 기록"]}},{"type":"Feature","id":"FLD:51170:79:10742","geometry":{"type":"MultiPolygon","coordinates":[[[[129.129725,37.49863],[129.130196,37.498048],[129.13021,37.498057],[129.130209,37.498066],[129.130196,37.498152],[129.130188,37.498205],[129.130175,37.498297],[129.130367,37.498294],[129.130367,37.498391],[129.130419,37.498393],[129.130421,37.498522],[129.130422,37.498654],[129.130502,37.498665],[129.130538,37.498946],[129.13057,37.498975],[129.130518,37.499036],[129.130518,37.499036],[129.129725,37.49863]]]]},"properties":{"id":"FLD:51170:79:10742","layer":"FLOOD_TRACE","admin_code":"51170","sido_code":"42","flood_year":"2019","occurred_at":"2019-10-02","ended_at":"2019-10-03","begin_time":"2300","end_time":"0500","disaster_name":"2019년 제18호 태풍 미탁에 의한 침수","cause_detail":"집중호우","flood_grade":1,"flood_depth_m":0.449,"flood_area_m2":19018.1,"source_sn":79,"data_status":"actual","official_data":true,"is_prediction":false,"source":"행정안전부 침수흔적도 · 재난안전데이터공유플랫폼 DSSP-IF-00117","collected_at":"2026-08-19T16:46:51+09:00","source_crs":"EPSG:3857","display_badges":["행안부 침수흔적도","과거 기록"]}},{"type":"Feature","id":"FLD:51170:74:10743","geometry":{"type":"MultiPolygon","coordinates":[[[[129.129529,37.500586],[129.129229,37.500461],[129.129209,37.500452],[129.129208,37.500474],[129.129134,37.500557],[129.129033,37.50067],[129.128957,37.500755],[129.128829,37.500747],[129.12873,37.500742],[129.128661,37.500736],[129.128673,37.50063],[129.128677,37.500522],[129.128677,37.500512],[129.128673,37.500391],[129.12868,37.500239],[129.128413,37.500244],[129.128169,37.500253],[129.128109,37.500253],[129.128105,37.500161],[129.128079,37.499921],[129.128068,37.499711],[129.128075,37.499682],[129.128112,37.499645],[129.128117,37.4996],[129.128033,37.499436],[129.128022,37.499384],[129.128203,37.499329],[129.128469,37.499298],[129.128475,37.499298],[129.128624,37.499246],[129.128728,37.499207],[129.128838,37.499169],[129.12895,37.499141],[129.129154,37.499073],[129.129338,37.499018],[129.129515,37.498964],[129.129538,37.498921],[129.129626,37.498805],[129.129609,37.498759],[129.129614,37.498761],[129.129725,37.49863],[129.130754,37.499158],[129.130622,37.49929],[129.130401,37.499534],[129.130297,37.499653],[129.130085,37.499933],[129.130023,37.500017],[129.129779,37.500288],[129.129529,37.500586]]]]},"properties":{"id":"FLD:51170:74:10743","layer":"FLOOD_TRACE","admin_code":"51170","sido_code":"42","flood_year":"2019","occurred_at":"2019-10-02","ended_at":"2019-10-03","begin_time":"2300","end_time":"0500","disaster_name":"2019년 제18호 태풍 미탁에 의한 침수","cause_detail":"집중호우","flood_grade":2,"flood_depth_m":0.666,"flood_area_m2":77282,"source_sn":74,"data_status":"actual","official_data":true,"is_prediction":false,"source":"행정안전부 침수흔적도 · 재난안전데이터공유플랫폼 DSSP-IF-00117","collected_at":"2026-08-19T16:46:51+09:00","source_crs":"EPSG:3857","display_badges":["행안부 침수흔적도","과거 기록"]}}]}