{"type":"FeatureCollection","features":[{"type":"Feature","id":"FLD:47760:568:9007","geometry":{"type":"MultiPolygon","coordinates":[[[[129.173367,36.528488],[129.173544,36.528245],[129.173548,36.528239],[129.173678,36.528061],[129.173951,36.527689],[129.173978,36.52767],[129.173969,36.52782],[129.173947,36.528231],[129.173946,36.528254],[129.173917,36.528261],[129.17367,36.528545],[129.1736,36.528612],[129.173496,36.528554],[129.173367,36.528488]]]]},"properties":{"id":"FLD:47760:568:9007","layer":"FLOOD_TRACE","admin_code":"47760","sido_code":"47","flood_year":"2019","occurred_at":"2019-10-02","ended_at":"2019-10-03","begin_time":"2300","end_time":"0300","disaster_name":"제18호 태풍 미탁","cause_detail":"하천 범람","flood_grade":3,"flood_depth_m":1.23,"flood_area_m2":2299.1,"source_sn":568,"data_status":"actual","official_data":true,"is_prediction":false,"source":"행정안전부 침수흔적도 · 재난안전데이터공유플랫폼 DSSP-IF-00117","collected_at":"2026-08-19T16:46:51+09:00","source_crs":"EPSG:3857","display_badges":["행안부 침수흔적도","과거 기록"]}},{"type":"Feature","id":"FLD:47760:566:9008","geometry":{"type":"MultiPolygon","coordinates":[[[[129.173032,36.527102],[129.173039,36.527086],[129.173064,36.526973],[129.173085,36.526909],[129.173115,36.526694],[129.17314,36.526512],[129.173141,36.526332],[129.173142,36.5263],[129.17314,36.526209],[129.173216,36.526154],[129.173225,36.526316],[129.17327,36.5265],[129.173306,36.526874],[129.173324,36.527006],[129.173318,36.527133],[129.173293,36.527238],[129.173266,36.527223],[129.173213,36.527194],[129.173169,36.527178],[129.173073,36.527131],[129.173032,36.527102]]]]},"properties":{"id":"FLD:47760:566:9008","layer":"FLOOD_TRACE","admin_code":"47760","sido_code":"47","flood_year":"2019","occurred_at":"2019-10-02","ended_at":"2019-10-03","begin_time":"2300","end_time":"0300","disaster_name":"제18호 태풍 미탁","cause_detail":"하천 범람","flood_grade":2,"flood_depth_m":1.6,"flood_area_m2":1726.1,"source_sn":566,"data_status":"actual","official_data":true,"is_prediction":false,"source":"행정안전부 침수흔적도 · 재난안전데이터공유플랫폼 DSSP-IF-00117","collected_at":"2026-08-19T16:46:51+09:00","source_crs":"EPSG:3857","display_badges":["행안부 침수흔적도","과거 기록"]}},{"type":"Feature","id":"FLD:47760:562:9009","geometry":{"type":"MultiPolygon","coordinates":[[[[129.138886,36.532202],[129.138895,36.532192],[129.138944,36.532136],[129.138985,36.532044],[129.139016,36.531955],[129.139068,36.531901],[129.139107,36.531739],[129.139121,36.531719],[129.139168,36.53154],[129.139181,36.531443],[129.13921,36.531338],[129.139263,36.531157],[129.139281,36.531092],[129.139359,36.530951],[129.139457,36.530842],[129.139509,36.530753],[129.139535,36.530673],[129.139552,36.530622],[129.139574,36.530456],[129.139579,36.530378],[129.139606,36.530377],[129.139615,36.530471],[129.139651,36.530626],[129.13965,36.530703],[129.139546,36.53082],[129.139483,36.530945],[129.139398,36.531145],[129.139516,36.531506],[129.13948,36.531523],[129.139415,36.531553],[129.139348,36.53161],[129.139307,36.531689],[129.139285,36.531782],[129.139286,36.531888],[129.139201,36.531926],[129.139166,36.532058],[129.13909,36.532156],[129.139033,36.532186],[129.138942,36.532215],[129.138886,36.532202]]]]},"properties":{"id":"FLD:47760:562:9009","layer":"FLOOD_TRACE","admin_code":"47760","sido_code":"47","flood_year":"2019","occurred_at":"2019-10-02","ended_at":"2019-10-03","begin_time":"2300","end_time":"0300","disaster_name":"제18호 태풍 미탁","cause_detail":"세천 합류부분 역류로 인한 침수","flood_grade":1,"flood_depth_m":0.431,"flood_area_m2":2924.3,"source_sn":562,"data_status":"actual","official_data":true,"is_prediction":false,"source":"행정안전부 침수흔적도 · 재난안전데이터공유플랫폼 DSSP-IF-00117","collected_at":"2026-08-19T16:46:51+09:00","source_crs":"EPSG:3857","display_badges":["행안부 침수흔적도","과거 기록"]}},{"type":"Feature","id":"FLD:47760:573:9010","geometry":{"type":"MultiPolygon","coordinates":[[[[129.173348,36.529421],[129.173301,36.529332],[129.173139,36.529119],[129.173208,36.52909],[129.17339,36.528978],[129.173479,36.528913],[129.173558,36.528855],[129.173731,36.528705],[129.173642,36.528828],[129.173611,36.528946],[129.173608,36.528956],[129.173553,36.529069],[129.17339,36.529372],[129.173348,36.529421]]]]},"properties":{"id":"FLD:47760:573:9010","layer":"FLOOD_TRACE","admin_code":"47760","sido_code":"47","flood_year":"2019","occurred_at":"2019-10-02","ended_at":"2019-10-03","begin_time":"2300","end_time":"0300","disaster_name":"제18호 태풍 미탁","cause_detail":"하천 범람","flood_grade":2,"flood_depth_m":0.67,"flood_area_m2":1212.2,"source_sn":573,"data_status":"actual","official_data":true,"is_prediction":false,"source":"행정안전부 침수흔적도 · 재난안전데이터공유플랫폼 DSSP-IF-00117","collected_at":"2026-08-19T16:46:51+09:00","source_crs":"EPSG:3857","display_badges":["행안부 침수흔적도","과거 기록"]}},{"type":"Feature","id":"FLD:47760:512:9926","geometry":{"type":"MultiPolygon","coordinates":[[[[129.086903,36.627686],[129.086884,36.627693],[129.086665,36.627735],[129.086564,36.627748],[129.08646,36.627755],[129.086377,36.627751],[129.086333,36.627757],[129.086259,36.62778],[129.086023,36.62771],[129.085707,36.627542],[129.085356,36.627262],[129.085281,36.627174],[129.085381,36.627047],[129.085419,36.627008],[129.085676,36.627224],[129.086085,36.627508],[129.086363,36.627624],[129.086548,36.627645],[129.086758,36.627627],[129.086903,36.627686]]]]},"properties":{"id":"FLD:47760:512:9926","layer":"FLOOD_TRACE","admin_code":"47760","sido_code":"47","flood_year":"2019","occurred_at":"2019-10-02","ended_at":"2019-10-03","begin_time":"0000","end_time":"0300","disaster_name":"제18호 태풍 미탁","cause_detail":"구거로 하천 역류에 따른 침수","flood_grade":1,"flood_depth_m":0.448,"flood_area_m2":3087.2,"source_sn":512,"data_status":"actual","official_data":true,"is_prediction":false,"source":"행정안전부 침수흔적도 · 재난안전데이터공유플랫폼 DSSP-IF-00117","collected_at":"2026-08-19T16:46:51+09:00","source_crs":"EPSG:3857","display_badges":["행안부 침수흔적도","과거 기록"]}},{"type":"Feature","id":"FLD:47760:508:9927","geometry":{"type":"MultiPolygon","coordinates":[[[[129.198891,36.632372],[129.198824,36.6323],[129.198952,36.632173],[129.198957,36.632172],[129.199136,36.632136],[129.199179,36.632163],[129.199196,36.632176],[129.198995,36.632309],[129.198891,36.632372]]]]},"properties":{"id":"FLD:47760:508:9927","layer":"FLOOD_TRACE","admin_code":"47760","sido_code":"47","flood_year":"2019","occurred_at":"2019-10-02","ended_at":"2019-10-03","begin_time":"2300","end_time":"0300","disaster_name":"제18호 태풍 미탁","cause_detail":"소하천 범람","flood_grade":1,"flood_depth_m":0.434,"flood_area_m2":382.4,"source_sn":508,"data_status":"actual","official_data":true,"is_prediction":false,"source":"행정안전부 침수흔적도 · 재난안전데이터공유플랫폼 DSSP-IF-00117","collected_at":"2026-08-19T16:46:51+09:00","source_crs":"EPSG:3857","display_badges":["행안부 침수흔적도","과거 기록"]}},{"type":"Feature","id":"FLD:47760:507:9928","geometry":{"type":"MultiPolygon","coordinates":[[[[129.198542,36.632612],[129.198609,36.632575],[129.198693,36.632529],[129.198848,36.632474],[129.198988,36.632435],[129.199353,36.632483],[129.19935,36.632508],[129.199317,36.632607],[129.198947,36.632586],[129.198834,36.632689],[129.198542,36.632612]]]]},"properties":{"id":"FLD:47760:507:9928","layer":"FLOOD_TRACE","admin_code":"47760","sido_code":"47","flood_year":"2019","occurred_at":"2019-10-02","ended_at":"2019-10-03","begin_time":"2300","end_time":"0300","disaster_name":"제18호 태풍 미탁","cause_detail":"소하천 범람","flood_grade":2,"flood_depth_m":0.712,"flood_area_m2":1066.3,"source_sn":507,"data_status":"actual","official_data":true,"is_prediction":false,"source":"행정안전부 침수흔적도 · 재난안전데이터공유플랫폼 DSSP-IF-00117","collected_at":"2026-08-19T16:46:51+09:00","source_crs":"EPSG:3857","display_badges":["행안부 침수흔적도","과거 기록"]}},{"type":"Feature","id":"FLD:47760:506:9929","geometry":{"type":"MultiPolygon","coordinates":[[[[129.199975,36.626398],[129.200073,36.626279],[129.200085,36.626284],[129.200311,36.626373],[129.200418,36.626393],[129.200559,36.626398],[129.200704,36.626431],[129.2007,36.626433],[129.20055,36.626521],[129.200226,36.626451],[129.199975,36.626398]]]]},"properties":{"id":"FLD:47760:506:9929","layer":"FLOOD_TRACE","admin_code":"47760","sido_code":"47","flood_year":"2019","occurred_at":"2019-10-02","ended_at":"2019-10-03","begin_time":"2300","end_time":"0300","disaster_name":"제18호 태풍 미탁","cause_detail":"소하천 범람","flood_grade":1,"flood_depth_m":0.49,"flood_area_m2":691,"source_sn":506,"data_status":"actual","official_data":true,"is_prediction":false,"source":"행정안전부 침수흔적도 · 재난안전데이터공유플랫폼 DSSP-IF-00117","collected_at":"2026-08-19T16:46:51+09:00","source_crs":"EPSG:3857","display_badges":["행안부 침수흔적도","과거 기록"]}},{"type":"Feature","id":"FLD:47760:511:9930","geometry":{"type":"MultiPolygon","coordinates":[[[[129.200223,36.626033],[129.200233,36.626011],[129.200239,36.625998],[129.200314,36.62593],[129.200336,36.625876],[129.200405,36.625868],[129.200619,36.625832],[129.200715,36.625832],[129.200723,36.625835],[129.200787,36.625965],[129.200846,36.626085],[129.200848,36.626091],[129.200897,36.626236],[129.200785,36.626207],[129.200685,36.626165],[129.200452,36.626108],[129.200223,36.626033]]]]},"properties":{"id":"FLD:47760:511:9930","layer":"FLOOD_TRACE","admin_code":"47760","sido_code":"47","flood_year":"2019","occurred_at":"2019-10-02","ended_at":"2019-10-03","begin_time":"2300","end_time":"0300","disaster_name":"제18호 태풍 미탁","cause_detail":"소하천 범람","flood_grade":1,"flood_depth_m":0.433,"flood_area_m2":1498.5,"source_sn":511,"data_status":"actual","official_data":true,"is_prediction":false,"source":"행정안전부 침수흔적도 · 재난안전데이터공유플랫폼 DSSP-IF-00117","collected_at":"2026-08-19T16:46:51+09:00","source_crs":"EPSG:3857","display_badges":["행안부 침수흔적도","과거 기록"]}},{"type":"Feature","id":"FLD:47760:509:9931","geometry":{"type":"MultiPolygon","coordinates":[[[[129.086103,36.629839],[129.086093,36.629832],[129.085901,36.629699],[129.08568,36.629625],[129.085658,36.629616],[129.085493,36.629561],[129.085804,36.629443],[129.086209,36.629284],[129.086431,36.629197],[129.086482,36.629176],[129.086806,36.629048],[129.087119,36.628924],[129.087124,36.628919],[129.087203,36.628886],[129.087243,36.628911],[129.087279,36.62897],[129.087311,36.629039],[129.087335,36.629114],[129.087344,36.629169],[129.087357,36.629379],[129.087351,36.629541],[129.087297,36.629555],[129.086627,36.629657],[129.086486,36.629843],[129.086378,36.629929],[129.086335,36.629931],[129.086276,36.629966],[129.086103,36.629839]]]]},"properties":{"id":"FLD:47760:509:9931","layer":"FLOOD_TRACE","admin_code":"47760","sido_code":"47","flood_year":"2019","occurred_at":"2019-10-02","ended_at":"2019-10-03","begin_time":"2300","end_time":"0300","disaster_name":"제18호 태풍 미탁","cause_detail":"구거로 하천 역류에 따른 침수","flood_grade":2,"flood_depth_m":0.9,"flood_area_m2":11472.3,"source_sn":509,"data_status":"actual","official_data":true,"is_prediction":false,"source":"행정안전부 침수흔적도 · 재난안전데이터공유플랫폼 DSSP-IF-00117","collected_at":"2026-08-19T16:46:51+09:00","source_crs":"EPSG:3857","display_badges":["행안부 침수흔적도","과거 기록"]}},{"type":"Feature","id":"FLD:47760:510:9954","geometry":{"type":"MultiPolygon","coordinates":[[[[129.085493,36.629561],[129.085658,36.629616],[129.08568,36.629625],[129.085901,36.629699],[129.086093,36.629832],[129.086103,36.629839],[129.085871,36.630014],[129.085686,36.629974],[129.085428,36.629886],[129.085189,36.629804],[129.085125,36.629766],[129.085144,36.629735],[129.085176,36.629705],[129.085394,36.629595],[129.085493,36.629561]]]]},"properties":{"id":"FLD:47760:510:9954","layer":"FLOOD_TRACE","admin_code":"47760","sido_code":"47","flood_year":"2019","occurred_at":"2019-10-02","ended_at":"2019-10-03","begin_time":"2300","end_time":"0300","disaster_name":"제18호 태풍 미탁","cause_detail":"구거로 하천 역류에 따른 침수","flood_grade":1,"flood_depth_m":0.477,"flood_area_m2":11472.3,"source_sn":510,"data_status":"actual","official_data":true,"is_prediction":false,"source":"행정안전부 침수흔적도 · 재난안전데이터공유플랫폼 DSSP-IF-00117","collected_at":"2026-08-19T16:46:51+09:00","source_crs":"EPSG:3857","display_badges":["행안부 침수흔적도","과거 기록"]}},{"type":"Feature","id":"FLD:47760:505:9955","geometry":{"type":"MultiPolygon","coordinates":[[[[129.201228,36.626301],[129.201177,36.626304],[129.201155,36.626302],[129.201127,36.626237],[129.201054,36.626077],[129.20107,36.626074],[129.201138,36.626062],[129.201182,36.62611],[129.20123,36.626215],[129.201228,36.626301]]]]},"properties":{"id":"FLD:47760:505:9955","layer":"FLOOD_TRACE","admin_code":"47760","sido_code":"47","flood_year":"2019","occurred_at":"2019-10-02","ended_at":"2019-10-03","begin_time":"0000","end_time":"0300","disaster_name":"제18호 태풍 미탁","cause_detail":"소하천 범람","flood_grade":1,"flood_depth_m":0.423,"flood_area_m2":240.1,"source_sn":505,"data_status":"actual","official_data":true,"is_prediction":false,"source":"행정안전부 침수흔적도 · 재난안전데이터공유플랫폼 DSSP-IF-00117","collected_at":"2026-08-19T16:46:51+09:00","source_crs":"EPSG:3857","display_badges":["행안부 침수흔적도","과거 기록"]}},{"type":"Feature","id":"FLD:47760:530:9956","geometry":{"type":"MultiPolygon","coordinates":[[[[129.083983,36.580532],[129.08397,36.580545],[129.083946,36.580607],[129.083816,36.580615],[129.083625,36.580705],[129.083534,36.580713],[129.083449,36.580721],[129.083277,36.580747],[129.083096,36.580785],[129.082669,36.580855],[129.082486,36.580846],[129.081278,36.580992],[129.081208,36.581004],[129.080998,36.580961],[129.080812,36.580953],[129.080554,36.580967],[129.080553,36.580914],[129.080645,36.580853],[129.080874,36.580881],[129.081005,36.58089],[129.081061,36.580885],[129.081089,36.580906],[129.081158,36.580912],[129.081283,36.580901],[129.081375,36.580896],[129.081614,36.580873],[129.081908,36.580839],[129.082073,36.580826],[129.082184,36.580812],[129.08258,36.580726],[129.082621,36.580704],[129.08271,36.580679],[129.083246,36.58059],[129.083486,36.580555],[129.083818,36.580534],[129.083896,36.580537],[129.083983,36.580532]]]]},"properties":{"id":"FLD:47760:530:9956","layer":"FLOOD_TRACE","admin_code":"47760","sido_code":"47","flood_year":"2019","occurred_at":"2019-10-02","ended_at":"2019-10-03","begin_time":"2300","end_time":"0300","disaster_name":"제18호 태풍 미탁","cause_detail":"배수불량으로 인한 하천 역류","flood_grade":2,"flood_depth_m":0.53,"flood_area_m2":3697.5,"source_sn":530,"data_status":"actual","official_data":true,"is_prediction":false,"source":"행정안전부 침수흔적도 · 재난안전데이터공유플랫폼 DSSP-IF-00117","collected_at":"2026-08-19T16:46:51+09:00","source_crs":"EPSG:3857","display_badges":["행안부 침수흔적도","과거 기록"]}},{"type":"Feature","id":"FLD:47760:520:9957","geometry":{"type":"MultiPolygon","coordinates":[[[[129.082595,36.590087],[129.081998,36.590523],[129.081361,36.590122],[129.082049,36.58973],[129.082171,36.589689],[129.082531,36.589652],[129.082595,36.590087]]]]},"properties":{"id":"FLD:47760:520:9957","layer":"FLOOD_TRACE","admin_code":"47760","sido_code":"47","flood_year":"2019","occurred_at":"2019-10-02","ended_at":"2019-10-03","begin_time":"0000","end_time":"0300","disaster_name":"제18호 태풍 미탁","cause_detail":"하천범람","flood_grade":5,"flood_depth_m":2.4,"flood_area_m2":9893.9,"source_sn":520,"data_status":"actual","official_data":true,"is_prediction":false,"source":"행정안전부 침수흔적도 · 재난안전데이터공유플랫폼 DSSP-IF-00117","collected_at":"2026-08-19T16:46:51+09:00","source_crs":"EPSG:3857","display_badges":["행안부 침수흔적도","과거 기록"]}},{"type":"Feature","id":"FLD:47760:527:9958","geometry":{"type":"MultiPolygon","coordinates":[[[[129.085761,36.585188],[129.08575,36.585128],[129.08579,36.58498],[129.08586,36.58501],[129.085974,36.585017],[129.086203,36.58502],[129.086423,36.58504],[129.086485,36.58503],[129.086791,36.585041],[129.087231,36.585081],[129.087222,36.58511],[129.08724,36.585173],[129.087216,36.585255],[129.087172,36.5853],[129.087159,36.585346],[129.087137,36.58543],[129.087121,36.585491],[129.08711,36.585681],[129.086826,36.585625],[129.086433,36.58555],[129.086418,36.585587],[129.08596,36.585302],[129.085786,36.585241],[129.085761,36.585188]]]]},"properties":{"id":"FLD:47760:527:9958","layer":"FLOOD_TRACE","admin_code":"47760","sido_code":"47","flood_year":"2019","occurred_at":"2019-10-02","ended_at":"2019-10-03","begin_time":"2300","end_time":"0300","disaster_name":"제18호 태풍 미탁","cause_detail":"배수불량으로 인한 하천 역류","flood_grade":3,"flood_depth_m":1.457,"flood_area_m2":6664.1,"source_sn":527,"data_status":"actual","official_data":true,"is_prediction":false,"source":"행정안전부 침수흔적도 · 재난안전데이터공유플랫폼 DSSP-IF-00117","collected_at":"2026-08-19T16:46:51+09:00","source_crs":"EPSG:3857","display_badges":["행안부 침수흔적도","과거 기록"]}},{"type":"Feature","id":"FLD:47760:513:9959","geometry":{"type":"MultiPolygon","coordinates":[[[[129.066723,36.547227],[129.066567,36.546987],[129.066415,36.546983],[129.066206,36.546944],[129.065776,36.546598],[129.06579,36.546546],[129.066207,36.545867],[129.0663,36.545703],[129.066861,36.545198],[129.067265,36.544871],[129.067475,36.544767],[129.067543,36.544852],[129.067598,36.544886],[129.067622,36.544899],[129.067675,36.544935],[129.067704,36.544964],[129.067721,36.544992],[129.067504,36.5453],[129.067354,36.545363],[129.067045,36.545755],[129.067004,36.545779],[129.066766,36.545671],[129.066512,36.54611],[129.06614,36.546627],[129.066796,36.546962],[129.066723,36.547227]]]]},"properties":{"id":"FLD:47760:513:9959","layer":"FLOOD_TRACE","admin_code":"47760","sido_code":"47","flood_year":"2019","occurred_at":"2019-10-02","ended_at":"2019-10-03","begin_time":"2300","end_time":"0300","disaster_name":"제18호 태풍 미탁","cause_detail":"배수 불량","flood_grade":1,"flood_depth_m":0.483,"flood_area_m2":19029.4,"source_sn":513,"data_status":"actual","official_data":true,"is_prediction":false,"source":"행정안전부 침수흔적도 · 재난안전데이터공유플랫폼 DSSP-IF-00117","collected_at":"2026-08-19T16:46:51+09:00","source_crs":"EPSG:3857","display_badges":["행안부 침수흔적도","과거 기록"]}},{"type":"Feature","id":"FLD:47760:529:9983","geometry":{"type":"MultiPolygon","coordinates":[[[[129.083188,36.573415],[129.083159,36.573318],[129.083146,36.573271],[129.083183,36.573214],[129.083195,36.573159],[129.08352,36.573093],[129.083714,36.573054],[129.083767,36.573043],[129.084068,36.573394],[129.084327,36.573615],[129.084412,36.573702],[129.084528,36.57382],[129.084668,36.573964],[129.084725,36.574012],[129.084755,36.574038],[129.084798,36.574075],[129.085033,36.574275],[129.085076,36.574315],[129.084637,36.574483],[129.084453,36.574551],[129.084354,36.574596],[129.084334,36.574707],[129.084314,36.574761],[129.08429,36.57485],[129.084223,36.575027],[129.084254,36.575107],[129.084251,36.575179],[129.084274,36.575291],[129.084342,36.575364],[129.084345,36.575418],[129.084307,36.575478],[129.084106,36.575236],[129.084079,36.575195],[129.08411,36.575177],[129.084079,36.575094],[129.083999,36.574941],[129.083977,36.574838],[129.083925,36.57477],[129.083886,36.574708],[129.08377,36.574554],[129.083699,36.574455],[129.083608,36.574312],[129.08358,36.574249],[129.083591,36.574202],[129.083575,36.574121],[129.083555,36.574043],[129.083471,36.573868],[129.083467,36.573823],[129.083415,36.573735],[129.083317,36.573526],[129.08329,36.573494],[129.083242,36.573466],[129.083188,36.573415]]]]},"properties":{"id":"FLD:47760:529:9983","layer":"FLOOD_TRACE","admin_code":"47760","sido_code":"47","flood_year":"2019","occurred_at":"2019-10-02","ended_at":"2019-10-03","begin_time":"2300","end_time":"0300","disaster_name":"제18호 태풍 미탁","cause_detail":"배수불량으로 인한 하천 역류","flood_grade":2,"flood_depth_m":1.68,"flood_area_m2":93061.5,"source_sn":529,"data_status":"actual","official_data":true,"is_prediction":false,"source":"행정안전부 침수흔적도 · 재난안전데이터공유플랫폼 DSSP-IF-00117","collected_at":"2026-08-19T16:46:51+09:00","source_crs":"EPSG:3857","display_badges":["행안부 침수흔적도","과거 기록"]}},{"type":"Feature","id":"FLD:47760:525:9984","geometry":{"type":"MultiPolygon","coordinates":[[[[129.089219,36.585759],[129.089219,36.585454],[129.089222,36.585431],[129.089197,36.585384],[129.089159,36.585228],[129.089173,36.585187],[129.089096,36.585071],[129.089071,36.58504],[129.089117,36.585033],[129.089721,36.584854],[129.090043,36.584744],[129.090481,36.584569],[129.090499,36.584616],[129.090528,36.584693],[129.090358,36.584841],[129.08991,36.585243],[129.089604,36.585511],[129.089423,36.585656],[129.089344,36.585707],[129.08924,36.585748],[129.089219,36.585759]]]]},"properties":{"id":"FLD:47760:525:9984","layer":"FLOOD_TRACE","admin_code":"47760","sido_code":"47","flood_year":"2019","occurred_at":"2019-10-02","ended_at":"2019-10-03","begin_time":"0000","end_time":"0300","disaster_name":"제18호 태풍 미탁","cause_detail":"배수불량으로 인한 하천 역류","flood_grade":2,"flood_depth_m":0.95,"flood_area_m2":20007.7,"source_sn":525,"data_status":"actual","official_data":true,"is_prediction":false,"source":"행정안전부 침수흔적도 · 재난안전데이터공유플랫폼 DSSP-IF-00117","collected_at":"2026-08-19T16:46:51+09:00","source_crs":"EPSG:3857","display_badges":["행안부 침수흔적도","과거 기록"]}},{"type":"Feature","id":"FLD:47760:516:9985","geometry":{"type":"MultiPolygon","coordinates":[[[[129.081998,36.590523],[129.082595,36.590087],[129.082749,36.590711],[129.08294,36.591107],[129.082808,36.59115],[129.082115,36.590579],[129.081998,36.590523]]]]},"properties":{"id":"FLD:47760:516:9985","layer":"FLOOD_TRACE","admin_code":"47760","sido_code":"47","flood_year":"2019","occurred_at":"2019-10-02","ended_at":"2019-10-03","begin_time":"0000","end_time":"0300","disaster_name":"제18호 태풍 미탁","cause_detail":"하천범람","flood_grade":3,"flood_depth_m":1.4,"flood_area_m2":9893.9,"source_sn":516,"data_status":"actual","official_data":true,"is_prediction":false,"source":"행정안전부 침수흔적도 · 재난안전데이터공유플랫폼 DSSP-IF-00117","collected_at":"2026-08-19T16:46:51+09:00","source_crs":"EPSG:3857","display_badges":["행안부 침수흔적도","과거 기록"]}},{"type":"Feature","id":"FLD:47760:528:9986","geometry":{"type":"MultiPolygon","coordinates":[[[[129.086514,36.580806],[129.08626,36.580934],[129.08608,36.581003],[129.086081,36.581066],[129.086064,36.5811],[129.086037,36.581117],[129.085866,36.581165],[129.085556,36.58121],[129.085515,36.581206],[129.085367,36.58127],[129.085516,36.581034],[129.085596,36.580917],[129.085648,36.580834],[129.085695,36.58076],[129.085773,36.580617],[129.08574,36.580453],[129.085783,36.58043],[129.086184,36.580279],[129.086234,36.580257],[129.086471,36.580112],[129.086747,36.579941],[129.08682,36.579896],[129.087025,36.579771],[129.087071,36.579743],[129.0873,36.579605],[129.087562,36.579446],[129.087847,36.579273],[129.087887,36.579262],[129.087871,36.579237],[129.087766,36.579067],[129.087647,36.578875],[129.088222,36.578625],[129.088293,36.578594],[129.088329,36.578819],[129.088374,36.579018],[129.088387,36.579043],[129.088394,36.579075],[129.088433,36.579255],[129.08855,36.579688],[129.088552,36.579697],[129.088428,36.579716],[129.088289,36.579754],[129.088212,36.579769],[129.088164,36.579779],[129.088121,36.579789],[129.088063,36.579781],[129.088001,36.579808],[129.087924,36.57985],[129.087844,36.579918],[129.087758,36.579977],[129.087744,36.579987],[129.087593,36.580066],[129.087494,36.580119],[129.08747,36.580109],[129.087404,36.58028],[129.087363,36.580304],[129.087299,36.580342],[129.087154,36.580409],[129.087097,36.580435],[129.087084,36.580461],[129.086916,36.580565],[129.086818,36.580614],[129.086633,36.58071],[129.086629,36.58072],[129.086601,36.580718],[129.086514,36.580806]]]]},"properties":{"id":"FLD:47760:528:9986","layer":"FLOOD_TRACE","admin_code":"47760","sido_code":"47","flood_year":"2019","occurred_at":"2019-10-02","ended_at":"2019-10-03","begin_time":"2300","end_time":"0300","disaster_name":"제18호 태풍 미탁","cause_detail":"배수불량으로 인한 하천 역류","flood_grade":2,"flood_depth_m":0.88,"flood_area_m2":29734.8,"source_sn":528,"data_status":"actual","official_data":true,"is_prediction":false,"source":"행정안전부 침수흔적도 · 재난안전데이터공유플랫폼 DSSP-IF-00117","collected_at":"2026-08-19T16:46:51+09:00","source_crs":"EPSG:3857","display_badges":["행안부 침수흔적도","과거 기록"]}},{"type":"Feature","id":"FLD:47760:519:9987","geometry":{"type":"MultiPolygon","coordinates":[[[[129.084453,36.574551],[129.084637,36.574483],[129.085076,36.574315],[129.08525,36.574475],[129.085376,36.57459],[129.085405,36.574617],[129.085697,36.574887],[129.085776,36.57496],[129.085846,36.575011],[129.086035,36.575151],[129.086168,36.575249],[129.086248,36.575341],[129.08635,36.575465],[129.086488,36.575633],[129.086501,36.575646],[129.086694,36.575839],[129.086892,36.576038],[129.087084,36.576232],[129.087093,36.57624],[129.087029,36.576269],[129.087233,36.576589],[129.087293,36.576686],[129.087419,36.576887],[129.087816,36.577522],[129.08802,36.577851],[129.08809,36.577962],[129.088176,36.578098],[129.088186,36.578144],[129.088272,36.578286],[129.088227,36.578306],[129.087868,36.578465],[129.087804,36.578487],[129.087549,36.578575],[129.087446,36.57855],[129.087411,36.578494],[129.087369,36.578512],[129.086574,36.578858],[129.08654,36.57877],[129.086477,36.578607],[129.086363,36.578383],[129.086344,36.578343],[129.086266,36.578143],[129.086222,36.578046],[129.086074,36.577855],[129.086061,36.577831],[129.086027,36.577771],[129.086021,36.577738],[129.086019,36.577726],[129.085996,36.577619],[129.085995,36.577517],[129.086083,36.577494],[129.08635,36.577426],[129.086206,36.577145],[129.086029,36.576846],[129.086273,36.57674],[129.086209,36.576635],[129.086199,36.576619],[129.086011,36.576683],[129.08592,36.576714],[129.085796,36.576764],[129.085663,36.576717],[129.08552,36.576745],[129.085351,36.576813],[129.085112,36.576328],[129.08484,36.575869],[129.084541,36.575687],[129.0845,36.575622],[129.084394,36.575469],[129.084418,36.575352],[129.084354,36.57523],[129.084337,36.575144],[129.084351,36.575122],[129.084326,36.57508],[129.084319,36.575053],[129.084304,36.574995],[129.084374,36.574848],[129.08438,36.574765],[129.084453,36.574551]]]]},"properties":{"id":"FLD:47760:519:9987","layer":"FLOOD_TRACE","admin_code":"47760","sido_code":"47","flood_year":"2019","occurred_at":"2019-10-02","ended_at":"2019-10-03","begin_time":"2300","end_time":"0300","disaster_name":"제18호 태풍 미탁","cause_detail":"배수불량으로 인한 하천 역류","flood_grade":3,"flood_depth_m":1.13,"flood_area_m2":93061.5,"source_sn":519,"data_status":"actual","official_data":true,"is_prediction":false,"source":"행정안전부 침수흔적도 · 재난안전데이터공유플랫폼 DSSP-IF-00117","collected_at":"2026-08-19T16:46:51+09:00","source_crs":"EPSG:3857","display_badges":["행안부 침수흔적도","과거 기록"]}},{"type":"Feature","id":"FLD:47760:523:9988","geometry":{"type":"MultiPolygon","coordinates":[[[[129.086166,36.580227],[129.086159,36.580227],[129.08613,36.580255],[129.086118,36.580266],[129.086046,36.580288],[129.085947,36.580317],[129.085797,36.580376],[129.085689,36.580409],[129.085632,36.580412],[129.085496,36.580447],[129.085252,36.580487],[129.084977,36.580507],[129.084969,36.580437],[129.084971,36.580428],[129.08524,36.580372],[129.085628,36.580301],[129.085674,36.580295],[129.085808,36.580247],[129.08589,36.580218],[129.086018,36.580125],[129.08609,36.580127],[129.086113,36.580118],[129.08621,36.580054],[129.086312,36.580002],[129.086479,36.579856],[129.08658,36.579419],[129.086598,36.579305],[129.0866,36.579283],[129.08674,36.579261],[129.08679,36.579253],[129.086729,36.579026],[129.086883,36.578961],[129.087188,36.578831],[129.08719,36.578835],[129.08742,36.578737],[129.087527,36.578769],[129.087726,36.579099],[129.087807,36.579238],[129.087538,36.579401],[129.087273,36.579564],[129.087019,36.579718],[129.086838,36.579829],[129.086194,36.580229],[129.086191,36.580225],[129.086166,36.580227]]]]},"properties":{"id":"FLD:47760:523:9988","layer":"FLOOD_TRACE","admin_code":"47760","sido_code":"47","flood_year":"2019","occurred_at":"2019-10-02","ended_at":"2019-10-03","begin_time":"2300","end_time":"0300","disaster_name":"제18호 태풍 미탁","cause_detail":"배수불량으로 인한 하천 역류","flood_grade":2,"flood_depth_m":0.75,"flood_area_m2":10387.1,"source_sn":523,"data_status":"actual","official_data":true,"is_prediction":false,"source":"행정안전부 침수흔적도 · 재난안전데이터공유플랫폼 DSSP-IF-00117","collected_at":"2026-08-19T16:46:51+09:00","source_crs":"EPSG:3857","display_badges":["행안부 침수흔적도","과거 기록"]}},{"type":"Feature","id":"FLD:47760:515:10005","geometry":{"type":"MultiPolygon","coordinates":[[[[129.084084,36.589993],[129.083848,36.589537],[129.083844,36.589529],[129.083965,36.589471],[129.084277,36.589458],[129.084518,36.589581],[129.084634,36.589646],[129.084728,36.589761],[129.084741,36.589773],[129.084658,36.589801],[129.084599,36.589821],[129.084555,36.589835],[129.084396,36.58989],[129.084191,36.589958],[129.084084,36.589993]]]]},"properties":{"id":"FLD:47760:515:10005","layer":"FLOOD_TRACE","admin_code":"47760","sido_code":"47","flood_year":"2019","occurred_at":"2019-10-02","ended_at":"2019-10-03","begin_time":"2200","end_time":"0300","disaster_name":"제18호 태풍 미탁","cause_detail":"하천범람","flood_grade":2,"flood_depth_m":0.7,"flood_area_m2":7257.8,"source_sn":515,"data_status":"actual","official_data":true,"is_prediction":false,"source":"행정안전부 침수흔적도 · 재난안전데이터공유플랫폼 DSSP-IF-00117","collected_at":"2026-08-19T16:46:51+09:00","source_crs":"EPSG:3857","display_badges":["행안부 침수흔적도","과거 기록"]}},{"type":"Feature","id":"FLD:47760:521:10006","geometry":{"type":"MultiPolygon","coordinates":[[[[129.088176,36.578098],[129.08809,36.577962],[129.08802,36.577851],[129.087816,36.577522],[129.087419,36.576887],[129.087293,36.576686],[129.087233,36.576589],[129.087029,36.576269],[129.087093,36.57624],[129.087189,36.576337],[129.087372,36.576528],[129.087455,36.576615],[129.087541,36.576705],[129.087611,36.576805],[129.087812,36.577089],[129.087983,36.577446],[129.088012,36.577505],[129.088105,36.577814],[129.088136,36.577916],[129.088141,36.577939],[129.088176,36.578098]]]]},"properties":{"id":"FLD:47760:521:10006","layer":"FLOOD_TRACE","admin_code":"47760","sido_code":"47","flood_year":"2019","occurred_at":"2019-10-02","ended_at":"2019-10-03","begin_time":"2300","end_time":"0300","disaster_name":"제18호 태풍 미탁","cause_detail":"배수불량으로 인한 하천 역류","flood_grade":2,"flood_depth_m":1.6,"flood_area_m2":93061.5,"source_sn":521,"data_status":"actual","official_data":true,"is_prediction":false,"source":"행정안전부 침수흔적도 · 재난안전데이터공유플랫폼 DSSP-IF-00117","collected_at":"2026-08-19T16:46:51+09:00","source_crs":"EPSG:3857","display_badges":["행안부 침수흔적도","과거 기록"]}},{"type":"Feature","id":"FLD:47760:514:10007","geometry":{"type":"MultiPolygon","coordinates":[[[[129.08574,36.580453],[129.085773,36.580617],[129.085695,36.58076],[129.085648,36.580834],[129.085596,36.580917],[129.085516,36.581034],[129.085367,36.58127],[129.085054,36.581303],[129.085015,36.581304],[129.08497,36.581298],[129.084939,36.581276],[129.084909,36.581264],[129.084792,36.581247],[129.084524,36.581274],[129.084421,36.581266],[129.084039,36.581163],[129.083945,36.581131],[129.083775,36.581044],[129.083557,36.580949],[129.083277,36.580871],[129.083256,36.580852],[129.083285,36.580838],[129.083502,36.580804],[129.083596,36.580776],[129.083659,36.580822],[129.084083,36.581001],[129.084382,36.581062],[129.08442,36.581056],[129.084592,36.581045],[129.084967,36.581007],[129.085119,36.580651],[129.085121,36.580633],[129.085132,36.58058],[129.08513,36.580556],[129.085243,36.580546],[129.085269,36.580546],[129.085589,36.580491],[129.085622,36.580482],[129.085706,36.580462],[129.08574,36.580453]]]]},"properties":{"id":"FLD:47760:514:10007","layer":"FLOOD_TRACE","admin_code":"47760","sido_code":"47","flood_year":"2019","occurred_at":"2019-10-02","ended_at":"2019-10-03","begin_time":"2300","end_time":"0300","disaster_name":"제18호 태풍 미탁","cause_detail":"배수불량으로 인한 하천 역류","flood_grade":1,"flood_depth_m":0.44,"flood_area_m2":29734.8,"source_sn":514,"data_status":"actual","official_data":true,"is_prediction":false,"source":"행정안전부 침수흔적도 · 재난안전데이터공유플랫폼 DSSP-IF-00117","collected_at":"2026-08-19T16:46:51+09:00","source_crs":"EPSG:3857","display_badges":["행안부 침수흔적도","과거 기록"]}},{"type":"Feature","id":"FLD:47760:517:10008","geometry":{"type":"MultiPolygon","coordinates":[[[[129.083767,36.573043],[129.083714,36.573054],[129.08352,36.573093],[129.083195,36.573159],[129.083149,36.573041],[129.083144,36.572961],[129.083121,36.572895],[129.08312,36.572869],[129.083146,36.572775],[129.083133,36.57275],[129.083086,36.572716],[129.083074,36.572689],[129.083085,36.57264],[129.083071,36.572602],[129.083089,36.572547],[129.083097,36.572496],[129.083093,36.572452],[129.083108,36.572404],[129.083767,36.573043]]]]},"properties":{"id":"FLD:47760:517:10008","layer":"FLOOD_TRACE","admin_code":"47760","sido_code":"47","flood_year":"2019","occurred_at":"2019-10-02","ended_at":"2019-10-03","begin_time":"2300","end_time":"0300","disaster_name":"제18호 태풍 미탁","cause_detail":"배수불량으로 인한 하천 역류","flood_grade":5,"flood_depth_m":2.247,"flood_area_m2":93061.5,"source_sn":517,"data_status":"actual","official_data":true,"is_prediction":false,"source":"행정안전부 침수흔적도 · 재난안전데이터공유플랫폼 DSSP-IF-00117","collected_at":"2026-08-19T16:46:51+09:00","source_crs":"EPSG:3857","display_badges":["행안부 침수흔적도","과거 기록"]}},{"type":"Feature","id":"FLD:47760:524:10009","geometry":{"type":"MultiPolygon","coordinates":[[[[129.083844,36.589529],[129.083848,36.589537],[129.083833,36.589545],[129.083811,36.589557],[129.083788,36.589579],[129.083767,36.589613],[129.083736,36.589639],[129.083564,36.589673],[129.083413,36.589725],[129.083357,36.58976],[129.083264,36.589786],[129.083227,36.589791],[129.083191,36.589796],[129.083191,36.589795],[129.083215,36.58962],[129.083242,36.589586],[129.083507,36.589587],[129.083735,36.589567],[129.08383,36.589534],[129.083844,36.589529],[129.083844,36.589529]]]]},"properties":{"id":"FLD:47760:524:10009","layer":"FLOOD_TRACE","admin_code":"47760","sido_code":"47","flood_year":"2019","occurred_at":"2019-10-02","ended_at":"2019-10-03","begin_time":"2200","end_time":"0300","disaster_name":"제18호 태풍 미탁","cause_detail":"하천범람","flood_grade":3,"flood_depth_m":1.2,"flood_area_m2":7257.8,"source_sn":524,"data_status":"actual","official_data":true,"is_prediction":false,"source":"행정안전부 침수흔적도 · 재난안전데이터공유플랫폼 DSSP-IF-00117","collected_at":"2026-08-19T16:46:51+09:00","source_crs":"EPSG:3857","display_badges":["행안부 침수흔적도","과거 기록"]}},{"type":"Feature","id":"FLD:47760:522:10018","geometry":{"type":"MultiPolygon","coordinates":[[[[129.083191,36.589796],[129.083227,36.589791],[129.083264,36.589786],[129.083357,36.58976],[129.083413,36.589725],[129.083564,36.589673],[129.083736,36.589639],[129.083767,36.589613],[129.083788,36.589579],[129.083811,36.589557],[129.083833,36.589545],[129.083848,36.589537],[129.084084,36.589993],[129.084074,36.589996],[129.083825,36.590077],[129.083597,36.590151],[129.083555,36.590164],[129.083302,36.590245],[129.083271,36.590255],[129.083221,36.590271],[129.083191,36.589796]]]]},"properties":{"id":"FLD:47760:522:10018","layer":"FLOOD_TRACE","admin_code":"47760","sido_code":"47","flood_year":"2019","occurred_at":"2019-10-02","ended_at":"2019-10-03","begin_time":"2200","end_time":"0300","disaster_name":"제18호 태풍 미탁","cause_detail":"하천범람","flood_grade":2,"flood_depth_m":0.5,"flood_area_m2":7257.8,"source_sn":522,"data_status":"actual","official_data":true,"is_prediction":false,"source":"행정안전부 침수흔적도 · 재난안전데이터공유플랫폼 DSSP-IF-00117","collected_at":"2026-08-19T16:46:51+09:00","source_crs":"EPSG:3857","display_badges":["행안부 침수흔적도","과거 기록"]}},{"type":"Feature","id":"FLD:47760:518:10019","geometry":{"type":"MultiPolygon","coordinates":[[[[129.089071,36.58504],[129.089096,36.585071],[129.089173,36.585187],[129.089159,36.585228],[129.089197,36.585384],[129.089222,36.585431],[129.089219,36.585454],[129.089219,36.585759],[129.088898,36.585815],[129.088727,36.585837],[129.088586,36.585856],[129.088142,36.585842],[129.087883,36.585834],[129.087728,36.585812],[129.087549,36.585777],[129.087538,36.585692],[129.087546,36.585629],[129.087351,36.58559],[129.087308,36.585553],[129.087347,36.585496],[129.087363,36.58544],[129.087374,36.585211],[129.087348,36.585092],[129.087348,36.58504],[129.088433,36.585057],[129.088882,36.585067],[129.089071,36.58504]]]]},"properties":{"id":"FLD:47760:518:10019","layer":"FLOOD_TRACE","admin_code":"47760","sido_code":"47","flood_year":"2019","occurred_at":"2019-10-02","ended_at":"2019-10-03","begin_time":"0000","end_time":"0300","disaster_name":"제18호 태풍 미탁","cause_detail":"배수불량으로 인한 하천 역류","flood_grade":3,"flood_depth_m":1.25,"flood_area_m2":20007.7,"source_sn":518,"data_status":"actual","official_data":true,"is_prediction":false,"source":"행정안전부 침수흔적도 · 재난안전데이터공유플랫폼 DSSP-IF-00117","collected_at":"2026-08-19T16:46:51+09:00","source_crs":"EPSG:3857","display_badges":["행안부 침수흔적도","과거 기록"]}},{"type":"Feature","id":"FLD:47760:526:10020","geometry":{"type":"MultiPolygon","coordinates":[[[[129.065776,36.546598],[129.066206,36.546944],[129.066415,36.546983],[129.066567,36.546987],[129.066723,36.547227],[129.066505,36.54753],[129.06625,36.5475],[129.065992,36.547551],[129.065782,36.547557],[129.065737,36.547558],[129.065465,36.54746],[129.06543,36.547365],[129.065506,36.547222],[129.065654,36.546839],[129.065776,36.546598]]]]},"properties":{"id":"FLD:47760:526:10020","layer":"FLOOD_TRACE","admin_code":"47760","sido_code":"47","flood_year":"2019","occurred_at":"2019-10-02","ended_at":"2019-10-03","begin_time":"2300","end_time":"0300","disaster_name":"제18호 태풍 미탁","cause_detail":"배수 불량","flood_grade":2,"flood_depth_m":0.832,"flood_area_m2":19029.4,"source_sn":526,"data_status":"actual","official_data":true,"is_prediction":false,"source":"행정안전부 침수흔적도 · 재난안전데이터공유플랫폼 DSSP-IF-00117","collected_at":"2026-08-19T16:46:51+09:00","source_crs":"EPSG:3857","display_badges":["행안부 침수흔적도","과거 기록"]}},{"type":"Feature","id":"FLD:47760:535:10021","geometry":{"type":"MultiPolygon","coordinates":[[[[129.038338,36.724843],[129.038324,36.724874],[129.03826,36.724955],[129.038146,36.725101],[129.03791,36.725404],[129.037846,36.725484],[129.037663,36.725703],[129.036925,36.725258],[129.037014,36.725144],[129.037182,36.724961],[129.037291,36.724843],[129.03747,36.724682],[129.037558,36.724615],[129.037642,36.724567],[129.037795,36.72449],[129.037802,36.724495],[129.038315,36.724816],[129.038338,36.724843]]]]},"properties":{"id":"FLD:47760:535:10021","layer":"FLOOD_TRACE","admin_code":"47760","sido_code":"47","flood_year":"2019","occurred_at":"2019-10-02","ended_at":"2019-10-03","begin_time":"2300","end_time":"0300","disaster_name":"탁제18호태풍미","cause_detail":"구거배수불량","flood_grade":3,"flood_depth_m":1,"flood_area_m2":20275.1,"source_sn":535,"data_status":"actual","official_data":true,"is_prediction":false,"source":"행정안전부 침수흔적도 · 재난안전데이터공유플랫폼 DSSP-IF-00117","collected_at":"2026-08-19T16:46:51+09:00","source_crs":"EPSG:3857","display_badges":["행안부 침수흔적도","과거 기록"]}},{"type":"Feature","id":"FLD:47760:542:10022","geometry":{"type":"MultiPolygon","coordinates":[[[[129.036246,36.726206],[129.036817,36.726545],[129.036354,36.726647],[129.035922,36.726656],[129.036026,36.726512],[129.036246,36.726206]]]]},"properties":{"id":"FLD:47760:542:10022","layer":"FLOOD_TRACE","admin_code":"47760","sido_code":"47","flood_year":"2019","occurred_at":"2019-10-02","ended_at":"2019-10-03","begin_time":"2300","end_time":"0300","disaster_name":"탁제18호태풍미","cause_detail":"구거배수불량","flood_grade":1,"flood_depth_m":0.2,"flood_area_m2":20275.1,"source_sn":542,"data_status":"actual","official_data":true,"is_prediction":false,"source":"행정안전부 침수흔적도 · 재난안전데이터공유플랫폼 DSSP-IF-00117","collected_at":"2026-08-19T16:46:51+09:00","source_crs":"EPSG:3857","display_badges":["행안부 침수흔적도","과거 기록"]}},{"type":"Feature","id":"FLD:47760:533:10023","geometry":{"type":"MultiPolygon","coordinates":[[[[129.064131,36.643924],[129.064023,36.644087],[129.063815,36.644404],[129.063307,36.644275],[129.063329,36.644104],[129.063363,36.64402],[129.063396,36.643969],[129.063403,36.643911],[129.063467,36.643855],[129.063509,36.643873],[129.063625,36.6438],[129.063668,36.64379],[129.064108,36.643917],[129.064131,36.643924]]]]},"properties":{"id":"FLD:47760:533:10023","layer":"FLOOD_TRACE","admin_code":"47760","sido_code":"47","flood_year":"2019","occurred_at":"2019-10-02","ended_at":"2019-10-03","begin_time":"2300","end_time":"0300","disaster_name":"제18호태풍미탁","cause_detail":"배수불량","flood_grade":2,"flood_depth_m":0.8,"flood_area_m2":7418.2,"source_sn":533,"data_status":"actual","official_data":true,"is_prediction":false,"source":"행정안전부 침수흔적도 · 재난안전데이터공유플랫폼 DSSP-IF-00117","collected_at":"2026-08-19T16:46:51+09:00","source_crs":"EPSG:3857","display_badges":["행안부 침수흔적도","과거 기록"]}},{"type":"Feature","id":"FLD:47760:541:10024","geometry":{"type":"MultiPolygon","coordinates":[[[[129.063222,36.645475],[129.063377,36.645237],[129.064342,36.645661],[129.064183,36.645894],[129.063961,36.645798],[129.063222,36.645475]]]]},"properties":{"id":"FLD:47760:541:10024","layer":"FLOOD_TRACE","admin_code":"47760","sido_code":"47","flood_year":"2019","occurred_at":"2019-10-02","ended_at":"2019-10-03","begin_time":"2300","end_time":"0300","disaster_name":"제18호태풍미탁","cause_detail":"배수불량","flood_grade":1,"flood_depth_m":0.3,"flood_area_m2":2911,"source_sn":541,"data_status":"actual","official_data":true,"is_prediction":false,"source":"행정안전부 침수흔적도 · 재난안전데이터공유플랫폼 DSSP-IF-00117","collected_at":"2026-08-19T16:46:51+09:00","source_crs":"EPSG:3857","display_badges":["행안부 침수흔적도","과거 기록"]}},{"type":"Feature","id":"FLD:47760:540:10025","geometry":{"type":"MultiPolygon","coordinates":[[[[129.047389,36.705421],[129.047378,36.70542],[129.047401,36.705229],[129.047441,36.70511],[129.047447,36.705052],[129.047471,36.704824],[129.047486,36.704688],[129.047528,36.704651],[129.047507,36.70463],[129.047492,36.704627],[129.047504,36.704514],[129.047717,36.704509],[129.04765,36.705103],[129.047629,36.705206],[129.047606,36.70528],[129.047438,36.705426],[129.047389,36.705421]]]]},"properties":{"id":"FLD:47760:540:10025","layer":"FLOOD_TRACE","admin_code":"47760","sido_code":"47","flood_year":"2019","occurred_at":"2019-10-02","ended_at":"2019-10-03","begin_time":"2300","end_time":"0300","disaster_name":"제18호태풍미탁","cause_detail":"하천범람","flood_grade":1,"flood_depth_m":0.3,"flood_area_m2":2672.2,"source_sn":540,"data_status":"actual","official_data":true,"is_prediction":false,"source":"행정안전부 침수흔적도 · 재난안전데이터공유플랫폼 DSSP-IF-00117","collected_at":"2026-08-19T16:46:51+09:00","source_crs":"EPSG:3857","display_badges":["행안부 침수흔적도","과거 기록"]}},{"type":"Feature","id":"FLD:47760:532:10026","geometry":{"type":"MultiPolygon","coordinates":[[[[129.066943,36.646422],[129.066815,36.646342],[129.066632,36.646175],[129.066607,36.646162],[129.066565,36.64611],[129.066509,36.645969],[129.066476,36.645891],[129.066416,36.645756],[129.066374,36.645629],[129.066342,36.645527],[129.066312,36.645502],[129.066681,36.645323],[129.066721,36.645303],[129.066893,36.645479],[129.067097,36.645596],[129.067311,36.645704],[129.067266,36.645796],[129.066999,36.646348],[129.066943,36.646422]]]]},"properties":{"id":"FLD:47760:532:10026","layer":"FLOOD_TRACE","admin_code":"47760","sido_code":"47","flood_year":"2019","occurred_at":"2019-10-02","ended_at":"2019-10-03","begin_time":"2300","end_time":"0300","disaster_name":"제18호태풍미탁","cause_detail":"배수불량","flood_grade":1,"flood_depth_m":0.3,"flood_area_m2":5977.5,"source_sn":532,"data_status":"actual","official_data":true,"is_prediction":false,"source":"행정안전부 침수흔적도 · 재난안전데이터공유플랫폼 DSSP-IF-00117","collected_at":"2026-08-19T16:46:51+09:00","source_crs":"EPSG:3857","display_badges":["행안부 침수흔적도","과거 기록"]}},{"type":"Feature","id":"FLD:47760:534:10027","geometry":{"type":"MultiPolygon","coordinates":[[[[129.059996,36.759311],[129.059877,36.7594],[129.059812,36.759342],[129.059543,36.759097],[129.059339,36.758911],[129.059257,36.758867],[129.059084,36.758709],[129.059036,36.758677],[129.059196,36.758723],[129.059284,36.758724],[129.059434,36.758779],[129.059686,36.758939],[129.059924,36.759218],[129.059996,36.759311]]]]},"properties":{"id":"FLD:47760:534:10027","layer":"FLOOD_TRACE","admin_code":"47760","sido_code":"47","flood_year":"2019","occurred_at":"2019-10-02","ended_at":"2019-10-03","begin_time":"2300","end_time":"0300","disaster_name":"제18호태풍미탁","cause_detail":"인근저수지붕괴","flood_grade":2,"flood_depth_m":0.9,"flood_area_m2":2928.8,"source_sn":534,"data_status":"actual","official_data":true,"is_prediction":false,"source":"행정안전부 침수흔적도 · 재난안전데이터공유플랫폼 DSSP-IF-00117","collected_at":"2026-08-19T16:46:51+09:00","source_crs":"EPSG:3857","display_badges":["행안부 침수흔적도","과거 기록"]}},{"type":"Feature","id":"FLD:47760:544:10028","geometry":{"type":"MultiPolygon","coordinates":[[[[129.06302,36.686361],[129.063053,36.686396],[129.062631,36.686657],[129.062239,36.686898],[129.061982,36.686786],[129.061909,36.686747],[129.061769,36.686611],[129.061765,36.686566],[129.061935,36.686539],[129.062014,36.686525],[129.062156,36.686501],[129.062316,36.686474],[129.06302,36.686361]]]]},"properties":{"id":"FLD:47760:544:10028","layer":"FLOOD_TRACE","admin_code":"47760","sido_code":"47","flood_year":"2019","occurred_at":"2019-10-02","ended_at":"2019-10-03","begin_time":"2300","end_time":"0300","disaster_name":"제18호태풍미탁","cause_detail":"하천범람","flood_grade":1,"flood_depth_m":0.4,"flood_area_m2":3012.1,"source_sn":544,"data_status":"actual","official_data":true,"is_prediction":false,"source":"행정안전부 침수흔적도 · 재난안전데이터공유플랫폼 DSSP-IF-00117","collected_at":"2026-08-19T16:46:51+09:00","source_crs":"EPSG:3857","display_badges":["행안부 침수흔적도","과거 기록"]}},{"type":"Feature","id":"FLD:47760:537:10029","geometry":{"type":"MultiPolygon","coordinates":[[[[129.036925,36.725258],[129.037663,36.725703],[129.037412,36.726003],[129.037265,36.726205],[129.037175,36.726305],[129.037103,36.726382],[129.037051,36.726439],[129.036971,36.726485],[129.036983,36.726507],[129.036817,36.726545],[129.036246,36.726206],[129.03631,36.726116],[129.036353,36.726048],[129.036387,36.726011],[129.036422,36.725976],[129.036471,36.725899],[129.036478,36.725887],[129.036489,36.72587],[129.03669,36.725573],[129.036925,36.725258]]]]},"properties":{"id":"FLD:47760:537:10029","layer":"FLOOD_TRACE","admin_code":"47760","sido_code":"47","flood_year":"2019","occurred_at":"2019-10-02","ended_at":"2019-10-03","begin_time":"2300","end_time":"0300","disaster_name":"탁제18호태풍미","cause_detail":"구거배수불량","flood_grade":2,"flood_depth_m":0.5,"flood_area_m2":20275.1,"source_sn":537,"data_status":"actual","official_data":true,"is_prediction":false,"source":"행정안전부 침수흔적도 · 재난안전데이터공유플랫폼 DSSP-IF-00117","collected_at":"2026-08-19T16:46:51+09:00","source_crs":"EPSG:3857","display_badges":["행안부 침수흔적도","과거 기록"]}},{"type":"Feature","id":"FLD:47760:531:10030","geometry":{"type":"MultiPolygon","coordinates":[[[[129.068261,36.646634],[129.068159,36.646636],[129.067716,36.646629],[129.067615,36.646627],[129.067249,36.646527],[129.067117,36.646491],[129.067053,36.646469],[129.067061,36.646425],[129.067716,36.64638],[129.068234,36.646345],[129.068243,36.646446],[129.068261,36.646634]]]]},"properties":{"id":"FLD:47760:531:10030","layer":"FLOOD_TRACE","admin_code":"47760","sido_code":"47","flood_year":"2019","occurred_at":"2019-10-02","ended_at":"2019-10-03","begin_time":"2300","end_time":"0300","disaster_name":"제18호태풍미탁","cause_detail":"배수불량","flood_grade":2,"flood_depth_m":0.6,"flood_area_m2":2475.3,"source_sn":531,"data_status":"actual","official_data":true,"is_prediction":false,"source":"행정안전부 침수흔적도 · 재난안전데이터공유플랫폼 DSSP-IF-00117","collected_at":"2026-08-19T16:46:51+09:00","source_crs":"EPSG:3857","display_badges":["행안부 침수흔적도","과거 기록"]}},{"type":"Feature","id":"FLD:47760:538:10031","geometry":{"type":"MultiPolygon","coordinates":[[[[129.060786,36.760026],[129.060697,36.760056],[129.060637,36.760051],[129.060607,36.760048],[129.060563,36.760007],[129.06051,36.759958],[129.060498,36.759963],[129.059877,36.7594],[129.059996,36.759311],[129.060112,36.759459],[129.060216,36.759543],[129.06032,36.759653],[129.060382,36.759726],[129.060424,36.75981],[129.060524,36.759803],[129.060524,36.759805],[129.060786,36.760026]]]]},"properties":{"id":"FLD:47760:538:10031","layer":"FLOOD_TRACE","admin_code":"47760","sido_code":"47","flood_year":"2019","occurred_at":"2019-10-02","ended_at":"2019-10-03","begin_time":"2300","end_time":"0300","disaster_name":"제18호태풍미탁","cause_detail":"인근저수지붕괴","flood_grade":1,"flood_depth_m":0.4,"flood_area_m2":2928.8,"source_sn":538,"data_status":"actual","official_data":true,"is_prediction":false,"source":"행정안전부 침수흔적도 · 재난안전데이터공유플랫폼 DSSP-IF-00117","collected_at":"2026-08-19T16:46:51+09:00","source_crs":"EPSG:3857","display_badges":["행안부 침수흔적도","과거 기록"]}},{"type":"Feature","id":"FLD:47760:539:10066","geometry":{"type":"MultiPolygon","coordinates":[[[[129.041933,36.710453],[129.04136,36.710472],[129.041296,36.709983],[129.041524,36.70991],[129.041896,36.70986],[129.041933,36.710453]]]]},"properties":{"id":"FLD:47760:539:10066","layer":"FLOOD_TRACE","admin_code":"47760","sido_code":"47","flood_year":"2019","occurred_at":"2019-10-02","ended_at":"2019-10-03","begin_time":"2300","end_time":"0300","disaster_name":"제18호태풍미탁","cause_detail":"배수불량","flood_grade":1,"flood_depth_m":0.4,"flood_area_m2":3254.6,"source_sn":539,"data_status":"actual","official_data":true,"is_prediction":false,"source":"행정안전부 침수흔적도 · 재난안전데이터공유플랫폼 DSSP-IF-00117","collected_at":"2026-08-19T16:46:51+09:00","source_crs":"EPSG:3857","display_badges":["행안부 침수흔적도","과거 기록"]}},{"type":"Feature","id":"FLD:47760:536:10067","geometry":{"type":"MultiPolygon","coordinates":[[[[129.04765,36.705103],[129.047717,36.704509],[129.048097,36.704501],[129.048061,36.704547],[129.048017,36.704573],[129.047932,36.704627],[129.047842,36.70475],[129.047758,36.704904],[129.047713,36.70499],[129.04765,36.705103]]]]},"properties":{"id":"FLD:47760:536:10067","layer":"FLOOD_TRACE","admin_code":"47760","sido_code":"47","flood_year":"2019","occurred_at":"2019-10-02","ended_at":"2019-10-03","begin_time":"2300","end_time":"0300","disaster_name":"제18호태풍미탁","cause_detail":"하천범람","flood_grade":2,"flood_depth_m":0.6,"flood_area_m2":2672.2,"source_sn":536,"data_status":"actual","official_data":true,"is_prediction":false,"source":"행정안전부 침수흔적도 · 재난안전데이터공유플랫폼 DSSP-IF-00117","collected_at":"2026-08-19T16:46:51+09:00","source_crs":"EPSG:3857","display_badges":["행안부 침수흔적도","과거 기록"]}},{"type":"Feature","id":"FLD:47760:543:10068","geometry":{"type":"MultiPolygon","coordinates":[[[[129.063307,36.644275],[129.063815,36.644404],[129.063362,36.645093],[129.062836,36.644862],[129.062947,36.64474],[129.06305,36.644583],[129.063111,36.64446],[129.063156,36.644396],[129.063241,36.644329],[129.063241,36.644326],[129.063307,36.644275]]]]},"properties":{"id":"FLD:47760:543:10068","layer":"FLOOD_TRACE","admin_code":"47760","sido_code":"47","flood_year":"2019","occurred_at":"2019-10-02","ended_at":"2019-10-03","begin_time":"2300","end_time":"0300","disaster_name":"제18호태풍미탁","cause_detail":"배수불량","flood_grade":1,"flood_depth_m":0.3,"flood_area_m2":7418.2,"source_sn":543,"data_status":"actual","official_data":true,"is_prediction":false,"source":"행정안전부 침수흔적도 · 재난안전데이터공유플랫폼 DSSP-IF-00117","collected_at":"2026-08-19T16:46:51+09:00","source_crs":"EPSG:3857","display_badges":["행안부 침수흔적도","과거 기록"]}},{"type":"Feature","id":"FLD:47760:547:10069","geometry":{"type":"MultiPolygon","coordinates":[[[[129.260035,36.831687],[129.260027,36.83168],[129.260139,36.831567],[129.260295,36.831441],[129.260454,36.831339],[129.260771,36.831443],[129.261337,36.831724],[129.261322,36.831749],[129.261322,36.831757],[129.261294,36.831822],[129.261176,36.831802],[129.260923,36.831661],[129.260803,36.831598],[129.260707,36.831557],[129.260617,36.831535],[129.260528,36.831523],[129.260437,36.831534],[129.260288,36.831567],[129.260165,36.831621],[129.260035,36.831687]]]]},"properties":{"id":"FLD:47760:547:10069","layer":"FLOOD_TRACE","admin_code":"47760","sido_code":"47","flood_year":"2019","occurred_at":"2019-10-02","ended_at":"2019-10-03","begin_time":"2300","end_time":"0300","disaster_name":"제18호태풍미탁","cause_detail":"하천범람","flood_grade":2,"flood_depth_m":0.635,"flood_area_m2":1685.7,"source_sn":547,"data_status":"actual","official_data":true,"is_prediction":false,"source":"행정안전부 침수흔적도 · 재난안전데이터공유플랫폼 DSSP-IF-00117","collected_at":"2026-08-19T16:46:51+09:00","source_crs":"EPSG:3857","display_badges":["행안부 침수흔적도","과거 기록"]}},{"type":"Feature","id":"FLD:47760:557:10070","geometry":{"type":"MultiPolygon","coordinates":[[[[129.195658,36.699824],[129.196046,36.699913],[129.196199,36.699965],[129.196221,36.699973],[129.195874,36.700034],[129.195558,36.700024],[129.195567,36.700006],[129.195606,36.699923],[129.195658,36.699824]]]]},"properties":{"id":"FLD:47760:557:10070","layer":"FLOOD_TRACE","admin_code":"47760","sido_code":"47","flood_year":"2019","occurred_at":"2019-10-02","ended_at":"2019-10-03","begin_time":"2300","end_time":"0300","disaster_name":"제18호태풍미탁","cause_detail":"하천범람","flood_grade":3,"flood_depth_m":1.2,"flood_area_m2":3750.7,"source_sn":557,"data_status":"actual","official_data":true,"is_prediction":false,"source":"행정안전부 침수흔적도 · 재난안전데이터공유플랫폼 DSSP-IF-00117","collected_at":"2026-08-19T16:46:51+09:00","source_crs":"EPSG:3857","display_badges":["행안부 침수흔적도","과거 기록"]}},{"type":"Feature","id":"FLD:47760:556:10071","geometry":{"type":"MultiPolygon","coordinates":[[[[129.248653,36.805526],[129.248563,36.805539],[129.248564,36.805447],[129.248562,36.805272],[129.248567,36.805175],[129.248587,36.804896],[129.248595,36.804731],[129.248596,36.804715],[129.248626,36.804549],[129.248659,36.804266],[129.24866,36.80426],[129.248681,36.804122],[129.248688,36.804084],[129.248733,36.804098],[129.248881,36.804177],[129.248849,36.804396],[129.248768,36.805],[129.248701,36.805105],[129.248695,36.805239],[129.248678,36.805413],[129.248653,36.805526]]]]},"properties":{"id":"FLD:47760:556:10071","layer":"FLOOD_TRACE","admin_code":"47760","sido_code":"47","flood_year":"2019","occurred_at":"2019-10-02","ended_at":"2019-10-03","begin_time":"2300","end_time":"0300","disaster_name":"제18호태풍미탁","cause_detail":"하천범람","flood_grade":5,"flood_depth_m":2,"flood_area_m2":2434.7,"source_sn":556,"data_status":"actual","official_data":true,"is_prediction":false,"source":"행정안전부 침수흔적도 · 재난안전데이터공유플랫폼 DSSP-IF-00117","collected_at":"2026-08-19T16:46:51+09:00","source_crs":"EPSG:3857","display_badges":["행안부 침수흔적도","과거 기록"]}},{"type":"Feature","id":"FLD:47760:548:10072","geometry":{"type":"MultiPolygon","coordinates":[[[[129.276495,36.787574],[129.276411,36.787536],[129.27642,36.787527],[129.276498,36.787403],[129.276534,36.787313],[129.276589,36.787171],[129.276828,36.787036],[129.276793,36.78715],[129.276758,36.78715],[129.276729,36.787235],[129.276687,36.78737],[129.276697,36.787375],[129.27664,36.787472],[129.276634,36.787474],[129.276516,36.787545],[129.276495,36.787574]]]]},"properties":{"id":"FLD:47760:548:10072","layer":"FLOOD_TRACE","admin_code":"47760","sido_code":"47","flood_year":"2019","occurred_at":"2019-10-02","ended_at":"2019-10-03","begin_time":"2300","end_time":"0300","disaster_name":"제18호태풍미탁","cause_detail":"하천범람","flood_grade":2,"flood_depth_m":0.9,"flood_area_m2":757.2,"source_sn":548,"data_status":"actual","official_data":true,"is_prediction":false,"source":"행정안전부 침수흔적도 · 재난안전데이터공유플랫폼 DSSP-IF-00117","collected_at":"2026-08-19T16:46:51+09:00","source_crs":"EPSG:3857","display_badges":["행안부 침수흔적도","과거 기록"]}},{"type":"Feature","id":"FLD:47760:559:10073","geometry":{"type":"MultiPolygon","coordinates":[[[[129.260321,36.830489],[129.260401,36.830396],[129.260414,36.8304],[129.260409,36.830413],[129.260632,36.830507],[129.260744,36.830533],[129.260935,36.8306],[129.260976,36.830621],[129.261062,36.830663],[129.261317,36.83082],[129.261306,36.830862],[129.261177,36.830865],[129.261106,36.830812],[129.260938,36.830737],[129.260846,36.830699],[129.260649,36.830616],[129.260599,36.830582],[129.260494,36.830566],[129.260321,36.830489]]]]},"properties":{"id":"FLD:47760:559:10073","layer":"FLOOD_TRACE","admin_code":"47760","sido_code":"47","flood_year":"2019","occurred_at":"2019-10-02","ended_at":"2019-10-03","begin_time":"2300","end_time":"0300","disaster_name":"제18호태풍미탁","cause_detail":"하천범람","flood_grade":5,"flood_depth_m":2.3,"flood_area_m2":2366.4,"source_sn":559,"data_status":"actual","official_data":true,"is_prediction":false,"source":"행정안전부 침수흔적도 · 재난안전데이터공유플랫폼 DSSP-IF-00117","collected_at":"2026-08-19T16:46:51+09:00","source_crs":"EPSG:3857","display_badges":["행안부 침수흔적도","과거 기록"]}},{"type":"Feature","id":"FLD:47760:549:10074","geometry":{"type":"MultiPolygon","coordinates":[[[[129.249618,36.810666],[129.249649,36.810665],[129.249636,36.810706],[129.249614,36.810812],[129.249592,36.810828],[129.249085,36.810815],[129.249007,36.810817],[129.24899,36.810817],[129.248864,36.810803],[129.248522,36.810827],[129.248517,36.81081],[129.248995,36.810768],[129.249076,36.810761],[129.249291,36.810708],[129.249618,36.810666]]]]},"properties":{"id":"FLD:47760:549:10074","layer":"FLOOD_TRACE","admin_code":"47760","sido_code":"47","flood_year":"2019","occurred_at":"2019-10-02","ended_at":"2019-10-03","begin_time":"2300","end_time":"0300","disaster_name":"제18호태풍미탁","cause_detail":"하천범람","flood_grade":3,"flood_depth_m":1.002,"flood_area_m2":793.9,"source_sn":549,"data_status":"actual","official_data":true,"is_prediction":false,"source":"행정안전부 침수흔적도 · 재난안전데이터공유플랫폼 DSSP-IF-00117","collected_at":"2026-08-19T16:46:51+09:00","source_crs":"EPSG:3857","display_badges":["행안부 침수흔적도","과거 기록"]}},{"type":"Feature","id":"FLD:47760:546:10075","geometry":{"type":"MultiPolygon","coordinates":[[[[129.24002,36.758565],[129.239973,36.758537],[129.239675,36.758378],[129.239608,36.758341],[129.2395,36.758269],[129.239551,36.758226],[129.239622,36.758106],[129.239668,36.758028],[129.239782,36.758116],[129.239899,36.758218],[129.23992,36.758208],[129.239955,36.758236],[129.240119,36.758477],[129.24002,36.758565]]]]},"properties":{"id":"FLD:47760:546:10075","layer":"FLOOD_TRACE","admin_code":"47760","sido_code":"47","flood_year":"2019","occurred_at":"2019-10-02","ended_at":"2019-10-03","begin_time":"2300","end_time":"0300","disaster_name":"제18호태풍미탁","cause_detail":"배수불량","flood_grade":2,"flood_depth_m":0.6,"flood_area_m2":1435.3,"source_sn":546,"data_status":"actual","official_data":true,"is_prediction":false,"source":"행정안전부 침수흔적도 · 재난안전데이터공유플랫폼 DSSP-IF-00117","collected_at":"2026-08-19T16:46:51+09:00","source_crs":"EPSG:3857","display_badges":["행안부 침수흔적도","과거 기록"]}},{"type":"Feature","id":"FLD:47760:550:10076","geometry":{"type":"MultiPolygon","coordinates":[[[[129.197599,36.699752],[129.197478,36.699822],[129.197362,36.699856],[129.19702,36.699904],[129.196236,36.699971],[129.196221,36.699973],[129.196199,36.699965],[129.196046,36.699913],[129.195658,36.699824],[129.195671,36.699757],[129.195672,36.69975],[129.195692,36.699664],[129.195857,36.699674],[129.196031,36.699687],[129.196392,36.699712],[129.196453,36.699723],[129.196742,36.699776],[129.197153,36.699809],[129.197434,36.699801],[129.197575,36.69975],[129.197599,36.699752]]]]},"properties":{"id":"FLD:47760:550:10076","layer":"FLOOD_TRACE","admin_code":"47760","sido_code":"47","flood_year":"2019","occurred_at":"2019-10-02","ended_at":"2019-10-03","begin_time":"2300","end_time":"0300","disaster_name":"제18호태풍미탁","cause_detail":"하천범람","flood_grade":2,"flood_depth_m":0.7,"flood_area_m2":3750.7,"source_sn":550,"data_status":"actual","official_data":true,"is_prediction":false,"source":"행정안전부 침수흔적도 · 재난안전데이터공유플랫폼 DSSP-IF-00117","collected_at":"2026-08-19T16:46:51+09:00","source_crs":"EPSG:3857","display_badges":["행안부 침수흔적도","과거 기록"]}},{"type":"Feature","id":"FLD:47760:553:10077","geometry":{"type":"MultiPolygon","coordinates":[[[[129.258268,36.827437],[129.258763,36.826945],[129.258814,36.82699],[129.258694,36.827132],[129.258633,36.827219],[129.25858,36.827322],[129.258541,36.827439],[129.258395,36.827418],[129.258359,36.827406],[129.258268,36.827437]]]]},"properties":{"id":"FLD:47760:553:10077","layer":"FLOOD_TRACE","admin_code":"47760","sido_code":"47","flood_year":"2019","occurred_at":"2019-10-02","ended_at":"2019-10-03","begin_time":"2300","end_time":"0300","disaster_name":"제18호태풍미탁","cause_detail":"하천범람","flood_grade":2,"flood_depth_m":0.5,"flood_area_m2":2433,"source_sn":553,"data_status":"actual","official_data":true,"is_prediction":false,"source":"행정안전부 침수흔적도 · 재난안전데이터공유플랫폼 DSSP-IF-00117","collected_at":"2026-08-19T16:46:51+09:00","source_crs":"EPSG:3857","display_badges":["행안부 침수흔적도","과거 기록"]}},{"type":"Feature","id":"FLD:47760:554:10078","geometry":{"type":"MultiPolygon","coordinates":[[[[129.249696,36.81086],[129.249725,36.810839],[129.249762,36.810782],[129.249763,36.810662],[129.249949,36.810626],[129.250023,36.810657],[129.250254,36.810665],[129.250285,36.810663],[129.250292,36.810816],[129.250331,36.810899],[129.250124,36.810871],[129.249696,36.81086]]]]},"properties":{"id":"FLD:47760:554:10078","layer":"FLOOD_TRACE","admin_code":"47760","sido_code":"47","flood_year":"2019","occurred_at":"2019-10-02","ended_at":"2019-10-03","begin_time":"2300","end_time":"0300","disaster_name":"제18호태풍미탁","cause_detail":"하천범람","flood_grade":3,"flood_depth_m":1.001,"flood_area_m2":1178.1,"source_sn":554,"data_status":"actual","official_data":true,"is_prediction":false,"source":"행정안전부 침수흔적도 · 재난안전데이터공유플랫폼 DSSP-IF-00117","collected_at":"2026-08-19T16:46:51+09:00","source_crs":"EPSG:3857","display_badges":["행안부 침수흔적도","과거 기록"]}},{"type":"Feature","id":"FLD:47760:552:10079","geometry":{"type":"MultiPolygon","coordinates":[[[[129.250303,36.81066],[129.250511,36.810642],[129.250624,36.810677],[129.250933,36.810729],[129.251222,36.810804],[129.251224,36.810827],[129.251379,36.810873],[129.251149,36.810909],[129.25093,36.810919],[129.250793,36.810911],[129.250733,36.810938],[129.250523,36.810922],[129.250384,36.810938],[129.250337,36.81087],[129.250314,36.810817],[129.250303,36.81066]]]]},"properties":{"id":"FLD:47760:552:10079","layer":"FLOOD_TRACE","admin_code":"47760","sido_code":"47","flood_year":"2019","occurred_at":"2019-10-02","ended_at":"2019-10-03","begin_time":"2300","end_time":"0300","disaster_name":"제18호태풍미탁","cause_detail":"하천범람","flood_grade":3,"flood_depth_m":1.001,"flood_area_m2":1965.1,"source_sn":552,"data_status":"actual","official_data":true,"is_prediction":false,"source":"행정안전부 침수흔적도 · 재난안전데이터공유플랫폼 DSSP-IF-00117","collected_at":"2026-08-19T16:46:51+09:00","source_crs":"EPSG:3857","display_badges":["행안부 침수흔적도","과거 기록"]}},{"type":"Feature","id":"FLD:47760:551:10080","geometry":{"type":"MultiPolygon","coordinates":[[[[129.26427,36.833032],[129.264279,36.833054],[129.264218,36.833126],[129.26415,36.833153],[129.263974,36.833129],[129.263809,36.833062],[129.263734,36.833007],[129.263648,36.832972],[129.263592,36.832976],[129.263542,36.83296],[129.263377,36.832935],[129.263489,36.832802],[129.263651,36.832781],[129.26427,36.833032]]]]},"properties":{"id":"FLD:47760:551:10080","layer":"FLOOD_TRACE","admin_code":"47760","sido_code":"47","flood_year":"2019","occurred_at":"2019-10-02","ended_at":"2019-10-03","begin_time":"2300","end_time":"0300","disaster_name":"제18호태풍미탁","cause_detail":"하천범람","flood_grade":3,"flood_depth_m":1.028,"flood_area_m2":1501.2,"source_sn":551,"data_status":"actual","official_data":true,"is_prediction":false,"source":"행정안전부 침수흔적도 · 재난안전데이터공유플랫폼 DSSP-IF-00117","collected_at":"2026-08-19T16:46:51+09:00","source_crs":"EPSG:3857","display_badges":["행안부 침수흔적도","과거 기록"]}},{"type":"Feature","id":"FLD:47760:555:10111","geometry":{"type":"MultiPolygon","coordinates":[[[[129.22566,36.756163],[129.22575,36.755996],[129.225822,36.755925],[129.226037,36.755798],[129.22618,36.75582],[129.226803,36.755883],[129.226905,36.755914],[129.22699,36.755976],[129.226951,36.756014],[129.227011,36.756046],[129.227179,36.756194],[129.227183,36.756205],[129.227157,36.756304],[129.227151,36.756308],[129.227108,36.756303],[129.22566,36.756163]]]]},"properties":{"id":"FLD:47760:555:10111","layer":"FLOOD_TRACE","admin_code":"47760","sido_code":"47","flood_year":"2019","occurred_at":"2019-10-02","ended_at":"2019-10-03","begin_time":"2300","end_time":"0300","disaster_name":"제18호태풍미탁","cause_detail":"배수불량","flood_grade":2,"flood_depth_m":0.605,"flood_area_m2":4917.5,"source_sn":555,"data_status":"actual","official_data":true,"is_prediction":false,"source":"행정안전부 침수흔적도 · 재난안전데이터공유플랫폼 DSSP-IF-00117","collected_at":"2026-08-19T16:46:51+09:00","source_crs":"EPSG:3857","display_badges":["행안부 침수흔적도","과거 기록"]}},{"type":"Feature","id":"FLD:47760:545:10112","geometry":{"type":"MultiPolygon","coordinates":[[[[129.257555,36.828267],[129.257555,36.828253],[129.257562,36.828159],[129.257571,36.82814],[129.257619,36.828055],[129.257744,36.827852],[129.257946,36.827603],[129.257977,36.827563],[129.258053,36.82747],[129.258244,36.827301],[129.258295,36.827325],[129.258311,36.8273],[129.258352,36.827252],[129.258426,36.827186],[129.258528,36.827093],[129.258606,36.827006],[129.258796,36.826835],[129.25884,36.826869],[129.258763,36.826945],[129.258268,36.827437],[129.258155,36.827561],[129.258071,36.827653],[129.258027,36.827685],[129.257968,36.827768],[129.257849,36.827909],[129.257714,36.828056],[129.257592,36.828278],[129.257555,36.828267]]]]},"properties":{"id":"FLD:47760:545:10112","layer":"FLOOD_TRACE","admin_code":"47760","sido_code":"47","flood_year":"2019","occurred_at":"2019-10-02","ended_at":"2019-10-03","begin_time":"2300","end_time":"0300","disaster_name":"제18호태풍미탁","cause_detail":"하천범람","flood_grade":5,"flood_depth_m":2.5,"flood_area_m2":2433,"source_sn":545,"data_status":"actual","official_data":true,"is_prediction":false,"source":"행정안전부 침수흔적도 · 재난안전데이터공유플랫폼 DSSP-IF-00117","collected_at":"2026-08-19T16:46:51+09:00","source_crs":"EPSG:3857","display_badges":["행안부 침수흔적도","과거 기록"]}},{"type":"Feature","id":"FLD:47760:561:10113","geometry":{"type":"MultiPolygon","coordinates":[[[[129.259318,36.829993],[129.25949,36.830058],[129.259646,36.830114],[129.259877,36.830194],[129.260057,36.830194],[129.260216,36.830275],[129.260423,36.830379],[129.260414,36.8304],[129.260401,36.830396],[129.260321,36.830489],[129.260253,36.830459],[129.260129,36.830405],[129.260046,36.830368],[129.25992,36.830314],[129.259587,36.830182],[129.259406,36.83011],[129.259348,36.830085],[129.259353,36.830068],[129.259331,36.83006],[129.259295,36.830009],[129.259318,36.829993]]]]},"properties":{"id":"FLD:47760:561:10113","layer":"FLOOD_TRACE","admin_code":"47760","sido_code":"47","flood_year":"2019","occurred_at":"2019-10-02","ended_at":"2019-10-03","begin_time":"2300","end_time":"0300","disaster_name":"제18호태풍미탁","cause_detail":"하천범람","flood_grade":3,"flood_depth_m":1.11,"flood_area_m2":2366.4,"source_sn":561,"data_status":"actual","official_data":true,"is_prediction":false,"source":"행정안전부 침수흔적도 · 재난안전데이터공유플랫폼 DSSP-IF-00117","collected_at":"2026-08-19T16:46:51+09:00","source_crs":"EPSG:3857","display_badges":["행안부 침수흔적도","과거 기록"]}},{"type":"Feature","id":"FLD:47760:558:10114","geometry":{"type":"MultiPolygon","coordinates":[[[[129.257025,36.827808],[129.257024,36.827851],[129.256946,36.827973],[129.256838,36.828114],[129.256809,36.828169],[129.256781,36.828222],[129.25673,36.828317],[129.256685,36.828318],[129.256518,36.828322],[129.256411,36.828287],[129.256339,36.828245],[129.25628,36.828199],[129.256337,36.828093],[129.256391,36.828068],[129.256438,36.828157],[129.256505,36.828175],[129.256592,36.828182],[129.256599,36.828188],[129.256697,36.828206],[129.256723,36.828161],[129.256729,36.82815],[129.25674,36.828144],[129.25682,36.828033],[129.256941,36.827877],[129.257025,36.827808]]]]},"properties":{"id":"FLD:47760:558:10114","layer":"FLOOD_TRACE","admin_code":"47760","sido_code":"47","flood_year":"2019","occurred_at":"2019-10-02","ended_at":"2019-10-03","begin_time":"2300","end_time":"0300","disaster_name":"제18호태풍미탁","cause_detail":"하천범람","flood_grade":2,"flood_depth_m":1.59,"flood_area_m2":917,"source_sn":558,"data_status":"actual","official_data":true,"is_prediction":false,"source":"행정안전부 침수흔적도 · 재난안전데이터공유플랫폼 DSSP-IF-00117","collected_at":"2026-08-19T16:46:51+09:00","source_crs":"EPSG:3857","display_badges":["행안부 침수흔적도","과거 기록"]}},{"type":"Feature","id":"FLD:47760:560:10115","geometry":{"type":"MultiPolygon","coordinates":[[[[129.258531,36.829685],[129.258533,36.829757],[129.258324,36.829693],[129.258118,36.829647],[129.257944,36.829572],[129.257707,36.82939],[129.257644,36.829292],[129.257549,36.829031],[129.257544,36.828889],[129.257569,36.828922],[129.257633,36.829005],[129.257849,36.829262],[129.258036,36.82945],[129.258207,36.82955],[129.258355,36.829639],[129.258434,36.829654],[129.258457,36.829658],[129.258531,36.829685]]]]},"properties":{"id":"FLD:47760:560:10115","layer":"FLOOD_TRACE","admin_code":"47760","sido_code":"47","flood_year":"2019","occurred_at":"2019-10-02","ended_at":"2019-10-03","begin_time":"2300","end_time":"0300","disaster_name":"제18호태풍미탁","cause_detail":"하천범람","flood_grade":2,"flood_depth_m":0.54,"flood_area_m2":1632,"source_sn":560,"data_status":"actual","official_data":true,"is_prediction":false,"source":"행정안전부 침수흔적도 · 재난안전데이터공유플랫폼 DSSP-IF-00117","collected_at":"2026-08-19T16:46:51+09:00","source_crs":"EPSG:3857","display_badges":["행안부 침수흔적도","과거 기록"]}},{"type":"Feature","id":"FLD:47760:567:10116","geometry":{"type":"MultiPolygon","coordinates":[[[[129.138596,36.534583],[129.138474,36.534241],[129.138442,36.533897],[129.138429,36.533751],[129.138516,36.533659],[129.138626,36.533541],[129.138761,36.533446],[129.138773,36.533506],[129.138785,36.53367],[129.13883,36.53386],[129.138838,36.534089],[129.138854,36.534151],[129.138956,36.534346],[129.139012,36.53434],[129.139034,36.534421],[129.13895,36.534456],[129.138924,36.53452],[129.138822,36.534542],[129.138725,36.53457],[129.138644,36.534631],[129.138626,36.534653],[129.138596,36.534583]]]]},"properties":{"id":"FLD:47760:567:10116","layer":"FLOOD_TRACE","admin_code":"47760","sido_code":"47","flood_year":"2019","occurred_at":"2019-10-02","ended_at":"2019-10-03","begin_time":"2300","end_time":"0300","disaster_name":"제18호 태풍 미탁","cause_detail":"세천 합류부분 역류로 인한 침수","flood_grade":1,"flood_depth_m":0.279,"flood_area_m2":3893.9,"source_sn":567,"data_status":"actual","official_data":true,"is_prediction":false,"source":"행정안전부 침수흔적도 · 재난안전데이터공유플랫폼 DSSP-IF-00117","collected_at":"2026-08-19T16:46:51+09:00","source_crs":"EPSG:3857","display_badges":["행안부 침수흔적도","과거 기록"]}},{"type":"Feature","id":"FLD:47760:564:10117","geometry":{"type":"MultiPolygon","coordinates":[[[[129.140917,36.541477],[129.140862,36.541215],[129.140814,36.540994],[129.140815,36.540955],[129.140934,36.540977],[129.141033,36.541117],[129.141135,36.541274],[129.14116,36.541467],[129.141115,36.541597],[129.141036,36.541733],[129.140953,36.541697],[129.140917,36.541477]]]]},"properties":{"id":"FLD:47760:564:10117","layer":"FLOOD_TRACE","admin_code":"47760","sido_code":"47","flood_year":"2019","occurred_at":"2019-10-02","ended_at":"2019-10-03","begin_time":"2300","end_time":"0300","disaster_name":"제18호 태풍 미탁","cause_detail":"소하천 범람","flood_grade":2,"flood_depth_m":0.756,"flood_area_m2":1501.5,"source_sn":564,"data_status":"actual","official_data":true,"is_prediction":false,"source":"행정안전부 침수흔적도 · 재난안전데이터공유플랫폼 DSSP-IF-00117","collected_at":"2026-08-19T16:46:51+09:00","source_crs":"EPSG:3857","display_badges":["행안부 침수흔적도","과거 기록"]}},{"type":"Feature","id":"FLD:47760:571:10118","geometry":{"type":"MultiPolygon","coordinates":[[[[129.172693,36.528147],[129.173073,36.527131],[129.173169,36.527178],[129.173213,36.527194],[129.173266,36.527223],[129.173293,36.527238],[129.173198,36.527638],[129.172872,36.528208],[129.172693,36.528147]]]]},"properties":{"id":"FLD:47760:571:10118","layer":"FLOOD_TRACE","admin_code":"47760","sido_code":"47","flood_year":"2019","occurred_at":"2019-10-02","ended_at":"2019-10-03","begin_time":"2300","end_time":"0300","disaster_name":"제18호 태풍 미탁","cause_detail":"하천 범람","flood_grade":1,"flood_depth_m":0.38,"flood_area_m2":2683.9,"source_sn":571,"data_status":"actual","official_data":true,"is_prediction":false,"source":"행정안전부 침수흔적도 · 재난안전데이터공유플랫폼 DSSP-IF-00117","collected_at":"2026-08-19T16:46:51+09:00","source_crs":"EPSG:3857","display_badges":["행안부 침수흔적도","과거 기록"]}},{"type":"Feature","id":"FLD:47760:569:10119","geometry":{"type":"MultiPolygon","coordinates":[[[[129.118031,36.560707],[129.118043,36.560635],[129.117932,36.560426],[129.11793,36.560423],[129.118044,36.560386],[129.118217,36.560294],[129.118226,36.560287],[129.11832,36.560224],[129.118335,36.560216],[129.118454,36.56043],[129.118295,36.560451],[129.118233,36.5605],[129.118215,36.560515],[129.118241,36.560631],[129.118031,36.560707]]]]},"properties":{"id":"FLD:47760:569:10119","layer":"FLOOD_TRACE","admin_code":"47760","sido_code":"47","flood_year":"2019","occurred_at":"2019-10-02","ended_at":"2019-10-03","begin_time":"2300","end_time":"0300","disaster_name":"제18호 태풍 미탁","cause_detail":"배수불량","flood_grade":1,"flood_depth_m":0.281,"flood_area_m2":4523.1,"source_sn":569,"data_status":"actual","official_data":true,"is_prediction":false,"source":"행정안전부 침수흔적도 · 재난안전데이터공유플랫폼 DSSP-IF-00117","collected_at":"2026-08-19T16:46:51+09:00","source_crs":"EPSG:3857","display_badges":["행안부 침수흔적도","과거 기록"]}},{"type":"Feature","id":"FLD:47760:572:10120","geometry":{"type":"MultiPolygon","coordinates":[[[[129.218048,36.547544],[129.21795,36.547081],[129.218156,36.54706],[129.218246,36.54747],[129.218243,36.547544],[129.218214,36.547722],[129.218163,36.547781],[129.218048,36.547544]]]]},"properties":{"id":"FLD:47760:572:10120","layer":"FLOOD_TRACE","admin_code":"47760","sido_code":"47","flood_year":"2019","occurred_at":"2019-10-02","ended_at":"2019-10-03","begin_time":"2300","end_time":"0300","disaster_name":"제18호 태풍 미탁","cause_detail":"하천범람","flood_grade":2,"flood_depth_m":0.633,"flood_area_m2":1712.8,"source_sn":572,"data_status":"actual","official_data":true,"is_prediction":false,"source":"행정안전부 침수흔적도 · 재난안전데이터공유플랫폼 DSSP-IF-00117","collected_at":"2026-08-19T16:46:51+09:00","source_crs":"EPSG:3857","display_badges":["행안부 침수흔적도","과거 기록"]}},{"type":"Feature","id":"FLD:47760:563:10121","geometry":{"type":"MultiPolygon","coordinates":[[[[129.118738,36.559844],[129.118869,36.559769],[129.118943,36.55975],[129.119077,36.559704],[129.119166,36.559639],[129.119189,36.559763],[129.118982,36.559828],[129.118966,36.559834],[129.118834,36.559888],[129.118788,36.559901],[129.118738,36.559844]]]]},"properties":{"id":"FLD:47760:563:10121","layer":"FLOOD_TRACE","admin_code":"47760","sido_code":"47","flood_year":"2019","occurred_at":"2019-10-02","ended_at":"2019-10-03","begin_time":"0000","end_time":"0300","disaster_name":"제18호 태풍 미탁","cause_detail":"배수불량","flood_grade":1,"flood_depth_m":0.49,"flood_area_m2":409.2,"source_sn":563,"data_status":"actual","official_data":true,"is_prediction":false,"source":"행정안전부 침수흔적도 · 재난안전데이터공유플랫폼 DSSP-IF-00117","collected_at":"2026-08-19T16:46:51+09:00","source_crs":"EPSG:3857","display_badges":["행안부 침수흔적도","과거 기록"]}},{"type":"Feature","id":"FLD:47760:565:10122","geometry":{"type":"MultiPolygon","coordinates":[[[[129.118335,36.560216],[129.11832,36.560224],[129.118226,36.560287],[129.118217,36.560294],[129.118044,36.560386],[129.11793,36.560423],[129.117932,36.560426],[129.118043,36.560635],[129.118031,36.560707],[129.117446,36.560673],[129.117453,36.560643],[129.117471,36.56052],[129.117481,36.560305],[129.117707,36.56026],[129.117806,36.560253],[129.11784,36.560249],[129.118143,36.560147],[129.118288,36.560063],[129.118496,36.559977],[129.118614,36.559902],[129.118681,36.559874],[129.11873,36.559923],[129.11855,36.560065],[129.118535,36.560113],[129.118423,36.56017],[129.118335,36.560216]]]]},"properties":{"id":"FLD:47760:565:10122","layer":"FLOOD_TRACE","admin_code":"47760","sido_code":"47","flood_year":"2019","occurred_at":"2019-10-02","ended_at":"2019-10-03","begin_time":"2300","end_time":"0300","disaster_name":"제18호 태풍 미탁","cause_detail":"배수불량","flood_grade":3,"flood_depth_m":1.156,"flood_area_m2":4523.1,"source_sn":565,"data_status":"actual","official_data":true,"is_prediction":false,"source":"행정안전부 침수흔적도 · 재난안전데이터공유플랫폼 DSSP-IF-00117","collected_at":"2026-08-19T16:46:51+09:00","source_crs":"EPSG:3857","display_badges":["행안부 침수흔적도","과거 기록"]}},{"type":"Feature","id":"FLD:47760:570:10123","geometry":{"type":"MultiPolygon","coordinates":[[[[129.218156,36.54706],[129.21795,36.547081],[129.217965,36.546905],[129.217971,36.546838],[129.217974,36.546786],[129.218047,36.546751],[129.218108,36.546882],[129.218156,36.54706]]]]},"properties":{"id":"FLD:47760:570:10123","layer":"FLOOD_TRACE","admin_code":"47760","sido_code":"47","flood_year":"2019","occurred_at":"2019-10-02","ended_at":"2019-10-03","begin_time":"2300","end_time":"0300","disaster_name":"제18호 태풍 미탁","cause_detail":"하천범람","flood_grade":2,"flood_depth_m":1.6,"flood_area_m2":1712.8,"source_sn":570,"data_status":"actual","official_data":true,"is_prediction":false,"source":"행정안전부 침수흔적도 · 재난안전데이터공유플랫폼 DSSP-IF-00117","collected_at":"2026-08-19T16:46:51+09:00","source_crs":"EPSG:3857","display_badges":["행안부 침수흔적도","과거 기록"]}}]}