{"type":"FeatureCollection","features":[{"type":"Feature","id":"FLD:48720:1242:1828","geometry":{"type":"MultiPolygon","coordinates":[[[[128.326908,35.466683],[128.326825,35.466681],[128.326797,35.466671],[128.326666,35.466651],[128.326574,35.46663],[128.326463,35.466909],[128.326449,35.466945],[128.326447,35.46695],[128.326428,35.466968],[128.326373,35.46695],[128.326313,35.466952],[128.326268,35.466981],[128.326247,35.467032],[128.326195,35.467042],[128.326151,35.467035],[128.326043,35.466998],[128.326017,35.467022],[128.325969,35.467187],[128.325902,35.467367],[128.325885,35.467412],[128.325862,35.4675],[128.325854,35.467531],[128.325848,35.467542],[128.325798,35.467645],[128.325763,35.467757],[128.325745,35.467816],[128.325731,35.467859],[128.325724,35.467881],[128.325654,35.468054],[128.32554,35.468029],[128.325506,35.468021],[128.325472,35.46801],[128.325385,35.467984],[128.325323,35.46797],[128.325193,35.46793],[128.325186,35.467929],[128.324955,35.467864],[128.325132,35.467441],[128.325211,35.467249],[128.325232,35.467196],[128.32526,35.46713],[128.325283,35.467073],[128.325313,35.466988],[128.325302,35.466987],[128.325333,35.466928],[128.325338,35.466919],[128.325348,35.466894],[128.325426,35.466687],[128.325448,35.46663],[128.325512,35.466506],[128.325515,35.466497],[128.32554,35.46643],[128.325534,35.46638],[128.325601,35.466356],[128.325565,35.46624],[128.3256,35.466216],[128.325626,35.466177],[128.325652,35.466151],[128.325752,35.466048],[128.32581,35.465988],[128.325518,35.465844],[128.325292,35.465732],[128.325136,35.465655],[128.325034,35.465605],[128.32503,35.465596],[128.325012,35.465545],[128.32501,35.46551],[128.325099,35.465407],[128.325111,35.465394],[128.325131,35.465371],[128.325207,35.465284],[128.325233,35.465255],[128.325314,35.4652],[128.325425,35.465129],[128.325439,35.465116],[128.325469,35.465149],[128.325479,35.465159],[128.325511,35.465194],[128.325515,35.465233],[128.325499,35.465249],[128.325512,35.465286],[128.325521,35.465311],[128.325579,35.465362],[128.325603,35.465412],[128.325614,35.465439],[128.325639,35.465509],[128.325652,35.465546],[128.32572,35.465598],[128.325806,35.465655],[128.325866,35.465723],[128.325921,35.465753],[128.326196,35.465929],[128.326227,35.465956],[128.326272,35.465993],[128.326318,35.46602],[128.326417,35.466085],[128.326542,35.466165],[128.326605,35.4662],[128.326908,35.466683]]]]},"properties":{"id":"FLD:48720:1242:1828","layer":"FLOOD_TRACE","admin_code":"48720","sido_code":"48","flood_year":"2012","occurred_at":"2012-09-14","ended_at":"2012-09-17","begin_time":"0600","end_time":"2300","disaster_name":"제16호태풍산바","cause_detail":"집중호우에 의한 하천범람","flood_grade":1,"flood_depth_m":0.357,"flood_area_m2":22487.71,"source_sn":1242,"data_status":"actual","official_data":true,"is_prediction":false,"source":"행정안전부 침수흔적도 · 재난안전데이터공유플랫폼 DSSP-IF-00117","collected_at":"2026-08-19T16:46:51+09:00","source_crs":"EPSG:3857","display_badges":["행안부 침수흔적도","과거 기록"]}},{"type":"Feature","id":"FLD:48720:133:35517","geometry":{"type":"MultiPolygon","coordinates":[[[[128.288844,35.333363],[128.28888,35.333359],[128.288899,35.333314],[128.289016,35.333147],[128.289083,35.333081],[128.289266,35.332928],[128.289369,35.332809],[128.289379,35.332798],[128.289463,35.332729],[128.289605,35.332647],[128.28963,35.33262],[128.289668,35.332654],[128.290178,35.333125],[128.290149,35.333158],[128.289984,35.333346],[128.289918,35.333399],[128.28979,35.333504],[128.289595,35.333662],[128.289538,35.33371],[128.289401,35.333821],[128.288885,35.333393],[128.288844,35.333363]]]]},"properties":{"id":"FLD:48720:133:35517","layer":"FLOOD_TRACE","admin_code":"48720","sido_code":"48","flood_year":"2007","occurred_at":"2007-09-16","ended_at":"2007-09-17","begin_time":"0000","end_time":"2200","disaster_name":"태풍나리집중호우","cause_detail":"농경지침수","flood_grade":2,"flood_depth_m":0.8,"flood_area_m2":41185,"source_sn":133,"data_status":"actual","official_data":true,"is_prediction":false,"source":"행정안전부 침수흔적도 · 재난안전데이터공유플랫폼 DSSP-IF-00117","collected_at":"2026-08-19T16:46:51+09:00","source_crs":"EPSG:3857","display_badges":["행안부 침수흔적도","과거 기록"]}},{"type":"Feature","id":"FLD:48720:134:35533","geometry":{"type":"MultiPolygon","coordinates":[[[[128.290464,35.332914],[128.290277,35.332763],[128.290041,35.332434],[128.289987,35.332359],[128.290012,35.332263],[128.290062,35.332174],[128.290205,35.332125],[128.290277,35.332089],[128.290487,35.331959],[128.290642,35.331827],[128.290783,35.331724],[128.290871,35.331661],[128.290964,35.331619],[128.291158,35.331513],[128.291295,35.331472],[128.291335,35.331426],[128.291433,35.33138],[128.291517,35.331317],[128.291525,35.331276],[128.291548,35.331247],[128.291592,35.331212],[128.291619,35.331261],[128.291783,35.33156],[128.292106,35.331984],[128.292037,35.332012],[128.291928,35.332058],[128.291792,35.332115],[128.291635,35.33218],[128.291491,35.33224],[128.291331,35.332307],[128.291167,35.332376],[128.290974,35.332534],[128.290779,35.332694],[128.290641,35.332807],[128.29052,35.332906],[128.290464,35.332914]]]]},"properties":{"id":"FLD:48720:134:35533","layer":"FLOOD_TRACE","admin_code":"48720","sido_code":"48","flood_year":"2007","occurred_at":"2007-09-16","ended_at":"2007-09-17","begin_time":"0000","end_time":"2200","disaster_name":"태풍나리집중호우","cause_detail":"농경지침수","flood_grade":2,"flood_depth_m":1.6,"flood_area_m2":41185,"source_sn":134,"data_status":"actual","official_data":true,"is_prediction":false,"source":"행정안전부 침수흔적도 · 재난안전데이터공유플랫폼 DSSP-IF-00117","collected_at":"2026-08-19T16:46:51+09:00","source_crs":"EPSG:3857","display_badges":["행안부 침수흔적도","과거 기록"]}},{"type":"Feature","id":"FLD:48720:135:35534","geometry":{"type":"MultiPolygon","coordinates":[[[[128.289952,35.334276],[128.289925,35.334254],[128.289456,35.333867],[128.289401,35.333821],[128.289538,35.33371],[128.289595,35.333662],[128.28979,35.333504],[128.289918,35.333399],[128.289984,35.333346],[128.290149,35.333158],[128.290233,35.333228],[128.290046,35.333383],[128.289996,35.333424],[128.290496,35.333835],[128.290521,35.333856],[128.290333,35.333974],[128.289952,35.334276]]]]},"properties":{"id":"FLD:48720:135:35534","layer":"FLOOD_TRACE","admin_code":"48720","sido_code":"48","flood_year":"2007","occurred_at":"2007-09-16","ended_at":"2007-09-17","begin_time":"0000","end_time":"2200","disaster_name":"태풍나리집중호우","cause_detail":"농경지침수","flood_grade":1,"flood_depth_m":0.4,"flood_area_m2":41185,"source_sn":135,"data_status":"actual","official_data":true,"is_prediction":false,"source":"행정안전부 침수흔적도 · 재난안전데이터공유플랫폼 DSSP-IF-00117","collected_at":"2026-08-19T16:46:51+09:00","source_crs":"EPSG:3857","display_badges":["행안부 침수흔적도","과거 기록"]}},{"type":"Feature","id":"FLD:48720:136:35535","geometry":{"type":"MultiPolygon","coordinates":[[[[128.292106,35.331984],[128.292124,35.332008],[128.292024,35.33205],[128.292038,35.332073],[128.292426,35.332693],[128.292441,35.332718],[128.292186,35.332763],[128.291669,35.332903],[128.291518,35.332986],[128.291317,35.333132],[128.291145,35.333315],[128.291091,35.333417],[128.291071,35.333401],[128.290541,35.332976],[128.290513,35.332954],[128.290488,35.332933],[128.290464,35.332914],[128.29052,35.332906],[128.290641,35.332807],[128.290779,35.332694],[128.290974,35.332534],[128.291167,35.332376],[128.291331,35.332307],[128.291491,35.33224],[128.291635,35.33218],[128.291792,35.332115],[128.291928,35.332058],[128.292037,35.332012],[128.292106,35.331984]]]]},"properties":{"id":"FLD:48720:136:35535","layer":"FLOOD_TRACE","admin_code":"48720","sido_code":"48","flood_year":"2007","occurred_at":"2007-09-16","ended_at":"2007-09-17","begin_time":"0000","end_time":"2200","disaster_name":"태풍나리집중호우","cause_detail":"농경지침수","flood_grade":3,"flood_depth_m":1.4,"flood_area_m2":41185,"source_sn":136,"data_status":"actual","official_data":true,"is_prediction":false,"source":"행정안전부 침수흔적도 · 재난안전데이터공유플랫폼 DSSP-IF-00117","collected_at":"2026-08-19T16:46:51+09:00","source_crs":"EPSG:3857","display_badges":["행안부 침수흔적도","과거 기록"]}},{"type":"Feature","id":"FLD:48720:139:35536","geometry":{"type":"MultiPolygon","coordinates":[[[[128.325323,35.368512],[128.32535,35.368446],[128.32576,35.367484],[128.325773,35.367455],[128.326059,35.36747],[128.326314,35.367516],[128.326321,35.367519],[128.326312,35.36754],[128.326176,35.367857],[128.325926,35.36845],[128.325865,35.368593],[128.325841,35.36866],[128.325701,35.368992],[128.325604,35.369222],[128.325542,35.369369],[128.325516,35.369431],[128.325401,35.369394],[128.325289,35.369355],[128.325271,35.369342],[128.325001,35.369259],[128.325016,35.369224],[128.325082,35.369072],[128.325323,35.368512]]]]},"properties":{"id":"FLD:48720:139:35536","layer":"FLOOD_TRACE","admin_code":"48720","sido_code":"48","flood_year":"2007","occurred_at":"2007-09-16","ended_at":"2007-09-17","begin_time":"0000","end_time":"2200","disaster_name":"태풍나리","cause_detail":"농경지침수","flood_grade":2,"flood_depth_m":0.8,"flood_area_m2":43557,"source_sn":139,"data_status":"actual","official_data":true,"is_prediction":false,"source":"행정안전부 침수흔적도 · 재난안전데이터공유플랫폼 DSSP-IF-00117","collected_at":"2026-08-19T16:46:51+09:00","source_crs":"EPSG:3857","display_badges":["행안부 침수흔적도","과거 기록"]}},{"type":"Feature","id":"FLD:48720:138:36406","geometry":{"type":"MultiPolygon","coordinates":[[[[128.324243,35.368984],[128.32426,35.368946],[128.324538,35.368288],[128.324573,35.368225],[128.324778,35.367739],[128.324868,35.367526],[128.324936,35.367363],[128.324947,35.367339],[128.32547,35.36744],[128.325773,35.367455],[128.32535,35.368446],[128.325323,35.368512],[128.325082,35.369072],[128.325016,35.369224],[128.325001,35.369259],[128.324551,35.36912],[128.324243,35.368984]]]]},"properties":{"id":"FLD:48720:138:36406","layer":"FLOOD_TRACE","admin_code":"48720","sido_code":"48","flood_year":"2007","occurred_at":"2007-09-16","ended_at":"2007-09-17","begin_time":"0000","end_time":"2200","disaster_name":"태풍나리","cause_detail":"농경지침수","flood_grade":1,"flood_depth_m":0.4,"flood_area_m2":43557,"source_sn":138,"data_status":"actual","official_data":true,"is_prediction":false,"source":"행정안전부 침수흔적도 · 재난안전데이터공유플랫폼 DSSP-IF-00117","collected_at":"2026-08-19T16:46:51+09:00","source_crs":"EPSG:3857","display_badges":["행안부 침수흔적도","과거 기록"]}},{"type":"Feature","id":"FLD:48720:137:36407","geometry":{"type":"MultiPolygon","coordinates":[[[[128.325542,35.369369],[128.325604,35.369222],[128.325701,35.368992],[128.325841,35.36866],[128.325865,35.368593],[128.325926,35.36845],[128.326176,35.367857],[128.326312,35.36754],[128.326321,35.367519],[128.326387,35.367548],[128.326565,35.36771],[128.326602,35.367793],[128.326641,35.367871],[128.32683,35.368449],[128.326671,35.368823],[128.326643,35.368847],[128.326286,35.369707],[128.326552,35.369785],[128.326585,35.369795],[128.326638,35.36981],[128.326438,35.370219],[128.326337,35.37032],[128.326327,35.370303],[128.326314,35.37025],[128.326308,35.37023],[128.326128,35.369936],[128.326074,35.369849],[128.325963,35.36975],[128.325927,35.369693],[128.325881,35.369634],[128.325823,35.369574],[128.325783,35.369545],[128.325735,35.369535],[128.325516,35.369431],[128.325542,35.369369]]]]},"properties":{"id":"FLD:48720:137:36407","layer":"FLOOD_TRACE","admin_code":"48720","sido_code":"48","flood_year":"2007","occurred_at":"2007-09-16","ended_at":"2007-09-17","begin_time":"0000","end_time":"2200","disaster_name":"태풍나리","cause_detail":"농경지침수","flood_grade":3,"flood_depth_m":1.2,"flood_area_m2":43557,"source_sn":137,"data_status":"actual","official_data":true,"is_prediction":false,"source":"행정안전부 침수흔적도 · 재난안전데이터공유플랫폼 DSSP-IF-00117","collected_at":"2026-08-19T16:46:51+09:00","source_crs":"EPSG:3857","display_badges":["행안부 침수흔적도","과거 기록"]}},{"type":"Feature","id":"FLD:48720:141:36408","geometry":{"type":"MultiPolygon","coordinates":[[[[128.409509,35.478377],[128.410649,35.478923],[128.410571,35.47898],[128.410555,35.478959],[128.410479,35.479082],[128.410375,35.479255],[128.410278,35.479512],[128.410178,35.479724],[128.410081,35.479863],[128.41002,35.479959],[128.409876,35.480184],[128.409793,35.48033],[128.409699,35.480578],[128.409667,35.480679],[128.409667,35.480695],[128.409644,35.480835],[128.409636,35.480884],[128.409527,35.480872],[128.408936,35.480807],[128.408977,35.480579],[128.408992,35.480496],[128.409101,35.479884],[128.409047,35.479856],[128.409213,35.479626],[128.408758,35.479414],[128.408772,35.479393],[128.408934,35.479177],[128.409017,35.478998],[128.409075,35.478921],[128.409256,35.478684],[128.409509,35.478377]]]]},"properties":{"id":"FLD:48720:141:36408","layer":"FLOOD_TRACE","admin_code":"48720","sido_code":"48","flood_year":"2007","occurred_at":"2007-09-16","ended_at":"2007-09-17","begin_time":"0000","end_time":"2200","disaster_name":"태풍나리","cause_detail":"농경지침수","flood_grade":3,"flood_depth_m":1.2,"flood_area_m2":58087,"source_sn":141,"data_status":"actual","official_data":true,"is_prediction":false,"source":"행정안전부 침수흔적도 · 재난안전데이터공유플랫폼 DSSP-IF-00117","collected_at":"2026-08-19T16:46:51+09:00","source_crs":"EPSG:3857","display_badges":["행안부 침수흔적도","과거 기록"]}},{"type":"Feature","id":"FLD:48720:140:36409","geometry":{"type":"MultiPolygon","coordinates":[[[[128.408799,35.478616],[128.408835,35.478598],[128.409326,35.478028],[128.40945,35.477873],[128.409481,35.477835],[128.409489,35.477825],[128.409764,35.477516],[128.410025,35.477221],[128.410107,35.477393],[128.410121,35.477454],[128.410057,35.477608],[128.410006,35.477659],[128.409941,35.477724],[128.409706,35.477949],[128.409697,35.477957],[128.409496,35.478138],[128.409351,35.478266],[128.4091,35.478565],[128.408999,35.478689],[128.408977,35.478717],[128.408865,35.47888],[128.408676,35.479176],[128.408633,35.479201],[128.408488,35.479169],[128.408372,35.479165],[128.408368,35.479077],[128.408378,35.47909],[128.408384,35.479098],[128.408799,35.478616]]]]},"properties":{"id":"FLD:48720:140:36409","layer":"FLOOD_TRACE","admin_code":"48720","sido_code":"48","flood_year":"2007","occurred_at":"2007-09-16","ended_at":"2007-09-17","begin_time":"0000","end_time":"2200","disaster_name":"태풍나리","cause_detail":"농경지침수","flood_grade":3,"flood_depth_m":1.4,"flood_area_m2":58087,"source_sn":140,"data_status":"actual","official_data":true,"is_prediction":false,"source":"행정안전부 침수흔적도 · 재난안전데이터공유플랫폼 DSSP-IF-00117","collected_at":"2026-08-19T16:46:51+09:00","source_crs":"EPSG:3857","display_badges":["행안부 침수흔적도","과거 기록"]}},{"type":"Feature","id":"FLD:48720:143:36410","geometry":{"type":"MultiPolygon","coordinates":[[[[128.410025,35.477221],[128.409764,35.477516],[128.409489,35.477825],[128.409481,35.477835],[128.40945,35.477873],[128.409326,35.478028],[128.408835,35.478598],[128.408799,35.478616],[128.408384,35.479098],[128.408378,35.47909],[128.408412,35.478963],[128.408392,35.47876],[128.408376,35.4786],[128.408407,35.478394],[128.408412,35.478365],[128.408543,35.478437],[128.409175,35.477715],[128.409211,35.477665],[128.409766,35.47705],[128.409689,35.477003],[128.409241,35.476087],[128.409354,35.476108],[128.409479,35.476152],[128.409503,35.476185],[128.409684,35.47639],[128.41,35.477068],[128.41003,35.477099],[128.409967,35.477099],[128.410025,35.477221]]]]},"properties":{"id":"FLD:48720:143:36410","layer":"FLOOD_TRACE","admin_code":"48720","sido_code":"48","flood_year":"2007","occurred_at":"2007-09-16","ended_at":"2007-09-17","begin_time":"0000","end_time":"2200","disaster_name":"태풍나리","cause_detail":"농경지침수","flood_grade":2,"flood_depth_m":0.8,"flood_area_m2":58087,"source_sn":143,"data_status":"actual","official_data":true,"is_prediction":false,"source":"행정안전부 침수흔적도 · 재난안전데이터공유플랫폼 DSSP-IF-00117","collected_at":"2026-08-19T16:46:51+09:00","source_crs":"EPSG:3857","display_badges":["행안부 침수흔적도","과거 기록"]}},{"type":"Feature","id":"FLD:48720:142:36411","geometry":{"type":"MultiPolygon","coordinates":[[[[128.411428,35.477858],[128.411365,35.477957],[128.411385,35.47796],[128.411354,35.478042],[128.411306,35.478112],[128.411299,35.478123],[128.411272,35.478183],[128.411224,35.478263],[128.411181,35.478335],[128.411113,35.478392],[128.411065,35.478474],[128.411019,35.478531],[128.411081,35.478574],[128.411122,35.478611],[128.41109,35.47864],[128.410918,35.478757],[128.410649,35.478923],[128.409509,35.478377],[128.409528,35.478353],[128.409662,35.47822],[128.409825,35.478049],[128.410172,35.477739],[128.410184,35.477725],[128.41023,35.477675],[128.41027,35.477601],[128.410314,35.477511],[128.410332,35.477473],[128.410321,35.477464],[128.410457,35.477217],[128.410633,35.477374],[128.410736,35.477466],[128.410888,35.477363],[128.411428,35.477858]]]]},"properties":{"id":"FLD:48720:142:36411","layer":"FLOOD_TRACE","admin_code":"48720","sido_code":"48","flood_year":"2007","occurred_at":"2007-09-16","ended_at":"2007-09-17","begin_time":"0000","end_time":"2200","disaster_name":"태풍나리","cause_detail":"농경지침수","flood_grade":3,"flood_depth_m":1.4,"flood_area_m2":58087,"source_sn":142,"data_status":"actual","official_data":true,"is_prediction":false,"source":"행정안전부 침수흔적도 · 재난안전데이터공유플랫폼 DSSP-IF-00117","collected_at":"2026-08-19T16:46:51+09:00","source_crs":"EPSG:3857","display_badges":["행안부 침수흔적도","과거 기록"]}}]}