{"type":"FeatureCollection","features":[{"type":"Feature","id":"FLD:44270:2817:13586","geometry":{"type":"MultiPolygon","coordinates":[[[[126.757271,36.801719],[126.756392,36.802351],[126.756383,36.802343],[126.756172,36.802148],[126.757052,36.801519],[126.757271,36.801719]]]]},"properties":{"id":"FLD:44270:2817:13586","layer":"FLOOD_TRACE","admin_code":"44270","sido_code":"44","flood_year":"2020","occurred_at":"2020-09-03","ended_at":"2020-09-03","begin_time":"0100","end_time":"0500","disaster_name":"태풍 마이삭","cause_detail":"태풍 마이삭에 의한 침수","flood_grade":2,"flood_depth_m":0.5,"flood_area_m2":3123.54359,"source_sn":2817,"data_status":"actual","official_data":true,"is_prediction":false,"source":"행정안전부 침수흔적도 · 재난안전데이터공유플랫폼 DSSP-IF-00117","collected_at":"2026-08-19T16:46:51+09:00","source_crs":"EPSG:3857","display_badges":["행안부 침수흔적도","과거 기록"]}},{"type":"Feature","id":"FLD:44270:2814:13587","geometry":{"type":"MultiPolygon","coordinates":[[[[126.75792,36.800902],[126.757105,36.801478],[126.756881,36.801273],[126.757698,36.800703],[126.75792,36.800902]]]]},"properties":{"id":"FLD:44270:2814:13587","layer":"FLOOD_TRACE","admin_code":"44270","sido_code":"44","flood_year":"2020","occurred_at":"2020-09-03","ended_at":"2020-09-03","begin_time":"0100","end_time":"0500","disaster_name":"태풍 마이삭","cause_detail":"태풍 마이삭에 의한 침수","flood_grade":2,"flood_depth_m":0.5,"flood_area_m2":2900.4075,"source_sn":2814,"data_status":"actual","official_data":true,"is_prediction":false,"source":"행정안전부 침수흔적도 · 재난안전데이터공유플랫폼 DSSP-IF-00117","collected_at":"2026-08-19T16:46:51+09:00","source_crs":"EPSG:3857","display_badges":["행안부 침수흔적도","과거 기록"]}},{"type":"Feature","id":"FLD:44270:2823:13588","geometry":{"type":"MultiPolygon","coordinates":[[[[126.749997,36.807928],[126.749933,36.809106],[126.749756,36.809034],[126.749637,36.809013],[126.749593,36.808986],[126.749589,36.808757],[126.749637,36.807903],[126.749997,36.807928]]]]},"properties":{"id":"FLD:44270:2823:13588","layer":"FLOOD_TRACE","admin_code":"44270","sido_code":"44","flood_year":"2020","occurred_at":"2020-09-03","ended_at":"2020-09-03","begin_time":"0100","end_time":"0500","disaster_name":"태풍 마이삭","cause_detail":"태풍 마이삭에 의한 침수","flood_grade":2,"flood_depth_m":0.5,"flood_area_m2":4025.22995,"source_sn":2823,"data_status":"actual","official_data":true,"is_prediction":false,"source":"행정안전부 침수흔적도 · 재난안전데이터공유플랫폼 DSSP-IF-00117","collected_at":"2026-08-19T16:46:51+09:00","source_crs":"EPSG:3857","display_badges":["행안부 침수흔적도","과거 기록"]}},{"type":"Feature","id":"FLD:44270:2819:13589","geometry":{"type":"MultiPolygon","coordinates":[[[[126.7507,36.806942],[126.750799,36.80695],[126.750744,36.807868],[126.750377,36.807852],[126.750421,36.80692],[126.7507,36.806942]]]]},"properties":{"id":"FLD:44270:2819:13589","layer":"FLOOD_TRACE","admin_code":"44270","sido_code":"44","flood_year":"2020","occurred_at":"2020-09-03","ended_at":"2020-09-03","begin_time":"0100","end_time":"0500","disaster_name":"태풍 마이삭","cause_detail":"태풍 마이삭에 의한 침수","flood_grade":2,"flood_depth_m":0.5,"flood_area_m2":3420.57442,"source_sn":2819,"data_status":"actual","official_data":true,"is_prediction":false,"source":"행정안전부 침수흔적도 · 재난안전데이터공유플랫폼 DSSP-IF-00117","collected_at":"2026-08-19T16:46:51+09:00","source_crs":"EPSG:3857","display_badges":["행안부 침수흔적도","과거 기록"]}},{"type":"Feature","id":"FLD:44270:2820:13590","geometry":{"type":"MultiPolygon","coordinates":[[[[126.758511,36.801439],[126.757701,36.802026],[126.757547,36.801885],[126.758359,36.8013],[126.758511,36.801439]]]]},"properties":{"id":"FLD:44270:2820:13590","layer":"FLOOD_TRACE","admin_code":"44270","sido_code":"44","flood_year":"2020","occurred_at":"2020-09-03","ended_at":"2020-09-03","begin_time":"0100","end_time":"0500","disaster_name":"태풍 마이삭","cause_detail":"태풍 마이삭에 의한 침수","flood_grade":2,"flood_depth_m":0.5,"flood_area_m2":2018.53238,"source_sn":2820,"data_status":"actual","official_data":true,"is_prediction":false,"source":"행정안전부 침수흔적도 · 재난안전데이터공유플랫폼 DSSP-IF-00117","collected_at":"2026-08-19T16:46:51+09:00","source_crs":"EPSG:3857","display_badges":["행안부 침수흔적도","과거 기록"]}},{"type":"Feature","id":"FLD:44270:2815:13591","geometry":{"type":"MultiPolygon","coordinates":[[[[126.757722,36.802135],[126.756921,36.802702],[126.756838,36.802655],[126.756671,36.802515],[126.756772,36.802443],[126.757492,36.801927],[126.757496,36.801924],[126.757722,36.802135]]]]},"properties":{"id":"FLD:44270:2815:13591","layer":"FLOOD_TRACE","admin_code":"44270","sido_code":"44","flood_year":"2020","occurred_at":"2020-09-03","ended_at":"2020-09-03","begin_time":"0100","end_time":"0500","disaster_name":"태풍 마이삭","cause_detail":"태풍 마이삭에 의한 침수","flood_grade":2,"flood_depth_m":0.5,"flood_area_m2":2988.97413,"source_sn":2815,"data_status":"actual","official_data":true,"is_prediction":false,"source":"행정안전부 침수흔적도 · 재난안전데이터공유플랫폼 DSSP-IF-00117","collected_at":"2026-08-19T16:46:51+09:00","source_crs":"EPSG:3857","display_badges":["행안부 침수흔적도","과거 기록"]}},{"type":"Feature","id":"FLD:44270:2810:13592","geometry":{"type":"MultiPolygon","coordinates":[[[[126.752037,36.807049],[126.752331,36.807073],[126.752331,36.807106],[126.752311,36.807503],[126.752298,36.807543],[126.752265,36.807574],[126.751761,36.807888],[126.751711,36.807907],[126.751667,36.807905],[126.751718,36.807023],[126.752037,36.807049]]]]},"properties":{"id":"FLD:44270:2810:13592","layer":"FLOOD_TRACE","admin_code":"44270","sido_code":"44","flood_year":"2020","occurred_at":"2020-09-03","ended_at":"2020-09-03","begin_time":"0100","end_time":"0500","disaster_name":"태풍 마이삭","cause_detail":"태풍 마이삭에 의한 침수","flood_grade":2,"flood_depth_m":0.5,"flood_area_m2":4270.63834,"source_sn":2810,"data_status":"actual","official_data":true,"is_prediction":false,"source":"행정안전부 침수흔적도 · 재난안전데이터공유플랫폼 DSSP-IF-00117","collected_at":"2026-08-19T16:46:51+09:00","source_crs":"EPSG:3857","display_badges":["행안부 침수흔적도","과거 기록"]}},{"type":"Feature","id":"FLD:44270:2812:13593","geometry":{"type":"MultiPolygon","coordinates":[[[[126.751592,36.807013],[126.751718,36.807023],[126.751667,36.807905],[126.751277,36.807889],[126.75133,36.806992],[126.751592,36.807013]]]]},"properties":{"id":"FLD:44270:2812:13593","layer":"FLOOD_TRACE","admin_code":"44270","sido_code":"44","flood_year":"2020","occurred_at":"2020-09-03","ended_at":"2020-09-03","begin_time":"0100","end_time":"0500","disaster_name":"태풍 마이삭","cause_detail":"태풍 마이삭에 의한 침수","flood_grade":2,"flood_depth_m":0.5,"flood_area_m2":3441.00237,"source_sn":2812,"data_status":"actual","official_data":true,"is_prediction":false,"source":"행정안전부 침수흔적도 · 재난안전데이터공유플랫폼 DSSP-IF-00117","collected_at":"2026-08-19T16:46:51+09:00","source_crs":"EPSG:3857","display_badges":["행안부 침수흔적도","과거 기록"]}},{"type":"Feature","id":"FLD:44270:2821:13594","geometry":{"type":"MultiPolygon","coordinates":[[[[126.757946,36.802338],[126.757189,36.802869],[126.757023,36.80276],[126.757018,36.802758],[126.757799,36.802204],[126.757946,36.802338]]]]},"properties":{"id":"FLD:44270:2821:13594","layer":"FLOOD_TRACE","admin_code":"44270","sido_code":"44","flood_year":"2020","occurred_at":"2020-09-03","ended_at":"2020-09-03","begin_time":"0100","end_time":"0500","disaster_name":"태풍 마이삭","cause_detail":"태풍 마이삭에 의한 침수","flood_grade":2,"flood_depth_m":0.5,"flood_area_m2":1786.59347,"source_sn":2821,"data_status":"actual","official_data":true,"is_prediction":false,"source":"행정안전부 침수흔적도 · 재난안전데이터공유플랫폼 DSSP-IF-00117","collected_at":"2026-08-19T16:46:51+09:00","source_crs":"EPSG:3857","display_badges":["행안부 침수흔적도","과거 기록"]}},{"type":"Feature","id":"FLD:44270:2813:13595","geometry":{"type":"MultiPolygon","coordinates":[[[[126.758136,36.801099],[126.757328,36.801681],[126.757105,36.801478],[126.75792,36.800902],[126.758136,36.801099]]]]},"properties":{"id":"FLD:44270:2813:13595","layer":"FLOOD_TRACE","admin_code":"44270","sido_code":"44","flood_year":"2020","occurred_at":"2020-09-03","ended_at":"2020-09-03","begin_time":"0100","end_time":"0500","disaster_name":"태풍 마이삭","cause_detail":"태풍 마이삭에 의한 침수","flood_grade":2,"flood_depth_m":0.5,"flood_area_m2":2863.9782,"source_sn":2813,"data_status":"actual","official_data":true,"is_prediction":false,"source":"행정안전부 침수흔적도 · 재난안전데이터공유플랫폼 DSSP-IF-00117","collected_at":"2026-08-19T16:46:51+09:00","source_crs":"EPSG:3857","display_badges":["행안부 침수흔적도","과거 기록"]}},{"type":"Feature","id":"FLD:44270:2824:13614","geometry":{"type":"MultiPolygon","coordinates":[[[[126.758644,36.801559],[126.758017,36.80232],[126.75776,36.802083],[126.758577,36.801499],[126.758644,36.801559]]]]},"properties":{"id":"FLD:44270:2824:13614","layer":"FLOOD_TRACE","admin_code":"44270","sido_code":"44","flood_year":"2020","occurred_at":"2020-09-03","ended_at":"2020-09-03","begin_time":"0100","end_time":"0500","disaster_name":"태풍 마이삭","cause_detail":"태풍 마이삭에 의한 침수","flood_grade":2,"flood_depth_m":0.5,"flood_area_m2":2133.84078,"source_sn":2824,"data_status":"actual","official_data":true,"is_prediction":false,"source":"행정안전부 침수흔적도 · 재난안전데이터공유플랫폼 DSSP-IF-00117","collected_at":"2026-08-19T16:46:51+09:00","source_crs":"EPSG:3857","display_badges":["행안부 침수흔적도","과거 기록"]}},{"type":"Feature","id":"FLD:44270:2811:13615","geometry":{"type":"MultiPolygon","coordinates":[[[[126.750979,36.806964],[126.750925,36.807875],[126.750744,36.807868],[126.750799,36.80695],[126.750979,36.806964]]]]},"properties":{"id":"FLD:44270:2811:13615","layer":"FLOOD_TRACE","admin_code":"44270","sido_code":"44","flood_year":"2020","occurred_at":"2020-09-03","ended_at":"2020-09-03","begin_time":"0100","end_time":"0500","disaster_name":"태풍 마이삭","cause_detail":"태풍 마이삭에 의한 침수","flood_grade":2,"flood_depth_m":0.5,"flood_area_m2":1644.13791,"source_sn":2811,"data_status":"actual","official_data":true,"is_prediction":false,"source":"행정안전부 침수흔적도 · 재난안전데이터공유플랫폼 DSSP-IF-00117","collected_at":"2026-08-19T16:46:51+09:00","source_crs":"EPSG:3857","display_badges":["행안부 침수흔적도","과거 기록"]}},{"type":"Feature","id":"FLD:44270:2818:13616","geometry":{"type":"MultiPolygon","coordinates":[[[[126.751147,36.806978],[126.75133,36.806992],[126.751277,36.807889],[126.750942,36.807876],[126.750998,36.806966],[126.751147,36.806978]]]]},"properties":{"id":"FLD:44270:2818:13616","layer":"FLOOD_TRACE","admin_code":"44270","sido_code":"44","flood_year":"2020","occurred_at":"2020-09-03","ended_at":"2020-09-03","begin_time":"0100","end_time":"0500","disaster_name":"태풍 마이삭","cause_detail":"태풍 마이삭에 의한 침수","flood_grade":2,"flood_depth_m":0.5,"flood_area_m2":2996.92192,"source_sn":2818,"data_status":"actual","official_data":true,"is_prediction":false,"source":"행정안전부 침수흔적도 · 재난안전데이터공유플랫폼 DSSP-IF-00117","collected_at":"2026-08-19T16:46:51+09:00","source_crs":"EPSG:3857","display_badges":["행안부 침수흔적도","과거 기록"]}},{"type":"Feature","id":"FLD:44270:2809:13617","geometry":{"type":"MultiPolygon","coordinates":[[[[126.750421,36.80692],[126.750377,36.807852],[126.75001,36.807839],[126.750076,36.806893],[126.750421,36.80692]]]]},"properties":{"id":"FLD:44270:2809:13617","layer":"FLOOD_TRACE","admin_code":"44270","sido_code":"44","flood_year":"2020","occurred_at":"2020-09-03","ended_at":"2020-09-03","begin_time":"0100","end_time":"0500","disaster_name":"태풍 마이삭","cause_detail":"태풍 마이삭에 의한 침수","flood_grade":2,"flood_depth_m":0.5,"flood_area_m2":3322.33166,"source_sn":2809,"data_status":"actual","official_data":true,"is_prediction":false,"source":"행정안전부 침수흔적도 · 재난안전데이터공유플랫폼 DSSP-IF-00117","collected_at":"2026-08-19T16:46:51+09:00","source_crs":"EPSG:3857","display_badges":["행안부 침수흔적도","과거 기록"]}},{"type":"Feature","id":"FLD:44270:2822:13618","geometry":{"type":"MultiPolygon","coordinates":[[[[126.750998,36.806966],[126.750942,36.807876],[126.750925,36.807875],[126.750979,36.806964],[126.750998,36.806966]]]]},"properties":{"id":"FLD:44270:2822:13618","layer":"FLOOD_TRACE","admin_code":"44270","sido_code":"44","flood_year":"2020","occurred_at":"2020-09-03","ended_at":"2020-09-03","begin_time":"0100","end_time":"0500","disaster_name":"태풍 마이삭","cause_detail":"태풍 마이삭에 의한 침수","flood_grade":2,"flood_depth_m":0.5,"flood_area_m2":155.12915,"source_sn":2822,"data_status":"actual","official_data":true,"is_prediction":false,"source":"행정안전부 침수흔적도 · 재난안전데이터공유플랫폼 DSSP-IF-00117","collected_at":"2026-08-19T16:46:51+09:00","source_crs":"EPSG:3857","display_badges":["행안부 침수흔적도","과거 기록"]}},{"type":"Feature","id":"FLD:44270:2816:13619","geometry":{"type":"MultiPolygon","coordinates":[[[[126.757799,36.802204],[126.757018,36.802758],[126.756921,36.802702],[126.757722,36.802135],[126.757799,36.802204]]]]},"properties":{"id":"FLD:44270:2816:13619","layer":"FLOOD_TRACE","admin_code":"44270","sido_code":"44","flood_year":"2020","occurred_at":"2020-09-03","ended_at":"2020-09-03","begin_time":"0100","end_time":"0500","disaster_name":"태풍 마이삭","cause_detail":"태풍 마이삭에 의한 침수","flood_grade":2,"flood_depth_m":0.5,"flood_area_m2":970.79024,"source_sn":2816,"data_status":"actual","official_data":true,"is_prediction":false,"source":"행정안전부 침수흔적도 · 재난안전데이터공유플랫폼 DSSP-IF-00117","collected_at":"2026-08-19T16:46:51+09:00","source_crs":"EPSG:3857","display_badges":["행안부 침수흔적도","과거 기록"]}},{"type":"Feature","id":"FLD:44270:2825:13620","geometry":{"type":"MultiPolygon","coordinates":[[[[126.757492,36.801927],[126.757494,36.801929],[126.756772,36.802443],[126.75662,36.802551],[126.756392,36.802351],[126.757271,36.801719],[126.757492,36.801927]]]]},"properties":{"id":"FLD:44270:2825:13620","layer":"FLOOD_TRACE","admin_code":"44270","sido_code":"44","flood_year":"2020","occurred_at":"2020-09-03","ended_at":"2020-09-03","begin_time":"0100","end_time":"0500","disaster_name":"태풍 마이삭","cause_detail":"태풍 마이삭에 의한 침수","flood_grade":2,"flood_depth_m":0.5,"flood_area_m2":3182.34657,"source_sn":2825,"data_status":"actual","official_data":true,"is_prediction":false,"source":"행정안전부 침수흔적도 · 재난안전데이터공유플랫폼 DSSP-IF-00117","collected_at":"2026-08-19T16:46:51+09:00","source_crs":"EPSG:3857","display_badges":["행안부 침수흔적도","과거 기록"]}},{"type":"Feature","id":"FLD:44270:2808:13621","geometry":{"type":"MultiPolygon","coordinates":[[[[126.758359,36.8013],[126.757547,36.801885],[126.757328,36.801681],[126.758136,36.801099],[126.758359,36.8013]]]]},"properties":{"id":"FLD:44270:2808:13621","layer":"FLOOD_TRACE","admin_code":"44270","sido_code":"44","flood_year":"2020","occurred_at":"2020-09-03","ended_at":"2020-09-03","begin_time":"0100","end_time":"0500","disaster_name":"태풍 마이삭","cause_detail":"태풍 마이삭에 의한 침수","flood_grade":2,"flood_depth_m":0.5,"flood_area_m2":2896.60555,"source_sn":2808,"data_status":"actual","official_data":true,"is_prediction":false,"source":"행정안전부 침수흔적도 · 재난안전데이터공유플랫폼 DSSP-IF-00117","collected_at":"2026-08-19T16:46:51+09:00","source_crs":"EPSG:3857","display_badges":["행안부 침수흔적도","과거 기록"]}},{"type":"Feature","id":"FLD:44270:2826:13622","geometry":{"type":"MultiPolygon","coordinates":[[[[126.758577,36.801499],[126.75776,36.802083],[126.757701,36.802026],[126.758511,36.801439],[126.758577,36.801499]]]]},"properties":{"id":"FLD:44270:2826:13622","layer":"FLOOD_TRACE","admin_code":"44270","sido_code":"44","flood_year":"2020","occurred_at":"2020-09-03","ended_at":"2020-09-03","begin_time":"0100","end_time":"0500","disaster_name":"태풍 마이삭","cause_detail":"태풍 마이삭에 의한 침수","flood_grade":2,"flood_depth_m":0.5,"flood_area_m2":834.67372,"source_sn":2826,"data_status":"actual","official_data":true,"is_prediction":false,"source":"행정안전부 침수흔적도 · 재난안전데이터공유플랫폼 DSSP-IF-00117","collected_at":"2026-08-19T16:46:51+09:00","source_crs":"EPSG:3857","display_badges":["행안부 침수흔적도","과거 기록"]}},{"type":"Feature","id":"FLD:44270:2827:13623","geometry":{"type":"MultiPolygon","coordinates":[[[[126.722625,36.85033],[126.722642,36.851303],[126.72244,36.851331],[126.722439,36.851216],[126.722429,36.850322],[126.722625,36.85033]]]]},"properties":{"id":"FLD:44270:2827:13623","layer":"FLOOD_TRACE","admin_code":"44270","sido_code":"44","flood_year":"2020","occurred_at":"2020-09-03","ended_at":"2020-09-03","begin_time":"0100","end_time":"0500","disaster_name":"태풍 마이삭","cause_detail":"태풍 마이삭에 의한 침수","flood_grade":2,"flood_depth_m":0.5,"flood_area_m2":1950.80762,"source_sn":2827,"data_status":"actual","official_data":true,"is_prediction":false,"source":"행정안전부 침수흔적도 · 재난안전데이터공유플랫폼 DSSP-IF-00117","collected_at":"2026-08-19T16:46:51+09:00","source_crs":"EPSG:3857","display_badges":["행안부 침수흔적도","과거 기록"]}},{"type":"Feature","id":"FLD:44270:2828:13624","geometry":{"type":"MultiPolygon","coordinates":[[[[126.722836,36.850332],[126.72284,36.851274],[126.722642,36.851303],[126.722625,36.85033],[126.722836,36.850332]]]]},"properties":{"id":"FLD:44270:2828:13624","layer":"FLOOD_TRACE","admin_code":"44270","sido_code":"44","flood_year":"2020","occurred_at":"2020-09-03","ended_at":"2020-09-03","begin_time":"0100","end_time":"0500","disaster_name":"태풍 마이삭","cause_detail":"태풍 마이삭에 의한 침수","flood_grade":2,"flood_depth_m":0.5,"flood_area_m2":1940.89148,"source_sn":2828,"data_status":"actual","official_data":true,"is_prediction":false,"source":"행정안전부 침수흔적도 · 재난안전데이터공유플랫폼 DSSP-IF-00117","collected_at":"2026-08-19T16:46:51+09:00","source_crs":"EPSG:3857","display_badges":["행안부 침수흔적도","과거 기록"]}},{"type":"Feature","id":"FLD:44270:2829:13625","geometry":{"type":"MultiPolygon","coordinates":[[[[126.670997,36.954024],[126.671011,36.954116],[126.671008,36.954151],[126.670943,36.954274],[126.670892,36.954339],[126.670704,36.954437],[126.670342,36.954563],[126.670227,36.954433],[126.670558,36.954347],[126.670617,36.954328],[126.670726,36.954292],[126.670784,36.954234],[126.670956,36.954031],[126.671003,36.953904],[126.670997,36.954024]]]]},"properties":{"id":"FLD:44270:2829:13625","layer":"FLOOD_TRACE","admin_code":"44270","sido_code":"44","flood_year":"2020","occurred_at":"2020-09-03","ended_at":"2020-09-03","begin_time":"0100","end_time":"0500","disaster_name":"태풍 마이삭","cause_detail":"태풍 마이삭에 의한 침수","flood_grade":2,"flood_depth_m":0.5,"flood_area_m2":1192.40734,"source_sn":2829,"data_status":"actual","official_data":true,"is_prediction":false,"source":"행정안전부 침수흔적도 · 재난안전데이터공유플랫폼 DSSP-IF-00117","collected_at":"2026-08-19T16:46:51+09:00","source_crs":"EPSG:3857","display_badges":["행안부 침수흔적도","과거 기록"]}},{"type":"Feature","id":"FLD:44270:6651:24605","geometry":{"type":"MultiPolygon","coordinates":[[[[126.527609,37.041867],[126.527587,37.041876],[126.527539,37.041757],[126.527548,37.04172],[126.527609,37.041867]]]]},"properties":{"id":"FLD:44270:6651:24605","layer":"FLOOD_TRACE","admin_code":"44270","sido_code":"44","flood_year":"2021","occurred_at":"2021-08-31","ended_at":"2021-09-01","begin_time":"1800","end_time":"0300","disaster_name":"집중호우","cause_detail":"집중호우에 의한 침수","flood_grade":2,"flood_depth_m":0.5,"flood_area_m2":32.2374,"source_sn":6651,"data_status":"actual","official_data":true,"is_prediction":false,"source":"행정안전부 침수흔적도 · 재난안전데이터공유플랫폼 DSSP-IF-00117","collected_at":"2026-08-19T16:46:51+09:00","source_crs":"EPSG:3857","display_badges":["행안부 침수흔적도","과거 기록"]}},{"type":"Feature","id":"FLD:44270:6638:24968","geometry":{"type":"MultiPolygon","coordinates":[[[[126.626209,36.892149],[126.626149,36.89223],[126.62612,36.892217],[126.626166,36.892129],[126.626209,36.892149]]]]},"properties":{"id":"FLD:44270:6638:24968","layer":"FLOOD_TRACE","admin_code":"44270","sido_code":"44","flood_year":"2021","occurred_at":"","ended_at":"","begin_time":null,"end_time":null,"disaster_name":null,"cause_detail":null,"flood_grade":2,"flood_depth_m":0.5,"flood_area_m2":38.35594,"source_sn":6638,"data_status":"actual","official_data":true,"is_prediction":false,"source":"행정안전부 침수흔적도 · 재난안전데이터공유플랫폼 DSSP-IF-00117","collected_at":"2026-08-19T16:46:51+09:00","source_crs":"EPSG:3857","display_badges":["행안부 침수흔적도","과거 기록"]}},{"type":"Feature","id":"FLD:44270:6639:25008","geometry":{"type":"MultiPolygon","coordinates":[[[[126.630725,36.88917],[126.630749,36.889217],[126.630692,36.889344],[126.630275,36.889239],[126.629941,36.889147],[126.629709,36.889095],[126.629724,36.889069],[126.629797,36.888984],[126.629808,36.88897],[126.629827,36.888975],[126.629939,36.889001],[126.630151,36.889053],[126.63026,36.889079],[126.630342,36.889099],[126.630431,36.889121],[126.630505,36.889129],[126.630523,36.889085],[126.630725,36.88917]]]]},"properties":{"id":"FLD:44270:6639:25008","layer":"FLOOD_TRACE","admin_code":"44270","sido_code":"44","flood_year":"2022","occurred_at":"2022-06-29","ended_at":"2022-06-30","begin_time":"1900","end_time":"0700","disaster_name":"2022.06 집중호우","cause_detail":"저지대 침수","flood_grade":2,"flood_depth_m":0.58,"flood_area_m2":1558.5,"source_sn":6639,"data_status":"actual","official_data":true,"is_prediction":false,"source":"행정안전부 침수흔적도 · 재난안전데이터공유플랫폼 DSSP-IF-00117","collected_at":"2026-08-19T16:46:51+09:00","source_crs":"EPSG:3857","display_badges":["행안부 침수흔적도","과거 기록"]}},{"type":"Feature","id":"FLD:44270:6640:25009","geometry":{"type":"MultiPolygon","coordinates":[[[[126.626279,36.892182],[126.626325,36.892203],[126.626277,36.892289],[126.626243,36.892273],[126.626225,36.892264],[126.626149,36.89223],[126.626209,36.892149],[126.626279,36.892182]]]]},"properties":{"id":"FLD:44270:6640:25009","layer":"FLOOD_TRACE","admin_code":"44270","sido_code":"44","flood_year":"2021","occurred_at":"","ended_at":"","begin_time":null,"end_time":null,"disaster_name":null,"cause_detail":null,"flood_grade":2,"flood_depth_m":0.5,"flood_area_m2":130.50017,"source_sn":6640,"data_status":"actual","official_data":true,"is_prediction":false,"source":"행정안전부 침수흔적도 · 재난안전데이터공유플랫폼 DSSP-IF-00117","collected_at":"2026-08-19T16:46:51+09:00","source_crs":"EPSG:3857","display_badges":["행안부 침수흔적도","과거 기록"]}},{"type":"Feature","id":"FLD:44270:6641:25010","geometry":{"type":"MultiPolygon","coordinates":[[[[126.629808,36.88897],[126.629797,36.888984],[126.629724,36.889069],[126.629563,36.889027],[126.629649,36.888932],[126.629808,36.88897]]]]},"properties":{"id":"FLD:44270:6641:25010","layer":"FLOOD_TRACE","admin_code":"44270","sido_code":"44","flood_year":"2022","occurred_at":"2022-06-29","ended_at":"2022-06-30","begin_time":"1900","end_time":"0700","disaster_name":"2022.06 집중호우","cause_detail":"저지대 침수","flood_grade":1,"flood_depth_m":0.334,"flood_area_m2":187.5,"source_sn":6641,"data_status":"actual","official_data":true,"is_prediction":false,"source":"행정안전부 침수흔적도 · 재난안전데이터공유플랫폼 DSSP-IF-00117","collected_at":"2026-08-19T16:46:51+09:00","source_crs":"EPSG:3857","display_badges":["행안부 침수흔적도","과거 기록"]}},{"type":"Feature","id":"FLD:44270:6642:25011","geometry":{"type":"MultiPolygon","coordinates":[[[[126.630747,36.888639],[126.630927,36.888682],[126.63091,36.888724],[126.630862,36.888842],[126.630814,36.888954],[126.630744,36.889123],[126.630725,36.88917],[126.630523,36.889085],[126.630541,36.889039],[126.630592,36.888913],[126.630683,36.888691],[126.630706,36.88863],[126.630747,36.888639]]]]},"properties":{"id":"FLD:44270:6642:25011","layer":"FLOOD_TRACE","admin_code":"44270","sido_code":"44","flood_year":"2022","occurred_at":"2022-06-29","ended_at":"2022-06-30","begin_time":"1900","end_time":"0700","disaster_name":"2022.06 집중호우","cause_detail":"저지대 침수","flood_grade":1,"flood_depth_m":0.496,"flood_area_m2":1116.5,"source_sn":6642,"data_status":"actual","official_data":true,"is_prediction":false,"source":"행정안전부 침수흔적도 · 재난안전데이터공유플랫폼 DSSP-IF-00117","collected_at":"2026-08-19T16:46:51+09:00","source_crs":"EPSG:3857","display_badges":["행안부 침수흔적도","과거 기록"]}},{"type":"Feature","id":"FLD:44270:6643:25012","geometry":{"type":"MultiPolygon","coordinates":[[[[126.63082,36.889235],[126.630926,36.889262],[126.631204,36.889335],[126.631195,36.889371],[126.63119,36.889396],[126.631187,36.88941],[126.631181,36.889438],[126.631175,36.889472],[126.630899,36.889399],[126.630792,36.889371],[126.630692,36.889344],[126.630749,36.889217],[126.63082,36.889235]]]]},"properties":{"id":"FLD:44270:6643:25012","layer":"FLOOD_TRACE","admin_code":"44270","sido_code":"44","flood_year":"2022","occurred_at":"2022-06-29","ended_at":"2022-06-30","begin_time":"1900","end_time":"0700","disaster_name":"2022.06 집중호우","cause_detail":"저지대 침수","flood_grade":1,"flood_depth_m":0.291,"flood_area_m2":663.9,"source_sn":6643,"data_status":"actual","official_data":true,"is_prediction":false,"source":"행정안전부 침수흔적도 · 재난안전데이터공유플랫폼 DSSP-IF-00117","collected_at":"2026-08-19T16:46:51+09:00","source_crs":"EPSG:3857","display_badges":["행안부 침수흔적도","과거 기록"]}},{"type":"Feature","id":"FLD:44270:6644:25013","geometry":{"type":"MultiPolygon","coordinates":[[[[126.630204,36.890441],[126.63005,36.890822],[126.630079,36.890881],[126.629764,36.890801],[126.629835,36.890777],[126.629993,36.890379],[126.63006,36.890216],[126.630198,36.889896],[126.62918,36.889616],[126.629198,36.889573],[126.629219,36.889523],[126.629244,36.889456],[126.629326,36.889478],[126.629469,36.889516],[126.629623,36.88956],[126.629741,36.889592],[126.629967,36.889653],[126.63006,36.889678],[126.630083,36.889684],[126.630149,36.889702],[126.630237,36.889725],[126.630263,36.889732],[126.630274,36.889706],[126.630327,36.889573],[126.6304,36.889394],[126.630427,36.889327],[126.630258,36.889278],[126.630275,36.889239],[126.630692,36.889344],[126.630647,36.889357],[126.630615,36.88944],[126.630552,36.889594],[126.630485,36.889778],[126.63048,36.889791],[126.63052,36.889804],[126.630601,36.889829],[126.630684,36.889854],[126.630739,36.889869],[126.630776,36.889879],[126.630973,36.889933],[126.630984,36.889936],[126.630996,36.889939],[126.631151,36.889981],[126.631139,36.890035],[126.630909,36.88997],[126.630605,36.889887],[126.630456,36.889845],[126.630425,36.889922],[126.630277,36.890274],[126.630319,36.890328],[126.630467,36.890368],[126.63047,36.890368],[126.63072,36.890437],[126.630893,36.890483],[126.630856,36.890573],[126.630389,36.890447],[126.630266,36.890415],[126.630204,36.890441]]]]},"properties":{"id":"FLD:44270:6644:25013","layer":"FLOOD_TRACE","admin_code":"44270","sido_code":"44","flood_year":"2022","occurred_at":"2022-06-29","ended_at":"2022-06-30","begin_time":"1900","end_time":"0700","disaster_name":"2022.06 집중호우","cause_detail":"저지대 침수","flood_grade":1,"flood_depth_m":0.334,"flood_area_m2":6522.9,"source_sn":6644,"data_status":"actual","official_data":true,"is_prediction":false,"source":"행정안전부 침수흔적도 · 재난안전데이터공유플랫폼 DSSP-IF-00117","collected_at":"2026-08-19T16:46:51+09:00","source_crs":"EPSG:3857","display_badges":["행안부 침수흔적도","과거 기록"]}},{"type":"Feature","id":"FLD:44270:6645:25014","geometry":{"type":"MultiPolygon","coordinates":[[[[126.753596,36.80935],[126.753432,36.809478],[126.753228,36.809351],[126.753347,36.809113],[126.753596,36.80935]]]]},"properties":{"id":"FLD:44270:6645:25014","layer":"FLOOD_TRACE","admin_code":"44270","sido_code":"44","flood_year":"2021","occurred_at":"2021-08-31","ended_at":"2021-09-01","begin_time":"1800","end_time":"0300","disaster_name":"집중호우","cause_detail":"집중호우에 의한 침수","flood_grade":2,"flood_depth_m":0.5,"flood_area_m2":666.97249,"source_sn":6645,"data_status":"actual","official_data":true,"is_prediction":false,"source":"행정안전부 침수흔적도 · 재난안전데이터공유플랫폼 DSSP-IF-00117","collected_at":"2026-08-19T16:46:51+09:00","source_crs":"EPSG:3857","display_badges":["행안부 침수흔적도","과거 기록"]}},{"type":"Feature","id":"FLD:44270:6646:25015","geometry":{"type":"MultiPolygon","coordinates":[[[[126.751634,36.809627],[126.751447,36.809822],[126.750959,36.809533],[126.751152,36.809332],[126.751634,36.809627]]]]},"properties":{"id":"FLD:44270:6646:25015","layer":"FLOOD_TRACE","admin_code":"44270","sido_code":"44","flood_year":"2021","occurred_at":"2021-08-31","ended_at":"2021-09-01","begin_time":"1800","end_time":"0300","disaster_name":"집중호우","cause_detail":"집중호우에 의한 침수","flood_grade":2,"flood_depth_m":0.5,"flood_area_m2":1500.40569,"source_sn":6646,"data_status":"actual","official_data":true,"is_prediction":false,"source":"행정안전부 침수흔적도 · 재난안전데이터공유플랫폼 DSSP-IF-00117","collected_at":"2026-08-19T16:46:51+09:00","source_crs":"EPSG:3857","display_badges":["행안부 침수흔적도","과거 기록"]}},{"type":"Feature","id":"FLD:44270:6647:25016","geometry":{"type":"MultiPolygon","coordinates":[[[[126.752324,36.808116],[126.752632,36.808415],[126.752369,36.808712],[126.75179,36.808357],[126.751879,36.808286],[126.75198,36.808238],[126.752308,36.808102],[126.752324,36.808116]]]]},"properties":{"id":"FLD:44270:6647:25016","layer":"FLOOD_TRACE","admin_code":"44270","sido_code":"44","flood_year":"2021","occurred_at":"2021-08-31","ended_at":"2021-09-01","begin_time":"1800","end_time":"0300","disaster_name":"집중호우","cause_detail":"집중호우에 의한 침수","flood_grade":2,"flood_depth_m":0.5,"flood_area_m2":2608.03899,"source_sn":6647,"data_status":"actual","official_data":true,"is_prediction":false,"source":"행정안전부 침수흔적도 · 재난안전데이터공유플랫폼 DSSP-IF-00117","collected_at":"2026-08-19T16:46:51+09:00","source_crs":"EPSG:3857","display_badges":["행안부 침수흔적도","과거 기록"]}},{"type":"Feature","id":"FLD:44270:6648:25017","geometry":{"type":"MultiPolygon","coordinates":[[[[126.752252,36.808983],[126.752047,36.809197],[126.751278,36.808729],[126.751417,36.808632],[126.751525,36.808534],[126.752252,36.808983]]]]},"properties":{"id":"FLD:44270:6648:25017","layer":"FLOOD_TRACE","admin_code":"44270","sido_code":"44","flood_year":"2021","occurred_at":"2021-08-31","ended_at":"2021-09-01","begin_time":"1800","end_time":"0300","disaster_name":"집중호우","cause_detail":"집중호우에 의한 침수","flood_grade":1,"flood_depth_m":0,"flood_area_m2":2523.77161,"source_sn":6648,"data_status":"actual","official_data":true,"is_prediction":false,"source":"행정안전부 침수흔적도 · 재난안전데이터공유플랫폼 DSSP-IF-00117","collected_at":"2026-08-19T16:46:51+09:00","source_crs":"EPSG:3857","display_badges":["행안부 침수흔적도","과거 기록"]}},{"type":"Feature","id":"FLD:44270:6649:25018","geometry":{"type":"MultiPolygon","coordinates":[[[[126.752369,36.808712],[126.752353,36.808731],[126.752423,36.808773],[126.752324,36.808884],[126.752252,36.808983],[126.751525,36.808534],[126.75159,36.808482],[126.751636,36.808461],[126.751662,36.808474],[126.751685,36.80845],[126.751689,36.808425],[126.75179,36.808357],[126.752369,36.808712]]]]},"properties":{"id":"FLD:44270:6649:25018","layer":"FLOOD_TRACE","admin_code":"44270","sido_code":"44","flood_year":"2021","occurred_at":"2021-08-31","ended_at":"2021-09-01","begin_time":"1800","end_time":"0300","disaster_name":"집중호우","cause_detail":"집중호우에 의한 침수","flood_grade":2,"flood_depth_m":0.5,"flood_area_m2":2290.395,"source_sn":6649,"data_status":"actual","official_data":true,"is_prediction":false,"source":"행정안전부 침수흔적도 · 재난안전데이터공유플랫폼 DSSP-IF-00117","collected_at":"2026-08-19T16:46:51+09:00","source_crs":"EPSG:3857","display_badges":["행안부 침수흔적도","과거 기록"]}},{"type":"Feature","id":"FLD:44270:6650:25019","geometry":{"type":"MultiPolygon","coordinates":[[[[126.528746,37.041526],[126.528711,37.041542],[126.528676,37.041574],[126.528638,37.04159],[126.528445,37.041652],[126.52828,37.041684],[126.528221,37.041702],[126.528109,37.04174],[126.528091,37.041705],[126.528246,37.041656],[126.528359,37.041631],[126.528309,37.041473],[126.528328,37.041469],[126.528355,37.041481],[126.528439,37.041482],[126.528613,37.041468],[126.5287,37.041459],[126.528722,37.041463],[126.528721,37.041467],[126.528746,37.041526]]]]},"properties":{"id":"FLD:44270:6650:25019","layer":"FLOOD_TRACE","admin_code":"44270","sido_code":"44","flood_year":"2021","occurred_at":"2021-08-31","ended_at":"2021-09-01","begin_time":"1800","end_time":"0300","disaster_name":"집중호우","cause_detail":"집중호우에 의한 침수","flood_grade":2,"flood_depth_m":0.5,"flood_area_m2":663.61802,"source_sn":6650,"data_status":"actual","official_data":true,"is_prediction":false,"source":"행정안전부 침수흔적도 · 재난안전데이터공유플랫폼 DSSP-IF-00117","collected_at":"2026-08-19T16:46:51+09:00","source_crs":"EPSG:3857","display_badges":["행안부 침수흔적도","과거 기록"]}},{"type":"Feature","id":"FLD:44270:6652:27690","geometry":{"type":"MultiPolygon","coordinates":[[[[126.721623,36.850923],[126.721623,36.850962],[126.721597,36.850965],[126.720755,36.850359],[126.720755,36.850324],[126.721627,36.850328],[126.721623,36.850923]]]]},"properties":{"id":"FLD:44270:6652:27690","layer":"FLOOD_TRACE","admin_code":"44270","sido_code":"44","flood_year":"2021","occurred_at":"2021-08-31","ended_at":"2021-09-01","begin_time":"1800","end_time":"0300","disaster_name":"집중호우","cause_detail":"집중호우에 의한 침수","flood_grade":2,"flood_depth_m":0.5,"flood_area_m2":2970.01904,"source_sn":6652,"data_status":"actual","official_data":true,"is_prediction":false,"source":"행정안전부 침수흔적도 · 재난안전데이터공유플랫폼 DSSP-IF-00117","collected_at":"2026-08-19T16:46:51+09:00","source_crs":"EPSG:3857","display_badges":["행안부 침수흔적도","과거 기록"]}},{"type":"Feature","id":"FLD:44270:6653:27691","geometry":{"type":"MultiPolygon","coordinates":[[[[126.72244,36.851331],[126.722307,36.851354],[126.72208,36.851394],[126.721971,36.851246],[126.722439,36.851216],[126.72244,36.851331]]]]},"properties":{"id":"FLD:44270:6653:27691","layer":"FLOOD_TRACE","admin_code":"44270","sido_code":"44","flood_year":"2021","occurred_at":"2021-08-31","ended_at":"2021-09-01","begin_time":"1800","end_time":"0300","disaster_name":"집중호우","cause_detail":"집중호우에 의한 침수","flood_grade":2,"flood_depth_m":0.5,"flood_area_m2":562.29531,"source_sn":6653,"data_status":"actual","official_data":true,"is_prediction":false,"source":"행정안전부 침수흔적도 · 재난안전데이터공유플랫폼 DSSP-IF-00117","collected_at":"2026-08-19T16:46:51+09:00","source_crs":"EPSG:3857","display_badges":["행안부 침수흔적도","과거 기록"]}},{"type":"Feature","id":"FLD:44270:6654:27692","geometry":{"type":"MultiPolygon","coordinates":[[[[126.721967,36.85124],[126.721807,36.851072],[126.72166,36.850923],[126.721623,36.850923],[126.721627,36.850328],[126.721968,36.850321],[126.721967,36.85124]]]]},"properties":{"id":"FLD:44270:6654:27692","layer":"FLOOD_TRACE","admin_code":"44270","sido_code":"44","flood_year":"2021","occurred_at":"2021-08-31","ended_at":"2021-09-01","begin_time":"1800","end_time":"0300","disaster_name":"집중호우","cause_detail":"집중호우에 의한 침수","flood_grade":2,"flood_depth_m":0.5,"flood_area_m2":2504.94698,"source_sn":6654,"data_status":"actual","official_data":true,"is_prediction":false,"source":"행정안전부 침수흔적도 · 재난안전데이터공유플랫폼 DSSP-IF-00117","collected_at":"2026-08-19T16:46:51+09:00","source_crs":"EPSG:3857","display_badges":["행안부 침수흔적도","과거 기록"]}}]}