{"type":"FeatureCollection","features":[{"type":"Feature","id":"FLD:26260:19:2592","geometry":{"type":"MultiPolygon","coordinates":[[[[129.072641,35.2103],[129.073143,35.210123],[129.073434,35.210734],[129.072242,35.210725],[129.072214,35.210664],[129.071842,35.21061],[129.071718,35.210687],[129.071642,35.210771],[129.071613,35.210774],[129.071464,35.210887],[129.071382,35.210928],[129.071117,35.210891],[129.070995,35.210841],[129.070603,35.210737],[129.070322,35.210844],[129.070119,35.210844],[129.070237,35.210807],[129.070438,35.210661],[129.070545,35.210622],[129.070627,35.210619],[129.070891,35.210584],[129.071751,35.210558],[129.072037,35.210546],[129.072087,35.210541],[129.07216,35.21052],[129.072318,35.210433],[129.072558,35.210332],[129.072641,35.2103]]]]},"properties":{"id":"FLD:26260:19:2592","layer":"FLOOD_TRACE","admin_code":"26260","sido_code":"26","flood_year":"2014","occurred_at":"2014-08-25","ended_at":"2014-08-25","begin_time":"1500","end_time":"1900","disaster_name":"집중호우로 인한 침수 피해","cause_detail":"저지대 및 내수 배제 불량","flood_grade":2,"flood_depth_m":0.85,"flood_area_m2":25807.647,"source_sn":19,"data_status":"actual","official_data":true,"is_prediction":false,"source":"행정안전부 침수흔적도 · 재난안전데이터공유플랫폼 DSSP-IF-00117","collected_at":"2026-08-19T16:46:51+09:00","source_crs":"EPSG:3857","display_badges":["행안부 침수흔적도","과거 기록"]}},{"type":"Feature","id":"FLD:26260:18:2593","geometry":{"type":"MultiPolygon","coordinates":[[[[129.084941,35.220645],[129.084724,35.220701],[129.084636,35.220538],[129.084302,35.220163],[129.084013,35.219912],[129.083352,35.219433],[129.083373,35.219357],[129.08461,35.218891],[129.084763,35.218824],[129.084819,35.218802],[129.085018,35.219068],[129.085136,35.219211],[129.085167,35.219257],[129.085449,35.219665],[129.085504,35.219767],[129.085569,35.219882],[129.08563,35.219979],[129.085691,35.220086],[129.085592,35.220115],[129.085637,35.22022],[129.08562,35.220225],[129.085664,35.220337],[129.085538,35.22037],[129.085568,35.220454],[129.084941,35.220645]]]]},"properties":{"id":"FLD:26260:18:2593","layer":"FLOOD_TRACE","admin_code":"26260","sido_code":"26","flood_year":"2014","occurred_at":"2014-08-25","ended_at":"2014-08-25","begin_time":"1500","end_time":"1900","disaster_name":"집중호우로 인한 침수 피해","cause_detail":"저지대 및 내수 배제 불량","flood_grade":2,"flood_depth_m":0.954,"flood_area_m2":298747.17,"source_sn":18,"data_status":"actual","official_data":true,"is_prediction":false,"source":"행정안전부 침수흔적도 · 재난안전데이터공유플랫폼 DSSP-IF-00117","collected_at":"2026-08-19T16:46:51+09:00","source_crs":"EPSG:3857","display_badges":["행안부 침수흔적도","과거 기록"]}},{"type":"Feature","id":"FLD:26260:15:2594","geometry":{"type":"MultiPolygon","coordinates":[[[[129.076345,35.204503],[129.076572,35.204867],[129.076597,35.205161],[129.076725,35.20537],[129.076784,35.20555],[129.076738,35.206374],[129.076849,35.206538],[129.076895,35.206604],[129.076368,35.206859],[129.075618,35.206945],[129.075051,35.207224],[129.075006,35.207156],[129.074934,35.207054],[129.075727,35.206538],[129.075723,35.206365],[129.075631,35.206197],[129.07574,35.20609],[129.075763,35.206039],[129.075595,35.205582],[129.074278,35.205831],[129.074221,35.204822],[129.07417,35.20479],[129.074141,35.204725],[129.074289,35.20468],[129.075094,35.204441],[129.07504,35.204316],[129.075451,35.204161],[129.075431,35.203879],[129.076365,35.203831],[129.076345,35.204503]]]]},"properties":{"id":"FLD:26260:15:2594","layer":"FLOOD_TRACE","admin_code":"26260","sido_code":"26","flood_year":"2014","occurred_at":"2014-08-25","ended_at":"2014-08-25","begin_time":"1500","end_time":"1900","disaster_name":"집중호우로 인한 침수 피해","cause_detail":"저지대 및 내수 배제 불량","flood_grade":1,"flood_depth_m":0.372,"flood_area_m2":93190.333,"source_sn":15,"data_status":"actual","official_data":true,"is_prediction":false,"source":"행정안전부 침수흔적도 · 재난안전데이터공유플랫폼 DSSP-IF-00117","collected_at":"2026-08-19T16:46:51+09:00","source_crs":"EPSG:3857","display_badges":["행안부 침수흔적도","과거 기록"]}},{"type":"Feature","id":"FLD:26260:20:2595","geometry":{"type":"MultiPolygon","coordinates":[[[[129.076849,35.206538],[129.076738,35.206374],[129.076784,35.20555],[129.076725,35.20537],[129.076597,35.205161],[129.076572,35.204867],[129.076345,35.204503],[129.076365,35.203831],[129.076374,35.203735],[129.076358,35.202928],[129.076372,35.202918],[129.076624,35.202877],[129.077716,35.202834],[129.077722,35.203765],[129.077731,35.203837],[129.077696,35.206376],[129.077696,35.206452],[129.077258,35.206506],[129.077121,35.206531],[129.076977,35.206564],[129.076895,35.206604],[129.076849,35.206538]]]]},"properties":{"id":"FLD:26260:20:2595","layer":"FLOOD_TRACE","admin_code":"26260","sido_code":"26","flood_year":"2014","occurred_at":"2014-08-25","ended_at":"2014-08-25","begin_time":"1500","end_time":"1900","disaster_name":"집중호우로 인한 침수 피해","cause_detail":"저지대 및 내수 배제 불량","flood_grade":2,"flood_depth_m":0.878,"flood_area_m2":93190.333,"source_sn":20,"data_status":"actual","official_data":true,"is_prediction":false,"source":"행정안전부 침수흔적도 · 재난안전데이터공유플랫폼 DSSP-IF-00117","collected_at":"2026-08-19T16:46:51+09:00","source_crs":"EPSG:3857","display_badges":["행안부 침수흔적도","과거 기록"]}},{"type":"Feature","id":"FLD:26260:4:3231","geometry":{"type":"MultiPolygon","coordinates":[[[[129.103841,35.192715],[129.10401,35.192805],[129.104059,35.192903],[129.103555,35.193078],[129.103521,35.193011],[129.10332,35.193047],[129.102228,35.193423],[129.102236,35.193509],[129.102209,35.193818],[129.101922,35.193918],[129.101523,35.193789],[129.101456,35.193663],[129.101452,35.19352],[129.100703,35.191908],[129.100685,35.191866],[129.100767,35.191846],[129.102624,35.19143],[129.103133,35.191376],[129.103457,35.192003],[129.10367,35.192393],[129.103841,35.192715]]]]},"properties":{"id":"FLD:26260:4:3231","layer":"FLOOD_TRACE","admin_code":"26260","sido_code":"26","flood_year":"2014","occurred_at":"2014-08-25","ended_at":"2014-08-25","begin_time":"1500","end_time":"1900","disaster_name":"집중호우로 인한 침수 피해","cause_detail":"저지대 및 내수 배제 불량","flood_grade":1,"flood_depth_m":0.17,"flood_area_m2":48849.338,"source_sn":4,"data_status":"actual","official_data":true,"is_prediction":false,"source":"행정안전부 침수흔적도 · 재난안전데이터공유플랫폼 DSSP-IF-00117","collected_at":"2026-08-19T16:46:51+09:00","source_crs":"EPSG:3857","display_badges":["행안부 침수흔적도","과거 기록"]}},{"type":"Feature","id":"FLD:26260:5:3232","geometry":{"type":"MultiPolygon","coordinates":[[[[129.100751,35.197037],[129.100776,35.197315],[129.100196,35.197469],[129.099988,35.197547],[129.098697,35.197893],[129.098944,35.198531],[129.099031,35.198586],[129.099193,35.199218],[129.099374,35.199515],[129.100551,35.201379],[129.09988,35.201525],[129.09925,35.20064],[129.098007,35.199147],[129.098082,35.199117],[129.098083,35.198452],[129.097967,35.198266],[129.097871,35.198115],[129.097858,35.198095],[129.097766,35.19781],[129.09776,35.197723],[129.097766,35.196297],[129.097799,35.196269],[129.099502,35.196198],[129.099519,35.196556],[129.099656,35.196623],[129.100751,35.197037]]]]},"properties":{"id":"FLD:26260:5:3232","layer":"FLOOD_TRACE","admin_code":"26260","sido_code":"26","flood_year":"2014","occurred_at":"2014-08-25","ended_at":"2014-08-25","begin_time":"1500","end_time":"1900","disaster_name":"집중호우로 인한 침수 피해","cause_detail":"저지대 및 내수 배제 불량","flood_grade":1,"flood_depth_m":0.387,"flood_area_m2":70546.835,"source_sn":5,"data_status":"actual","official_data":true,"is_prediction":false,"source":"행정안전부 침수흔적도 · 재난안전데이터공유플랫폼 DSSP-IF-00117","collected_at":"2026-08-19T16:46:51+09:00","source_crs":"EPSG:3857","display_badges":["행안부 침수흔적도","과거 기록"]}},{"type":"Feature","id":"FLD:26260:6:3233","geometry":{"type":"MultiPolygon","coordinates":[[[[129.085098,35.198137],[129.084995,35.198093],[129.084954,35.198073],[129.08485,35.197997],[129.085463,35.197964],[129.085604,35.197747],[129.085499,35.197701],[129.087513,35.194806],[129.090389,35.194255],[129.091602,35.194529],[129.091866,35.194507],[129.091898,35.19441],[129.092006,35.194172],[129.092644,35.19422],[129.093041,35.194578],[129.092717,35.194819],[129.091907,35.194607],[129.09069,35.194703],[129.0904,35.194626],[129.089281,35.194716],[129.08956,35.195314],[129.089699,35.195307],[129.090279,35.195283],[129.090533,35.195071],[129.09063,35.194773],[129.090904,35.195933],[129.090939,35.196087],[129.09045,35.196167],[129.090254,35.195357],[129.089918,35.195337],[129.08961,35.195496],[129.088502,35.195776],[129.088459,35.195757],[129.08835,35.195589],[129.08802,35.195618],[129.087665,35.196157],[129.088034,35.196343],[129.088029,35.196494],[129.088142,35.196544],[129.088192,35.196648],[129.088022,35.197313],[129.088092,35.197832],[129.087773,35.198037],[129.085917,35.198345],[129.085844,35.198401],[129.085098,35.198137]]]]},"properties":{"id":"FLD:26260:6:3233","layer":"FLOOD_TRACE","admin_code":"26260","sido_code":"26","flood_year":"2014","occurred_at":"2014-08-25","ended_at":"2014-08-25","begin_time":"1500","end_time":"1900","disaster_name":"집중호우로 인한 침수 피해","cause_detail":"저지대 및 내수 배제 불량","flood_grade":1,"flood_depth_m":0.498,"flood_area_m2":220836.37,"source_sn":6,"data_status":"actual","official_data":true,"is_prediction":false,"source":"행정안전부 침수흔적도 · 재난안전데이터공유플랫폼 DSSP-IF-00117","collected_at":"2026-08-19T16:46:51+09:00","source_crs":"EPSG:3857","display_badges":["행안부 침수흔적도","과거 기록"]}},{"type":"Feature","id":"FLD:26260:9:3234","geometry":{"type":"MultiPolygon","coordinates":[[[[129.084248,35.198072],[129.084076,35.198172],[129.084048,35.198192],[129.083267,35.198751],[129.083226,35.198862],[129.083198,35.1997],[129.083337,35.199803],[129.084319,35.199824],[129.084677,35.199781],[129.084802,35.199773],[129.085569,35.200452],[129.085483,35.200467],[129.085138,35.200786],[129.084518,35.200539],[129.084432,35.200521],[129.083964,35.200869],[129.08327,35.200795],[129.08325,35.201397],[129.08268,35.201398],[129.082767,35.200698],[129.083133,35.200635],[129.083167,35.200608],[129.083193,35.199826],[129.083161,35.199799],[129.081527,35.199761],[129.080409,35.199778],[129.080549,35.199638],[129.081407,35.198904],[129.081624,35.198704],[129.081918,35.198404],[129.082614,35.198421],[129.082955,35.198076],[129.083035,35.198037],[129.083451,35.198315],[129.083556,35.198238],[129.084103,35.198037],[129.084288,35.198027],[129.084248,35.198072]]]]},"properties":{"id":"FLD:26260:9:3234","layer":"FLOOD_TRACE","admin_code":"26260","sido_code":"26","flood_year":"2014","occurred_at":"2014-08-25","ended_at":"2014-08-25","begin_time":"1500","end_time":"1900","disaster_name":"집중호우로 인한 침수 피해","cause_detail":"저지대 및 내수 배제 불량","flood_grade":1,"flood_depth_m":0.245,"flood_area_m2":220836.37,"source_sn":9,"data_status":"actual","official_data":true,"is_prediction":false,"source":"행정안전부 침수흔적도 · 재난안전데이터공유플랫폼 DSSP-IF-00117","collected_at":"2026-08-19T16:46:51+09:00","source_crs":"EPSG:3857","display_badges":["행안부 침수흔적도","과거 기록"]}},{"type":"Feature","id":"FLD:26260:8:3235","geometry":{"type":"MultiPolygon","coordinates":[[[[129.086426,35.200717],[129.086032,35.199136],[129.087021,35.199075],[129.087129,35.198955],[129.087248,35.198976],[129.08697,35.199474],[129.086954,35.199664],[129.087169,35.199948],[129.087161,35.200155],[129.08702,35.200709],[129.086437,35.200752],[129.086426,35.200717]]]]},"properties":{"id":"FLD:26260:8:3235","layer":"FLOOD_TRACE","admin_code":"26260","sido_code":"26","flood_year":"2014","occurred_at":"2014-08-25","ended_at":"2014-08-25","begin_time":"1500","end_time":"1900","disaster_name":"집중호우로 인한 침수 피해","cause_detail":"저지대 및 내수 배제 불량","flood_grade":1,"flood_depth_m":0.235,"flood_area_m2":220836.37,"source_sn":8,"data_status":"actual","official_data":true,"is_prediction":false,"source":"행정안전부 침수흔적도 · 재난안전데이터공유플랫폼 DSSP-IF-00117","collected_at":"2026-08-19T16:46:51+09:00","source_crs":"EPSG:3857","display_badges":["행안부 침수흔적도","과거 기록"]}},{"type":"Feature","id":"FLD:26260:7:3236","geometry":{"type":"MultiPolygon","coordinates":[[[[129.090533,35.195071],[129.090279,35.195283],[129.089699,35.195307],[129.08956,35.195314],[129.089281,35.194716],[129.0904,35.194626],[129.09069,35.194703],[129.09063,35.194773],[129.090533,35.195071]]]]},"properties":{"id":"FLD:26260:7:3236","layer":"FLOOD_TRACE","admin_code":"26260","sido_code":"26","flood_year":"2014","occurred_at":"2014-08-25","ended_at":"2014-08-25","begin_time":"1500","end_time":"1900","disaster_name":"집중호우로 인한 침수 피해","cause_detail":"저지대 및 내수 배제 불량","flood_grade":2,"flood_depth_m":0.8,"flood_area_m2":220836.37,"source_sn":7,"data_status":"actual","official_data":true,"is_prediction":false,"source":"행정안전부 침수흔적도 · 재난안전데이터공유플랫폼 DSSP-IF-00117","collected_at":"2026-08-19T16:46:51+09:00","source_crs":"EPSG:3857","display_badges":["행안부 침수흔적도","과거 기록"]}},{"type":"Feature","id":"FLD:26260:10:3237","geometry":{"type":"MultiPolygon","coordinates":[[[[129.084954,35.198073],[129.084995,35.198093],[129.085098,35.198137],[129.085844,35.198401],[129.086032,35.199136],[129.086426,35.200717],[129.086437,35.200752],[129.086361,35.200758],[129.085761,35.200703],[129.085569,35.200452],[129.084802,35.199773],[129.084677,35.199781],[129.084319,35.199824],[129.083337,35.199803],[129.083198,35.1997],[129.083226,35.198862],[129.083267,35.198751],[129.084048,35.198192],[129.084076,35.198172],[129.084248,35.198072],[129.084288,35.198027],[129.08485,35.197997],[129.084954,35.198073]]]]},"properties":{"id":"FLD:26260:10:3237","layer":"FLOOD_TRACE","admin_code":"26260","sido_code":"26","flood_year":"2014","occurred_at":"2014-08-25","ended_at":"2014-08-25","begin_time":"1500","end_time":"1900","disaster_name":"집중호우로 인한 침수 피해","cause_detail":"저지대 및 내수 배제 불량","flood_grade":2,"flood_depth_m":0.69,"flood_area_m2":220836.37,"source_sn":10,"data_status":"actual","official_data":true,"is_prediction":false,"source":"행정안전부 침수흔적도 · 재난안전데이터공유플랫폼 DSSP-IF-00117","collected_at":"2026-08-19T16:46:51+09:00","source_crs":"EPSG:3857","display_badges":["행안부 침수흔적도","과거 기록"]}},{"type":"Feature","id":"FLD:26260:13:3238","geometry":{"type":"MultiPolygon","coordinates":[[[[129.082115,35.214788],[129.082158,35.214722],[129.082811,35.214032],[129.082737,35.213817],[129.082585,35.213495],[129.082501,35.21325],[129.082426,35.212927],[129.081937,35.211507],[129.082654,35.21139],[129.082936,35.21177],[129.083496,35.214694],[129.08352,35.214821],[129.083088,35.214947],[129.083117,35.21503],[129.083313,35.215499],[129.082717,35.215421],[129.081852,35.214846],[129.081852,35.214845],[129.082115,35.214788]]]]},"properties":{"id":"FLD:26260:13:3238","layer":"FLOOD_TRACE","admin_code":"26260","sido_code":"26","flood_year":"2014","occurred_at":"2014-08-25","ended_at":"2014-08-25","begin_time":"1500","end_time":"1900","disaster_name":"집중호우로 인한 침수 피해","cause_detail":"집중호우","flood_grade":1,"flood_depth_m":0.177,"flood_area_m2":83315.873,"source_sn":13,"data_status":"actual","official_data":true,"is_prediction":false,"source":"행정안전부 침수흔적도 · 재난안전데이터공유플랫폼 DSSP-IF-00117","collected_at":"2026-08-19T16:46:51+09:00","source_crs":"EPSG:3857","display_badges":["행안부 침수흔적도","과거 기록"]}},{"type":"Feature","id":"FLD:26260:12:3239","geometry":{"type":"MultiPolygon","coordinates":[[[[129.082426,35.212927],[129.082501,35.21325],[129.082585,35.213495],[129.082737,35.213817],[129.082811,35.214032],[129.082158,35.214722],[129.082115,35.214788],[129.081852,35.214845],[129.081288,35.214249],[129.081075,35.213913],[129.080863,35.213487],[129.080236,35.212291],[129.080416,35.212218],[129.080405,35.212185],[129.080418,35.211863],[129.08107,35.21181],[129.081056,35.211747],[129.081156,35.21169],[129.081395,35.211632],[129.081421,35.211626],[129.081469,35.211617],[129.081518,35.211605],[129.081762,35.211548],[129.081937,35.211507],[129.082426,35.212927]]]]},"properties":{"id":"FLD:26260:12:3239","layer":"FLOOD_TRACE","admin_code":"26260","sido_code":"26","flood_year":"2014","occurred_at":"2014-08-25","ended_at":"2014-08-25","begin_time":"1500","end_time":"1900","disaster_name":"집중호우로 인한 침수 피해","cause_detail":"집중호우","flood_grade":2,"flood_depth_m":0.794,"flood_area_m2":83315.873,"source_sn":12,"data_status":"actual","official_data":true,"is_prediction":false,"source":"행정안전부 침수흔적도 · 재난안전데이터공유플랫폼 DSSP-IF-00117","collected_at":"2026-08-19T16:46:51+09:00","source_crs":"EPSG:3857","display_badges":["행안부 침수흔적도","과거 기록"]}},{"type":"Feature","id":"FLD:26260:11:3240","geometry":{"type":"MultiPolygon","coordinates":[[[[129.079598,35.203405],[129.079405,35.203537],[129.079459,35.203603],[129.079452,35.203639],[129.079428,35.203672],[129.079203,35.203766],[129.078896,35.203891],[129.078898,35.203649],[129.078899,35.203637],[129.078916,35.203353],[129.079095,35.203359],[129.079095,35.203293],[129.079245,35.203279],[129.079248,35.203283],[129.07937,35.203244],[129.079414,35.203266],[129.079535,35.203229],[129.079598,35.203405]]]]},"properties":{"id":"FLD:26260:11:3240","layer":"FLOOD_TRACE","admin_code":"26260","sido_code":"26","flood_year":"2014","occurred_at":"2014-08-25","ended_at":"2014-08-25","begin_time":"1500","end_time":"1900","disaster_name":"집중호우로 인한 침수 피해","cause_detail":"저지대 및 내수 배제 불량","flood_grade":2,"flood_depth_m":0.751,"flood_area_m2":2879.903,"source_sn":11,"data_status":"actual","official_data":true,"is_prediction":false,"source":"행정안전부 침수흔적도 · 재난안전데이터공유플랫폼 DSSP-IF-00117","collected_at":"2026-08-19T16:46:51+09:00","source_crs":"EPSG:3857","display_badges":["행안부 침수흔적도","과거 기록"]}},{"type":"Feature","id":"FLD:26260:14:3277","geometry":{"type":"MultiPolygon","coordinates":[[[[129.080633,35.215375],[129.079901,35.215789],[129.079526,35.215718],[129.079477,35.215539],[129.07941,35.215001],[129.079646,35.214804],[129.08,35.214637],[129.080161,35.214569],[129.080688,35.215254],[129.080706,35.215273],[129.080633,35.215375]]]]},"properties":{"id":"FLD:26260:14:3277","layer":"FLOOD_TRACE","admin_code":"26260","sido_code":"26","flood_year":"2014","occurred_at":"2014-08-25","ended_at":"2014-08-25","begin_time":"1500","end_time":"1900","disaster_name":"집중호우로 인한 침수 피해","cause_detail":"저지대 및 내수 배제 불량","flood_grade":2,"flood_depth_m":0.879,"flood_area_m2":168674.253,"source_sn":14,"data_status":"actual","official_data":true,"is_prediction":false,"source":"행정안전부 침수흔적도 · 재난안전데이터공유플랫폼 DSSP-IF-00117","collected_at":"2026-08-19T16:46:51+09:00","source_crs":"EPSG:3857","display_badges":["행안부 침수흔적도","과거 기록"]}},{"type":"Feature","id":"FLD:26260:22:3296","geometry":{"type":"MultiPolygon","coordinates":[[[[129.084763,35.218824],[129.08461,35.218891],[129.083373,35.219357],[129.083352,35.219433],[129.084013,35.219912],[129.084302,35.220163],[129.084636,35.220538],[129.084724,35.220701],[129.084941,35.220645],[129.085568,35.220454],[129.084905,35.222136],[129.084172,35.222591],[129.083592,35.223004],[129.083338,35.223194],[129.083218,35.223282],[129.083035,35.223412],[129.082827,35.223576],[129.082815,35.223584],[129.082731,35.223654],[129.082632,35.223733],[129.082515,35.223604],[129.082478,35.223544],[129.082327,35.223455],[129.082112,35.223532],[129.08202,35.223566],[129.082007,35.223571],[129.081729,35.223184],[129.081662,35.22314],[129.081562,35.22319],[129.081177,35.223418],[129.080611,35.221636],[129.080608,35.221583],[129.080321,35.220703],[129.079079,35.218282],[129.079137,35.218261],[129.079151,35.218254],[129.079177,35.218244],[129.079222,35.218228],[129.079838,35.217864],[129.080086,35.21751],[129.080067,35.217496],[129.079646,35.217181],[129.079314,35.216852],[129.0793,35.216717],[129.079198,35.216517],[129.079464,35.2164],[129.080272,35.216074],[129.080513,35.21597],[129.080534,35.215836],[129.081086,35.215412],[129.081113,35.215416],[129.081148,35.215443],[129.081269,35.215527],[129.081353,35.215585],[129.081441,35.215644],[129.081548,35.215712],[129.081724,35.21582],[129.081886,35.215919],[129.081978,35.215978],[129.081804,35.216219],[129.081623,35.216426],[129.08156,35.216494],[129.081502,35.216526],[129.081945,35.216929],[129.081974,35.216931],[129.082233,35.217748],[129.082281,35.217899],[129.082443,35.218394],[129.08249,35.218527],[129.08264,35.218597],[129.083287,35.218375],[129.08421,35.218074],[129.084261,35.218056],[129.084819,35.218802],[129.084763,35.218824]]]]},"properties":{"id":"FLD:26260:22:3296","layer":"FLOOD_TRACE","admin_code":"26260","sido_code":"26","flood_year":"2014","occurred_at":"2014-08-25","ended_at":"2014-08-25","begin_time":"1500","end_time":"1900","disaster_name":"집중호우로 인한 침수 피해","cause_detail":"저지대 및 내수 배제 불량","flood_grade":1,"flood_depth_m":0.221,"flood_area_m2":298747.17,"source_sn":22,"data_status":"actual","official_data":true,"is_prediction":false,"source":"행정안전부 침수흔적도 · 재난안전데이터공유플랫폼 DSSP-IF-00117","collected_at":"2026-08-19T16:46:51+09:00","source_crs":"EPSG:3857","display_badges":["행안부 침수흔적도","과거 기록"]}},{"type":"Feature","id":"FLD:26260:21:3297","geometry":{"type":"MultiPolygon","coordinates":[[[[129.08088,35.215203],[129.080998,35.215323],[129.080166,35.215929],[129.079916,35.216082],[129.079247,35.21633],[129.079128,35.216384],[129.078953,35.216006],[129.078809,35.2157],[129.07867,35.215419],[129.078542,35.215325],[129.077659,35.215732],[129.077186,35.214944],[129.077013,35.214731],[129.076648,35.214131],[129.077067,35.213588],[129.077083,35.213479],[129.076726,35.212636],[129.076109,35.211169],[129.07564,35.211094],[129.075227,35.21009],[129.075672,35.209925],[129.07568,35.209947],[129.076117,35.210921],[129.076267,35.211051],[129.077877,35.210618],[129.078588,35.212042],[129.079986,35.213841],[129.080186,35.214309],[129.080296,35.214501],[129.080456,35.214723],[129.080733,35.215053],[129.08088,35.215203]],[[129.080706,35.215273],[129.080688,35.215254],[129.080161,35.214569],[129.08,35.214637],[129.079646,35.214804],[129.07941,35.215001],[129.079477,35.215539],[129.079526,35.215718],[129.079901,35.215789],[129.080633,35.215375],[129.080706,35.215273]]]]},"properties":{"id":"FLD:26260:21:3297","layer":"FLOOD_TRACE","admin_code":"26260","sido_code":"26","flood_year":"2014","occurred_at":"2014-08-25","ended_at":"2014-08-25","begin_time":"1500","end_time":"1900","disaster_name":"집중호우로 인한 침수 피해","cause_detail":"저지대 및 내수 배제 불량","flood_grade":1,"flood_depth_m":0.074,"flood_area_m2":168674.253,"source_sn":21,"data_status":"actual","official_data":true,"is_prediction":false,"source":"행정안전부 침수흔적도 · 재난안전데이터공유플랫폼 DSSP-IF-00117","collected_at":"2026-08-19T16:46:51+09:00","source_crs":"EPSG:3857","display_badges":["행안부 침수흔적도","과거 기록"]}},{"type":"Feature","id":"FLD:26260:16:3298","geometry":{"type":"MultiPolygon","coordinates":[[[[129.076267,35.211051],[129.076117,35.210921],[129.07568,35.209947],[129.075672,35.209925],[129.076748,35.209527],[129.077643,35.209248],[129.077791,35.210446],[129.077877,35.210618],[129.076267,35.211051]]]]},"properties":{"id":"FLD:26260:16:3298","layer":"FLOOD_TRACE","admin_code":"26260","sido_code":"26","flood_year":"2014","occurred_at":"2014-08-25","ended_at":"2014-08-25","begin_time":"1500","end_time":"1900","disaster_name":"집중호우로 인한 침수 피해","cause_detail":"저지대 및 내수 배제 불량","flood_grade":2,"flood_depth_m":0.924,"flood_area_m2":168674.253,"source_sn":16,"data_status":"actual","official_data":true,"is_prediction":false,"source":"행정안전부 침수흔적도 · 재난안전데이터공유플랫폼 DSSP-IF-00117","collected_at":"2026-08-19T16:46:51+09:00","source_crs":"EPSG:3857","display_badges":["행안부 침수흔적도","과거 기록"]}},{"type":"Feature","id":"FLD:26260:17:3340","geometry":{"type":"MultiPolygon","coordinates":[[[[129.072755,35.210048],[129.073048,35.209662],[129.073423,35.210229],[129.073625,35.210418],[129.073727,35.21066],[129.073711,35.211197],[129.073693,35.21127],[129.073488,35.211181],[129.073292,35.21114],[129.073077,35.210963],[129.072669,35.210952],[129.072577,35.211005],[129.072462,35.210951],[129.0724,35.210952],[129.072338,35.211047],[129.072157,35.210979],[129.072165,35.21084],[129.07209,35.210819],[129.072035,35.210782],[129.071676,35.210837],[129.071567,35.210921],[129.071549,35.210945],[129.071559,35.211037],[129.071474,35.211121],[129.071339,35.211057],[129.071267,35.211038],[129.07095,35.211029],[129.070687,35.210956],[129.070024,35.21102],[129.069689,35.211188],[129.069631,35.211023],[129.070222,35.210717],[129.070734,35.210467],[129.071812,35.210456],[129.071898,35.210328],[129.072516,35.210107],[129.072681,35.210146],[129.072755,35.210048]],[[129.072641,35.2103],[129.072558,35.210332],[129.072318,35.210433],[129.07216,35.21052],[129.072087,35.210541],[129.072037,35.210546],[129.071751,35.210558],[129.070891,35.210584],[129.070627,35.210619],[129.070545,35.210622],[129.070438,35.210661],[129.070237,35.210807],[129.070119,35.210844],[129.070322,35.210844],[129.070603,35.210737],[129.070995,35.210841],[129.071117,35.210891],[129.071382,35.210928],[129.071464,35.210887],[129.071613,35.210774],[129.071642,35.210771],[129.071718,35.210687],[129.071842,35.21061],[129.072214,35.210664],[129.072242,35.210725],[129.073434,35.210734],[129.073143,35.210123],[129.072641,35.2103]]]]},"properties":{"id":"FLD:26260:17:3340","layer":"FLOOD_TRACE","admin_code":"26260","sido_code":"26","flood_year":"2014","occurred_at":"2014-08-25","ended_at":"2014-08-25","begin_time":"1500","end_time":"1900","disaster_name":"집중호우로 인한 침수 피해","cause_detail":"저지대 및 내수 배제 불량","flood_grade":1,"flood_depth_m":0.378,"flood_area_m2":25807.647,"source_sn":17,"data_status":"actual","official_data":true,"is_prediction":false,"source":"행정안전부 침수흔적도 · 재난안전데이터공유플랫폼 DSSP-IF-00117","collected_at":"2026-08-19T16:46:51+09:00","source_crs":"EPSG:3857","display_badges":["행안부 침수흔적도","과거 기록"]}},{"type":"Feature","id":"FLD:26260:23:3341","geometry":{"type":"MultiPolygon","coordinates":[[[[129.077702,35.201611],[129.077203,35.201656],[129.07713,35.201614],[129.076879,35.201544],[129.076644,35.201481],[129.074968,35.201052],[129.074382,35.200904],[129.074299,35.200815],[129.073513,35.20033],[129.072914,35.199502],[129.072822,35.199484],[129.072544,35.199417],[129.072484,35.19933],[129.07246,35.199294],[129.072383,35.199217],[129.072485,35.198937],[129.072741,35.198198],[129.072844,35.197879],[129.073241,35.197626],[129.074223,35.198103],[129.077789,35.199397],[129.077822,35.199411],[129.077857,35.199436],[129.077882,35.199465],[129.077877,35.199476],[129.077957,35.199489],[129.077757,35.200009],[129.077702,35.201611]]]]},"properties":{"id":"FLD:26260:23:3341","layer":"FLOOD_TRACE","admin_code":"26260","sido_code":"26","flood_year":"2014","occurred_at":"2014-08-25","ended_at":"2014-08-25","begin_time":"1500","end_time":"1900","disaster_name":"집중호우로 인한 침수 피해","cause_detail":"저지대 및 내수 배제 불량","flood_grade":1,"flood_depth_m":0.465,"flood_area_m2":128702.09,"source_sn":23,"data_status":"actual","official_data":true,"is_prediction":false,"source":"행정안전부 침수흔적도 · 재난안전데이터공유플랫폼 DSSP-IF-00117","collected_at":"2026-08-19T16:46:51+09:00","source_crs":"EPSG:3857","display_badges":["행안부 침수흔적도","과거 기록"]}},{"type":"Feature","id":"FLD:26260:29:11765","geometry":{"type":"MultiPolygon","coordinates":[[[[129.099943,35.200976],[129.099733,35.201057],[129.099513,35.200709],[129.099271,35.200779],[129.098681,35.199881],[129.098081,35.198993],[129.097728,35.198538],[129.098593,35.198181],[129.099991,35.200593],[129.099705,35.20066],[129.099852,35.200896],[129.09989,35.20091],[129.099943,35.200976]]]]},"properties":{"id":"FLD:26260:29:11765","layer":"FLOOD_TRACE","admin_code":"26260","sido_code":"26","flood_year":"2020","occurred_at":"2020-07-23","ended_at":"2020-07-24","begin_time":"2100","end_time":"0000","disaster_name":"장마철 집중호우","cause_detail":"내수침수","flood_grade":2,"flood_depth_m":0.5,"flood_area_m2":22886.7,"source_sn":29,"data_status":"actual","official_data":true,"is_prediction":false,"source":"행정안전부 침수흔적도 · 재난안전데이터공유플랫폼 DSSP-IF-00117","collected_at":"2026-08-19T16:46:51+09:00","source_crs":"EPSG:3857","display_badges":["행안부 침수흔적도","과거 기록"]}},{"type":"Feature","id":"FLD:26260:30:11787","geometry":{"type":"MultiPolygon","coordinates":[[[[129.082063,35.205816],[129.08203,35.205811],[129.082064,35.205633],[129.082099,35.205477],[129.082036,35.205405],[129.081983,35.205404],[129.08183,35.205397],[129.081831,35.205393],[129.081703,35.205391],[129.081556,35.205388],[129.081537,35.205387],[129.081567,35.205227],[129.081652,35.20525],[129.081699,35.205289],[129.081809,35.205297],[129.081838,35.205279],[129.081886,35.205277],[129.081901,35.205296],[129.08203,35.205305],[129.082089,35.20531],[129.082165,35.205264],[129.082188,35.20521],[129.082212,35.205224],[129.082238,35.205147],[129.08248,35.204524],[129.082664,35.204577],[129.08262,35.204596],[129.082351,35.205259],[129.082357,35.205297],[129.082391,35.20532],[129.082737,35.205287],[129.082779,35.205227],[129.082793,35.205224],[129.08286,35.20538],[129.08278,35.205368],[129.082364,35.205399],[129.082313,35.205445],[129.082293,35.205577],[129.082266,35.205839],[129.082228,35.205837],[129.082063,35.205816]]]]},"properties":{"id":"FLD:26260:30:11787","layer":"FLOOD_TRACE","admin_code":"26260","sido_code":"26","flood_year":"2020","occurred_at":"2020-07-23","ended_at":"2020-07-24","begin_time":"0000","end_time":"0100","disaster_name":"장마철 집중호우","cause_detail":"내수침수","flood_grade":1,"flood_depth_m":0.3,"flood_area_m2":3592.1,"source_sn":30,"data_status":"actual","official_data":true,"is_prediction":false,"source":"행정안전부 침수흔적도 · 재난안전데이터공유플랫폼 DSSP-IF-00117","collected_at":"2026-08-19T16:46:51+09:00","source_crs":"EPSG:3857","display_badges":["행안부 침수흔적도","과거 기록"]}}]}