{"type":"FeatureCollection","features":[{"type":"Feature","id":"FLD:12210:122:11687","geometry":{"type":"MultiPolygon","coordinates":[[[[126.943595,35.149341],[126.943691,35.149383],[126.943576,35.149568],[126.943553,35.149601],[126.943458,35.149574],[126.943342,35.149518],[126.943297,35.149493],[126.943256,35.14933],[126.943449,35.149319],[126.943595,35.149341]]]]},"properties":{"id":"FLD:12210:122:11687","layer":"FLOOD_TRACE","admin_code":"12210","sido_code":"29","flood_year":"2020","occurred_at":"2020-08-06","ended_at":"2020-08-08","begin_time":"0900","end_time":"1200","disaster_name":"8.6~8.8 집중호우","cause_detail":"우수관 역류","flood_grade":2,"flood_depth_m":0.986,"flood_area_m2":5423.6,"source_sn":122,"data_status":"actual","official_data":true,"is_prediction":false,"source":"행정안전부 침수흔적도 · 재난안전데이터공유플랫폼 DSSP-IF-00117","collected_at":"2026-08-19T16:46:51+09:00","source_crs":"EPSG:3857","display_badges":["행안부 침수흔적도","과거 기록"]}},{"type":"Feature","id":"FLD:12210:121:11688","geometry":{"type":"MultiPolygon","coordinates":[[[[126.942339,35.149356],[126.94236,35.149304],[126.942824,35.149247],[126.94271,35.149324],[126.942589,35.149438],[126.942679,35.149509],[126.942842,35.149591],[126.942921,35.149631],[126.943006,35.14972],[126.942779,35.149597],[126.942578,35.149482],[126.942339,35.149356]]]]},"properties":{"id":"FLD:12210:121:11688","layer":"FLOOD_TRACE","admin_code":"12210","sido_code":"29","flood_year":"2020","occurred_at":"2020-08-06","ended_at":"2020-08-08","begin_time":"0900","end_time":"1200","disaster_name":"8.6~8.8 집중호우","cause_detail":"우수관 역류","flood_grade":2,"flood_depth_m":0.637,"flood_area_m2":5423.6,"source_sn":121,"data_status":"actual","official_data":true,"is_prediction":false,"source":"행정안전부 침수흔적도 · 재난안전데이터공유플랫폼 DSSP-IF-00117","collected_at":"2026-08-19T16:46:51+09:00","source_crs":"EPSG:3857","display_badges":["행안부 침수흔적도","과거 기록"]}},{"type":"Feature","id":"FLD:12210:120:11689","geometry":{"type":"MultiPolygon","coordinates":[[[[126.943006,35.14972],[126.942921,35.149631],[126.942842,35.149591],[126.942679,35.149509],[126.942589,35.149438],[126.94271,35.149324],[126.942824,35.149247],[126.942959,35.149243],[126.943625,35.149213],[126.943643,35.149294],[126.943849,35.149378],[126.943935,35.149384],[126.943934,35.149446],[126.943906,35.149458],[126.943867,35.149545],[126.943739,35.149661],[126.943648,35.149662],[126.943558,35.149646],[126.943472,35.149627],[126.943367,35.149679],[126.943186,35.1497],[126.943006,35.14972]],[[126.943595,35.149341],[126.943449,35.149319],[126.943256,35.14933],[126.943297,35.149493],[126.943342,35.149518],[126.943458,35.149574],[126.943553,35.149601],[126.943576,35.149568],[126.943691,35.149383],[126.943595,35.149341]]]]},"properties":{"id":"FLD:12210:120:11689","layer":"FLOOD_TRACE","admin_code":"12210","sido_code":"29","flood_year":"2020","occurred_at":"2020-08-06","ended_at":"2020-08-08","begin_time":"0900","end_time":"1200","disaster_name":"8.6~8.8 집중호우","cause_detail":"우수관 역류","flood_grade":1,"flood_depth_m":0.448,"flood_area_m2":5423.6,"source_sn":120,"data_status":"actual","official_data":true,"is_prediction":false,"source":"행정안전부 침수흔적도 · 재난안전데이터공유플랫폼 DSSP-IF-00117","collected_at":"2026-08-19T16:46:51+09:00","source_crs":"EPSG:3857","display_badges":["행안부 침수흔적도","과거 기록"]}},{"type":"Feature","id":"FLD:12210:129:11705","geometry":{"type":"MultiPolygon","coordinates":[[[[126.936366,35.115452],[126.936263,35.115759],[126.936219,35.115781],[126.936091,35.115793],[126.93585,35.115888],[126.935838,35.115904],[126.935774,35.115917],[126.935683,35.115909],[126.935604,35.115981],[126.935945,35.116185],[126.936023,35.116288],[126.93588,35.116484],[126.935447,35.116296],[126.93534,35.116284],[126.935277,35.116288],[126.935077,35.116292],[126.935831,35.11489],[126.936081,35.114935],[126.935912,35.115252],[126.936301,35.115295],[126.936255,35.115455],[126.936366,35.115452]]]]},"properties":{"id":"FLD:12210:129:11705","layer":"FLOOD_TRACE","admin_code":"12210","sido_code":"29","flood_year":"2020","occurred_at":"2020-08-06","ended_at":"2020-08-08","begin_time":"0900","end_time":"1200","disaster_name":"8.6~8.8 집중호우","cause_detail":"오수관거 불량, 산에서 유입","flood_grade":1,"flood_depth_m":0.242,"flood_area_m2":12174.9,"source_sn":129,"data_status":"actual","official_data":true,"is_prediction":false,"source":"행정안전부 침수흔적도 · 재난안전데이터공유플랫폼 DSSP-IF-00117","collected_at":"2026-08-19T16:46:51+09:00","source_crs":"EPSG:3857","display_badges":["행안부 침수흔적도","과거 기록"]}},{"type":"Feature","id":"FLD:12210:123:11706","geometry":{"type":"MultiPolygon","coordinates":[[[[126.934061,35.123969],[126.934063,35.123822],[126.934061,35.123703],[126.934073,35.123697],[126.934071,35.12357],[126.934067,35.123498],[126.934045,35.123438],[126.934043,35.123424],[126.934301,35.123481],[126.934769,35.123582],[126.934792,35.123618],[126.934812,35.123681],[126.93486,35.123867],[126.934872,35.123926],[126.934844,35.123942],[126.934613,35.123974],[126.934445,35.123996],[126.934357,35.124044],[126.93427,35.124021],[126.934183,35.123998],[126.934091,35.123976],[126.934073,35.123972],[126.934061,35.123969]]]]},"properties":{"id":"FLD:12210:123:11706","layer":"FLOOD_TRACE","admin_code":"12210","sido_code":"29","flood_year":"2020","occurred_at":"2020-08-06","ended_at":"2020-08-08","begin_time":"0900","end_time":"1200","disaster_name":"8.6~8.8 집중호우","cause_detail":"오수관거 불량","flood_grade":1,"flood_depth_m":0.357,"flood_area_m2":6527.2,"source_sn":123,"data_status":"actual","official_data":true,"is_prediction":false,"source":"행정안전부 침수흔적도 · 재난안전데이터공유플랫폼 DSSP-IF-00117","collected_at":"2026-08-19T16:46:51+09:00","source_crs":"EPSG:3857","display_badges":["행안부 침수흔적도","과거 기록"]}},{"type":"Feature","id":"FLD:12210:125:11707","geometry":{"type":"MultiPolygon","coordinates":[[[[126.93335,35.123698],[126.933301,35.123634],[126.93344,35.123585],[126.933466,35.123564],[126.933621,35.123515],[126.933751,35.123476],[126.933879,35.123388],[126.934043,35.123424],[126.934045,35.123438],[126.934067,35.123498],[126.934071,35.12357],[126.934073,35.123697],[126.934061,35.123703],[126.934063,35.123822],[126.934061,35.123969],[126.933976,35.123947],[126.93388,35.123924],[126.933773,35.123897],[126.933654,35.123869],[126.933632,35.123863],[126.933598,35.123854],[126.933528,35.123836],[126.933506,35.123831],[126.933411,35.123807],[126.933416,35.123794],[126.93335,35.123698]]]]},"properties":{"id":"FLD:12210:125:11707","layer":"FLOOD_TRACE","admin_code":"12210","sido_code":"29","flood_year":"2020","occurred_at":"2020-08-06","ended_at":"2020-08-08","begin_time":"0900","end_time":"1200","disaster_name":"8.6~8.8 집중호우","cause_detail":"오수관거 불량","flood_grade":2,"flood_depth_m":0.679,"flood_area_m2":6527.2,"source_sn":125,"data_status":"actual","official_data":true,"is_prediction":false,"source":"행정안전부 침수흔적도 · 재난안전데이터공유플랫폼 DSSP-IF-00117","collected_at":"2026-08-19T16:46:51+09:00","source_crs":"EPSG:3857","display_badges":["행안부 침수흔적도","과거 기록"]}},{"type":"Feature","id":"FLD:12210:126:11708","geometry":{"type":"MultiPolygon","coordinates":[[[[126.929695,35.127301],[126.929584,35.127237],[126.929444,35.127218],[126.929309,35.127189],[126.929164,35.127321],[126.928949,35.127521],[126.928874,35.127589],[126.928836,35.127637],[126.928767,35.127754],[126.928597,35.127692],[126.928562,35.127691],[126.928501,35.127652],[126.928344,35.127723],[126.928523,35.127466],[126.928624,35.127364],[126.928834,35.127097],[126.929572,35.126523],[126.929643,35.126598],[126.929641,35.127079],[126.929655,35.127188],[126.929695,35.127301]]]]},"properties":{"id":"FLD:12210:126:11708","layer":"FLOOD_TRACE","admin_code":"12210","sido_code":"29","flood_year":"2020","occurred_at":"2020-08-06","ended_at":"2020-08-08","begin_time":"0900","end_time":"1200","disaster_name":"8.6~8.8 집중호우","cause_detail":"오수관거 불량","flood_grade":1,"flood_depth_m":0.312,"flood_area_m2":28468.1,"source_sn":126,"data_status":"actual","official_data":true,"is_prediction":false,"source":"행정안전부 침수흔적도 · 재난안전데이터공유플랫폼 DSSP-IF-00117","collected_at":"2026-08-19T16:46:51+09:00","source_crs":"EPSG:3857","display_badges":["행안부 침수흔적도","과거 기록"]}},{"type":"Feature","id":"FLD:12210:128:11709","geometry":{"type":"MultiPolygon","coordinates":[[[[126.936023,35.116288],[126.935945,35.116185],[126.935604,35.115981],[126.935683,35.115909],[126.935774,35.115917],[126.935838,35.115904],[126.93585,35.115888],[126.936091,35.115793],[126.936219,35.115781],[126.936263,35.115759],[126.936366,35.115452],[126.936496,35.115449],[126.93643,35.115796],[126.936485,35.115882],[126.936516,35.116062],[126.936323,35.116081],[126.936266,35.116103],[126.936229,35.11618],[126.936148,35.11624],[126.936023,35.116288]]]]},"properties":{"id":"FLD:12210:128:11709","layer":"FLOOD_TRACE","admin_code":"12210","sido_code":"29","flood_year":"2020","occurred_at":"2020-08-06","ended_at":"2020-08-08","begin_time":"0900","end_time":"1200","disaster_name":"8.6~8.8 집중호우","cause_detail":"오수관거 불량, 산에서 유입","flood_grade":2,"flood_depth_m":0.525,"flood_area_m2":12174.9,"source_sn":128,"data_status":"actual","official_data":true,"is_prediction":false,"source":"행정안전부 침수흔적도 · 재난안전데이터공유플랫폼 DSSP-IF-00117","collected_at":"2026-08-19T16:46:51+09:00","source_crs":"EPSG:3857","display_badges":["행안부 침수흔적도","과거 기록"]}},{"type":"Feature","id":"FLD:12210:124:11710","geometry":{"type":"MultiPolygon","coordinates":[[[[126.933911,35.120988],[126.934013,35.12108],[126.933872,35.121255],[126.933752,35.121386],[126.933584,35.121549],[126.933583,35.121697],[126.933574,35.121728],[126.933596,35.121795],[126.933637,35.121851],[126.93363,35.121893],[126.933574,35.121808],[126.933487,35.121791],[126.933397,35.121693],[126.933159,35.121834],[126.933245,35.121617],[126.933311,35.121634],[126.933479,35.121533],[126.93355,35.121473],[126.933491,35.121393],[126.933612,35.121342],[126.933664,35.121362],[126.933798,35.121211],[126.933783,35.121188],[126.933818,35.121122],[126.93387,35.121135],[126.933911,35.120988]]]]},"properties":{"id":"FLD:12210:124:11710","layer":"FLOOD_TRACE","admin_code":"12210","sido_code":"29","flood_year":"2020","occurred_at":"2020-08-06","ended_at":"2020-08-08","begin_time":"0900","end_time":"1200","disaster_name":"8.6~8.8 집중호우","cause_detail":"오수관거 불량","flood_grade":2,"flood_depth_m":0.617,"flood_area_m2":3722,"source_sn":124,"data_status":"actual","official_data":true,"is_prediction":false,"source":"행정안전부 침수흔적도 · 재난안전데이터공유플랫폼 DSSP-IF-00117","collected_at":"2026-08-19T16:46:51+09:00","source_crs":"EPSG:3857","display_badges":["행안부 침수흔적도","과거 기록"]}},{"type":"Feature","id":"FLD:12210:130:11711","geometry":{"type":"MultiPolygon","coordinates":[[[[126.93363,35.121893],[126.933637,35.121851],[126.933596,35.121795],[126.933574,35.121728],[126.933583,35.121697],[126.933584,35.121549],[126.933752,35.121386],[126.933872,35.121255],[126.934013,35.12108],[126.933911,35.120988],[126.933939,35.120954],[126.933953,35.120909],[126.934044,35.120946],[126.93414,35.120996],[126.934062,35.121099],[126.934086,35.121112],[126.934065,35.121218],[126.934179,35.121234],[126.934098,35.121362],[126.934177,35.121397],[126.934109,35.121514],[126.933914,35.121436],[126.93373,35.121642],[126.933864,35.121666],[126.933841,35.121739],[126.933733,35.121992],[126.933668,35.12195],[126.93363,35.121893]]]]},"properties":{"id":"FLD:12210:130:11711","layer":"FLOOD_TRACE","admin_code":"12210","sido_code":"29","flood_year":"2020","occurred_at":"2020-08-06","ended_at":"2020-08-08","begin_time":"0900","end_time":"1200","disaster_name":"8.6~8.8 집중호우","cause_detail":"오수관거 불량","flood_grade":1,"flood_depth_m":0.119,"flood_area_m2":3722,"source_sn":130,"data_status":"actual","official_data":true,"is_prediction":false,"source":"행정안전부 침수흔적도 · 재난안전데이터공유플랫폼 DSSP-IF-00117","collected_at":"2026-08-19T16:46:51+09:00","source_crs":"EPSG:3857","display_badges":["행안부 침수흔적도","과거 기록"]}},{"type":"Feature","id":"FLD:12210:127:11712","geometry":{"type":"MultiPolygon","coordinates":[[[[126.92761,35.128368],[126.927599,35.128348],[126.927753,35.128231],[126.927888,35.128071],[126.928053,35.127955],[126.927998,35.127883],[126.928009,35.127857],[126.928344,35.127723],[126.928501,35.127652],[126.928562,35.127691],[126.928597,35.127692],[126.928767,35.127754],[126.928836,35.127637],[126.928874,35.127589],[126.928949,35.127521],[126.929164,35.127321],[126.929309,35.127189],[126.929444,35.127218],[126.929584,35.127237],[126.929695,35.127301],[126.929733,35.127409],[126.929661,35.12825],[126.929563,35.128472],[126.929453,35.128659],[126.929289,35.128808],[126.929006,35.128954],[126.928772,35.129011],[126.928396,35.12896],[126.928245,35.128839],[126.928274,35.128463],[126.927988,35.128487],[126.927918,35.128502],[126.927834,35.128447],[126.92773,35.128396],[126.92761,35.128368]]]]},"properties":{"id":"FLD:12210:127:11712","layer":"FLOOD_TRACE","admin_code":"12210","sido_code":"29","flood_year":"2020","occurred_at":"2020-08-06","ended_at":"2020-08-08","begin_time":"0900","end_time":"1200","disaster_name":"8.6~8.8 집중호우","cause_detail":"오수관거 불량","flood_grade":2,"flood_depth_m":0.573,"flood_area_m2":28468.1,"source_sn":127,"data_status":"actual","official_data":true,"is_prediction":false,"source":"행정안전부 침수흔적도 · 재난안전데이터공유플랫폼 DSSP-IF-00117","collected_at":"2026-08-19T16:46:51+09:00","source_crs":"EPSG:3857","display_badges":["행안부 침수흔적도","과거 기록"]}},{"type":"Feature","id":"FLD:12210:132:11728","geometry":{"type":"MultiPolygon","coordinates":[[[[126.96326,35.096759],[126.963245,35.09668],[126.963062,35.09628],[126.963039,35.096208],[126.962791,35.095664],[126.962791,35.095456],[126.962767,35.095385],[126.962718,35.09529],[126.962788,35.095373],[126.96284,35.095373],[126.963066,35.09519],[126.963077,35.095183],[126.963115,35.095153],[126.963164,35.095144],[126.963298,35.095134],[126.963359,35.095135],[126.963419,35.095117],[126.963469,35.095108],[126.963508,35.095151],[126.963526,35.095333],[126.963633,35.09539],[126.963793,35.095501],[126.963709,35.095749],[126.963708,35.095759],[126.96365,35.095958],[126.963654,35.09605],[126.963637,35.096201],[126.963636,35.096362],[126.963665,35.096603],[126.963662,35.096701],[126.963696,35.096835],[126.963516,35.096842],[126.963443,35.096718],[126.963406,35.096717],[126.963386,35.096716],[126.963364,35.09672],[126.963291,35.096743],[126.96326,35.096759]]]]},"properties":{"id":"FLD:12210:132:11728","layer":"FLOOD_TRACE","admin_code":"12210","sido_code":"29","flood_year":"2020","occurred_at":"2020-08-06","ended_at":"2020-08-08","begin_time":"0900","end_time":"1200","disaster_name":"8.6~8.8 집중호우","cause_detail":"소하천 범람","flood_grade":2,"flood_depth_m":0.751,"flood_area_m2":20976.4,"source_sn":132,"data_status":"actual","official_data":true,"is_prediction":false,"source":"행정안전부 침수흔적도 · 재난안전데이터공유플랫폼 DSSP-IF-00117","collected_at":"2026-08-19T16:46:51+09:00","source_crs":"EPSG:3857","display_badges":["행안부 침수흔적도","과거 기록"]}},{"type":"Feature","id":"FLD:12210:134:11729","geometry":{"type":"MultiPolygon","coordinates":[[[[126.946715,35.131098],[126.94698,35.131442],[126.947089,35.131383],[126.947176,35.131376],[126.947459,35.131159],[126.947521,35.131139],[126.947557,35.131124],[126.947657,35.131118],[126.947933,35.131127],[126.947939,35.131238],[126.947658,35.131234],[126.947527,35.131263],[126.947447,35.131325],[126.947426,35.131319],[126.947459,35.131602],[126.947209,35.131595],[126.947087,35.131594],[126.946837,35.131633],[126.94664,35.131618],[126.946539,35.131579],[126.94639,35.131551],[126.946067,35.131544],[126.94593,35.131665],[126.945837,35.131536],[126.945969,35.131401],[126.945995,35.13133],[126.946227,35.131164],[126.946715,35.131098]]]]},"properties":{"id":"FLD:12210:134:11729","layer":"FLOOD_TRACE","admin_code":"12210","sido_code":"29","flood_year":"2020","occurred_at":"2020-08-06","ended_at":"2020-08-08","begin_time":"0900","end_time":"1200","disaster_name":"8.6~8.8 집중호우","cause_detail":"소하천 범람","flood_grade":1,"flood_depth_m":0.271,"flood_area_m2":27224.3,"source_sn":134,"data_status":"actual","official_data":true,"is_prediction":false,"source":"행정안전부 침수흔적도 · 재난안전데이터공유플랫폼 DSSP-IF-00117","collected_at":"2026-08-19T16:46:51+09:00","source_crs":"EPSG:3857","display_badges":["행안부 침수흔적도","과거 기록"]}},{"type":"Feature","id":"FLD:12210:135:11730","geometry":{"type":"MultiPolygon","coordinates":[[[[126.949632,35.130155],[126.949432,35.130198],[126.949382,35.130272],[126.949331,35.130211],[126.949202,35.13028],[126.949108,35.130134],[126.94906,35.130058],[126.949147,35.130016],[126.949532,35.129806],[126.949617,35.129716],[126.949918,35.129517],[126.949947,35.129563],[126.949676,35.129761],[126.94959,35.129882],[126.949728,35.129965],[126.949713,35.129988],[126.949636,35.13009],[126.949632,35.130155]]]]},"properties":{"id":"FLD:12210:135:11730","layer":"FLOOD_TRACE","admin_code":"12210","sido_code":"29","flood_year":"2020","occurred_at":"2020-08-06","ended_at":"2020-08-08","begin_time":"0900","end_time":"1200","disaster_name":"8.6~8.8 집중호우","cause_detail":"소하천 범람","flood_grade":1,"flood_depth_m":0.195,"flood_area_m2":27224.3,"source_sn":135,"data_status":"actual","official_data":true,"is_prediction":false,"source":"행정안전부 침수흔적도 · 재난안전데이터공유플랫폼 DSSP-IF-00117","collected_at":"2026-08-19T16:46:51+09:00","source_crs":"EPSG:3857","display_badges":["행안부 침수흔적도","과거 기록"]}},{"type":"Feature","id":"FLD:12210:140:11731","geometry":{"type":"MultiPolygon","coordinates":[[[[126.941518,35.090807],[126.941364,35.090705],[126.9416,35.090618],[126.941664,35.090661],[126.94169,35.090678],[126.941739,35.090714],[126.941787,35.090751],[126.941833,35.090789],[126.941663,35.090918],[126.941645,35.090903],[126.941604,35.090869],[126.941562,35.090838],[126.941518,35.090807]]]]},"properties":{"id":"FLD:12210:140:11731","layer":"FLOOD_TRACE","admin_code":"12210","sido_code":"29","flood_year":"2020","occurred_at":"2020-08-06","ended_at":"2020-08-08","begin_time":"0900","end_time":"1200","disaster_name":"8.6~8.8 집중호우","cause_detail":"우수관 역류","flood_grade":1,"flood_depth_m":0.408,"flood_area_m2":3705.5,"source_sn":140,"data_status":"actual","official_data":true,"is_prediction":false,"source":"행정안전부 침수흔적도 · 재난안전데이터공유플랫폼 DSSP-IF-00117","collected_at":"2026-08-19T16:46:51+09:00","source_crs":"EPSG:3857","display_badges":["행안부 침수흔적도","과거 기록"]}},{"type":"Feature","id":"FLD:12210:141:11732","geometry":{"type":"MultiPolygon","coordinates":[[[[126.9416,35.090618],[126.941364,35.090705],[126.941281,35.090616],[126.941143,35.090526],[126.941143,35.090525],[126.941112,35.090503],[126.941086,35.090481],[126.941083,35.090479],[126.941056,35.090453],[126.941031,35.090425],[126.941009,35.090397],[126.940989,35.090367],[126.940972,35.090336],[126.940957,35.090304],[126.940946,35.090271],[126.940934,35.090233],[126.94109,35.090184],[126.94167,35.090536],[126.9416,35.090618]]]]},"properties":{"id":"FLD:12210:141:11732","layer":"FLOOD_TRACE","admin_code":"12210","sido_code":"29","flood_year":"2020","occurred_at":"2020-08-06","ended_at":"2020-08-08","begin_time":"0900","end_time":"1200","disaster_name":"8.6~8.8 집중호우","cause_detail":"우수관 역류","flood_grade":2,"flood_depth_m":0.629,"flood_area_m2":3705.5,"source_sn":141,"data_status":"actual","official_data":true,"is_prediction":false,"source":"행정안전부 침수흔적도 · 재난안전데이터공유플랫폼 DSSP-IF-00117","collected_at":"2026-08-19T16:46:51+09:00","source_crs":"EPSG:3857","display_badges":["행안부 침수흔적도","과거 기록"]}},{"type":"Feature","id":"FLD:12210:145:11733","geometry":{"type":"MultiPolygon","coordinates":[[[[126.930263,35.11815],[126.930599,35.118045],[126.930994,35.118856],[126.931127,35.119129],[126.931025,35.119166],[126.931024,35.119744],[126.931056,35.119854],[126.931261,35.120105],[126.931448,35.120386],[126.931431,35.120442],[126.931031,35.120339],[126.931,35.120297],[126.930908,35.120239],[126.930667,35.120399],[126.930549,35.120342],[126.930493,35.120292],[126.930248,35.120014],[126.929933,35.119508],[126.92967,35.119046],[126.929643,35.118988],[126.929617,35.118908],[126.929617,35.118826],[126.929644,35.118706],[126.92971,35.118609],[126.929885,35.118366],[126.929988,35.11827],[126.930075,35.118219],[126.930263,35.11815]]]]},"properties":{"id":"FLD:12210:145:11733","layer":"FLOOD_TRACE","admin_code":"12210","sido_code":"29","flood_year":"2020","occurred_at":"2020-08-06","ended_at":"2020-08-08","begin_time":"0900","end_time":"1200","disaster_name":"8.6~8.8 집중호우","cause_detail":"오수관 역류","flood_grade":1,"flood_depth_m":0.293,"flood_area_m2":33456,"source_sn":145,"data_status":"actual","official_data":true,"is_prediction":false,"source":"행정안전부 침수흔적도 · 재난안전데이터공유플랫폼 DSSP-IF-00117","collected_at":"2026-08-19T16:46:51+09:00","source_crs":"EPSG:3857","display_badges":["행안부 침수흔적도","과거 기록"]}},{"type":"Feature","id":"FLD:12210:131:11741","geometry":{"type":"MultiPolygon","coordinates":[[[[126.963469,35.095108],[126.963419,35.095117],[126.963359,35.095135],[126.963298,35.095134],[126.963164,35.095144],[126.963115,35.095153],[126.963077,35.095183],[126.963066,35.09519],[126.96284,35.095373],[126.962788,35.095373],[126.962718,35.09529],[126.962704,35.095233],[126.962664,35.095087],[126.962642,35.094891],[126.962613,35.094803],[126.962603,35.094725],[126.962589,35.094669],[126.962409,35.094425],[126.96232,35.09421],[126.962202,35.094065],[126.962342,35.093983],[126.962686,35.093974],[126.962706,35.093984],[126.96279,35.094016],[126.962808,35.094008],[126.962946,35.094097],[126.962968,35.094152],[126.963007,35.094203],[126.963021,35.094226],[126.963055,35.094284],[126.963094,35.094326],[126.96318,35.094385],[126.963185,35.094388],[126.963236,35.094414],[126.963337,35.094443],[126.96343,35.094526],[126.963425,35.094596],[126.963443,35.094716],[126.963453,35.094875],[126.963454,35.095023],[126.963469,35.095108]]]]},"properties":{"id":"FLD:12210:131:11741","layer":"FLOOD_TRACE","admin_code":"12210","sido_code":"29","flood_year":"2020","occurred_at":"2020-08-06","ended_at":"2020-08-08","begin_time":"0900","end_time":"1200","disaster_name":"8.6~8.8 집중호우","cause_detail":"소하천 범람","flood_grade":3,"flood_depth_m":1.184,"flood_area_m2":20976.4,"source_sn":131,"data_status":"actual","official_data":true,"is_prediction":false,"source":"행정안전부 침수흔적도 · 재난안전데이터공유플랫폼 DSSP-IF-00117","collected_at":"2026-08-19T16:46:51+09:00","source_crs":"EPSG:3857","display_badges":["행안부 침수흔적도","과거 기록"]}},{"type":"Feature","id":"FLD:12210:147:11766","geometry":{"type":"MultiPolygon","coordinates":[[[[126.922248,35.114431],[126.922076,35.114403],[126.921973,35.114424],[126.921767,35.114314],[126.921887,35.114154],[126.922035,35.114061],[126.922134,35.113869],[126.92218,35.113786],[126.922258,35.113645],[126.922248,35.113599],[126.922186,35.113491],[126.922186,35.11342],[126.922186,35.113322],[126.922248,35.11321],[126.922302,35.113232],[126.922248,35.113354],[126.922326,35.113478],[126.922338,35.113567],[126.922406,35.113596],[126.922367,35.113853],[126.922299,35.114072],[126.922296,35.114157],[126.922289,35.114311],[126.922248,35.114431]]]]},"properties":{"id":"FLD:12210:147:11766","layer":"FLOOD_TRACE","admin_code":"12210","sido_code":"29","flood_year":"2020","occurred_at":"2020-08-06","ended_at":"2020-08-08","begin_time":"0900","end_time":"1200","disaster_name":"8.6~8.8 집중호우","cause_detail":"소하천 범람","flood_grade":1,"flood_depth_m":0.475,"flood_area_m2":10480.9,"source_sn":147,"data_status":"actual","official_data":true,"is_prediction":false,"source":"행정안전부 침수흔적도 · 재난안전데이터공유플랫폼 DSSP-IF-00117","collected_at":"2026-08-19T16:46:51+09:00","source_crs":"EPSG:3857","display_badges":["행안부 침수흔적도","과거 기록"]}},{"type":"Feature","id":"FLD:12210:149:11767","geometry":{"type":"MultiPolygon","coordinates":[[[[126.930515,35.117871],[126.930599,35.118045],[126.930263,35.11815],[126.93029,35.118108],[126.930288,35.118062],[126.930203,35.117925],[126.930308,35.117891],[126.930158,35.117726],[126.930058,35.117641],[126.930245,35.117531],[126.930475,35.11747],[126.930563,35.11747],[126.930595,35.117557],[126.930766,35.117757],[126.930515,35.117871]]]]},"properties":{"id":"FLD:12210:149:11767","layer":"FLOOD_TRACE","admin_code":"12210","sido_code":"29","flood_year":"2020","occurred_at":"2020-08-06","ended_at":"2020-08-08","begin_time":"0900","end_time":"1200","disaster_name":"8.6~8.8 집중호우","cause_detail":"오수관 역류","flood_grade":2,"flood_depth_m":0.59,"flood_area_m2":33456,"source_sn":149,"data_status":"actual","official_data":true,"is_prediction":false,"source":"행정안전부 침수흔적도 · 재난안전데이터공유플랫폼 DSSP-IF-00117","collected_at":"2026-08-19T16:46:51+09:00","source_crs":"EPSG:3857","display_badges":["행안부 침수흔적도","과거 기록"]}},{"type":"Feature","id":"FLD:12210:144:11768","geometry":{"type":"MultiPolygon","coordinates":[[[[126.922224,35.115626],[126.922131,35.115587],[126.922049,35.115534],[126.922058,35.115509],[126.92203,35.115473],[126.921959,35.11545],[126.921907,35.115434],[126.921888,35.115407],[126.921867,35.11544],[126.921834,35.115437],[126.921716,35.115345],[126.921663,35.115467],[126.921547,35.115407],[126.921483,35.115348],[126.921462,35.115291],[126.921471,35.115209],[126.92157,35.115105],[126.92149,35.115031],[126.921615,35.114869],[126.921561,35.114829],[126.921503,35.114785],[126.921648,35.114603],[126.921783,35.114435],[126.921767,35.114314],[126.921973,35.114424],[126.922076,35.114403],[126.922248,35.114431],[126.9222,35.114572],[126.92206,35.114734],[126.922017,35.114785],[126.92195,35.114905],[126.921934,35.115014],[126.921885,35.115145],[126.921942,35.115165],[126.921952,35.115281],[126.922008,35.115341],[126.922165,35.115317],[126.922285,35.115617],[126.922224,35.115626]]]]},"properties":{"id":"FLD:12210:144:11768","layer":"FLOOD_TRACE","admin_code":"12210","sido_code":"29","flood_year":"2020","occurred_at":"2020-08-06","ended_at":"2020-08-08","begin_time":"0900","end_time":"1200","disaster_name":"8.6~8.8 집중호우","cause_detail":"소하천 범람","flood_grade":2,"flood_depth_m":0.672,"flood_area_m2":10480.9,"source_sn":144,"data_status":"actual","official_data":true,"is_prediction":false,"source":"행정안전부 침수흔적도 · 재난안전데이터공유플랫폼 DSSP-IF-00117","collected_at":"2026-08-19T16:46:51+09:00","source_crs":"EPSG:3857","display_badges":["행안부 침수흔적도","과거 기록"]}},{"type":"Feature","id":"FLD:12210:143:11769","geometry":{"type":"MultiPolygon","coordinates":[[[[126.930667,35.120399],[126.930908,35.120239],[126.931,35.120297],[126.931031,35.120339],[126.931431,35.120442],[126.931448,35.120386],[126.931261,35.120105],[126.931056,35.119854],[126.931024,35.119744],[126.931025,35.119166],[126.931127,35.119129],[126.931134,35.119143],[126.931278,35.119446],[126.931324,35.119529],[126.931381,35.119603],[126.931477,35.11969],[126.931572,35.11975],[126.931658,35.119785],[126.931751,35.119799],[126.931355,35.120826],[126.931002,35.120733],[126.930953,35.120691],[126.930852,35.120568],[126.930788,35.120486],[126.930713,35.120422],[126.930667,35.120399]]]]},"properties":{"id":"FLD:12210:143:11769","layer":"FLOOD_TRACE","admin_code":"12210","sido_code":"29","flood_year":"2020","occurred_at":"2020-08-06","ended_at":"2020-08-08","begin_time":"0900","end_time":"1200","disaster_name":"8.6~8.8 집중호우","cause_detail":"오수관 역류","flood_grade":2,"flood_depth_m":0.702,"flood_area_m2":33456,"source_sn":143,"data_status":"actual","official_data":true,"is_prediction":false,"source":"행정안전부 침수흔적도 · 재난안전데이터공유플랫폼 DSSP-IF-00117","collected_at":"2026-08-19T16:46:51+09:00","source_crs":"EPSG:3857","display_badges":["행안부 침수흔적도","과거 기록"]}},{"type":"Feature","id":"FLD:12210:146:11770","geometry":{"type":"MultiPolygon","coordinates":[[[[126.922338,35.113567],[126.922295,35.113484],[126.922251,35.11341],[126.922186,35.11342],[126.922186,35.113322],[126.922248,35.11321],[126.922302,35.113232],[126.922248,35.113354],[126.922326,35.113478],[126.922338,35.113567]]]]},"properties":{"id":"FLD:12210:146:11770","layer":"FLOOD_TRACE","admin_code":"12210","sido_code":"29","flood_year":"2020","occurred_at":"2020-08-06","ended_at":"2020-08-08","begin_time":"0900","end_time":"1200","disaster_name":"8.6~8.8 집중호우","cause_detail":"소하천 범람","flood_grade":1,"flood_depth_m":0.205,"flood_area_m2":10480.9,"source_sn":146,"data_status":"actual","official_data":true,"is_prediction":false,"source":"행정안전부 침수흔적도 · 재난안전데이터공유플랫폼 DSSP-IF-00117","collected_at":"2026-08-19T16:46:51+09:00","source_crs":"EPSG:3857","display_badges":["행안부 침수흔적도","과거 기록"]}},{"type":"Feature","id":"FLD:12210:148:11771","geometry":{"type":"MultiPolygon","coordinates":[[[[126.922183,35.113943],[126.922147,35.113998],[126.922121,35.114107],[126.922035,35.114061],[126.922134,35.113869],[126.922183,35.113943]]]]},"properties":{"id":"FLD:12210:148:11771","layer":"FLOOD_TRACE","admin_code":"12210","sido_code":"29","flood_year":"2020","occurred_at":"2020-08-06","ended_at":"2020-08-08","begin_time":"0900","end_time":"1200","disaster_name":"8.6~8.8 집중호우","cause_detail":"소하천 범람","flood_grade":1,"flood_depth_m":0.261,"flood_area_m2":10480.9,"source_sn":148,"data_status":"actual","official_data":true,"is_prediction":false,"source":"행정안전부 침수흔적도 · 재난안전데이터공유플랫폼 DSSP-IF-00117","collected_at":"2026-08-19T16:46:51+09:00","source_crs":"EPSG:3857","display_badges":["행안부 침수흔적도","과거 기록"]}},{"type":"Feature","id":"FLD:12210:142:11772","geometry":{"type":"MultiPolygon","coordinates":[[[[126.922486,35.116268],[126.92205,35.116147],[126.921954,35.116051],[126.921935,35.115931],[126.921946,35.115761],[126.921938,35.115688],[126.92192,35.115634],[126.921964,35.11558],[126.921969,35.115473],[126.921867,35.11544],[126.921888,35.115407],[126.921907,35.115434],[126.921959,35.11545],[126.92203,35.115473],[126.922058,35.115509],[126.922049,35.115534],[126.922131,35.115587],[126.922224,35.115626],[126.922234,35.115692],[126.922307,35.115816],[126.922314,35.11598],[126.922486,35.116268]]]]},"properties":{"id":"FLD:12210:142:11772","layer":"FLOOD_TRACE","admin_code":"12210","sido_code":"29","flood_year":"2020","occurred_at":"2020-08-06","ended_at":"2020-08-08","begin_time":"0900","end_time":"1200","disaster_name":"8.6~8.8 집중호우","cause_detail":"소하천 범람","flood_grade":3,"flood_depth_m":1.129,"flood_area_m2":10480.9,"source_sn":142,"data_status":"actual","official_data":true,"is_prediction":false,"source":"행정안전부 침수흔적도 · 재난안전데이터공유플랫폼 DSSP-IF-00117","collected_at":"2026-08-19T16:46:51+09:00","source_crs":"EPSG:3857","display_badges":["행안부 침수흔적도","과거 기록"]}},{"type":"Feature","id":"FLD:12210:5592:20009","geometry":{"type":"MultiPolygon","coordinates":[[[[126.945672,35.146269],[126.945767,35.146311],[126.945652,35.146495],[126.94563,35.146529],[126.945534,35.146502],[126.945418,35.146446],[126.945374,35.146421],[126.945332,35.146258],[126.945526,35.146247],[126.945672,35.146269]]]]},"properties":{"id":"FLD:12210:5592:20009","layer":"FLOOD_TRACE","admin_code":"12210","sido_code":"29","flood_year":"2021","occurred_at":"","ended_at":"","begin_time":null,"end_time":null,"disaster_name":null,"cause_detail":null,"flood_grade":2,"flood_depth_m":0.986,"flood_area_m2":821,"source_sn":5592,"data_status":"actual","official_data":true,"is_prediction":false,"source":"행정안전부 침수흔적도 · 재난안전데이터공유플랫폼 DSSP-IF-00117","collected_at":"2026-08-19T16:46:51+09:00","source_crs":"EPSG:3857","display_badges":["행안부 침수흔적도","과거 기록"]}},{"type":"Feature","id":"FLD:12210:5593:20010","geometry":{"type":"MultiPolygon","coordinates":[[[[126.945444,35.146607],[126.945262,35.146628],[126.945083,35.146648],[126.944998,35.146559],[126.944919,35.146519],[126.944756,35.146437],[126.944665,35.146366],[126.944786,35.146252],[126.944901,35.146175],[126.945036,35.146171],[126.945701,35.146141],[126.945719,35.146222],[126.945926,35.146306],[126.946011,35.146312],[126.94601,35.146374],[126.945983,35.146386],[126.945944,35.146473],[126.945816,35.146589],[126.945725,35.14659],[126.945634,35.146574],[126.945549,35.146555],[126.945444,35.146607]],[[126.945332,35.146258],[126.945374,35.146421],[126.945418,35.146446],[126.945534,35.146502],[126.94563,35.146529],[126.945652,35.146495],[126.945767,35.146311],[126.945672,35.146269],[126.945526,35.146247],[126.945332,35.146258]]]]},"properties":{"id":"FLD:12210:5593:20010","layer":"FLOOD_TRACE","admin_code":"12210","sido_code":"29","flood_year":"2021","occurred_at":"","ended_at":"","begin_time":null,"end_time":null,"disaster_name":null,"cause_detail":null,"flood_grade":1,"flood_depth_m":0.448,"flood_area_m2":3955.3,"source_sn":5593,"data_status":"actual","official_data":true,"is_prediction":false,"source":"행정안전부 침수흔적도 · 재난안전데이터공유플랫폼 DSSP-IF-00117","collected_at":"2026-08-19T16:46:51+09:00","source_crs":"EPSG:3857","display_badges":["행안부 침수흔적도","과거 기록"]}},{"type":"Feature","id":"FLD:12210:5594:20011","geometry":{"type":"MultiPolygon","coordinates":[[[[126.944786,35.146252],[126.944665,35.146366],[126.944756,35.146437],[126.944919,35.146519],[126.944998,35.146559],[126.945083,35.146648],[126.944855,35.146525],[126.944654,35.146409],[126.944415,35.146284],[126.944436,35.146232],[126.944901,35.146175],[126.944786,35.146252]]]]},"properties":{"id":"FLD:12210:5594:20011","layer":"FLOOD_TRACE","admin_code":"12210","sido_code":"29","flood_year":"2021","occurred_at":"","ended_at":"","begin_time":null,"end_time":null,"disaster_name":null,"cause_detail":null,"flood_grade":2,"flood_depth_m":0.637,"flood_area_m2":647.4,"source_sn":5594,"data_status":"actual","official_data":true,"is_prediction":false,"source":"행정안전부 침수흔적도 · 재난안전데이터공유플랫폼 DSSP-IF-00117","collected_at":"2026-08-19T16:46:51+09:00","source_crs":"EPSG:3857","display_badges":["행안부 침수흔적도","과거 기록"]}},{"type":"Feature","id":"FLD:12210:133:21866","geometry":{"type":"MultiPolygon","coordinates":[[[[126.94906,35.130058],[126.949108,35.130134],[126.949202,35.13028],[126.949331,35.130211],[126.949382,35.130272],[126.949432,35.130198],[126.949632,35.130155],[126.949699,35.130216],[126.949802,35.130261],[126.949834,35.130325],[126.949726,35.130451],[126.949651,35.130504],[126.949484,35.130632],[126.949382,35.130713],[126.949179,35.13087],[126.949065,35.130937],[126.948915,35.131023],[126.948695,35.131138],[126.948525,35.131294],[126.948357,35.131306],[126.948179,35.131274],[126.948106,35.131229],[126.947939,35.131238],[126.947933,35.131127],[126.947657,35.131118],[126.947557,35.131124],[126.947521,35.131139],[126.947459,35.131159],[126.947176,35.131376],[126.947089,35.131383],[126.94698,35.131442],[126.946715,35.131098],[126.946833,35.131074],[126.946924,35.131015],[126.947107,35.130927],[126.947262,35.130799],[126.947506,35.130678],[126.947749,35.130541],[126.948078,35.130465],[126.948339,35.130367],[126.94855,35.130285],[126.948997,35.130089],[126.94906,35.130058]]]]},"properties":{"id":"FLD:12210:133:21866","layer":"FLOOD_TRACE","admin_code":"12210","sido_code":"29","flood_year":"2020","occurred_at":"2020-08-06","ended_at":"2020-08-08","begin_time":"0900","end_time":"1200","disaster_name":"8.6~8.8 집중호우","cause_detail":"소하천 범람","flood_grade":2,"flood_depth_m":0.799,"flood_area_m2":27224.3,"source_sn":133,"data_status":"actual","official_data":true,"is_prediction":false,"source":"행정안전부 침수흔적도 · 재난안전데이터공유플랫폼 DSSP-IF-00117","collected_at":"2026-08-19T16:46:51+09:00","source_crs":"EPSG:3857","display_badges":["행안부 침수흔적도","과거 기록"]}},{"type":"Feature","id":"FLD:12210:138:21867","geometry":{"type":"MultiPolygon","coordinates":[[[[126.938707,35.092494],[126.938588,35.092232],[126.938675,35.092201],[126.938727,35.092157],[126.938735,35.091986],[126.938745,35.091932],[126.938833,35.091901],[126.938898,35.09186],[126.939015,35.091864],[126.939014,35.091814],[126.939112,35.0918],[126.939112,35.091979],[126.939092,35.092247],[126.939073,35.092332],[126.939061,35.092394],[126.938973,35.092391],[126.938955,35.092516],[126.938939,35.09254],[126.938889,35.09268],[126.938785,35.092657],[126.938621,35.092688],[126.938623,35.092607],[126.93865,35.092613],[126.938707,35.092494]]]]},"properties":{"id":"FLD:12210:138:21867","layer":"FLOOD_TRACE","admin_code":"12210","sido_code":"29","flood_year":"2020","occurred_at":"2020-08-06","ended_at":"2020-08-08","begin_time":"0900","end_time":"1200","disaster_name":"8.6~8.8 집중호우","cause_detail":"소하천 범람","flood_grade":1,"flood_depth_m":0.408,"flood_area_m2":4006.2,"source_sn":138,"data_status":"actual","official_data":true,"is_prediction":false,"source":"행정안전부 침수흔적도 · 재난안전데이터공유플랫폼 DSSP-IF-00117","collected_at":"2026-08-19T16:46:51+09:00","source_crs":"EPSG:3857","display_badges":["행안부 침수흔적도","과거 기록"]}},{"type":"Feature","id":"FLD:12210:137:21873","geometry":{"type":"MultiPolygon","coordinates":[[[[126.938621,35.092688],[126.938785,35.092657],[126.938889,35.09268],[126.938895,35.092712],[126.938812,35.092855],[126.938829,35.092911],[126.938749,35.09299],[126.938698,35.092951],[126.938787,35.092879],[126.938619,35.092815],[126.938621,35.092688]]]]},"properties":{"id":"FLD:12210:137:21873","layer":"FLOOD_TRACE","admin_code":"12210","sido_code":"29","flood_year":"2020","occurred_at":"2020-08-06","ended_at":"2020-08-08","begin_time":"0900","end_time":"1200","disaster_name":"8.6~8.8 집중호우","cause_detail":"소하천 범람","flood_grade":2,"flood_depth_m":0.713,"flood_area_m2":4006.2,"source_sn":137,"data_status":"actual","official_data":true,"is_prediction":false,"source":"행정안전부 침수흔적도 · 재난안전데이터공유플랫폼 DSSP-IF-00117","collected_at":"2026-08-19T16:46:51+09:00","source_crs":"EPSG:3857","display_badges":["행안부 침수흔적도","과거 기록"]}},{"type":"Feature","id":"FLD:12210:139:22999","geometry":{"type":"MultiPolygon","coordinates":[[[[126.94109,35.090184],[126.940934,35.090233],[126.940946,35.090271],[126.940957,35.090304],[126.940972,35.090336],[126.940989,35.090367],[126.941009,35.090397],[126.941031,35.090425],[126.941056,35.090453],[126.941083,35.090479],[126.941086,35.090481],[126.940978,35.090451],[126.94091,35.090435],[126.940819,35.090417],[126.940704,35.090401],[126.940587,35.090387],[126.940566,35.090364],[126.940708,35.090246],[126.940753,35.090205],[126.940795,35.090148],[126.940814,35.090116],[126.940827,35.090063],[126.94082,35.090017],[126.941072,35.090017],[126.941072,35.090044],[126.941073,35.090091],[126.941075,35.09011],[126.941081,35.090147],[126.94109,35.090184]]]]},"properties":{"id":"FLD:12210:139:22999","layer":"FLOOD_TRACE","admin_code":"12210","sido_code":"29","flood_year":"2020","occurred_at":"2020-08-06","ended_at":"2020-08-08","begin_time":"0900","end_time":"1200","disaster_name":"8.6~8.8 집중호우","cause_detail":"우수관 역류","flood_grade":1,"flood_depth_m":0.391,"flood_area_m2":3705.5,"source_sn":139,"data_status":"actual","official_data":true,"is_prediction":false,"source":"행정안전부 침수흔적도 · 재난안전데이터공유플랫폼 DSSP-IF-00117","collected_at":"2026-08-19T16:46:51+09:00","source_crs":"EPSG:3857","display_badges":["행안부 침수흔적도","과거 기록"]}},{"type":"Feature","id":"FLD:12210:136:23000","geometry":{"type":"MultiPolygon","coordinates":[[[[126.938829,35.092911],[126.938812,35.092855],[126.938895,35.092712],[126.938889,35.09268],[126.938939,35.09254],[126.938955,35.092516],[126.938973,35.092391],[126.939061,35.092394],[126.939004,35.092708],[126.938912,35.092936],[126.938829,35.092911]]]]},"properties":{"id":"FLD:12210:136:23000","layer":"FLOOD_TRACE","admin_code":"12210","sido_code":"29","flood_year":"2020","occurred_at":"2020-08-06","ended_at":"2020-08-08","begin_time":"0900","end_time":"1200","disaster_name":"8.6~8.8 집중호우","cause_detail":"소하천 범람","flood_grade":3,"flood_depth_m":1.22,"flood_area_m2":4006.2,"source_sn":136,"data_status":"actual","official_data":true,"is_prediction":false,"source":"행정안전부 침수흔적도 · 재난안전데이터공유플랫폼 DSSP-IF-00117","collected_at":"2026-08-19T16:46:51+09:00","source_crs":"EPSG:3857","display_badges":["행안부 침수흔적도","과거 기록"]}},{"type":"Feature","id":"FLD:12210:44:35499","geometry":{"type":"MultiPolygon","coordinates":[[[[126.937097,35.112979],[126.937059,35.113073],[126.936854,35.114066],[126.936054,35.116203],[126.934874,35.116201],[126.934783,35.115823],[126.935551,35.114436],[126.936681,35.112867],[126.936808,35.112547],[126.937097,35.112979]]]]},"properties":{"id":"FLD:12210:44:35499","layer":"FLOOD_TRACE","admin_code":"12210","sido_code":"29","flood_year":"2009","occurred_at":"2009-07-16","ended_at":"2009-07-16","begin_time":"0000","end_time":"0000","disaster_name":"집중호우","cause_detail":"집중호우","flood_grade":2,"flood_depth_m":1.614,"flood_area_m2":73743.1,"source_sn":44,"data_status":"actual","official_data":true,"is_prediction":false,"source":"행정안전부 침수흔적도 · 재난안전데이터공유플랫폼 DSSP-IF-00117","collected_at":"2026-08-19T16:46:51+09:00","source_crs":"EPSG:3857","display_badges":["행안부 침수흔적도","과거 기록"]}},{"type":"Feature","id":"FLD:12210:47:35519","geometry":{"type":"MultiPolygon","coordinates":[[[[126.936808,35.112547],[126.936823,35.11251],[126.936901,35.112153],[126.936928,35.11175],[126.936927,35.110801],[126.936795,35.110161],[126.936557,35.109507],[126.936246,35.10875],[126.936301,35.108408],[126.936422,35.10808],[126.936752,35.105732],[126.937661,35.105896],[126.937176,35.106945],[126.936965,35.108085],[126.937115,35.109979],[126.937271,35.111291],[126.937295,35.112483],[126.937097,35.112979],[126.936808,35.112547]]]]},"properties":{"id":"FLD:12210:47:35519","layer":"FLOOD_TRACE","admin_code":"12210","sido_code":"29","flood_year":"2009","occurred_at":"2009-07-16","ended_at":"2009-07-16","begin_time":"0000","end_time":"0000","disaster_name":"집중호우","cause_detail":"집중호우","flood_grade":2,"flood_depth_m":0.586,"flood_area_m2":73743.1,"source_sn":47,"data_status":"actual","official_data":true,"is_prediction":false,"source":"행정안전부 침수흔적도 · 재난안전데이터공유플랫폼 DSSP-IF-00117","collected_at":"2026-08-19T16:46:51+09:00","source_crs":"EPSG:3857","display_badges":["행안부 침수흔적도","과거 기록"]}},{"type":"Feature","id":"FLD:12210:43:35520","geometry":{"type":"MultiPolygon","coordinates":[[[[126.935719,35.120964],[126.935274,35.121648],[126.935104,35.121526],[126.93497,35.121481],[126.934729,35.121369],[126.934769,35.121303],[126.934882,35.121126],[126.935029,35.121181],[126.93512,35.120443],[126.935249,35.120415],[126.935837,35.120393],[126.935931,35.120427],[126.935719,35.120964]]]]},"properties":{"id":"FLD:12210:43:35520","layer":"FLOOD_TRACE","admin_code":"12210","sido_code":"29","flood_year":"2009","occurred_at":"2009-07-16","ended_at":"2009-07-16","begin_time":"0000","end_time":"0000","disaster_name":"집중호우","cause_detail":"집중호우","flood_grade":2,"flood_depth_m":0.84,"flood_area_m2":31413.1,"source_sn":43,"data_status":"actual","official_data":true,"is_prediction":false,"source":"행정안전부 침수흔적도 · 재난안전데이터공유플랫폼 DSSP-IF-00117","collected_at":"2026-08-19T16:46:51+09:00","source_crs":"EPSG:3857","display_badges":["행안부 침수흔적도","과거 기록"]}},{"type":"Feature","id":"FLD:12210:48:35521","geometry":{"type":"MultiPolygon","coordinates":[[[[126.934319,35.121656],[126.933957,35.121946],[126.933505,35.121944],[126.933466,35.121537],[126.933972,35.121017],[126.934319,35.121656]]]]},"properties":{"id":"FLD:12210:48:35521","layer":"FLOOD_TRACE","admin_code":"12210","sido_code":"29","flood_year":"2009","occurred_at":"2009-07-16","ended_at":"2009-07-16","begin_time":"0000","end_time":"0000","disaster_name":"집중호우","cause_detail":"집중호우","flood_grade":2,"flood_depth_m":1.952,"flood_area_m2":31413.1,"source_sn":48,"data_status":"actual","official_data":true,"is_prediction":false,"source":"행정안전부 침수흔적도 · 재난안전데이터공유플랫폼 DSSP-IF-00117","collected_at":"2026-08-19T16:46:51+09:00","source_crs":"EPSG:3857","display_badges":["행안부 침수흔적도","과거 기록"]}},{"type":"Feature","id":"FLD:12210:45:35522","geometry":{"type":"MultiPolygon","coordinates":[[[[126.934729,35.121369],[126.934696,35.121353],[126.934319,35.121656],[126.933972,35.121017],[126.934376,35.120603],[126.93512,35.120443],[126.935029,35.121181],[126.934882,35.121126],[126.934769,35.121303],[126.934729,35.121369]]]]},"properties":{"id":"FLD:12210:45:35522","layer":"FLOOD_TRACE","admin_code":"12210","sido_code":"29","flood_year":"2009","occurred_at":"2009-07-16","ended_at":"2009-07-16","begin_time":"0000","end_time":"0000","disaster_name":"집중호우","cause_detail":"집중호우","flood_grade":3,"flood_depth_m":1.368,"flood_area_m2":31413.1,"source_sn":45,"data_status":"actual","official_data":true,"is_prediction":false,"source":"행정안전부 침수흔적도 · 재난안전데이터공유플랫폼 DSSP-IF-00117","collected_at":"2026-08-19T16:46:51+09:00","source_crs":"EPSG:3857","display_badges":["행안부 침수흔적도","과거 기록"]}},{"type":"Feature","id":"FLD:12210:46:35523","geometry":{"type":"MultiPolygon","coordinates":[[[[126.935931,35.120427],[126.936617,35.120678],[126.936549,35.121371],[126.93576,35.121783],[126.935337,35.121693],[126.935274,35.121648],[126.935719,35.120964],[126.935931,35.120427]]]]},"properties":{"id":"FLD:12210:46:35523","layer":"FLOOD_TRACE","admin_code":"12210","sido_code":"29","flood_year":"2009","occurred_at":"2009-07-16","ended_at":"2009-07-16","begin_time":"0000","end_time":"0000","disaster_name":"집중호우","cause_detail":"집중호우","flood_grade":1,"flood_depth_m":0.457,"flood_area_m2":31413.1,"source_sn":46,"data_status":"actual","official_data":true,"is_prediction":false,"source":"행정안전부 침수흔적도 · 재난안전데이터공유플랫폼 DSSP-IF-00117","collected_at":"2026-08-19T16:46:51+09:00","source_crs":"EPSG:3857","display_badges":["행안부 침수흔적도","과거 기록"]}},{"type":"Feature","id":"FLD:12210:51:35524","geometry":{"type":"MultiPolygon","coordinates":[[[[126.939065,35.09236],[126.939283,35.092473],[126.939396,35.092569],[126.939366,35.092669],[126.93897,35.092854],[126.93894,35.092862],[126.939065,35.09236]]]]},"properties":{"id":"FLD:12210:51:35524","layer":"FLOOD_TRACE","admin_code":"12210","sido_code":"29","flood_year":"2009","occurred_at":"2009-07-16","ended_at":"2009-07-16","begin_time":"0000","end_time":"0000","disaster_name":"집중호우","cause_detail":"집중호우","flood_grade":1,"flood_depth_m":0.434,"flood_area_m2":30255.9,"source_sn":51,"data_status":"actual","official_data":true,"is_prediction":false,"source":"행정안전부 침수흔적도 · 재난안전데이터공유플랫폼 DSSP-IF-00117","collected_at":"2026-08-19T16:46:51+09:00","source_crs":"EPSG:3857","display_badges":["행안부 침수흔적도","과거 기록"]}},{"type":"Feature","id":"FLD:12210:50:35556","geometry":{"type":"MultiPolygon","coordinates":[[[[126.93894,35.092862],[126.938785,35.092905],[126.938285,35.093337],[126.938111,35.093186],[126.938101,35.093037],[126.937945,35.092944],[126.938065,35.092679],[126.938219,35.092619],[126.938397,35.092405],[126.938423,35.092256],[126.938546,35.092102],[126.938596,35.091965],[126.938494,35.091678],[126.938279,35.091329],[126.938391,35.091189],[126.939495,35.091203],[126.939107,35.091511],[126.939105,35.091869],[126.939099,35.091905],[126.939091,35.092138],[126.939082,35.092258],[126.939065,35.09236],[126.93894,35.092862]]]]},"properties":{"id":"FLD:12210:50:35556","layer":"FLOOD_TRACE","admin_code":"12210","sido_code":"29","flood_year":"2009","occurred_at":"2009-07-16","ended_at":"2009-07-16","begin_time":"0000","end_time":"0000","disaster_name":"집중호우","cause_detail":"집중호우","flood_grade":2,"flood_depth_m":0.899,"flood_area_m2":30255.9,"source_sn":50,"data_status":"actual","official_data":true,"is_prediction":false,"source":"행정안전부 침수흔적도 · 재난안전데이터공유플랫폼 DSSP-IF-00117","collected_at":"2026-08-19T16:46:51+09:00","source_crs":"EPSG:3857","display_badges":["행안부 침수흔적도","과거 기록"]}},{"type":"Feature","id":"FLD:12210:49:35557","geometry":{"type":"MultiPolygon","coordinates":[[[[126.939495,35.091203],[126.940052,35.091209],[126.940486,35.091722],[126.940404,35.091801],[126.940606,35.092017],[126.940637,35.092058],[126.939758,35.092486],[126.939708,35.092481],[126.939557,35.092467],[126.939342,35.092385],[126.939194,35.092311],[126.939082,35.092258],[126.939091,35.092138],[126.939099,35.091905],[126.939105,35.091869],[126.939107,35.091511],[126.939495,35.091203]]]]},"properties":{"id":"FLD:12210:49:35557","layer":"FLOOD_TRACE","admin_code":"12210","sido_code":"29","flood_year":"2009","occurred_at":"2009-07-16","ended_at":"2009-07-16","begin_time":"0000","end_time":"0000","disaster_name":"집중호우","cause_detail":"집중호우","flood_grade":1,"flood_depth_m":0.427,"flood_area_m2":30255.9,"source_sn":49,"data_status":"actual","official_data":true,"is_prediction":false,"source":"행정안전부 침수흔적도 · 재난안전데이터공유플랫폼 DSSP-IF-00117","collected_at":"2026-08-19T16:46:51+09:00","source_crs":"EPSG:3857","display_badges":["행안부 침수흔적도","과거 기록"]}}]}