{"type":"FeatureCollection","features":[{"type":"Feature","id":"FLD:51780:1575:12260","geometry":{"type":"MultiPolygon","coordinates":[[[[127.341143,38.289229],[127.341102,38.289328],[127.340781,38.289759],[127.34038,38.289606],[127.340206,38.289606],[127.33995,38.289385],[127.339435,38.289186],[127.339217,38.289112],[127.338552,38.288874],[127.338222,38.288757],[127.337871,38.288654],[127.33751,38.288542],[127.337175,38.288438],[127.336798,38.288303],[127.336548,38.288206],[127.336247,38.288057],[127.335941,38.287918],[127.335632,38.287765],[127.335309,38.287605],[127.335002,38.287455],[127.33428,38.287194],[127.333869,38.286998],[127.333615,38.286874],[127.333397,38.286763],[127.333176,38.286658],[127.332882,38.286511],[127.332952,38.286412],[127.332992,38.286027],[127.332877,38.285892],[127.339661,38.288737],[127.341143,38.289229]]]]},"properties":{"id":"FLD:51780:1575:12260","layer":"FLOOD_TRACE","admin_code":"51780","sido_code":"42","flood_year":"2020","occurred_at":"2020-08-01","ended_at":"2020-08-06","begin_time":"0900","end_time":"0900","disaster_name":"8월 집중호우","cause_detail":"집중호우로 인한 하천범람","flood_grade":1,"flood_depth_m":0.336,"flood_area_m2":1699530.4,"source_sn":1575,"data_status":"actual","official_data":true,"is_prediction":false,"source":"행정안전부 침수흔적도 · 재난안전데이터공유플랫폼 DSSP-IF-00117","collected_at":"2026-08-19T16:46:51+09:00","source_crs":"EPSG:3857","display_badges":["행안부 침수흔적도","과거 기록"]}},{"type":"Feature","id":"FLD:51780:1562:12261","geometry":{"type":"MultiPolygon","coordinates":[[[[127.318758,38.279988],[127.31977,38.280495],[127.320026,38.280216],[127.320726,38.280692],[127.321238,38.280965],[127.32151,38.281236],[127.321475,38.281329],[127.321267,38.281233],[127.320048,38.282953],[127.318259,38.282703],[127.317095,38.282461],[127.318007,38.281105],[127.318758,38.279988]]]]},"properties":{"id":"FLD:51780:1562:12261","layer":"FLOOD_TRACE","admin_code":"51780","sido_code":"42","flood_year":"2020","occurred_at":"2020-08-01","ended_at":"2020-08-06","begin_time":"0900","end_time":"0900","disaster_name":"8월 집중호우","cause_detail":"집중호우로 인한 하천범람","flood_grade":5,"flood_depth_m":2.439,"flood_area_m2":1699530.4,"source_sn":1562,"data_status":"actual","official_data":true,"is_prediction":false,"source":"행정안전부 침수흔적도 · 재난안전데이터공유플랫폼 DSSP-IF-00117","collected_at":"2026-08-19T16:46:51+09:00","source_crs":"EPSG:3857","display_badges":["행안부 침수흔적도","과거 기록"]}},{"type":"Feature","id":"FLD:51780:1560:12262","geometry":{"type":"MultiPolygon","coordinates":[[[[127.341996,38.290241],[127.342048,38.290186],[127.342061,38.289563],[127.342624,38.289774],[127.343063,38.289935],[127.343705,38.290172],[127.344003,38.290321],[127.34426,38.290534],[127.344762,38.290912],[127.344976,38.291068],[127.345262,38.291286],[127.345751,38.291663],[127.345995,38.29185],[127.346387,38.292148],[127.346143,38.292398],[127.346103,38.292883],[127.34594,38.292775],[127.345582,38.292538],[127.345328,38.292372],[127.345026,38.292172],[127.344719,38.291966],[127.344493,38.291817],[127.344155,38.291592],[127.343919,38.291435],[127.343633,38.291244],[127.343345,38.29105],[127.343129,38.290904],[127.342834,38.290703],[127.342518,38.290488],[127.342292,38.290336],[127.341996,38.290241]]]]},"properties":{"id":"FLD:51780:1560:12262","layer":"FLOOD_TRACE","admin_code":"51780","sido_code":"42","flood_year":"2020","occurred_at":"2020-08-01","ended_at":"2020-08-06","begin_time":"0900","end_time":"0900","disaster_name":"8월 집중호우","cause_detail":"집중호우로 인한 하천범람","flood_grade":1,"flood_depth_m":0.086,"flood_area_m2":1699530.4,"source_sn":1560,"data_status":"actual","official_data":true,"is_prediction":false,"source":"행정안전부 침수흔적도 · 재난안전데이터공유플랫폼 DSSP-IF-00117","collected_at":"2026-08-19T16:46:51+09:00","source_crs":"EPSG:3857","display_badges":["행안부 침수흔적도","과거 기록"]}},{"type":"Feature","id":"FLD:51780:1572:12263","geometry":{"type":"MultiPolygon","coordinates":[[[[127.331266,38.288739],[127.332186,38.288208],[127.333029,38.287803],[127.333518,38.287575],[127.333578,38.287682],[127.333706,38.287844],[127.333893,38.288055],[127.334167,38.288268],[127.334575,38.288413],[127.334882,38.288619],[127.335143,38.288719],[127.335277,38.288781],[127.335743,38.289098],[127.336206,38.289444],[127.3365,38.289573],[127.335861,38.289867],[127.335385,38.290509],[127.334818,38.290267],[127.333258,38.289599],[127.331266,38.288739]]]]},"properties":{"id":"FLD:51780:1572:12263","layer":"FLOOD_TRACE","admin_code":"51780","sido_code":"42","flood_year":"2020","occurred_at":"2020-08-01","ended_at":"2020-08-06","begin_time":"0900","end_time":"0900","disaster_name":"8월 집중호우","cause_detail":"집중호우로 인한 하천범람","flood_grade":2,"flood_depth_m":1.515,"flood_area_m2":1699530.4,"source_sn":1572,"data_status":"actual","official_data":true,"is_prediction":false,"source":"행정안전부 침수흔적도 · 재난안전데이터공유플랫폼 DSSP-IF-00117","collected_at":"2026-08-19T16:46:51+09:00","source_crs":"EPSG:3857","display_badges":["행안부 침수흔적도","과거 기록"]}},{"type":"Feature","id":"FLD:51780:1569:12264","geometry":{"type":"MultiPolygon","coordinates":[[[[127.31516,38.27821],[127.315985,38.278615],[127.316091,38.27866],[127.31691,38.279078],[127.317391,38.279326],[127.318024,38.279624],[127.318758,38.279988],[127.318007,38.281105],[127.317624,38.280752],[127.317381,38.280439],[127.315987,38.27968],[127.315656,38.279038],[127.315374,38.278996],[127.315136,38.279367],[127.314891,38.279523],[127.314499,38.27975],[127.314132,38.279937],[127.313919,38.279988],[127.314566,38.279046],[127.314803,38.278706],[127.31516,38.27821]]]]},"properties":{"id":"FLD:51780:1569:12264","layer":"FLOOD_TRACE","admin_code":"51780","sido_code":"42","flood_year":"2020","occurred_at":"2020-08-01","ended_at":"2020-08-06","begin_time":"0900","end_time":"0900","disaster_name":"8월 집중호우","cause_detail":"집중호우로 인한 하천범람","flood_grade":5,"flood_depth_m":2.923,"flood_area_m2":1699530.4,"source_sn":1569,"data_status":"actual","official_data":true,"is_prediction":false,"source":"행정안전부 침수흔적도 · 재난안전데이터공유플랫폼 DSSP-IF-00117","collected_at":"2026-08-19T16:46:51+09:00","source_crs":"EPSG:3857","display_badges":["행안부 침수흔적도","과거 기록"]}},{"type":"Feature","id":"FLD:51780:1564:12265","geometry":{"type":"MultiPolygon","coordinates":[[[[127.312766,38.280557],[127.311208,38.279922],[127.310769,38.279736],[127.310035,38.2794],[127.309952,38.279367],[127.310332,38.279016],[127.310523,38.278947],[127.311003,38.278541],[127.311212,38.278259],[127.311265,38.278177],[127.311493,38.278089],[127.311639,38.277859],[127.311785,38.277447],[127.311922,38.277089],[127.312093,38.276741],[127.312278,38.276428],[127.31241,38.276004],[127.313407,38.276461],[127.314017,38.275718],[127.314263,38.275436],[127.314992,38.275882],[127.316273,38.276689],[127.316073,38.276922],[127.315829,38.277228],[127.315595,38.277558],[127.31516,38.27821],[127.314803,38.278706],[127.314566,38.279046],[127.313919,38.279988],[127.313384,38.280809],[127.312766,38.280557]]]]},"properties":{"id":"FLD:51780:1564:12265","layer":"FLOOD_TRACE","admin_code":"51780","sido_code":"42","flood_year":"2020","occurred_at":"2020-08-01","ended_at":"2020-08-06","begin_time":"0900","end_time":"0900","disaster_name":"8월 집중호우","cause_detail":"집중호우로 인한 하천범람","flood_grade":6,"flood_depth_m":4.488,"flood_area_m2":1699530.4,"source_sn":1564,"data_status":"actual","official_data":true,"is_prediction":false,"source":"행정안전부 침수흔적도 · 재난안전데이터공유플랫폼 DSSP-IF-00117","collected_at":"2026-08-19T16:46:51+09:00","source_crs":"EPSG:3857","display_badges":["행안부 침수흔적도","과거 기록"]}},{"type":"Feature","id":"FLD:51780:1563:12266","geometry":{"type":"MultiPolygon","coordinates":[[[[127.321331,38.286205],[127.321417,38.286102],[127.32174,38.285609],[127.321988,38.285248],[127.322245,38.284874],[127.322449,38.284575],[127.32278,38.2841],[127.32301,38.284173],[127.32351,38.284418],[127.32519,38.284732],[127.327657,38.285171],[127.329207,38.285451],[127.330114,38.285619],[127.330073,38.285725],[127.329462,38.286651],[127.328748,38.287665],[127.328434,38.288134],[127.327821,38.289137],[127.322319,38.286779],[127.32172,38.287733],[127.321331,38.286205]]]]},"properties":{"id":"FLD:51780:1563:12266","layer":"FLOOD_TRACE","admin_code":"51780","sido_code":"42","flood_year":"2020","occurred_at":"2020-08-01","ended_at":"2020-08-06","begin_time":"0900","end_time":"0900","disaster_name":"8월 집중호우","cause_detail":"집중호우로 인한 하천범람","flood_grade":3,"flood_depth_m":1.185,"flood_area_m2":1699530.4,"source_sn":1563,"data_status":"actual","official_data":true,"is_prediction":false,"source":"행정안전부 침수흔적도 · 재난안전데이터공유플랫폼 DSSP-IF-00117","collected_at":"2026-08-19T16:46:51+09:00","source_crs":"EPSG:3857","display_badges":["행안부 침수흔적도","과거 기록"]}},{"type":"Feature","id":"FLD:51780:1578:13423","geometry":{"type":"MultiPolygon","coordinates":[[[[127.332877,38.285892],[127.332992,38.286027],[127.332952,38.286412],[127.332882,38.286511],[127.330789,38.285837],[127.330114,38.285619],[127.329207,38.285451],[127.327657,38.285171],[127.32519,38.284732],[127.32351,38.284418],[127.32301,38.284173],[127.323264,38.28379],[127.3234,38.28359],[127.323,38.282471],[127.322554,38.281758],[127.322102,38.281623],[127.321786,38.281495],[127.322484,38.280584],[127.324241,38.281487],[127.325787,38.282282],[127.328079,38.283444],[127.329813,38.284327],[127.33169,38.285286],[127.332877,38.285892]]]]},"properties":{"id":"FLD:51780:1578:13423","layer":"FLOOD_TRACE","admin_code":"51780","sido_code":"42","flood_year":"2020","occurred_at":"2020-08-01","ended_at":"2020-08-06","begin_time":"0900","end_time":"0900","disaster_name":"8월 집중호우","cause_detail":"집중호우로 인한 하천범람","flood_grade":5,"flood_depth_m":2.637,"flood_area_m2":1699530.4,"source_sn":1578,"data_status":"actual","official_data":true,"is_prediction":false,"source":"행정안전부 침수흔적도 · 재난안전데이터공유플랫폼 DSSP-IF-00117","collected_at":"2026-08-19T16:46:51+09:00","source_crs":"EPSG:3857","display_badges":["행안부 침수흔적도","과거 기록"]}},{"type":"Feature","id":"FLD:51780:1581:13424","geometry":{"type":"MultiPolygon","coordinates":[[[[127.314263,38.275436],[127.314017,38.275718],[127.313407,38.276461],[127.31241,38.276004],[127.312517,38.27559],[127.312302,38.275085],[127.312472,38.274559],[127.312539,38.274274],[127.313249,38.274754],[127.313848,38.275182],[127.314263,38.275436]]]]},"properties":{"id":"FLD:51780:1581:13424","layer":"FLOOD_TRACE","admin_code":"51780","sido_code":"42","flood_year":"2020","occurred_at":"2020-08-01","ended_at":"2020-08-06","begin_time":"0900","end_time":"0900","disaster_name":"8월 집중호우","cause_detail":"집중호우로 인한 하천범람","flood_grade":6,"flood_depth_m":3.591,"flood_area_m2":1699530.4,"source_sn":1581,"data_status":"actual","official_data":true,"is_prediction":false,"source":"행정안전부 침수흔적도 · 재난안전데이터공유플랫폼 DSSP-IF-00117","collected_at":"2026-08-19T16:46:51+09:00","source_crs":"EPSG:3857","display_badges":["행안부 침수흔적도","과거 기록"]}},{"type":"Feature","id":"FLD:51780:1554:13934","geometry":{"type":"MultiPolygon","coordinates":[[[[127.452425,38.282819],[127.45227,38.282543],[127.45215,38.282332],[127.452068,38.282187],[127.451955,38.281944],[127.451242,38.280686],[127.451638,38.280521],[127.451806,38.280712],[127.45194,38.280874],[127.452073,38.281037],[127.452317,38.281304],[127.45265,38.281677],[127.453238,38.282224],[127.452829,38.282375],[127.452491,38.28279],[127.452425,38.282819]]]]},"properties":{"id":"FLD:51780:1554:13934","layer":"FLOOD_TRACE","admin_code":"51780","sido_code":"42","flood_year":"2020","occurred_at":"2020-08-01","ended_at":"2020-08-06","begin_time":"0900","end_time":"0900","disaster_name":"8월 집중호우","cause_detail":"집중호우로 인한 하천범람","flood_grade":3,"flood_depth_m":1.096,"flood_area_m2":53682.6,"source_sn":1554,"data_status":"actual","official_data":true,"is_prediction":false,"source":"행정안전부 침수흔적도 · 재난안전데이터공유플랫폼 DSSP-IF-00117","collected_at":"2026-08-19T16:46:51+09:00","source_crs":"EPSG:3857","display_badges":["행안부 침수흔적도","과거 기록"]}},{"type":"Feature","id":"FLD:51780:1557:13935","geometry":{"type":"MultiPolygon","coordinates":[[[[127.450588,38.279531],[127.450365,38.279126],[127.450457,38.27912],[127.450617,38.279084],[127.450668,38.279155],[127.450826,38.279331],[127.451034,38.279669],[127.451136,38.279817],[127.45134,38.280101],[127.45159,38.280466],[127.451638,38.280521],[127.451242,38.280686],[127.450648,38.279639],[127.450588,38.279531]]]]},"properties":{"id":"FLD:51780:1557:13935","layer":"FLOOD_TRACE","admin_code":"51780","sido_code":"42","flood_year":"2020","occurred_at":"2020-08-01","ended_at":"2020-08-06","begin_time":"0900","end_time":"0900","disaster_name":"8월 집중호우","cause_detail":"집중호우로 인한 하천범람","flood_grade":1,"flood_depth_m":0.348,"flood_area_m2":53682.6,"source_sn":1557,"data_status":"actual","official_data":true,"is_prediction":false,"source":"행정안전부 침수흔적도 · 재난안전데이터공유플랫폼 DSSP-IF-00117","collected_at":"2026-08-19T16:46:51+09:00","source_crs":"EPSG:3857","display_badges":["행안부 침수흔적도","과거 기록"]}},{"type":"Feature","id":"FLD:51780:1556:13936","geometry":{"type":"MultiPolygon","coordinates":[[[[127.450234,38.279668],[127.450588,38.279531],[127.450648,38.279639],[127.451242,38.280686],[127.451955,38.281944],[127.451519,38.282127],[127.451111,38.282279],[127.451012,38.282328],[127.450875,38.28202],[127.450765,38.28181],[127.450694,38.281828],[127.450631,38.281759],[127.450558,38.281607],[127.450457,38.281428],[127.45025,38.281505],[127.450251,38.281066],[127.450128,38.28077],[127.450441,38.280652],[127.450636,38.280583],[127.450155,38.279714],[127.450234,38.279668]]]]},"properties":{"id":"FLD:51780:1556:13936","layer":"FLOOD_TRACE","admin_code":"51780","sido_code":"42","flood_year":"2020","occurred_at":"2020-08-01","ended_at":"2020-08-06","begin_time":"0900","end_time":"0900","disaster_name":"8월 집중호우","cause_detail":"집중호우로 인한 하천범람","flood_grade":2,"flood_depth_m":0.602,"flood_area_m2":53682.6,"source_sn":1556,"data_status":"actual","official_data":true,"is_prediction":false,"source":"행정안전부 침수흔적도 · 재난안전데이터공유플랫폼 DSSP-IF-00117","collected_at":"2026-08-19T16:46:51+09:00","source_crs":"EPSG:3857","display_badges":["행안부 침수흔적도","과거 기록"]}},{"type":"Feature","id":"FLD:51780:1555:13937","geometry":{"type":"MultiPolygon","coordinates":[[[[127.451111,38.282279],[127.451519,38.282127],[127.451955,38.281944],[127.452068,38.282187],[127.45215,38.282332],[127.45227,38.282543],[127.452425,38.282819],[127.452339,38.282841],[127.452,38.283022],[127.45168,38.283149],[127.451532,38.282918],[127.451111,38.282279]]]]},"properties":{"id":"FLD:51780:1555:13937","layer":"FLOOD_TRACE","admin_code":"51780","sido_code":"42","flood_year":"2020","occurred_at":"2020-08-01","ended_at":"2020-08-06","begin_time":"0900","end_time":"0900","disaster_name":"8월 집중호우","cause_detail":"집중호우로 인한 하천범람","flood_grade":1,"flood_depth_m":0.333,"flood_area_m2":53682.6,"source_sn":1555,"data_status":"actual","official_data":true,"is_prediction":false,"source":"행정안전부 침수흔적도 · 재난안전데이터공유플랫폼 DSSP-IF-00117","collected_at":"2026-08-19T16:46:51+09:00","source_crs":"EPSG:3857","display_badges":["행안부 침수흔적도","과거 기록"]}},{"type":"Feature","id":"FLD:51780:1558:13938","geometry":{"type":"MultiPolygon","coordinates":[[[[127.450365,38.279126],[127.450588,38.279531],[127.450234,38.279668],[127.45006,38.27905],[127.450202,38.279015],[127.45027,38.279133],[127.450365,38.279126]]]]},"properties":{"id":"FLD:51780:1558:13938","layer":"FLOOD_TRACE","admin_code":"51780","sido_code":"42","flood_year":"2020","occurred_at":"2020-08-01","ended_at":"2020-08-06","begin_time":"0900","end_time":"0900","disaster_name":"8월 집중호우","cause_detail":"집중호우로 인한 하천범람","flood_grade":2,"flood_depth_m":0.888,"flood_area_m2":53682.6,"source_sn":1558,"data_status":"actual","official_data":true,"is_prediction":false,"source":"행정안전부 침수흔적도 · 재난안전데이터공유플랫폼 DSSP-IF-00117","collected_at":"2026-08-19T16:46:51+09:00","source_crs":"EPSG:3857","display_badges":["행안부 침수흔적도","과거 기록"]}},{"type":"Feature","id":"FLD:51780:1573:13939","geometry":{"type":"MultiPolygon","coordinates":[[[[127.322484,38.280584],[127.321786,38.281495],[127.321475,38.281329],[127.32151,38.281236],[127.321238,38.280965],[127.320726,38.280692],[127.320026,38.280216],[127.31977,38.280495],[127.318758,38.279988],[127.319056,38.279532],[127.319415,38.279031],[127.319602,38.278788],[127.320387,38.279283],[127.322484,38.280584]]]]},"properties":{"id":"FLD:51780:1573:13939","layer":"FLOOD_TRACE","admin_code":"51780","sido_code":"42","flood_year":"2020","occurred_at":"2020-08-01","ended_at":"2020-08-06","begin_time":"0900","end_time":"0900","disaster_name":"8월 집중호우","cause_detail":"집중호우로 인한 하천범람","flood_grade":5,"flood_depth_m":2.771,"flood_area_m2":1699530.4,"source_sn":1573,"data_status":"actual","official_data":true,"is_prediction":false,"source":"행정안전부 침수흔적도 · 재난안전데이터공유플랫폼 DSSP-IF-00117","collected_at":"2026-08-19T16:46:51+09:00","source_crs":"EPSG:3857","display_badges":["행안부 침수흔적도","과거 기록"]}},{"type":"Feature","id":"FLD:51780:1561:13980","geometry":{"type":"MultiPolygon","coordinates":[[[[127.346103,38.292883],[127.346143,38.292398],[127.346387,38.292148],[127.346757,38.292417],[127.347248,38.292794],[127.347741,38.293167],[127.348244,38.293549],[127.348626,38.293847],[127.348283,38.294375],[127.348164,38.294324],[127.347957,38.294169],[127.347671,38.293959],[127.34737,38.293745],[127.347049,38.29352],[127.346847,38.293382],[127.34643,38.293102],[127.346103,38.292883]]]]},"properties":{"id":"FLD:51780:1561:13980","layer":"FLOOD_TRACE","admin_code":"51780","sido_code":"42","flood_year":"2020","occurred_at":"2020-08-01","ended_at":"2020-08-06","begin_time":"0900","end_time":"0900","disaster_name":"8월 집중호우","cause_detail":"집중호우로 인한 하천범람","flood_grade":3,"flood_depth_m":1.043,"flood_area_m2":1699530.4,"source_sn":1561,"data_status":"actual","official_data":true,"is_prediction":false,"source":"행정안전부 침수흔적도 · 재난안전데이터공유플랫폼 DSSP-IF-00117","collected_at":"2026-08-19T16:46:51+09:00","source_crs":"EPSG:3857","display_badges":["행안부 침수흔적도","과거 기록"]}},{"type":"Feature","id":"FLD:51780:1568:13981","geometry":{"type":"MultiPolygon","coordinates":[[[[127.320048,38.282953],[127.321267,38.281233],[127.321475,38.281329],[127.321786,38.281495],[127.322102,38.281623],[127.322554,38.281758],[127.323,38.282471],[127.3234,38.28359],[127.323264,38.28379],[127.32301,38.284173],[127.32278,38.2841],[127.322266,38.283955],[127.321864,38.28379],[127.321385,38.283597],[127.321178,38.28351],[127.320693,38.283302],[127.320048,38.282953]]]]},"properties":{"id":"FLD:51780:1568:13981","layer":"FLOOD_TRACE","admin_code":"51780","sido_code":"42","flood_year":"2020","occurred_at":"2020-08-01","ended_at":"2020-08-06","begin_time":"0900","end_time":"0900","disaster_name":"8월 집중호우","cause_detail":"집중호우로 인한 하천범람","flood_grade":5,"flood_depth_m":2.02,"flood_area_m2":1699530.4,"source_sn":1568,"data_status":"actual","official_data":true,"is_prediction":false,"source":"행정안전부 침수흔적도 · 재난안전데이터공유플랫폼 DSSP-IF-00117","collected_at":"2026-08-19T16:46:51+09:00","source_crs":"EPSG:3857","display_badges":["행안부 침수흔적도","과거 기록"]}},{"type":"Feature","id":"FLD:51780:1559:13982","geometry":{"type":"MultiPolygon","coordinates":[[[[127.313384,38.280809],[127.313919,38.279988],[127.314132,38.279937],[127.314499,38.27975],[127.314891,38.279523],[127.315136,38.279367],[127.315374,38.278996],[127.315656,38.279038],[127.315987,38.27968],[127.317381,38.280439],[127.317624,38.280752],[127.318007,38.281105],[127.317095,38.282461],[127.31659,38.282355],[127.315739,38.281988],[127.314836,38.281597],[127.314106,38.281281],[127.313384,38.280809]]]]},"properties":{"id":"FLD:51780:1559:13982","layer":"FLOOD_TRACE","admin_code":"51780","sido_code":"42","flood_year":"2020","occurred_at":"2020-08-01","ended_at":"2020-08-06","begin_time":"0900","end_time":"0900","disaster_name":"8월 집중호우","cause_detail":"집중호우로 인한 하천범람","flood_grade":6,"flood_depth_m":3.192,"flood_area_m2":1699530.4,"source_sn":1559,"data_status":"actual","official_data":true,"is_prediction":false,"source":"행정안전부 침수흔적도 · 재난안전데이터공유플랫폼 DSSP-IF-00117","collected_at":"2026-08-19T16:46:51+09:00","source_crs":"EPSG:3857","display_badges":["행안부 침수흔적도","과거 기록"]}},{"type":"Feature","id":"FLD:51780:1570:13983","geometry":{"type":"MultiPolygon","coordinates":[[[[127.3365,38.289573],[127.336206,38.289444],[127.335743,38.289098],[127.335277,38.288781],[127.335143,38.288719],[127.334882,38.288619],[127.334575,38.288413],[127.334167,38.288268],[127.333893,38.288055],[127.333706,38.287844],[127.333578,38.287682],[127.333518,38.287575],[127.333894,38.287383],[127.33412,38.287298],[127.33428,38.287194],[127.335002,38.287455],[127.335309,38.287605],[127.335632,38.287765],[127.335941,38.287918],[127.336247,38.288057],[127.336548,38.288206],[127.336798,38.288303],[127.337175,38.288438],[127.33751,38.288542],[127.337871,38.288654],[127.338222,38.288757],[127.338552,38.288874],[127.339217,38.289112],[127.339435,38.289186],[127.33995,38.289385],[127.340206,38.289606],[127.339852,38.290062],[127.33928,38.29006],[127.338701,38.290021],[127.33843,38.289999],[127.337951,38.289958],[127.337565,38.28991],[127.337273,38.289796],[127.336969,38.289697],[127.3365,38.289573]]]]},"properties":{"id":"FLD:51780:1570:13983","layer":"FLOOD_TRACE","admin_code":"51780","sido_code":"42","flood_year":"2020","occurred_at":"2020-08-01","ended_at":"2020-08-06","begin_time":"0900","end_time":"0900","disaster_name":"8월 집중호우","cause_detail":"집중호우로 인한 하천범람","flood_grade":3,"flood_depth_m":1.175,"flood_area_m2":1699530.4,"source_sn":1570,"data_status":"actual","official_data":true,"is_prediction":false,"source":"행정안전부 침수흔적도 · 재난안전데이터공유플랫폼 DSSP-IF-00117","collected_at":"2026-08-19T16:46:51+09:00","source_crs":"EPSG:3857","display_badges":["행안부 침수흔적도","과거 기록"]}},{"type":"Feature","id":"FLD:51780:1577:13984","geometry":{"type":"MultiPolygon","coordinates":[[[[127.319602,38.278788],[127.319415,38.279031],[127.319056,38.279532],[127.318758,38.279988],[127.318024,38.279624],[127.317391,38.279326],[127.31691,38.279078],[127.316091,38.27866],[127.315985,38.278615],[127.31516,38.27821],[127.315595,38.277558],[127.315829,38.277228],[127.316073,38.276922],[127.316273,38.276689],[127.319602,38.278788]]]]},"properties":{"id":"FLD:51780:1577:13984","layer":"FLOOD_TRACE","admin_code":"51780","sido_code":"42","flood_year":"2020","occurred_at":"2020-08-01","ended_at":"2020-08-06","begin_time":"0900","end_time":"0900","disaster_name":"8월 집중호우","cause_detail":"집중호우로 인한 하천범람","flood_grade":2,"flood_depth_m":1.582,"flood_area_m2":1699530.4,"source_sn":1577,"data_status":"actual","official_data":true,"is_prediction":false,"source":"행정안전부 침수흔적도 · 재난안전데이터공유플랫폼 DSSP-IF-00117","collected_at":"2026-08-19T16:46:51+09:00","source_crs":"EPSG:3857","display_badges":["행안부 침수흔적도","과거 기록"]}},{"type":"Feature","id":"FLD:51780:1567:13985","geometry":{"type":"MultiPolygon","coordinates":[[[[127.309952,38.279367],[127.310035,38.2794],[127.310769,38.279736],[127.311208,38.279922],[127.312766,38.280557],[127.312698,38.280669],[127.312584,38.280803],[127.312247,38.281286],[127.311912,38.281764],[127.311677,38.28211],[127.311128,38.282067],[127.310368,38.281992],[127.310029,38.281955],[127.309415,38.281893],[127.309098,38.281866],[127.308858,38.281833],[127.308646,38.281778],[127.308368,38.281625],[127.308243,38.281531],[127.308025,38.281349],[127.307964,38.28129],[127.308194,38.280973],[127.308235,38.280923],[127.308465,38.280763],[127.308547,38.280701],[127.308881,38.280428],[127.309034,38.280307],[127.30914,38.280094],[127.30931,38.279983],[127.309875,38.279439],[127.309952,38.279367]]]]},"properties":{"id":"FLD:51780:1567:13985","layer":"FLOOD_TRACE","admin_code":"51780","sido_code":"42","flood_year":"2020","occurred_at":"2020-08-01","ended_at":"2020-08-06","begin_time":"0900","end_time":"0900","disaster_name":"8월 집중호우","cause_detail":"집중호우로 인한 하천범람","flood_grade":5,"flood_depth_m":2.566,"flood_area_m2":1699530.4,"source_sn":1567,"data_status":"actual","official_data":true,"is_prediction":false,"source":"행정안전부 침수흔적도 · 재난안전데이터공유플랫폼 DSSP-IF-00117","collected_at":"2026-08-19T16:46:51+09:00","source_crs":"EPSG:3857","display_badges":["행안부 침수흔적도","과거 기록"]}},{"type":"Feature","id":"FLD:51780:1565:13986","geometry":{"type":"MultiPolygon","coordinates":[[[[127.339852,38.290062],[127.340206,38.289606],[127.34038,38.289606],[127.340781,38.289759],[127.341102,38.289328],[127.341143,38.289229],[127.341441,38.289334],[127.342061,38.289563],[127.342048,38.290186],[127.341996,38.290241],[127.341603,38.290265],[127.341415,38.290276],[127.340829,38.290156],[127.340442,38.290076],[127.339852,38.290062]]]]},"properties":{"id":"FLD:51780:1565:13986","layer":"FLOOD_TRACE","admin_code":"51780","sido_code":"42","flood_year":"2020","occurred_at":"2020-08-01","ended_at":"2020-08-06","begin_time":"0900","end_time":"0900","disaster_name":"8월 집중호우","cause_detail":"집중호우로 인한 하천범람","flood_grade":2,"flood_depth_m":0.6,"flood_area_m2":1699530.4,"source_sn":1565,"data_status":"actual","official_data":true,"is_prediction":false,"source":"행정안전부 침수흔적도 · 재난안전데이터공유플랫폼 DSSP-IF-00117","collected_at":"2026-08-19T16:46:51+09:00","source_crs":"EPSG:3857","display_badges":["행안부 침수흔적도","과거 기록"]}},{"type":"Feature","id":"FLD:51780:1579:13987","geometry":{"type":"MultiPolygon","coordinates":[[[[127.330874,38.288579],[127.331965,38.287099],[127.332101,38.286916],[127.332641,38.286811],[127.332882,38.286511],[127.333176,38.286658],[127.333397,38.286763],[127.333615,38.286874],[127.333869,38.286998],[127.33428,38.287194],[127.33412,38.287298],[127.333894,38.287383],[127.333518,38.287575],[127.333029,38.287803],[127.332186,38.288208],[127.331266,38.288739],[127.330874,38.288579]]]]},"properties":{"id":"FLD:51780:1579:13987","layer":"FLOOD_TRACE","admin_code":"51780","sido_code":"42","flood_year":"2020","occurred_at":"2020-08-01","ended_at":"2020-08-06","begin_time":"0900","end_time":"0900","disaster_name":"8월 집중호우","cause_detail":"집중호우로 인한 하천범람","flood_grade":1,"flood_depth_m":0.14,"flood_area_m2":1699530.4,"source_sn":1579,"data_status":"actual","official_data":true,"is_prediction":false,"source":"행정안전부 침수흔적도 · 재난안전데이터공유플랫폼 DSSP-IF-00117","collected_at":"2026-08-19T16:46:51+09:00","source_crs":"EPSG:3857","display_badges":["행안부 침수흔적도","과거 기록"]}},{"type":"Feature","id":"FLD:51780:1571:13988","geometry":{"type":"MultiPolygon","coordinates":[[[[127.331965,38.287099],[127.330298,38.286516],[127.330789,38.285837],[127.332882,38.286511],[127.332641,38.286811],[127.332101,38.286916],[127.331965,38.287099]]]]},"properties":{"id":"FLD:51780:1571:13988","layer":"FLOOD_TRACE","admin_code":"51780","sido_code":"42","flood_year":"2020","occurred_at":"2020-08-01","ended_at":"2020-08-06","begin_time":"0900","end_time":"0900","disaster_name":"8월 집중호우","cause_detail":"집중호우로 인한 하천범람","flood_grade":1,"flood_depth_m":0.19,"flood_area_m2":1699530.4,"source_sn":1571,"data_status":"actual","official_data":true,"is_prediction":false,"source":"행정안전부 침수흔적도 · 재난안전데이터공유플랫폼 DSSP-IF-00117","collected_at":"2026-08-19T16:46:51+09:00","source_crs":"EPSG:3857","display_badges":["행안부 침수흔적도","과거 기록"]}},{"type":"Feature","id":"FLD:51780:1580:13989","geometry":{"type":"MultiPolygon","coordinates":[[[[127.327821,38.289137],[127.328434,38.288134],[127.328748,38.287665],[127.329462,38.286651],[127.330073,38.285725],[127.330114,38.285619],[127.330789,38.285837],[127.330298,38.286516],[127.331965,38.287099],[127.330874,38.288579],[127.330807,38.288728],[127.330718,38.288864],[127.329908,38.290032],[127.327821,38.289137]]]]},"properties":{"id":"FLD:51780:1580:13989","layer":"FLOOD_TRACE","admin_code":"51780","sido_code":"42","flood_year":"2020","occurred_at":"2020-08-01","ended_at":"2020-08-06","begin_time":"0900","end_time":"0900","disaster_name":"8월 집중호우","cause_detail":"집중호우로 인한 하천범람","flood_grade":1,"flood_depth_m":0.083,"flood_area_m2":1699530.4,"source_sn":1580,"data_status":"actual","official_data":true,"is_prediction":false,"source":"행정안전부 침수흔적도 · 재난안전데이터공유플랫폼 DSSP-IF-00117","collected_at":"2026-08-19T16:46:51+09:00","source_crs":"EPSG:3857","display_badges":["행안부 침수흔적도","과거 기록"]}},{"type":"Feature","id":"FLD:51780:1576:13990","geometry":{"type":"MultiPolygon","coordinates":[[[[127.315435,38.284729],[127.315596,38.28452],[127.315823,38.284198],[127.316011,38.283925],[127.316231,38.283597],[127.316791,38.282739],[127.316837,38.282665],[127.31674,38.282631],[127.316526,38.282523],[127.31659,38.282355],[127.317095,38.282461],[127.318259,38.282703],[127.320048,38.282953],[127.320693,38.283302],[127.321178,38.28351],[127.321067,38.283697],[127.320937,38.28393],[127.320883,38.284263],[127.320948,38.28459],[127.321036,38.284989],[127.319724,38.286623],[127.318691,38.286158],[127.315435,38.284729]]]]},"properties":{"id":"FLD:51780:1576:13990","layer":"FLOOD_TRACE","admin_code":"51780","sido_code":"42","flood_year":"2020","occurred_at":"2020-08-01","ended_at":"2020-08-06","begin_time":"0900","end_time":"0900","disaster_name":"8월 집중호우","cause_detail":"집중호우로 인한 하천범람","flood_grade":2,"flood_depth_m":1.783,"flood_area_m2":1699530.4,"source_sn":1576,"data_status":"actual","official_data":true,"is_prediction":false,"source":"행정안전부 침수흔적도 · 재난안전데이터공유플랫폼 DSSP-IF-00117","collected_at":"2026-08-19T16:46:51+09:00","source_crs":"EPSG:3857","display_badges":["행안부 침수흔적도","과거 기록"]}},{"type":"Feature","id":"FLD:51780:1574:13991","geometry":{"type":"MultiPolygon","coordinates":[[[[127.321036,38.284989],[127.320948,38.28459],[127.320883,38.284263],[127.320937,38.28393],[127.321067,38.283697],[127.321178,38.28351],[127.321385,38.283597],[127.321864,38.28379],[127.322266,38.283955],[127.32278,38.2841],[127.322449,38.284575],[127.322245,38.284874],[127.321988,38.285248],[127.32174,38.285609],[127.321417,38.286102],[127.321331,38.286205],[127.321102,38.285258],[127.321036,38.284989]]]]},"properties":{"id":"FLD:51780:1574:13991","layer":"FLOOD_TRACE","admin_code":"51780","sido_code":"42","flood_year":"2020","occurred_at":"2020-08-01","ended_at":"2020-08-06","begin_time":"0900","end_time":"0900","disaster_name":"8월 집중호우","cause_detail":"집중호우로 인한 하천범람","flood_grade":2,"flood_depth_m":1.617,"flood_area_m2":1699530.4,"source_sn":1574,"data_status":"actual","official_data":true,"is_prediction":false,"source":"행정안전부 침수흔적도 · 재난안전데이터공유플랫폼 DSSP-IF-00117","collected_at":"2026-08-19T16:46:51+09:00","source_crs":"EPSG:3857","display_badges":["행안부 침수흔적도","과거 기록"]}},{"type":"Feature","id":"FLD:51780:1566:14057","geometry":{"type":"MultiPolygon","coordinates":[[[[127.311677,38.28211],[127.311912,38.281764],[127.312247,38.281286],[127.312584,38.280803],[127.312698,38.280669],[127.312766,38.280557],[127.313384,38.280809],[127.314106,38.281281],[127.314836,38.281597],[127.315739,38.281988],[127.31659,38.282355],[127.316526,38.282523],[127.31674,38.282631],[127.316837,38.282665],[127.316791,38.282739],[127.316231,38.283597],[127.316011,38.283925],[127.315823,38.284198],[127.315596,38.28452],[127.315435,38.284729],[127.31542,38.284657],[127.315283,38.284567],[127.314992,38.284306],[127.314753,38.284127],[127.314518,38.284009],[127.313198,38.28394],[127.312831,38.283608],[127.312374,38.283159],[127.311882,38.282419],[127.31181,38.282168],[127.311677,38.28211]]]]},"properties":{"id":"FLD:51780:1566:14057","layer":"FLOOD_TRACE","admin_code":"51780","sido_code":"42","flood_year":"2020","occurred_at":"2020-08-01","ended_at":"2020-08-06","begin_time":"0900","end_time":"0900","disaster_name":"8월 집중호우","cause_detail":"집중호우로 인한 하천범람","flood_grade":2,"flood_depth_m":1.798,"flood_area_m2":1699530.4,"source_sn":1566,"data_status":"actual","official_data":true,"is_prediction":false,"source":"행정안전부 침수흔적도 · 재난안전데이터공유플랫폼 DSSP-IF-00117","collected_at":"2026-08-19T16:46:51+09:00","source_crs":"EPSG:3857","display_badges":["행안부 침수흔적도","과거 기록"]}}]}