{"type":"FeatureCollection","features":[{"type":"Feature","id":"FLD:28237:5588:19943","geometry":{"type":"MultiPolygon","coordinates":[[[[126.720054,37.507702],[126.717051,37.507892],[126.717019,37.507578],[126.7187,37.507471],[126.718675,37.507218],[126.718765,37.507212],[126.71879,37.507466],[126.720085,37.507384],[126.720054,37.507702]]]]},"properties":{"id":"FLD:28237:5588:19943","layer":"FLOOD_TRACE","admin_code":"28237","sido_code":"28","flood_year":"2022","occurred_at":"2022-08-08","ended_at":"2022-08-08","begin_time":"1200","end_time":"1400","disaster_name":"집중호우","cause_detail":"하수구 범람","flood_grade":6,"flood_depth_m":9490.154,"flood_area_m2":9645.4,"source_sn":5588,"data_status":"actual","official_data":true,"is_prediction":false,"source":"행정안전부 침수흔적도 · 재난안전데이터공유플랫폼 DSSP-IF-00117","collected_at":"2026-08-19T16:46:51+09:00","source_crs":"EPSG:3857","display_badges":["행안부 침수흔적도","과거 기록"]}}]}