{"type":"FeatureCollection","features":[{"type":"Feature","id":"FLD:52800:1485:3202","geometry":{"type":"MultiPolygon","coordinates":[[[[126.510217,35.58243],[126.50998,35.581926],[126.510998,35.581078],[126.511404,35.58154],[126.510962,35.582185],[126.510217,35.58243]]]]},"properties":{"id":"FLD:52800:1485:3202","layer":"FLOOD_TRACE","admin_code":"52800","sido_code":"45","flood_year":"2013","occurred_at":"2013-08-23","ended_at":"2013-08-24","begin_time":"2300","end_time":"0100","disaster_name":"2013년 8.23호우","cause_detail":"집중호우 및 조수간만차","flood_grade":2,"flood_depth_m":0.59,"flood_area_m2":10060,"source_sn":1485,"data_status":"actual","official_data":true,"is_prediction":false,"source":"행정안전부 침수흔적도 · 재난안전데이터공유플랫폼 DSSP-IF-00117","collected_at":"2026-08-19T16:46:51+09:00","source_crs":"EPSG:3857","display_badges":["행안부 침수흔적도","과거 기록"]}},{"type":"Feature","id":"FLD:52800:1488:3203","geometry":{"type":"MultiPolygon","coordinates":[[[[126.573045,35.590477],[126.572621,35.589948],[126.573489,35.589641],[126.573631,35.590124],[126.573468,35.590493],[126.573045,35.590477]]]]},"properties":{"id":"FLD:52800:1488:3203","layer":"FLOOD_TRACE","admin_code":"52800","sido_code":"45","flood_year":"2013","occurred_at":"2013-08-23","ended_at":"2013-08-24","begin_time":"2300","end_time":"0100","disaster_name":"2013년 8.23호우","cause_detail":"집중호우 및 조수간만차","flood_grade":3,"flood_depth_m":1.058,"flood_area_m2":5413,"source_sn":1488,"data_status":"actual","official_data":true,"is_prediction":false,"source":"행정안전부 침수흔적도 · 재난안전데이터공유플랫폼 DSSP-IF-00117","collected_at":"2026-08-19T16:46:51+09:00","source_crs":"EPSG:3857","display_badges":["행안부 침수흔적도","과거 기록"]}},{"type":"Feature","id":"FLD:52800:1487:3204","geometry":{"type":"MultiPolygon","coordinates":[[[[126.607119,35.590209],[126.607397,35.589964],[126.607719,35.589983],[126.60875,35.590159],[126.609466,35.589716],[126.609616,35.589328],[126.609689,35.588925],[126.610055,35.588927],[126.609953,35.590108],[126.608052,35.590444],[126.607542,35.590312],[126.607119,35.590209]]]]},"properties":{"id":"FLD:52800:1487:3204","layer":"FLOOD_TRACE","admin_code":"52800","sido_code":"45","flood_year":"2013","occurred_at":"2013-08-23","ended_at":"2013-08-24","begin_time":"2300","end_time":"0100","disaster_name":"2013년 8.23호우","cause_detail":"집중호우 및 조수간만차","flood_grade":2,"flood_depth_m":0.968,"flood_area_m2":12823,"source_sn":1487,"data_status":"actual","official_data":true,"is_prediction":false,"source":"행정안전부 침수흔적도 · 재난안전데이터공유플랫폼 DSSP-IF-00117","collected_at":"2026-08-19T16:46:51+09:00","source_crs":"EPSG:3857","display_badges":["행안부 침수흔적도","과거 기록"]}},{"type":"Feature","id":"FLD:52800:1486:3205","geometry":{"type":"MultiPolygon","coordinates":[[[[126.604673,35.588363],[126.604662,35.587698],[126.605006,35.587591],[126.605769,35.58803],[126.605514,35.58848],[126.604673,35.588363]]]]},"properties":{"id":"FLD:52800:1486:3205","layer":"FLOOD_TRACE","admin_code":"52800","sido_code":"45","flood_year":"2013","occurred_at":"2013-08-23","ended_at":"2013-08-24","begin_time":"2300","end_time":"0100","disaster_name":"2013년 8.23호우","cause_detail":"집중호우 및 조수간만차","flood_grade":1,"flood_depth_m":0.267,"flood_area_m2":7094,"source_sn":1486,"data_status":"actual","official_data":true,"is_prediction":false,"source":"행정안전부 침수흔적도 · 재난안전데이터공유플랫폼 DSSP-IF-00117","collected_at":"2026-08-19T16:46:51+09:00","source_crs":"EPSG:3857","display_badges":["행안부 침수흔적도","과거 기록"]}},{"type":"Feature","id":"FLD:52800:10:4387","geometry":{"type":"MultiPolygon","coordinates":[[[[126.684644,35.587358],[126.68493,35.587627],[126.68486,35.587681],[126.68404,35.588272],[126.684001,35.588303],[126.683708,35.588036],[126.682878,35.588635],[126.682583,35.588367],[126.682531,35.588411],[126.682402,35.588557],[126.682366,35.588612],[126.682147,35.588688],[126.682671,35.589095],[126.682653,35.589108],[126.682602,35.589104],[126.682513,35.589097],[126.682417,35.589152],[126.68236,35.589202],[126.682332,35.589254],[126.682115,35.589212],[126.682014,35.589226],[126.681922,35.589259],[126.681812,35.5893],[126.68177,35.589316],[126.681682,35.589376],[126.681636,35.589418],[126.681613,35.58943],[126.681579,35.589435],[126.681518,35.589331],[126.681518,35.589305],[126.681522,35.589271],[126.681487,35.589208],[126.681485,35.589167],[126.68149,35.58915],[126.681503,35.589144],[126.681555,35.589122],[126.681554,35.589098],[126.681536,35.589045],[126.681535,35.589038],[126.681554,35.589032],[126.681519,35.588959],[126.681563,35.588957],[126.681542,35.5889],[126.681548,35.588824],[126.681579,35.588743],[126.68162,35.588632],[126.6816,35.588625],[126.681624,35.588535],[126.681575,35.588473],[126.681431,35.588406],[126.681304,35.588393],[126.681183,35.588395],[126.681086,35.588393],[126.681054,35.588397],[126.680961,35.588405],[126.680748,35.588422],[126.680642,35.588448],[126.680536,35.58847],[126.680505,35.58846],[126.680424,35.588474],[126.680261,35.588522],[126.680212,35.588533],[126.680138,35.588545],[126.679609,35.588557],[126.679121,35.588568],[126.678953,35.588572],[126.678493,35.588584],[126.678273,35.588618],[126.678251,35.588648],[126.678197,35.588698],[126.678121,35.588555],[126.678085,35.588505],[126.678036,35.588441],[126.678025,35.588424],[126.678013,35.588402],[126.677989,35.588354],[126.677916,35.5882],[126.677905,35.588208],[126.677881,35.588142],[126.677854,35.587988],[126.677985,35.587971],[126.678059,35.587956],[126.678254,35.587859],[126.678187,35.587681],[126.678172,35.587636],[126.67815,35.587586],[126.678091,35.587472],[126.678061,35.587348],[126.678054,35.587256],[126.678018,35.587161],[126.67798,35.587074],[126.677981,35.587005],[126.67776,35.586651],[126.677722,35.586543],[126.67772,35.586419],[126.677685,35.586305],[126.677663,35.586166],[126.67764,35.586125],[126.677479,35.585926],[126.677355,35.585919],[126.677352,35.585892],[126.677341,35.585841],[126.677512,35.585836],[126.677787,35.585821],[126.678226,35.58579],[126.678294,35.58574],[126.678516,35.585728],[126.678715,35.58576],[126.678939,35.585887],[126.679159,35.586054],[126.679189,35.586049],[126.679315,35.585932],[126.679424,35.585711],[126.679467,35.585579],[126.6795,35.58553],[126.679639,35.5856],[126.679743,35.585621],[126.679788,35.585558],[126.679797,35.585479],[126.679808,35.585363],[126.679863,35.585274],[126.679898,35.585161],[126.680097,35.585111],[126.680112,35.585099],[126.680213,35.585065],[126.680483,35.585041],[126.680684,35.585027],[126.680724,35.585037],[126.6808,35.584992],[126.680809,35.584989],[126.680802,35.584974],[126.680885,35.584951],[126.680923,35.584956],[126.680987,35.584956],[126.681165,35.584994],[126.681265,35.584973],[126.681314,35.584994],[126.681364,35.585001],[126.681386,35.585033],[126.681432,35.585032],[126.681453,35.585039],[126.681485,35.585039],[126.681532,35.585038],[126.681599,35.585021],[126.681605,35.585268],[126.68167,35.585268],[126.682754,35.585347],[126.682845,35.58536],[126.68277,35.586081],[126.683867,35.586156],[126.683928,35.586163],[126.684759,35.586217],[126.684818,35.586185],[126.684953,35.58587],[126.685113,35.585836],[126.685166,35.58587],[126.685311,35.585902],[126.685148,35.586362],[126.685233,35.586372],[126.685553,35.586684],[126.685464,35.586765],[126.684644,35.587358]]]]},"properties":{"id":"FLD:52800:10:4387","layer":"FLOOD_TRACE","admin_code":"52800","sido_code":"45","flood_year":"2005","occurred_at":"2005-08-02","ended_at":"2005-08-03","begin_time":"0000","end_time":"0000","disaster_name":"2005. 08. 02 ~ 2005.08. 03 집중호우","cause_detail":"저지대 및 배수불량(하수관거 병목현상)","flood_grade":2,"flood_depth_m":0.55,"flood_area_m2":110262,"source_sn":10,"data_status":"actual","official_data":true,"is_prediction":false,"source":"행정안전부 침수흔적도 · 재난안전데이터공유플랫폼 DSSP-IF-00117","collected_at":"2026-08-19T16:46:51+09:00","source_crs":"EPSG:3857","display_badges":["행안부 침수흔적도","과거 기록"]}},{"type":"Feature","id":"FLD:52800:4:4398","geometry":{"type":"MultiPolygon","coordinates":[[[[126.678091,35.587472],[126.67815,35.587586],[126.678172,35.587636],[126.678187,35.587681],[126.678254,35.587859],[126.678059,35.587956],[126.677985,35.587971],[126.677854,35.587988],[126.677881,35.588142],[126.677905,35.588208],[126.677916,35.5882],[126.677989,35.588354],[126.678013,35.588402],[126.678031,35.588435],[126.678085,35.588505],[126.678121,35.588555],[126.678197,35.588698],[126.678219,35.588756],[126.678265,35.588855],[126.678289,35.588932],[126.678304,35.589077],[126.678297,35.589119],[126.678281,35.589151],[126.678254,35.589151],[126.678235,35.58916],[126.678091,35.589156],[126.677978,35.589157],[126.677854,35.589168],[126.677752,35.589181],[126.677589,35.589191],[126.677423,35.589198],[126.677323,35.589197],[126.677301,35.589163],[126.677293,35.589115],[126.677342,35.589033],[126.677297,35.588692],[126.677206,35.588627],[126.676894,35.588672],[126.676836,35.588681],[126.67649,35.588732],[126.675361,35.588893],[126.675283,35.588904],[126.675202,35.588902],[126.675162,35.588528],[126.675113,35.58834],[126.67486,35.587339],[126.674704,35.586779],[126.674639,35.586545],[126.674621,35.586436],[126.674622,35.586365],[126.67465,35.586326],[126.674692,35.586302],[126.674753,35.586283],[126.675292,35.586067],[126.675518,35.586126],[126.675925,35.58614],[126.676006,35.586126],[126.676041,35.586102],[126.676136,35.586067],[126.676536,35.585964],[126.676705,35.58594],[126.676805,35.585943],[126.676858,35.58592],[126.677127,35.585804],[126.677168,35.585819],[126.677205,35.585864],[126.677239,35.585865],[126.677352,35.585892],[126.677355,35.585919],[126.677479,35.585926],[126.67764,35.586125],[126.677663,35.586166],[126.677685,35.586305],[126.67772,35.586419],[126.677722,35.586543],[126.67776,35.586651],[126.677981,35.587005],[126.67798,35.587074],[126.678018,35.587161],[126.678054,35.587256],[126.678061,35.587348],[126.678091,35.587472]]]]},"properties":{"id":"FLD:52800:4:4398","layer":"FLOOD_TRACE","admin_code":"52800","sido_code":"45","flood_year":"2005","occurred_at":"2005-08-02","ended_at":"2005-08-03","begin_time":"0000","end_time":"0000","disaster_name":"2005. 08. 02 ~ 2005.08. 03 집중호우","cause_detail":"저지대 및 배수불량(하수관거 병목현상)","flood_grade":1,"flood_depth_m":0.2,"flood_area_m2":110262,"source_sn":4,"data_status":"actual","official_data":true,"is_prediction":false,"source":"행정안전부 침수흔적도 · 재난안전데이터공유플랫폼 DSSP-IF-00117","collected_at":"2026-08-19T16:46:51+09:00","source_crs":"EPSG:3857","display_badges":["행안부 침수흔적도","과거 기록"]}},{"type":"Feature","id":"FLD:52800:14:4420","geometry":{"type":"MultiPolygon","coordinates":[[[[126.689549,35.588431],[126.68976,35.588759],[126.689901,35.589095],[126.689912,35.589149],[126.690077,35.589334],[126.690046,35.589354],[126.690009,35.589321],[126.689817,35.589465],[126.689586,35.589636],[126.68956,35.589655],[126.689115,35.589991],[126.689068,35.590026],[126.689026,35.589939],[126.688994,35.589952],[126.68896,35.589966],[126.688957,35.58985],[126.688977,35.589738],[126.688898,35.58961],[126.688722,35.589551],[126.688599,35.589505],[126.688504,35.589472],[126.688444,35.589427],[126.688389,35.589398],[126.688335,35.589313],[126.688267,35.589285],[126.688185,35.58928],[126.688105,35.589239],[126.688066,35.589249],[126.687963,35.58919],[126.687802,35.589143],[126.687779,35.589112],[126.687745,35.589115],[126.687641,35.589096],[126.687587,35.589073],[126.687495,35.589072],[126.687357,35.589038],[126.687227,35.589027],[126.687091,35.588985],[126.686734,35.588855],[126.686577,35.588739],[126.686433,35.588697],[126.686363,35.588648],[126.686229,35.588585],[126.686131,35.588602],[126.686051,35.588587],[126.686019,35.58858],[126.68594,35.588535],[126.685795,35.5885],[126.685491,35.588574],[126.685357,35.588684],[126.685267,35.588708],[126.685231,35.588723],[126.6852,35.588701],[126.68501,35.588681],[126.684956,35.588676],[126.684806,35.588665],[126.684679,35.588698],[126.684582,35.588726],[126.684523,35.58878],[126.684354,35.588975],[126.684337,35.588988],[126.684187,35.589099],[126.68402,35.589253],[126.683986,35.589284],[126.683815,35.589442],[126.683746,35.58949],[126.683565,35.589641],[126.683424,35.58949],[126.683117,35.589275],[126.683029,35.58923],[126.682817,35.589128],[126.682774,35.589116],[126.682734,35.589139],[126.682671,35.589095],[126.682147,35.588688],[126.682366,35.588612],[126.682402,35.588557],[126.682531,35.588411],[126.682583,35.588367],[126.682878,35.588635],[126.683708,35.588036],[126.684001,35.588303],[126.68404,35.588272],[126.68486,35.587681],[126.68493,35.587627],[126.684644,35.587358],[126.685464,35.586765],[126.685553,35.586684],[126.685233,35.586372],[126.685427,35.586323],[126.685611,35.586357],[126.685757,35.586389],[126.68589,35.586401],[126.685985,35.586441],[126.686203,35.586595],[126.686288,35.586645],[126.68638,35.586698],[126.686686,35.586845],[126.686984,35.587001],[126.687066,35.587051],[126.687373,35.587297],[126.687682,35.58753],[126.687845,35.58766],[126.687903,35.58772],[126.687971,35.587776],[126.688081,35.587822],[126.68832,35.587881],[126.688395,35.587899],[126.688457,35.587855],[126.688965,35.587977],[126.689142,35.58799],[126.689172,35.587979],[126.689227,35.588091],[126.689308,35.588126],[126.689325,35.588106],[126.689466,35.588178],[126.689464,35.588198],[126.689549,35.588431]]]]},"properties":{"id":"FLD:52800:14:4420","layer":"FLOOD_TRACE","admin_code":"52800","sido_code":"45","flood_year":"2005","occurred_at":"2005-08-02","ended_at":"2005-08-03","begin_time":"0000","end_time":"0000","disaster_name":"2005. 08. 02 ~ 2005.08. 03 집중호우","cause_detail":"저지대 및 배수불량(하수관거 병목현상)","flood_grade":1,"flood_depth_m":0.4,"flood_area_m2":110262,"source_sn":14,"data_status":"actual","official_data":true,"is_prediction":false,"source":"행정안전부 침수흔적도 · 재난안전데이터공유플랫폼 DSSP-IF-00117","collected_at":"2026-08-19T16:46:51+09:00","source_crs":"EPSG:3857","display_badges":["행안부 침수흔적도","과거 기록"]}},{"type":"Feature","id":"FLD:52800:12:4423","geometry":{"type":"MultiPolygon","coordinates":[[[[126.679499,35.589926],[126.679469,35.589933],[126.679435,35.589944],[126.679472,35.590034],[126.679469,35.590043],[126.67946,35.590049],[126.679375,35.590095],[126.679335,35.590117],[126.679347,35.590138],[126.679378,35.590158],[126.679482,35.590229],[126.679496,35.590238],[126.679505,35.590256],[126.679508,35.590266],[126.679502,35.590299],[126.679497,35.59031],[126.679516,35.590384],[126.679535,35.590416],[126.679612,35.590466],[126.679621,35.590473],[126.679628,35.590508],[126.679793,35.590501],[126.679805,35.59051],[126.679853,35.590595],[126.679862,35.590595],[126.679892,35.590714],[126.67988,35.590714],[126.679902,35.5908],[126.679905,35.590825],[126.679868,35.590839],[126.679876,35.590863],[126.679812,35.590892],[126.679779,35.590899],[126.679778,35.590927],[126.679784,35.590979],[126.679808,35.591059],[126.679912,35.591164],[126.679978,35.591167],[126.680039,35.591169],[126.680094,35.591151],[126.680232,35.591247],[126.680157,35.591324],[126.680021,35.59139],[126.679996,35.591428],[126.680045,35.591521],[126.680065,35.591586],[126.680092,35.591666],[126.680095,35.591684],[126.679957,35.591682],[126.679628,35.591725],[126.679243,35.591787],[126.679215,35.591679],[126.67901,35.591652],[126.678254,35.589151],[126.678281,35.589151],[126.678297,35.589119],[126.678304,35.589077],[126.678289,35.588932],[126.678265,35.588855],[126.678219,35.588756],[126.678197,35.588698],[126.678251,35.588648],[126.678273,35.588618],[126.678493,35.588584],[126.678953,35.588572],[126.679121,35.588568],[126.679609,35.588557],[126.680138,35.588545],[126.680212,35.588533],[126.680261,35.588522],[126.680424,35.588474],[126.680505,35.58846],[126.680536,35.58847],[126.680642,35.588448],[126.680748,35.588422],[126.680961,35.588405],[126.681054,35.588397],[126.680981,35.588457],[126.680853,35.588497],[126.680813,35.588557],[126.680784,35.588632],[126.680694,35.588713],[126.680664,35.588721],[126.680593,35.588782],[126.680498,35.588821],[126.680455,35.58885],[126.68041,35.58888],[126.680454,35.588916],[126.680369,35.589007],[126.680311,35.589043],[126.680165,35.589094],[126.680035,35.589061],[126.680029,35.588972],[126.679991,35.588957],[126.679811,35.589062],[126.679795,35.589167],[126.679766,35.589224],[126.679822,35.589245],[126.679816,35.589268],[126.679805,35.589306],[126.679773,35.589331],[126.679753,35.589329],[126.679744,35.589351],[126.679709,35.589399],[126.679698,35.589411],[126.679741,35.589434],[126.679787,35.589454],[126.679732,35.589556],[126.679693,35.589702],[126.679684,35.589871],[126.67957,35.589842],[126.679499,35.589857],[126.679499,35.589926]]]]},"properties":{"id":"FLD:52800:12:4423","layer":"FLOOD_TRACE","admin_code":"52800","sido_code":"45","flood_year":"2005","occurred_at":"2005-08-02","ended_at":"2005-08-03","begin_time":"0000","end_time":"0000","disaster_name":"2005. 08. 02 ~ 2005.08. 03 집중호우","cause_detail":"저지대 및 배수불량(하수관거 병목현상)","flood_grade":3,"flood_depth_m":1.1,"flood_area_m2":110262,"source_sn":12,"data_status":"actual","official_data":true,"is_prediction":false,"source":"행정안전부 침수흔적도 · 재난안전데이터공유플랫폼 DSSP-IF-00117","collected_at":"2026-08-19T16:46:51+09:00","source_crs":"EPSG:3857","display_badges":["행안부 침수흔적도","과거 기록"]}},{"type":"Feature","id":"FLD:52800:16:4424","geometry":{"type":"MultiPolygon","coordinates":[[[[126.671,35.588586],[126.670939,35.588475],[126.670814,35.588403],[126.670748,35.58842],[126.670567,35.588317],[126.670401,35.588158],[126.670335,35.588164],[126.67025,35.58806],[126.670181,35.588001],[126.66995,35.587888],[126.669605,35.587777],[126.66927,35.587762],[126.669128,35.587745],[126.668056,35.587429],[126.667007,35.587118],[126.664618,35.586851],[126.664247,35.586776],[126.664136,35.586702],[126.664048,35.586608],[126.663897,35.586424],[126.663818,35.586377],[126.663668,35.586324],[126.663198,35.586184],[126.663031,35.586113],[126.662886,35.586093],[126.662866,35.585644],[126.662743,35.585432],[126.662539,35.585229],[126.66321,35.585022],[126.664435,35.584632],[126.664622,35.584525],[126.665751,35.583898],[126.66593,35.583865],[126.667465,35.583935],[126.669284,35.585262],[126.669415,35.585309],[126.669425,35.585315],[126.67004,35.585559],[126.670616,35.585838],[126.67111,35.585917],[126.671422,35.58598],[126.672781,35.586294],[126.672894,35.586364],[126.674194,35.588513],[126.674323,35.588564],[126.674332,35.588581],[126.6744,35.588554],[126.674545,35.588497],[126.674626,35.588485],[126.674729,35.588422],[126.674788,35.588408],[126.67493,35.588373],[126.675113,35.58834],[126.675162,35.588528],[126.675202,35.588902],[126.675283,35.588904],[126.675361,35.588893],[126.67649,35.588732],[126.676836,35.588681],[126.676894,35.588672],[126.677206,35.588627],[126.677297,35.588692],[126.677342,35.589033],[126.677293,35.589115],[126.677301,35.589163],[126.677323,35.589197],[126.676916,35.589233],[126.676879,35.589234],[126.676795,35.589247],[126.676651,35.589246],[126.676628,35.589246],[126.676444,35.589227],[126.676004,35.589173],[126.675947,35.589159],[126.67588,35.589151],[126.675726,35.589149],[126.675636,35.589157],[126.675588,35.589175],[126.67551,35.589199],[126.675348,35.589245],[126.675316,35.58926],[126.675247,35.589282],[126.67504,35.589474],[126.675094,35.589521],[126.675003,35.589561],[126.674858,35.58966],[126.674695,35.589813],[126.674674,35.589854],[126.674637,35.589876],[126.674583,35.58995],[126.674527,35.589954],[126.674477,35.589957],[126.674158,35.590028],[126.674078,35.590037],[126.673812,35.590096],[126.673809,35.590155],[126.673836,35.59024],[126.673903,35.590258],[126.673963,35.590251],[126.673996,35.590273],[126.67407,35.590266],[126.674071,35.590285],[126.674019,35.590287],[126.673949,35.590319],[126.674053,35.59056],[126.674011,35.590603],[126.674023,35.590694],[126.674051,35.590718],[126.674128,35.590776],[126.67419,35.590724],[126.674248,35.590775],[126.67426,35.590958],[126.67426,35.591074],[126.674311,35.59116],[126.674109,35.591186],[126.674111,35.591226],[126.674122,35.591255],[126.674152,35.591329],[126.674216,35.591488],[126.67421,35.59151],[126.674192,35.591577],[126.674216,35.5917],[126.674164,35.591727],[126.674129,35.591784],[126.674105,35.591839],[126.674124,35.591941],[126.674164,35.592049],[126.674184,35.592269],[126.674292,35.592292],[126.674293,35.592306],[126.674506,35.592274],[126.67471,35.592212],[126.674692,35.59243],[126.674628,35.592666],[126.674634,35.592715],[126.674615,35.592851],[126.674605,35.592906],[126.674589,35.59294],[126.674579,35.593001],[126.67447,35.593671],[126.674451,35.593777],[126.674404,35.593824],[126.674324,35.593804],[126.674254,35.593828],[126.67411,35.593883],[126.673834,35.593901],[126.673585,35.593899],[126.673545,35.593714],[126.673461,35.593511],[126.673445,35.593484],[126.673373,35.593358],[126.673321,35.593261],[126.673256,35.593144],[126.673144,35.593174],[126.673202,35.593262],[126.673136,35.593241],[126.673062,35.593077],[126.67298,35.592921],[126.672853,35.592856],[126.672817,35.59286],[126.672718,35.592773],[126.672603,35.592631],[126.672663,35.592585],[126.672698,35.592561],[126.672663,35.592417],[126.67256,35.592267],[126.672614,35.592192],[126.672714,35.592191],[126.6727,35.592172],[126.67263,35.59207],[126.672623,35.592061],[126.672601,35.592027],[126.6725,35.59194],[126.672334,35.591832],[126.671748,35.591455],[126.671599,35.591328],[126.671501,35.59118],[126.671474,35.591099],[126.671489,35.591086],[126.671454,35.591038],[126.671418,35.59088],[126.67139,35.590688],[126.671346,35.590501],[126.671329,35.590499],[126.671336,35.590466],[126.671285,35.590395],[126.671167,35.590292],[126.671122,35.59025],[126.671063,35.590195],[126.671037,35.590135],[126.671002,35.590055],[126.670977,35.589949],[126.670985,35.589935],[126.67099,35.589927],[126.670847,35.589335],[126.670842,35.589261],[126.670849,35.58918],[126.670863,35.589096],[126.670883,35.589039],[126.670935,35.58896],[126.670992,35.588881],[126.671085,35.588858],[126.67106,35.588797],[126.670948,35.588638],[126.671,35.588586]]]]},"properties":{"id":"FLD:52800:16:4424","layer":"FLOOD_TRACE","admin_code":"52800","sido_code":"45","flood_year":"2005","occurred_at":"2005-08-02","ended_at":"2005-08-03","begin_time":"0000","end_time":"0000","disaster_name":"2005. 08. 02 ~ 2005.08. 03 집중호우","cause_detail":"저지대 및 배수불량(하수관거 병목현상)","flood_grade":2,"flood_depth_m":0.6,"flood_area_m2":110262,"source_sn":16,"data_status":"actual","official_data":true,"is_prediction":false,"source":"행정안전부 침수흔적도 · 재난안전데이터공유플랫폼 DSSP-IF-00117","collected_at":"2026-08-19T16:46:51+09:00","source_crs":"EPSG:3857","display_badges":["행안부 침수흔적도","과거 기록"]}},{"type":"Feature","id":"FLD:52800:7:4425","geometry":{"type":"MultiPolygon","coordinates":[[[[126.676942,35.591131],[126.67717,35.5916],[126.677135,35.591632],[126.676977,35.59154],[126.676859,35.591493],[126.676776,35.591397],[126.676692,35.591377],[126.676689,35.591373],[126.67668,35.591261],[126.67666,35.591262],[126.676526,35.591252],[126.676456,35.591232],[126.676445,35.591222],[126.67635,35.591206],[126.676335,35.591234],[126.676263,35.591223],[126.676224,35.591286],[126.676205,35.591266],[126.676161,35.591302],[126.676099,35.591337],[126.67603,35.591317],[126.676105,35.591165],[126.676077,35.591138],[126.676001,35.591077],[126.676031,35.59101],[126.676115,35.59101],[126.676149,35.59085],[126.676277,35.590815],[126.676226,35.590767],[126.676237,35.590728],[126.676324,35.590688],[126.676322,35.590623],[126.676128,35.590543],[126.675986,35.590341],[126.675967,35.590386],[126.675799,35.590211],[126.675641,35.590128],[126.675638,35.590037],[126.675548,35.590042],[126.675519,35.590041],[126.675547,35.589954],[126.675439,35.589894],[126.67535,35.589932],[126.675432,35.589844],[126.675446,35.58981],[126.675481,35.589741],[126.675519,35.589735],[126.675643,35.589645],[126.675738,35.589572],[126.675753,35.589551],[126.675818,35.589517],[126.675866,35.589488],[126.675943,35.589561],[126.675933,35.589699],[126.67609,35.58992],[126.676183,35.590008],[126.676357,35.590186],[126.676446,35.590272],[126.676552,35.590356],[126.676594,35.590433],[126.676616,35.590479],[126.676644,35.590534],[126.676768,35.59078],[126.676942,35.591131]]]]},"properties":{"id":"FLD:52800:7:4425","layer":"FLOOD_TRACE","admin_code":"52800","sido_code":"45","flood_year":"2005","occurred_at":"2005-08-02","ended_at":"2005-08-03","begin_time":"0000","end_time":"0000","disaster_name":"2005. 08. 02 ~ 2005.08. 03 집중호우","cause_detail":"저지대 및 배수불량(하수관거 병목현상)","flood_grade":2,"flood_depth_m":1.6,"flood_area_m2":110262,"source_sn":7,"data_status":"actual","official_data":true,"is_prediction":false,"source":"행정안전부 침수흔적도 · 재난안전데이터공유플랫폼 DSSP-IF-00117","collected_at":"2026-08-19T16:46:51+09:00","source_crs":"EPSG:3857","display_badges":["행안부 침수흔적도","과거 기록"]}},{"type":"Feature","id":"FLD:52800:11:4426","geometry":{"type":"MultiPolygon","coordinates":[[[[126.680558,35.5927],[126.680618,35.592775],[126.680554,35.592824],[126.680539,35.592897],[126.680514,35.592928],[126.680465,35.592952],[126.680378,35.592966],[126.680351,35.592971],[126.680323,35.592999],[126.680299,35.593024],[126.680236,35.593037],[126.680233,35.593067],[126.680216,35.593088],[126.68019,35.59312],[126.680158,35.593194],[126.680133,35.59325],[126.680101,35.593358],[126.680104,35.593402],[126.679786,35.593467],[126.679243,35.591787],[126.679628,35.591725],[126.679957,35.591682],[126.680095,35.591684],[126.680105,35.591735],[126.680124,35.591794],[126.680162,35.59183],[126.680162,35.591957],[126.680007,35.591951],[126.680049,35.592115],[126.680077,35.592158],[126.680113,35.592211],[126.680198,35.592192],[126.680227,35.592146],[126.680329,35.592153],[126.680342,35.59216],[126.680385,35.592311],[126.680389,35.592329],[126.680362,35.592438],[126.680416,35.5925],[126.680396,35.592522],[126.680437,35.592551],[126.680457,35.59258],[126.680558,35.5927]]]]},"properties":{"id":"FLD:52800:11:4426","layer":"FLOOD_TRACE","admin_code":"52800","sido_code":"45","flood_year":"2005","occurred_at":"2005-08-02","ended_at":"2005-08-03","begin_time":"0000","end_time":"0000","disaster_name":"2005. 08. 02 ~ 2005.08. 03 집중호우","cause_detail":"저지대 및 배수불량(하수관거 병목현상)","flood_grade":1,"flood_depth_m":0.4,"flood_area_m2":110262,"source_sn":11,"data_status":"actual","official_data":true,"is_prediction":false,"source":"행정안전부 침수흔적도 · 재난안전데이터공유플랫폼 DSSP-IF-00117","collected_at":"2026-08-19T16:46:51+09:00","source_crs":"EPSG:3857","display_badges":["행안부 침수흔적도","과거 기록"]}},{"type":"Feature","id":"FLD:52800:3:4427","geometry":{"type":"MultiPolygon","coordinates":[[[[126.67901,35.591652],[126.67824,35.591763],[126.678088,35.591785],[126.677347,35.59189],[126.677233,35.591618],[126.677221,35.59162],[126.67717,35.5916],[126.676942,35.591131],[126.676768,35.59078],[126.676644,35.590534],[126.676616,35.590479],[126.676594,35.590433],[126.676552,35.590356],[126.676446,35.590272],[126.676357,35.590186],[126.676183,35.590008],[126.67609,35.58992],[126.675933,35.589699],[126.675943,35.589561],[126.675866,35.589488],[126.675902,35.589439],[126.675916,35.589357],[126.675932,35.589258],[126.675944,35.589195],[126.675947,35.589159],[126.676004,35.589173],[126.676444,35.589227],[126.676628,35.589246],[126.676651,35.589246],[126.676795,35.589247],[126.676879,35.589234],[126.676916,35.589233],[126.677323,35.589197],[126.677423,35.589198],[126.677589,35.589191],[126.677752,35.589181],[126.677854,35.589168],[126.677978,35.589157],[126.678091,35.589156],[126.678235,35.58916],[126.678254,35.589151],[126.67901,35.591652]]]]},"properties":{"id":"FLD:52800:3:4427","layer":"FLOOD_TRACE","admin_code":"52800","sido_code":"45","flood_year":"2005","occurred_at":"2005-08-02","ended_at":"2005-08-03","begin_time":"0000","end_time":"0000","disaster_name":"2005. 08. 02 ~ 2005.08. 03 집중호우","cause_detail":"저지대 및 배수불량(하수관거 병목현상)","flood_grade":3,"flood_depth_m":1.3,"flood_area_m2":110262,"source_sn":3,"data_status":"actual","official_data":true,"is_prediction":false,"source":"행정안전부 침수흔적도 · 재난안전데이터공유플랫폼 DSSP-IF-00117","collected_at":"2026-08-19T16:46:51+09:00","source_crs":"EPSG:3857","display_badges":["행안부 침수흔적도","과거 기록"]}},{"type":"Feature","id":"FLD:52800:15:4428","geometry":{"type":"MultiPolygon","coordinates":[[[[126.672334,35.591832],[126.672241,35.591932],[126.672072,35.591796],[126.67197,35.591761],[126.671941,35.591759],[126.671871,35.591883],[126.671891,35.592039],[126.671789,35.592052],[126.671354,35.592142],[126.671269,35.592115],[126.670934,35.592073],[126.670804,35.592028],[126.670714,35.591934],[126.670623,35.591698],[126.670709,35.591498],[126.670712,35.591491],[126.670711,35.591433],[126.670692,35.591398],[126.670713,35.591351],[126.670787,35.591235],[126.670772,35.591161],[126.670795,35.590997],[126.670908,35.590845],[126.670963,35.590805],[126.670978,35.590796],[126.671031,35.590867],[126.671262,35.591068],[126.671236,35.590856],[126.67121,35.590834],[126.671196,35.590798],[126.671229,35.59079],[126.671216,35.59069],[126.671126,35.59064],[126.671089,35.590628],[126.6711,35.590567],[126.671176,35.590423],[126.671214,35.590441],[126.671271,35.590452],[126.671329,35.590499],[126.671346,35.590501],[126.67139,35.590688],[126.671418,35.59088],[126.671454,35.591038],[126.671489,35.591086],[126.671474,35.591099],[126.671501,35.59118],[126.671599,35.591328],[126.671748,35.591455],[126.672334,35.591832]]]]},"properties":{"id":"FLD:52800:15:4428","layer":"FLOOD_TRACE","admin_code":"52800","sido_code":"45","flood_year":"2005","occurred_at":"2005-08-02","ended_at":"2005-08-03","begin_time":"0000","end_time":"0000","disaster_name":"2005. 08. 02 ~ 2005.08. 03 집중호우","cause_detail":"저지대 및 배수불량(하수관거 병목현상)","flood_grade":1,"flood_depth_m":0.4,"flood_area_m2":110262,"source_sn":15,"data_status":"actual","official_data":true,"is_prediction":false,"source":"행정안전부 침수흔적도 · 재난안전데이터공유플랫폼 DSSP-IF-00117","collected_at":"2026-08-19T16:46:51+09:00","source_crs":"EPSG:3857","display_badges":["행안부 침수흔적도","과거 기록"]}},{"type":"Feature","id":"FLD:52800:13:4429","geometry":{"type":"MultiPolygon","coordinates":[[[[126.669128,35.587745],[126.669056,35.587769],[126.668945,35.587892],[126.668537,35.588081],[126.668382,35.588039],[126.668107,35.587917],[126.667946,35.587908],[126.667745,35.587856],[126.667676,35.587895],[126.667395,35.587741],[126.667272,35.58756],[126.667223,35.587559],[126.667201,35.587454],[126.667146,35.587442],[126.667042,35.587265],[126.667007,35.587118],[126.668056,35.587429],[126.669128,35.587745]]]]},"properties":{"id":"FLD:52800:13:4429","layer":"FLOOD_TRACE","admin_code":"52800","sido_code":"45","flood_year":"2005","occurred_at":"2005-08-02","ended_at":"2005-08-03","begin_time":"0000","end_time":"0000","disaster_name":"2005. 08. 02 ~ 2005.08. 03 집중호우","cause_detail":"저지대 및 배수불량(하수관거 병목현상)","flood_grade":1,"flood_depth_m":0.3,"flood_area_m2":110262,"source_sn":13,"data_status":"actual","official_data":true,"is_prediction":false,"source":"행정안전부 침수흔적도 · 재난안전데이터공유플랫폼 DSSP-IF-00117","collected_at":"2026-08-19T16:46:51+09:00","source_crs":"EPSG:3857","display_badges":["행안부 침수흔적도","과거 기록"]}},{"type":"Feature","id":"FLD:52800:17:4432","geometry":{"type":"MultiPolygon","coordinates":[[[[126.666467,35.587829],[126.666529,35.588164],[126.66621,35.588299],[126.666098,35.588335],[126.666244,35.588645],[126.666236,35.588662],[126.665961,35.588748],[126.665612,35.588741],[126.665379,35.588609],[126.665278,35.588552],[126.665175,35.588447],[126.665082,35.588361],[126.664942,35.588231],[126.664959,35.5882],[126.664999,35.588198],[126.665,35.588121],[126.665,35.588073],[126.664956,35.587976],[126.664937,35.587932],[126.664879,35.587906],[126.664833,35.587896],[126.664787,35.58788],[126.664733,35.587845],[126.664667,35.587785],[126.664658,35.587722],[126.664659,35.587645],[126.664612,35.587566],[126.664584,35.587503],[126.664559,35.587435],[126.664516,35.587341],[126.664517,35.587304],[126.664495,35.587251],[126.664409,35.587093],[126.664403,35.58708],[126.66436,35.58705],[126.664339,35.587042],[126.664252,35.586968],[126.664243,35.586956],[126.66424,35.58694],[126.664242,35.586927],[126.664246,35.586915],[126.664254,35.586909],[126.66427,35.586904],[126.664309,35.586904],[126.664318,35.586861],[126.664326,35.586822],[126.664247,35.586776],[126.664618,35.586851],[126.667007,35.587118],[126.666707,35.587137],[126.666712,35.587159],[126.666741,35.587305],[126.666524,35.587471],[126.666527,35.587505],[126.666539,35.587641],[126.666467,35.587829]]]]},"properties":{"id":"FLD:52800:17:4432","layer":"FLOOD_TRACE","admin_code":"52800","sido_code":"45","flood_year":"2005","occurred_at":"2005-08-02","ended_at":"2005-08-03","begin_time":"0000","end_time":"0000","disaster_name":"2005. 08. 02 ~ 2005.08. 03 집중호우","cause_detail":"저지대 및 배수불량(하수관거 병목현상)","flood_grade":1,"flood_depth_m":0.4,"flood_area_m2":110262,"source_sn":17,"data_status":"actual","official_data":true,"is_prediction":false,"source":"행정안전부 침수흔적도 · 재난안전데이터공유플랫폼 DSSP-IF-00117","collected_at":"2026-08-19T16:46:51+09:00","source_crs":"EPSG:3857","display_badges":["행안부 침수흔적도","과거 기록"]}},{"type":"Feature","id":"FLD:52800:18:4433","geometry":{"type":"MultiPolygon","coordinates":[[[[126.682754,35.585347],[126.68167,35.585268],[126.681605,35.585268],[126.681599,35.585021],[126.681619,35.585005],[126.681653,35.584975],[126.681736,35.584885],[126.681869,35.584697],[126.681903,35.58471],[126.681975,35.58464],[126.682074,35.584567],[126.682118,35.584561],[126.682179,35.58454],[126.6824,35.584489],[126.682473,35.58447],[126.682546,35.58445],[126.682629,35.584409],[126.682683,35.584369],[126.682797,35.584265],[126.682854,35.584225],[126.682871,35.584238],[126.682972,35.584193],[126.683036,35.584152],[126.684077,35.584213],[126.684022,35.584721],[126.682829,35.58463],[126.682754,35.585347]]]]},"properties":{"id":"FLD:52800:18:4433","layer":"FLOOD_TRACE","admin_code":"52800","sido_code":"45","flood_year":"2005","occurred_at":"2005-08-02","ended_at":"2005-08-03","begin_time":"0000","end_time":"0000","disaster_name":"2005. 08. 02 ~ 2005.08. 03 집중호우","cause_detail":"저지대 및 배수불량(하수관거 병목현상)","flood_grade":1,"flood_depth_m":0.3,"flood_area_m2":110262,"source_sn":18,"data_status":"actual","official_data":true,"is_prediction":false,"source":"행정안전부 침수흔적도 · 재난안전데이터공유플랫폼 DSSP-IF-00117","collected_at":"2026-08-19T16:46:51+09:00","source_crs":"EPSG:3857","display_badges":["행안부 침수흔적도","과거 기록"]}},{"type":"Feature","id":"FLD:52800:8:4434","geometry":{"type":"MultiPolygon","coordinates":[[[[126.679718,35.594017],[126.67967,35.594027],[126.679543,35.594053],[126.679503,35.594062],[126.679344,35.594094],[126.679157,35.594132],[126.679063,35.594151],[126.678775,35.59421],[126.678625,35.594233],[126.678473,35.594258],[126.678395,35.594272],[126.678201,35.593933],[126.678123,35.593773],[126.678087,35.593704],[126.678005,35.593552],[126.677955,35.59346],[126.677672,35.59295],[126.67767,35.592937],[126.677625,35.592944],[126.677518,35.592869],[126.677444,35.592728],[126.677429,35.592712],[126.677408,35.592657],[126.677375,35.592554],[126.677377,35.592526],[126.677299,35.592226],[126.677237,35.592173],[126.677185,35.592129],[126.677117,35.592071],[126.677093,35.591785],[126.677083,35.591732],[126.677077,35.591682],[126.677135,35.591632],[126.67717,35.5916],[126.677221,35.59162],[126.677233,35.591618],[126.677347,35.59189],[126.678088,35.591785],[126.67824,35.591763],[126.67901,35.591652],[126.679215,35.591679],[126.679243,35.591787],[126.679786,35.593467],[126.679932,35.593925],[126.679969,35.594039],[126.679908,35.594027],[126.679803,35.594037],[126.679794,35.594054],[126.679761,35.594059],[126.679739,35.593991],[126.679718,35.594017]]]]},"properties":{"id":"FLD:52800:8:4434","layer":"FLOOD_TRACE","admin_code":"52800","sido_code":"45","flood_year":"2005","occurred_at":"2005-08-02","ended_at":"2005-08-03","begin_time":"0000","end_time":"0000","disaster_name":"2005. 08. 02 ~ 2005.08. 03 집중호우","cause_detail":"저지대 및 배수불량(하수관거 병목현상)","flood_grade":2,"flood_depth_m":0.55,"flood_area_m2":110262,"source_sn":8,"data_status":"actual","official_data":true,"is_prediction":false,"source":"행정안전부 침수흔적도 · 재난안전데이터공유플랫폼 DSSP-IF-00117","collected_at":"2026-08-19T16:46:51+09:00","source_crs":"EPSG:3857","display_badges":["행안부 침수흔적도","과거 기록"]}},{"type":"Feature","id":"FLD:52800:9:4442","geometry":{"type":"MultiPolygon","coordinates":[[[[126.68576,35.583656],[126.685732,35.583733],[126.685682,35.583902],[126.685628,35.583999],[126.685585,35.584066],[126.685554,35.584071],[126.685424,35.584446],[126.685322,35.584759],[126.685308,35.584849],[126.685221,35.584774],[126.68518,35.584797],[126.685212,35.584437],[126.684121,35.584365],[126.684159,35.584008],[126.6841,35.584003],[126.683391,35.583961],[126.683598,35.583831],[126.683646,35.583785],[126.683741,35.583572],[126.68383,35.583456],[126.683913,35.583401],[126.684051,35.583341],[126.68414,35.583291],[126.68418,35.583281],[126.684248,35.5832],[126.684469,35.583065],[126.684681,35.582943],[126.684861,35.582872],[126.684984,35.582837],[126.685235,35.582804],[126.685388,35.582775],[126.685494,35.582779],[126.68551,35.582744],[126.685573,35.582715],[126.685803,35.582547],[126.685935,35.582496],[126.686413,35.583017],[126.686146,35.583369],[126.686143,35.583373],[126.68608,35.583437],[126.686005,35.583512],[126.685968,35.583531],[126.685845,35.58359],[126.68576,35.583656]]]]},"properties":{"id":"FLD:52800:9:4442","layer":"FLOOD_TRACE","admin_code":"52800","sido_code":"45","flood_year":"2005","occurred_at":"2005-08-02","ended_at":"2005-08-03","begin_time":"0000","end_time":"0000","disaster_name":"2005. 08. 02 ~ 2005.08. 03 집중호우","cause_detail":"저지대 및 배수불량(하수관거 병목현상)","flood_grade":1,"flood_depth_m":0.3,"flood_area_m2":110262,"source_sn":9,"data_status":"actual","official_data":true,"is_prediction":false,"source":"행정안전부 침수흔적도 · 재난안전데이터공유플랫폼 DSSP-IF-00117","collected_at":"2026-08-19T16:46:51+09:00","source_crs":"EPSG:3857","display_badges":["행안부 침수흔적도","과거 기록"]}},{"type":"Feature","id":"FLD:52800:6:4443","geometry":{"type":"MultiPolygon","coordinates":[[[[126.685102,35.585516],[126.684953,35.58587],[126.684818,35.586185],[126.684759,35.586217],[126.683928,35.586163],[126.683867,35.586156],[126.68277,35.586081],[126.682845,35.58536],[126.682754,35.585347],[126.682829,35.58463],[126.684022,35.584721],[126.684077,35.584213],[126.683036,35.584152],[126.68319,35.584089],[126.683211,35.584075],[126.683391,35.583961],[126.6841,35.584003],[126.684159,35.584008],[126.684121,35.584365],[126.685212,35.584437],[126.68518,35.584797],[126.685286,35.585032],[126.685292,35.585084],[126.685248,35.585161],[126.685102,35.585516]]]]},"properties":{"id":"FLD:52800:6:4443","layer":"FLOOD_TRACE","admin_code":"52800","sido_code":"45","flood_year":"2005","occurred_at":"2005-08-02","ended_at":"2005-08-03","begin_time":"0000","end_time":"0000","disaster_name":"2005. 08. 02 ~ 2005.08. 03 집중호우","cause_detail":"저지대 및 배수불량(하수관거 병목현상)","flood_grade":2,"flood_depth_m":0.55,"flood_area_m2":110262,"source_sn":6,"data_status":"actual","official_data":true,"is_prediction":false,"source":"행정안전부 침수흔적도 · 재난안전데이터공유플랫폼 DSSP-IF-00117","collected_at":"2026-08-19T16:46:51+09:00","source_crs":"EPSG:3857","display_badges":["행안부 침수흔적도","과거 기록"]}},{"type":"Feature","id":"FLD:52800:5:4444","geometry":{"type":"MultiPolygon","coordinates":[[[[126.67949,35.585043],[126.679499,35.585059],[126.679643,35.585119],[126.679775,35.585131],[126.679884,35.585124],[126.679898,35.585161],[126.679863,35.585274],[126.679808,35.585363],[126.679797,35.585479],[126.679788,35.585558],[126.679743,35.585621],[126.679639,35.5856],[126.6795,35.58553],[126.679467,35.585579],[126.679424,35.585711],[126.679315,35.585932],[126.679189,35.586049],[126.679159,35.586054],[126.678939,35.585887],[126.678715,35.58576],[126.678516,35.585728],[126.678294,35.58574],[126.678226,35.58579],[126.677787,35.585821],[126.677512,35.585836],[126.677341,35.585841],[126.677352,35.585892],[126.677239,35.585865],[126.677168,35.585732],[126.677192,35.585671],[126.67726,35.585502],[126.677104,35.585447],[126.676994,35.585409],[126.676964,35.585397],[126.676917,35.585383],[126.676843,35.585332],[126.676863,35.58529],[126.676745,35.585207],[126.676783,35.58494],[126.676873,35.58492],[126.677038,35.584868],[126.677152,35.58481],[126.677131,35.58471],[126.677076,35.584616],[126.676968,35.584472],[126.676836,35.584354],[126.677093,35.584135],[126.677311,35.58401],[126.677645,35.583972],[126.67777,35.584008],[126.677866,35.583975],[126.678035,35.58403],[126.678022,35.58407],[126.677924,35.584269],[126.677853,35.584406],[126.677753,35.5846],[126.677831,35.584598],[126.677915,35.58458],[126.677922,35.584583],[126.677998,35.584473],[126.678024,35.584437],[126.678096,35.584333],[126.678204,35.584153],[126.678313,35.583961],[126.678373,35.583852],[126.678535,35.583659],[126.678574,35.583663],[126.678649,35.583613],[126.678747,35.583551],[126.678768,35.583528],[126.678964,35.583575],[126.679001,35.583551],[126.679041,35.583523],[126.679093,35.583403],[126.679221,35.583458],[126.679327,35.583529],[126.679415,35.58361],[126.679475,35.583649],[126.679633,35.583746],[126.679701,35.583805],[126.679725,35.583831],[126.679758,35.58387],[126.679899,35.584109],[126.679761,35.584243],[126.67962,35.584358],[126.679601,35.584365],[126.679546,35.584383],[126.679428,35.584526],[126.679356,35.584648],[126.679332,35.584664],[126.679304,35.584667],[126.679312,35.584786],[126.679337,35.58487],[126.679397,35.584958],[126.67949,35.585043]]]]},"properties":{"id":"FLD:52800:5:4444","layer":"FLOOD_TRACE","admin_code":"52800","sido_code":"45","flood_year":"2005","occurred_at":"2005-08-02","ended_at":"2005-08-03","begin_time":"0000","end_time":"0000","disaster_name":"2005. 08. 02 ~ 2005.08. 03 집중호우","cause_detail":"저지대 및 배수불량(하수관거 병목현상)","flood_grade":1,"flood_depth_m":0.3,"flood_area_m2":110262,"source_sn":5,"data_status":"actual","official_data":true,"is_prediction":false,"source":"행정안전부 침수흔적도 · 재난안전데이터공유플랫폼 DSSP-IF-00117","collected_at":"2026-08-19T16:46:51+09:00","source_crs":"EPSG:3857","display_badges":["행안부 침수흔적도","과거 기록"]}},{"type":"Feature","id":"FLD:52800:19:4445","geometry":{"type":"MultiPolygon","coordinates":[[[[126.675643,35.589645],[126.675519,35.589735],[126.675481,35.589741],[126.675446,35.58981],[126.675432,35.589844],[126.67535,35.589932],[126.675192,35.590018],[126.675071,35.590043],[126.674904,35.589952],[126.674888,35.589996],[126.674759,35.589911],[126.674674,35.589854],[126.674695,35.589813],[126.674858,35.58966],[126.675003,35.589561],[126.675094,35.589521],[126.67504,35.589474],[126.675247,35.589282],[126.675316,35.58926],[126.675348,35.589245],[126.67551,35.589199],[126.675588,35.589175],[126.675636,35.589157],[126.675726,35.589149],[126.67588,35.589151],[126.675947,35.589159],[126.675944,35.589195],[126.675932,35.589258],[126.675916,35.589357],[126.675902,35.589439],[126.675866,35.589488],[126.675818,35.589517],[126.675753,35.589551],[126.675738,35.589572],[126.675643,35.589645]]]]},"properties":{"id":"FLD:52800:19:4445","layer":"FLOOD_TRACE","admin_code":"52800","sido_code":"45","flood_year":"2005","occurred_at":"2005-08-02","ended_at":"2005-08-03","begin_time":"0000","end_time":"0000","disaster_name":"2005. 08. 02 ~ 2005.08. 03 집중호우","cause_detail":"저지대 및 배수불량(하수관거 병목현상)","flood_grade":1,"flood_depth_m":0.3,"flood_area_m2":110262,"source_sn":19,"data_status":"actual","official_data":true,"is_prediction":false,"source":"행정안전부 침수흔적도 · 재난안전데이터공유플랫폼 DSSP-IF-00117","collected_at":"2026-08-19T16:46:51+09:00","source_crs":"EPSG:3857","display_badges":["행안부 침수흔적도","과거 기록"]}},{"type":"Feature","id":"FLD:52800:8551:23800","geometry":{"type":"MultiPolygon","coordinates":[[[[126.677523,35.750704],[126.677425,35.751606],[126.676907,35.751558],[126.676871,35.751555],[126.676982,35.750658],[126.677523,35.750704]]]]},"properties":{"id":"FLD:52800:8551:23800","layer":"FLOOD_TRACE","admin_code":"52800","sido_code":"45","flood_year":"2021","occurred_at":"2021-08-24","ended_at":"2021-08-24","begin_time":"0700","end_time":"1200","disaster_name":"12호 태풍 오마이스","cause_detail":"내수침수","flood_grade":2,"flood_depth_m":0.5,"flood_area_m2":4995,"source_sn":8551,"data_status":"actual","official_data":true,"is_prediction":false,"source":"행정안전부 침수흔적도 · 재난안전데이터공유플랫폼 DSSP-IF-00117","collected_at":"2026-08-19T16:46:51+09:00","source_crs":"EPSG:3857","display_badges":["행안부 침수흔적도","과거 기록"]}},{"type":"Feature","id":"FLD:52800:8552:23801","geometry":{"type":"MultiPolygon","coordinates":[[[[126.677523,35.750704],[126.677425,35.751606],[126.676907,35.751558],[126.676871,35.751555],[126.676982,35.750658],[126.677523,35.750704]]]]},"properties":{"id":"FLD:52800:8552:23801","layer":"FLOOD_TRACE","admin_code":"52800","sido_code":"45","flood_year":"2021","occurred_at":"2021-08-24","ended_at":"2021-08-24","begin_time":"0700","end_time":"1200","disaster_name":"12호 태풍 오마이스","cause_detail":"내수침수","flood_grade":2,"flood_depth_m":0.5,"flood_area_m2":4995,"source_sn":8552,"data_status":"actual","official_data":true,"is_prediction":false,"source":"행정안전부 침수흔적도 · 재난안전데이터공유플랫폼 DSSP-IF-00117","collected_at":"2026-08-19T16:46:51+09:00","source_crs":"EPSG:3857","display_badges":["행안부 침수흔적도","과거 기록"]}},{"type":"Feature","id":"FLD:52800:8553:23802","geometry":{"type":"MultiPolygon","coordinates":[[[[126.677523,35.750704],[126.677425,35.751606],[126.676907,35.751558],[126.676871,35.751555],[126.676982,35.750658],[126.677523,35.750704]]]]},"properties":{"id":"FLD:52800:8553:23802","layer":"FLOOD_TRACE","admin_code":"52800","sido_code":"45","flood_year":"2021","occurred_at":"2021-08-24","ended_at":"2021-08-24","begin_time":"0700","end_time":"1200","disaster_name":"12호 태풍 오마이스","cause_detail":"내수침수","flood_grade":2,"flood_depth_m":0.5,"flood_area_m2":4995,"source_sn":8553,"data_status":"actual","official_data":true,"is_prediction":false,"source":"행정안전부 침수흔적도 · 재난안전데이터공유플랫폼 DSSP-IF-00117","collected_at":"2026-08-19T16:46:51+09:00","source_crs":"EPSG:3857","display_badges":["행안부 침수흔적도","과거 기록"]}},{"type":"Feature","id":"FLD:52800:8554:23803","geometry":{"type":"MultiPolygon","coordinates":[[[[126.693171,35.629443],[126.693091,35.629488],[126.693021,35.629415],[126.693108,35.629356],[126.693171,35.629443]]]]},"properties":{"id":"FLD:52800:8554:23803","layer":"FLOOD_TRACE","admin_code":"52800","sido_code":"45","flood_year":"2021","occurred_at":"2021-08-24","ended_at":"2021-08-24","begin_time":"0700","end_time":"1200","disaster_name":"12호 태풍 오마이스","cause_detail":"내수침수","flood_grade":2,"flood_depth_m":0.5,"flood_area_m2":12083,"source_sn":8554,"data_status":"actual","official_data":true,"is_prediction":false,"source":"행정안전부 침수흔적도 · 재난안전데이터공유플랫폼 DSSP-IF-00117","collected_at":"2026-08-19T16:46:51+09:00","source_crs":"EPSG:3857","display_badges":["행안부 침수흔적도","과거 기록"]}},{"type":"Feature","id":"FLD:52800:8555:23804","geometry":{"type":"MultiPolygon","coordinates":[[[[126.693171,35.629443],[126.693091,35.629488],[126.693021,35.629415],[126.693108,35.629356],[126.693171,35.629443]]]]},"properties":{"id":"FLD:52800:8555:23804","layer":"FLOOD_TRACE","admin_code":"52800","sido_code":"45","flood_year":"2021","occurred_at":"2021-08-24","ended_at":"2021-08-24","begin_time":"0700","end_time":"1200","disaster_name":"12호 태풍 오마이스","cause_detail":"내수침수","flood_grade":2,"flood_depth_m":0.5,"flood_area_m2":12083,"source_sn":8555,"data_status":"actual","official_data":true,"is_prediction":false,"source":"행정안전부 침수흔적도 · 재난안전데이터공유플랫폼 DSSP-IF-00117","collected_at":"2026-08-19T16:46:51+09:00","source_crs":"EPSG:3857","display_badges":["행안부 침수흔적도","과거 기록"]}},{"type":"Feature","id":"FLD:52800:8556:23805","geometry":{"type":"MultiPolygon","coordinates":[[[[126.693171,35.629443],[126.693091,35.629488],[126.693021,35.629415],[126.693108,35.629356],[126.693171,35.629443]]]]},"properties":{"id":"FLD:52800:8556:23805","layer":"FLOOD_TRACE","admin_code":"52800","sido_code":"45","flood_year":"2021","occurred_at":"2021-08-24","ended_at":"2021-08-24","begin_time":"0700","end_time":"1200","disaster_name":"12호 태풍 오마이스","cause_detail":"내수침수","flood_grade":2,"flood_depth_m":0.5,"flood_area_m2":12083,"source_sn":8556,"data_status":"actual","official_data":true,"is_prediction":false,"source":"행정안전부 침수흔적도 · 재난안전데이터공유플랫폼 DSSP-IF-00117","collected_at":"2026-08-19T16:46:51+09:00","source_crs":"EPSG:3857","display_badges":["행안부 침수흔적도","과거 기록"]}},{"type":"Feature","id":"FLD:52800:8557:23806","geometry":{"type":"MultiPolygon","coordinates":[[[[126.693171,35.629443],[126.693091,35.629488],[126.693021,35.629415],[126.693108,35.629356],[126.693171,35.629443]]]]},"properties":{"id":"FLD:52800:8557:23806","layer":"FLOOD_TRACE","admin_code":"52800","sido_code":"45","flood_year":"2021","occurred_at":"2021-08-24","ended_at":"2021-08-24","begin_time":"0700","end_time":"1200","disaster_name":"12호 태풍 오마이스","cause_detail":"내수침수","flood_grade":2,"flood_depth_m":0.5,"flood_area_m2":12083,"source_sn":8557,"data_status":"actual","official_data":true,"is_prediction":false,"source":"행정안전부 침수흔적도 · 재난안전데이터공유플랫폼 DSSP-IF-00117","collected_at":"2026-08-19T16:46:51+09:00","source_crs":"EPSG:3857","display_badges":["행안부 침수흔적도","과거 기록"]}},{"type":"Feature","id":"FLD:52800:8558:23807","geometry":{"type":"MultiPolygon","coordinates":[[[[126.533416,35.587728],[126.533617,35.587764],[126.533989,35.587851],[126.53495,35.588054],[126.535492,35.588176],[126.535545,35.588209],[126.535553,35.588219],[126.535556,35.588224],[126.535563,35.588273],[126.535554,35.588312],[126.535548,35.588331],[126.535541,35.588346],[126.535506,35.58838],[126.535281,35.588462],[126.535265,35.588472],[126.53521,35.588541],[126.535195,35.58857],[126.535157,35.588628],[126.535127,35.588673],[126.53503,35.588739],[126.534977,35.588779],[126.53494,35.588826],[126.534892,35.588917],[126.534813,35.589166],[126.534806,35.589179],[126.534781,35.589206],[126.534765,35.589215],[126.534749,35.589221],[126.534738,35.589224],[126.534723,35.589226],[126.534711,35.589228],[126.534691,35.589229],[126.53417,35.589128],[126.53371,35.589039],[126.533101,35.588901],[126.533039,35.588879],[126.53302,35.588862],[126.533014,35.588856],[126.533009,35.58884],[126.533054,35.588608],[126.533259,35.587751],[126.533263,35.587733],[126.533267,35.587724],[126.533272,35.587718],[126.53328,35.587715],[126.533416,35.587728]]]]},"properties":{"id":"FLD:52800:8558:23807","layer":"FLOOD_TRACE","admin_code":"52800","sido_code":"45","flood_year":"2021","occurred_at":"2021-08-24","ended_at":"2021-08-24","begin_time":"0700","end_time":"1200","disaster_name":"12호 태풍 오마이스","cause_detail":"내수침수","flood_grade":2,"flood_depth_m":0.5,"flood_area_m2":9804,"source_sn":8558,"data_status":"actual","official_data":true,"is_prediction":false,"source":"행정안전부 침수흔적도 · 재난안전데이터공유플랫폼 DSSP-IF-00117","collected_at":"2026-08-19T16:46:51+09:00","source_crs":"EPSG:3857","display_badges":["행안부 침수흔적도","과거 기록"]}},{"type":"Feature","id":"FLD:52800:8559:23808","geometry":{"type":"MultiPolygon","coordinates":[[[[126.533416,35.587728],[126.533617,35.587764],[126.533989,35.587851],[126.53495,35.588054],[126.535492,35.588176],[126.535545,35.588209],[126.535553,35.588219],[126.535556,35.588224],[126.535563,35.588273],[126.535554,35.588312],[126.535548,35.588331],[126.535541,35.588346],[126.535506,35.58838],[126.535281,35.588462],[126.535265,35.588472],[126.53521,35.588541],[126.535195,35.58857],[126.535157,35.588628],[126.535127,35.588673],[126.53503,35.588739],[126.534977,35.588779],[126.53494,35.588826],[126.534892,35.588917],[126.534813,35.589166],[126.534806,35.589179],[126.534781,35.589206],[126.534765,35.589215],[126.534749,35.589221],[126.534738,35.589224],[126.534723,35.589226],[126.534711,35.589228],[126.534691,35.589229],[126.53417,35.589128],[126.53371,35.589039],[126.533101,35.588901],[126.533039,35.588879],[126.53302,35.588862],[126.533014,35.588856],[126.533009,35.58884],[126.533054,35.588608],[126.533259,35.587751],[126.533263,35.587733],[126.533267,35.587724],[126.533272,35.587718],[126.53328,35.587715],[126.533416,35.587728]]]]},"properties":{"id":"FLD:52800:8559:23808","layer":"FLOOD_TRACE","admin_code":"52800","sido_code":"45","flood_year":"2021","occurred_at":"2021-08-24","ended_at":"2021-08-24","begin_time":"0700","end_time":"1200","disaster_name":"12호 태풍 오마이스","cause_detail":"내수침수","flood_grade":2,"flood_depth_m":0.5,"flood_area_m2":9804,"source_sn":8559,"data_status":"actual","official_data":true,"is_prediction":false,"source":"행정안전부 침수흔적도 · 재난안전데이터공유플랫폼 DSSP-IF-00117","collected_at":"2026-08-19T16:46:51+09:00","source_crs":"EPSG:3857","display_badges":["행안부 침수흔적도","과거 기록"]}},{"type":"Feature","id":"FLD:52800:8560:23809","geometry":{"type":"MultiPolygon","coordinates":[[[[126.533416,35.587728],[126.533617,35.587764],[126.533989,35.587851],[126.53495,35.588054],[126.535492,35.588176],[126.535545,35.588209],[126.535553,35.588219],[126.535556,35.588224],[126.535563,35.588273],[126.535554,35.588312],[126.535548,35.588331],[126.535541,35.588346],[126.535506,35.58838],[126.535281,35.588462],[126.535265,35.588472],[126.53521,35.588541],[126.535195,35.58857],[126.535157,35.588628],[126.535127,35.588673],[126.53503,35.588739],[126.534977,35.588779],[126.53494,35.588826],[126.534892,35.588917],[126.534813,35.589166],[126.534806,35.589179],[126.534781,35.589206],[126.534765,35.589215],[126.534749,35.589221],[126.534738,35.589224],[126.534723,35.589226],[126.534711,35.589228],[126.534691,35.589229],[126.53417,35.589128],[126.53371,35.589039],[126.533101,35.588901],[126.533039,35.588879],[126.53302,35.588862],[126.533014,35.588856],[126.533009,35.58884],[126.533054,35.588608],[126.533259,35.587751],[126.533263,35.587733],[126.533267,35.587724],[126.533272,35.587718],[126.53328,35.587715],[126.533416,35.587728]]]]},"properties":{"id":"FLD:52800:8560:23809","layer":"FLOOD_TRACE","admin_code":"52800","sido_code":"45","flood_year":"2021","occurred_at":"2021-08-24","ended_at":"2021-08-24","begin_time":"0700","end_time":"1200","disaster_name":"12호 태풍 오마이스","cause_detail":"내수침수","flood_grade":2,"flood_depth_m":0.5,"flood_area_m2":9804,"source_sn":8560,"data_status":"actual","official_data":true,"is_prediction":false,"source":"행정안전부 침수흔적도 · 재난안전데이터공유플랫폼 DSSP-IF-00117","collected_at":"2026-08-19T16:46:51+09:00","source_crs":"EPSG:3857","display_badges":["행안부 침수흔적도","과거 기록"]}},{"type":"Feature","id":"FLD:52800:8561:23810","geometry":{"type":"MultiPolygon","coordinates":[[[[126.533416,35.587728],[126.533617,35.587764],[126.533989,35.587851],[126.53495,35.588054],[126.535492,35.588176],[126.535545,35.588209],[126.535553,35.588219],[126.535556,35.588224],[126.535563,35.588273],[126.535554,35.588312],[126.535548,35.588331],[126.535541,35.588346],[126.535506,35.58838],[126.535281,35.588462],[126.535265,35.588472],[126.53521,35.588541],[126.535195,35.58857],[126.535157,35.588628],[126.535127,35.588673],[126.53503,35.588739],[126.534977,35.588779],[126.53494,35.588826],[126.534892,35.588917],[126.534813,35.589166],[126.534806,35.589179],[126.534781,35.589206],[126.534765,35.589215],[126.534749,35.589221],[126.534738,35.589224],[126.534723,35.589226],[126.534711,35.589228],[126.534691,35.589229],[126.53417,35.589128],[126.53371,35.589039],[126.533101,35.588901],[126.533039,35.588879],[126.53302,35.588862],[126.533014,35.588856],[126.533009,35.58884],[126.533054,35.588608],[126.533259,35.587751],[126.533263,35.587733],[126.533267,35.587724],[126.533272,35.587718],[126.53328,35.587715],[126.533416,35.587728]]]]},"properties":{"id":"FLD:52800:8561:23810","layer":"FLOOD_TRACE","admin_code":"52800","sido_code":"45","flood_year":"2021","occurred_at":"2021-08-24","ended_at":"2021-08-24","begin_time":"0700","end_time":"1200","disaster_name":"12호 태풍 오마이스","cause_detail":"내수침수","flood_grade":2,"flood_depth_m":0.5,"flood_area_m2":9804,"source_sn":8561,"data_status":"actual","official_data":true,"is_prediction":false,"source":"행정안전부 침수흔적도 · 재난안전데이터공유플랫폼 DSSP-IF-00117","collected_at":"2026-08-19T16:46:51+09:00","source_crs":"EPSG:3857","display_badges":["행안부 침수흔적도","과거 기록"]}},{"type":"Feature","id":"FLD:52800:8562:23811","geometry":{"type":"MultiPolygon","coordinates":[[[[126.685351,35.583384],[126.685274,35.584067],[126.684157,35.583992],[126.684239,35.5833],[126.685351,35.583384]]]]},"properties":{"id":"FLD:52800:8562:23811","layer":"FLOOD_TRACE","admin_code":"52800","sido_code":"45","flood_year":"2021","occurred_at":"2021-08-24","ended_at":"2021-08-24","begin_time":"0700","end_time":"1200","disaster_name":"12호 태풍 오마이스","cause_detail":"내수침수","flood_grade":2,"flood_depth_m":0.5,"flood_area_m2":7363,"source_sn":8562,"data_status":"actual","official_data":true,"is_prediction":false,"source":"행정안전부 침수흔적도 · 재난안전데이터공유플랫폼 DSSP-IF-00117","collected_at":"2026-08-19T16:46:51+09:00","source_crs":"EPSG:3857","display_badges":["행안부 침수흔적도","과거 기록"]}},{"type":"Feature","id":"FLD:52800:8563:23812","geometry":{"type":"MultiPolygon","coordinates":[[[[126.685351,35.583384],[126.685274,35.584067],[126.684157,35.583992],[126.684239,35.5833],[126.685351,35.583384]]]]},"properties":{"id":"FLD:52800:8563:23812","layer":"FLOOD_TRACE","admin_code":"52800","sido_code":"45","flood_year":"2021","occurred_at":"2021-08-24","ended_at":"2021-08-24","begin_time":"0700","end_time":"1200","disaster_name":"12호 태풍 오마이스","cause_detail":"내수침수","flood_grade":2,"flood_depth_m":0.5,"flood_area_m2":7363,"source_sn":8563,"data_status":"actual","official_data":true,"is_prediction":false,"source":"행정안전부 침수흔적도 · 재난안전데이터공유플랫폼 DSSP-IF-00117","collected_at":"2026-08-19T16:46:51+09:00","source_crs":"EPSG:3857","display_badges":["행안부 침수흔적도","과거 기록"]}},{"type":"Feature","id":"FLD:52800:8564:23962","geometry":{"type":"MultiPolygon","coordinates":[[[[126.685351,35.583384],[126.685274,35.584067],[126.684157,35.583992],[126.684239,35.5833],[126.685351,35.583384]]]]},"properties":{"id":"FLD:52800:8564:23962","layer":"FLOOD_TRACE","admin_code":"52800","sido_code":"45","flood_year":"2021","occurred_at":"2021-08-24","ended_at":"2021-08-24","begin_time":"0700","end_time":"1200","disaster_name":"12호 태풍 오마이스","cause_detail":"내수침수","flood_grade":2,"flood_depth_m":0.5,"flood_area_m2":7363,"source_sn":8564,"data_status":"actual","official_data":true,"is_prediction":false,"source":"행정안전부 침수흔적도 · 재난안전데이터공유플랫폼 DSSP-IF-00117","collected_at":"2026-08-19T16:46:51+09:00","source_crs":"EPSG:3857","display_badges":["행안부 침수흔적도","과거 기록"]}},{"type":"Feature","id":"FLD:52800:8565:23963","geometry":{"type":"MultiPolygon","coordinates":[[[[126.685351,35.583384],[126.685274,35.584067],[126.684157,35.583992],[126.684239,35.5833],[126.685351,35.583384]]]]},"properties":{"id":"FLD:52800:8565:23963","layer":"FLOOD_TRACE","admin_code":"52800","sido_code":"45","flood_year":"2021","occurred_at":"2021-08-24","ended_at":"2021-08-24","begin_time":"0700","end_time":"1200","disaster_name":"12호 태풍 오마이스","cause_detail":"내수침수","flood_grade":2,"flood_depth_m":0.5,"flood_area_m2":7363,"source_sn":8565,"data_status":"actual","official_data":true,"is_prediction":false,"source":"행정안전부 침수흔적도 · 재난안전데이터공유플랫폼 DSSP-IF-00117","collected_at":"2026-08-19T16:46:51+09:00","source_crs":"EPSG:3857","display_badges":["행안부 침수흔적도","과거 기록"]}},{"type":"Feature","id":"FLD:52800:8550:25503","geometry":{"type":"MultiPolygon","coordinates":[[[[126.677523,35.750704],[126.677425,35.751606],[126.676907,35.751558],[126.676871,35.751555],[126.676982,35.750658],[126.677523,35.750704]]]]},"properties":{"id":"FLD:52800:8550:25503","layer":"FLOOD_TRACE","admin_code":"52800","sido_code":"45","flood_year":"2021","occurred_at":"2021-08-24","ended_at":"2021-08-24","begin_time":"0700","end_time":"1200","disaster_name":"12호 태풍 오마이스","cause_detail":"내수침수","flood_grade":2,"flood_depth_m":0.5,"flood_area_m2":4995,"source_sn":8550,"data_status":"actual","official_data":true,"is_prediction":false,"source":"행정안전부 침수흔적도 · 재난안전데이터공유플랫폼 DSSP-IF-00117","collected_at":"2026-08-19T16:46:51+09:00","source_crs":"EPSG:3857","display_badges":["행안부 침수흔적도","과거 기록"]}},{"type":"Feature","id":"FLD:52800:48:33482","geometry":{"type":"MultiPolygon","coordinates":[[[[126.621343,35.741353],[126.621357,35.741322],[126.621318,35.741222],[126.621368,35.741206],[126.621369,35.741206],[126.621607,35.741133],[126.621811,35.741075],[126.621889,35.741053],[126.621981,35.741029],[126.622058,35.740999],[126.62211,35.740964],[126.622184,35.74093],[126.622253,35.740905],[126.622328,35.740886],[126.622423,35.740878],[126.622606,35.740868],[126.622831,35.740855],[126.623269,35.740846],[126.623438,35.740834],[126.623614,35.740809],[126.623617,35.740808],[126.623766,35.740773],[126.623892,35.740743],[126.62393,35.740724],[126.623895,35.740771],[126.623842,35.740809],[126.623385,35.741246],[126.623301,35.741331],[126.62329,35.741342],[126.623117,35.741503],[126.623008,35.741607],[126.622535,35.742063],[126.622493,35.742034],[126.622408,35.741989],[126.622346,35.741939],[126.622306,35.741888],[126.622264,35.741823],[126.622237,35.741782],[126.622168,35.741709],[126.622073,35.74164],[126.622017,35.7416],[126.621942,35.741559],[126.62185,35.741531],[126.621834,35.741525],[126.621728,35.741484],[126.6216,35.741437],[126.621489,35.741401],[126.621476,35.741397],[126.621461,35.741418],[126.621401,35.741394],[126.621355,35.741369],[126.621343,35.741353]]]]},"properties":{"id":"FLD:52800:48:33482","layer":"FLOOD_TRACE","admin_code":"52800","sido_code":"45","flood_year":"2007","occurred_at":"2007-08-28","ended_at":"2007-08-29","begin_time":"0000","end_time":"0000","disaster_name":"집중호우","cause_detail":"집중호우","flood_grade":1,"flood_depth_m":0.31,"flood_area_m2":121391.2,"source_sn":48,"data_status":"actual","official_data":true,"is_prediction":false,"source":"행정안전부 침수흔적도 · 재난안전데이터공유플랫폼 DSSP-IF-00117","collected_at":"2026-08-19T16:46:51+09:00","source_crs":"EPSG:3857","display_badges":["행안부 침수흔적도","과거 기록"]}},{"type":"Feature","id":"FLD:52800:46:33493","geometry":{"type":"MultiPolygon","coordinates":[[[[126.625538,35.740985],[126.625527,35.740963],[126.625481,35.740798],[126.625472,35.740742],[126.625454,35.740578],[126.625449,35.740551],[126.625416,35.740329],[126.625407,35.740302],[126.625363,35.740147],[126.625357,35.740131],[126.625357,35.740094],[126.625358,35.740048],[126.625357,35.739996],[126.625361,35.739988],[126.62537,35.739961],[126.625355,35.739866],[126.625349,35.73985],[126.625364,35.739743],[126.625417,35.739689],[126.625432,35.739673],[126.625414,35.739655],[126.625414,35.739566],[126.625403,35.739488],[126.625392,35.739404],[126.625398,35.739275],[126.625401,35.739187],[126.625391,35.739162],[126.625391,35.739117],[126.62539,35.738955],[126.625392,35.738934],[126.625445,35.738842],[126.625463,35.738395],[126.625463,35.738351],[126.625504,35.737422],[126.625818,35.737425],[126.625929,35.737426],[126.626032,35.737435],[126.62615,35.737444],[126.626211,35.737455],[126.626154,35.737652],[126.626152,35.737727],[126.626171,35.737845],[126.626254,35.738217],[126.626243,35.738314],[126.626214,35.738375],[126.626081,35.738391],[126.626022,35.738416],[126.626006,35.73845],[126.626006,35.738489],[126.626021,35.738525],[126.626052,35.738573],[126.62609,35.738648],[126.626111,35.738705],[126.626106,35.738773],[126.626076,35.738879],[126.626053,35.738924],[126.626065,35.738962],[126.626027,35.739028],[126.625967,35.739711],[126.62593,35.739714],[126.62587,35.739705],[126.625806,35.73973],[126.625735,35.739752],[126.625711,35.739772],[126.62571,35.739788],[126.62571,35.739832],[126.625702,35.739874],[126.625697,35.739894],[126.625681,35.739968],[126.625683,35.740039],[126.62569,35.740061],[126.625735,35.740142],[126.625759,35.74021],[126.625771,35.740225],[126.625823,35.74029],[126.625887,35.74037],[126.6259,35.740399],[126.625974,35.740471],[126.626043,35.740575],[126.626061,35.740653],[126.62605,35.740737],[126.625993,35.740799],[126.625538,35.740985]]]]},"properties":{"id":"FLD:52800:46:33493","layer":"FLOOD_TRACE","admin_code":"52800","sido_code":"45","flood_year":"2007","occurred_at":"2007-08-28","ended_at":"2007-08-29","begin_time":"0000","end_time":"0000","disaster_name":"집중호우","cause_detail":"집중호우","flood_grade":1,"flood_depth_m":0.39,"flood_area_m2":121391.2,"source_sn":46,"data_status":"actual","official_data":true,"is_prediction":false,"source":"행정안전부 침수흔적도 · 재난안전데이터공유플랫폼 DSSP-IF-00117","collected_at":"2026-08-19T16:46:51+09:00","source_crs":"EPSG:3857","display_badges":["행안부 침수흔적도","과거 기록"]}},{"type":"Feature","id":"FLD:52800:54:33494","geometry":{"type":"MultiPolygon","coordinates":[[[[126.641486,35.712947],[126.641524,35.712786],[126.642025,35.712882],[126.64259,35.712903],[126.643324,35.712726],[126.644333,35.712614],[126.645187,35.712589],[126.645248,35.712602],[126.645324,35.712623],[126.645443,35.712657],[126.645581,35.712686],[126.645682,35.71272],[126.645712,35.712754],[126.645761,35.71288],[126.645698,35.712898],[126.645678,35.712903],[126.645448,35.71293],[126.645327,35.712933],[126.645176,35.712938],[126.645034,35.712937],[126.644945,35.712934],[126.644737,35.712942],[126.644568,35.712948],[126.644478,35.71296],[126.644424,35.712927],[126.644335,35.712945],[126.644113,35.712988],[126.64392,35.713023],[126.6439,35.713028],[126.643704,35.713056],[126.643692,35.713058],[126.643666,35.713056],[126.643645,35.713055],[126.643564,35.71307],[126.643364,35.713092],[126.643345,35.713096],[126.643191,35.713127],[126.642996,35.71317],[126.642799,35.713205],[126.642721,35.713215],[126.642622,35.71323],[126.642576,35.713229],[126.642548,35.713233],[126.642413,35.71323],[126.642352,35.713229],[126.642162,35.71321],[126.642031,35.713187],[126.641503,35.713095],[126.641486,35.712947]]]]},"properties":{"id":"FLD:52800:54:33494","layer":"FLOOD_TRACE","admin_code":"52800","sido_code":"45","flood_year":"2007","occurred_at":"2007-08-28","ended_at":"2007-08-29","begin_time":"0000","end_time":"0000","disaster_name":"집중호우","cause_detail":"집중호우","flood_grade":2,"flood_depth_m":0.55,"flood_area_m2":91664.2,"source_sn":54,"data_status":"actual","official_data":true,"is_prediction":false,"source":"행정안전부 침수흔적도 · 재난안전데이터공유플랫폼 DSSP-IF-00117","collected_at":"2026-08-19T16:46:51+09:00","source_crs":"EPSG:3857","display_badges":["행안부 침수흔적도","과거 기록"]}},{"type":"Feature","id":"FLD:52800:52:33495","geometry":{"type":"MultiPolygon","coordinates":[[[[126.60053,35.71575],[126.601348,35.716205],[126.601798,35.716466],[126.601991,35.716581],[126.602164,35.716683],[126.602217,35.716686],[126.602666,35.716938],[126.602834,35.71704],[126.60285,35.717068],[126.602868,35.717115],[126.602925,35.717283],[126.602914,35.717295],[126.602886,35.717306],[126.602731,35.717324],[126.602642,35.717339],[126.602555,35.717373],[126.60251,35.717412],[126.602428,35.717553],[126.602419,35.717562],[126.602344,35.717536],[126.602299,35.717517],[126.602295,35.717494],[126.602313,35.717439],[126.60231,35.717378],[126.602285,35.717333],[126.602237,35.717292],[126.602176,35.71725],[126.602111,35.717221],[126.602013,35.717194],[126.601938,35.717164],[126.60187,35.717134],[126.601815,35.717099],[126.601793,35.717084],[126.601775,35.717068],[126.601741,35.717017],[126.60169,35.716907],[126.601661,35.716846],[126.601645,35.716818],[126.601609,35.716796],[126.601509,35.716748],[126.601412,35.716695],[126.601212,35.716623],[126.601058,35.716561],[126.600951,35.716508],[126.600873,35.716457],[126.600719,35.716347],[126.600584,35.716247],[126.600451,35.716155],[126.600395,35.716086],[126.600384,35.716059],[126.600389,35.716027],[126.600398,35.716003],[126.600442,35.715929],[126.600459,35.715882],[126.600477,35.715813],[126.60053,35.71575]]]]},"properties":{"id":"FLD:52800:52:33495","layer":"FLOOD_TRACE","admin_code":"52800","sido_code":"45","flood_year":"2007","occurred_at":"2007-08-28","ended_at":"2007-08-29","begin_time":"0000","end_time":"0000","disaster_name":"집중호우","cause_detail":"집중호우","flood_grade":1,"flood_depth_m":0.45,"flood_area_m2":175930.8,"source_sn":52,"data_status":"actual","official_data":true,"is_prediction":false,"source":"행정안전부 침수흔적도 · 재난안전데이터공유플랫폼 DSSP-IF-00117","collected_at":"2026-08-19T16:46:51+09:00","source_crs":"EPSG:3857","display_badges":["행안부 침수흔적도","과거 기록"]}},{"type":"Feature","id":"FLD:52800:53:35010","geometry":{"type":"MultiPolygon","coordinates":[[[[126.621708,35.742959],[126.621717,35.742904],[126.621719,35.742892],[126.621786,35.742829],[126.621996,35.742684],[126.622307,35.742913],[126.622351,35.742909],[126.622507,35.742776],[126.622502,35.742761],[126.622573,35.742699],[126.622613,35.742654],[126.622623,35.742643],[126.622684,35.742584],[126.622685,35.742584],[126.622707,35.742567],[126.622715,35.742559],[126.622464,35.742384],[126.622516,35.742334],[126.622714,35.742147],[126.622819,35.742045],[126.62307,35.741808],[126.623185,35.741705],[126.623391,35.741514],[126.623473,35.741435],[126.623551,35.741367],[126.623571,35.741336],[126.623588,35.741323],[126.623873,35.741071],[126.623915,35.741027],[126.624071,35.740878],[126.624271,35.740681],[126.624431,35.74063],[126.625094,35.740401],[126.625132,35.740397],[126.62515,35.740408],[126.625218,35.740725],[126.625176,35.740812],[126.625158,35.740866],[126.625102,35.740912],[126.625053,35.740983],[126.625029,35.741037],[126.624966,35.741164],[126.624863,35.741369],[126.624855,35.741426],[126.624849,35.74146],[126.62485,35.741488],[126.624866,35.741513],[126.62497,35.741577],[126.624988,35.741594],[126.625079,35.74164],[126.625223,35.741686],[126.625256,35.741686],[126.625283,35.741672],[126.625306,35.74164],[126.62532,35.741634],[126.625337,35.74164],[126.625392,35.741684],[126.625444,35.741708],[126.625494,35.741727],[126.625681,35.741799],[126.62568,35.74182],[126.625648,35.741889],[126.625621,35.74197],[126.625615,35.742014],[126.625628,35.742044],[126.625662,35.742058],[126.625774,35.742049],[126.625975,35.742045],[126.626048,35.742067],[126.626092,35.742092],[126.625842,35.74233],[126.625813,35.742358],[126.625647,35.742516],[126.625496,35.742659],[126.625449,35.742704],[126.625094,35.743044],[126.62487,35.743257],[126.624734,35.743384],[126.62462,35.743492],[126.624515,35.743591],[126.624373,35.743727],[126.624202,35.743894],[126.624019,35.744067],[126.623682,35.744388],[126.623584,35.744481],[126.623517,35.744435],[126.623435,35.744393],[126.623244,35.744345],[126.623173,35.744322],[126.623095,35.744277],[126.623011,35.744215],[126.622994,35.744192],[126.622991,35.744169],[126.623026,35.744097],[126.623033,35.744057],[126.623021,35.744023],[126.622968,35.743951],[126.622909,35.743845],[126.62287,35.743798],[126.622839,35.743761],[126.622762,35.743716],[126.622727,35.743702],[126.622556,35.743624],[126.622343,35.743479],[126.622105,35.743283],[126.621708,35.742959]]]]},"properties":{"id":"FLD:52800:53:35010","layer":"FLOOD_TRACE","admin_code":"52800","sido_code":"45","flood_year":"2007","occurred_at":"2007-08-28","ended_at":"2007-08-29","begin_time":"0000","end_time":"0000","disaster_name":"집중호우","cause_detail":"집중호우","flood_grade":1,"flood_depth_m":0.32,"flood_area_m2":121391.2,"source_sn":53,"data_status":"actual","official_data":true,"is_prediction":false,"source":"행정안전부 침수흔적도 · 재난안전데이터공유플랫폼 DSSP-IF-00117","collected_at":"2026-08-19T16:46:51+09:00","source_crs":"EPSG:3857","display_badges":["행안부 침수흔적도","과거 기록"]}},{"type":"Feature","id":"FLD:52800:49:35011","geometry":{"type":"MultiPolygon","coordinates":[[[[126.647498,35.715492],[126.647567,35.715235],[126.647653,35.714989],[126.647651,35.714932],[126.647516,35.714725],[126.647327,35.714434],[126.647135,35.714126],[126.648099,35.713721],[126.648293,35.714025],[126.64848,35.714318],[126.648611,35.714522],[126.64861,35.714564],[126.64857,35.714656],[126.648236,35.715384],[126.647906,35.716122],[126.647498,35.715522],[126.647498,35.715492]]]]},"properties":{"id":"FLD:52800:49:35011","layer":"FLOOD_TRACE","admin_code":"52800","sido_code":"45","flood_year":"2007","occurred_at":"2007-08-28","ended_at":"2007-08-29","begin_time":"0000","end_time":"0000","disaster_name":"집중호우","cause_detail":"집중호우","flood_grade":2,"flood_depth_m":0.51,"flood_area_m2":91664.2,"source_sn":49,"data_status":"actual","official_data":true,"is_prediction":false,"source":"행정안전부 침수흔적도 · 재난안전데이터공유플랫폼 DSSP-IF-00117","collected_at":"2026-08-19T16:46:51+09:00","source_crs":"EPSG:3857","display_badges":["행안부 침수흔적도","과거 기록"]}},{"type":"Feature","id":"FLD:52800:45:35012","geometry":{"type":"MultiPolygon","coordinates":[[[[126.647389,35.715389],[126.647347,35.715352],[126.646674,35.715014],[126.646658,35.715006],[126.64655,35.714965],[126.646424,35.714947],[126.646284,35.714927],[126.646205,35.714916],[126.6462,35.714916],[126.646161,35.714916],[126.646017,35.714882],[126.645733,35.71485],[126.645705,35.714831],[126.645667,35.71482],[126.645541,35.714809],[126.645461,35.714792],[126.645271,35.714706],[126.64523,35.714676],[126.645041,35.714514],[126.645016,35.714507],[126.644774,35.71422],[126.64475,35.714205],[126.644611,35.71404],[126.644415,35.71381],[126.644841,35.713623],[126.644749,35.713505],[126.644712,35.713457],[126.644655,35.713395],[126.644636,35.713388],[126.644565,35.713405],[126.644454,35.713443],[126.644432,35.713451],[126.644402,35.713405],[126.644369,35.7134],[126.64413,35.713507],[126.644041,35.713408],[126.644016,35.713363],[126.644004,35.713305],[126.644001,35.713256],[126.644006,35.713225],[126.644033,35.713209],[126.644107,35.71319],[126.644358,35.713147],[126.64448,35.713136],[126.644754,35.713118],[126.644919,35.713113],[126.645064,35.713116],[126.645139,35.713122],[126.645348,35.71312],[126.645538,35.713102],[126.645668,35.713085],[126.645753,35.713072],[126.645871,35.713048],[126.646239,35.712939],[126.64639,35.712938],[126.646602,35.712851],[126.646713,35.712812],[126.646978,35.712753],[126.647061,35.712751],[126.647451,35.712768],[126.647479,35.712769],[126.647592,35.712929],[126.647645,35.713005],[126.647832,35.713298],[126.647839,35.713325],[126.647918,35.713444],[126.648099,35.713721],[126.647135,35.714126],[126.647327,35.714434],[126.647516,35.714725],[126.647651,35.714932],[126.647653,35.714989],[126.647567,35.715235],[126.647498,35.715492],[126.647436,35.71543],[126.647389,35.715389]]]]},"properties":{"id":"FLD:52800:45:35012","layer":"FLOOD_TRACE","admin_code":"52800","sido_code":"45","flood_year":"2007","occurred_at":"2007-08-28","ended_at":"2007-08-29","begin_time":"0000","end_time":"0000","disaster_name":"집중호우","cause_detail":"집중호우","flood_grade":1,"flood_depth_m":0.34,"flood_area_m2":91664.2,"source_sn":45,"data_status":"actual","official_data":true,"is_prediction":false,"source":"행정안전부 침수흔적도 · 재난안전데이터공유플랫폼 DSSP-IF-00117","collected_at":"2026-08-19T16:46:51+09:00","source_crs":"EPSG:3857","display_badges":["행안부 침수흔적도","과거 기록"]}},{"type":"Feature","id":"FLD:52800:47:35013","geometry":{"type":"MultiPolygon","coordinates":[[[[126.599472,35.71551],[126.599323,35.715494],[126.599246,35.715491],[126.59921,35.715482],[126.59917,35.715461],[126.599125,35.715427],[126.599004,35.715304],[126.598928,35.715215],[126.598784,35.714982],[126.598686,35.71474],[126.598598,35.714619],[126.598336,35.714267],[126.598317,35.714234],[126.598308,35.7139],[126.598305,35.713751],[126.598304,35.713545],[126.598287,35.713353],[126.598283,35.713188],[126.599387,35.713157],[126.599474,35.713156],[126.600577,35.713128],[126.600637,35.713129],[126.600625,35.712768],[126.601453,35.71275],[126.60175,35.713009],[126.601755,35.713101],[126.601758,35.713192],[126.601771,35.713463],[126.601764,35.713586],[126.601755,35.713643],[126.601759,35.713671],[126.601846,35.713825],[126.601883,35.71389],[126.601466,35.714198],[126.601481,35.714198],[126.601176,35.714411],[126.601158,35.714425],[126.601098,35.714476],[126.601037,35.714536],[126.600706,35.714918],[126.600646,35.714975],[126.600502,35.715143],[126.600397,35.715268],[126.600331,35.715342],[126.600295,35.71539],[126.600254,35.715466],[126.600228,35.715502],[126.600158,35.715558],[126.600096,35.715592],[126.600016,35.71563],[126.599959,35.715639],[126.599908,35.71564],[126.59986,35.715634],[126.599624,35.715563],[126.5996,35.715549],[126.59957,35.715537],[126.599501,35.715507],[126.599472,35.71551]]]]},"properties":{"id":"FLD:52800:47:35013","layer":"FLOOD_TRACE","admin_code":"52800","sido_code":"45","flood_year":"2007","occurred_at":"2007-08-28","ended_at":"2007-08-29","begin_time":"0000","end_time":"0000","disaster_name":"집중호우","cause_detail":"집중호우","flood_grade":1,"flood_depth_m":0.35,"flood_area_m2":175930.8,"source_sn":47,"data_status":"actual","official_data":true,"is_prediction":false,"source":"행정안전부 침수흔적도 · 재난안전데이터공유플랫폼 DSSP-IF-00117","collected_at":"2026-08-19T16:46:51+09:00","source_crs":"EPSG:3857","display_badges":["행안부 침수흔적도","과거 기록"]}},{"type":"Feature","id":"FLD:52800:56:35062","geometry":{"type":"MultiPolygon","coordinates":[[[[126.290282,35.606271],[126.290248,35.606138],[126.290166,35.605791],[126.290191,35.60558],[126.290254,35.605482],[126.290369,35.605318],[126.290555,35.605166],[126.290653,35.60504],[126.290968,35.604792],[126.291149,35.604677],[126.291263,35.604627],[126.291411,35.604569],[126.291505,35.604472],[126.291481,35.604368],[126.291537,35.604416],[126.291525,35.604307],[126.291554,35.604168],[126.291606,35.604161],[126.291674,35.604158],[126.291731,35.604162],[126.291744,35.604162],[126.291837,35.604168],[126.291897,35.604161],[126.291915,35.604159],[126.292031,35.604145],[126.292109,35.604117],[126.292202,35.60406],[126.292227,35.604042],[126.292265,35.604013],[126.292318,35.603973],[126.292419,35.603932],[126.29254,35.603843],[126.292597,35.60378],[126.292671,35.603741],[126.292756,35.603724],[126.292772,35.603716],[126.292845,35.603714],[126.292863,35.603725],[126.293031,35.603769],[126.293058,35.603769],[126.293061,35.603769],[126.293063,35.603764],[126.293138,35.60377],[126.29323,35.603818],[126.293266,35.603851],[126.293323,35.603871],[126.293399,35.603875],[126.293447,35.603878],[126.293465,35.60387],[126.293628,35.603898],[126.293653,35.603901],[126.293684,35.603865],[126.293731,35.603876],[126.293911,35.603905],[126.293977,35.60386],[126.294048,35.603877],[126.294086,35.603865],[126.29415,35.603868],[126.29418,35.603786],[126.294405,35.603866],[126.294598,35.603942],[126.294651,35.603926],[126.294649,35.604026],[126.29466,35.604084],[126.294633,35.604169],[126.294691,35.604178],[126.294714,35.604182],[126.294736,35.604185],[126.294747,35.6041],[126.294752,35.604022],[126.294764,35.603954],[126.294784,35.603882],[126.294844,35.603895],[126.294836,35.603929],[126.294974,35.603935],[126.295032,35.603892],[126.29507,35.603936],[126.295221,35.603995],[126.295304,35.60397],[126.295372,35.60393],[126.2955,35.60399],[126.295566,35.603959],[126.295662,35.603955],[126.295819,35.603909],[126.295859,35.603988],[126.295908,35.60397],[126.296158,35.603895],[126.296158,35.603914],[126.296182,35.603946],[126.29619,35.603955],[126.296369,35.603913],[126.296476,35.603887],[126.296558,35.603894],[126.296672,35.603993],[126.296706,35.603965],[126.296793,35.60399],[126.296888,35.604042],[126.296834,35.604143],[126.296968,35.604212],[126.297015,35.604229],[126.296809,35.604421],[126.296635,35.604409],[126.296537,35.604413],[126.29655,35.604462],[126.296559,35.604553],[126.296553,35.604691],[126.296541,35.604753],[126.2965,35.604748],[126.29647,35.604811],[126.296368,35.604785],[126.296226,35.604975],[126.296141,35.605022],[126.296062,35.605092],[126.296027,35.60518],[126.296011,35.605189],[126.295922,35.605311],[126.295838,35.605423],[126.295763,35.605523],[126.295727,35.605571],[126.295757,35.605612],[126.295719,35.605582],[126.295754,35.605714],[126.295607,35.60563],[126.295501,35.605426],[126.295171,35.604945],[126.295066,35.604798],[126.295019,35.60471],[126.294582,35.604339],[126.294565,35.604352],[126.294511,35.604312],[126.294436,35.604293],[126.294358,35.604276],[126.294196,35.60426],[126.293964,35.604239],[126.293847,35.604242],[126.293687,35.604264],[126.293698,35.604374],[126.293628,35.604377],[126.293628,35.604649],[126.293575,35.604649],[126.293573,35.604446],[126.293425,35.604462],[126.293215,35.604382],[126.292937,35.604502],[126.29283,35.604544],[126.292619,35.604611],[126.292492,35.604639],[126.292027,35.604773],[126.291802,35.604834],[126.291668,35.604883],[126.291491,35.60496],[126.291363,35.605067],[126.291165,35.605252],[126.290999,35.605444],[126.29084,35.605621],[126.290556,35.605912],[126.290553,35.605979],[126.290613,35.606158],[126.290361,35.606231],[126.290306,35.606259],[126.290282,35.606271]]]]},"properties":{"id":"FLD:52800:56:35062","layer":"FLOOD_TRACE","admin_code":"52800","sido_code":"45","flood_year":"2007","occurred_at":"2007-03-31","ended_at":"2007-03-31","begin_time":"0000","end_time":"0000","disaster_name":"2007. 03. 31  해수면 범람","cause_detail":"해수면 범람","flood_grade":1,"flood_depth_m":0.3,"flood_area_m2":67020,"source_sn":56,"data_status":"actual","official_data":true,"is_prediction":false,"source":"행정안전부 침수흔적도 · 재난안전데이터공유플랫폼 DSSP-IF-00117","collected_at":"2026-08-19T16:46:51+09:00","source_crs":"EPSG:3857","display_badges":["행안부 침수흔적도","과거 기록"]}},{"type":"Feature","id":"FLD:52800:57:35089","geometry":{"type":"MultiPolygon","coordinates":[[[[126.289279,35.606188],[126.289361,35.605928],[126.289387,35.605886],[126.289507,35.605755],[126.289514,35.605703],[126.289523,35.605625],[126.289554,35.60538],[126.28956,35.60537],[126.289636,35.60524],[126.28974,35.605113],[126.289938,35.604945],[126.29012,35.604767],[126.290227,35.604687],[126.290591,35.604458],[126.290964,35.604216],[126.291072,35.604207],[126.291208,35.604194],[126.291433,35.604192],[126.291554,35.604168],[126.291525,35.604307],[126.291537,35.604416],[126.291481,35.604368],[126.291505,35.604472],[126.291411,35.604569],[126.291263,35.604627],[126.291149,35.604677],[126.290968,35.604792],[126.290653,35.60504],[126.290555,35.605166],[126.290369,35.605318],[126.290254,35.605482],[126.290191,35.60558],[126.290166,35.605791],[126.290248,35.606138],[126.289508,35.60622],[126.28942,35.606257],[126.289279,35.606188]]]]},"properties":{"id":"FLD:52800:57:35089","layer":"FLOOD_TRACE","admin_code":"52800","sido_code":"45","flood_year":"2007","occurred_at":"2007-03-31","ended_at":"2007-03-31","begin_time":"0000","end_time":"0000","disaster_name":"2007. 03. 31  해수면 범람","cause_detail":"해수면 범람","flood_grade":2,"flood_depth_m":0.5,"flood_area_m2":67020,"source_sn":57,"data_status":"actual","official_data":true,"is_prediction":false,"source":"행정안전부 침수흔적도 · 재난안전데이터공유플랫폼 DSSP-IF-00117","collected_at":"2026-08-19T16:46:51+09:00","source_crs":"EPSG:3857","display_badges":["행안부 침수흔적도","과거 기록"]}},{"type":"Feature","id":"FLD:52800:50:36176","geometry":{"type":"MultiPolygon","coordinates":[[[[126.624068,35.740502],[126.624069,35.740366],[126.62408,35.740285],[126.62411,35.740244],[126.624141,35.740142],[126.624277,35.73998],[126.624279,35.739808],[126.624374,35.739644],[126.624468,35.739493],[126.624593,35.739384],[126.624664,35.739319],[126.624695,35.739139],[126.624723,35.739077],[126.62481,35.738987],[126.624878,35.738944],[126.624947,35.738919],[126.625023,35.73883],[126.625063,35.738841],[126.625199,35.738836],[126.625211,35.73887],[126.625209,35.738934],[126.624948,35.739424],[126.624858,35.739581],[126.624707,35.739853],[126.624635,35.739979],[126.624498,35.740224],[126.624395,35.740343],[126.624162,35.740543],[126.624119,35.740572],[126.624098,35.740492],[126.624068,35.740502]]]]},"properties":{"id":"FLD:52800:50:36176","layer":"FLOOD_TRACE","admin_code":"52800","sido_code":"45","flood_year":"2007","occurred_at":"2007-08-28","ended_at":"2007-08-29","begin_time":"0000","end_time":"0000","disaster_name":"집중호우","cause_detail":"집중호우","flood_grade":1,"flood_depth_m":0.32,"flood_area_m2":121391.2,"source_sn":50,"data_status":"actual","official_data":true,"is_prediction":false,"source":"행정안전부 침수흔적도 · 재난안전데이터공유플랫폼 DSSP-IF-00117","collected_at":"2026-08-19T16:46:51+09:00","source_crs":"EPSG:3857","display_badges":["행안부 침수흔적도","과거 기록"]}},{"type":"Feature","id":"FLD:52800:51:36177","geometry":{"type":"MultiPolygon","coordinates":[[[[126.600471,35.715495],[126.600472,35.715458],[126.600694,35.715186],[126.600947,35.714888],[126.60109,35.71472],[126.601101,35.714786],[126.601124,35.714819],[126.601394,35.715002],[126.601459,35.715036],[126.601518,35.715051],[126.601577,35.715062],[126.601663,35.715074],[126.601764,35.715074],[126.6018,35.715064],[126.601843,35.715049],[126.601887,35.715023],[126.60192,35.714984],[126.601945,35.714925],[126.60196,35.714828],[126.601964,35.714744],[126.601953,35.714698],[126.601922,35.714632],[126.601884,35.714486],[126.601852,35.714438],[126.601834,35.714425],[126.601807,35.714417],[126.601701,35.714409],[126.601593,35.714413],[126.60156,35.714402],[126.601545,35.714382],[126.601526,35.714378],[126.601516,35.71437],[126.601857,35.714098],[126.601872,35.714087],[126.60219,35.713843],[126.602899,35.714249],[126.602958,35.714277],[126.603839,35.714775],[126.603909,35.714809],[126.603954,35.714834],[126.604848,35.715345],[126.604897,35.715361],[126.604901,35.715362],[126.605194,35.715545],[126.605139,35.715608],[126.60497,35.715841],[126.604811,35.716059],[126.604738,35.716157],[126.604581,35.716366],[126.604507,35.716464],[126.60434,35.716686],[126.604302,35.716787],[126.604195,35.71707],[126.604206,35.717172],[126.604215,35.717255],[126.604203,35.717337],[126.604183,35.717467],[126.604151,35.717578],[126.604109,35.717719],[126.604014,35.71781],[126.603887,35.717933],[126.603864,35.717955],[126.603709,35.718048],[126.603582,35.718119],[126.60343,35.718182],[126.603305,35.717858],[126.603157,35.717406],[126.603138,35.717345],[126.60302,35.716972],[126.603011,35.716952],[126.602411,35.716614],[126.602385,35.716599],[126.602342,35.716569],[126.601436,35.71606],[126.601389,35.716026],[126.600471,35.715495]]]]},"properties":{"id":"FLD:52800:51:36177","layer":"FLOOD_TRACE","admin_code":"52800","sido_code":"45","flood_year":"2007","occurred_at":"2007-08-28","ended_at":"2007-08-29","begin_time":"0000","end_time":"0000","disaster_name":"집중호우","cause_detail":"집중호우","flood_grade":1,"flood_depth_m":0.3,"flood_area_m2":175930.8,"source_sn":51,"data_status":"actual","official_data":true,"is_prediction":false,"source":"행정안전부 침수흔적도 · 재난안전데이터공유플랫폼 DSSP-IF-00117","collected_at":"2026-08-19T16:46:51+09:00","source_crs":"EPSG:3857","display_badges":["행안부 침수흔적도","과거 기록"]}},{"type":"Feature","id":"FLD:52800:55:36193","geometry":{"type":"MultiPolygon","coordinates":[[[[126.599252,35.715566],[126.599294,35.715545],[126.599514,35.715588],[126.599559,35.715598],[126.599696,35.715643],[126.599756,35.715663],[126.599891,35.715707],[126.59992,35.715699],[126.600007,35.715673],[126.600095,35.715647],[126.600214,35.715575],[126.600271,35.715577],[126.600294,35.715594],[126.600479,35.715713],[126.600511,35.715724],[126.600468,35.71575],[126.600428,35.715794],[126.600427,35.715814],[126.600393,35.715881],[126.600376,35.715914],[126.60037,35.715925],[126.6003,35.716017],[126.600311,35.716069],[126.600344,35.71613],[126.600376,35.716176],[126.600496,35.716268],[126.600527,35.716285],[126.600566,35.716306],[126.600664,35.71638],[126.600852,35.716511],[126.600964,35.71659],[126.601007,35.716607],[126.601035,35.71662],[126.601249,35.716696],[126.60132,35.71672],[126.601385,35.716737],[126.601359,35.716754],[126.601377,35.716767],[126.60134,35.716873],[126.601322,35.716973],[126.600213,35.71634],[126.599912,35.716012],[126.599252,35.715566]]]]},"properties":{"id":"FLD:52800:55:36193","layer":"FLOOD_TRACE","admin_code":"52800","sido_code":"45","flood_year":"2007","occurred_at":"2007-08-28","ended_at":"2007-08-29","begin_time":"0000","end_time":"0000","disaster_name":"집중호우","cause_detail":"집중호우","flood_grade":1,"flood_depth_m":0.36,"flood_area_m2":175930.8,"source_sn":55,"data_status":"actual","official_data":true,"is_prediction":false,"source":"행정안전부 침수흔적도 · 재난안전데이터공유플랫폼 DSSP-IF-00117","collected_at":"2026-08-19T16:46:51+09:00","source_crs":"EPSG:3857","display_badges":["행안부 침수흔적도","과거 기록"]}}]}