{"type":"FeatureCollection","features":[{"type":"Feature","id":"FLD:30230:45:7498","geometry":{"type":"MultiPolygon","coordinates":[[[[127.415913,36.40272],[127.41679,36.402326],[127.417194,36.402993],[127.417813,36.402764],[127.417411,36.402104],[127.417825,36.401947],[127.418206,36.402604],[127.418215,36.403177],[127.418079,36.403464],[127.417875,36.403691],[127.417539,36.4039],[127.416878,36.404071],[127.416377,36.404101],[127.416,36.403357],[127.415893,36.403056],[127.415913,36.40272]]]]},"properties":{"id":"FLD:30230:45:7498","layer":"FLOOD_TRACE","admin_code":"30230","sido_code":"30","flood_year":"2018","occurred_at":"2018-08-28","ended_at":"2018-08-28","begin_time":"0600","end_time":"1400","disaster_name":"2018.08.28 집중호우","cause_detail":"저지대 및 갑천 역류","flood_grade":2,"flood_depth_m":0.7,"flood_area_m2":29940.791,"source_sn":45,"data_status":"actual","official_data":true,"is_prediction":false,"source":"행정안전부 침수흔적도 · 재난안전데이터공유플랫폼 DSSP-IF-00117","collected_at":"2026-08-19T16:46:51+09:00","source_crs":"EPSG:3857","display_badges":["행안부 침수흔적도","과거 기록"]}},{"type":"Feature","id":"FLD:30230:44:7499","geometry":{"type":"MultiPolygon","coordinates":[[[[127.415406,36.40177],[127.414748,36.398712],[127.415992,36.398428],[127.416239,36.399167],[127.416769,36.399048],[127.417273,36.400518],[127.4162,36.400763],[127.416455,36.401502],[127.416185,36.401531],[127.415406,36.40177]]]]},"properties":{"id":"FLD:30230:44:7499","layer":"FLOOD_TRACE","admin_code":"30230","sido_code":"30","flood_year":"2018","occurred_at":"2018-08-28","ended_at":"2018-08-28","begin_time":"0600","end_time":"1400","disaster_name":"2018.08.28 집중호우","cause_detail":"저지대 및 갑천 역류","flood_grade":2,"flood_depth_m":0.7,"flood_area_m2":48891.588,"source_sn":44,"data_status":"actual","official_data":true,"is_prediction":false,"source":"행정안전부 침수흔적도 · 재난안전데이터공유플랫폼 DSSP-IF-00117","collected_at":"2026-08-19T16:46:51+09:00","source_crs":"EPSG:3857","display_badges":["행안부 침수흔적도","과거 기록"]}},{"type":"Feature","id":"FLD:30230:46:7500","geometry":{"type":"MultiPolygon","coordinates":[[[[127.420349,36.408662],[127.420453,36.408754],[127.421604,36.411789],[127.420849,36.411715],[127.419279,36.409072],[127.420349,36.408662]]]]},"properties":{"id":"FLD:30230:46:7500","layer":"FLOOD_TRACE","admin_code":"30230","sido_code":"30","flood_year":"2018","occurred_at":"2018-08-28","ended_at":"2018-08-28","begin_time":"0600","end_time":"1300","disaster_name":"2018 집중호우","cause_detail":"집중호우","flood_grade":2,"flood_depth_m":0.7,"flood_area_m2":29606.793,"source_sn":46,"data_status":"actual","official_data":true,"is_prediction":false,"source":"행정안전부 침수흔적도 · 재난안전데이터공유플랫폼 DSSP-IF-00117","collected_at":"2026-08-19T16:46:51+09:00","source_crs":"EPSG:3857","display_badges":["행안부 침수흔적도","과거 기록"]}},{"type":"Feature","id":"FLD:30230:12:9699","geometry":{"type":"MultiPolygon","coordinates":[[[[127.43051,36.444647],[127.430671,36.444552],[127.4308,36.444704],[127.43083,36.444786],[127.430804,36.444794],[127.430878,36.444899],[127.430825,36.444894],[127.430753,36.444974],[127.430439,36.444921],[127.43051,36.444647]]]]},"properties":{"id":"FLD:30230:12:9699","layer":"FLOOD_TRACE","admin_code":"30230","sido_code":"30","flood_year":"2019","occurred_at":"2019-09-05","ended_at":"2019-09-05","begin_time":"1800","end_time":"2100","disaster_name":"9.5 집중호우","cause_detail":"배수시설 용량 부족","flood_grade":2,"flood_depth_m":0.833,"flood_area_m2":1138.6,"source_sn":12,"data_status":"actual","official_data":true,"is_prediction":false,"source":"행정안전부 침수흔적도 · 재난안전데이터공유플랫폼 DSSP-IF-00117","collected_at":"2026-08-19T16:46:51+09:00","source_crs":"EPSG:3857","display_badges":["행안부 침수흔적도","과거 기록"]}},{"type":"Feature","id":"FLD:30230:11:9700","geometry":{"type":"MultiPolygon","coordinates":[[[[127.431071,36.451534],[127.431111,36.451438],[127.431201,36.451451],[127.431346,36.451503],[127.431254,36.451613],[127.431099,36.451638],[127.431071,36.451534]]]]},"properties":{"id":"FLD:30230:11:9700","layer":"FLOOD_TRACE","admin_code":"30230","sido_code":"30","flood_year":"2019","occurred_at":"2019-09-05","ended_at":"2019-09-05","begin_time":"1800","end_time":"2100","disaster_name":"9.5 집중호우","cause_detail":"배수시설 용량 부족","flood_grade":3,"flood_depth_m":1.014,"flood_area_m2":358.7,"source_sn":11,"data_status":"actual","official_data":true,"is_prediction":false,"source":"행정안전부 침수흔적도 · 재난안전데이터공유플랫폼 DSSP-IF-00117","collected_at":"2026-08-19T16:46:51+09:00","source_crs":"EPSG:3857","display_badges":["행안부 침수흔적도","과거 기록"]}},{"type":"Feature","id":"FLD:30230:10:9701","geometry":{"type":"MultiPolygon","coordinates":[[[[127.430024,36.44457],[127.429723,36.444517],[127.429728,36.444499],[127.430034,36.444559],[127.430024,36.44457]]]]},"properties":{"id":"FLD:30230:10:9701","layer":"FLOOD_TRACE","admin_code":"30230","sido_code":"30","flood_year":"2019","occurred_at":"2019-09-05","ended_at":"2019-09-05","begin_time":"1800","end_time":"2100","disaster_name":"9.5 집중호우","cause_detail":"하천역류","flood_grade":1,"flood_depth_m":0.029,"flood_area_m2":47.5,"source_sn":10,"data_status":"actual","official_data":true,"is_prediction":false,"source":"행정안전부 침수흔적도 · 재난안전데이터공유플랫폼 DSSP-IF-00117","collected_at":"2026-08-19T16:46:51+09:00","source_crs":"EPSG:3857","display_badges":["행안부 침수흔적도","과거 기록"]}},{"type":"Feature","id":"FLD:30230:539:11581","geometry":{"type":"MultiPolygon","coordinates":[[[[127.408439,36.357026],[127.408477,36.356943],[127.408565,36.356719],[127.408925,36.356416],[127.408987,36.356463],[127.40887,36.356558],[127.409102,36.356734],[127.408983,36.356829],[127.40922,36.357019],[127.40932,36.35704],[127.409604,36.357256],[127.409729,36.357156],[127.409787,36.357206],[127.410008,36.35777],[127.409931,36.357823],[127.409879,36.357862],[127.409588,36.357782],[127.409627,36.357669],[127.408439,36.357026]]]]},"properties":{"id":"FLD:30230:539:11581","layer":"FLOOD_TRACE","admin_code":"30230","sido_code":"30","flood_year":"2020","occurred_at":"2020-07-30","ended_at":"2020-07-30","begin_time":"0500","end_time":"1800","disaster_name":"2020집중호우","cause_detail":"하수구 역류","flood_grade":1,"flood_depth_m":0.411,"flood_area_m2":7594.1,"source_sn":539,"data_status":"actual","official_data":true,"is_prediction":false,"source":"행정안전부 침수흔적도 · 재난안전데이터공유플랫폼 DSSP-IF-00117","collected_at":"2026-08-19T16:46:51+09:00","source_crs":"EPSG:3857","display_badges":["행안부 침수흔적도","과거 기록"]}},{"type":"Feature","id":"FLD:30230:538:11582","geometry":{"type":"MultiPolygon","coordinates":[[[[127.415421,36.350853],[127.415588,36.349525],[127.415798,36.349551],[127.415643,36.350575],[127.415413,36.352394],[127.415174,36.352376],[127.4154,36.351011],[127.41504,36.350976],[127.415059,36.350819],[127.415421,36.350853]]]]},"properties":{"id":"FLD:30230:538:11582","layer":"FLOOD_TRACE","admin_code":"30230","sido_code":"30","flood_year":"2020","occurred_at":"2020-07-30","ended_at":"2020-07-30","begin_time":"0500","end_time":"1800","disaster_name":"2020집중호우","cause_detail":"하수구역류","flood_grade":3,"flood_depth_m":1.35,"flood_area_m2":6393.1,"source_sn":538,"data_status":"actual","official_data":true,"is_prediction":false,"source":"행정안전부 침수흔적도 · 재난안전데이터공유플랫폼 DSSP-IF-00117","collected_at":"2026-08-19T16:46:51+09:00","source_crs":"EPSG:3857","display_badges":["행안부 침수흔적도","과거 기록"]}},{"type":"Feature","id":"FLD:30230:541:11583","geometry":{"type":"MultiPolygon","coordinates":[[[[127.417851,36.40113],[127.417805,36.401018],[127.417871,36.401038],[127.418473,36.400835],[127.418474,36.400788],[127.418525,36.400717],[127.418567,36.400749],[127.418483,36.400882],[127.417851,36.40113]]]]},"properties":{"id":"FLD:30230:541:11583","layer":"FLOOD_TRACE","admin_code":"30230","sido_code":"30","flood_year":"2020","occurred_at":"2020-07-30","ended_at":"2020-07-30","begin_time":"0500","end_time":"1900","disaster_name":"2020집중호우","cause_detail":"하천역류","flood_grade":2,"flood_depth_m":0.777,"flood_area_m2":517.8,"source_sn":541,"data_status":"actual","official_data":true,"is_prediction":false,"source":"행정안전부 침수흔적도 · 재난안전데이터공유플랫폼 DSSP-IF-00117","collected_at":"2026-08-19T16:46:51+09:00","source_crs":"EPSG:3857","display_badges":["행안부 침수흔적도","과거 기록"]}},{"type":"Feature","id":"FLD:30230:540:11584","geometry":{"type":"MultiPolygon","coordinates":[[[[127.420942,36.398003],[127.42103,36.397977],[127.420928,36.397906],[127.420883,36.397903],[127.420883,36.397892],[127.420936,36.397897],[127.42094,36.397836],[127.420929,36.397773],[127.42095,36.397777],[127.421098,36.398055],[127.421052,36.398077],[127.421024,36.398037],[127.420942,36.398003]]]]},"properties":{"id":"FLD:30230:540:11584","layer":"FLOOD_TRACE","admin_code":"30230","sido_code":"30","flood_year":"2020","occurred_at":"2020-07-30","ended_at":"2020-07-30","begin_time":"0300","end_time":"1800","disaster_name":"2020집중호우","cause_detail":"저지대 침수 및 하수구 역류","flood_grade":1,"flood_depth_m":0.182,"flood_area_m2":179.1,"source_sn":540,"data_status":"actual","official_data":true,"is_prediction":false,"source":"행정안전부 침수흔적도 · 재난안전데이터공유플랫폼 DSSP-IF-00117","collected_at":"2026-08-19T16:46:51+09:00","source_crs":"EPSG:3857","display_badges":["행안부 침수흔적도","과거 기록"]}},{"type":"Feature","id":"FLD:30230:542:11585","geometry":{"type":"MultiPolygon","coordinates":[[[[127.420985,36.411025],[127.42095,36.411757],[127.4208,36.411726],[127.420811,36.411696],[127.420749,36.411663],[127.420488,36.411275],[127.42055,36.411014],[127.420985,36.411025]]]]},"properties":{"id":"FLD:30230:542:11585","layer":"FLOOD_TRACE","admin_code":"30230","sido_code":"30","flood_year":"2020","occurred_at":"2020-07-30","ended_at":"2020-07-30","begin_time":"0600","end_time":"1800","disaster_name":"2020집중호우","cause_detail":"하천 역류","flood_grade":2,"flood_depth_m":0.523,"flood_area_m2":2630.6,"source_sn":542,"data_status":"actual","official_data":true,"is_prediction":false,"source":"행정안전부 침수흔적도 · 재난안전데이터공유플랫폼 DSSP-IF-00117","collected_at":"2026-08-19T16:46:51+09:00","source_crs":"EPSG:3857","display_badges":["행안부 침수흔적도","과거 기록"]}},{"type":"Feature","id":"FLD:30230:543:11586","geometry":{"type":"MultiPolygon","coordinates":[[[[127.44617,36.355921],[127.446149,36.355912],[127.446048,36.355769],[127.446151,36.355731],[127.446217,36.355872],[127.446237,36.355902],[127.44617,36.355921]]]]},"properties":{"id":"FLD:30230:543:11586","layer":"FLOOD_TRACE","admin_code":"30230","sido_code":"30","flood_year":"2020","occurred_at":"2020-07-30","ended_at":"2020-07-30","begin_time":"0700","end_time":"1800","disaster_name":"2020집중호우","cause_detail":"저지대침수 및 하수구역류","flood_grade":2,"flood_depth_m":0.788,"flood_area_m2":172.5,"source_sn":543,"data_status":"actual","official_data":true,"is_prediction":false,"source":"행정안전부 침수흔적도 · 재난안전데이터공유플랫폼 DSSP-IF-00117","collected_at":"2026-08-19T16:46:51+09:00","source_crs":"EPSG:3857","display_badges":["행안부 침수흔적도","과거 기록"]}},{"type":"Feature","id":"FLD:30230:544:11587","geometry":{"type":"MultiPolygon","coordinates":[[[[127.420118,36.43783],[127.42037,36.437791],[127.420401,36.437877],[127.420125,36.437892],[127.420118,36.43783]]]]},"properties":{"id":"FLD:30230:544:11587","layer":"FLOOD_TRACE","admin_code":"30230","sido_code":"30","flood_year":"2020","occurred_at":"2020-07-30","ended_at":"2020-07-30","begin_time":"0400","end_time":"1800","disaster_name":"2020집중호우","cause_detail":"하수구역류","flood_grade":2,"flood_depth_m":0.522,"flood_area_m2":198.5,"source_sn":544,"data_status":"actual","official_data":true,"is_prediction":false,"source":"행정안전부 침수흔적도 · 재난안전데이터공유플랫폼 DSSP-IF-00117","collected_at":"2026-08-19T16:46:51+09:00","source_crs":"EPSG:3857","display_badges":["행안부 침수흔적도","과거 기록"]}},{"type":"Feature","id":"FLD:30230:47:16375","geometry":{"type":"MultiPolygon","coordinates":[[[[127.443236,36.394748],[127.443219,36.394707],[127.443234,36.394634],[127.443159,36.394684],[127.443049,36.394711],[127.442939,36.394623],[127.443154,36.394412],[127.443385,36.394188],[127.443575,36.394005],[127.443692,36.393894],[127.443729,36.393929],[127.443586,36.394172],[127.443425,36.394477],[127.443282,36.394608],[127.443267,36.394674],[127.443367,36.394572],[127.443469,36.394484],[127.443726,36.394324],[127.443949,36.39425],[127.443998,36.394219],[127.444014,36.394253],[127.443982,36.39429],[127.443887,36.394306],[127.443747,36.39435],[127.443627,36.394415],[127.443468,36.394525],[127.443383,36.394609],[127.443305,36.394699],[127.443284,36.394735],[127.443236,36.394748]]]]},"properties":{"id":"FLD:30230:47:16375","layer":"FLOOD_TRACE","admin_code":"30230","sido_code":"30","flood_year":"2018","occurred_at":"2018-08-28","ended_at":"2018-08-28","begin_time":"0600","end_time":"1200","disaster_name":"2018 집중호우","cause_detail":"집중호우로 인한 침수","flood_grade":2,"flood_depth_m":0.8,"flood_area_m2":2120.125,"source_sn":47,"data_status":"actual","official_data":true,"is_prediction":false,"source":"행정안전부 침수흔적도 · 재난안전데이터공유플랫폼 DSSP-IF-00117","collected_at":"2026-08-19T16:46:51+09:00","source_crs":"EPSG:3857","display_badges":["행안부 침수흔적도","과거 기록"]}},{"type":"Feature","id":"FLD:30230:48:16376","geometry":{"type":"MultiPolygon","coordinates":[[[[127.448892,36.435818],[127.449177,36.434865],[127.449349,36.434285],[127.44937,36.433637],[127.449702,36.432843],[127.450031,36.432531],[127.450245,36.432084],[127.450248,36.431729],[127.450308,36.431729],[127.450294,36.431973],[127.450338,36.432226],[127.450683,36.432791],[127.450717,36.433757],[127.450582,36.434066],[127.450603,36.434716],[127.449753,36.43571],[127.449229,36.436173],[127.448941,36.43594],[127.448892,36.435818]]]]},"properties":{"id":"FLD:30230:48:16376","layer":"FLOOD_TRACE","admin_code":"30230","sido_code":"30","flood_year":"2018","occurred_at":"2018-08-28","ended_at":"2018-08-28","begin_time":"0400","end_time":"1300","disaster_name":"2018 집중호우","cause_detail":"집중호우","flood_grade":3,"flood_depth_m":1.2,"flood_area_m2":39946.864,"source_sn":48,"data_status":"actual","official_data":true,"is_prediction":false,"source":"행정안전부 침수흔적도 · 재난안전데이터공유플랫폼 DSSP-IF-00117","collected_at":"2026-08-19T16:46:51+09:00","source_crs":"EPSG:3857","display_badges":["행안부 침수흔적도","과거 기록"]}},{"type":"Feature","id":"FLD:30230:76:34580","geometry":{"type":"MultiPolygon","coordinates":[[[[127.41717,36.404028],[127.416977,36.404066],[127.41674,36.404108],[127.416278,36.404204],[127.417091,36.403892],[127.41717,36.404028]]]]},"properties":{"id":"FLD:30230:76:34580","layer":"FLOOD_TRACE","admin_code":"30230","sido_code":"30","flood_year":"2011","occurred_at":"2011-07-10","ended_at":"2011-07-10","begin_time":"0700","end_time":"1700","disaster_name":"호우","cause_detail":"하천수위상승에 따른 배수불량","flood_grade":2,"flood_depth_m":0.53,"flood_area_m2":47899.5,"source_sn":76,"data_status":"actual","official_data":true,"is_prediction":false,"source":"행정안전부 침수흔적도 · 재난안전데이터공유플랫폼 DSSP-IF-00117","collected_at":"2026-08-19T16:46:51+09:00","source_crs":"EPSG:3857","display_badges":["행안부 침수흔적도","과거 기록"]}},{"type":"Feature","id":"FLD:30230:65:34581","geometry":{"type":"MultiPolygon","coordinates":[[[[127.417781,36.402799],[127.418195,36.402643],[127.418231,36.402646],[127.418265,36.402797],[127.418278,36.403013],[127.41831,36.403024],[127.418263,36.403237],[127.418273,36.403238],[127.41815,36.403423],[127.417781,36.402799]]]]},"properties":{"id":"FLD:30230:65:34581","layer":"FLOOD_TRACE","admin_code":"30230","sido_code":"30","flood_year":"2011","occurred_at":"2011-07-10","ended_at":"2011-07-10","begin_time":"0700","end_time":"1700","disaster_name":"호우","cause_detail":"하천수위상승에 따른 배수불량","flood_grade":1,"flood_depth_m":0.422,"flood_area_m2":47899.5,"source_sn":65,"data_status":"actual","official_data":true,"is_prediction":false,"source":"행정안전부 침수흔적도 · 재난안전데이터공유플랫폼 DSSP-IF-00117","collected_at":"2026-08-19T16:46:51+09:00","source_crs":"EPSG:3857","display_badges":["행안부 침수흔적도","과거 기록"]}},{"type":"Feature","id":"FLD:30230:64:34582","geometry":{"type":"MultiPolygon","coordinates":[[[[127.41592,36.400017],[127.415488,36.400116],[127.415053,36.40019],[127.415087,36.400153],[127.414998,36.399849],[127.414902,36.399523],[127.414927,36.399466],[127.414919,36.39943],[127.414913,36.399279],[127.414906,36.399071],[127.414757,36.398746],[127.414857,36.398699],[127.414814,36.398678],[127.415425,36.398548],[127.415209,36.397855],[127.414776,36.397951],[127.414713,36.397919],[127.41467,36.397896],[127.414663,36.397733],[127.414601,36.396888],[127.414655,36.396877],[127.414752,36.396895],[127.414915,36.396959],[127.414914,36.396995],[127.4152,36.397809],[127.416089,36.397599],[127.416156,36.397643],[127.41681,36.398237],[127.416255,36.398384],[127.416495,36.399076],[127.41599,36.399242],[127.416229,36.39994],[127.41592,36.400017]]]]},"properties":{"id":"FLD:30230:64:34582","layer":"FLOOD_TRACE","admin_code":"30230","sido_code":"30","flood_year":"2011","occurred_at":"2011-07-10","ended_at":"2011-07-10","begin_time":"0700","end_time":"1700","disaster_name":"호우","cause_detail":"하천수위상승에 따른 배수불량","flood_grade":1,"flood_depth_m":0.266,"flood_area_m2":47899.5,"source_sn":64,"data_status":"actual","official_data":true,"is_prediction":false,"source":"행정안전부 침수흔적도 · 재난안전데이터공유플랫폼 DSSP-IF-00117","collected_at":"2026-08-19T16:46:51+09:00","source_crs":"EPSG:3857","display_badges":["행안부 침수흔적도","과거 기록"]}},{"type":"Feature","id":"FLD:30230:77:34583","geometry":{"type":"MultiPolygon","coordinates":[[[[127.415061,36.401024],[127.416252,36.400779],[127.416513,36.401525],[127.416295,36.401545],[127.416288,36.401567],[127.416041,36.40162],[127.416025,36.401603],[127.415389,36.40182],[127.415323,36.401795],[127.415162,36.401317],[127.415061,36.401024]]]]},"properties":{"id":"FLD:30230:77:34583","layer":"FLOOD_TRACE","admin_code":"30230","sido_code":"30","flood_year":"2011","occurred_at":"2011-07-10","ended_at":"2011-07-10","begin_time":"0700","end_time":"1700","disaster_name":"호우","cause_detail":"하천수위상승에 따른 배수불량","flood_grade":3,"flood_depth_m":1.032,"flood_area_m2":47899.5,"source_sn":77,"data_status":"actual","official_data":true,"is_prediction":false,"source":"행정안전부 침수흔적도 · 재난안전데이터공유플랫폼 DSSP-IF-00117","collected_at":"2026-08-19T16:46:51+09:00","source_crs":"EPSG:3857","display_badges":["행안부 침수흔적도","과거 기록"]}},{"type":"Feature","id":"FLD:30230:68:34584","geometry":{"type":"MultiPolygon","coordinates":[[[[127.416263,36.404173],[127.415977,36.403494],[127.416163,36.403428],[127.416461,36.403316],[127.416032,36.402569],[127.416318,36.402467],[127.416638,36.402356],[127.417125,36.402188],[127.417372,36.402108],[127.417724,36.402717],[127.417781,36.402799],[127.41815,36.403423],[127.418112,36.403481],[127.416263,36.404173]]]]},"properties":{"id":"FLD:30230:68:34584","layer":"FLOOD_TRACE","admin_code":"30230","sido_code":"30","flood_year":"2011","occurred_at":"2011-07-10","ended_at":"2011-07-10","begin_time":"0700","end_time":"1700","disaster_name":"호우","cause_detail":"하천수위상승에 따른 배수불량","flood_grade":2,"flood_depth_m":0.72,"flood_area_m2":47899.5,"source_sn":68,"data_status":"actual","official_data":true,"is_prediction":false,"source":"행정안전부 침수흔적도 · 재난안전데이터공유플랫폼 DSSP-IF-00117","collected_at":"2026-08-19T16:46:51+09:00","source_crs":"EPSG:3857","display_badges":["행안부 침수흔적도","과거 기록"]}},{"type":"Feature","id":"FLD:30230:72:34585","geometry":{"type":"MultiPolygon","coordinates":[[[[127.416744,36.400645],[127.417032,36.401461],[127.416807,36.401489],[127.41651,36.400714],[127.416744,36.400645]]]]},"properties":{"id":"FLD:30230:72:34585","layer":"FLOOD_TRACE","admin_code":"30230","sido_code":"30","flood_year":"2011","occurred_at":"2011-07-10","ended_at":"2011-07-10","begin_time":"0700","end_time":"1700","disaster_name":"호우","cause_detail":"하천수위상승에 따른 배수불량","flood_grade":2,"flood_depth_m":0.703,"flood_area_m2":47899.5,"source_sn":72,"data_status":"actual","official_data":true,"is_prediction":false,"source":"행정안전부 침수흔적도 · 재난안전데이터공유플랫폼 DSSP-IF-00117","collected_at":"2026-08-19T16:46:51+09:00","source_crs":"EPSG:3857","display_badges":["행안부 침수흔적도","과거 기록"]}},{"type":"Feature","id":"FLD:30230:69:34586","geometry":{"type":"MultiPolygon","coordinates":[[[[127.41248,36.377988],[127.412423,36.377922],[127.412534,36.377875],[127.412606,36.37794],[127.41248,36.377988]]]]},"properties":{"id":"FLD:30230:69:34586","layer":"FLOOD_TRACE","admin_code":"30230","sido_code":"30","flood_year":"2011","occurred_at":"2011-07-10","ended_at":"2011-07-10","begin_time":"0700","end_time":"1700","disaster_name":"호우","cause_detail":"하천수위 상승에 따른 배수불량","flood_grade":2,"flood_depth_m":0.7,"flood_area_m2":10476,"source_sn":69,"data_status":"actual","official_data":true,"is_prediction":false,"source":"행정안전부 침수흔적도 · 재난안전데이터공유플랫폼 DSSP-IF-00117","collected_at":"2026-08-19T16:46:51+09:00","source_crs":"EPSG:3857","display_badges":["행안부 침수흔적도","과거 기록"]}},{"type":"Feature","id":"FLD:30230:75:34587","geometry":{"type":"MultiPolygon","coordinates":[[[[127.416505,36.400664],[127.416204,36.400731],[127.415669,36.400851],[127.415049,36.400985],[127.415034,36.400932],[127.414927,36.400641],[127.41486,36.400428],[127.414835,36.400312],[127.414842,36.400261],[127.415053,36.40019],[127.415488,36.400116],[127.41592,36.400017],[127.416229,36.39994],[127.416761,36.399843],[127.417003,36.400534],[127.416918,36.40057],[127.416505,36.400664]]]]},"properties":{"id":"FLD:30230:75:34587","layer":"FLOOD_TRACE","admin_code":"30230","sido_code":"30","flood_year":"2011","occurred_at":"2011-07-10","ended_at":"2011-07-10","begin_time":"0700","end_time":"1700","disaster_name":"호우","cause_detail":"하천수위상승에 따른 배수불량","flood_grade":2,"flood_depth_m":0.922,"flood_area_m2":47899.5,"source_sn":75,"data_status":"actual","official_data":true,"is_prediction":false,"source":"행정안전부 침수흔적도 · 재난안전데이터공유플랫폼 DSSP-IF-00117","collected_at":"2026-08-19T16:46:51+09:00","source_crs":"EPSG:3857","display_badges":["행안부 침수흔적도","과거 기록"]}},{"type":"Feature","id":"FLD:30230:70:34588","geometry":{"type":"MultiPolygon","coordinates":[[[[127.418112,36.403481],[127.418112,36.403481],[127.418103,36.403503],[127.416278,36.404204],[127.416278,36.40421],[127.416263,36.404173],[127.418112,36.403481]]]]},"properties":{"id":"FLD:30230:70:34588","layer":"FLOOD_TRACE","admin_code":"30230","sido_code":"30","flood_year":"2011","occurred_at":"2011-07-10","ended_at":"2011-07-10","begin_time":"0700","end_time":"1700","disaster_name":"호우","cause_detail":"하천수위상승에 따른 배수불량","flood_grade":1,"flood_depth_m":0.401,"flood_area_m2":47899.5,"source_sn":70,"data_status":"actual","official_data":true,"is_prediction":false,"source":"행정안전부 침수흔적도 · 재난안전데이터공유플랫폼 DSSP-IF-00117","collected_at":"2026-08-19T16:46:51+09:00","source_crs":"EPSG:3857","display_badges":["행안부 침수흔적도","과거 기록"]}},{"type":"Feature","id":"FLD:30230:74:35142","geometry":{"type":"MultiPolygon","coordinates":[[[[127.412914,36.382423],[127.41293,36.382191],[127.412866,36.381918],[127.412896,36.381929],[127.412923,36.381934],[127.412991,36.381932],[127.41303,36.381925],[127.41313,36.381893],[127.413626,36.381831],[127.413656,36.381798],[127.413675,36.382459],[127.413612,36.382437],[127.413544,36.38243],[127.413361,36.382434],[127.413237,36.382432],[127.413177,36.382439],[127.413083,36.382459],[127.412893,36.382488],[127.412914,36.382423]]]]},"properties":{"id":"FLD:30230:74:35142","layer":"FLOOD_TRACE","admin_code":"30230","sido_code":"30","flood_year":"2011","occurred_at":"2011-07-10","ended_at":"2011-07-10","begin_time":"0700","end_time":"1700","disaster_name":"호우","cause_detail":"하천수위 상승에 따른 배수불량","flood_grade":1,"flood_depth_m":0.305,"flood_area_m2":10476,"source_sn":74,"data_status":"actual","official_data":true,"is_prediction":false,"source":"행정안전부 침수흔적도 · 재난안전데이터공유플랫폼 DSSP-IF-00117","collected_at":"2026-08-19T16:46:51+09:00","source_crs":"EPSG:3857","display_badges":["행안부 침수흔적도","과거 기록"]}},{"type":"Feature","id":"FLD:30230:63:35143","geometry":{"type":"MultiPolygon","coordinates":[[[[127.417423,36.403765],[127.418103,36.403503],[127.418081,36.403555],[127.417921,36.403674],[127.417843,36.403711],[127.4178,36.403773],[127.41769,36.403853],[127.417525,36.403938],[127.417423,36.403765]]]]},"properties":{"id":"FLD:30230:63:35143","layer":"FLOOD_TRACE","admin_code":"30230","sido_code":"30","flood_year":"2011","occurred_at":"2011-07-10","ended_at":"2011-07-10","begin_time":"0700","end_time":"1700","disaster_name":"호우","cause_detail":"하천수위상승에 따른 배수불량","flood_grade":2,"flood_depth_m":0.883,"flood_area_m2":47899.5,"source_sn":63,"data_status":"actual","official_data":true,"is_prediction":false,"source":"행정안전부 침수흔적도 · 재난안전데이터공유플랫폼 DSSP-IF-00117","collected_at":"2026-08-19T16:46:51+09:00","source_crs":"EPSG:3857","display_badges":["행안부 침수흔적도","과거 기록"]}},{"type":"Feature","id":"FLD:30230:58:35303","geometry":{"type":"MultiPolygon","coordinates":[[[[127.398064,36.36758],[127.398252,36.367735],[127.398364,36.367888],[127.398417,36.367983],[127.398475,36.368079],[127.398538,36.368165],[127.398551,36.368248],[127.39869,36.368499],[127.398761,36.368605],[127.398801,36.368708],[127.398954,36.368938],[127.399079,36.369125],[127.399095,36.369152],[127.399183,36.369154],[127.399326,36.369163],[127.399157,36.369221],[127.399148,36.369234],[127.39918,36.369286],[127.399196,36.369305],[127.399398,36.369479],[127.39957,36.369585],[127.399726,36.369651],[127.400036,36.369768],[127.400426,36.36994],[127.400499,36.370007],[127.400329,36.369988],[127.399823,36.369763],[127.399594,36.369676],[127.399517,36.36964],[127.399342,36.36953],[127.399126,36.369343],[127.399102,36.369314],[127.399062,36.36925],[127.398702,36.369347],[127.398448,36.369463],[127.397972,36.369656],[127.397985,36.370019],[127.397828,36.370047],[127.397725,36.369731],[127.397738,36.36968],[127.39797,36.3696],[127.398206,36.369504],[127.398435,36.369417],[127.398693,36.369307],[127.399,36.369156],[127.398832,36.368908],[127.398828,36.368899],[127.398662,36.36865],[127.398639,36.368602],[127.398613,36.368557],[127.398411,36.368154],[127.398279,36.367938],[127.3979,36.368079],[127.39787,36.368284],[127.397724,36.368313],[127.397679,36.368301],[127.397651,36.368278],[127.397581,36.368283],[127.397544,36.368313],[127.397564,36.368537],[127.397449,36.368607],[127.397449,36.368547],[127.397443,36.368444],[127.397458,36.368298],[127.397652,36.368242],[127.39762,36.368184],[127.397596,36.368122],[127.397646,36.367774],[127.397664,36.367448],[127.39764,36.367407],[127.397614,36.36733],[127.397629,36.367251],[127.397759,36.367175],[127.39783,36.367268],[127.398064,36.36758]]]]},"properties":{"id":"FLD:30230:58:35303","layer":"FLOOD_TRACE","admin_code":"30230","sido_code":"30","flood_year":"2011","occurred_at":"2011-07-10","ended_at":"2011-07-10","begin_time":"0700","end_time":"1700","disaster_name":"호우","cause_detail":"하천수위상승에 따른 배수불량","flood_grade":1,"flood_depth_m":0.051,"flood_area_m2":8072.5,"source_sn":58,"data_status":"actual","official_data":true,"is_prediction":false,"source":"행정안전부 침수흔적도 · 재난안전데이터공유플랫폼 DSSP-IF-00117","collected_at":"2026-08-19T16:46:51+09:00","source_crs":"EPSG:3857","display_badges":["행안부 침수흔적도","과거 기록"]}},{"type":"Feature","id":"FLD:30230:55:35304","geometry":{"type":"MultiPolygon","coordinates":[[[[127.41218,36.376017],[127.412462,36.375717],[127.412529,36.375802],[127.412366,36.375939],[127.41215,36.376317],[127.412086,36.376342],[127.411774,36.376739],[127.411697,36.376839],[127.41151,36.376987],[127.411326,36.37713],[127.411265,36.377095],[127.411415,36.376979],[127.411518,36.376865],[127.411924,36.3764],[127.412011,36.376306],[127.41218,36.376017]]]]},"properties":{"id":"FLD:30230:55:35304","layer":"FLOOD_TRACE","admin_code":"30230","sido_code":"30","flood_year":"2011","occurred_at":"2011-07-10","ended_at":"2011-07-10","begin_time":"0700","end_time":"1000","disaster_name":"호우","cause_detail":"하천수위상승에 따른 배수불량","flood_grade":2,"flood_depth_m":0.59,"flood_area_m2":8072.5,"source_sn":55,"data_status":"actual","official_data":true,"is_prediction":false,"source":"행정안전부 침수흔적도 · 재난안전데이터공유플랫폼 DSSP-IF-00117","collected_at":"2026-08-19T16:46:51+09:00","source_crs":"EPSG:3857","display_badges":["행안부 침수흔적도","과거 기록"]}},{"type":"Feature","id":"FLD:30230:56:35305","geometry":{"type":"MultiPolygon","coordinates":[[[[127.39783,36.367268],[127.397877,36.36731],[127.397952,36.367391],[127.398068,36.367451],[127.398153,36.367524],[127.398064,36.36758],[127.39783,36.367268]]]]},"properties":{"id":"FLD:30230:56:35305","layer":"FLOOD_TRACE","admin_code":"30230","sido_code":"30","flood_year":"2011","occurred_at":"2011-07-10","ended_at":"2011-07-10","begin_time":"0700","end_time":"1700","disaster_name":"호우","cause_detail":"하천수위상승에 따른 배수불량","flood_grade":2,"flood_depth_m":0.548,"flood_area_m2":8072.5,"source_sn":56,"data_status":"actual","official_data":true,"is_prediction":false,"source":"행정안전부 침수흔적도 · 재난안전데이터공유플랫폼 DSSP-IF-00117","collected_at":"2026-08-19T16:46:51+09:00","source_crs":"EPSG:3857","display_badges":["행안부 침수흔적도","과거 기록"]}},{"type":"Feature","id":"FLD:30230:59:35306","geometry":{"type":"MultiPolygon","coordinates":[[[[127.399,36.369156],[127.398693,36.369307],[127.398677,36.369292],[127.398636,36.369209],[127.398637,36.3691],[127.398676,36.369003],[127.398672,36.369004],[127.398832,36.368908],[127.399,36.369156]]]]},"properties":{"id":"FLD:30230:59:35306","layer":"FLOOD_TRACE","admin_code":"30230","sido_code":"30","flood_year":"2011","occurred_at":"2011-07-10","ended_at":"2011-07-10","begin_time":"0700","end_time":"1700","disaster_name":"호우","cause_detail":"하천수위상승에 따른 배수불량","flood_grade":2,"flood_depth_m":0.503,"flood_area_m2":8072.5,"source_sn":59,"data_status":"actual","official_data":true,"is_prediction":false,"source":"행정안전부 침수흔적도 · 재난안전데이터공유플랫폼 DSSP-IF-00117","collected_at":"2026-08-19T16:46:51+09:00","source_crs":"EPSG:3857","display_badges":["행안부 침수흔적도","과거 기록"]}},{"type":"Feature","id":"FLD:30230:60:35307","geometry":{"type":"MultiPolygon","coordinates":[[[[127.400499,36.370007],[127.400537,36.37002],[127.400554,36.370034],[127.400519,36.370041],[127.400514,36.370128],[127.400381,36.370158],[127.400327,36.370116],[127.400329,36.369988],[127.400499,36.370007]]]]},"properties":{"id":"FLD:30230:60:35307","layer":"FLOOD_TRACE","admin_code":"30230","sido_code":"30","flood_year":"2011","occurred_at":"2011-07-10","ended_at":"2011-07-10","begin_time":"0700","end_time":"1700","disaster_name":"호우","cause_detail":"하천수위상승에 따른 배수불량","flood_grade":2,"flood_depth_m":0.593,"flood_area_m2":8072.5,"source_sn":60,"data_status":"actual","official_data":true,"is_prediction":false,"source":"행정안전부 침수흔적도 · 재난안전데이터공유플랫폼 DSSP-IF-00117","collected_at":"2026-08-19T16:46:51+09:00","source_crs":"EPSG:3857","display_badges":["행안부 침수흔적도","과거 기록"]}},{"type":"Feature","id":"FLD:30230:57:35308","geometry":{"type":"MultiPolygon","coordinates":[[[[127.412011,36.376306],[127.41198,36.376305],[127.411847,36.376322],[127.411417,36.376322],[127.411382,36.375951],[127.412221,36.375568],[127.41218,36.376017],[127.412011,36.376306]]]]},"properties":{"id":"FLD:30230:57:35308","layer":"FLOOD_TRACE","admin_code":"30230","sido_code":"30","flood_year":"2011","occurred_at":"2011-07-10","ended_at":"2011-07-10","begin_time":"0700","end_time":"1000","disaster_name":"호우","cause_detail":"하천수위상승에 따른 배수불량","flood_grade":1,"flood_depth_m":0.18,"flood_area_m2":8072.5,"source_sn":57,"data_status":"actual","official_data":true,"is_prediction":false,"source":"행정안전부 침수흔적도 · 재난안전데이터공유플랫폼 DSSP-IF-00117","collected_at":"2026-08-19T16:46:51+09:00","source_crs":"EPSG:3857","display_badges":["행안부 침수흔적도","과거 기록"]}},{"type":"Feature","id":"FLD:30230:62:35309","geometry":{"type":"MultiPolygon","coordinates":[[[[127.416461,36.403316],[127.416163,36.403428],[127.415977,36.403494],[127.415952,36.403435],[127.415862,36.403194],[127.415836,36.402993],[127.415848,36.402698],[127.415894,36.402618],[127.416032,36.402569],[127.416461,36.403316]]]]},"properties":{"id":"FLD:30230:62:35309","layer":"FLOOD_TRACE","admin_code":"30230","sido_code":"30","flood_year":"2011","occurred_at":"2011-07-10","ended_at":"2011-07-10","begin_time":"0700","end_time":"1700","disaster_name":"호우","cause_detail":"하천수위상승에 따른 배수불량","flood_grade":3,"flood_depth_m":1.105,"flood_area_m2":47899.5,"source_sn":62,"data_status":"actual","official_data":true,"is_prediction":false,"source":"행정안전부 침수흔적도 · 재난안전데이터공유플랫폼 DSSP-IF-00117","collected_at":"2026-08-19T16:46:51+09:00","source_crs":"EPSG:3857","display_badges":["행안부 침수흔적도","과거 기록"]}},{"type":"Feature","id":"FLD:30230:73:35310","geometry":{"type":"MultiPolygon","coordinates":[[[[127.412576,36.380986],[127.412384,36.380623],[127.412313,36.380405],[127.412283,36.380196],[127.412305,36.379805],[127.412283,36.379464],[127.412217,36.378907],[127.4124,36.378289],[127.412432,36.378144],[127.412413,36.378052],[127.412389,36.377987],[127.411978,36.377558],[127.411989,36.377503],[127.412423,36.377922],[127.41248,36.377988],[127.412606,36.37794],[127.412748,36.377885],[127.412851,36.377835],[127.413196,36.377642],[127.41334,36.377552],[127.413391,36.377554],[127.413318,36.37761],[127.413133,36.377722],[127.412836,36.377871],[127.412621,36.377958],[127.412548,36.378018],[127.412521,36.37808],[127.412322,36.378767],[127.412291,36.378903],[127.412356,36.379447],[127.412382,36.379803],[127.412379,36.380122],[127.412379,36.380244],[127.412391,36.380347],[127.412409,36.380418],[127.412433,36.380479],[127.412656,36.380883],[127.412576,36.380986]]]]},"properties":{"id":"FLD:30230:73:35310","layer":"FLOOD_TRACE","admin_code":"30230","sido_code":"30","flood_year":"2011","occurred_at":"2011-07-10","ended_at":"2011-07-10","begin_time":"0700","end_time":"1700","disaster_name":"호우","cause_detail":"하천수위 상승에 따른 배수불량","flood_grade":1,"flood_depth_m":0.058,"flood_area_m2":10476,"source_sn":73,"data_status":"actual","official_data":true,"is_prediction":false,"source":"행정안전부 침수흔적도 · 재난안전데이터공유플랫폼 DSSP-IF-00117","collected_at":"2026-08-19T16:46:51+09:00","source_crs":"EPSG:3857","display_badges":["행안부 침수흔적도","과거 기록"]}},{"type":"Feature","id":"FLD:30230:67:35311","geometry":{"type":"MultiPolygon","coordinates":[[[[127.415669,36.400851],[127.416204,36.400731],[127.416505,36.400664],[127.416918,36.40057],[127.416744,36.400645],[127.41651,36.400714],[127.416252,36.400779],[127.415061,36.401024],[127.415049,36.400985],[127.415669,36.400851]]]]},"properties":{"id":"FLD:30230:67:35311","layer":"FLOOD_TRACE","admin_code":"30230","sido_code":"30","flood_year":"2011","occurred_at":"2011-07-10","ended_at":"2011-07-10","begin_time":"0700","end_time":"1700","disaster_name":"호우","cause_detail":"하천수위상승에 따른 배수불량","flood_grade":1,"flood_depth_m":0.233,"flood_area_m2":47899.5,"source_sn":67,"data_status":"actual","official_data":true,"is_prediction":false,"source":"행정안전부 침수흔적도 · 재난안전데이터공유플랫폼 DSSP-IF-00117","collected_at":"2026-08-19T16:46:51+09:00","source_crs":"EPSG:3857","display_badges":["행안부 침수흔적도","과거 기록"]}},{"type":"Feature","id":"FLD:30230:66:35312","geometry":{"type":"MultiPolygon","coordinates":[[[[127.413196,36.377642],[127.413137,36.377565],[127.413222,36.377515],[127.413291,36.377492],[127.41334,36.377552],[127.413196,36.377642]]]]},"properties":{"id":"FLD:30230:66:35312","layer":"FLOOD_TRACE","admin_code":"30230","sido_code":"30","flood_year":"2011","occurred_at":"2011-07-10","ended_at":"2011-07-10","begin_time":"0700","end_time":"1700","disaster_name":"호우","cause_detail":"하천수위 상승에 따른 배수불량","flood_grade":2,"flood_depth_m":0.609,"flood_area_m2":10476,"source_sn":66,"data_status":"actual","official_data":true,"is_prediction":false,"source":"행정안전부 침수흔적도 · 재난안전데이터공유플랫폼 DSSP-IF-00117","collected_at":"2026-08-19T16:46:51+09:00","source_crs":"EPSG:3857","display_badges":["행안부 침수흔적도","과거 기록"]}},{"type":"Feature","id":"FLD:30230:61:35313","geometry":{"type":"MultiPolygon","coordinates":[[[[127.417525,36.403938],[127.417379,36.403982],[127.417382,36.403987],[127.41717,36.404028],[127.417091,36.403892],[127.417423,36.403765],[127.417525,36.403938]]]]},"properties":{"id":"FLD:30230:61:35313","layer":"FLOOD_TRACE","admin_code":"30230","sido_code":"30","flood_year":"2011","occurred_at":"2011-07-10","ended_at":"2011-07-10","begin_time":"0700","end_time":"1700","disaster_name":"호우","cause_detail":"하천수위상승에 따른 배수불량","flood_grade":3,"flood_depth_m":1.091,"flood_area_m2":47899.5,"source_sn":61,"data_status":"actual","official_data":true,"is_prediction":false,"source":"행정안전부 침수흔적도 · 재난안전데이터공유플랫폼 DSSP-IF-00117","collected_at":"2026-08-19T16:46:51+09:00","source_crs":"EPSG:3857","display_badges":["행안부 침수흔적도","과거 기록"]}},{"type":"Feature","id":"FLD:30230:71:35314","geometry":{"type":"MultiPolygon","coordinates":[[[[127.412656,36.380883],[127.412705,36.381004],[127.412738,36.381188],[127.412778,36.381389],[127.412824,36.38169],[127.412866,36.381918],[127.41293,36.382191],[127.412914,36.382423],[127.412893,36.382488],[127.412879,36.382651],[127.412744,36.382678],[127.412717,36.382429],[127.412703,36.382103],[127.412672,36.381579],[127.412654,36.381414],[127.412609,36.381228],[127.412576,36.380986],[127.412656,36.380883]]]]},"properties":{"id":"FLD:30230:71:35314","layer":"FLOOD_TRACE","admin_code":"30230","sido_code":"30","flood_year":"2011","occurred_at":"2011-07-10","ended_at":"2011-07-10","begin_time":"0700","end_time":"1700","disaster_name":"호우","cause_detail":"하천수위 상승에 따른 배수불량","flood_grade":2,"flood_depth_m":0.687,"flood_area_m2":10476,"source_sn":71,"data_status":"actual","official_data":true,"is_prediction":false,"source":"행정안전부 침수흔적도 · 재난안전데이터공유플랫폼 DSSP-IF-00117","collected_at":"2026-08-19T16:46:51+09:00","source_crs":"EPSG:3857","display_badges":["행안부 침수흔적도","과거 기록"]}}]}