{"type":"FeatureCollection","features":[{"type":"Feature","id":"FLD:30140:490:11954","geometry":{"type":"MultiPolygon","coordinates":[[[[127.396871,36.321691],[127.397042,36.321139],[127.396907,36.321107],[127.397195,36.320359],[127.397746,36.320487],[127.397672,36.320695],[127.397928,36.320752],[127.39787,36.320931],[127.39781,36.321148],[127.398081,36.321211],[127.398013,36.321418],[127.397934,36.321534],[127.39762,36.321596],[127.397523,36.321461],[127.397429,36.321499],[127.397417,36.321482],[127.397382,36.321483],[127.397452,36.321636],[127.397392,36.321624],[127.397327,36.321811],[127.396871,36.321691]]]]},"properties":{"id":"FLD:30140:490:11954","layer":"FLOOD_TRACE","admin_code":"30140","sido_code":"30","flood_year":"2020","occurred_at":"2020-07-30","ended_at":"2020-07-30","begin_time":"0400","end_time":"1200","disaster_name":"20200730집중호우","cause_detail":"하수구역류","flood_grade":2,"flood_depth_m":0.556,"flood_area_m2":10649.3,"source_sn":490,"data_status":"actual","official_data":true,"is_prediction":false,"source":"행정안전부 침수흔적도 · 재난안전데이터공유플랫폼 DSSP-IF-00117","collected_at":"2026-08-19T16:46:51+09:00","source_crs":"EPSG:3857","display_badges":["행안부 침수흔적도","과거 기록"]}},{"type":"Feature","id":"FLD:30140:31:37318","geometry":{"type":"MultiPolygon","coordinates":[[[[127.397076,36.321707],[127.397216,36.32131],[127.397286,36.321116],[127.397351,36.320935],[127.397438,36.320949],[127.397339,36.321231],[127.397365,36.321268],[127.398194,36.32145],[127.398142,36.321494],[127.397345,36.321321],[127.397297,36.321343],[127.39716,36.32173],[127.397076,36.321707]]]]},"properties":{"id":"FLD:30140:31:37318","layer":"FLOOD_TRACE","admin_code":"30140","sido_code":"30","flood_year":"2012","occurred_at":"2012-08-21","ended_at":"2012-08-21","begin_time":"0000","end_time":"0000","disaster_name":"2012년 8월 21일 집중호우","cause_detail":"집중호우에 따른 배수 역류","flood_grade":1,"flood_depth_m":0.276,"flood_area_m2":1210.29,"source_sn":31,"data_status":"actual","official_data":true,"is_prediction":false,"source":"행정안전부 침수흔적도 · 재난안전데이터공유플랫폼 DSSP-IF-00117","collected_at":"2026-08-19T16:46:51+09:00","source_crs":"EPSG:3857","display_badges":["행안부 침수흔적도","과거 기록"]}},{"type":"Feature","id":"FLD:30140:34:37319","geometry":{"type":"MultiPolygon","coordinates":[[[[127.398864,36.316843],[127.39921,36.315869],[127.399264,36.315716],[127.399352,36.315736],[127.399376,36.31578],[127.399348,36.315865],[127.399298,36.315886],[127.399177,36.31622],[127.399136,36.316335],[127.399025,36.316643],[127.399054,36.316686],[127.400288,36.317001],[127.400267,36.317053],[127.399034,36.316737],[127.398984,36.316759],[127.398947,36.316863],[127.398864,36.316843]]]]},"properties":{"id":"FLD:30140:34:37319","layer":"FLOOD_TRACE","admin_code":"30140","sido_code":"30","flood_year":"2012","occurred_at":"2012-08-21","ended_at":"2012-08-21","begin_time":"0000","end_time":"0000","disaster_name":"2012년 8월 21일 집중호우","cause_detail":"집중호우에 따른 배수 역류","flood_grade":1,"flood_depth_m":0.402,"flood_area_m2":914.2,"source_sn":34,"data_status":"actual","official_data":true,"is_prediction":false,"source":"행정안전부 침수흔적도 · 재난안전데이터공유플랫폼 DSSP-IF-00117","collected_at":"2026-08-19T16:46:51+09:00","source_crs":"EPSG:3857","display_badges":["행안부 침수흔적도","과거 기록"]}},{"type":"Feature","id":"FLD:30140:32:37320","geometry":{"type":"MultiPolygon","coordinates":[[[[127.395318,36.321355],[127.395342,36.321285],[127.395462,36.321316],[127.395513,36.321294],[127.395916,36.320102],[127.395889,36.320064],[127.39605,36.320101],[127.396,36.320124],[127.395598,36.321319],[127.395626,36.32136],[127.395845,36.321417],[127.395811,36.321484],[127.395318,36.321355]]]]},"properties":{"id":"FLD:30140:32:37320","layer":"FLOOD_TRACE","admin_code":"30140","sido_code":"30","flood_year":"2012","occurred_at":"2012-08-21","ended_at":"2012-08-21","begin_time":"0000","end_time":"0000","disaster_name":"2012년 8월 21일 집중호우","cause_detail":"집중호우에 따른 배수 역류","flood_grade":1,"flood_depth_m":0.198,"flood_area_m2":522.1,"source_sn":32,"data_status":"actual","official_data":true,"is_prediction":false,"source":"행정안전부 침수흔적도 · 재난안전데이터공유플랫폼 DSSP-IF-00117","collected_at":"2026-08-19T16:46:51+09:00","source_crs":"EPSG:3857","display_badges":["행안부 침수흔적도","과거 기록"]}},{"type":"Feature","id":"FLD:30140:30:37321","geometry":{"type":"MultiPolygon","coordinates":[[[[127.395814,36.320678],[127.395843,36.320593],[127.396021,36.320632],[127.395989,36.320719],[127.395814,36.320678]]]]},"properties":{"id":"FLD:30140:30:37321","layer":"FLOOD_TRACE","admin_code":"30140","sido_code":"30","flood_year":"2012","occurred_at":"2012-08-21","ended_at":"2012-08-21","begin_time":"0000","end_time":"0000","disaster_name":"2012년 8월 21일 집중호우","cause_detail":"집중호우에 따른 배수 역류","flood_grade":1,"flood_depth_m":0.193,"flood_area_m2":522.1,"source_sn":30,"data_status":"actual","official_data":true,"is_prediction":false,"source":"행정안전부 침수흔적도 · 재난안전데이터공유플랫폼 DSSP-IF-00117","collected_at":"2026-08-19T16:46:51+09:00","source_crs":"EPSG:3857","display_badges":["행안부 침수흔적도","과거 기록"]}},{"type":"Feature","id":"FLD:30140:33:37322","geometry":{"type":"MultiPolygon","coordinates":[[[[127.396961,36.321255],[127.397004,36.321137],[127.397059,36.321149],[127.397063,36.321131],[127.396911,36.321096],[127.396952,36.320992],[127.397182,36.321051],[127.39719,36.321091],[127.397286,36.321116],[127.397216,36.32131],[127.396961,36.321255]]]]},"properties":{"id":"FLD:30140:33:37322","layer":"FLOOD_TRACE","admin_code":"30140","sido_code":"30","flood_year":"2012","occurred_at":"2012-08-21","ended_at":"2012-08-21","begin_time":"0000","end_time":"0000","disaster_name":"2012년 8월 21일 집중호우","cause_detail":"집중호우에 따른 배수 역류","flood_grade":1,"flood_depth_m":0.212,"flood_area_m2":699.4,"source_sn":33,"data_status":"actual","official_data":true,"is_prediction":false,"source":"행정안전부 침수흔적도 · 재난안전데이터공유플랫폼 DSSP-IF-00117","collected_at":"2026-08-19T16:46:51+09:00","source_crs":"EPSG:3857","display_badges":["행안부 침수흔적도","과거 기록"]}},{"type":"Feature","id":"FLD:30140:38:37323","geometry":{"type":"MultiPolygon","coordinates":[[[[127.395865,36.320949],[127.395893,36.320833],[127.396013,36.320859],[127.395985,36.320959],[127.395865,36.320949]]]]},"properties":{"id":"FLD:30140:38:37323","layer":"FLOOD_TRACE","admin_code":"30140","sido_code":"30","flood_year":"2012","occurred_at":"2012-08-21","ended_at":"2012-08-21","begin_time":"0000","end_time":"0000","disaster_name":"2012년 8월 21일 집중호우","cause_detail":"집중호우에 따른 배수 역류","flood_grade":1,"flood_depth_m":0.179,"flood_area_m2":522.1,"source_sn":38,"data_status":"actual","official_data":true,"is_prediction":false,"source":"행정안전부 침수흔적도 · 재난안전데이터공유플랫폼 DSSP-IF-00117","collected_at":"2026-08-19T16:46:51+09:00","source_crs":"EPSG:3857","display_badges":["행안부 침수흔적도","과거 기록"]}},{"type":"Feature","id":"FLD:30140:37:37324","geometry":{"type":"MultiPolygon","coordinates":[[[[127.397263,36.317475],[127.397205,36.317631],[127.39695,36.317569],[127.396924,36.317531],[127.396967,36.317408],[127.397263,36.317475]]]]},"properties":{"id":"FLD:30140:37:37324","layer":"FLOOD_TRACE","admin_code":"30140","sido_code":"30","flood_year":"2012","occurred_at":"2012-08-21","ended_at":"2012-08-21","begin_time":"0000","end_time":"0000","disaster_name":"2012년 8월 21일 집중호우","cause_detail":"집중호우에 따른 배수 역류","flood_grade":1,"flood_depth_m":0.438,"flood_area_m2":2101.9,"source_sn":37,"data_status":"actual","official_data":true,"is_prediction":false,"source":"행정안전부 침수흔적도 · 재난안전데이터공유플랫폼 DSSP-IF-00117","collected_at":"2026-08-19T16:46:51+09:00","source_crs":"EPSG:3857","display_badges":["행안부 침수흔적도","과거 기록"]}},{"type":"Feature","id":"FLD:30140:39:37325","geometry":{"type":"MultiPolygon","coordinates":[[[[127.398598,36.317599],[127.398726,36.317228],[127.398703,36.317195],[127.398088,36.317041],[127.398104,36.316991],[127.399938,36.317458],[127.399918,36.317495],[127.398859,36.317233],[127.39881,36.317253],[127.398712,36.317539],[127.398739,36.317579],[127.399212,36.317695],[127.399189,36.317746],[127.398725,36.317632],[127.398598,36.317599]]]]},"properties":{"id":"FLD:30140:39:37325","layer":"FLOOD_TRACE","admin_code":"30140","sido_code":"30","flood_year":"2012","occurred_at":"2012-08-21","ended_at":"2012-08-21","begin_time":"0000","end_time":"0000","disaster_name":"2012년 8월 21일 집중호우","cause_detail":"집중호우에 따른 배수 역류","flood_grade":1,"flood_depth_m":0.238,"flood_area_m2":1661.1,"source_sn":39,"data_status":"actual","official_data":true,"is_prediction":false,"source":"행정안전부 침수흔적도 · 재난안전데이터공유플랫폼 DSSP-IF-00117","collected_at":"2026-08-19T16:46:51+09:00","source_crs":"EPSG:3857","display_badges":["행안부 침수흔적도","과거 기록"]}},{"type":"Feature","id":"FLD:30140:28:37326","geometry":{"type":"MultiPolygon","coordinates":[[[[127.399136,36.316335],[127.399177,36.31622],[127.399207,36.316263],[127.40044,36.316575],[127.400417,36.316625],[127.399181,36.316314],[127.399136,36.316335]]]]},"properties":{"id":"FLD:30140:28:37326","layer":"FLOOD_TRACE","admin_code":"30140","sido_code":"30","flood_year":"2012","occurred_at":"2012-08-21","ended_at":"2012-08-21","begin_time":"0000","end_time":"0000","disaster_name":"2012년 8월 21일 집중호우","cause_detail":"집중호우에 따른 배수 역류","flood_grade":1,"flood_depth_m":0.211,"flood_area_m2":914.2,"source_sn":28,"data_status":"actual","official_data":true,"is_prediction":false,"source":"행정안전부 침수흔적도 · 재난안전데이터공유플랫폼 DSSP-IF-00117","collected_at":"2026-08-19T16:46:51+09:00","source_crs":"EPSG:3857","display_badges":["행안부 침수흔적도","과거 기록"]}},{"type":"Feature","id":"FLD:30140:35:37327","geometry":{"type":"MultiPolygon","coordinates":[[[[127.394376,36.316936],[127.394401,36.316864],[127.395491,36.317298],[127.395539,36.317279],[127.395723,36.316759],[127.395788,36.316772],[127.395599,36.317307],[127.395621,36.317349],[127.396038,36.317509],[127.396092,36.317488],[127.396114,36.317415],[127.396179,36.317247],[127.396282,36.31728],[127.39625,36.317364],[127.396269,36.317403],[127.396789,36.317529],[127.396837,36.317509],[127.397009,36.317035],[127.397096,36.317048],[127.396967,36.317408],[127.396924,36.317531],[127.39695,36.317569],[127.397205,36.317631],[127.397325,36.31766],[127.3973,36.317727],[127.39625,36.317472],[127.396202,36.317494],[127.396054,36.317894],[127.395949,36.317866],[127.39604,36.317623],[127.396017,36.317581],[127.394376,36.316936]]]]},"properties":{"id":"FLD:30140:35:37327","layer":"FLOOD_TRACE","admin_code":"30140","sido_code":"30","flood_year":"2012","occurred_at":"2012-08-21","ended_at":"2012-08-21","begin_time":"0000","end_time":"0000","disaster_name":"2012년 8월 21일 집중호우","cause_detail":"집중호우에 따른 배수 역류","flood_grade":1,"flood_depth_m":0.309,"flood_area_m2":2101.9,"source_sn":35,"data_status":"actual","official_data":true,"is_prediction":false,"source":"행정안전부 침수흔적도 · 재난안전데이터공유플랫폼 DSSP-IF-00117","collected_at":"2026-08-19T16:46:51+09:00","source_crs":"EPSG:3857","display_badges":["행안부 침수흔적도","과거 기록"]}},{"type":"Feature","id":"FLD:30140:36:37328","geometry":{"type":"MultiPolygon","coordinates":[[[[127.400554,36.315941],[127.400598,36.315818],[127.400614,36.315811],[127.400738,36.315846],[127.400692,36.315976],[127.400554,36.315941]]]]},"properties":{"id":"FLD:30140:36:37328","layer":"FLOOD_TRACE","admin_code":"30140","sido_code":"30","flood_year":"2012","occurred_at":"2012-08-21","ended_at":"2012-08-21","begin_time":"0000","end_time":"0000","disaster_name":"2012년 8월 21일 집중호우","cause_detail":"집중호우에 따른 배수 역류","flood_grade":1,"flood_depth_m":0.367,"flood_area_m2":914.2,"source_sn":36,"data_status":"actual","official_data":true,"is_prediction":false,"source":"행정안전부 침수흔적도 · 재난안전데이터공유플랫폼 DSSP-IF-00117","collected_at":"2026-08-19T16:46:51+09:00","source_crs":"EPSG:3857","display_badges":["행안부 침수흔적도","과거 기록"]}},{"type":"Feature","id":"FLD:30140:29:37329","geometry":{"type":"MultiPolygon","coordinates":[[[[127.398829,36.318101],[127.39884,36.31803],[127.399834,36.318273],[127.399885,36.318253],[127.399989,36.318285],[127.400014,36.318318],[127.401089,36.318581],[127.401063,36.31865],[127.399996,36.318389],[127.399945,36.318408],[127.399838,36.318388],[127.399808,36.318342],[127.398829,36.318101]]]]},"properties":{"id":"FLD:30140:29:37329","layer":"FLOOD_TRACE","admin_code":"30140","sido_code":"30","flood_year":"2012","occurred_at":"2012-08-21","ended_at":"2012-08-21","begin_time":"0000","end_time":"0000","disaster_name":"2012년 8월 21일 집중호우","cause_detail":"집중호우에 따른 배수 역류","flood_grade":1,"flood_depth_m":0.254,"flood_area_m2":1661.1,"source_sn":29,"data_status":"actual","official_data":true,"is_prediction":false,"source":"행정안전부 침수흔적도 · 재난안전데이터공유플랫폼 DSSP-IF-00117","collected_at":"2026-08-19T16:46:51+09:00","source_crs":"EPSG:3857","display_badges":["행안부 침수흔적도","과거 기록"]}},{"type":"Feature","id":"FLD:30140:27:37330","geometry":{"type":"MultiPolygon","coordinates":[[[[127.395974,36.321046],[127.396009,36.320946],[127.396062,36.320958],[127.396099,36.320957],[127.396196,36.320945],[127.396211,36.321008],[127.39623,36.321015],[127.396226,36.321037],[127.396215,36.321045],[127.396217,36.321062],[127.39614,36.32106],[127.395974,36.321046]]]]},"properties":{"id":"FLD:30140:27:37330","layer":"FLOOD_TRACE","admin_code":"30140","sido_code":"30","flood_year":"2012","occurred_at":"2012-08-21","ended_at":"2012-08-21","begin_time":"0000","end_time":"0000","disaster_name":"2012년 8월 21일 집중호우","cause_detail":"집중호우에 따른 배수 역류","flood_grade":1,"flood_depth_m":0.285,"flood_area_m2":522.1,"source_sn":27,"data_status":"actual","official_data":true,"is_prediction":false,"source":"행정안전부 침수흔적도 · 재난안전데이터공유플랫폼 DSSP-IF-00117","collected_at":"2026-08-19T16:46:51+09:00","source_crs":"EPSG:3857","display_badges":["행안부 침수흔적도","과거 기록"]}},{"type":"Feature","id":"FLD:30140:41:37331","geometry":{"type":"MultiPolygon","coordinates":[[[[127.389437,36.306249],[127.389443,36.306195],[127.390267,36.30626],[127.390266,36.306315],[127.389437,36.306249]]]]},"properties":{"id":"FLD:30140:41:37331","layer":"FLOOD_TRACE","admin_code":"30140","sido_code":"30","flood_year":"2012","occurred_at":"2012-08-21","ended_at":"2012-08-21","begin_time":"0000","end_time":"0000","disaster_name":"2012년 8월 21일 집중호우","cause_detail":"집중호우에  따른 배수 역류","flood_grade":1,"flood_depth_m":0.295,"flood_area_m2":949.5,"source_sn":41,"data_status":"actual","official_data":true,"is_prediction":false,"source":"행정안전부 침수흔적도 · 재난안전데이터공유플랫폼 DSSP-IF-00117","collected_at":"2026-08-19T16:46:51+09:00","source_crs":"EPSG:3857","display_badges":["행안부 침수흔적도","과거 기록"]}},{"type":"Feature","id":"FLD:30140:44:37332","geometry":{"type":"MultiPolygon","coordinates":[[[[127.389841,36.306674],[127.389858,36.306584],[127.389949,36.306592],[127.390009,36.306666],[127.390006,36.306689],[127.389841,36.306674]]]]},"properties":{"id":"FLD:30140:44:37332","layer":"FLOOD_TRACE","admin_code":"30140","sido_code":"30","flood_year":"2012","occurred_at":"2012-08-21","ended_at":"2012-08-21","begin_time":"0000","end_time":"0000","disaster_name":"2012년 8월 21일 집중호우","cause_detail":"집중호우에 따른 배수 역류","flood_grade":1,"flood_depth_m":0.208,"flood_area_m2":949.5,"source_sn":44,"data_status":"actual","official_data":true,"is_prediction":false,"source":"행정안전부 침수흔적도 · 재난안전데이터공유플랫폼 DSSP-IF-00117","collected_at":"2026-08-19T16:46:51+09:00","source_crs":"EPSG:3857","display_badges":["행안부 침수흔적도","과거 기록"]}},{"type":"Feature","id":"FLD:30140:40:37333","geometry":{"type":"MultiPolygon","coordinates":[[[[127.38936,36.306703],[127.389372,36.306631],[127.389841,36.306674],[127.390006,36.306689],[127.390464,36.30673],[127.390625,36.30676],[127.390597,36.306829],[127.390548,36.306851],[127.390435,36.307151],[127.390347,36.307135],[127.390424,36.306933],[127.390461,36.306837],[127.39043,36.3068],[127.390369,36.306794],[127.38936,36.306703]]]]},"properties":{"id":"FLD:30140:40:37333","layer":"FLOOD_TRACE","admin_code":"30140","sido_code":"30","flood_year":"2012","occurred_at":"2012-08-21","ended_at":"2012-08-21","begin_time":"0000","end_time":"0000","disaster_name":"2012년 8월 21일 집중호우","cause_detail":"집중호우에 따른 배수 역류","flood_grade":1,"flood_depth_m":0.481,"flood_area_m2":949.5,"source_sn":40,"data_status":"actual","official_data":true,"is_prediction":false,"source":"행정안전부 침수흔적도 · 재난안전데이터공유플랫폼 DSSP-IF-00117","collected_at":"2026-08-19T16:46:51+09:00","source_crs":"EPSG:3857","display_badges":["행안부 침수흔적도","과거 기록"]}},{"type":"Feature","id":"FLD:30140:42:37334","geometry":{"type":"MultiPolygon","coordinates":[[[[127.388059,36.307262],[127.388044,36.307202],[127.388495,36.307174],[127.388535,36.307143],[127.388596,36.306676],[127.388558,36.306642],[127.38709,36.306737],[127.387065,36.306666],[127.388575,36.306569],[127.388615,36.306537],[127.388703,36.306535],[127.388686,36.306673],[127.388626,36.307135],[127.388664,36.307169],[127.388985,36.307184],[127.38941,36.307233],[127.389828,36.307303],[127.389926,36.307321],[127.389917,36.307376],[127.38922,36.307267],[127.38871,36.307222],[127.388059,36.307262]]]]},"properties":{"id":"FLD:30140:42:37334","layer":"FLOOD_TRACE","admin_code":"30140","sido_code":"30","flood_year":"2012","occurred_at":"2012-08-21","ended_at":"2012-08-21","begin_time":"0000","end_time":"0000","disaster_name":"2012년 8월 21일 집중호우","cause_detail":"집중호우에 따른 배수 역류","flood_grade":1,"flood_depth_m":0.129,"flood_area_m2":949.5,"source_sn":42,"data_status":"actual","official_data":true,"is_prediction":false,"source":"행정안전부 침수흔적도 · 재난안전데이터공유플랫폼 DSSP-IF-00117","collected_at":"2026-08-19T16:46:51+09:00","source_crs":"EPSG:3857","display_badges":["행안부 침수흔적도","과거 기록"]}},{"type":"Feature","id":"FLD:30140:43:37335","geometry":{"type":"MultiPolygon","coordinates":[[[[127.39194,36.307043],[127.391973,36.306956],[127.392131,36.306981],[127.392095,36.307076],[127.39194,36.307043]]]]},"properties":{"id":"FLD:30140:43:37335","layer":"FLOOD_TRACE","admin_code":"30140","sido_code":"30","flood_year":"2012","occurred_at":"2012-08-21","ended_at":"2012-08-21","begin_time":"0000","end_time":"0000","disaster_name":"2012년 8월 21일 집중호우","cause_detail":"집중호우에 따른 배수 역류","flood_grade":1,"flood_depth_m":0.138,"flood_area_m2":949.5,"source_sn":43,"data_status":"actual","official_data":true,"is_prediction":false,"source":"행정안전부 침수흔적도 · 재난안전데이터공유플랫폼 DSSP-IF-00117","collected_at":"2026-08-19T16:46:51+09:00","source_crs":"EPSG:3857","display_badges":["행안부 침수흔적도","과거 기록"]}},{"type":"Feature","id":"FLD:30140:48:37336","geometry":{"type":"MultiPolygon","coordinates":[[[[127.385136,36.297542],[127.385134,36.29747],[127.385301,36.297455],[127.386087,36.297388],[127.386111,36.297458],[127.385894,36.297477],[127.38586,36.297513],[127.385895,36.297702],[127.385809,36.297728],[127.385771,36.297519],[127.385726,36.297491],[127.385136,36.297542]]]]},"properties":{"id":"FLD:30140:48:37336","layer":"FLOOD_TRACE","admin_code":"30140","sido_code":"30","flood_year":"2012","occurred_at":"2012-08-21","ended_at":"2012-08-21","begin_time":"0000","end_time":"0000","disaster_name":"2012년 8월 21일 집중호우","cause_detail":"집중호우에 따른 배수 역류","flood_grade":1,"flood_depth_m":0.25,"flood_area_m2":920.35,"source_sn":48,"data_status":"actual","official_data":true,"is_prediction":false,"source":"행정안전부 침수흔적도 · 재난안전데이터공유플랫폼 DSSP-IF-00117","collected_at":"2026-08-19T16:46:51+09:00","source_crs":"EPSG:3857","display_badges":["행안부 침수흔적도","과거 기록"]}},{"type":"Feature","id":"FLD:30140:46:37337","geometry":{"type":"MultiPolygon","coordinates":[[[[127.384476,36.299077],[127.384646,36.299056],[127.38461,36.299094],[127.384678,36.299394],[127.384777,36.29965],[127.384685,36.299658],[127.384591,36.299413],[127.384521,36.299104],[127.384476,36.299077]]]]},"properties":{"id":"FLD:30140:46:37337","layer":"FLOOD_TRACE","admin_code":"30140","sido_code":"30","flood_year":"2012","occurred_at":"2012-08-21","ended_at":"2012-08-21","begin_time":"0000","end_time":"0000","disaster_name":"2012년 8월 21일 집중호우","cause_detail":"집중호우에 따른 배수 역류","flood_grade":1,"flood_depth_m":0.223,"flood_area_m2":554.46,"source_sn":46,"data_status":"actual","official_data":true,"is_prediction":false,"source":"행정안전부 침수흔적도 · 재난안전데이터공유플랫폼 DSSP-IF-00117","collected_at":"2026-08-19T16:46:51+09:00","source_crs":"EPSG:3857","display_badges":["행안부 침수흔적도","과거 기록"]}},{"type":"Feature","id":"FLD:30140:47:37338","geometry":{"type":"MultiPolygon","coordinates":[[[[127.384232,36.299105],[127.384215,36.29897],[127.384824,36.2989],[127.384854,36.299034],[127.384232,36.299105]]]]},"properties":{"id":"FLD:30140:47:37338","layer":"FLOOD_TRACE","admin_code":"30140","sido_code":"30","flood_year":"2012","occurred_at":"2012-08-21","ended_at":"2012-08-21","begin_time":"0000","end_time":"0000","disaster_name":"2012년 8월 21일 집중호우","cause_detail":"집중호우에 따른 배수 역류","flood_grade":1,"flood_depth_m":0.244,"flood_area_m2":837.57,"source_sn":47,"data_status":"actual","official_data":true,"is_prediction":false,"source":"행정안전부 침수흔적도 · 재난안전데이터공유플랫폼 DSSP-IF-00117","collected_at":"2026-08-19T16:46:51+09:00","source_crs":"EPSG:3857","display_badges":["행안부 침수흔적도","과거 기록"]}},{"type":"Feature","id":"FLD:30140:45:37339","geometry":{"type":"MultiPolygon","coordinates":[[[[127.384384,36.298951],[127.384249,36.298374],[127.384335,36.298359],[127.384472,36.298941],[127.384384,36.298951]]]]},"properties":{"id":"FLD:30140:45:37339","layer":"FLOOD_TRACE","admin_code":"30140","sido_code":"30","flood_year":"2012","occurred_at":"2012-08-21","ended_at":"2012-08-21","begin_time":"0000","end_time":"0000","disaster_name":"2012년 8월 21일 집중호우","cause_detail":"집중호우에 따른 배수 역류","flood_grade":1,"flood_depth_m":0.354,"flood_area_m2":519.19,"source_sn":45,"data_status":"actual","official_data":true,"is_prediction":false,"source":"행정안전부 침수흔적도 · 재난안전데이터공유플랫폼 DSSP-IF-00117","collected_at":"2026-08-19T16:46:51+09:00","source_crs":"EPSG:3857","display_badges":["행안부 침수흔적도","과거 기록"]}}]}