{"type":"FeatureCollection","features":[{"type":"Feature","id":"FLD:52710:2898:12796","geometry":{"type":"MultiPolygon","coordinates":[[[[127.302442,36.069255],[127.301787,36.070688],[127.301493,36.070602],[127.301167,36.070508],[127.300928,36.070414],[127.300894,36.070402],[127.301197,36.06981],[127.300999,36.069762],[127.301351,36.069227],[127.301699,36.069287],[127.302022,36.069279],[127.302442,36.069255]]]]},"properties":{"id":"FLD:52710:2898:12796","layer":"FLOOD_TRACE","admin_code":"52710","sido_code":"45","flood_year":"2020","occurred_at":"2020-07-30","ended_at":"2020-07-30","begin_time":"1000","end_time":"1800","disaster_name":"20.07.28. ~ 20.08.11. 호우","cause_detail":"저지대로 인한 배수기능 상실로 침수.","flood_grade":3,"flood_depth_m":1.181,"flood_area_m2":19519.1,"source_sn":2898,"data_status":"actual","official_data":true,"is_prediction":false,"source":"행정안전부 침수흔적도 · 재난안전데이터공유플랫폼 DSSP-IF-00117","collected_at":"2026-08-19T16:46:51+09:00","source_crs":"EPSG:3857","display_badges":["행안부 침수흔적도","과거 기록"]}},{"type":"Feature","id":"FLD:52710:2900:12797","geometry":{"type":"MultiPolygon","coordinates":[[[[127.306869,35.90638],[127.307464,35.90569],[127.307841,35.905253],[127.307879,35.905558],[127.307774,35.905666],[127.307472,35.906295],[127.307385,35.906505],[127.307085,35.906433],[127.306869,35.90638]]]]},"properties":{"id":"FLD:52710:2900:12797","layer":"FLOOD_TRACE","admin_code":"52710","sido_code":"45","flood_year":"2020","occurred_at":"2020-07-30","ended_at":"2020-07-30","begin_time":"1000","end_time":"1800","disaster_name":"20.07.28 ~ 20.08.11. 호우","cause_detail":"저지대로 인한 배수기능 상실로 인한 침수.","flood_grade":1,"flood_depth_m":0.31,"flood_area_m2":4182.3,"source_sn":2900,"data_status":"actual","official_data":true,"is_prediction":false,"source":"행정안전부 침수흔적도 · 재난안전데이터공유플랫폼 DSSP-IF-00117","collected_at":"2026-08-19T16:46:51+09:00","source_crs":"EPSG:3857","display_badges":["행안부 침수흔적도","과거 기록"]}},{"type":"Feature","id":"FLD:52710:2887:13217","geometry":{"type":"MultiPolygon","coordinates":[[[[127.109073,35.926369],[127.108883,35.925992],[127.108673,35.92551],[127.108651,35.925275],[127.108703,35.924894],[127.109723,35.924969],[127.109636,35.925683],[127.109552,35.926395],[127.109073,35.926369]]]]},"properties":{"id":"FLD:52710:2887:13217","layer":"FLOOD_TRACE","admin_code":"52710","sido_code":"45","flood_year":"2020","occurred_at":"2020-07-30","ended_at":"2020-07-30","begin_time":"0000","end_time":"1800","disaster_name":"20.07.28. ~ 20.08.11. 호우","cause_detail":"저지대로 인한 배수기능 상실로 침수.","flood_grade":2,"flood_depth_m":0.775,"flood_area_m2":12352,"source_sn":2887,"data_status":"actual","official_data":true,"is_prediction":false,"source":"행정안전부 침수흔적도 · 재난안전데이터공유플랫폼 DSSP-IF-00117","collected_at":"2026-08-19T16:46:51+09:00","source_crs":"EPSG:3857","display_badges":["행안부 침수흔적도","과거 기록"]}},{"type":"Feature","id":"FLD:52710:2888:13218","geometry":{"type":"MultiPolygon","coordinates":[[[[127.103858,35.924942],[127.104014,35.92362],[127.105164,35.923707],[127.105353,35.922095],[127.105404,35.921717],[127.106487,35.921958],[127.10647,35.922178],[127.106363,35.923116],[127.105924,35.923458],[127.105686,35.923601],[127.105449,35.92383],[127.105084,35.924082],[127.10441,35.924569],[127.103858,35.924942]]]]},"properties":{"id":"FLD:52710:2888:13218","layer":"FLOOD_TRACE","admin_code":"52710","sido_code":"45","flood_year":"2020","occurred_at":"2020-07-30","ended_at":"2020-07-30","begin_time":"1000","end_time":"1800","disaster_name":"20.07.28. ~ 20.08.11. 호우","cause_detail":"저지대로 인한 배수기능 상실로 침수.","flood_grade":2,"flood_depth_m":0.7,"flood_area_m2":29531.9,"source_sn":2888,"data_status":"actual","official_data":true,"is_prediction":false,"source":"행정안전부 침수흔적도 · 재난안전데이터공유플랫폼 DSSP-IF-00117","collected_at":"2026-08-19T16:46:51+09:00","source_crs":"EPSG:3857","display_badges":["행안부 침수흔적도","과거 기록"]}},{"type":"Feature","id":"FLD:52710:2889:13219","geometry":{"type":"MultiPolygon","coordinates":[[[[127.166728,35.932604],[127.166739,35.932504],[127.166974,35.932445],[127.167385,35.93222],[127.167437,35.932341],[127.167641,35.932262],[127.167742,35.932166],[127.167845,35.932119],[127.167932,35.932189],[127.167813,35.932407],[127.167919,35.932582],[127.167747,35.932639],[127.167701,35.932573],[127.167517,35.932645],[127.167519,35.932697],[127.167185,35.932829],[127.166728,35.932604]]]]},"properties":{"id":"FLD:52710:2889:13219","layer":"FLOOD_TRACE","admin_code":"52710","sido_code":"45","flood_year":"2020","occurred_at":"2020-07-30","ended_at":"2020-07-30","begin_time":"1000","end_time":"1800","disaster_name":"20.07.28. ~ 20.08.11. 호우","cause_detail":"저지대로 인한 배수기능 상실로 침수.","flood_grade":2,"flood_depth_m":0.522,"flood_area_m2":4293.7,"source_sn":2889,"data_status":"actual","official_data":true,"is_prediction":false,"source":"행정안전부 침수흔적도 · 재난안전데이터공유플랫폼 DSSP-IF-00117","collected_at":"2026-08-19T16:46:51+09:00","source_crs":"EPSG:3857","display_badges":["행안부 침수흔적도","과거 기록"]}},{"type":"Feature","id":"FLD:52710:2890:13266","geometry":{"type":"MultiPolygon","coordinates":[[[[127.141828,35.89979],[127.141954,35.899532],[127.142334,35.899276],[127.142581,35.898982],[127.142751,35.898801],[127.143016,35.899078],[127.143137,35.899292],[127.142838,35.899391],[127.142759,35.899478],[127.142742,35.899603],[127.142867,35.8999],[127.142573,35.899913],[127.142317,35.89983],[127.141828,35.89979]]]]},"properties":{"id":"FLD:52710:2890:13266","layer":"FLOOD_TRACE","admin_code":"52710","sido_code":"45","flood_year":"2020","occurred_at":"2020-07-30","ended_at":"2020-07-30","begin_time":"1000","end_time":"1800","disaster_name":"20.07.28. ~ 20.08.11. 호우","cause_detail":"저지대로 인한 배수기능 상실로 침수.","flood_grade":1,"flood_depth_m":0.399,"flood_area_m2":6821.5,"source_sn":2890,"data_status":"actual","official_data":true,"is_prediction":false,"source":"행정안전부 침수흔적도 · 재난안전데이터공유플랫폼 DSSP-IF-00117","collected_at":"2026-08-19T16:46:51+09:00","source_crs":"EPSG:3857","display_badges":["행안부 침수흔적도","과거 기록"]}},{"type":"Feature","id":"FLD:52710:2891:13267","geometry":{"type":"MultiPolygon","coordinates":[[[[127.212356,35.764111],[127.212517,35.763413],[127.212553,35.762859],[127.212931,35.762696],[127.21316,35.762465],[127.213384,35.762542],[127.213133,35.763112],[127.212525,35.764143],[127.212356,35.764111]]]]},"properties":{"id":"FLD:52710:2891:13267","layer":"FLOOD_TRACE","admin_code":"52710","sido_code":"45","flood_year":"2020","occurred_at":"2020-07-30","ended_at":"2020-07-30","begin_time":"1000","end_time":"1800","disaster_name":"20.07.28. ~ 20.08.11. 호우","cause_detail":"저지대로 인한 배수기능 상실로 침수.","flood_grade":2,"flood_depth_m":0.788,"flood_area_m2":6946.8,"source_sn":2891,"data_status":"actual","official_data":true,"is_prediction":false,"source":"행정안전부 침수흔적도 · 재난안전데이터공유플랫폼 DSSP-IF-00117","collected_at":"2026-08-19T16:46:51+09:00","source_crs":"EPSG:3857","display_badges":["행안부 침수흔적도","과거 기록"]}},{"type":"Feature","id":"FLD:52710:2892:13268","geometry":{"type":"MultiPolygon","coordinates":[[[[127.017076,35.852356],[127.017179,35.851882],[127.017146,35.851323],[127.017511,35.850479],[127.017593,35.850326],[127.017679,35.850227],[127.017823,35.850132],[127.018036,35.850029],[127.01846,35.849665],[127.018803,35.849396],[127.019558,35.849723],[127.019332,35.849849],[127.018422,35.850428],[127.018107,35.850834],[127.018127,35.850899],[127.018261,35.851067],[127.018097,35.851921],[127.018241,35.852087],[127.018347,35.852137],[127.017929,35.852205],[127.017717,35.852289],[127.017555,35.852375],[127.017379,35.852403],[127.017076,35.852356]]]]},"properties":{"id":"FLD:52710:2892:13268","layer":"FLOOD_TRACE","admin_code":"52710","sido_code":"45","flood_year":"2020","occurred_at":"2021-07-05","ended_at":"2021-07-05","begin_time":"1000","end_time":"1800","disaster_name":"우20.07.28. ~ 20.08.11 호","cause_detail":"저지대로 인한 배수기능 상실로 침수.","flood_grade":2,"flood_depth_m":0.628,"flood_area_m2":27328.9,"source_sn":2892,"data_status":"actual","official_data":true,"is_prediction":false,"source":"행정안전부 침수흔적도 · 재난안전데이터공유플랫폼 DSSP-IF-00117","collected_at":"2026-08-19T16:46:51+09:00","source_crs":"EPSG:3857","display_badges":["행안부 침수흔적도","과거 기록"]}},{"type":"Feature","id":"FLD:52710:2893:13269","geometry":{"type":"MultiPolygon","coordinates":[[[[127.210335,35.88734],[127.210197,35.887244],[127.210052,35.887185],[127.209995,35.887117],[127.209981,35.887003],[127.210039,35.88686],[127.210094,35.88678],[127.210213,35.886607],[127.21001,35.886349],[127.209906,35.886046],[127.209987,35.88589],[127.210084,35.885656],[127.210331,35.885421],[127.210433,35.885297],[127.210673,35.8851],[127.210939,35.88505],[127.210952,35.885068],[127.210757,35.885726],[127.210969,35.8863],[127.210816,35.88649],[127.21068,35.886731],[127.210574,35.886955],[127.210437,35.887161],[127.210335,35.88734]]]]},"properties":{"id":"FLD:52710:2893:13269","layer":"FLOOD_TRACE","admin_code":"52710","sido_code":"45","flood_year":"2020","occurred_at":"2020-07-30","ended_at":"2020-07-30","begin_time":"1000","end_time":"1800","disaster_name":"20.07.28. ~ 20.08.11. 호우","cause_detail":"저지대로 인한 배수기능 상실로 침수.","flood_grade":2,"flood_depth_m":0.747,"flood_area_m2":14127.6,"source_sn":2893,"data_status":"actual","official_data":true,"is_prediction":false,"source":"행정안전부 침수흔적도 · 재난안전데이터공유플랫폼 DSSP-IF-00117","collected_at":"2026-08-19T16:46:51+09:00","source_crs":"EPSG:3857","display_badges":["행안부 침수흔적도","과거 기록"]}},{"type":"Feature","id":"FLD:52710:2894:13270","geometry":{"type":"MultiPolygon","coordinates":[[[[127.193064,35.955902],[127.193016,35.955805],[127.192829,35.955683],[127.192873,35.95565],[127.193643,35.955307],[127.193794,35.955292],[127.194002,35.955209],[127.193992,35.955163],[127.1941,35.955072],[127.194089,35.954944],[127.194357,35.955477],[127.193875,35.955623],[127.193064,35.955902]]]]},"properties":{"id":"FLD:52710:2894:13270","layer":"FLOOD_TRACE","admin_code":"52710","sido_code":"45","flood_year":"2020","occurred_at":"2020-07-30","ended_at":"2020-07-30","begin_time":"1000","end_time":"1800","disaster_name":"20.07.28~20.08.11. 호우","cause_detail":"집중호우로 인한 배수기능 상실로 인해 침수.","flood_grade":2,"flood_depth_m":0.521,"flood_area_m2":5024.3,"source_sn":2894,"data_status":"actual","official_data":true,"is_prediction":false,"source":"행정안전부 침수흔적도 · 재난안전데이터공유플랫폼 DSSP-IF-00117","collected_at":"2026-08-19T16:46:51+09:00","source_crs":"EPSG:3857","display_badges":["행안부 침수흔적도","과거 기록"]}},{"type":"Feature","id":"FLD:52710:2895:13271","geometry":{"type":"MultiPolygon","coordinates":[[[[127.193794,35.956886],[127.194233,35.95675],[127.19447,35.956457],[127.194656,35.956846],[127.1945,35.957034],[127.193976,35.957332],[127.193885,35.957254],[127.193887,35.957027],[127.193794,35.956886]]]]},"properties":{"id":"FLD:52710:2895:13271","layer":"FLOOD_TRACE","admin_code":"52710","sido_code":"45","flood_year":"2020","occurred_at":"2020-07-30","ended_at":"2020-07-30","begin_time":"1000","end_time":"1800","disaster_name":"20.07.28~20.08.11. 호우","cause_detail":"집중호우로 인한 배수기능 상실로 인해 침수.","flood_grade":1,"flood_depth_m":0.368,"flood_area_m2":3477.3,"source_sn":2895,"data_status":"actual","official_data":true,"is_prediction":false,"source":"행정안전부 침수흔적도 · 재난안전데이터공유플랫폼 DSSP-IF-00117","collected_at":"2026-08-19T16:46:51+09:00","source_crs":"EPSG:3857","display_badges":["행안부 침수흔적도","과거 기록"]}},{"type":"Feature","id":"FLD:52710:2897:13272","geometry":{"type":"MultiPolygon","coordinates":[[[[127.179594,36.016798],[127.179264,36.016194],[127.179892,36.016059],[127.180357,36.015906],[127.180639,36.016409],[127.179594,36.016798]]]]},"properties":{"id":"FLD:52710:2897:13272","layer":"FLOOD_TRACE","admin_code":"52710","sido_code":"45","flood_year":"2020","occurred_at":"2020-07-30","ended_at":"2020-07-30","begin_time":"1000","end_time":"1800","disaster_name":"20.07.28. ~ 20.08.11. 호우","cause_detail":"저지대로 인한 배수기능 상실로 침수.","flood_grade":3,"flood_depth_m":1.182,"flood_area_m2":6792.6,"source_sn":2897,"data_status":"actual","official_data":true,"is_prediction":false,"source":"행정안전부 침수흔적도 · 재난안전데이터공유플랫폼 DSSP-IF-00117","collected_at":"2026-08-19T16:46:51+09:00","source_crs":"EPSG:3857","display_badges":["행안부 침수흔적도","과거 기록"]}},{"type":"Feature","id":"FLD:52710:2896:13273","geometry":{"type":"MultiPolygon","coordinates":[[[[127.181773,36.015983],[127.18151,36.015503],[127.182449,36.015118],[127.182754,36.015618],[127.181773,36.015983]]]]},"properties":{"id":"FLD:52710:2896:13273","layer":"FLOOD_TRACE","admin_code":"52710","sido_code":"45","flood_year":"2020","occurred_at":"2020-07-30","ended_at":"2020-07-30","begin_time":"1000","end_time":"1800","disaster_name":"20.07.28. ~ 20.08.11. 호우","cause_detail":"저지대로 인한 배수기능 상실로 침수.","flood_grade":1,"flood_depth_m":0.48,"flood_area_m2":5770.1,"source_sn":2896,"data_status":"actual","official_data":true,"is_prediction":false,"source":"행정안전부 침수흔적도 · 재난안전데이터공유플랫폼 DSSP-IF-00117","collected_at":"2026-08-19T16:46:51+09:00","source_crs":"EPSG:3857","display_badges":["행안부 침수흔적도","과거 기록"]}},{"type":"Feature","id":"FLD:52710:2899:13274","geometry":{"type":"MultiPolygon","coordinates":[[[[127.301787,36.070688],[127.302442,36.069255],[127.302486,36.069244],[127.302755,36.069204],[127.302757,36.069437],[127.302671,36.069739],[127.302442,36.070092],[127.302266,36.070403],[127.302192,36.070699],[127.302031,36.070712],[127.301787,36.070688]]]]},"properties":{"id":"FLD:52710:2899:13274","layer":"FLOOD_TRACE","admin_code":"52710","sido_code":"45","flood_year":"2020","occurred_at":"2020-07-30","ended_at":"2020-07-30","begin_time":"1000","end_time":"1800","disaster_name":"20.07.28. ~ 20.08.11. 호우","cause_detail":"저지대로 인한 배수기능 상실로 침수.","flood_grade":1,"flood_depth_m":0.471,"flood_area_m2":19519.1,"source_sn":2899,"data_status":"actual","official_data":true,"is_prediction":false,"source":"행정안전부 침수흔적도 · 재난안전데이터공유플랫폼 DSSP-IF-00117","collected_at":"2026-08-19T16:46:51+09:00","source_crs":"EPSG:3857","display_badges":["행안부 침수흔적도","과거 기록"]}},{"type":"Feature","id":"FLD:52710:8207:28990","geometry":{"type":"MultiPolygon","coordinates":[[[[127.107864,35.653736],[127.107117,35.652922],[127.106991,35.651815],[127.106777,35.651546],[127.106988,35.651333],[127.107165,35.651214],[127.107238,35.651509],[127.107896,35.652238],[127.10848,35.653378],[127.108729,35.653609],[127.109063,35.653763],[127.109467,35.65415],[127.109629,35.654792],[127.109452,35.654876],[127.109002,35.654284],[127.108326,35.653441],[127.108209,35.653489],[127.107864,35.653736]]]]},"properties":{"id":"FLD:52710:8207:28990","layer":"FLOOD_TRACE","admin_code":"52710","sido_code":"45","flood_year":"2021","occurred_at":"2021-07-05","ended_at":"2021-07-05","begin_time":"0900","end_time":"1400","disaster_name":"21.07.05 ~ 21.07.08 호우","cause_detail":"저지대로 인한 배수기능 상실로 침수.","flood_grade":2,"flood_depth_m":0.556,"flood_area_m2":24106.8,"source_sn":8207,"data_status":"actual","official_data":true,"is_prediction":false,"source":"행정안전부 침수흔적도 · 재난안전데이터공유플랫폼 DSSP-IF-00117","collected_at":"2026-08-19T16:46:51+09:00","source_crs":"EPSG:3857","display_badges":["행안부 침수흔적도","과거 기록"]}},{"type":"Feature","id":"FLD:52710:8208:28991","geometry":{"type":"MultiPolygon","coordinates":[[[[127.115025,35.642435],[127.114823,35.642468],[127.114675,35.642582],[127.114493,35.64267],[127.113986,35.642783],[127.113787,35.642788],[127.113538,35.642737],[127.112999,35.64271],[127.115493,35.641989],[127.115025,35.642435]]]]},"properties":{"id":"FLD:52710:8208:28991","layer":"FLOOD_TRACE","admin_code":"52710","sido_code":"45","flood_year":"2021","occurred_at":"2021-07-05","ended_at":"2021-07-05","begin_time":"0900","end_time":"1400","disaster_name":"21.07.05. ~ 21.07.08 호우","cause_detail":"저지대로 인한 배수기능 상실로 침수.","flood_grade":2,"flood_depth_m":0.576,"flood_area_m2":6189.9,"source_sn":8208,"data_status":"actual","official_data":true,"is_prediction":false,"source":"행정안전부 침수흔적도 · 재난안전데이터공유플랫폼 DSSP-IF-00117","collected_at":"2026-08-19T16:46:51+09:00","source_crs":"EPSG:3857","display_badges":["행안부 침수흔적도","과거 기록"]}},{"type":"Feature","id":"FLD:52710:674:34168","geometry":{"type":"MultiPolygon","coordinates":[[[[127.278904,36.092971],[127.278848,36.092948],[127.278782,36.092921],[127.278723,36.092909],[127.278648,36.092893],[127.278643,36.092891],[127.278594,36.092885],[127.278547,36.09287],[127.278481,36.092853],[127.278443,36.092844],[127.278433,36.092841],[127.278423,36.092838],[127.278409,36.092828],[127.27842,36.092808],[127.278442,36.092769],[127.278455,36.092745],[127.27847,36.092716],[127.278496,36.092668],[127.27854,36.092668],[127.278551,36.092651],[127.278582,36.092601],[127.278611,36.092552],[127.278635,36.092513],[127.278659,36.092473],[127.278676,36.092446],[127.278677,36.092443],[127.278696,36.092424],[127.278721,36.092398],[127.278742,36.092405],[127.278748,36.092406],[127.278811,36.092396],[127.278828,36.092371],[127.278858,36.092328],[127.278875,36.092303],[127.278936,36.092227],[127.278956,36.092203],[127.27902,36.092206],[127.279051,36.092179],[127.279061,36.092166],[127.279097,36.092114],[127.279111,36.092093],[127.279153,36.092031],[127.279184,36.091984],[127.279191,36.091956],[127.279198,36.091927],[127.279227,36.091867],[127.279247,36.091824],[127.279291,36.091759],[127.279331,36.091697],[127.279374,36.091633],[127.279414,36.091574],[127.27944,36.091516],[127.279465,36.091456],[127.279491,36.091391],[127.279496,36.09138],[127.279516,36.091288],[127.279526,36.09124],[127.279527,36.091167],[127.279527,36.091138],[127.279524,36.091132],[127.27951,36.091075],[127.279504,36.091054],[127.279512,36.091043],[127.279539,36.091004],[127.279562,36.090971],[127.27957,36.090959],[127.279603,36.090911],[127.279623,36.090881],[127.27966,36.090827],[127.27969,36.090783],[127.279739,36.090711],[127.279756,36.090686],[127.279786,36.090643],[127.279827,36.090585],[127.279855,36.090542],[127.279869,36.090525],[127.279909,36.090472],[127.279934,36.09044],[127.279952,36.090416],[127.279963,36.090401],[127.279977,36.090383],[127.280004,36.090347],[127.280013,36.090334],[127.280022,36.090321],[127.280141,36.090152],[127.280169,36.090111],[127.280179,36.090096],[127.280237,36.090015],[127.280275,36.089961],[127.280288,36.089942],[127.280345,36.089863],[127.280391,36.089798],[127.280435,36.089731],[127.280477,36.089665],[127.280488,36.089648],[127.280496,36.089636],[127.280523,36.08959],[127.280561,36.08952],[127.280593,36.089453],[127.280629,36.089375],[127.280669,36.08929],[127.280702,36.089223],[127.28072,36.089148],[127.280729,36.08911],[127.280734,36.089091],[127.280757,36.088999],[127.28076,36.088986],[127.280776,36.088922],[127.280795,36.088844],[127.280814,36.088773],[127.280832,36.0887],[127.28085,36.088627],[127.280868,36.088559],[127.280874,36.088537],[127.280922,36.088551],[127.280943,36.088557],[127.28096,36.088632],[127.280978,36.088708],[127.280991,36.08876],[127.281006,36.088792],[127.281036,36.088856],[127.281067,36.088927],[127.281077,36.08895],[127.281086,36.088972],[127.281097,36.089014],[127.281108,36.089054],[127.281118,36.089092],[127.281133,36.089146],[127.28114,36.089174],[127.281162,36.089257],[127.281172,36.089293],[127.281187,36.08935],[127.281199,36.089397],[127.28121,36.089441],[127.281223,36.089498],[127.281223,36.089502],[127.281198,36.0895],[127.281124,36.089493],[127.281094,36.089507],[127.281087,36.089522],[127.281069,36.089561],[127.28105,36.089603],[127.281026,36.089624],[127.280977,36.089667],[127.28095,36.089711],[127.280925,36.089749],[127.280923,36.089763],[127.280915,36.089806],[127.28091,36.089839],[127.280877,36.089901],[127.280969,36.090003],[127.28098,36.090024],[127.280982,36.090041],[127.280992,36.090099],[127.281001,36.090156],[127.28101,36.090211],[127.281019,36.090268],[127.281033,36.090365],[127.281037,36.090398],[127.281016,36.090434],[127.280998,36.090462],[127.280978,36.090487],[127.280948,36.090525],[127.280915,36.090567],[127.280884,36.090607],[127.280869,36.090616],[127.280832,36.090638],[127.280759,36.090682],[127.28071,36.090712],[127.280675,36.090733],[127.28061,36.090771],[127.280556,36.090803],[127.280533,36.090817],[127.280478,36.090849],[127.280413,36.090886],[127.280398,36.090892],[127.280354,36.090908],[127.280291,36.09093],[127.280264,36.09094],[127.280211,36.090958],[127.280232,36.090972],[127.280198,36.090992],[127.280135,36.091027],[127.280112,36.091043],[127.280043,36.09109],[127.28002,36.091104],[127.279976,36.091142],[127.279911,36.091196],[127.279902,36.09121],[127.279867,36.091258],[127.279846,36.091287],[127.279814,36.091331],[127.279757,36.091349],[127.279731,36.091391],[127.279759,36.091414],[127.279728,36.09147],[127.279716,36.091496],[127.27969,36.091542],[127.279667,36.091586],[127.279648,36.091621],[127.279625,36.091663],[127.279611,36.091698],[127.279581,36.091769],[127.27957,36.091785],[127.279541,36.091829],[127.279518,36.091863],[127.279486,36.091903],[127.279467,36.091925],[127.279468,36.091941],[127.279468,36.091984],[127.279448,36.092023],[127.279426,36.092066],[127.279412,36.092091],[127.279377,36.092123],[127.279348,36.092168],[127.279296,36.092247],[127.279237,36.092342],[127.279218,36.092368],[127.279183,36.092412],[127.279107,36.092399],[127.279086,36.092418],[127.279056,36.092446],[127.279022,36.092444],[127.279015,36.092456],[127.278986,36.092512],[127.278961,36.092557],[127.278927,36.092611],[127.278895,36.092662],[127.27886,36.092692],[127.278854,36.092696],[127.278825,36.092721],[127.278862,36.092737],[127.278951,36.092772],[127.279072,36.092821],[127.279033,36.092888],[127.278989,36.092959],[127.27895,36.092965],[127.278904,36.092971]]]]},"properties":{"id":"FLD:52710:674:34168","layer":"FLOOD_TRACE","admin_code":"52710","sido_code":"45","flood_year":"2009","occurred_at":"2009-07-14","ended_at":"2009-07-15","begin_time":"2300","end_time":"0200","disaster_name":"집중호우","cause_detail":"집중호우에의한제방붕괴","flood_grade":1,"flood_depth_m":0.43,"flood_area_m2":106840,"source_sn":674,"data_status":"actual","official_data":true,"is_prediction":false,"source":"행정안전부 침수흔적도 · 재난안전데이터공유플랫폼 DSSP-IF-00117","collected_at":"2026-08-19T16:46:51+09:00","source_crs":"EPSG:3857","display_badges":["행안부 침수흔적도","과거 기록"]}},{"type":"Feature","id":"FLD:52710:675:34206","geometry":{"type":"MultiPolygon","coordinates":[[[[127.275185,36.094302],[127.275197,36.094281],[127.275216,36.094263],[127.275223,36.094256],[127.275255,36.094224],[127.275283,36.094195],[127.275318,36.094161],[127.275357,36.094121],[127.27537,36.094107],[127.275402,36.094066],[127.275429,36.094029],[127.275446,36.094007],[127.27548,36.093965],[127.275518,36.09392],[127.275569,36.093857],[127.275586,36.093836],[127.275593,36.093826],[127.27564,36.093769],[127.275662,36.093743],[127.275689,36.09371],[127.275713,36.09368],[127.275742,36.093644],[127.275757,36.093625],[127.275781,36.093596],[127.275819,36.09355],[127.275848,36.093513],[127.275875,36.09348],[127.275886,36.093464],[127.2759,36.093453],[127.275928,36.093428],[127.275936,36.093421],[127.275974,36.093387],[127.276041,36.093325],[127.276079,36.093291],[127.276134,36.093238],[127.276206,36.093167],[127.276239,36.093135],[127.276286,36.093088],[127.276336,36.093038],[127.276339,36.093035],[127.276371,36.093007],[127.276415,36.09297],[127.276455,36.092926],[127.276481,36.092895],[127.276513,36.092877],[127.276539,36.092863],[127.276565,36.092839],[127.276597,36.092808],[127.276635,36.092772],[127.276649,36.092757],[127.276658,36.092748],[127.276686,36.092727],[127.276722,36.092697],[127.276742,36.092681],[127.276772,36.092662],[127.276812,36.092638],[127.276821,36.092632],[127.276861,36.092596],[127.276905,36.092558],[127.276919,36.092543],[127.276929,36.092514],[127.276934,36.092499],[127.276938,36.092486],[127.276946,36.092451],[127.276957,36.092432],[127.27697,36.092408],[127.276985,36.092394],[127.276999,36.092382],[127.27702,36.092362],[127.277025,36.092356],[127.277051,36.092338],[127.277058,36.092334],[127.277331,36.092086],[127.277704,36.091752],[127.277704,36.091751],[127.277891,36.091585],[127.278131,36.091446],[127.278132,36.091446],[127.2783,36.091349],[127.278393,36.091295],[127.278456,36.091258],[127.278468,36.091244],[127.278477,36.091238],[127.278602,36.091165],[127.278976,36.090945],[127.278978,36.090944],[127.279064,36.090894],[127.279087,36.090908],[127.279184,36.090971],[127.279197,36.09098],[127.279273,36.091029],[127.279269,36.091035],[127.279252,36.09106],[127.27924,36.091077],[127.279216,36.091114],[127.27919,36.091152],[127.279164,36.091192],[127.279133,36.091237],[127.27913,36.091243],[127.279087,36.091306],[127.279079,36.091319],[127.279069,36.091335],[127.279048,36.091364],[127.279012,36.091416],[127.279007,36.091425],[127.278966,36.091486],[127.278926,36.091546],[127.278887,36.091605],[127.278839,36.091677],[127.278817,36.091711],[127.278805,36.091729],[127.278778,36.09177],[127.278742,36.091825],[127.278693,36.0919],[127.278657,36.091955],[127.27862,36.09201],[127.278597,36.092045],[127.278582,36.092069],[127.278554,36.092112],[127.278522,36.092162],[127.278482,36.092221],[127.278443,36.092276],[127.278433,36.092296],[127.278407,36.092335],[127.278388,36.092363],[127.278353,36.092413],[127.278337,36.092437],[127.278321,36.092455],[127.278288,36.092496],[127.278261,36.092525],[127.278248,36.092537],[127.278245,36.092539],[127.278231,36.092549],[127.278193,36.092574],[127.278159,36.092597],[127.278119,36.092623],[127.278099,36.092634],[127.278103,36.092636],[127.278119,36.092642],[127.278133,36.092649],[127.278147,36.092656],[127.278167,36.092667],[127.278176,36.092674],[127.278205,36.092698],[127.278214,36.092705],[127.278224,36.092713],[127.278259,36.092741],[127.278291,36.092766],[127.278312,36.092783],[127.278409,36.092828],[127.278395,36.092859],[127.278387,36.092873],[127.278365,36.092916],[127.27835,36.092947],[127.278325,36.092996],[127.278312,36.093024],[127.278305,36.093034],[127.27829,36.093056],[127.278256,36.093105],[127.27821,36.093172],[127.278183,36.093212],[127.27815,36.093251],[127.278104,36.093304],[127.278076,36.093335],[127.278064,36.093348],[127.278047,36.093367],[127.278038,36.093376],[127.278025,36.09339],[127.277996,36.09341],[127.27798,36.093421],[127.277974,36.093421],[127.27795,36.093419],[127.277925,36.093416],[127.277917,36.093414],[127.27788,36.093402],[127.277871,36.093416],[127.277856,36.093446],[127.27783,36.093472],[127.277792,36.09351],[127.277787,36.093513],[127.27774,36.093533],[127.277697,36.093552],[127.27768,36.09356],[127.277613,36.093582],[127.277552,36.093603],[127.27754,36.093608],[127.277497,36.093602],[127.277471,36.093599],[127.277425,36.093579],[127.277419,36.093577],[127.277397,36.093574],[127.277366,36.093569],[127.277358,36.093569],[127.277307,36.093574],[127.277278,36.093577],[127.277248,36.093603],[127.277219,36.093631],[127.277217,36.093635],[127.277186,36.093625],[127.277159,36.093642],[127.277116,36.09367],[127.277105,36.093679],[127.277071,36.093708],[127.277032,36.093705],[127.277034,36.093707],[127.277041,36.093753],[127.277051,36.093785],[127.277052,36.09379],[127.277057,36.093795],[127.277079,36.093824],[127.277114,36.093868],[127.277165,36.093928],[127.277177,36.093966],[127.277159,36.093979],[127.277116,36.094013],[127.277092,36.094032],[127.27705,36.094053],[127.276998,36.094079],[127.276961,36.094098],[127.276927,36.094128],[127.276889,36.094162],[127.276839,36.094206],[127.276866,36.09423],[127.27688,36.094243],[127.276944,36.09426],[127.276934,36.094277],[127.276899,36.094338],[127.276884,36.094364],[127.276855,36.094387],[127.276834,36.094403],[127.276835,36.094405],[127.276837,36.094419],[127.276821,36.094423],[127.27679,36.094432],[127.276727,36.094449],[127.276701,36.094456],[127.276649,36.094471],[127.276619,36.094478],[127.276576,36.094488],[127.276542,36.094496],[127.276534,36.094499],[127.276519,36.094505],[127.276443,36.094533],[127.276365,36.094562],[127.276312,36.094582],[127.276291,36.09459],[127.276277,36.094593],[127.276222,36.094606],[127.27617,36.094618],[127.276087,36.094638],[127.276058,36.094588],[127.27605,36.094576],[127.276072,36.094564],[127.276087,36.094555],[127.276127,36.09454],[127.276171,36.094523],[127.276196,36.094515],[127.276072,36.094343],[127.276072,36.094342],[127.276067,36.094344],[127.276047,36.094352],[127.275989,36.094373],[127.275917,36.094402],[127.275858,36.094425],[127.275753,36.094447],[127.275678,36.094463],[127.275615,36.094473],[127.275534,36.094484],[127.275492,36.094489],[127.275476,36.094491],[127.275456,36.094493],[127.275423,36.094491],[127.275385,36.094488],[127.275348,36.094474],[127.275372,36.094454],[127.275391,36.094438],[127.275393,36.094436],[127.275379,36.094428],[127.275359,36.094418],[127.275272,36.09437],[127.275214,36.094325],[127.275185,36.094302]]]]},"properties":{"id":"FLD:52710:675:34206","layer":"FLOOD_TRACE","admin_code":"52710","sido_code":"45","flood_year":"2009","occurred_at":"2009-07-14","ended_at":"2009-07-15","begin_time":"2300","end_time":"0200","disaster_name":"집중호우","cause_detail":"집중호우에의한제방붕괴","flood_grade":1,"flood_depth_m":0.38,"flood_area_m2":106840,"source_sn":675,"data_status":"actual","official_data":true,"is_prediction":false,"source":"행정안전부 침수흔적도 · 재난안전데이터공유플랫폼 DSSP-IF-00117","collected_at":"2026-08-19T16:46:51+09:00","source_crs":"EPSG:3857","display_badges":["행안부 침수흔적도","과거 기록"]}},{"type":"Feature","id":"FLD:52710:673:34207","geometry":{"type":"MultiPolygon","coordinates":[[[[127.275185,36.094302],[127.275214,36.094325],[127.275272,36.09437],[127.275359,36.094418],[127.275379,36.094428],[127.275393,36.094436],[127.275391,36.094438],[127.275372,36.094454],[127.275348,36.094474],[127.275385,36.094488],[127.275423,36.094491],[127.275456,36.094493],[127.275476,36.094491],[127.275492,36.094489],[127.275534,36.094484],[127.275615,36.094473],[127.275678,36.094463],[127.275753,36.094447],[127.275858,36.094425],[127.275917,36.094402],[127.275989,36.094373],[127.276047,36.094352],[127.276067,36.094344],[127.276072,36.094342],[127.276072,36.094343],[127.276196,36.094515],[127.276171,36.094523],[127.276127,36.09454],[127.276087,36.094555],[127.276072,36.094564],[127.27605,36.094576],[127.276058,36.094588],[127.276087,36.094638],[127.27617,36.094618],[127.276222,36.094606],[127.276277,36.094593],[127.276291,36.09459],[127.276312,36.094582],[127.276365,36.094562],[127.276443,36.094533],[127.276519,36.094505],[127.276534,36.094499],[127.276542,36.094496],[127.276576,36.094488],[127.276619,36.094478],[127.276649,36.094471],[127.276701,36.094456],[127.276727,36.094449],[127.27679,36.094432],[127.276821,36.094423],[127.276837,36.094419],[127.276835,36.094405],[127.276834,36.094403],[127.276855,36.094387],[127.276884,36.094364],[127.276899,36.094338],[127.276934,36.094277],[127.276944,36.09426],[127.27688,36.094243],[127.276866,36.09423],[127.276839,36.094206],[127.276889,36.094162],[127.276927,36.094128],[127.276961,36.094098],[127.276998,36.094079],[127.27705,36.094053],[127.277092,36.094032],[127.277116,36.094013],[127.277159,36.093979],[127.277177,36.093966],[127.277165,36.093928],[127.277114,36.093868],[127.277079,36.093824],[127.277057,36.093795],[127.277052,36.09379],[127.277051,36.093785],[127.277041,36.093753],[127.277034,36.093707],[127.277032,36.093705],[127.277071,36.093708],[127.277105,36.093679],[127.277116,36.09367],[127.277159,36.093642],[127.277186,36.093625],[127.277217,36.093635],[127.277219,36.093631],[127.277248,36.093603],[127.277278,36.093577],[127.277307,36.093574],[127.277358,36.093569],[127.277366,36.093569],[127.277397,36.093574],[127.277419,36.093577],[127.277425,36.093579],[127.277471,36.093599],[127.277497,36.093602],[127.27754,36.093608],[127.277552,36.093603],[127.277613,36.093582],[127.27768,36.09356],[127.277697,36.093552],[127.27774,36.093533],[127.277787,36.093513],[127.277792,36.09351],[127.27783,36.093472],[127.277856,36.093446],[127.277871,36.093416],[127.27788,36.093402],[127.277917,36.093414],[127.277925,36.093416],[127.27795,36.093419],[127.277974,36.093421],[127.27798,36.093421],[127.277996,36.09341],[127.278025,36.09339],[127.278038,36.093376],[127.278047,36.093367],[127.278064,36.093348],[127.278076,36.093335],[127.278104,36.093304],[127.27815,36.093251],[127.278183,36.093212],[127.27821,36.093172],[127.278256,36.093105],[127.27829,36.093056],[127.278305,36.093034],[127.278312,36.093024],[127.278325,36.092996],[127.27835,36.092947],[127.278365,36.092916],[127.278387,36.092873],[127.278395,36.092859],[127.278409,36.092828],[127.278423,36.092838],[127.278433,36.092841],[127.278443,36.092844],[127.278481,36.092853],[127.278547,36.09287],[127.278594,36.092885],[127.278643,36.092891],[127.278648,36.092893],[127.278723,36.092909],[127.278782,36.092921],[127.278848,36.092948],[127.278904,36.092971],[127.278899,36.092988],[127.278877,36.093036],[127.278858,36.093077],[127.27885,36.093089],[127.27881,36.093139],[127.278767,36.093191],[127.278725,36.093243],[127.278675,36.093298],[127.278641,36.093335],[127.278635,36.093342],[127.278622,36.093351],[127.278614,36.093366],[127.278584,36.093416],[127.278551,36.093466],[127.278534,36.09349],[127.278511,36.093531],[127.278477,36.093575],[127.278458,36.093599],[127.278432,36.093631],[127.278392,36.093677],[127.278372,36.0937],[127.278365,36.093712],[127.278339,36.093757],[127.278309,36.093806],[127.278305,36.093812],[127.278297,36.093827],[127.278281,36.093851],[127.278246,36.093902],[127.278203,36.093958],[127.278206,36.093996],[127.278208,36.094031],[127.278209,36.094038],[127.278203,36.094047],[127.278201,36.094048],[127.278186,36.094063],[127.278136,36.094114],[127.278114,36.094137],[127.278113,36.094138],[127.278103,36.094147],[127.278057,36.094191],[127.278002,36.094243],[127.277965,36.094281],[127.277947,36.094299],[127.27791,36.094329],[127.277862,36.094368],[127.277802,36.094417],[127.277744,36.094461],[127.277692,36.094502],[127.277667,36.094521],[127.277627,36.094553],[127.277608,36.09457],[127.27753,36.094625],[127.277504,36.094635],[127.277445,36.094656],[127.277388,36.094677],[127.277365,36.094686],[127.277284,36.094717],[127.277202,36.094749],[127.277164,36.094764],[127.277133,36.094777],[127.277114,36.094787],[127.277075,36.094808],[127.277057,36.094819],[127.277,36.094853],[127.276956,36.094868],[127.276946,36.094869],[127.276898,36.094871],[127.276873,36.094858],[127.276865,36.094853],[127.276844,36.094863],[127.276788,36.094891],[127.27674,36.094915],[127.276691,36.094941],[127.276617,36.094955],[127.276552,36.094969],[127.276544,36.094971],[127.276476,36.094989],[127.276427,36.095003],[127.276416,36.095005],[127.276365,36.095016],[127.276325,36.095024],[127.2763,36.095036],[127.276255,36.095058],[127.276226,36.095073],[127.276194,36.09508],[127.276153,36.095088],[127.276116,36.095095],[127.276031,36.095109],[127.275997,36.095116],[127.275962,36.095107],[127.275908,36.095092],[127.275892,36.095088],[127.275864,36.095081],[127.275841,36.095088],[127.275836,36.09509],[127.27582,36.095095],[127.275767,36.095094],[127.275718,36.095093],[127.275697,36.095091],[127.275631,36.095085],[127.275546,36.095078],[127.275516,36.095058],[127.275501,36.095048],[127.275455,36.095031],[127.27542,36.09502],[127.275315,36.095016],[127.275253,36.095014],[127.275209,36.095014],[127.27516,36.095005],[127.275084,36.094992],[127.275047,36.094985],[127.274944,36.094987],[127.274811,36.094985],[127.274755,36.09497],[127.274724,36.094971],[127.274646,36.094973],[127.27454,36.094976],[127.274473,36.094978],[127.274404,36.094967],[127.27437,36.094962],[127.274327,36.094955],[127.274325,36.094935],[127.274324,36.094922],[127.274371,36.094883],[127.274388,36.094869],[127.274401,36.094858],[127.274427,36.094848],[127.274469,36.094832],[127.274487,36.094825],[127.274517,36.094812],[127.274559,36.09478],[127.274647,36.094712],[127.274702,36.094711],[127.274707,36.094707],[127.274751,36.094676],[127.274808,36.094636],[127.274831,36.094618],[127.274893,36.094568],[127.274949,36.094521],[127.274986,36.094491],[127.275014,36.094465],[127.275071,36.094413],[127.275094,36.094392],[127.275117,36.094369],[127.275158,36.094328],[127.275185,36.094302]]]]},"properties":{"id":"FLD:52710:673:34207","layer":"FLOOD_TRACE","admin_code":"52710","sido_code":"45","flood_year":"2009","occurred_at":"2009-07-14","ended_at":"2009-07-15","begin_time":"2300","end_time":"0200","disaster_name":"집중호우","cause_detail":"집중호우에의한제방붕괴","flood_grade":2,"flood_depth_m":0.62,"flood_area_m2":106840,"source_sn":673,"data_status":"actual","official_data":true,"is_prediction":false,"source":"행정안전부 침수흔적도 · 재난안전데이터공유플랫폼 DSSP-IF-00117","collected_at":"2026-08-19T16:46:51+09:00","source_crs":"EPSG:3857","display_badges":["행안부 침수흔적도","과거 기록"]}},{"type":"Feature","id":"FLD:52710:628:37436","geometry":{"type":"MultiPolygon","coordinates":[[[[127.014012,35.859363],[127.014116,35.859555],[127.013846,35.859687],[127.013685,35.85977],[127.013581,35.859715],[127.013552,35.85956],[127.013847,35.859544],[127.013891,35.859524],[127.01394,35.859475],[127.014012,35.859363]]]]},"properties":{"id":"FLD:52710:628:37436","layer":"FLOOD_TRACE","admin_code":"52710","sido_code":"45","flood_year":"2011","occurred_at":"2011-07-10","ended_at":"2011-07-10","begin_time":"0000","end_time":"0000","disaster_name":"집중호우","cause_detail":"집중호우","flood_grade":2,"flood_depth_m":0.91,"flood_area_m2":491000,"source_sn":628,"data_status":"actual","official_data":true,"is_prediction":false,"source":"행정안전부 침수흔적도 · 재난안전데이터공유플랫폼 DSSP-IF-00117","collected_at":"2026-08-19T16:46:51+09:00","source_crs":"EPSG:3857","display_badges":["행안부 침수흔적도","과거 기록"]}},{"type":"Feature","id":"FLD:52710:633:37437","geometry":{"type":"MultiPolygon","coordinates":[[[[127.015953,35.858562],[127.015907,35.858588],[127.015724,35.858688],[127.015723,35.858689],[127.01517,35.858991],[127.01486,35.859158],[127.014824,35.85917],[127.014811,35.859127],[127.014868,35.859049],[127.01485,35.858983],[127.014849,35.858776],[127.014882,35.858728],[127.014833,35.858591],[127.014734,35.858478],[127.014637,35.858382],[127.014939,35.858245],[127.015218,35.858146],[127.015387,35.858102],[127.015459,35.858106],[127.015572,35.858171],[127.015739,35.858224],[127.01581,35.858286],[127.015953,35.858562]]]]},"properties":{"id":"FLD:52710:633:37437","layer":"FLOOD_TRACE","admin_code":"52710","sido_code":"45","flood_year":"2011","occurred_at":"2011-07-10","ended_at":"2011-07-10","begin_time":"0000","end_time":"0000","disaster_name":"집중호우","cause_detail":"집중호우","flood_grade":1,"flood_depth_m":0,"flood_area_m2":491000,"source_sn":633,"data_status":"actual","official_data":true,"is_prediction":false,"source":"행정안전부 침수흔적도 · 재난안전데이터공유플랫폼 DSSP-IF-00117","collected_at":"2026-08-19T16:46:51+09:00","source_crs":"EPSG:3857","display_badges":["행안부 침수흔적도","과거 기록"]}},{"type":"Feature","id":"FLD:52710:634:37438","geometry":{"type":"MultiPolygon","coordinates":[[[[127.012762,35.855188],[127.012819,35.855194],[127.013045,35.854919],[127.0131,35.854899],[127.01393,35.854875],[127.015065,35.854849],[127.015673,35.854825],[127.016274,35.854818],[127.017423,35.854786],[127.017501,35.854786],[127.018329,35.854692],[127.018165,35.855057],[127.017623,35.856298],[127.017599,35.856292],[127.017567,35.856343],[127.017496,35.856532],[127.017101,35.857439],[127.017053,35.857562],[127.01696,35.857768],[127.016867,35.85791],[127.016661,35.858134],[127.016437,35.858304],[127.01596,35.858578],[127.015953,35.858562],[127.01581,35.858286],[127.015739,35.858224],[127.015572,35.858171],[127.015459,35.858106],[127.015387,35.858102],[127.015218,35.858146],[127.014939,35.858245],[127.014637,35.858382],[127.01456,35.858379],[127.014407,35.85831],[127.014254,35.858299],[127.014079,35.858333],[127.014088,35.858219],[127.014088,35.858216],[127.014085,35.858152],[127.01408,35.858047],[127.014068,35.857689],[127.014056,35.857328],[127.014053,35.857208],[127.014047,35.856998],[127.014005,35.857001],[127.013433,35.857015],[127.013369,35.857022],[127.01331,35.857017],[127.012899,35.857026],[127.012853,35.857029],[127.012821,35.85703],[127.012821,35.857022],[127.012804,35.856648],[127.012786,35.85609],[127.012762,35.855188]]]]},"properties":{"id":"FLD:52710:634:37438","layer":"FLOOD_TRACE","admin_code":"52710","sido_code":"45","flood_year":"2011","occurred_at":"2011-07-10","ended_at":"2011-07-10","begin_time":"0000","end_time":"0000","disaster_name":"집중호우","cause_detail":"집중호우","flood_grade":1,"flood_depth_m":0.49,"flood_area_m2":491000,"source_sn":634,"data_status":"actual","official_data":true,"is_prediction":false,"source":"행정안전부 침수흔적도 · 재난안전데이터공유플랫폼 DSSP-IF-00117","collected_at":"2026-08-19T16:46:51+09:00","source_crs":"EPSG:3857","display_badges":["행안부 침수흔적도","과거 기록"]}},{"type":"Feature","id":"FLD:52710:636:37439","geometry":{"type":"MultiPolygon","coordinates":[[[[127.008252,35.861113],[127.00758,35.861264],[127.006357,35.861541],[127.006384,35.861497],[127.006568,35.86119],[127.006569,35.861189],[127.006648,35.861032],[127.006926,35.860586],[127.007268,35.860029],[127.007488,35.859664],[127.008134,35.858621],[127.008174,35.858665],[127.008222,35.859655],[127.008257,35.860566],[127.008252,35.861113]]]]},"properties":{"id":"FLD:52710:636:37439","layer":"FLOOD_TRACE","admin_code":"52710","sido_code":"45","flood_year":"2011","occurred_at":"2011-07-10","ended_at":"2011-07-10","begin_time":"0000","end_time":"0000","disaster_name":"집중호우","cause_detail":"집중호우","flood_grade":5,"flood_depth_m":2.01,"flood_area_m2":491000,"source_sn":636,"data_status":"actual","official_data":true,"is_prediction":false,"source":"행정안전부 침수흔적도 · 재난안전데이터공유플랫폼 DSSP-IF-00117","collected_at":"2026-08-19T16:46:51+09:00","source_crs":"EPSG:3857","display_badges":["행안부 침수흔적도","과거 기록"]}},{"type":"Feature","id":"FLD:52710:630:37440","geometry":{"type":"MultiPolygon","coordinates":[[[[127.010417,35.855508],[127.009955,35.855573],[127.009498,35.855617],[127.009079,35.855602],[127.008686,35.855558],[127.008672,35.855254],[127.008787,35.854429],[127.008955,35.85349],[127.009104,35.852503],[127.009257,35.851518],[127.009256,35.851465],[127.009388,35.850515],[127.00954,35.849581],[127.009957,35.849617],[127.010619,35.849688],[127.011085,35.849753],[127.01098,35.849899],[127.01057,35.850392],[127.010332,35.850656],[127.010242,35.850795],[127.010197,35.850989],[127.010126,35.851072],[127.009991,35.851236],[127.009872,35.851495],[127.009851,35.851563],[127.009852,35.851664],[127.009889,35.851996],[127.009916,35.852117],[127.009969,35.852212],[127.010107,35.852367],[127.010165,35.852609],[127.010121,35.85295],[127.010195,35.853054],[127.01021,35.853192],[127.010267,35.853272],[127.010256,35.853576],[127.010258,35.853618],[127.010271,35.853851],[127.010321,35.853971],[127.010353,35.854197],[127.010513,35.85436],[127.010489,35.854557],[127.01043,35.854943],[127.010417,35.855508]]]]},"properties":{"id":"FLD:52710:630:37440","layer":"FLOOD_TRACE","admin_code":"52710","sido_code":"45","flood_year":"2011","occurred_at":"2011-07-10","ended_at":"2011-07-10","begin_time":"0000","end_time":"0000","disaster_name":"집중호우","cause_detail":"집중호우","flood_grade":2,"flood_depth_m":0.59,"flood_area_m2":491000,"source_sn":630,"data_status":"actual","official_data":true,"is_prediction":false,"source":"행정안전부 침수흔적도 · 재난안전데이터공유플랫폼 DSSP-IF-00117","collected_at":"2026-08-19T16:46:51+09:00","source_crs":"EPSG:3857","display_badges":["행안부 침수흔적도","과거 기록"]}},{"type":"Feature","id":"FLD:52710:635:37468","geometry":{"type":"MultiPolygon","coordinates":[[[[127.012804,35.856648],[127.012472,35.856659],[127.011648,35.856679],[127.011653,35.85707],[127.010551,35.85711],[127.010451,35.857191],[127.010219,35.857098],[127.010113,35.857044],[127.009987,35.856865],[127.010081,35.856723],[127.010307,35.856477],[127.010395,35.856299],[127.010465,35.856334],[127.010686,35.85639],[127.010938,35.856466],[127.011084,35.85623],[127.011288,35.856056],[127.011361,35.855946],[127.011447,35.855907],[127.011551,35.855996],[127.01167,35.855885],[127.011767,35.855934],[127.011676,35.85604],[127.011653,35.856132],[127.011882,35.856058],[127.011882,35.855866],[127.011879,35.855754],[127.011893,35.855663],[127.012066,35.855753],[127.012149,35.85581],[127.012104,35.855884],[127.01224,35.855927],[127.012337,35.855736],[127.012373,35.855697],[127.012609,35.855597],[127.012656,35.855419],[127.012733,35.855172],[127.012762,35.855188],[127.012786,35.85609],[127.012804,35.856648]]]]},"properties":{"id":"FLD:52710:635:37468","layer":"FLOOD_TRACE","admin_code":"52710","sido_code":"45","flood_year":"2011","occurred_at":"2011-07-10","ended_at":"2011-07-10","begin_time":"0000","end_time":"0000","disaster_name":"집중호우","cause_detail":"집중호우","flood_grade":2,"flood_depth_m":0.53,"flood_area_m2":491000,"source_sn":635,"data_status":"actual","official_data":true,"is_prediction":false,"source":"행정안전부 침수흔적도 · 재난안전데이터공유플랫폼 DSSP-IF-00117","collected_at":"2026-08-19T16:46:51+09:00","source_crs":"EPSG:3857","display_badges":["행안부 침수흔적도","과거 기록"]}},{"type":"Feature","id":"FLD:52710:631:37469","geometry":{"type":"MultiPolygon","coordinates":[[[[127.013552,35.85956],[127.013301,35.859569],[127.012994,35.859721],[127.012924,35.85965],[127.012899,35.8589],[127.012835,35.85737],[127.012821,35.85703],[127.012853,35.857029],[127.012899,35.857026],[127.01331,35.857017],[127.013369,35.857022],[127.013433,35.857015],[127.014005,35.857001],[127.014047,35.856998],[127.014053,35.857208],[127.014056,35.857328],[127.014068,35.857689],[127.01408,35.858047],[127.014085,35.858152],[127.014088,35.858216],[127.014088,35.858219],[127.014079,35.858333],[127.013727,35.858337],[127.013727,35.858435],[127.013704,35.858548],[127.013733,35.858661],[127.013914,35.85896],[127.013939,35.859217],[127.01397,35.859307],[127.014012,35.859363],[127.01394,35.859475],[127.013891,35.859524],[127.013847,35.859544],[127.013552,35.85956]]]]},"properties":{"id":"FLD:52710:631:37469","layer":"FLOOD_TRACE","admin_code":"52710","sido_code":"45","flood_year":"2011","occurred_at":"2011-07-10","ended_at":"2011-07-10","begin_time":"0000","end_time":"0000","disaster_name":"집중호우","cause_detail":"집중호우","flood_grade":2,"flood_depth_m":0.98,"flood_area_m2":491000,"source_sn":631,"data_status":"actual","official_data":true,"is_prediction":false,"source":"행정안전부 침수흔적도 · 재난안전데이터공유플랫폼 DSSP-IF-00117","collected_at":"2026-08-19T16:46:51+09:00","source_crs":"EPSG:3857","display_badges":["행안부 침수흔적도","과거 기록"]}},{"type":"Feature","id":"FLD:52710:632:37470","geometry":{"type":"MultiPolygon","coordinates":[[[[127.012924,35.85965],[127.012701,35.859773],[127.012564,35.859913],[127.012582,35.860098],[127.011816,35.860293],[127.010605,35.860562],[127.010578,35.859944],[127.010544,35.859052],[127.010511,35.858033],[127.010489,35.857492],[127.010451,35.857191],[127.010551,35.85711],[127.011653,35.85707],[127.011648,35.856679],[127.012472,35.856659],[127.012804,35.856648],[127.012821,35.857022],[127.012821,35.85703],[127.012835,35.85737],[127.012899,35.8589],[127.012924,35.85965]]]]},"properties":{"id":"FLD:52710:632:37470","layer":"FLOOD_TRACE","admin_code":"52710","sido_code":"45","flood_year":"2011","occurred_at":"2011-07-10","ended_at":"2011-07-10","begin_time":"0000","end_time":"0000","disaster_name":"집중호우","cause_detail":"집중호우","flood_grade":3,"flood_depth_m":1.2,"flood_area_m2":491000,"source_sn":632,"data_status":"actual","official_data":true,"is_prediction":false,"source":"행정안전부 침수흔적도 · 재난안전데이터공유플랫폼 DSSP-IF-00117","collected_at":"2026-08-19T16:46:51+09:00","source_crs":"EPSG:3857","display_badges":["행안부 침수흔적도","과거 기록"]}},{"type":"Feature","id":"FLD:52710:629:37471","geometry":{"type":"MultiPolygon","coordinates":[[[[127.010605,35.860562],[127.009474,35.860837],[127.008252,35.861113],[127.008257,35.860566],[127.008222,35.859655],[127.008174,35.858665],[127.008134,35.858621],[127.008588,35.857847],[127.00873,35.857422],[127.008735,35.856835],[127.008735,35.856471],[127.008702,35.856178],[127.008716,35.855652],[127.008686,35.855558],[127.009079,35.855602],[127.009498,35.855617],[127.009955,35.855573],[127.010417,35.855508],[127.010416,35.855583],[127.010527,35.855669],[127.010749,35.855771],[127.01078,35.855877],[127.010721,35.855949],[127.010574,35.855997],[127.010467,35.856123],[127.010395,35.856299],[127.010307,35.856477],[127.010081,35.856723],[127.009987,35.856865],[127.010113,35.857044],[127.010219,35.857098],[127.010451,35.857191],[127.010489,35.857492],[127.010511,35.858033],[127.010544,35.859052],[127.010578,35.859944],[127.010605,35.860562]]]]},"properties":{"id":"FLD:52710:629:37471","layer":"FLOOD_TRACE","admin_code":"52710","sido_code":"45","flood_year":"2011","occurred_at":"2011-07-10","ended_at":"2011-07-10","begin_time":"0000","end_time":"0000","disaster_name":"집중호우","cause_detail":"집중호우","flood_grade":2,"flood_depth_m":1.76,"flood_area_m2":491000,"source_sn":629,"data_status":"actual","official_data":true,"is_prediction":false,"source":"행정안전부 침수흔적도 · 재난안전데이터공유플랫폼 DSSP-IF-00117","collected_at":"2026-08-19T16:46:51+09:00","source_crs":"EPSG:3857","display_badges":["행안부 침수흔적도","과거 기록"]}}]}