{"type":"FeatureCollection","features":[{"type":"Feature","id":"FLD:52180:235:5483","geometry":{"type":"MultiPolygon","coordinates":[[[[126.829778,35.561121],[126.829423,35.560269],[126.829738,35.560181],[126.830052,35.560092],[126.830406,35.560947],[126.830094,35.561033],[126.829778,35.561121]]]]},"properties":{"id":"FLD:52180:235:5483","layer":"FLOOD_TRACE","admin_code":"52180","sido_code":"45","flood_year":"2014","occurred_at":"2014-08-18","ended_at":"2014-08-18","begin_time":"0900","end_time":"1900","disaster_name":"2014상평지구","cause_detail":"집중호우","flood_grade":1,"flood_depth_m":0.411,"flood_area_m2":6000,"source_sn":235,"data_status":"actual","official_data":true,"is_prediction":false,"source":"행정안전부 침수흔적도 · 재난안전데이터공유플랫폼 DSSP-IF-00117","collected_at":"2026-08-19T16:46:51+09:00","source_crs":"EPSG:3857","display_badges":["행안부 침수흔적도","과거 기록"]}},{"type":"Feature","id":"FLD:52180:236:5484","geometry":{"type":"MultiPolygon","coordinates":[[[[126.827665,35.564751],[126.827306,35.563903],[126.827637,35.563811],[126.827994,35.564673],[126.827684,35.564759],[126.827665,35.564751]]]]},"properties":{"id":"FLD:52180:236:5484","layer":"FLOOD_TRACE","admin_code":"52180","sido_code":"45","flood_year":"2014","occurred_at":"2014-08-18","ended_at":"2014-08-18","begin_time":"0900","end_time":"1900","disaster_name":"2014상평지구","cause_detail":"집중호우","flood_grade":1,"flood_depth_m":0.427,"flood_area_m2":3130,"source_sn":236,"data_status":"actual","official_data":true,"is_prediction":false,"source":"행정안전부 침수흔적도 · 재난안전데이터공유플랫폼 DSSP-IF-00117","collected_at":"2026-08-19T16:46:51+09:00","source_crs":"EPSG:3857","display_badges":["행안부 침수흔적도","과거 기록"]}},{"type":"Feature","id":"FLD:52180:237:5485","geometry":{"type":"MultiPolygon","coordinates":[[[[126.831851,35.563596],[126.831502,35.562743],[126.831814,35.562657],[126.83184,35.562719],[126.832165,35.563509],[126.831851,35.563596]]]]},"properties":{"id":"FLD:52180:237:5485","layer":"FLOOD_TRACE","admin_code":"52180","sido_code":"45","flood_year":"2014","occurred_at":"2014-08-18","ended_at":"2014-08-18","begin_time":"0900","end_time":"1900","disaster_name":"2014상평지구","cause_detail":"집중호우","flood_grade":2,"flood_depth_m":0.657,"flood_area_m2":3000,"source_sn":237,"data_status":"actual","official_data":true,"is_prediction":false,"source":"행정안전부 침수흔적도 · 재난안전데이터공유플랫폼 DSSP-IF-00117","collected_at":"2026-08-19T16:46:51+09:00","source_crs":"EPSG:3857","display_badges":["행안부 침수흔적도","과거 기록"]}},{"type":"Feature","id":"FLD:52180:238:5486","geometry":{"type":"MultiPolygon","coordinates":[[[[126.833118,35.553143],[126.833115,35.552244],[126.833398,35.552241],[126.833725,35.552238],[126.83373,35.553137],[126.833401,35.55314],[126.833118,35.553143]]]]},"properties":{"id":"FLD:52180:238:5486","layer":"FLOOD_TRACE","admin_code":"52180","sido_code":"45","flood_year":"2014","occurred_at":"2014-08-18","ended_at":"2014-08-18","begin_time":"0900","end_time":"1900","disaster_name":"2014상평지구","cause_detail":"집중호우","flood_grade":2,"flood_depth_m":0.633,"flood_area_m2":5550,"source_sn":238,"data_status":"actual","official_data":true,"is_prediction":false,"source":"행정안전부 침수흔적도 · 재난안전데이터공유플랫폼 DSSP-IF-00117","collected_at":"2026-08-19T16:46:51+09:00","source_crs":"EPSG:3857","display_badges":["행안부 침수흔적도","과거 기록"]}},{"type":"Feature","id":"FLD:52180:239:5487","geometry":{"type":"MultiPolygon","coordinates":[[[[126.823877,35.545605],[126.823982,35.545569],[126.82418,35.545505],[126.824598,35.546334],[126.824401,35.546404],[126.824382,35.546411],[126.824308,35.5464],[126.824276,35.546383],[126.823877,35.545605]]]]},"properties":{"id":"FLD:52180:239:5487","layer":"FLOOD_TRACE","admin_code":"52180","sido_code":"45","flood_year":"2014","occurred_at":"2014-08-18","ended_at":"2014-08-18","begin_time":"0900","end_time":"1900","disaster_name":"2014삼산지구","cause_detail":"집중호우","flood_grade":2,"flood_depth_m":0.695,"flood_area_m2":2893,"source_sn":239,"data_status":"actual","official_data":true,"is_prediction":false,"source":"행정안전부 침수흔적도 · 재난안전데이터공유플랫폼 DSSP-IF-00117","collected_at":"2026-08-19T16:46:51+09:00","source_crs":"EPSG:3857","display_badges":["행안부 침수흔적도","과거 기록"]}},{"type":"Feature","id":"FLD:52180:240:5488","geometry":{"type":"MultiPolygon","coordinates":[[[[126.8248,35.545296],[126.824842,35.545281],[126.825105,35.54519],[126.8253,35.545122],[126.82572,35.545959],[126.825527,35.546024],[126.82526,35.546112],[126.82522,35.546125],[126.8248,35.545296]]]]},"properties":{"id":"FLD:52180:240:5488","layer":"FLOOD_TRACE","admin_code":"52180","sido_code":"45","flood_year":"2014","occurred_at":"2014-08-18","ended_at":"2014-08-18","begin_time":"0900","end_time":"1900","disaster_name":"2014삼산지구","cause_detail":"집중호우","flood_grade":2,"flood_depth_m":0.597,"flood_area_m2":4891,"source_sn":240,"data_status":"actual","official_data":true,"is_prediction":false,"source":"행정안전부 침수흔적도 · 재난안전데이터공유플랫폼 DSSP-IF-00117","collected_at":"2026-08-19T16:46:51+09:00","source_crs":"EPSG:3857","display_badges":["행안부 침수흔적도","과거 기록"]}},{"type":"Feature","id":"FLD:52180:241:5489","geometry":{"type":"MultiPolygon","coordinates":[[[[126.824343,35.544395],[126.824649,35.544291],[126.825074,35.545128],[126.824766,35.545229],[126.824343,35.544395]]]]},"properties":{"id":"FLD:52180:241:5489","layer":"FLOOD_TRACE","admin_code":"52180","sido_code":"45","flood_year":"2014","occurred_at":"2014-08-18","ended_at":"2014-08-18","begin_time":"0900","end_time":"1900","disaster_name":"2014삼산지구","cause_detail":"집중호우","flood_grade":2,"flood_depth_m":0.657,"flood_area_m2":2993,"source_sn":241,"data_status":"actual","official_data":true,"is_prediction":false,"source":"행정안전부 침수흔적도 · 재난안전데이터공유플랫폼 DSSP-IF-00117","collected_at":"2026-08-19T16:46:51+09:00","source_crs":"EPSG:3857","display_badges":["행안부 침수흔적도","과거 기록"]}},{"type":"Feature","id":"FLD:52180:242:5490","geometry":{"type":"MultiPolygon","coordinates":[[[[126.810345,35.515459],[126.810067,35.514598],[126.810452,35.514518],[126.810727,35.51538],[126.810345,35.515459]]]]},"properties":{"id":"FLD:52180:242:5490","layer":"FLOOD_TRACE","admin_code":"52180","sido_code":"45","flood_year":"2014","occurred_at":"2014-08-18","ended_at":"2014-08-18","begin_time":"0900","end_time":"1900","disaster_name":"2014신면지구","cause_detail":"집중호우","flood_grade":1,"flood_depth_m":0.48,"flood_area_m2":3547.1,"source_sn":242,"data_status":"actual","official_data":true,"is_prediction":false,"source":"행정안전부 침수흔적도 · 재난안전데이터공유플랫폼 DSSP-IF-00117","collected_at":"2026-08-19T16:46:51+09:00","source_crs":"EPSG:3857","display_badges":["행안부 침수흔적도","과거 기록"]}},{"type":"Feature","id":"FLD:52180:243:5491","geometry":{"type":"MultiPolygon","coordinates":[[[[126.805604,35.51745],[126.80533,35.516584],[126.806258,35.516386],[126.806512,35.516337],[126.806798,35.517199],[126.806533,35.517256],[126.805604,35.51745]]]]},"properties":{"id":"FLD:52180:243:5491","layer":"FLOOD_TRACE","admin_code":"52180","sido_code":"45","flood_year":"2014","occurred_at":"2014-08-18","ended_at":"2014-08-18","begin_time":"0900","end_time":"1900","disaster_name":"2014신면지구","cause_detail":"집중호우","flood_grade":2,"flood_depth_m":0.53,"flood_area_m2":11066.8,"source_sn":243,"data_status":"actual","official_data":true,"is_prediction":false,"source":"행정안전부 침수흔적도 · 재난안전데이터공유플랫폼 DSSP-IF-00117","collected_at":"2026-08-19T16:46:51+09:00","source_crs":"EPSG:3857","display_badges":["행안부 침수흔적도","과거 기록"]}},{"type":"Feature","id":"FLD:52180:245:5494","geometry":{"type":"MultiPolygon","coordinates":[[[[126.748498,35.578183],[126.748525,35.578165],[126.74857,35.57813],[126.748594,35.57809],[126.748664,35.578003],[126.748946,35.577753],[126.749028,35.577683],[126.74911,35.577607],[126.749154,35.577555],[126.749236,35.577438],[126.749375,35.577284],[126.749517,35.57714],[126.749657,35.576984],[126.74973,35.576991],[126.749763,35.576945],[126.749881,35.576818],[126.749958,35.576715],[126.750004,35.576632],[126.750038,35.576544],[126.750048,35.576433],[126.750034,35.576317],[126.750025,35.576249],[126.750026,35.576192],[126.750049,35.576034],[126.750067,35.575961],[126.750087,35.575903],[126.750122,35.575831],[126.750125,35.575795],[126.750117,35.575726],[126.750081,35.575431],[126.750051,35.575126],[126.75002,35.574885],[126.750002,35.574882],[126.750005,35.574784],[126.749989,35.574773],[126.750022,35.574723],[126.75007,35.574676],[126.750127,35.57464],[126.750197,35.574609],[126.750264,35.574599],[126.750396,35.574596],[126.750494,35.574585],[126.750801,35.574502],[126.750843,35.574499],[126.75087,35.574489],[126.750978,35.574469],[126.751098,35.574454],[126.751296,35.574428],[126.751417,35.574403],[126.751891,35.574251],[126.751943,35.57423],[126.752009,35.574179],[126.752076,35.574164],[126.752302,35.574152],[126.752618,35.574095],[126.753175,35.574065],[126.753228,35.574063],[126.753247,35.574062],[126.753252,35.574108],[126.753257,35.574108],[126.753959,35.574098],[126.753855,35.574192],[126.753319,35.574677],[126.753303,35.574676],[126.753273,35.574675],[126.753216,35.574673],[126.75319,35.574672],[126.753165,35.574828],[126.753004,35.574977],[126.752549,35.5754],[126.75254,35.575408],[126.752197,35.575715],[126.75213,35.575775],[126.75197,35.575918],[126.751952,35.575935],[126.7516,35.576263],[126.751511,35.576346],[126.75114,35.576719],[126.751086,35.576727],[126.751017,35.576814],[126.750912,35.576891],[126.750858,35.576931],[126.750643,35.577104],[126.750639,35.57711],[126.750478,35.577336],[126.750194,35.577702],[126.749916,35.578081],[126.749819,35.578194],[126.74975,35.578274],[126.749649,35.578392],[126.7496,35.57845],[126.749287,35.578816],[126.748969,35.579196],[126.748741,35.579472],[126.748686,35.579539],[126.748674,35.579549],[126.748598,35.579614],[126.748603,35.579585],[126.748595,35.579535],[126.748576,35.579206],[126.748551,35.578886],[126.748527,35.578557],[126.74852,35.578468],[126.748513,35.578379],[126.748498,35.578183]]]]},"properties":{"id":"FLD:52180:245:5494","layer":"FLOOD_TRACE","admin_code":"52180","sido_code":"45","flood_year":"2014","occurred_at":"2014-08-18","ended_at":"2014-08-18","begin_time":"0900","end_time":"1900","disaster_name":"2014화룡지구","cause_detail":"집중호우","flood_grade":1,"flood_depth_m":0.402,"flood_area_m2":202121.737,"source_sn":245,"data_status":"actual","official_data":true,"is_prediction":false,"source":"행정안전부 침수흔적도 · 재난안전데이터공유플랫폼 DSSP-IF-00117","collected_at":"2026-08-19T16:46:51+09:00","source_crs":"EPSG:3857","display_badges":["행안부 침수흔적도","과거 기록"]}},{"type":"Feature","id":"FLD:52180:248:5497","geometry":{"type":"MultiPolygon","coordinates":[[[[126.750889,35.578273],[126.750899,35.578262],[126.750945,35.578181],[126.751402,35.577644],[126.751581,35.577451],[126.751626,35.577403],[126.752017,35.576982],[126.752301,35.576724],[126.752421,35.576621],[126.753126,35.575976],[126.753167,35.575938],[126.753122,35.575905],[126.753688,35.575386],[126.75383,35.575255],[126.753897,35.575197],[126.75394,35.575194],[126.753945,35.575189],[126.754033,35.575101],[126.75415,35.57509],[126.754745,35.574563],[126.754921,35.57469],[126.755413,35.575048],[126.755442,35.575069],[126.755724,35.575273],[126.755925,35.575414],[126.756227,35.575638],[126.756507,35.575841],[126.756554,35.575798],[126.757281,35.575131],[126.757005,35.574931],[126.756663,35.574683],[126.756215,35.574358],[126.756189,35.574339],[126.756262,35.574276],[126.756198,35.574229],[126.756214,35.574215],[126.756178,35.574157],[126.756114,35.574053],[126.755983,35.57389],[126.755927,35.573841],[126.75582,35.573749],[126.755728,35.57369],[126.755806,35.573614],[126.756158,35.573269],[126.756309,35.573122],[126.756309,35.573122],[126.756537,35.573288],[126.756867,35.573527],[126.756981,35.57361],[126.757012,35.573633],[126.757131,35.573719],[126.757225,35.57364],[126.757952,35.572964],[126.758002,35.572918],[126.757852,35.572809],[126.758596,35.572123],[126.758636,35.572086],[126.759379,35.571407],[126.759633,35.57159],[126.759716,35.57165],[126.759799,35.57171],[126.76007,35.571915],[126.759476,35.57225],[126.759127,35.572453],[126.759082,35.572474],[126.75901,35.572521],[126.758939,35.57258],[126.758881,35.572648],[126.758843,35.572713],[126.758815,35.572784],[126.758704,35.573123],[126.758695,35.573196],[126.758701,35.573246],[126.758745,35.573416],[126.758762,35.573441],[126.758805,35.573495],[126.758848,35.573574],[126.7589,35.573641],[126.758995,35.573741],[126.759047,35.573812],[126.75906,35.573849],[126.758975,35.574429],[126.75897,35.574656],[126.758901,35.574791],[126.758892,35.574849],[126.758874,35.574936],[126.758832,35.575097],[126.758813,35.575203],[126.758782,35.575434],[126.758774,35.575504],[126.758754,35.575701],[126.758752,35.575812],[126.758754,35.575885],[126.758777,35.575908],[126.758754,35.575936],[126.758704,35.575927],[126.758677,35.575967],[126.758631,35.575971],[126.758592,35.575968],[126.758559,35.575991],[126.758511,35.576035],[126.758502,35.576065],[126.75844,35.576083],[126.758207,35.576134],[126.758091,35.576172],[126.75795,35.576242],[126.757885,35.57627],[126.757822,35.576278],[126.757679,35.576254],[126.757683,35.576225],[126.757621,35.57621],[126.757492,35.576185],[126.757386,35.57618],[126.757336,35.576187],[126.75723,35.576218],[126.757158,35.576227],[126.757099,35.576271],[126.756876,35.576279],[126.75678,35.576278],[126.756713,35.576273],[126.756653,35.576261],[126.75655,35.576227],[126.756272,35.576109],[126.756235,35.576099],[126.756194,35.576094],[126.756146,35.576101],[126.756068,35.576136],[126.755952,35.576204],[126.755765,35.576303],[126.755597,35.576385],[126.755576,35.576408],[126.755499,35.576425],[126.755341,35.576526],[126.755028,35.576895],[126.754916,35.577053],[126.754866,35.577167],[126.754854,35.577223],[126.754831,35.577284],[126.75442,35.578127],[126.754373,35.5782],[126.754173,35.578472],[126.754092,35.578603],[126.754006,35.578759],[126.753951,35.578843],[126.753821,35.578999],[126.753816,35.579076],[126.753515,35.579425],[126.75346,35.57947],[126.753374,35.579494],[126.752852,35.57959],[126.752821,35.5796],[126.752717,35.57959],[126.752592,35.579656],[126.752527,35.579646],[126.752475,35.579656],[126.752426,35.579688],[126.751903,35.579655],[126.75155,35.579634],[126.751124,35.579607],[126.750864,35.579591],[126.750529,35.579563],[126.750485,35.57956],[126.750449,35.579558],[126.750455,35.579529],[126.749916,35.579447],[126.750102,35.57919],[126.750633,35.578558],[126.750712,35.578464],[126.750729,35.57847],[126.750741,35.578455],[126.750846,35.578318],[126.750889,35.578273]]]]},"properties":{"id":"FLD:52180:248:5497","layer":"FLOOD_TRACE","admin_code":"52180","sido_code":"45","flood_year":"2014","occurred_at":"2014-08-18","ended_at":"2014-08-18","begin_time":"0900","end_time":"1900","disaster_name":"2014화룡지구","cause_detail":"집중호우","flood_grade":3,"flood_depth_m":1.35,"flood_area_m2":234985.786,"source_sn":248,"data_status":"actual","official_data":true,"is_prediction":false,"source":"행정안전부 침수흔적도 · 재난안전데이터공유플랫폼 DSSP-IF-00117","collected_at":"2026-08-19T16:46:51+09:00","source_crs":"EPSG:3857","display_badges":["행안부 침수흔적도","과거 기록"]}},{"type":"Feature","id":"FLD:52180:246:5511","geometry":{"type":"MultiPolygon","coordinates":[[[[126.742077,35.580192],[126.742027,35.580195],[126.741432,35.580435],[126.741357,35.580575],[126.741357,35.580568],[126.741269,35.580742],[126.741196,35.58078],[126.741117,35.580835],[126.741116,35.580831],[126.741115,35.580822],[126.741094,35.580734],[126.741056,35.580571],[126.741003,35.58035],[126.740979,35.580242],[126.740966,35.580193],[126.740952,35.580164],[126.740968,35.580148],[126.741311,35.579872],[126.741541,35.57983],[126.741558,35.579835],[126.741667,35.57986],[126.741776,35.579881],[126.742028,35.579868],[126.742077,35.580192]]]]},"properties":{"id":"FLD:52180:246:5511","layer":"FLOOD_TRACE","admin_code":"52180","sido_code":"45","flood_year":"2014","occurred_at":"2014-08-18","ended_at":"2014-08-18","begin_time":"0900","end_time":"1900","disaster_name":"2014화룡지구","cause_detail":"집중호우","flood_grade":3,"flood_depth_m":1.2,"flood_area_m2":202121.737,"source_sn":246,"data_status":"actual","official_data":true,"is_prediction":false,"source":"행정안전부 침수흔적도 · 재난안전데이터공유플랫폼 DSSP-IF-00117","collected_at":"2026-08-19T16:46:51+09:00","source_crs":"EPSG:3857","display_badges":["행안부 침수흔적도","과거 기록"]}},{"type":"Feature","id":"FLD:52180:244:5512","geometry":{"type":"MultiPolygon","coordinates":[[[[126.75324,35.573861],[126.753222,35.573631],[126.75321,35.573469],[126.753205,35.573407],[126.753424,35.573359],[126.753467,35.573348],[126.75351,35.573331],[126.753544,35.573309],[126.753573,35.573278],[126.753599,35.573241],[126.753619,35.573204],[126.753634,35.573165],[126.753646,35.573113],[126.754288,35.57308],[126.754388,35.573068],[126.755087,35.573032],[126.754786,35.573299],[126.754721,35.573357],[126.754428,35.573618],[126.754327,35.57365],[126.754221,35.573657],[126.753993,35.573691],[126.753772,35.573742],[126.75356,35.573797],[126.75324,35.573861]]]]},"properties":{"id":"FLD:52180:244:5512","layer":"FLOOD_TRACE","admin_code":"52180","sido_code":"45","flood_year":"2014","occurred_at":"2014-08-18","ended_at":"2014-08-18","begin_time":"0900","end_time":"1900","disaster_name":"2014화룡지구","cause_detail":"집중호우","flood_grade":2,"flood_depth_m":0.787,"flood_area_m2":9119.863,"source_sn":244,"data_status":"actual","official_data":true,"is_prediction":false,"source":"행정안전부 침수흔적도 · 재난안전데이터공유플랫폼 DSSP-IF-00117","collected_at":"2026-08-19T16:46:51+09:00","source_crs":"EPSG:3857","display_badges":["행안부 침수흔적도","과거 기록"]}},{"type":"Feature","id":"FLD:52180:249:5513","geometry":{"type":"MultiPolygon","coordinates":[[[[126.742028,35.579868],[126.74211,35.579861],[126.742089,35.579698],[126.742092,35.579656],[126.742113,35.579591],[126.742152,35.579522],[126.742198,35.579451],[126.742243,35.579364],[126.742309,35.579198],[126.742367,35.579081],[126.742442,35.57895],[126.742467,35.578921],[126.742551,35.578912],[126.742599,35.578916],[126.742665,35.578904],[126.743431,35.578854],[126.743645,35.578846],[126.74377,35.578839],[126.743824,35.578804],[126.743845,35.578804],[126.743911,35.578789],[126.744003,35.578779],[126.744187,35.578774],[126.744457,35.57877],[126.744595,35.578755],[126.744658,35.578733],[126.744749,35.578683],[126.744843,35.57862],[126.744948,35.578559],[126.745009,35.578581],[126.74505,35.578554],[126.745168,35.578502],[126.745228,35.578486],[126.745339,35.578459],[126.745338,35.578432],[126.745706,35.578387],[126.745837,35.578361],[126.745966,35.578344],[126.746106,35.578347],[126.746154,35.578342],[126.746176,35.578342],[126.746271,35.578346],[126.746369,35.578377],[126.746519,35.578424],[126.746698,35.57846],[126.74684,35.578468],[126.747005,35.578455],[126.747127,35.578426],[126.7473,35.578402],[126.747364,35.578403],[126.747475,35.578403],[126.747614,35.578399],[126.747742,35.57838],[126.747818,35.578366],[126.748078,35.578305],[126.748397,35.578229],[126.748498,35.578183],[126.748513,35.578379],[126.74852,35.578468],[126.748527,35.578557],[126.748551,35.578886],[126.748576,35.579206],[126.748595,35.579535],[126.748603,35.579585],[126.748598,35.579614],[126.748302,35.579869],[126.748283,35.579885],[126.747884,35.580216],[126.747797,35.580275],[126.747601,35.580382],[126.747509,35.580418],[126.747457,35.580437],[126.747357,35.580476],[126.747227,35.580526],[126.74684,35.580636],[126.746394,35.580712],[126.746237,35.580723],[126.746014,35.580737],[126.745595,35.580727],[126.745196,35.580672],[126.745164,35.580665],[126.745141,35.580293],[126.745115,35.579962],[126.74505,35.579967],[126.743936,35.580024],[126.743904,35.579607],[126.74383,35.579611],[126.742719,35.579665],[126.742652,35.57967],[126.742681,35.580038],[126.742695,35.580294],[126.742684,35.580294],[126.742202,35.580384],[126.742179,35.58034],[126.742155,35.580188],[126.742077,35.580192],[126.742028,35.579868]]]]},"properties":{"id":"FLD:52180:249:5513","layer":"FLOOD_TRACE","admin_code":"52180","sido_code":"45","flood_year":"2014","occurred_at":"2014-08-18","ended_at":"2014-08-18","begin_time":"0900","end_time":"1900","disaster_name":"2014화룡지구","cause_detail":"집중호우","flood_grade":2,"flood_depth_m":0.863,"flood_area_m2":202121.737,"source_sn":249,"data_status":"actual","official_data":true,"is_prediction":false,"source":"행정안전부 침수흔적도 · 재난안전데이터공유플랫폼 DSSP-IF-00117","collected_at":"2026-08-19T16:46:51+09:00","source_crs":"EPSG:3857","display_badges":["행안부 침수흔적도","과거 기록"]}},{"type":"Feature","id":"FLD:52180:247:5540","geometry":{"type":"MultiPolygon","coordinates":[[[[126.747885,35.581089],[126.748078,35.580982],[126.74833,35.580826],[126.74859,35.580669],[126.748692,35.580604],[126.748626,35.5806],[126.748701,35.58055],[126.748748,35.580553],[126.748876,35.580454],[126.749096,35.58028],[126.749266,35.580118],[126.74937,35.58001],[126.749471,35.579906],[126.749556,35.57981],[126.749577,35.5798],[126.749515,35.580591],[126.749319,35.580581],[126.749318,35.580633],[126.749254,35.581549],[126.748911,35.581535],[126.748851,35.581533],[126.748747,35.581514],[126.748739,35.581533],[126.748647,35.581495],[126.748539,35.581434],[126.748518,35.581454],[126.747885,35.581089]]]]},"properties":{"id":"FLD:52180:247:5540","layer":"FLOOD_TRACE","admin_code":"52180","sido_code":"45","flood_year":"2014","occurred_at":"2014-08-18","ended_at":"2014-08-18","begin_time":"0900","end_time":"1900","disaster_name":"2014화룡지구","cause_detail":"집중호우","flood_grade":2,"flood_depth_m":0.936,"flood_area_m2":13488.611,"source_sn":247,"data_status":"actual","official_data":true,"is_prediction":false,"source":"행정안전부 침수흔적도 · 재난안전데이터공유플랫폼 DSSP-IF-00117","collected_at":"2026-08-19T16:46:51+09:00","source_crs":"EPSG:3857","display_badges":["행안부 침수흔적도","과거 기록"]}},{"type":"Feature","id":"FLD:52180:254:5541","geometry":{"type":"MultiPolygon","coordinates":[[[[126.73276,35.583759],[126.733402,35.583201],[126.733591,35.583067],[126.734157,35.583347],[126.73356,35.584153],[126.73276,35.583759]]]]},"properties":{"id":"FLD:52180:254:5541","layer":"FLOOD_TRACE","admin_code":"52180","sido_code":"45","flood_year":"2014","occurred_at":"2014-08-18","ended_at":"2014-08-18","begin_time":"0900","end_time":"1900","disaster_name":"2014백운지구","cause_detail":"집중호우","flood_grade":2,"flood_depth_m":0.516,"flood_area_m2":7767.379,"source_sn":254,"data_status":"actual","official_data":true,"is_prediction":false,"source":"행정안전부 침수흔적도 · 재난안전데이터공유플랫폼 DSSP-IF-00117","collected_at":"2026-08-19T16:46:51+09:00","source_crs":"EPSG:3857","display_badges":["행안부 침수흔적도","과거 기록"]}},{"type":"Feature","id":"FLD:52180:253:5542","geometry":{"type":"MultiPolygon","coordinates":[[[[126.730435,35.586344],[126.730547,35.58636],[126.730568,35.587508],[126.730381,35.58751],[126.730359,35.586551],[126.730403,35.586537],[126.730415,35.586519],[126.730423,35.586477],[126.730435,35.586344]]]]},"properties":{"id":"FLD:52180:253:5542","layer":"FLOOD_TRACE","admin_code":"52180","sido_code":"45","flood_year":"2014","occurred_at":"2014-08-18","ended_at":"2014-08-18","begin_time":"0900","end_time":"1900","disaster_name":"2014백운지구","cause_detail":"집중호우","flood_grade":1,"flood_depth_m":0.474,"flood_area_m2":2139.441,"source_sn":253,"data_status":"actual","official_data":true,"is_prediction":false,"source":"행정안전부 침수흔적도 · 재난안전데이터공유플랫폼 DSSP-IF-00117","collected_at":"2026-08-19T16:46:51+09:00","source_crs":"EPSG:3857","display_badges":["행안부 침수흔적도","과거 기록"]}},{"type":"Feature","id":"FLD:52180:252:5543","geometry":{"type":"MultiPolygon","coordinates":[[[[126.727447,35.584538],[126.727431,35.583623],[126.72743,35.583583],[126.727428,35.583519],[126.727427,35.583477],[126.727407,35.582569],[126.727408,35.582525],[126.727388,35.581573],[126.727754,35.581567],[126.727724,35.581505],[126.7277,35.580563],[126.727697,35.580498],[126.727366,35.580502],[126.727043,35.580507],[126.726258,35.58052],[126.726057,35.580522],[126.725854,35.580523],[126.725838,35.579534],[126.726039,35.579532],[126.726239,35.579529],[126.726238,35.579466],[126.726215,35.578453],[126.726214,35.578403],[126.72583,35.578408],[126.725469,35.578414],[126.725111,35.57842],[126.724263,35.578429],[126.72416,35.578432],[126.724124,35.578428],[126.72407,35.578423],[126.724055,35.577521],[126.724103,35.577521],[126.724246,35.577519],[126.725095,35.577509],[126.725452,35.577505],[126.725813,35.577499],[126.726198,35.577493],[126.726826,35.577485],[126.727302,35.57748],[126.727299,35.577417],[126.727278,35.576469],[126.727277,35.576421],[126.726909,35.576426],[126.726176,35.576434],[126.72581,35.576441],[126.725787,35.575489],[126.725786,35.575426],[126.725577,35.575428],[126.725057,35.575435],[126.724855,35.575438],[126.724467,35.575443],[126.724362,35.575444],[126.724015,35.575449],[126.723996,35.574501],[126.723995,35.574451],[126.724059,35.57445],[126.724802,35.57444],[126.724784,35.573484],[126.724784,35.573422],[126.724559,35.573425],[126.724354,35.573428],[126.724034,35.573432],[126.723972,35.573432],[126.723957,35.572487],[126.724015,35.572486],[126.724336,35.572481],[126.724541,35.572479],[126.724994,35.572475],[126.725732,35.572465],[126.7261,35.572461],[126.7261,35.57246],[126.726488,35.572454],[126.726876,35.572448],[126.727345,35.572442],[126.727705,35.572438],[126.727813,35.572454],[126.72801,35.573286],[126.728024,35.573391],[126.728025,35.573407],[126.728059,35.573485],[126.728268,35.574375],[126.728294,35.574463],[126.728499,35.575383],[126.728499,35.575406],[126.728514,35.575454],[126.728744,35.576372],[126.728769,35.576462],[126.728929,35.577185],[126.728954,35.577393],[126.728958,35.577412],[126.728957,35.577473],[126.729001,35.577654],[126.729094,35.57834],[126.729094,35.578432],[126.729105,35.578461],[126.729246,35.579423],[126.72925,35.579446],[126.729256,35.579519],[126.729401,35.580471],[126.729409,35.580542],[126.729544,35.581478],[126.729539,35.581493],[126.729558,35.581568],[126.729693,35.582493],[126.729704,35.582548],[126.72983,35.583448],[126.729835,35.583482],[126.729832,35.583503],[126.72982,35.583558],[126.729849,35.583581],[126.72985,35.583586],[126.729305,35.583595],[126.729323,35.584511],[126.728552,35.584522],[126.727447,35.584538]]]]},"properties":{"id":"FLD:52180:252:5543","layer":"FLOOD_TRACE","admin_code":"52180","sido_code":"45","flood_year":"2014","occurred_at":"2014-08-18","ended_at":"2014-08-18","begin_time":"0900","end_time":"1900","disaster_name":"2014백운지구","cause_detail":"집중호우","flood_grade":2,"flood_depth_m":0.532,"flood_area_m2":358566.678,"source_sn":252,"data_status":"actual","official_data":true,"is_prediction":false,"source":"행정안전부 침수흔적도 · 재난안전데이터공유플랫폼 DSSP-IF-00117","collected_at":"2026-08-19T16:46:51+09:00","source_crs":"EPSG:3857","display_badges":["행안부 침수흔적도","과거 기록"]}},{"type":"Feature","id":"FLD:52180:250:5607","geometry":{"type":"MultiPolygon","coordinates":[[[[126.734493,35.586976],[126.735093,35.586156],[126.735409,35.586312],[126.734805,35.587129],[126.734493,35.586976]]]]},"properties":{"id":"FLD:52180:250:5607","layer":"FLOOD_TRACE","admin_code":"52180","sido_code":"45","flood_year":"2014","occurred_at":"2014-08-18","ended_at":"2014-08-18","begin_time":"0900","end_time":"1900","disaster_name":"2014백운지구","cause_detail":"집중호우","flood_grade":2,"flood_depth_m":0.511,"flood_area_m2":3593.214,"source_sn":250,"data_status":"actual","official_data":true,"is_prediction":false,"source":"행정안전부 침수흔적도 · 재난안전데이터공유플랫폼 DSSP-IF-00117","collected_at":"2026-08-19T16:46:51+09:00","source_crs":"EPSG:3857","display_badges":["행안부 침수흔적도","과거 기록"]}},{"type":"Feature","id":"FLD:52180:251:5608","geometry":{"type":"MultiPolygon","coordinates":[[[[126.729945,35.583455],[126.729816,35.582541],[126.729808,35.582489],[126.729676,35.581546],[126.729844,35.581536],[126.730458,35.581528],[126.730476,35.582481],[126.730472,35.582528],[126.730622,35.582527],[126.730645,35.583436],[126.730495,35.58344],[126.729945,35.583455]]]]},"properties":{"id":"FLD:52180:251:5608","layer":"FLOOD_TRACE","admin_code":"52180","sido_code":"45","flood_year":"2014","occurred_at":"2014-08-18","ended_at":"2014-08-18","begin_time":"0900","end_time":"1900","disaster_name":"2014백운지구","cause_detail":"집중호우","flood_grade":2,"flood_depth_m":0.775,"flood_area_m2":14181.126,"source_sn":251,"data_status":"actual","official_data":true,"is_prediction":false,"source":"행정안전부 침수흔적도 · 재난안전데이터공유플랫폼 DSSP-IF-00117","collected_at":"2026-08-19T16:46:51+09:00","source_crs":"EPSG:3857","display_badges":["행안부 침수흔적도","과거 기록"]}},{"type":"Feature","id":"FLD:52180:255:5609","geometry":{"type":"MultiPolygon","coordinates":[[[[126.917864,35.646743],[126.918464,35.645992],[126.91876,35.646149],[126.919121,35.646341],[126.919491,35.646541],[126.918885,35.647294],[126.918512,35.647095],[126.918153,35.6469],[126.917864,35.646743]]]]},"properties":{"id":"FLD:52180:255:5609","layer":"FLOOD_TRACE","admin_code":"52180","sido_code":"45","flood_year":"2014","occurred_at":"2014-08-18","ended_at":"2014-08-18","begin_time":"0900","end_time":"1900","disaster_name":"2014화천지구","cause_detail":"집중호우","flood_grade":2,"flood_depth_m":0.717,"flood_area_m2":11093.4,"source_sn":255,"data_status":"actual","official_data":true,"is_prediction":false,"source":"행정안전부 침수흔적도 · 재난안전데이터공유플랫폼 DSSP-IF-00117","collected_at":"2026-08-19T16:46:51+09:00","source_crs":"EPSG:3857","display_badges":["행안부 침수흔적도","과거 기록"]}},{"type":"Feature","id":"FLD:52180:234:6313","geometry":{"type":"MultiPolygon","coordinates":[[[[126.848297,35.593323],[126.848304,35.593305],[126.848368,35.593144],[126.848492,35.592834],[126.849625,35.593139],[126.849666,35.593037],[126.849751,35.592829],[126.84979,35.592739],[126.849864,35.592569],[126.849948,35.592817],[126.849971,35.592969],[126.849886,35.593308],[126.849877,35.593331],[126.849812,35.593492],[126.849796,35.593507],[126.849726,35.593557],[126.849496,35.593636],[126.849412,35.593667],[126.849414,35.59366],[126.848669,35.593436],[126.848475,35.593377],[126.848297,35.593323]]]]},"properties":{"id":"FLD:52180:234:6313","layer":"FLOOD_TRACE","admin_code":"52180","sido_code":"45","flood_year":"2014","occurred_at":"2014-08-18","ended_at":"2014-08-18","begin_time":"1000","end_time":"1800","disaster_name":"2014년국지성집중호우","cause_detail":"집중호우로인한하천범람","flood_grade":3,"flood_depth_m":1.189,"flood_area_m2":9308.102,"source_sn":234,"data_status":"actual","official_data":true,"is_prediction":false,"source":"행정안전부 침수흔적도 · 재난안전데이터공유플랫폼 DSSP-IF-00117","collected_at":"2026-08-19T16:46:51+09:00","source_crs":"EPSG:3857","display_badges":["행안부 침수흔적도","과거 기록"]}}]}