{"type":"FeatureCollection","features":[{"type":"Feature","id":"FLD:41800:96:7544","geometry":{"type":"MultiPolygon","coordinates":[[[[127.076053,38.08607],[127.076022,38.08613],[127.075994,38.086184],[127.076054,38.086212],[127.07608,38.086317],[127.075864,38.086743],[127.075701,38.087084],[127.073648,38.08649],[127.073907,38.086181],[127.074059,38.086036],[127.074205,38.085925],[127.074117,38.085856],[127.074391,38.085592],[127.074376,38.085587],[127.074425,38.085546],[127.076053,38.08607]]]]},"properties":{"id":"FLD:41800:96:7544","layer":"FLOOD_TRACE","admin_code":"41800","sido_code":"41","flood_year":"2018","occurred_at":"2018-08-29","ended_at":"2018-08-30","begin_time":"0800","end_time":"0000","disaster_name":"경기북부 집중호우","cause_detail":"집중호우로 인한 침수","flood_grade":1,"flood_depth_m":0.147,"flood_area_m2":72663.92,"source_sn":96,"data_status":"actual","official_data":true,"is_prediction":false,"source":"행정안전부 침수흔적도 · 재난안전데이터공유플랫폼 DSSP-IF-00117","collected_at":"2026-08-19T16:46:51+09:00","source_crs":"EPSG:3857","display_badges":["행안부 침수흔적도","과거 기록"]}},{"type":"Feature","id":"FLD:41800:100:7545","geometry":{"type":"MultiPolygon","coordinates":[[[[127.076534,38.085268],[127.076461,38.08539],[127.076302,38.085658],[127.076056,38.086063],[127.076053,38.08607],[127.074425,38.085546],[127.074475,38.085503],[127.074427,38.085482],[127.074605,38.08537],[127.075234,38.084947],[127.075235,38.084946],[127.076534,38.085268]]]]},"properties":{"id":"FLD:41800:100:7545","layer":"FLOOD_TRACE","admin_code":"41800","sido_code":"41","flood_year":"2018","occurred_at":"2018-08-29","ended_at":"2018-08-30","begin_time":"0800","end_time":"0000","disaster_name":"경기북부 집중호우","cause_detail":"집중호우로 인한 침수","flood_grade":2,"flood_depth_m":0.83,"flood_area_m2":72663.92,"source_sn":100,"data_status":"actual","official_data":true,"is_prediction":false,"source":"행정안전부 침수흔적도 · 재난안전데이터공유플랫폼 DSSP-IF-00117","collected_at":"2026-08-19T16:46:51+09:00","source_crs":"EPSG:3857","display_badges":["행안부 침수흔적도","과거 기록"]}},{"type":"Feature","id":"FLD:41800:99:7546","geometry":{"type":"MultiPolygon","coordinates":[[[[127.075542,38.087416],[127.075508,38.087486],[127.076416,38.087521],[127.076455,38.08759],[127.076409,38.087761],[127.076365,38.087951],[127.076318,38.088307],[127.07629,38.08842],[127.076223,38.088529],[127.075941,38.088566],[127.07581,38.088587],[127.074865,38.08839],[127.074381,38.087903],[127.074243,38.087763],[127.074215,38.087729],[127.075542,38.087416]]]]},"properties":{"id":"FLD:41800:99:7546","layer":"FLOOD_TRACE","admin_code":"41800","sido_code":"41","flood_year":"2018","occurred_at":"2018-08-29","ended_at":"2018-08-30","begin_time":"0800","end_time":"0000","disaster_name":"경기북부 집중호우","cause_detail":"집중호우로 인한 침수","flood_grade":1,"flood_depth_m":0.172,"flood_area_m2":72663.92,"source_sn":99,"data_status":"actual","official_data":true,"is_prediction":false,"source":"행정안전부 침수흔적도 · 재난안전데이터공유플랫폼 DSSP-IF-00117","collected_at":"2026-08-19T16:46:51+09:00","source_crs":"EPSG:3857","display_badges":["행안부 침수흔적도","과거 기록"]}},{"type":"Feature","id":"FLD:41800:97:7547","geometry":{"type":"MultiPolygon","coordinates":[[[[127.075235,38.084946],[127.075527,38.084673],[127.075748,38.084519],[127.076069,38.084561],[127.076834,38.084775],[127.076774,38.084872],[127.076607,38.085147],[127.076534,38.085268],[127.075235,38.084946]]]]},"properties":{"id":"FLD:41800:97:7547","layer":"FLOOD_TRACE","admin_code":"41800","sido_code":"41","flood_year":"2018","occurred_at":"2018-08-29","ended_at":"2018-08-30","begin_time":"0800","end_time":"0000","disaster_name":"경기북부 집중호우","cause_detail":"집중호우로 인한 침수","flood_grade":1,"flood_depth_m":0.449,"flood_area_m2":72663.92,"source_sn":97,"data_status":"actual","official_data":true,"is_prediction":false,"source":"행정안전부 침수흔적도 · 재난안전데이터공유플랫폼 DSSP-IF-00117","collected_at":"2026-08-19T16:46:51+09:00","source_crs":"EPSG:3857","display_badges":["행안부 침수흔적도","과거 기록"]}},{"type":"Feature","id":"FLD:41800:98:7548","geometry":{"type":"MultiPolygon","coordinates":[[[[127.075701,38.087084],[127.075542,38.087416],[127.074215,38.087729],[127.074123,38.087618],[127.074078,38.087542],[127.073548,38.086973],[127.073512,38.086653],[127.073648,38.08649],[127.075701,38.087084]]]]},"properties":{"id":"FLD:41800:98:7548","layer":"FLOOD_TRACE","admin_code":"41800","sido_code":"41","flood_year":"2018","occurred_at":"2018-08-29","ended_at":"2018-08-30","begin_time":"0800","end_time":"0000","disaster_name":"경기북부 집중호우","cause_detail":"집중호우로 인한 침수","flood_grade":1,"flood_depth_m":0.2,"flood_area_m2":72663.92,"source_sn":98,"data_status":"actual","official_data":true,"is_prediction":false,"source":"행정안전부 침수흔적도 · 재난안전데이터공유플랫폼 DSSP-IF-00117","collected_at":"2026-08-19T16:46:51+09:00","source_crs":"EPSG:3857","display_badges":["행안부 침수흔적도","과거 기록"]}},{"type":"Feature","id":"FLD:41800:105:7549","geometry":{"type":"MultiPolygon","coordinates":[[[[126.889966,37.992048],[126.88986,37.992062],[126.889797,37.992093],[126.889728,37.992055],[126.88967,37.992071],[126.889567,37.992079],[126.889496,37.992072],[126.889387,37.992062],[126.889264,37.992005],[126.889349,37.991906],[126.889928,37.991852],[126.890054,37.991833],[126.890185,37.992096],[126.890169,37.992106],[126.890114,37.992112],[126.89002,37.992048],[126.889966,37.992048]]]]},"properties":{"id":"FLD:41800:105:7549","layer":"FLOOD_TRACE","admin_code":"41800","sido_code":"41","flood_year":"2018","occurred_at":"2018-08-29","ended_at":"2018-08-29","begin_time":"0900","end_time":"1800","disaster_name":"경기북부 집중호우","cause_detail":"집중호우로인한 침수","flood_grade":1,"flood_depth_m":0.16,"flood_area_m2":35805.005,"source_sn":105,"data_status":"actual","official_data":true,"is_prediction":false,"source":"행정안전부 침수흔적도 · 재난안전데이터공유플랫폼 DSSP-IF-00117","collected_at":"2026-08-19T16:46:51+09:00","source_crs":"EPSG:3857","display_badges":["행안부 침수흔적도","과거 기록"]}},{"type":"Feature","id":"FLD:41800:107:7550","geometry":{"type":"MultiPolygon","coordinates":[[[[126.886426,37.991118],[126.886369,37.99111],[126.886362,37.991077],[126.886323,37.990993],[126.886501,37.990965],[126.887007,37.990876],[126.887327,37.990819],[126.887383,37.990765],[126.887412,37.990786],[126.887594,37.990785],[126.887663,37.990834],[126.887729,37.99102],[126.886426,37.991118]]]]},"properties":{"id":"FLD:41800:107:7550","layer":"FLOOD_TRACE","admin_code":"41800","sido_code":"41","flood_year":"2018","occurred_at":"2018-08-29","ended_at":"2018-08-29","begin_time":"0900","end_time":"1800","disaster_name":"경기북부 집중호우","cause_detail":"집중호우로인한 침수","flood_grade":1,"flood_depth_m":0.4103,"flood_area_m2":35805.005,"source_sn":107,"data_status":"actual","official_data":true,"is_prediction":false,"source":"행정안전부 침수흔적도 · 재난안전데이터공유플랫폼 DSSP-IF-00117","collected_at":"2026-08-19T16:46:51+09:00","source_crs":"EPSG:3857","display_badges":["행안부 침수흔적도","과거 기록"]}},{"type":"Feature","id":"FLD:41800:106:7551","geometry":{"type":"MultiPolygon","coordinates":[[[[126.886724,37.989903],[126.886663,37.9898],[126.886487,37.989615],[126.886493,37.989561],[126.886357,37.989255],[126.886261,37.989125],[126.886529,37.988707],[126.886746,37.988896],[126.886822,37.989028],[126.886808,37.989293],[126.88691,37.989428],[126.887236,37.989695],[126.887373,37.989801],[126.886724,37.989903]]]]},"properties":{"id":"FLD:41800:106:7551","layer":"FLOOD_TRACE","admin_code":"41800","sido_code":"41","flood_year":"2018","occurred_at":"2018-08-29","ended_at":"2018-08-29","begin_time":"0900","end_time":"1800","disaster_name":"경기북부 집중호우","cause_detail":"집중호우로인한 침수","flood_grade":1,"flood_depth_m":0.184,"flood_area_m2":35805.005,"source_sn":106,"data_status":"actual","official_data":true,"is_prediction":false,"source":"행정안전부 침수흔적도 · 재난안전데이터공유플랫폼 DSSP-IF-00117","collected_at":"2026-08-19T16:46:51+09:00","source_crs":"EPSG:3857","display_badges":["행안부 침수흔적도","과거 기록"]}},{"type":"Feature","id":"FLD:41800:101:7552","geometry":{"type":"MultiPolygon","coordinates":[[[[126.887115,37.990424],[126.887148,37.990408],[126.88691,37.99019],[126.886882,37.990159],[126.886688,37.989963],[126.886724,37.989903],[126.887373,37.989801],[126.887387,37.989912],[126.887574,37.990042],[126.887774,37.990147],[126.888067,37.990387],[126.887115,37.990424]]]]},"properties":{"id":"FLD:41800:101:7552","layer":"FLOOD_TRACE","admin_code":"41800","sido_code":"41","flood_year":"2018","occurred_at":"2018-08-29","ended_at":"2018-08-29","begin_time":"0900","end_time":"1800","disaster_name":"경기북부 집중호우","cause_detail":"집중호우로인한 침수","flood_grade":1,"flood_depth_m":0.2834,"flood_area_m2":35805.005,"source_sn":101,"data_status":"actual","official_data":true,"is_prediction":false,"source":"행정안전부 침수흔적도 · 재난안전데이터공유플랫폼 DSSP-IF-00117","collected_at":"2026-08-19T16:46:51+09:00","source_crs":"EPSG:3857","display_badges":["행안부 침수흔적도","과거 기록"]}},{"type":"Feature","id":"FLD:41800:103:7553","geometry":{"type":"MultiPolygon","coordinates":[[[[126.886501,37.990965],[126.886323,37.990993],[126.886369,37.990857],[126.886631,37.990662],[126.887115,37.990424],[126.887267,37.990419],[126.88734,37.990632],[126.887383,37.990765],[126.887327,37.990819],[126.886501,37.990965]]]]},"properties":{"id":"FLD:41800:103:7553","layer":"FLOOD_TRACE","admin_code":"41800","sido_code":"41","flood_year":"2018","occurred_at":"2018-08-29","ended_at":"2018-08-29","begin_time":"0900","end_time":"1800","disaster_name":"경기북부 집중호우","cause_detail":"집중호우로인한 침수","flood_grade":1,"flood_depth_m":0.3122,"flood_area_m2":35805.005,"source_sn":103,"data_status":"actual","official_data":true,"is_prediction":false,"source":"행정안전부 침수흔적도 · 재난안전데이터공유플랫폼 DSSP-IF-00117","collected_at":"2026-08-19T16:46:51+09:00","source_crs":"EPSG:3857","display_badges":["행안부 침수흔적도","과거 기록"]}},{"type":"Feature","id":"FLD:41800:104:7554","geometry":{"type":"MultiPolygon","coordinates":[[[[126.888447,37.991638],[126.88828,37.991458],[126.888025,37.991136],[126.887897,37.990984],[126.888481,37.990857],[126.888515,37.990949],[126.888744,37.991339],[126.888866,37.991407],[126.88915,37.991389],[126.889361,37.991338],[126.889804,37.991332],[126.890054,37.991833],[126.889928,37.991852],[126.889349,37.991906],[126.889069,37.991797],[126.888694,37.991753],[126.888493,37.991666],[126.888447,37.991638]]]]},"properties":{"id":"FLD:41800:104:7554","layer":"FLOOD_TRACE","admin_code":"41800","sido_code":"41","flood_year":"2018","occurred_at":"2018-08-29","ended_at":"2018-08-29","begin_time":"0900","end_time":"1800","disaster_name":"경기북부 집중호우","cause_detail":"집중호우로인한 침수","flood_grade":2,"flood_depth_m":0.7324,"flood_area_m2":35805.005,"source_sn":104,"data_status":"actual","official_data":true,"is_prediction":false,"source":"행정안전부 침수흔적도 · 재난안전데이터공유플랫폼 DSSP-IF-00117","collected_at":"2026-08-19T16:46:51+09:00","source_crs":"EPSG:3857","display_badges":["행안부 침수흔적도","과거 기록"]}},{"type":"Feature","id":"FLD:41800:108:7555","geometry":{"type":"MultiPolygon","coordinates":[[[[126.887729,37.99102],[126.887663,37.990834],[126.887594,37.990785],[126.887412,37.990786],[126.887383,37.990765],[126.88734,37.990632],[126.887267,37.990419],[126.888067,37.990387],[126.888068,37.990388],[126.888213,37.990375],[126.888295,37.990691],[126.888374,37.990762],[126.888481,37.990857],[126.887729,37.99102]]]]},"properties":{"id":"FLD:41800:108:7555","layer":"FLOOD_TRACE","admin_code":"41800","sido_code":"41","flood_year":"2018","occurred_at":"2018-08-29","ended_at":"2018-08-29","begin_time":"0900","end_time":"1800","disaster_name":"경기북부 집중호우","cause_detail":"집중호우로인한 침수","flood_grade":1,"flood_depth_m":0.473,"flood_area_m2":35805.005,"source_sn":108,"data_status":"actual","official_data":true,"is_prediction":false,"source":"행정안전부 침수흔적도 · 재난안전데이터공유플랫폼 DSSP-IF-00117","collected_at":"2026-08-19T16:46:51+09:00","source_crs":"EPSG:3857","display_badges":["행안부 침수흔적도","과거 기록"]}},{"type":"Feature","id":"FLD:41800:102:7556","geometry":{"type":"MultiPolygon","coordinates":[[[[126.888738,37.992054],[126.888653,37.992115],[126.888545,37.992151],[126.888473,37.99221],[126.888377,37.992043],[126.888119,37.991866],[126.888321,37.991643],[126.887985,37.99125],[126.887867,37.991175],[126.887729,37.99102],[126.887897,37.990984],[126.88828,37.991457],[126.888447,37.991638],[126.888493,37.991666],[126.888694,37.991753],[126.889016,37.991791],[126.889069,37.991797],[126.889349,37.991906],[126.889264,37.992005],[126.889176,37.99202],[126.888961,37.992054],[126.888738,37.992054]]]]},"properties":{"id":"FLD:41800:102:7556","layer":"FLOOD_TRACE","admin_code":"41800","sido_code":"41","flood_year":"2018","occurred_at":"2018-08-29","ended_at":"2018-08-29","begin_time":"0900","end_time":"1800","disaster_name":"경기북부 집중호우","cause_detail":"집중호우로인한 침수","flood_grade":1,"flood_depth_m":0.16,"flood_area_m2":35805.005,"source_sn":102,"data_status":"actual","official_data":true,"is_prediction":false,"source":"행정안전부 침수흔적도 · 재난안전데이터공유플랫폼 DSSP-IF-00117","collected_at":"2026-08-19T16:46:51+09:00","source_crs":"EPSG:3857","display_badges":["행안부 침수흔적도","과거 기록"]}},{"type":"Feature","id":"FLD:41800:1455:12390","geometry":{"type":"MultiPolygon","coordinates":[[[[127.081485,38.136543],[127.081455,38.136539],[127.081377,38.136499],[127.081405,38.136429],[127.081187,38.136406],[127.081193,38.136387],[127.08121,38.136338],[127.081213,38.136324],[127.080487,38.136158],[127.08042,38.136065],[127.080309,38.135897],[127.080158,38.135647],[127.080195,38.135638],[127.080235,38.135623],[127.080268,38.135593],[127.08029,38.135579],[127.080367,38.13558],[127.080375,38.135542],[127.080376,38.13554],[127.080485,38.135443],[127.080552,38.1354],[127.080585,38.135379],[127.080922,38.135702],[127.081739,38.136385],[127.081851,38.136508],[127.081847,38.136539],[127.081924,38.136705],[127.082011,38.136815],[127.082041,38.13685],[127.081972,38.136875],[127.081797,38.136981],[127.081664,38.136832],[127.081843,38.136688],[127.081762,38.136622],[127.081485,38.136543]]]]},"properties":{"id":"FLD:41800:1455:12390","layer":"FLOOD_TRACE","admin_code":"41800","sido_code":"41","flood_year":"2020","occurred_at":"2020-08-02","ended_at":"2020-08-03","begin_time":"1000","end_time":"0200","disaster_name":"2020년 7월 28일 ~ 8월 11일 집중호우에 의한 침수피","cause_detail":"내수침수","flood_grade":1,"flood_depth_m":0.126,"flood_area_m2":8030.1,"source_sn":1455,"data_status":"actual","official_data":true,"is_prediction":false,"source":"행정안전부 침수흔적도 · 재난안전데이터공유플랫폼 DSSP-IF-00117","collected_at":"2026-08-19T16:46:51+09:00","source_crs":"EPSG:3857","display_badges":["행안부 침수흔적도","과거 기록"]}},{"type":"Feature","id":"FLD:41800:1449:12391","geometry":{"type":"MultiPolygon","coordinates":[[[[127.074977,38.093873],[127.074706,38.09329],[127.074496,38.093035],[127.073914,38.092443],[127.073528,38.092803],[127.073372,38.091923],[127.073493,38.091913],[127.073169,38.091575],[127.072302,38.090089],[127.073709,38.090096],[127.074021,38.091007],[127.074125,38.09132],[127.074218,38.091594],[127.074293,38.09182],[127.074619,38.092748],[127.074712,38.093006],[127.074851,38.093344],[127.074896,38.09344],[127.074969,38.093555],[127.075003,38.093613],[127.075071,38.093756],[127.075188,38.094],[127.075196,38.094011],[127.075347,38.094209],[127.07541,38.094478],[127.0753,38.094561],[127.074977,38.093873]]]]},"properties":{"id":"FLD:41800:1449:12391","layer":"FLOOD_TRACE","admin_code":"41800","sido_code":"41","flood_year":"2020","occurred_at":"2020-08-03","ended_at":"2020-08-03","begin_time":"0000","end_time":"0400","disaster_name":"2020년 7월 28일 ~ 8월 11일 집중호우에 의한 침수피","cause_detail":"내수침수","flood_grade":2,"flood_depth_m":0.52,"flood_area_m2":111183.5,"source_sn":1449,"data_status":"actual","official_data":true,"is_prediction":false,"source":"행정안전부 침수흔적도 · 재난안전데이터공유플랫폼 DSSP-IF-00117","collected_at":"2026-08-19T16:46:51+09:00","source_crs":"EPSG:3857","display_badges":["행안부 침수흔적도","과거 기록"]}},{"type":"Feature","id":"FLD:41800:1447:12392","geometry":{"type":"MultiPolygon","coordinates":[[[[127.077255,38.098952],[127.077357,38.098929],[127.077538,38.099408],[127.077436,38.099432],[127.077255,38.098952]]]]},"properties":{"id":"FLD:41800:1447:12392","layer":"FLOOD_TRACE","admin_code":"41800","sido_code":"41","flood_year":"2020","occurred_at":"2020-08-03","ended_at":"2020-08-03","begin_time":"0100","end_time":"0400","disaster_name":"2020년 7월 28일 ~ 8월 11일 집중호우에 의한 침수피","cause_detail":"내수침수","flood_grade":5,"flood_depth_m":2.089,"flood_area_m2":11461.7,"source_sn":1447,"data_status":"actual","official_data":true,"is_prediction":false,"source":"행정안전부 침수흔적도 · 재난안전데이터공유플랫폼 DSSP-IF-00117","collected_at":"2026-08-19T16:46:51+09:00","source_crs":"EPSG:3857","display_badges":["행안부 침수흔적도","과거 기록"]}},{"type":"Feature","id":"FLD:41800:1453:12393","geometry":{"type":"MultiPolygon","coordinates":[[[[127.071853,38.089222],[127.072566,38.088677],[127.0733,38.089001],[127.0734,38.089191],[127.073709,38.090096],[127.072302,38.090089],[127.071976,38.08953],[127.071853,38.089222]]]]},"properties":{"id":"FLD:41800:1453:12393","layer":"FLOOD_TRACE","admin_code":"41800","sido_code":"41","flood_year":"2020","occurred_at":"2020-08-03","ended_at":"2020-08-03","begin_time":"0000","end_time":"0400","disaster_name":"2020년 7월 28일 ~ 8월 11일 집중호우에 의한 침수피","cause_detail":"내수침수","flood_grade":6,"flood_depth_m":5.225,"flood_area_m2":111183.5,"source_sn":1453,"data_status":"actual","official_data":true,"is_prediction":false,"source":"행정안전부 침수흔적도 · 재난안전데이터공유플랫폼 DSSP-IF-00117","collected_at":"2026-08-19T16:46:51+09:00","source_crs":"EPSG:3857","display_badges":["행안부 침수흔적도","과거 기록"]}},{"type":"Feature","id":"FLD:41800:1451:12394","geometry":{"type":"MultiPolygon","coordinates":[[[[127.071853,38.089222],[127.071976,38.08953],[127.072302,38.090089],[127.073169,38.091575],[127.073493,38.091913],[127.073372,38.091923],[127.073528,38.092803],[127.073737,38.093982],[127.073568,38.094013],[127.073391,38.092857],[127.073327,38.092437],[127.073149,38.091741],[127.073014,38.091451],[127.07293,38.091314],[127.071835,38.089544],[127.071763,38.089331],[127.071853,38.089222]]]]},"properties":{"id":"FLD:41800:1451:12394","layer":"FLOOD_TRACE","admin_code":"41800","sido_code":"41","flood_year":"2020","occurred_at":"2020-08-03","ended_at":"2020-08-03","begin_time":"0000","end_time":"0400","disaster_name":"2020년 7월 28일 ~ 8월 11일 집중호우에 의한 침수피","cause_detail":"내수침수","flood_grade":2,"flood_depth_m":0.905,"flood_area_m2":111183.5,"source_sn":1451,"data_status":"actual","official_data":true,"is_prediction":false,"source":"행정안전부 침수흔적도 · 재난안전데이터공유플랫폼 DSSP-IF-00117","collected_at":"2026-08-19T16:46:51+09:00","source_crs":"EPSG:3857","display_badges":["행안부 침수흔적도","과거 기록"]}},{"type":"Feature","id":"FLD:41800:1448:12395","geometry":{"type":"MultiPolygon","coordinates":[[[[127.077628,38.099434],[127.077129,38.09945],[127.077022,38.09887],[127.077521,38.098804],[127.077527,38.098836],[127.07759,38.099195],[127.077622,38.099393],[127.077628,38.099434]],[[127.077255,38.098952],[127.077436,38.099432],[127.077538,38.099408],[127.077357,38.098929],[127.077255,38.098952]]]]},"properties":{"id":"FLD:41800:1448:12395","layer":"FLOOD_TRACE","admin_code":"41800","sido_code":"41","flood_year":"2020","occurred_at":"2020-08-03","ended_at":"2020-08-03","begin_time":"0100","end_time":"0400","disaster_name":"2020년 7월 28일 ~ 8월 11일 집중호우에 의한 침수피","cause_detail":"내수침수","flood_grade":2,"flood_depth_m":0.567,"flood_area_m2":11461.7,"source_sn":1448,"data_status":"actual","official_data":true,"is_prediction":false,"source":"행정안전부 침수흔적도 · 재난안전데이터공유플랫폼 DSSP-IF-00117","collected_at":"2026-08-19T16:46:51+09:00","source_crs":"EPSG:3857","display_badges":["행안부 침수흔적도","과거 기록"]}},{"type":"Feature","id":"FLD:41800:1452:12396","geometry":{"type":"MultiPolygon","coordinates":[[[[127.073737,38.093982],[127.073528,38.092803],[127.073914,38.092443],[127.074496,38.093035],[127.074706,38.09329],[127.074977,38.093873],[127.074747,38.093899],[127.074624,38.093932],[127.074586,38.093988],[127.074383,38.094011],[127.074301,38.094038],[127.074229,38.094042],[127.074215,38.093972],[127.074189,38.093954],[127.074164,38.093953],[127.074153,38.093955],[127.074046,38.093963],[127.073744,38.093981],[127.073737,38.093982]]]]},"properties":{"id":"FLD:41800:1452:12396","layer":"FLOOD_TRACE","admin_code":"41800","sido_code":"41","flood_year":"2020","occurred_at":"2020-08-03","ended_at":"2020-08-03","begin_time":"0000","end_time":"0400","disaster_name":"2020년 7월 28일 ~ 8월 11일 집중호우에 의한 침수피","cause_detail":"내수침수","flood_grade":3,"flood_depth_m":1.14,"flood_area_m2":111183.5,"source_sn":1452,"data_status":"actual","official_data":true,"is_prediction":false,"source":"행정안전부 침수흔적도 · 재난안전데이터공유플랫폼 DSSP-IF-00117","collected_at":"2026-08-19T16:46:51+09:00","source_crs":"EPSG:3857","display_badges":["행안부 침수흔적도","과거 기록"]}},{"type":"Feature","id":"FLD:41800:1454:12397","geometry":{"type":"MultiPolygon","coordinates":[[[[127.07293,38.091314],[127.072583,38.09149],[127.072461,38.091533],[127.072469,38.091595],[127.071978,38.091681],[127.071869,38.091088],[127.071722,38.090425],[127.071622,38.089569],[127.071763,38.089331],[127.071835,38.089544],[127.07293,38.091314]]]]},"properties":{"id":"FLD:41800:1454:12397","layer":"FLOOD_TRACE","admin_code":"41800","sido_code":"41","flood_year":"2020","occurred_at":"2020-08-03","ended_at":"2020-08-03","begin_time":"0000","end_time":"0400","disaster_name":"2020년 7월 28일 ~ 8월 11일 집중호우에 의한 침수피","cause_detail":"내수침수","flood_grade":2,"flood_depth_m":1.696,"flood_area_m2":111183.5,"source_sn":1454,"data_status":"actual","official_data":true,"is_prediction":false,"source":"행정안전부 침수흔적도 · 재난안전데이터공유플랫폼 DSSP-IF-00117","collected_at":"2026-08-19T16:46:51+09:00","source_crs":"EPSG:3857","display_badges":["행안부 침수흔적도","과거 기록"]}},{"type":"Feature","id":"FLD:41800:1446:12398","geometry":{"type":"MultiPolygon","coordinates":[[[[127.071978,38.091681],[127.072469,38.091595],[127.072461,38.091533],[127.072583,38.09149],[127.07293,38.091314],[127.073014,38.091451],[127.073149,38.091741],[127.073327,38.092437],[127.073391,38.092857],[127.073568,38.094013],[127.0735,38.094025],[127.073046,38.094061],[127.072957,38.094052],[127.072412,38.094087],[127.072305,38.093471],[127.071978,38.091681]]]]},"properties":{"id":"FLD:41800:1446:12398","layer":"FLOOD_TRACE","admin_code":"41800","sido_code":"41","flood_year":"2020","occurred_at":"2020-08-03","ended_at":"2020-08-03","begin_time":"0000","end_time":"0400","disaster_name":"2020년 7월 28일 ~ 8월 11일 집중호우에 의한 침수피","cause_detail":"내수침수","flood_grade":3,"flood_depth_m":1.169,"flood_area_m2":111183.5,"source_sn":1446,"data_status":"actual","official_data":true,"is_prediction":false,"source":"행정안전부 침수흔적도 · 재난안전데이터공유플랫폼 DSSP-IF-00117","collected_at":"2026-08-19T16:46:51+09:00","source_crs":"EPSG:3857","display_badges":["행안부 침수흔적도","과거 기록"]}},{"type":"Feature","id":"FLD:41800:1450:12425","geometry":{"type":"MultiPolygon","coordinates":[[[[127.077022,38.09887],[127.077129,38.09945],[127.077628,38.099434],[127.07766,38.099626],[127.07769,38.099793],[127.077708,38.099888],[127.077677,38.099891],[127.077655,38.099893],[127.077605,38.099898],[127.077587,38.0999],[127.077492,38.099908],[127.077216,38.099934],[127.077009,38.099954],[127.076893,38.099966],[127.076795,38.099978],[127.076706,38.1],[127.076689,38.099968],[127.076664,38.09997],[127.076639,38.099896],[127.076693,38.099891],[127.076275,38.09801],[127.07635,38.098003],[127.07655,38.098933],[127.077022,38.09887]]]]},"properties":{"id":"FLD:41800:1450:12425","layer":"FLOOD_TRACE","admin_code":"41800","sido_code":"41","flood_year":"2020","occurred_at":"2020-08-03","ended_at":"2020-08-03","begin_time":"0100","end_time":"0400","disaster_name":"2020년 7월 28일 ~ 8월 11일 집중호우에 의한 침수피","cause_detail":"내수침수","flood_grade":1,"flood_depth_m":0.182,"flood_area_m2":11461.7,"source_sn":1450,"data_status":"actual","official_data":true,"is_prediction":false,"source":"행정안전부 침수흔적도 · 재난안전데이터공유플랫폼 DSSP-IF-00117","collected_at":"2026-08-19T16:46:51+09:00","source_crs":"EPSG:3857","display_badges":["행안부 침수흔적도","과거 기록"]}},{"type":"Feature","id":"FLD:41800:1457:12426","geometry":{"type":"MultiPolygon","coordinates":[[[[127.004267,38.042295],[127.004277,38.042354],[127.00428,38.042369],[127.004271,38.042485],[127.004275,38.042503],[127.004304,38.042666],[127.004165,38.042692],[127.00391,38.042668],[127.003337,38.042634],[127.003206,38.042539],[127.002695,38.042433],[127.002868,38.042068],[127.00293,38.041597],[127.003036,38.041532],[127.003127,38.041478],[127.003138,38.041487],[127.003406,38.041709],[127.003687,38.041931],[127.003888,38.042061],[127.004183,38.042253],[127.004267,38.042295]]]]},"properties":{"id":"FLD:41800:1457:12426","layer":"FLOOD_TRACE","admin_code":"41800","sido_code":"41","flood_year":"2020","occurred_at":"2020-08-04","ended_at":"2020-08-05","begin_time":"0800","end_time":"0000","disaster_name":"2020년 7월 28일 ~ 8월 11일 집중호우에 의한 침수피","cause_detail":"하천범람 및 내수침수","flood_grade":5,"flood_depth_m":2.044,"flood_area_m2":47642,"source_sn":1457,"data_status":"actual","official_data":true,"is_prediction":false,"source":"행정안전부 침수흔적도 · 재난안전데이터공유플랫폼 DSSP-IF-00117","collected_at":"2026-08-19T16:46:51+09:00","source_crs":"EPSG:3857","display_badges":["행안부 침수흔적도","과거 기록"]}},{"type":"Feature","id":"FLD:41800:1460:12427","geometry":{"type":"MultiPolygon","coordinates":[[[[127.013962,38.057582],[127.014091,38.057414],[127.014291,38.057242],[127.014456,38.057116],[127.015401,38.055645],[127.015487,38.05568],[127.015745,38.055784],[127.015647,38.055963],[127.015528,38.056086],[127.015374,38.056361],[127.015274,38.056606],[127.015174,38.0568],[127.015022,38.057089],[127.014951,38.057163],[127.014955,38.057184],[127.014852,38.057267],[127.014708,38.057344],[127.014508,38.057408],[127.014294,38.05751],[127.014008,38.057592],[127.013973,38.057585],[127.013962,38.057582]]]]},"properties":{"id":"FLD:41800:1460:12427","layer":"FLOOD_TRACE","admin_code":"41800","sido_code":"41","flood_year":"2020","occurred_at":"2020-08-04","ended_at":"2020-08-05","begin_time":"0800","end_time":"0000","disaster_name":"2020.07.28.~08.11.집중호우","cause_detail":"하천범람 및 내수침수","flood_grade":6,"flood_depth_m":5.89,"flood_area_m2":17875.4,"source_sn":1460,"data_status":"actual","official_data":true,"is_prediction":false,"source":"행정안전부 침수흔적도 · 재난안전데이터공유플랫폼 DSSP-IF-00117","collected_at":"2026-08-19T16:46:51+09:00","source_crs":"EPSG:3857","display_badges":["행안부 침수흔적도","과거 기록"]}},{"type":"Feature","id":"FLD:41800:1459:12428","geometry":{"type":"MultiPolygon","coordinates":[[[[127.014221,38.056899],[127.014105,38.057142],[127.01399,38.057371],[127.014091,38.057414],[127.013962,38.057582],[127.013808,38.057533],[127.013714,38.057476],[127.013622,38.057422],[127.013632,38.057322],[127.013799,38.057301],[127.013821,38.057171],[127.013856,38.057097],[127.013861,38.057015],[127.013988,38.056792],[127.014221,38.056899]]]]},"properties":{"id":"FLD:41800:1459:12428","layer":"FLOOD_TRACE","admin_code":"41800","sido_code":"41","flood_year":"2020","occurred_at":"2020-08-04","ended_at":"2020-08-05","begin_time":"0800","end_time":"0000","disaster_name":"2020.07.28.~08.11.집중호우","cause_detail":"하천범람 및 내수침수","flood_grade":3,"flood_depth_m":1.411,"flood_area_m2":17875.4,"source_sn":1459,"data_status":"actual","official_data":true,"is_prediction":false,"source":"행정안전부 침수흔적도 · 재난안전데이터공유플랫폼 DSSP-IF-00117","collected_at":"2026-08-19T16:46:51+09:00","source_crs":"EPSG:3857","display_badges":["행안부 침수흔적도","과거 기록"]}},{"type":"Feature","id":"FLD:41800:1461:12429","geometry":{"type":"MultiPolygon","coordinates":[[[[127.004874,38.042535],[127.004882,38.042597],[127.005456,38.042894],[127.005878,38.043125],[127.005856,38.04316],[127.005821,38.043184],[127.005816,38.043188],[127.005499,38.043278],[127.005161,38.043352],[127.005047,38.043352],[127.003352,38.042817],[127.003125,38.042709],[127.003081,38.042659],[127.001776,38.042488],[127.001773,38.042376],[127.001276,38.042214],[127.001636,38.042072],[127.001345,38.041695],[127.001307,38.041704],[127.00094,38.041794],[127.000794,38.041745],[127.000826,38.041704],[127.001012,38.041567],[127.001201,38.04144],[127.001473,38.041257],[127.001593,38.041177],[127.001725,38.041088],[127.002283,38.040727],[127.002497,38.040757],[127.003297,38.041538],[127.003924,38.042013],[127.004276,38.042221],[127.004874,38.042535]],[[127.004267,38.042295],[127.004183,38.042253],[127.003888,38.042061],[127.003687,38.041931],[127.003406,38.041709],[127.003138,38.041487],[127.003127,38.041478],[127.003036,38.041532],[127.00293,38.041597],[127.002868,38.042068],[127.002695,38.042433],[127.003206,38.042539],[127.003337,38.042634],[127.00391,38.042668],[127.004165,38.042692],[127.004304,38.042666],[127.004275,38.042503],[127.004271,38.042485],[127.00428,38.042369],[127.004277,38.042354],[127.004267,38.042295]]]]},"properties":{"id":"FLD:41800:1461:12429","layer":"FLOOD_TRACE","admin_code":"41800","sido_code":"41","flood_year":"2020","occurred_at":"2020-08-04","ended_at":"2020-08-05","begin_time":"0800","end_time":"0000","disaster_name":"2020년 7월 28일 ~ 8월 11일 집중호우에 의한 침수피","cause_detail":"하천범람 및 내수침수","flood_grade":2,"flood_depth_m":1.789,"flood_area_m2":47642,"source_sn":1461,"data_status":"actual","official_data":true,"is_prediction":false,"source":"행정안전부 침수흔적도 · 재난안전데이터공유플랫폼 DSSP-IF-00117","collected_at":"2026-08-19T16:46:51+09:00","source_crs":"EPSG:3857","display_badges":["행안부 침수흔적도","과거 기록"]}},{"type":"Feature","id":"FLD:41800:1458:12430","geometry":{"type":"MultiPolygon","coordinates":[[[[127.015401,38.055645],[127.014456,38.057116],[127.014291,38.057242],[127.014091,38.057414],[127.01399,38.057371],[127.014105,38.057142],[127.014221,38.056899],[127.014344,38.056687],[127.014449,38.056506],[127.014517,38.056389],[127.014619,38.056252],[127.014665,38.056191],[127.01482,38.055965],[127.015048,38.055504],[127.015101,38.055525],[127.015401,38.055645]]]]},"properties":{"id":"FLD:41800:1458:12430","layer":"FLOOD_TRACE","admin_code":"41800","sido_code":"41","flood_year":"2020","occurred_at":"2020-08-04","ended_at":"2020-08-05","begin_time":"0800","end_time":"0000","disaster_name":"2020.07.28.~08.11.집중호우","cause_detail":"하천범람 및 내수침수","flood_grade":5,"flood_depth_m":2.71,"flood_area_m2":17875.4,"source_sn":1458,"data_status":"actual","official_data":true,"is_prediction":false,"source":"행정안전부 침수흔적도 · 재난안전데이터공유플랫폼 DSSP-IF-00117","collected_at":"2026-08-19T16:46:51+09:00","source_crs":"EPSG:3857","display_badges":["행안부 침수흔적도","과거 기록"]}},{"type":"Feature","id":"FLD:41800:1456:12431","geometry":{"type":"MultiPolygon","coordinates":[[[[127.013988,38.056792],[127.013861,38.057015],[127.013856,38.057097],[127.013821,38.057171],[127.013799,38.057301],[127.013632,38.057322],[127.013635,38.057288],[127.013642,38.057234],[127.013593,38.05715],[127.01361,38.057089],[127.013666,38.056917],[127.013818,38.056911],[127.013988,38.056792]]]]},"properties":{"id":"FLD:41800:1456:12431","layer":"FLOOD_TRACE","admin_code":"41800","sido_code":"41","flood_year":"2020","occurred_at":"2020-08-04","ended_at":"2020-08-05","begin_time":"0800","end_time":"0000","disaster_name":"2020.07.28.~08.11.집중호우","cause_detail":"하천범람 및 내수침수","flood_grade":1,"flood_depth_m":0.238,"flood_area_m2":17875.4,"source_sn":1456,"data_status":"actual","official_data":true,"is_prediction":false,"source":"행정안전부 침수흔적도 · 재난안전데이터공유플랫폼 DSSP-IF-00117","collected_at":"2026-08-19T16:46:51+09:00","source_crs":"EPSG:3857","display_badges":["행안부 침수흔적도","과거 기록"]}}]}