{"type":"FeatureCollection","features":[{"type":"Feature","id":"FLD:44770:219:942","geometry":{"type":"MultiPolygon","coordinates":[[[[126.692522,36.01334],[126.692518,36.013369],[126.69251,36.013422],[126.692383,36.013412],[126.692391,36.013334],[126.692402,36.013221],[126.692403,36.013204],[126.692408,36.013144],[126.692543,36.013162],[126.692547,36.013117],[126.69255,36.013087],[126.692553,36.013007],[126.692554,36.012986],[126.692605,36.012982],[126.692701,36.012974],[126.692703,36.012998],[126.692744,36.012995],[126.692743,36.012972],[126.692893,36.012962],[126.692898,36.013019],[126.692902,36.01308],[126.692786,36.013082],[126.69275,36.013083],[126.692745,36.013083],[126.692711,36.013084],[126.692716,36.013138],[126.692721,36.013244],[126.692619,36.013237],[126.692602,36.013235],[126.692536,36.013231],[126.692522,36.01334]]]]},"properties":{"id":"FLD:44770:219:942","layer":"FLOOD_TRACE","admin_code":"44770","sido_code":"44","flood_year":"2012","occurred_at":"2012-08-12","ended_at":"2012-08-14","begin_time":"1400","end_time":"2200","disaster_name":"8.12~13 호우","cause_detail":"집중호우로 인한 노면수 유입과 배수불량에 의한 하수역류","flood_grade":1,"flood_depth_m":0.48,"flood_area_m2":1001,"source_sn":219,"data_status":"actual","official_data":true,"is_prediction":false,"source":"행정안전부 침수흔적도 · 재난안전데이터공유플랫폼 DSSP-IF-00117","collected_at":"2026-08-19T16:46:51+09:00","source_crs":"EPSG:3857","display_badges":["행안부 침수흔적도","과거 기록"]}},{"type":"Feature","id":"FLD:44770:218:943","geometry":{"type":"MultiPolygon","coordinates":[[[[126.688708,36.010991],[126.688657,36.010998],[126.688664,36.010991],[126.688556,36.010928],[126.68863,36.010837],[126.68876,36.010908],[126.688726,36.010937],[126.688746,36.010954],[126.688708,36.010991]]]]},"properties":{"id":"FLD:44770:218:943","layer":"FLOOD_TRACE","admin_code":"44770","sido_code":"44","flood_year":"2012","occurred_at":"2012-08-12","ended_at":"2012-08-14","begin_time":"1400","end_time":"2200","disaster_name":"8.12~13 호우","cause_detail":"집중호우로 인한 노면수 유입과 배수불량에 의한 하수역류","flood_grade":1,"flood_depth_m":0.48,"flood_area_m2":187,"source_sn":218,"data_status":"actual","official_data":true,"is_prediction":false,"source":"행정안전부 침수흔적도 · 재난안전데이터공유플랫폼 DSSP-IF-00117","collected_at":"2026-08-19T16:46:51+09:00","source_crs":"EPSG:3857","display_badges":["행안부 침수흔적도","과거 기록"]}},{"type":"Feature","id":"FLD:44770:221:944","geometry":{"type":"MultiPolygon","coordinates":[[[[126.691737,36.009401],[126.691516,36.009409],[126.691512,36.009351],[126.691505,36.009225],[126.69155,36.009223],[126.691724,36.009216],[126.691737,36.009401]]]]},"properties":{"id":"FLD:44770:221:944","layer":"FLOOD_TRACE","admin_code":"44770","sido_code":"44","flood_year":"2012","occurred_at":"2012-08-12","ended_at":"2012-08-14","begin_time":"1400","end_time":"2200","disaster_name":"8.12~13 호우","cause_detail":"집중호우로 인한 노면수 유입과 배수불량에 의한 하수역류","flood_grade":1,"flood_depth_m":0.48,"flood_area_m2":426,"source_sn":221,"data_status":"actual","official_data":true,"is_prediction":false,"source":"행정안전부 침수흔적도 · 재난안전데이터공유플랫폼 DSSP-IF-00117","collected_at":"2026-08-19T16:46:51+09:00","source_crs":"EPSG:3857","display_badges":["행안부 침수흔적도","과거 기록"]}},{"type":"Feature","id":"FLD:44770:217:945","geometry":{"type":"MultiPolygon","coordinates":[[[[126.68874,36.008596],[126.688756,36.008592],[126.688749,36.008559],[126.688814,36.008546],[126.689014,36.008536],[126.689038,36.008534],[126.689045,36.008634],[126.688924,36.00867],[126.688895,36.008694],[126.688907,36.008712],[126.688817,36.008718],[126.68893,36.00889],[126.688936,36.008875],[126.688984,36.008867],[126.688983,36.008825],[126.688971,36.008806],[126.689002,36.008801],[126.689036,36.008887],[126.689067,36.008967],[126.689162,36.009081],[126.689199,36.009079],[126.689232,36.00913],[126.689244,36.009149],[126.689326,36.009208],[126.689466,36.009214],[126.68949,36.009215],[126.689763,36.009224],[126.689773,36.009326],[126.689785,36.009474],[126.689792,36.009566],[126.689798,36.009644],[126.689806,36.009727],[126.689816,36.009832],[126.689818,36.009854],[126.689828,36.009987],[126.689834,36.010067],[126.689845,36.010211],[126.689856,36.010327],[126.689737,36.010335],[126.689666,36.01034],[126.689427,36.010357],[126.689289,36.010367],[126.689259,36.010369],[126.689129,36.010378],[126.689126,36.010338],[126.689118,36.010252],[126.689108,36.010138],[126.689098,36.010023],[126.689087,36.009896],[126.68906,36.009593],[126.689025,36.009196],[126.68902,36.009194],[126.688898,36.009196],[126.688891,36.009122],[126.688853,36.00895],[126.688843,36.008935],[126.688789,36.008857],[126.688722,36.00876],[126.688594,36.008576],[126.688655,36.008551],[126.688704,36.008572],[126.68874,36.008596]]]]},"properties":{"id":"FLD:44770:217:945","layer":"FLOOD_TRACE","admin_code":"44770","sido_code":"44","flood_year":"2012","occurred_at":"2012-08-12","ended_at":"2012-08-14","begin_time":"1400","end_time":"2200","disaster_name":"8.12~13 호우","cause_detail":"집중호우로 인한 노면수 유입과 배수불량에 의한 하수역류","flood_grade":1,"flood_depth_m":0.49,"flood_area_m2":10187,"source_sn":217,"data_status":"actual","official_data":true,"is_prediction":false,"source":"행정안전부 침수흔적도 · 재난안전데이터공유플랫폼 DSSP-IF-00117","collected_at":"2026-08-19T16:46:51+09:00","source_crs":"EPSG:3857","display_badges":["행안부 침수흔적도","과거 기록"]}},{"type":"Feature","id":"FLD:44770:220:946","geometry":{"type":"MultiPolygon","coordinates":[[[[126.686368,36.013079],[126.686432,36.013075],[126.686435,36.01313],[126.686372,36.013138],[126.686373,36.01316],[126.686364,36.013161],[126.686276,36.01316],[126.686265,36.01316],[126.686265,36.013152],[126.686074,36.013176],[126.686059,36.013178],[126.686031,36.013265],[126.686003,36.013268],[126.685903,36.013277],[126.685974,36.013159],[126.685961,36.01316],[126.685989,36.013105],[126.686058,36.0131],[126.686085,36.013099],[126.686096,36.013098],[126.686259,36.013087],[126.686368,36.013079]]]]},"properties":{"id":"FLD:44770:220:946","layer":"FLOOD_TRACE","admin_code":"44770","sido_code":"44","flood_year":"2012","occurred_at":"2012-08-12","ended_at":"2012-08-14","begin_time":"1400","end_time":"2200","disaster_name":"8.12~13 호우","cause_detail":"집중호우로 인한 노면수 유입과 배수불량에 의한 하수역류","flood_grade":1,"flood_depth_m":0.48,"flood_area_m2":404,"source_sn":220,"data_status":"actual","official_data":true,"is_prediction":false,"source":"행정안전부 침수흔적도 · 재난안전데이터공유플랫폼 DSSP-IF-00117","collected_at":"2026-08-19T16:46:51+09:00","source_crs":"EPSG:3857","display_badges":["행안부 침수흔적도","과거 기록"]}},{"type":"Feature","id":"FLD:44770:222:947","geometry":{"type":"MultiPolygon","coordinates":[[[[126.691737,36.013605],[126.691733,36.013546],[126.691776,36.013548],[126.691775,36.013515],[126.691811,36.013518],[126.691819,36.013518],[126.691836,36.013612],[126.691737,36.013605]]]]},"properties":{"id":"FLD:44770:222:947","layer":"FLOOD_TRACE","admin_code":"44770","sido_code":"44","flood_year":"2012","occurred_at":"2012-08-12","ended_at":"2012-08-14","begin_time":"1400","end_time":"2200","disaster_name":"8.12~13 호우","cause_detail":"집중호우로 인한 노면수 유입과 배수불량에 의한 하수역류","flood_grade":1,"flood_depth_m":0.48,"flood_area_m2":79,"source_sn":222,"data_status":"actual","official_data":true,"is_prediction":false,"source":"행정안전부 침수흔적도 · 재난안전데이터공유플랫폼 DSSP-IF-00117","collected_at":"2026-08-19T16:46:51+09:00","source_crs":"EPSG:3857","display_badges":["행안부 침수흔적도","과거 기록"]}}]}