{"type":"FeatureCollection","features":[{"type":"Feature","id":"FLD:30170:31:7485","geometry":{"type":"MultiPolygon","coordinates":[[[[127.392821,36.340499],[127.393297,36.340105],[127.393786,36.340465],[127.39421,36.340104],[127.39431,36.340022],[127.394741,36.339655],[127.394793,36.339695],[127.393989,36.340369],[127.394105,36.34046],[127.393949,36.340594],[127.394352,36.340899],[127.394302,36.340942],[127.394161,36.340835],[127.39407,36.340914],[127.393935,36.340811],[127.39403,36.340733],[127.393776,36.340543],[127.393383,36.340244],[127.393278,36.340335],[127.393195,36.340273],[127.392874,36.340541],[127.392821,36.340499]]]]},"properties":{"id":"FLD:30170:31:7485","layer":"FLOOD_TRACE","admin_code":"30170","sido_code":"30","flood_year":"2018","occurred_at":"2018-08-28","ended_at":"2018-08-28","begin_time":"0900","end_time":"0500","disaster_name":"2018국지성 집중호우","cause_detail":"하수관역류","flood_grade":2,"flood_depth_m":0.5,"flood_area_m2":2583.951,"source_sn":31,"data_status":"actual","official_data":true,"is_prediction":false,"source":"행정안전부 침수흔적도 · 재난안전데이터공유플랫폼 DSSP-IF-00117","collected_at":"2026-08-19T16:46:51+09:00","source_crs":"EPSG:3857","display_badges":["행안부 침수흔적도","과거 기록"]}},{"type":"Feature","id":"FLD:30170:32:7486","geometry":{"type":"MultiPolygon","coordinates":[[[[127.385632,36.33398],[127.385253,36.334299],[127.384686,36.334771],[127.383883,36.335435],[127.382717,36.336432],[127.383703,36.3372],[127.383599,36.337242],[127.38267,36.336538],[127.382529,36.336418],[127.381901,36.335936],[127.381971,36.335857],[127.382621,36.336354],[127.38366,36.335491],[127.384656,36.334647],[127.385484,36.333968],[127.38529,36.333795],[127.385504,36.333611],[127.385685,36.333752],[127.386399,36.333162],[127.386456,36.333209],[127.386508,36.333254],[127.386083,36.333602],[127.385632,36.33398]]]]},"properties":{"id":"FLD:30170:32:7486","layer":"FLOOD_TRACE","admin_code":"30170","sido_code":"30","flood_year":"2018","occurred_at":"2018-08-28","ended_at":"2018-08-28","begin_time":"0600","end_time":"0900","disaster_name":"2018국지성 집중호우","cause_detail":"하수관역류","flood_grade":2,"flood_depth_m":0.5,"flood_area_m2":8175.8,"source_sn":32,"data_status":"actual","official_data":true,"is_prediction":false,"source":"행정안전부 침수흔적도 · 재난안전데이터공유플랫폼 DSSP-IF-00117","collected_at":"2026-08-19T16:46:51+09:00","source_crs":"EPSG:3857","display_badges":["행안부 침수흔적도","과거 기록"]}},{"type":"Feature","id":"FLD:30170:33:7487","geometry":{"type":"MultiPolygon","coordinates":[[[[127.390592,36.362125],[127.391715,36.362123],[127.392712,36.362187],[127.393236,36.362391],[127.394301,36.362839],[127.394222,36.362974],[127.393151,36.362521],[127.392662,36.362338],[127.392328,36.36228],[127.391927,36.362282],[127.390592,36.362291],[127.390592,36.362125]]]]},"properties":{"id":"FLD:30170:33:7487","layer":"FLOOD_TRACE","admin_code":"30170","sido_code":"30","flood_year":"2018","occurred_at":"2018-08-28","ended_at":"2018-08-28","begin_time":"0500","end_time":"0900","disaster_name":"2018국지성 집중호우","cause_detail":"하수관역류","flood_grade":1,"flood_depth_m":0.325,"flood_area_m2":5782.297,"source_sn":33,"data_status":"actual","official_data":true,"is_prediction":false,"source":"행정안전부 침수흔적도 · 재난안전데이터공유플랫폼 DSSP-IF-00117","collected_at":"2026-08-19T16:46:51+09:00","source_crs":"EPSG:3857","display_badges":["행안부 침수흔적도","과거 기록"]}},{"type":"Feature","id":"FLD:30170:34:7488","geometry":{"type":"MultiPolygon","coordinates":[[[[127.354013,36.354054],[127.353688,36.354246],[127.353499,36.354134],[127.353051,36.353818],[127.352377,36.353249],[127.352113,36.352995],[127.351871,36.352707],[127.351474,36.352124],[127.351185,36.351546],[127.350961,36.350886],[127.350832,36.350278],[127.35121,36.350056],[127.351291,36.35065],[127.351587,36.351245],[127.351825,36.351864],[127.352589,36.352961],[127.352905,36.353255],[127.35336,36.353619],[127.354013,36.354054]]]]},"properties":{"id":"FLD:30170:34:7488","layer":"FLOOD_TRACE","admin_code":"30170","sido_code":"30","flood_year":"2018","occurred_at":"2018-08-28","ended_at":"2018-08-28","begin_time":"0500","end_time":"0900","disaster_name":"2018국지성 집중호우","cause_detail":"하수관역류","flood_grade":2,"flood_depth_m":0.684,"flood_area_m2":20097.051,"source_sn":34,"data_status":"actual","official_data":true,"is_prediction":false,"source":"행정안전부 침수흔적도 · 재난안전데이터공유플랫폼 DSSP-IF-00117","collected_at":"2026-08-19T16:46:51+09:00","source_crs":"EPSG:3857","display_badges":["행안부 침수흔적도","과거 기록"]}},{"type":"Feature","id":"FLD:30170:36:7489","geometry":{"type":"MultiPolygon","coordinates":[[[[127.374459,36.365069],[127.374484,36.364652],[127.376256,36.364656],[127.379071,36.364642],[127.380632,36.364633],[127.382431,36.364626],[127.382426,36.365062],[127.380528,36.365062],[127.379076,36.365064],[127.374459,36.365069]]]]},"properties":{"id":"FLD:30170:36:7489","layer":"FLOOD_TRACE","admin_code":"30170","sido_code":"30","flood_year":"2018","occurred_at":"2018-08-28","ended_at":"2018-08-28","begin_time":"0500","end_time":"0900","disaster_name":"2018국지성 집중호우","cause_detail":"배수관 배수불량","flood_grade":1,"flood_depth_m":0.454,"flood_area_m2":33399.739,"source_sn":36,"data_status":"actual","official_data":true,"is_prediction":false,"source":"행정안전부 침수흔적도 · 재난안전데이터공유플랫폼 DSSP-IF-00117","collected_at":"2026-08-19T16:46:51+09:00","source_crs":"EPSG:3857","display_badges":["행안부 침수흔적도","과거 기록"]}},{"type":"Feature","id":"FLD:30170:35:7490","geometry":{"type":"MultiPolygon","coordinates":[[[[127.388196,36.365043],[127.388193,36.36461],[127.390116,36.364605],[127.390123,36.363066],[127.390545,36.363065],[127.390544,36.364603],[127.392862,36.3646],[127.393222,36.364495],[127.393648,36.364159],[127.393968,36.363687],[127.394324,36.363705],[127.393923,36.364603],[127.393774,36.364977],[127.393633,36.365813],[127.393342,36.365798],[127.393463,36.365008],[127.391833,36.365029],[127.390555,36.365033],[127.390565,36.365364],[127.390395,36.365378],[127.39038,36.36503],[127.388196,36.365043]]]]},"properties":{"id":"FLD:30170:35:7490","layer":"FLOOD_TRACE","admin_code":"30170","sido_code":"30","flood_year":"2018","occurred_at":"2018-08-28","ended_at":"2018-08-28","begin_time":"0500","end_time":"0900","disaster_name":"2018국지성 집중호우","cause_detail":"하수관역류","flood_grade":1,"flood_depth_m":0.397,"flood_area_m2":38300,"source_sn":35,"data_status":"actual","official_data":true,"is_prediction":false,"source":"행정안전부 침수흔적도 · 재난안전데이터공유플랫폼 DSSP-IF-00117","collected_at":"2026-08-19T16:46:51+09:00","source_crs":"EPSG:3857","display_badges":["행안부 침수흔적도","과거 기록"]}},{"type":"Feature","id":"FLD:30170:491:11955","geometry":{"type":"MultiPolygon","coordinates":[[[[127.368354,37.203366],[127.368132,37.203208],[127.367978,37.202877],[127.369426,37.202035],[127.369619,37.201952],[127.37,37.201744],[127.370386,37.201716],[127.37082,37.20153],[127.371078,37.201376],[127.371472,37.201266],[127.371711,37.201013],[127.372003,37.200659],[127.372058,37.20037],[127.372595,37.199889],[127.373071,37.199653],[127.373539,37.199555],[127.373955,37.19939],[127.374058,37.199048],[127.37415,37.198994],[127.374367,37.199166],[127.374704,37.199327],[127.374701,37.199388],[127.374677,37.199461],[127.374554,37.199616],[127.374428,37.199754],[127.374159,37.200015],[127.37385,37.200115],[127.37351,37.200343],[127.373234,37.200472],[127.373035,37.200485],[127.372713,37.20082],[127.372467,37.200971],[127.372189,37.201139],[127.371596,37.20133],[127.371153,37.201412],[127.370994,37.201587],[127.3709,37.201729],[127.370806,37.201935],[127.370431,37.2022],[127.37015,37.202484],[127.370115,37.202585],[127.369947,37.202786],[127.36955,37.203261],[127.369323,37.203308],[127.369009,37.202964],[127.368354,37.203366]]]]},"properties":{"id":"FLD:30170:491:11955","layer":"FLOOD_TRACE","admin_code":"30170","sido_code":"30","flood_year":"2020","occurred_at":"2020-07-30","ended_at":"2020-07-30","begin_time":"0400","end_time":"1800","disaster_name":"2020.7.30. 집중호우","cause_detail":"배수구 및 구거 범람","flood_grade":2,"flood_depth_m":1.506,"flood_area_m2":45105,"source_sn":491,"data_status":"actual","official_data":true,"is_prediction":false,"source":"행정안전부 침수흔적도 · 재난안전데이터공유플랫폼 DSSP-IF-00117","collected_at":"2026-08-19T16:46:51+09:00","source_crs":"EPSG:3857","display_badges":["행안부 침수흔적도","과거 기록"]}},{"type":"Feature","id":"FLD:30170:493:11956","geometry":{"type":"MultiPolygon","coordinates":[[[[127.37034,37.210121],[127.370841,37.208358],[127.371619,37.208497],[127.371548,37.208755],[127.371895,37.208823],[127.371782,37.209174],[127.371364,37.20909],[127.371302,37.209321],[127.370775,37.209229],[127.370595,37.209861],[127.370745,37.209886],[127.37066,37.210182],[127.37034,37.210121]]]]},"properties":{"id":"FLD:30170:493:11956","layer":"FLOOD_TRACE","admin_code":"30170","sido_code":"30","flood_year":"2020","occurred_at":"2020-07-30","ended_at":"2020-07-30","begin_time":"0400","end_time":"1800","disaster_name":"2020.7.30. 집중호우","cause_detail":"배수구 및 구거 범람","flood_grade":2,"flood_depth_m":1.522,"flood_area_m2":9921.5,"source_sn":493,"data_status":"actual","official_data":true,"is_prediction":false,"source":"행정안전부 침수흔적도 · 재난안전데이터공유플랫폼 DSSP-IF-00117","collected_at":"2026-08-19T16:46:51+09:00","source_crs":"EPSG:3857","display_badges":["행안부 침수흔적도","과거 기록"]}},{"type":"Feature","id":"FLD:30170:492:11957","geometry":{"type":"MultiPolygon","coordinates":[[[[127.368966,37.193203],[127.368861,37.193024],[127.368761,37.192948],[127.368624,37.192886],[127.368737,37.19278],[127.368831,37.192647],[127.369062,37.192501],[127.369648,37.192398],[127.369959,37.192738],[127.370789,37.192664],[127.371202,37.192666],[127.371686,37.192735],[127.37178,37.192894],[127.371018,37.192912],[127.370862,37.192762],[127.37047,37.192845],[127.370184,37.192879],[127.370075,37.192948],[127.369948,37.193055],[127.369559,37.193051],[127.369229,37.193106],[127.368966,37.193203]]]]},"properties":{"id":"FLD:30170:492:11957","layer":"FLOOD_TRACE","admin_code":"30170","sido_code":"30","flood_year":"2020","occurred_at":"2020-07-30","ended_at":"2020-07-30","begin_time":"0400","end_time":"1800","disaster_name":"2020.7.30. 집중호우","cause_detail":"배수구 및 구거 범람","flood_grade":3,"flood_depth_m":1.487,"flood_area_m2":9967.2,"source_sn":492,"data_status":"actual","official_data":true,"is_prediction":false,"source":"행정안전부 침수흔적도 · 재난안전데이터공유플랫폼 DSSP-IF-00117","collected_at":"2026-08-19T16:46:51+09:00","source_crs":"EPSG:3857","display_badges":["행안부 침수흔적도","과거 기록"]}},{"type":"Feature","id":"FLD:30170:494:11958","geometry":{"type":"MultiPolygon","coordinates":[[[[127.388734,36.337643],[127.388543,36.337473],[127.388656,36.337383],[127.388799,36.337493],[127.389614,36.336805],[127.389728,36.336661],[127.389274,36.336309],[127.389197,36.336246],[127.38946,36.336012],[127.389524,36.336057],[127.389671,36.336172],[127.389571,36.336248],[127.389428,36.336136],[127.389294,36.336252],[127.38987,36.336698],[127.388734,36.337643]]]]},"properties":{"id":"FLD:30170:494:11958","layer":"FLOOD_TRACE","admin_code":"30170","sido_code":"30","flood_year":"2020","occurred_at":"2020-07-30","ended_at":"2020-07-30","begin_time":"0300","end_time":"0700","disaster_name":"2020.7.30. 집중호우","cause_detail":"낙엽, 쓰레기 등으로 인한 빗물받이 막힘","flood_grade":1,"flood_depth_m":0.343,"flood_area_m2":2287.8,"source_sn":494,"data_status":"actual","official_data":true,"is_prediction":false,"source":"행정안전부 침수흔적도 · 재난안전데이터공유플랫폼 DSSP-IF-00117","collected_at":"2026-08-19T16:46:51+09:00","source_crs":"EPSG:3857","display_badges":["행안부 침수흔적도","과거 기록"]}},{"type":"Feature","id":"FLD:30170:495:11959","geometry":{"type":"MultiPolygon","coordinates":[[[[127.395891,36.339445],[127.395655,36.339312],[127.395488,36.339441],[127.395259,36.33926],[127.395407,36.339131],[127.395316,36.338986],[127.395487,36.338844],[127.395992,36.339336],[127.395891,36.339445]]]]},"properties":{"id":"FLD:30170:495:11959","layer":"FLOOD_TRACE","admin_code":"30170","sido_code":"30","flood_year":"2020","occurred_at":"2020-07-30","ended_at":"2020-07-30","begin_time":"0300","end_time":"0700","disaster_name":"2020.7.30. 집중호우","cause_detail":"낙엽, 쓰레기 등으로 인한 빗물받이 막힘","flood_grade":1,"flood_depth_m":0.33,"flood_area_m2":2167.9,"source_sn":495,"data_status":"actual","official_data":true,"is_prediction":false,"source":"행정안전부 침수흔적도 · 재난안전데이터공유플랫폼 DSSP-IF-00117","collected_at":"2026-08-19T16:46:51+09:00","source_crs":"EPSG:3857","display_badges":["행안부 침수흔적도","과거 기록"]}},{"type":"Feature","id":"FLD:30170:496:11960","geometry":{"type":"MultiPolygon","coordinates":[[[[127.392545,36.336612],[127.392706,36.336477],[127.392827,36.336564],[127.39266,36.336702],[127.392535,36.336698],[127.391699,36.336041],[127.392686,36.33521],[127.392944,36.3354],[127.392751,36.335553],[127.392652,36.335475],[127.392792,36.335364],[127.392693,36.335296],[127.391903,36.335962],[127.391827,36.33603],[127.392545,36.336612]]]]},"properties":{"id":"FLD:30170:496:11960","layer":"FLOOD_TRACE","admin_code":"30170","sido_code":"30","flood_year":"2020","occurred_at":"2020-07-30","ended_at":"2020-07-30","begin_time":"0300","end_time":"0700","disaster_name":"2020.7.30. 집중호우","cause_detail":"낙엽, 쓰레기 등으로 인한 빗물받이 막힘","flood_grade":1,"flood_depth_m":0.276,"flood_area_m2":2410.3,"source_sn":496,"data_status":"actual","official_data":true,"is_prediction":false,"source":"행정안전부 침수흔적도 · 재난안전데이터공유플랫폼 DSSP-IF-00117","collected_at":"2026-08-19T16:46:51+09:00","source_crs":"EPSG:3857","display_badges":["행안부 침수흔적도","과거 기록"]}},{"type":"Feature","id":"FLD:30170:497:11961","geometry":{"type":"MultiPolygon","coordinates":[[[[127.402172,37.245369],[127.402211,37.245394],[127.401965,37.245594],[127.400951,37.244858],[127.400838,37.244937],[127.400548,37.244725],[127.400688,37.244602],[127.400942,37.244796],[127.400999,37.244826],[127.401115,37.244729],[127.40121,37.244799],[127.401085,37.244901],[127.401543,37.245234],[127.401649,37.245138],[127.401761,37.245227],[127.401656,37.24532],[127.401954,37.245549],[127.402074,37.245468],[127.401899,37.245333],[127.402007,37.245242],[127.402172,37.245369]]]]},"properties":{"id":"FLD:30170:497:11961","layer":"FLOOD_TRACE","admin_code":"30170","sido_code":"30","flood_year":"2020","occurred_at":"2020-07-30","ended_at":"2020-07-30","begin_time":"0400","end_time":"1800","disaster_name":"2020.7.30. 집중호우","cause_detail":"구거 및 배수구 범람","flood_grade":3,"flood_depth_m":1.048,"flood_area_m2":1924.2,"source_sn":497,"data_status":"actual","official_data":true,"is_prediction":false,"source":"행정안전부 침수흔적도 · 재난안전데이터공유플랫폼 DSSP-IF-00117","collected_at":"2026-08-19T16:46:51+09:00","source_crs":"EPSG:3857","display_badges":["행안부 침수흔적도","과거 기록"]}},{"type":"Feature","id":"FLD:30170:498:11964","geometry":{"type":"MultiPolygon","coordinates":[[[[127.386251,36.338434],[127.386347,36.338355],[127.386514,36.338488],[127.386601,36.338422],[127.386673,36.338451],[127.38676,36.338517],[127.386899,36.33863],[127.386757,36.33875],[127.386519,36.338561],[127.386473,36.338607],[127.386417,36.338562],[127.386251,36.338434]]]]},"properties":{"id":"FLD:30170:498:11964","layer":"FLOOD_TRACE","admin_code":"30170","sido_code":"30","flood_year":"2020","occurred_at":"2020-07-30","ended_at":"2020-07-30","begin_time":"0400","end_time":"1800","disaster_name":"2020.7.30. 집중호우","cause_detail":"구거 및 배수구 범람","flood_grade":1,"flood_depth_m":0.233,"flood_area_m2":948.2,"source_sn":498,"data_status":"actual","official_data":true,"is_prediction":false,"source":"행정안전부 침수흔적도 · 재난안전데이터공유플랫폼 DSSP-IF-00117","collected_at":"2026-08-19T16:46:51+09:00","source_crs":"EPSG:3857","display_badges":["행안부 침수흔적도","과거 기록"]}},{"type":"Feature","id":"FLD:30170:499:11965","geometry":{"type":"MultiPolygon","coordinates":[[[[127.387949,36.331331],[127.3878,36.331211],[127.38812,36.33097],[127.390453,36.332793],[127.39063,36.332639],[127.390708,36.332715],[127.390542,36.332852],[127.390776,36.33304],[127.391548,36.332382],[127.391463,36.332314],[127.391564,36.332227],[127.391653,36.332301],[127.392022,36.332029],[127.391838,36.33183],[127.391972,36.331726],[127.392043,36.331787],[127.391919,36.331891],[127.392039,36.331996],[127.392094,36.332039],[127.391603,36.332456],[127.390783,36.333148],[127.388091,36.331033],[127.387941,36.331145],[127.388059,36.331237],[127.387949,36.331331]]]]},"properties":{"id":"FLD:30170:499:11965","layer":"FLOOD_TRACE","admin_code":"30170","sido_code":"30","flood_year":"2020","occurred_at":"2020-07-30","ended_at":"2020-07-30","begin_time":"0400","end_time":"1800","disaster_name":"2020.7.30. 집중호우","cause_detail":"구거 및 배수구 범람","flood_grade":2,"flood_depth_m":0.535,"flood_area_m2":4776.9,"source_sn":499,"data_status":"actual","official_data":true,"is_prediction":false,"source":"행정안전부 침수흔적도 · 재난안전데이터공유플랫폼 DSSP-IF-00117","collected_at":"2026-08-19T16:46:51+09:00","source_crs":"EPSG:3857","display_badges":["행안부 침수흔적도","과거 기록"]}},{"type":"Feature","id":"FLD:30170:502:11966","geometry":{"type":"MultiPolygon","coordinates":[[[[127.359428,36.304801],[127.35872,36.304083],[127.358494,36.303843],[127.358091,36.303287],[127.357789,36.302938],[127.357366,36.302256],[127.357206,36.301931],[127.35742,36.301673],[127.357698,36.301355],[127.357997,36.301416],[127.357912,36.301691],[127.357647,36.302138],[127.358025,36.302742],[127.358145,36.303177],[127.358326,36.303267],[127.358462,36.302987],[127.359181,36.302975],[127.359467,36.302132],[127.359295,36.30171],[127.359072,36.301501],[127.359166,36.300929],[127.359508,36.300496],[127.35981,36.299818],[127.360305,36.299847],[127.360257,36.300011],[127.360445,36.300776],[127.361044,36.301146],[127.361046,36.301255],[127.360767,36.301651],[127.360375,36.301629],[127.359966,36.30232],[127.359654,36.302959],[127.360006,36.303011],[127.359983,36.303341],[127.359765,36.30408],[127.359584,36.304675],[127.359504,36.304768],[127.359428,36.304801]]]]},"properties":{"id":"FLD:30170:502:11966","layer":"FLOOD_TRACE","admin_code":"30170","sido_code":"30","flood_year":"2020","occurred_at":"2020-07-30","ended_at":"2020-07-30","begin_time":"0300","end_time":"0700","disaster_name":"2020.7.30. 집중호우","cause_detail":"낙엽, 쓰레기 등으로 인한 빗물받이 막힘","flood_grade":3,"flood_depth_m":1.012,"flood_area_m2":58285.2,"source_sn":502,"data_status":"actual","official_data":true,"is_prediction":false,"source":"행정안전부 침수흔적도 · 재난안전데이터공유플랫폼 DSSP-IF-00117","collected_at":"2026-08-19T16:46:51+09:00","source_crs":"EPSG:3857","display_badges":["행안부 침수흔적도","과거 기록"]}},{"type":"Feature","id":"FLD:30170:501:11967","geometry":{"type":"MultiPolygon","coordinates":[[[[127.35846,36.293955],[127.358676,36.294353],[127.359179,36.295278],[127.359177,36.295361],[127.359145,36.295443],[127.357966,36.295429],[127.357401,36.295404],[127.357356,36.295334],[127.357211,36.295262],[127.35846,36.293955]]]]},"properties":{"id":"FLD:30170:501:11967","layer":"FLOOD_TRACE","admin_code":"30170","sido_code":"30","flood_year":"2020","occurred_at":"2020-07-30","ended_at":"2020-07-30","begin_time":"0300","end_time":"0700","disaster_name":"2020.7.30. 집중호우","cause_detail":"낙엽, 쓰레기 등으로 인한 빗물받이 막힘","flood_grade":2,"flood_depth_m":0.976,"flood_area_m2":15821.9,"source_sn":501,"data_status":"actual","official_data":true,"is_prediction":false,"source":"행정안전부 침수흔적도 · 재난안전데이터공유플랫폼 DSSP-IF-00117","collected_at":"2026-08-19T16:46:51+09:00","source_crs":"EPSG:3857","display_badges":["행안부 침수흔적도","과거 기록"]}},{"type":"Feature","id":"FLD:30170:500:11968","geometry":{"type":"MultiPolygon","coordinates":[[[[127.359806,36.298717],[127.359823,36.298595],[127.359815,36.29835],[127.359845,36.298133],[127.35937,36.298108],[127.35937,36.297808],[127.35923,36.297789],[127.359222,36.297735],[127.359197,36.297623],[127.359159,36.297302],[127.359134,36.296993],[127.359339,36.297004],[127.359437,36.296919],[127.359434,36.297023],[127.35937,36.297169],[127.35944,36.297252],[127.35955,36.297241],[127.359937,36.297379],[127.36025,36.29815],[127.360069,36.298605],[127.359806,36.298717]]]]},"properties":{"id":"FLD:30170:500:11968","layer":"FLOOD_TRACE","admin_code":"30170","sido_code":"30","flood_year":"2020","occurred_at":"2020-07-30","ended_at":"2020-07-30","begin_time":"0300","end_time":"0700","disaster_name":"2020.7.30. 집중호우","cause_detail":"낙엽, 쓰레기 등으로 인한 빗물받이 막힘","flood_grade":2,"flood_depth_m":0.963,"flood_area_m2":9274.5,"source_sn":500,"data_status":"actual","official_data":true,"is_prediction":false,"source":"행정안전부 침수흔적도 · 재난안전데이터공유플랫폼 DSSP-IF-00117","collected_at":"2026-08-19T16:46:51+09:00","source_crs":"EPSG:3857","display_badges":["행안부 침수흔적도","과거 기록"]}},{"type":"Feature","id":"FLD:30170:503:11969","geometry":{"type":"MultiPolygon","coordinates":[[[[127.322836,36.286113],[127.322561,36.286685],[127.322473,36.286723],[127.322384,36.286803],[127.322325,36.286906],[127.322056,36.286877],[127.321813,36.286864],[127.321492,36.286952],[127.321553,36.286503],[127.321604,36.286173],[127.321654,36.286041],[127.321526,36.285975],[127.321346,36.285989],[127.320814,36.286043],[127.320742,36.286022],[127.32068,36.285879],[127.320728,36.285674],[127.320857,36.285704],[127.321077,36.285423],[127.321581,36.285554],[127.321603,36.285541],[127.321451,36.285387],[127.321599,36.28531],[127.321793,36.285415],[127.321579,36.285918],[127.32182,36.286055],[127.321906,36.286048],[127.322157,36.285986],[127.322427,36.286034],[127.322579,36.28609],[127.322836,36.286113]]]]},"properties":{"id":"FLD:30170:503:11969","layer":"FLOOD_TRACE","admin_code":"30170","sido_code":"30","flood_year":"2020","occurred_at":"2020-07-30","ended_at":"2020-07-30","begin_time":"0400","end_time":"1800","disaster_name":"2020.7.30. 집중호우","cause_detail":"구거 및 배수구 범람","flood_grade":2,"flood_depth_m":0.548,"flood_area_m2":14048.2,"source_sn":503,"data_status":"actual","official_data":true,"is_prediction":false,"source":"행정안전부 침수흔적도 · 재난안전데이터공유플랫폼 DSSP-IF-00117","collected_at":"2026-08-19T16:46:51+09:00","source_crs":"EPSG:3857","display_badges":["행안부 침수흔적도","과거 기록"]}},{"type":"Feature","id":"FLD:30170:505:11970","geometry":{"type":"MultiPolygon","coordinates":[[[[127.335429,36.279654],[127.33498,36.279449],[127.334828,36.279397],[127.334569,36.278876],[127.334638,36.278394],[127.335934,36.277978],[127.335422,36.276914],[127.335634,36.27682],[127.336363,36.277757],[127.336235,36.277932],[127.336092,36.278173],[127.336114,36.278327],[127.335331,36.278613],[127.335894,36.279401],[127.335429,36.279654]]]]},"properties":{"id":"FLD:30170:505:11970","layer":"FLOOD_TRACE","admin_code":"30170","sido_code":"30","flood_year":"2020","occurred_at":"2020-07-30","ended_at":"2020-07-30","begin_time":"0400","end_time":"1800","disaster_name":"2020.7.30 집중호우","cause_detail":"구거 및 배수구 범람","flood_grade":2,"flood_depth_m":0.983,"flood_area_m2":18861.6,"source_sn":505,"data_status":"actual","official_data":true,"is_prediction":false,"source":"행정안전부 침수흔적도 · 재난안전데이터공유플랫폼 DSSP-IF-00117","collected_at":"2026-08-19T16:46:51+09:00","source_crs":"EPSG:3857","display_badges":["행안부 침수흔적도","과거 기록"]}},{"type":"Feature","id":"FLD:30170:507:11971","geometry":{"type":"MultiPolygon","coordinates":[[[[127.348021,36.252352],[127.348011,36.252284],[127.347971,36.252115],[127.347836,36.252074],[127.347648,36.25202],[127.34758,36.251963],[127.347496,36.251883],[127.347434,36.251787],[127.347387,36.25166],[127.347443,36.251643],[127.347907,36.251749],[127.348309,36.251941],[127.348457,36.252081],[127.348975,36.251979],[127.348977,36.252076],[127.349007,36.252252],[127.349022,36.252346],[127.348656,36.252457],[127.348503,36.252409],[127.348299,36.252387],[127.348117,36.252352],[127.348021,36.252352]]]]},"properties":{"id":"FLD:30170:507:11971","layer":"FLOOD_TRACE","admin_code":"30170","sido_code":"30","flood_year":"2020","occurred_at":"2020-07-30","ended_at":"2020-07-30","begin_time":"0400","end_time":"1800","disaster_name":"2020.7.30 집중호우","cause_detail":"구거 및 배수구 범람","flood_grade":2,"flood_depth_m":0.619,"flood_area_m2":5920,"source_sn":507,"data_status":"actual","official_data":true,"is_prediction":false,"source":"행정안전부 침수흔적도 · 재난안전데이터공유플랫폼 DSSP-IF-00117","collected_at":"2026-08-19T16:46:51+09:00","source_crs":"EPSG:3857","display_badges":["행안부 침수흔적도","과거 기록"]}},{"type":"Feature","id":"FLD:30170:506:11972","geometry":{"type":"MultiPolygon","coordinates":[[[[127.339384,36.279205],[127.338825,36.278583],[127.3394,36.278238],[127.339931,36.278875],[127.340667,36.278532],[127.340534,36.277853],[127.341717,36.277448],[127.342838,36.276426],[127.343273,36.275442],[127.343754,36.275574],[127.343363,36.276023],[127.343236,36.276216],[127.342916,36.276672],[127.342501,36.277181],[127.341865,36.278092],[127.341033,36.27875],[127.339384,36.279205]]]]},"properties":{"id":"FLD:30170:506:11972","layer":"FLOOD_TRACE","admin_code":"30170","sido_code":"30","flood_year":"2020","occurred_at":"2020-07-30","ended_at":"2020-07-30","begin_time":"0400","end_time":"1800","disaster_name":"2020.7.30 집중호우","cause_detail":"구거 및 배구수 범람","flood_grade":2,"flood_depth_m":0.851,"flood_area_m2":28585.5,"source_sn":506,"data_status":"actual","official_data":true,"is_prediction":false,"source":"행정안전부 침수흔적도 · 재난안전데이터공유플랫폼 DSSP-IF-00117","collected_at":"2026-08-19T16:46:51+09:00","source_crs":"EPSG:3857","display_badges":["행안부 침수흔적도","과거 기록"]}},{"type":"Feature","id":"FLD:30170:504:12177","geometry":{"type":"MultiPolygon","coordinates":[[[[127.344424,36.274504],[127.344222,36.274055],[127.344103,36.273501],[127.344094,36.273334],[127.344107,36.273213],[127.344325,36.272916],[127.344204,36.272667],[127.344488,36.272193],[127.344858,36.272164],[127.344875,36.27261],[127.344861,36.272872],[127.344851,36.273229],[127.344864,36.273479],[127.34488,36.273809],[127.344936,36.274044],[127.344424,36.274504]]]]},"properties":{"id":"FLD:30170:504:12177","layer":"FLOOD_TRACE","admin_code":"30170","sido_code":"30","flood_year":"2020","occurred_at":"2020-07-30","ended_at":"2020-07-30","begin_time":"0400","end_time":"1800","disaster_name":"2020.7.30 집중호우","cause_detail":"구거 및 배수구 범람","flood_grade":2,"flood_depth_m":0.608,"flood_area_m2":13667.4,"source_sn":504,"data_status":"actual","official_data":true,"is_prediction":false,"source":"행정안전부 침수흔적도 · 재난안전데이터공유플랫폼 DSSP-IF-00117","collected_at":"2026-08-19T16:46:51+09:00","source_crs":"EPSG:3857","display_badges":["행안부 침수흔적도","과거 기록"]}},{"type":"Feature","id":"FLD:30170:508:12178","geometry":{"type":"MultiPolygon","coordinates":[[[[127.333198,36.244677],[127.33318,36.244601],[127.333128,36.244497],[127.333049,36.244382],[127.332979,36.244342],[127.332784,36.244298],[127.332679,36.244313],[127.332548,36.244359],[127.33255,36.244287],[127.332759,36.244102],[127.333281,36.243531],[127.333303,36.243436],[127.333373,36.243282],[127.333498,36.242881],[127.333641,36.242827],[127.33383,36.242815],[127.33399,36.242634],[127.334019,36.242537],[127.334024,36.242426],[127.334689,36.24274],[127.334669,36.242835],[127.334623,36.24297],[127.33447,36.243124],[127.334294,36.243346],[127.33449,36.243431],[127.334537,36.243602],[127.334391,36.243811],[127.334291,36.244061],[127.333992,36.244106],[127.333803,36.24409],[127.33379,36.244176],[127.333731,36.244354],[127.333696,36.244473],[127.333676,36.244619],[127.333358,36.244638],[127.333198,36.244677]]]]},"properties":{"id":"FLD:30170:508:12178","layer":"FLOOD_TRACE","admin_code":"30170","sido_code":"30","flood_year":"2020","occurred_at":"2020-07-30","ended_at":"2020-07-30","begin_time":"0400","end_time":"1800","disaster_name":"2020.7.30. 집중호우","cause_detail":"구거 및 배수구 범람","flood_grade":2,"flood_depth_m":0.506,"flood_area_m2":21694.6,"source_sn":508,"data_status":"actual","official_data":true,"is_prediction":false,"source":"행정안전부 침수흔적도 · 재난안전데이터공유플랫폼 DSSP-IF-00117","collected_at":"2026-08-19T16:46:51+09:00","source_crs":"EPSG:3857","display_badges":["행안부 침수흔적도","과거 기록"]}},{"type":"Feature","id":"FLD:30170:509:12179","geometry":{"type":"MultiPolygon","coordinates":[[[[127.348804,36.245816],[127.349006,36.245766],[127.349183,36.245709],[127.349599,36.24554],[127.349966,36.245228],[127.349933,36.245198],[127.350067,36.245191],[127.350075,36.245503],[127.349959,36.245791],[127.349606,36.245981],[127.349887,36.246445],[127.350023,36.246517],[127.350169,36.246489],[127.350562,36.246531],[127.350819,36.246466],[127.351024,36.246414],[127.351123,36.246456],[127.351322,36.246548],[127.35156,36.246587],[127.351712,36.246706],[127.351892,36.24692],[127.352013,36.247161],[127.352051,36.247248],[127.352295,36.247428],[127.352349,36.247542],[127.352225,36.24767],[127.352158,36.247749],[127.352182,36.247975],[127.35242,36.248128],[127.352621,36.24833],[127.352723,36.248443],[127.353114,36.248597],[127.353359,36.248764],[127.353219,36.248928],[127.352968,36.24895],[127.35275,36.248831],[127.352645,36.248678],[127.352501,36.248247],[127.352412,36.248141],[127.35215,36.247997],[127.351882,36.247697],[127.351407,36.247338],[127.350956,36.247103],[127.350749,36.246998],[127.35073,36.246893],[127.350609,36.24685],[127.350341,36.246955],[127.350002,36.246934],[127.349756,36.246874],[127.34962,36.246905],[127.349665,36.246705],[127.349786,36.246602],[127.349688,36.246501],[127.349537,36.246],[127.349128,36.245968],[127.348804,36.245816]]]]},"properties":{"id":"FLD:30170:509:12179","layer":"FLOOD_TRACE","admin_code":"30170","sido_code":"30","flood_year":"2020","occurred_at":"2020-07-30","ended_at":"2020-07-30","begin_time":"0400","end_time":"1800","disaster_name":"2020.7.30. 집중호우","cause_detail":"구거 및 배수구 범람","flood_grade":1,"flood_depth_m":0.349,"flood_area_m2":22952.3,"source_sn":509,"data_status":"actual","official_data":true,"is_prediction":false,"source":"행정안전부 침수흔적도 · 재난안전데이터공유플랫폼 DSSP-IF-00117","collected_at":"2026-08-19T16:46:51+09:00","source_crs":"EPSG:3857","display_badges":["행안부 침수흔적도","과거 기록"]}},{"type":"Feature","id":"FLD:30170:510:12180","geometry":{"type":"MultiPolygon","coordinates":[[[[127.346276,36.246326],[127.345733,36.246278],[127.345872,36.246191],[127.346,36.246089],[127.345984,36.246054],[127.345933,36.245868],[127.346345,36.245757],[127.346639,36.245705],[127.346681,36.245724],[127.346725,36.245871],[127.346686,36.245966],[127.346868,36.245962],[127.347348,36.245885],[127.347534,36.245869],[127.347666,36.245936],[127.346837,36.246352],[127.3466,36.24635],[127.346276,36.246326]]]]},"properties":{"id":"FLD:30170:510:12180","layer":"FLOOD_TRACE","admin_code":"30170","sido_code":"30","flood_year":"2020","occurred_at":"2020-07-30","ended_at":"2020-07-30","begin_time":"0400","end_time":"1800","disaster_name":"2020.7.30. 집중호우","cause_detail":"구거 및 배수구 범람","flood_grade":1,"flood_depth_m":0.347,"flood_area_m2":6765,"source_sn":510,"data_status":"actual","official_data":true,"is_prediction":false,"source":"행정안전부 침수흔적도 · 재난안전데이터공유플랫폼 DSSP-IF-00117","collected_at":"2026-08-19T16:46:51+09:00","source_crs":"EPSG:3857","display_badges":["행안부 침수흔적도","과거 기록"]}},{"type":"Feature","id":"FLD:30170:511:12181","geometry":{"type":"MultiPolygon","coordinates":[[[[127.316953,37.142719],[127.316934,37.142539],[127.317006,37.142423],[127.317046,37.1423],[127.316933,37.142263],[127.316922,37.142258],[127.317005,37.142095],[127.317256,37.142154],[127.317413,37.142203],[127.317483,37.142253],[127.317459,37.14236],[127.317363,37.142503],[127.317255,37.142767],[127.316953,37.142719]]]]},"properties":{"id":"FLD:30170:511:12181","layer":"FLOOD_TRACE","admin_code":"30170","sido_code":"30","flood_year":"2020","occurred_at":"2020-07-30","ended_at":"2020-07-30","begin_time":"0400","end_time":"1800","disaster_name":"2020.7.30. 집중호우","cause_detail":"구거 및 배수구 범람","flood_grade":1,"flood_depth_m":0.313,"flood_area_m2":2458.3,"source_sn":511,"data_status":"actual","official_data":true,"is_prediction":false,"source":"행정안전부 침수흔적도 · 재난안전데이터공유플랫폼 DSSP-IF-00117","collected_at":"2026-08-19T16:46:51+09:00","source_crs":"EPSG:3857","display_badges":["행안부 침수흔적도","과거 기록"]}},{"type":"Feature","id":"FLD:30170:512:12182","geometry":{"type":"MultiPolygon","coordinates":[[[[127.289543,36.231474],[127.289716,36.231302],[127.289768,36.231224],[127.28987,36.231085],[127.29,36.230958],[127.290216,36.23087],[127.290329,36.230797],[127.290494,36.230768],[127.290624,36.230726],[127.290699,36.230691],[127.290875,36.230575],[127.290987,36.230495],[127.291292,36.230294],[127.291417,36.230201],[127.291538,36.23014],[127.291745,36.230084],[127.291709,36.230154],[127.291693,36.230523],[127.291666,36.230595],[127.291514,36.230735],[127.291295,36.230924],[127.291203,36.231035],[127.291143,36.231112],[127.291106,36.23118],[127.291054,36.231189],[127.290912,36.231238],[127.290812,36.231254],[127.290527,36.231275],[127.290465,36.231301],[127.290291,36.231418],[127.290061,36.231528],[127.289939,36.231546],[127.289762,36.231514],[127.289543,36.231474]]]]},"properties":{"id":"FLD:30170:512:12182","layer":"FLOOD_TRACE","admin_code":"30170","sido_code":"30","flood_year":"2020","occurred_at":"2020-07-30","ended_at":"2020-07-30","begin_time":"0400","end_time":"1800","disaster_name":"2020.7.30. 집중호우","cause_detail":"구거 및 배수구 범람","flood_grade":3,"flood_depth_m":1.037,"flood_area_m2":11674.7,"source_sn":512,"data_status":"actual","official_data":true,"is_prediction":false,"source":"행정안전부 침수흔적도 · 재난안전데이터공유플랫폼 DSSP-IF-00117","collected_at":"2026-08-19T16:46:51+09:00","source_crs":"EPSG:3857","display_badges":["행안부 침수흔적도","과거 기록"]}},{"type":"Feature","id":"FLD:30170:516:12183","geometry":{"type":"MultiPolygon","coordinates":[[[[127.305579,37.167201],[127.307197,37.163987],[127.308133,37.164236],[127.308354,37.163833],[127.308712,37.16467],[127.308061,37.164509],[127.307925,37.164866],[127.308923,37.16513],[127.308885,37.165346],[127.307842,37.165069],[127.30797,37.16455],[127.307051,37.164311],[127.306961,37.164543],[127.30788,37.164781],[127.307552,37.165607],[127.306585,37.165347],[127.306346,37.165822],[127.30737,37.166095],[127.307161,37.166532],[127.306959,37.166664],[127.306643,37.166584],[127.305579,37.167201]]]]},"properties":{"id":"FLD:30170:516:12183","layer":"FLOOD_TRACE","admin_code":"30170","sido_code":"30","flood_year":"2020","occurred_at":"2020-07-30","ended_at":"2020-07-30","begin_time":"0400","end_time":"1800","disaster_name":"2020.7.30 집중호우","cause_detail":"구거 및 배수구 범람","flood_grade":1,"flood_depth_m":0.416,"flood_area_m2":27955.8,"source_sn":516,"data_status":"actual","official_data":true,"is_prediction":false,"source":"행정안전부 침수흔적도 · 재난안전데이터공유플랫폼 DSSP-IF-00117","collected_at":"2026-08-19T16:46:51+09:00","source_crs":"EPSG:3857","display_badges":["행안부 침수흔적도","과거 기록"]}},{"type":"Feature","id":"FLD:30170:513:12184","geometry":{"type":"MultiPolygon","coordinates":[[[[127.305934,37.162463],[127.306403,37.16139],[127.306062,37.161269],[127.306452,37.160408],[127.3069,37.160554],[127.306491,37.161404],[127.306721,37.161479],[127.307148,37.16056],[127.306481,37.160351],[127.306877,37.159501],[127.307943,37.159812],[127.308396,37.159172],[127.308927,37.159508],[127.308241,37.160369],[127.30753,37.160257],[127.306903,37.161602],[127.306247,37.162552],[127.305934,37.162463]]]]},"properties":{"id":"FLD:30170:513:12184","layer":"FLOOD_TRACE","admin_code":"30170","sido_code":"30","flood_year":"2020","occurred_at":"2020-07-30","ended_at":"2020-07-30","begin_time":"0400","end_time":"1800","disaster_name":"2020.7.30 집중호우","cause_detail":"구거 및 배수구 범람","flood_grade":1,"flood_depth_m":0.443,"flood_area_m2":27894.5,"source_sn":513,"data_status":"actual","official_data":true,"is_prediction":false,"source":"행정안전부 침수흔적도 · 재난안전데이터공유플랫폼 DSSP-IF-00117","collected_at":"2026-08-19T16:46:51+09:00","source_crs":"EPSG:3857","display_badges":["행안부 침수흔적도","과거 기록"]}},{"type":"Feature","id":"FLD:30170:514:12185","geometry":{"type":"MultiPolygon","coordinates":[[[[127.311804,37.158315],[127.312155,37.157978],[127.313216,37.157374],[127.315636,37.157332],[127.315653,37.156457],[127.316024,37.156424],[127.316527,37.156594],[127.316725,37.156871],[127.316906,37.157321],[127.31693,37.157697],[127.316861,37.158255],[127.316652,37.158257],[127.316644,37.15734],[127.316707,37.157268],[127.316696,37.156858],[127.316534,37.156664],[127.316401,37.156573],[127.316188,37.156496],[127.316015,37.156465],[127.316054,37.158262],[127.315361,37.158272],[127.315345,37.157361],[127.315022,37.157368],[127.315004,37.159224],[127.314775,37.159233],[127.314636,37.159072],[127.314609,37.15829],[127.313661,37.158295],[127.313646,37.15738],[127.313249,37.157394],[127.312649,37.15773],[127.312672,37.158293],[127.311804,37.158315]]]]},"properties":{"id":"FLD:30170:514:12185","layer":"FLOOD_TRACE","admin_code":"30170","sido_code":"30","flood_year":"2020","occurred_at":"2020-07-30","ended_at":"2020-07-30","begin_time":"0400","end_time":"1800","disaster_name":"2020.7.30 집중호우","cause_detail":"구거 및 배수구 범람","flood_grade":1,"flood_depth_m":0.355,"flood_area_m2":32091.4,"source_sn":514,"data_status":"actual","official_data":true,"is_prediction":false,"source":"행정안전부 침수흔적도 · 재난안전데이터공유플랫폼 DSSP-IF-00117","collected_at":"2026-08-19T16:46:51+09:00","source_crs":"EPSG:3857","display_badges":["행안부 침수흔적도","과거 기록"]}},{"type":"Feature","id":"FLD:30170:515:12198","geometry":{"type":"MultiPolygon","coordinates":[[[[127.308229,37.163073],[127.307985,37.162751],[127.308886,37.162175],[127.308541,37.161704],[127.309574,37.161184],[127.309287,37.160818],[127.30987,37.160018],[127.309987,37.16014],[127.311323,37.159505],[127.311159,37.159283],[127.311874,37.158941],[127.311868,37.159214],[127.311923,37.159497],[127.311917,37.159643],[127.311748,37.160075],[127.311389,37.159583],[127.310124,37.160189],[127.310596,37.160737],[127.309558,37.161264],[127.309676,37.161415],[127.309299,37.161737],[127.309145,37.16205],[127.308953,37.162218],[127.308864,37.162332],[127.308808,37.162534],[127.308751,37.162625],[127.308676,37.162701],[127.308229,37.163073]]]]},"properties":{"id":"FLD:30170:515:12198","layer":"FLOOD_TRACE","admin_code":"30170","sido_code":"30","flood_year":"2020","occurred_at":"2020-07-30","ended_at":"2020-07-30","begin_time":"0000","end_time":"1800","disaster_name":"2020.7.30 집중호우","cause_detail":"구거 및 배수구 범람","flood_grade":1,"flood_depth_m":0.376,"flood_area_m2":21755.7,"source_sn":515,"data_status":"actual","official_data":true,"is_prediction":false,"source":"행정안전부 침수흔적도 · 재난안전데이터공유플랫폼 DSSP-IF-00117","collected_at":"2026-08-19T16:46:51+09:00","source_crs":"EPSG:3857","display_badges":["행안부 침수흔적도","과거 기록"]}},{"type":"Feature","id":"FLD:30170:518:12199","geometry":{"type":"MultiPolygon","coordinates":[[[[127.327801,36.254321],[127.327648,36.254259],[127.326684,36.253668],[127.326477,36.253527],[127.326448,36.253328],[127.325306,36.252935],[127.324185,36.252311],[127.32448,36.251664],[127.323403,36.251326],[127.323515,36.251089],[127.323577,36.250881],[127.32251,36.250551],[127.32257,36.250418],[127.323641,36.250719],[127.323619,36.250873],[127.324683,36.251205],[127.324785,36.251078],[127.326006,36.251461],[127.326153,36.251339],[127.326275,36.251192],[127.326505,36.251129],[127.326997,36.251049],[127.327532,36.250962],[127.327519,36.251044],[127.32746,36.251185],[127.327232,36.251673],[127.326872,36.252434],[127.327451,36.252615],[127.328018,36.252815],[127.327956,36.252965],[127.327909,36.253237],[127.327843,36.253423],[127.327806,36.253925],[127.327801,36.254321]]]]},"properties":{"id":"FLD:30170:518:12199","layer":"FLOOD_TRACE","admin_code":"30170","sido_code":"30","flood_year":"2020","occurred_at":"2020-07-30","ended_at":"2020-07-30","begin_time":"0400","end_time":"1800","disaster_name":"2020.7.30. 집중호우","cause_detail":"구거 및 배수구 범람","flood_grade":1,"flood_depth_m":0.277,"flood_area_m2":71607.5,"source_sn":518,"data_status":"actual","official_data":true,"is_prediction":false,"source":"행정안전부 침수흔적도 · 재난안전데이터공유플랫폼 DSSP-IF-00117","collected_at":"2026-08-19T16:46:51+09:00","source_crs":"EPSG:3857","display_badges":["행안부 침수흔적도","과거 기록"]}},{"type":"Feature","id":"FLD:30170:517:12200","geometry":{"type":"MultiPolygon","coordinates":[[[[127.314339,36.245816],[127.314377,36.245736],[127.315684,36.246151],[127.31623,36.245099],[127.316498,36.245251],[127.317184,36.24555],[127.317273,36.245591],[127.317493,36.245611],[127.318167,36.245545],[127.319472,36.245966],[127.319415,36.246157],[127.318397,36.245825],[127.318203,36.246111],[127.317121,36.245773],[127.316615,36.24681],[127.316489,36.247072],[127.315526,36.246431],[127.315637,36.24623],[127.314339,36.245816]]]]},"properties":{"id":"FLD:30170:517:12200","layer":"FLOOD_TRACE","admin_code":"30170","sido_code":"30","flood_year":"2020","occurred_at":"2020-07-30","ended_at":"2020-07-30","begin_time":"0400","end_time":"1800","disaster_name":"2020.7.30. 집중호우","cause_detail":"구거 및 배수구 범람","flood_grade":1,"flood_depth_m":0.302,"flood_area_m2":25502.1,"source_sn":517,"data_status":"actual","official_data":true,"is_prediction":false,"source":"행정안전부 침수흔적도 · 재난안전데이터공유플랫폼 DSSP-IF-00117","collected_at":"2026-08-19T16:46:51+09:00","source_crs":"EPSG:3857","display_badges":["행안부 침수흔적도","과거 기록"]}},{"type":"Feature","id":"FLD:30170:520:12201","geometry":{"type":"MultiPolygon","coordinates":[[[[127.319011,36.254935],[127.319259,36.254756],[127.318494,36.254007],[127.318741,36.253846],[127.319595,36.253264],[127.320334,36.253946],[127.320375,36.254001],[127.32104,36.25356],[127.32164,36.254133],[127.320886,36.254747],[127.319668,36.255466],[127.319603,36.255497],[127.319011,36.254935]]]]},"properties":{"id":"FLD:30170:520:12201","layer":"FLOOD_TRACE","admin_code":"30170","sido_code":"30","flood_year":"2020","occurred_at":"2020-07-30","ended_at":"2020-07-30","begin_time":"0400","end_time":"1800","disaster_name":"2020.7.30. 집중호우","cause_detail":"구거 및 배수구 범람","flood_grade":1,"flood_depth_m":0.339,"flood_area_m2":34978.8,"source_sn":520,"data_status":"actual","official_data":true,"is_prediction":false,"source":"행정안전부 침수흔적도 · 재난안전데이터공유플랫폼 DSSP-IF-00117","collected_at":"2026-08-19T16:46:51+09:00","source_crs":"EPSG:3857","display_badges":["행안부 침수흔적도","과거 기록"]}},{"type":"Feature","id":"FLD:30170:519:12202","geometry":{"type":"MultiPolygon","coordinates":[[[[127.311918,36.251698],[127.311769,36.251673],[127.312239,36.251614],[127.312655,36.251552],[127.3131,36.251515],[127.31328,36.251505],[127.313304,36.251629],[127.313297,36.251824],[127.313296,36.25216],[127.313273,36.252183],[127.313118,36.252102],[127.312829,36.251928],[127.312638,36.251865],[127.312112,36.251742],[127.311918,36.251698]]]]},"properties":{"id":"FLD:30170:519:12202","layer":"FLOOD_TRACE","admin_code":"30170","sido_code":"30","flood_year":"2020","occurred_at":"2020-07-30","ended_at":"2020-07-30","begin_time":"0400","end_time":"1800","disaster_name":"2020.7.30. 집중호우","cause_detail":"구거 및 배수구 범람","flood_grade":1,"flood_depth_m":0.266,"flood_area_m2":4501.2,"source_sn":519,"data_status":"actual","official_data":true,"is_prediction":false,"source":"행정안전부 침수흔적도 · 재난안전데이터공유플랫폼 DSSP-IF-00117","collected_at":"2026-08-19T16:46:51+09:00","source_crs":"EPSG:3857","display_badges":["행안부 침수흔적도","과거 기록"]}},{"type":"Feature","id":"FLD:30170:521:12203","geometry":{"type":"MultiPolygon","coordinates":[[[[127.329091,36.265179],[127.328408,36.264781],[127.327391,36.264157],[127.327277,36.263939],[127.326593,36.263557],[127.326753,36.263266],[127.326339,36.262258],[127.326384,36.261419],[127.326451,36.261068],[127.326708,36.260735],[127.326466,36.260211],[127.32663,36.259852],[127.327072,36.259617],[127.327167,36.260776],[127.327191,36.261018],[127.32687,36.261306],[127.326899,36.262227],[127.326456,36.262257],[127.326738,36.262843],[127.327601,36.262797],[127.328485,36.262842],[127.32901,36.262616],[127.329177,36.262726],[127.329308,36.263047],[127.328599,36.263096],[127.327788,36.263097],[127.327778,36.263736],[127.328404,36.264574],[127.329087,36.264942],[127.329091,36.265179]]]]},"properties":{"id":"FLD:30170:521:12203","layer":"FLOOD_TRACE","admin_code":"30170","sido_code":"30","flood_year":"2020","occurred_at":"2020-07-30","ended_at":"2020-07-30","begin_time":"0400","end_time":"1800","disaster_name":"2020.7.30 집중호우","cause_detail":"구거 및 배수구 범람","flood_grade":1,"flood_depth_m":0.36,"flood_area_m2":36126.7,"source_sn":521,"data_status":"actual","official_data":true,"is_prediction":false,"source":"행정안전부 침수흔적도 · 재난안전데이터공유플랫폼 DSSP-IF-00117","collected_at":"2026-08-19T16:46:51+09:00","source_crs":"EPSG:3857","display_badges":["행안부 침수흔적도","과거 기록"]}},{"type":"Feature","id":"FLD:30170:522:12204","geometry":{"type":"MultiPolygon","coordinates":[[[[127.322923,36.273751],[127.322681,36.273224],[127.322961,36.273169],[127.323452,36.273072],[127.323556,36.273038],[127.323544,36.27298],[127.324847,36.272147],[127.324316,36.271422],[127.32541,36.271086],[127.325199,36.270818],[127.325582,36.270376],[127.325391,36.270141],[127.324903,36.269826],[127.324782,36.269993],[127.324569,36.270001],[127.324488,36.269869],[127.324653,36.269683],[127.323971,36.269226],[127.324082,36.269006],[127.3245,36.269054],[127.324576,36.269138],[127.324718,36.269211],[127.32492,36.269548],[127.325816,36.270215],[127.32642,36.270985],[127.3247,36.271782],[127.324943,36.272127],[127.325271,36.27197],[127.325845,36.272322],[127.325525,36.272474],[127.325027,36.272636],[127.324863,36.27241],[127.324278,36.272589],[127.323532,36.273165],[127.323189,36.273551],[127.322923,36.273751]]]]},"properties":{"id":"FLD:30170:522:12204","layer":"FLOOD_TRACE","admin_code":"30170","sido_code":"30","flood_year":"2020","occurred_at":"2020-07-30","ended_at":"2020-07-30","begin_time":"0400","end_time":"1800","disaster_name":"2020.7.30 집중호우","cause_detail":"구거 및 배수구 범람","flood_grade":1,"flood_depth_m":0.434,"flood_area_m2":27697.4,"source_sn":522,"data_status":"actual","official_data":true,"is_prediction":false,"source":"행정안전부 침수흔적도 · 재난안전데이터공유플랫폼 DSSP-IF-00117","collected_at":"2026-08-19T16:46:51+09:00","source_crs":"EPSG:3857","display_badges":["행안부 침수흔적도","과거 기록"]}},{"type":"Feature","id":"FLD:30170:523:12205","geometry":{"type":"MultiPolygon","coordinates":[[[[127.364853,36.280649],[127.364541,36.280007],[127.365496,36.278848],[127.36567,36.278791],[127.364701,36.278244],[127.364707,36.27806],[127.364868,36.277905],[127.364888,36.277738],[127.364695,36.277169],[127.364704,36.277024],[127.364818,36.276991],[127.364964,36.277026],[127.365695,36.27691],[127.365665,36.276672],[127.365635,36.276454],[127.365813,36.276229],[127.365899,36.276135],[127.366258,36.276024],[127.366561,36.275888],[127.366742,36.27593],[127.366496,36.276338],[127.366293,36.276628],[127.366059,36.276764],[127.365986,36.276979],[127.365808,36.277022],[127.365691,36.276918],[127.365025,36.277026],[127.365204,36.278391],[127.365697,36.278765],[127.365789,36.279392],[127.365742,36.279577],[127.365383,36.27912],[127.364682,36.279886],[127.36481,36.280116],[127.364937,36.28045],[127.36504,36.28057],[127.364853,36.280649]]]]},"properties":{"id":"FLD:30170:523:12205","layer":"FLOOD_TRACE","admin_code":"30170","sido_code":"30","flood_year":"2020","occurred_at":"2020-07-30","ended_at":"2020-07-30","begin_time":"0400","end_time":"1800","disaster_name":"2020.7.30 집중호우","cause_detail":"구거 및 배수구 범람","flood_grade":1,"flood_depth_m":0.319,"flood_area_m2":18152.8,"source_sn":523,"data_status":"actual","official_data":true,"is_prediction":false,"source":"행정안전부 침수흔적도 · 재난안전데이터공유플랫폼 DSSP-IF-00117","collected_at":"2026-08-19T16:46:51+09:00","source_crs":"EPSG:3857","display_badges":["행안부 침수흔적도","과거 기록"]}},{"type":"Feature","id":"FLD:30170:527:12206","geometry":{"type":"MultiPolygon","coordinates":[[[[127.358748,36.28801],[127.358571,36.28705],[127.35837,36.286952],[127.358356,36.286903],[127.358727,36.286728],[127.358643,36.286471],[127.358647,36.286351],[127.358715,36.286241],[127.358617,36.285974],[127.358629,36.285885],[127.359706,36.286102],[127.359875,36.286093],[127.36074,36.286353],[127.361044,36.286211],[127.361353,36.286653],[127.361414,36.286792],[127.361515,36.286867],[127.361555,36.286933],[127.361231,36.287162],[127.36074,36.286374],[127.35989,36.286109],[127.36003,36.286476],[127.360092,36.286722],[127.360108,36.28689],[127.360086,36.286986],[127.359964,36.28698],[127.359768,36.28635],[127.359753,36.286221],[127.359717,36.28612],[127.358736,36.28593],[127.358916,36.286239],[127.359154,36.286465],[127.359435,36.287007],[127.359431,36.287197],[127.359116,36.287355],[127.359376,36.287883],[127.359589,36.288012],[127.358748,36.28801]]]]},"properties":{"id":"FLD:30170:527:12206","layer":"FLOOD_TRACE","admin_code":"30170","sido_code":"30","flood_year":"2020","occurred_at":"2020-07-30","ended_at":"2020-07-30","begin_time":"0400","end_time":"1800","disaster_name":"2020.7.30 집중호우","cause_detail":"구거 및 배수구 범람","flood_grade":1,"flood_depth_m":0.347,"flood_area_m2":17235.9,"source_sn":527,"data_status":"actual","official_data":true,"is_prediction":false,"source":"행정안전부 침수흔적도 · 재난안전데이터공유플랫폼 DSSP-IF-00117","collected_at":"2026-08-19T16:46:51+09:00","source_crs":"EPSG:3857","display_badges":["행안부 침수흔적도","과거 기록"]}},{"type":"Feature","id":"FLD:30170:524:12235","geometry":{"type":"MultiPolygon","coordinates":[[[[127.341118,36.28284],[127.341011,36.282574],[127.340973,36.282255],[127.341531,36.282139],[127.342392,36.282202],[127.343105,36.282095],[127.344193,36.281842],[127.345612,36.280917],[127.346062,36.280498],[127.346557,36.280089],[127.346802,36.278878],[127.346974,36.278926],[127.346893,36.279086],[127.346818,36.278893],[127.346581,36.280102],[127.346721,36.280299],[127.3466,36.280563],[127.346338,36.280298],[127.346068,36.280544],[127.346351,36.280602],[127.346582,36.28057],[127.346678,36.280833],[127.346515,36.281114],[127.346125,36.281058],[127.345777,36.280897],[127.345744,36.280998],[127.346512,36.281203],[127.34624,36.281549],[127.345723,36.28164],[127.345477,36.281428],[127.345625,36.28097],[127.344172,36.28189],[127.344045,36.282137],[127.342993,36.282399],[127.342708,36.28251],[127.342433,36.282612],[127.342322,36.282585],[127.34227,36.282416],[127.342287,36.282218],[127.341525,36.282161],[127.341769,36.282752],[127.341118,36.28284]]]]},"properties":{"id":"FLD:30170:524:12235","layer":"FLOOD_TRACE","admin_code":"30170","sido_code":"30","flood_year":"2020","occurred_at":"2020-07-30","ended_at":"2020-07-30","begin_time":"0400","end_time":"1800","disaster_name":"2020.7.30 집중호우","cause_detail":"구거 및 배수구 범람","flood_grade":1,"flood_depth_m":0.476,"flood_area_m2":20092.4,"source_sn":524,"data_status":"actual","official_data":true,"is_prediction":false,"source":"행정안전부 침수흔적도 · 재난안전데이터공유플랫폼 DSSP-IF-00117","collected_at":"2026-08-19T16:46:51+09:00","source_crs":"EPSG:3857","display_badges":["행안부 침수흔적도","과거 기록"]}},{"type":"Feature","id":"FLD:30170:525:12236","geometry":{"type":"MultiPolygon","coordinates":[[[[127.34823,36.283272],[127.34823,36.283235],[127.34828,36.283167],[127.348487,36.283136],[127.348504,36.283192],[127.348679,36.283144],[127.349138,36.28364],[127.349179,36.283613],[127.349153,36.283533],[127.349182,36.283429],[127.349331,36.283305],[127.349684,36.283178],[127.350201,36.283157],[127.351699,36.284102],[127.35188,36.284208],[127.352049,36.284389],[127.351985,36.284505],[127.351958,36.284496],[127.351955,36.284554],[127.352058,36.284679],[127.3519,36.284633],[127.351817,36.284591],[127.351658,36.284559],[127.351482,36.284389],[127.351558,36.284224],[127.351786,36.284424],[127.351865,36.284232],[127.350281,36.283226],[127.350163,36.283427],[127.349964,36.283575],[127.350067,36.283669],[127.350265,36.283723],[127.350455,36.283811],[127.35055,36.283797],[127.35064,36.283929],[127.350253,36.283973],[127.350076,36.28393],[127.349892,36.283937],[127.349652,36.283974],[127.34944,36.283973],[127.349212,36.283842],[127.349137,36.283778],[127.349067,36.283664],[127.349121,36.283648],[127.348942,36.283459],[127.348848,36.283647],[127.348965,36.283897],[127.349108,36.283961],[127.348931,36.283997],[127.348621,36.283864],[127.348563,36.283579],[127.348622,36.283466],[127.348659,36.283401],[127.348772,36.283271],[127.348666,36.283169],[127.348272,36.283281],[127.34823,36.283272]]]]},"properties":{"id":"FLD:30170:525:12236","layer":"FLOOD_TRACE","admin_code":"30170","sido_code":"30","flood_year":"2020","occurred_at":"2020-07-30","ended_at":"2020-07-30","begin_time":"0400","end_time":"1800","disaster_name":"2020.7.30 집중호우","cause_detail":"구거 및 배수구 범람","flood_grade":1,"flood_depth_m":0.456,"flood_area_m2":11779,"source_sn":525,"data_status":"actual","official_data":true,"is_prediction":false,"source":"행정안전부 침수흔적도 · 재난안전데이터공유플랫폼 DSSP-IF-00117","collected_at":"2026-08-19T16:46:51+09:00","source_crs":"EPSG:3857","display_badges":["행안부 침수흔적도","과거 기록"]}},{"type":"Feature","id":"FLD:30170:526:12237","geometry":{"type":"MultiPolygon","coordinates":[[[[127.356676,36.290208],[127.356664,36.290074],[127.35668,36.289979],[127.356736,36.289848],[127.356682,36.289061],[127.356375,36.289108],[127.356284,36.288788],[127.355908,36.288832],[127.355886,36.288751],[127.355886,36.28846],[127.355856,36.28832],[127.355381,36.288354],[127.355335,36.288234],[127.355425,36.288223],[127.355322,36.287935],[127.355311,36.28782],[127.354996,36.287877],[127.355034,36.288043],[127.354758,36.288191],[127.354645,36.288022],[127.354708,36.287837],[127.354709,36.287611],[127.354704,36.287329],[127.35495,36.28735],[127.355215,36.287519],[127.355654,36.287572],[127.355746,36.287661],[127.355873,36.287922],[127.356303,36.286722],[127.356182,36.286584],[127.35608,36.28644],[127.356015,36.286294],[127.356013,36.286178],[127.355985,36.286123],[127.356312,36.286093],[127.356252,36.285805],[127.356215,36.285556],[127.356209,36.285381],[127.355155,36.285173],[127.354941,36.285197],[127.354785,36.285175],[127.354791,36.284639],[127.354871,36.284324],[127.35431,36.284284],[127.354193,36.284823],[127.353903,36.284768],[127.353687,36.28458],[127.353521,36.2844],[127.353848,36.284019],[127.354312,36.284266],[127.354864,36.284301],[127.355159,36.283152],[127.355187,36.283122],[127.355479,36.283216],[127.355618,36.283283],[127.355624,36.283183],[127.355656,36.283118],[127.355673,36.283037],[127.355728,36.282951],[127.355134,36.282493],[127.354543,36.282449],[127.354466,36.283102],[127.354092,36.282978],[127.3539,36.282855],[127.354279,36.282279],[127.354543,36.282436],[127.355153,36.282481],[127.355328,36.281973],[127.35556,36.282017],[127.355514,36.282169],[127.355372,36.282551],[127.355153,36.282491],[127.355766,36.282955],[127.355872,36.282982],[127.355749,36.283319],[127.355721,36.283363],[127.355577,36.283278],[127.355544,36.283336],[127.355493,36.283555],[127.355445,36.283599],[127.355186,36.283155],[127.354893,36.284304],[127.355072,36.284332],[127.355072,36.28437],[127.355022,36.284431],[127.355019,36.284534],[127.355036,36.28463],[127.355058,36.284661],[127.355062,36.284751],[127.355106,36.284877],[127.355143,36.284895],[127.355181,36.284967],[127.355165,36.28516],[127.356216,36.285372],[127.356323,36.28535],[127.356353,36.285589],[127.356447,36.286094],[127.356311,36.286117],[127.356346,36.286287],[127.356364,36.286452],[127.356312,36.286743],[127.355881,36.287939],[127.356122,36.288122],[127.356166,36.288209],[127.356301,36.28816],[127.356406,36.287995],[127.356472,36.287936],[127.356704,36.28906],[127.35675,36.289846],[127.356824,36.28996],[127.356853,36.290128],[127.356676,36.290208]]]]},"properties":{"id":"FLD:30170:526:12237","layer":"FLOOD_TRACE","admin_code":"30170","sido_code":"30","flood_year":"2020","occurred_at":"2020-07-30","ended_at":"2020-07-30","begin_time":"0400","end_time":"1800","disaster_name":"2020.7.30 집중호우","cause_detail":"구거 및 배수구 범람","flood_grade":1,"flood_depth_m":0.319,"flood_area_m2":29759.5,"source_sn":526,"data_status":"actual","official_data":true,"is_prediction":false,"source":"행정안전부 침수흔적도 · 재난안전데이터공유플랫폼 DSSP-IF-00117","collected_at":"2026-08-19T16:46:51+09:00","source_crs":"EPSG:3857","display_badges":["행안부 침수흔적도","과거 기록"]}},{"type":"Feature","id":"FLD:30170:19:35131","geometry":{"type":"MultiPolygon","coordinates":[[[[127.355753,36.313682],[127.355653,36.313937],[127.355425,36.314035],[127.355238,36.313952],[127.355464,36.313523],[127.355753,36.313682]]]]},"properties":{"id":"FLD:30170:19:35131","layer":"FLOOD_TRACE","admin_code":"30170","sido_code":"30","flood_year":"2011","occurred_at":"2011-07-10","ended_at":"2011-07-11","begin_time":"0600","end_time":"1200","disaster_name":"호우","cause_detail":"범람","flood_grade":2,"flood_depth_m":0.987,"flood_area_m2":2609,"source_sn":19,"data_status":"actual","official_data":true,"is_prediction":false,"source":"행정안전부 침수흔적도 · 재난안전데이터공유플랫폼 DSSP-IF-00117","collected_at":"2026-08-19T16:46:51+09:00","source_crs":"EPSG:3857","display_badges":["행안부 침수흔적도","과거 기록"]}},{"type":"Feature","id":"FLD:30170:20:35132","geometry":{"type":"MultiPolygon","coordinates":[[[[127.355464,36.313523],[127.355612,36.313241],[127.355942,36.313358],[127.355753,36.313682],[127.355464,36.313523]]]]},"properties":{"id":"FLD:30170:20:35132","layer":"FLOOD_TRACE","admin_code":"30170","sido_code":"30","flood_year":"2011","occurred_at":"2011-07-10","ended_at":"2011-07-11","begin_time":"0600","end_time":"1200","disaster_name":"호우","cause_detail":"범람","flood_grade":2,"flood_depth_m":0.505,"flood_area_m2":2609,"source_sn":20,"data_status":"actual","official_data":true,"is_prediction":false,"source":"행정안전부 침수흔적도 · 재난안전데이터공유플랫폼 DSSP-IF-00117","collected_at":"2026-08-19T16:46:51+09:00","source_crs":"EPSG:3857","display_badges":["행안부 침수흔적도","과거 기록"]}},{"type":"Feature","id":"FLD:30170:26:35133","geometry":{"type":"MultiPolygon","coordinates":[[[[127.350071,36.329971],[127.353284,36.329971],[127.35329,36.331545],[127.3511,36.331596],[127.350079,36.331592],[127.350071,36.329971]]]]},"properties":{"id":"FLD:30170:26:35133","layer":"FLOOD_TRACE","admin_code":"30170","sido_code":"30","flood_year":"2011","occurred_at":"2011-07-10","ended_at":"2011-07-11","begin_time":"0600","end_time":"1200","disaster_name":"호우","cause_detail":"범람","flood_grade":2,"flood_depth_m":0.973,"flood_area_m2":125724,"source_sn":26,"data_status":"actual","official_data":true,"is_prediction":false,"source":"행정안전부 침수흔적도 · 재난안전데이터공유플랫폼 DSSP-IF-00117","collected_at":"2026-08-19T16:46:51+09:00","source_crs":"EPSG:3857","display_badges":["행안부 침수흔적도","과거 기록"]}},{"type":"Feature","id":"FLD:30170:25:35134","geometry":{"type":"MultiPolygon","coordinates":[[[[127.350051,36.327183],[127.351366,36.32718],[127.35238,36.327187],[127.352379,36.328119],[127.353204,36.328119],[127.353303,36.328557],[127.353301,36.329036],[127.351688,36.329028],[127.351697,36.329971],[127.350071,36.329971],[127.350079,36.331592],[127.349027,36.331589],[127.349024,36.330927],[127.349027,36.330891],[127.349021,36.329996],[127.349003,36.328123],[127.349329,36.328096],[127.349351,36.326217],[127.349335,36.325321],[127.350023,36.325318],[127.350051,36.327183]]]]},"properties":{"id":"FLD:30170:25:35134","layer":"FLOOD_TRACE","admin_code":"30170","sido_code":"30","flood_year":"2011","occurred_at":"2011-07-10","ended_at":"2011-07-11","begin_time":"0600","end_time":"1200","disaster_name":"호우","cause_detail":"범람","flood_grade":1,"flood_depth_m":0.246,"flood_area_m2":125724,"source_sn":25,"data_status":"actual","official_data":true,"is_prediction":false,"source":"행정안전부 침수흔적도 · 재난안전데이터공유플랫폼 DSSP-IF-00117","collected_at":"2026-08-19T16:46:51+09:00","source_crs":"EPSG:3857","display_badges":["행안부 침수흔적도","과거 기록"]}},{"type":"Feature","id":"FLD:30170:22:35135","geometry":{"type":"MultiPolygon","coordinates":[[[[127.351366,36.32718],[127.351358,36.325313],[127.351901,36.325311],[127.352453,36.326146],[127.352547,36.326269],[127.353027,36.327197],[127.35238,36.327187],[127.351366,36.32718]]]]},"properties":{"id":"FLD:30170:22:35135","layer":"FLOOD_TRACE","admin_code":"30170","sido_code":"30","flood_year":"2011","occurred_at":"2011-07-10","ended_at":"2011-07-11","begin_time":"0600","end_time":"1200","disaster_name":"호우","cause_detail":"범람","flood_grade":3,"flood_depth_m":1.059,"flood_area_m2":125724,"source_sn":22,"data_status":"actual","official_data":true,"is_prediction":false,"source":"행정안전부 침수흔적도 · 재난안전데이터공유플랫폼 DSSP-IF-00117","collected_at":"2026-08-19T16:46:51+09:00","source_crs":"EPSG:3857","display_badges":["행안부 침수흔적도","과거 기록"]}},{"type":"Feature","id":"FLD:30170:21:35136","geometry":{"type":"MultiPolygon","coordinates":[[[[127.351688,36.329028],[127.353301,36.329036],[127.353301,36.329052],[127.353283,36.32996],[127.353284,36.329971],[127.351697,36.329971],[127.351688,36.329028]]]]},"properties":{"id":"FLD:30170:21:35136","layer":"FLOOD_TRACE","admin_code":"30170","sido_code":"30","flood_year":"2011","occurred_at":"2011-07-10","ended_at":"2011-07-11","begin_time":"0600","end_time":"1200","disaster_name":"호우","cause_detail":"범람","flood_grade":2,"flood_depth_m":0.614,"flood_area_m2":125724,"source_sn":21,"data_status":"actual","official_data":true,"is_prediction":false,"source":"행정안전부 침수흔적도 · 재난안전데이터공유플랫폼 DSSP-IF-00117","collected_at":"2026-08-19T16:46:51+09:00","source_crs":"EPSG:3857","display_badges":["행안부 침수흔적도","과거 기록"]}},{"type":"Feature","id":"FLD:30170:23:35137","geometry":{"type":"MultiPolygon","coordinates":[[[[127.350051,36.327183],[127.350023,36.325318],[127.351358,36.325313],[127.351366,36.32718],[127.350051,36.327183]]]]},"properties":{"id":"FLD:30170:23:35137","layer":"FLOOD_TRACE","admin_code":"30170","sido_code":"30","flood_year":"2011","occurred_at":"2011-07-10","ended_at":"2011-07-11","begin_time":"0600","end_time":"1200","disaster_name":"호우","cause_detail":"범람","flood_grade":2,"flood_depth_m":0.584,"flood_area_m2":125724,"source_sn":23,"data_status":"actual","official_data":true,"is_prediction":false,"source":"행정안전부 침수흔적도 · 재난안전데이터공유플랫폼 DSSP-IF-00117","collected_at":"2026-08-19T16:46:51+09:00","source_crs":"EPSG:3857","display_badges":["행안부 침수흔적도","과거 기록"]}},{"type":"Feature","id":"FLD:30170:24:35156","geometry":{"type":"MultiPolygon","coordinates":[[[[127.349657,36.321551],[127.349664,36.320651],[127.349325,36.3206],[127.349322,36.319719],[127.349938,36.319708],[127.350163,36.319734],[127.350064,36.320104],[127.350056,36.320595],[127.350652,36.320611],[127.35059,36.321552],[127.349657,36.321551]]]]},"properties":{"id":"FLD:30170:24:35156","layer":"FLOOD_TRACE","admin_code":"30170","sido_code":"30","flood_year":"2011","occurred_at":"2011-07-10","ended_at":"2011-07-11","begin_time":"0600","end_time":"1200","disaster_name":"호우","cause_detail":"범람","flood_grade":1,"flood_depth_m":0.246,"flood_area_m2":125724,"source_sn":24,"data_status":"actual","official_data":true,"is_prediction":false,"source":"행정안전부 침수흔적도 · 재난안전데이터공유플랫폼 DSSP-IF-00117","collected_at":"2026-08-19T16:46:51+09:00","source_crs":"EPSG:3857","display_badges":["행안부 침수흔적도","과거 기록"]}},{"type":"Feature","id":"FLD:30170:27:35157","geometry":{"type":"MultiPolygon","coordinates":[[[[127.3302,36.290544],[127.330206,36.290751],[127.33016,36.291006],[127.330322,36.291318],[127.330305,36.291371],[127.329904,36.291242],[127.32967,36.291133],[127.3295,36.291066],[127.329458,36.291073],[127.329148,36.290745],[127.329107,36.290476],[127.329384,36.290527],[127.3302,36.290544]]]]},"properties":{"id":"FLD:30170:27:35157","layer":"FLOOD_TRACE","admin_code":"30170","sido_code":"30","flood_year":"2011","occurred_at":"2011-07-10","ended_at":"2011-07-11","begin_time":"0000","end_time":"0400","disaster_name":"호우","cause_detail":"범람","flood_grade":2,"flood_depth_m":0.535,"flood_area_m2":6339,"source_sn":27,"data_status":"actual","official_data":true,"is_prediction":false,"source":"행정안전부 침수흔적도 · 재난안전데이터공유플랫폼 DSSP-IF-00117","collected_at":"2026-08-19T16:46:51+09:00","source_crs":"EPSG:3857","display_badges":["행안부 침수흔적도","과거 기록"]}},{"type":"Feature","id":"FLD:30170:28:35158","geometry":{"type":"MultiPolygon","coordinates":[[[[127.340223,36.278728],[127.341742,36.277947],[127.341521,36.277448],[127.341856,36.277273],[127.342812,36.276631],[127.342875,36.276531],[127.343007,36.276034],[127.343264,36.27562],[127.34329,36.275244],[127.343511,36.274946],[127.343892,36.275377],[127.343488,36.275886],[127.343197,36.276255],[127.342921,36.276679],[127.342429,36.27765],[127.34182,36.278199],[127.341508,36.278459],[127.341054,36.278718],[127.340317,36.278949],[127.340223,36.278728]]]]},"properties":{"id":"FLD:30170:28:35158","layer":"FLOOD_TRACE","admin_code":"30170","sido_code":"30","flood_year":"2011","occurred_at":"2011-07-10","ended_at":"2011-07-14","begin_time":"0600","end_time":"1200","disaster_name":"호우","cause_detail":"범람","flood_grade":2,"flood_depth_m":1.825,"flood_area_m2":56148.2,"source_sn":28,"data_status":"actual","official_data":true,"is_prediction":false,"source":"행정안전부 침수흔적도 · 재난안전데이터공유플랫폼 DSSP-IF-00117","collected_at":"2026-08-19T16:46:51+09:00","source_crs":"EPSG:3857","display_badges":["행안부 침수흔적도","과거 기록"]}},{"type":"Feature","id":"FLD:30170:29:35159","geometry":{"type":"MultiPolygon","coordinates":[[[[127.341742,36.277947],[127.340223,36.278728],[127.340317,36.278949],[127.340036,36.279037],[127.338169,36.27949],[127.338078,36.279427],[127.338932,36.279081],[127.339128,36.278834],[127.338947,36.27859],[127.339324,36.278345],[127.339477,36.278204],[127.340866,36.277685],[127.341458,36.277481],[127.341521,36.277448],[127.341742,36.277947]]]]},"properties":{"id":"FLD:30170:29:35159","layer":"FLOOD_TRACE","admin_code":"30170","sido_code":"30","flood_year":"2011","occurred_at":"2011-07-10","ended_at":"2011-07-14","begin_time":"0600","end_time":"1200","disaster_name":"호우","cause_detail":"범람","flood_grade":2,"flood_depth_m":0.66,"flood_area_m2":56148.2,"source_sn":29,"data_status":"actual","official_data":true,"is_prediction":false,"source":"행정안전부 침수흔적도 · 재난안전데이터공유플랫폼 DSSP-IF-00117","collected_at":"2026-08-19T16:46:51+09:00","source_crs":"EPSG:3857","display_badges":["행안부 침수흔적도","과거 기록"]}},{"type":"Feature","id":"FLD:30170:32:35160","geometry":{"type":"MultiPolygon","coordinates":[[[[127.302951,36.255769],[127.303302,36.25588],[127.303333,36.255911],[127.302944,36.256733],[127.302549,36.256613],[127.302951,36.255769]]]]},"properties":{"id":"FLD:30170:32:35160","layer":"FLOOD_TRACE","admin_code":"30170","sido_code":"30","flood_year":"2011","occurred_at":"2011-07-10","ended_at":"2011-07-14","begin_time":"0600","end_time":"1200","disaster_name":"호우","cause_detail":"범람","flood_grade":1,"flood_depth_m":0.327,"flood_area_m2":4412.6,"source_sn":32,"data_status":"actual","official_data":true,"is_prediction":false,"source":"행정안전부 침수흔적도 · 재난안전데이터공유플랫폼 DSSP-IF-00117","collected_at":"2026-08-19T16:46:51+09:00","source_crs":"EPSG:3857","display_badges":["행안부 침수흔적도","과거 기록"]}},{"type":"Feature","id":"FLD:30170:31:35161","geometry":{"type":"MultiPolygon","coordinates":[[[[127.304842,36.257949],[127.304735,36.258185],[127.304557,36.258345],[127.304203,36.25786],[127.304803,36.257081],[127.304941,36.257107],[127.305279,36.257547],[127.304842,36.257949]]]]},"properties":{"id":"FLD:30170:31:35161","layer":"FLOOD_TRACE","admin_code":"30170","sido_code":"30","flood_year":"2011","occurred_at":"2011-07-10","ended_at":"2011-07-14","begin_time":"0600","end_time":"1200","disaster_name":"호우","cause_detail":"범람","flood_grade":1,"flood_depth_m":0.389,"flood_area_m2":4412.6,"source_sn":31,"data_status":"actual","official_data":true,"is_prediction":false,"source":"행정안전부 침수흔적도 · 재난안전데이터공유플랫폼 DSSP-IF-00117","collected_at":"2026-08-19T16:46:51+09:00","source_crs":"EPSG:3857","display_badges":["행안부 침수흔적도","과거 기록"]}},{"type":"Feature","id":"FLD:30170:30:35162","geometry":{"type":"MultiPolygon","coordinates":[[[[127.303706,36.255915],[127.303987,36.255466],[127.30403,36.255425],[127.3041,36.255404],[127.304501,36.255659],[127.304237,36.255981],[127.304168,36.256005],[127.303706,36.255915]]]]},"properties":{"id":"FLD:30170:30:35162","layer":"FLOOD_TRACE","admin_code":"30170","sido_code":"30","flood_year":"2011","occurred_at":"2011-07-10","ended_at":"2011-07-14","begin_time":"0600","end_time":"1200","disaster_name":"호우","cause_detail":"범람","flood_grade":2,"flood_depth_m":0.574,"flood_area_m2":4412.6,"source_sn":30,"data_status":"actual","official_data":true,"is_prediction":false,"source":"행정안전부 침수흔적도 · 재난안전데이터공유플랫폼 DSSP-IF-00117","collected_at":"2026-08-19T16:46:51+09:00","source_crs":"EPSG:3857","display_badges":["행안부 침수흔적도","과거 기록"]}},{"type":"Feature","id":"FLD:30170:34:35163","geometry":{"type":"MultiPolygon","coordinates":[[[[127.321592,36.253226],[127.321885,36.25332],[127.322127,36.253431],[127.32218,36.253537],[127.322153,36.253625],[127.321902,36.253877],[127.321421,36.254298],[127.321187,36.254487],[127.320509,36.254962],[127.319596,36.255474],[127.319014,36.254926],[127.320799,36.253709],[127.321293,36.253359],[127.321592,36.253226]]]]},"properties":{"id":"FLD:30170:34:35163","layer":"FLOOD_TRACE","admin_code":"30170","sido_code":"30","flood_year":"2011","occurred_at":"2011-07-10","ended_at":"2011-07-14","begin_time":"0600","end_time":"1200","disaster_name":"호우","cause_detail":"범람","flood_grade":3,"flood_depth_m":1.214,"flood_area_m2":15565,"source_sn":34,"data_status":"actual","official_data":true,"is_prediction":false,"source":"행정안전부 침수흔적도 · 재난안전데이터공유플랫폼 DSSP-IF-00117","collected_at":"2026-08-19T16:46:51+09:00","source_crs":"EPSG:3857","display_badges":["행안부 침수흔적도","과거 기록"]}},{"type":"Feature","id":"FLD:30170:33:35164","geometry":{"type":"MultiPolygon","coordinates":[[[[127.324098,36.249872],[127.325029,36.250404],[127.324887,36.250623],[127.324207,36.250527],[127.323833,36.25047],[127.324098,36.249872]]]]},"properties":{"id":"FLD:30170:33:35164","layer":"FLOOD_TRACE","admin_code":"30170","sido_code":"30","flood_year":"2011","occurred_at":"2011-07-10","ended_at":"2011-07-14","begin_time":"0600","end_time":"1200","disaster_name":"호우","cause_detail":"범람","flood_grade":2,"flood_depth_m":1.704,"flood_area_m2":15565,"source_sn":33,"data_status":"actual","official_data":true,"is_prediction":false,"source":"행정안전부 침수흔적도 · 재난안전데이터공유플랫폼 DSSP-IF-00117","collected_at":"2026-08-19T16:46:51+09:00","source_crs":"EPSG:3857","display_badges":["행안부 침수흔적도","과거 기록"]}},{"type":"Feature","id":"FLD:30170:36:35221","geometry":{"type":"MultiPolygon","coordinates":[[[[127.331419,36.267557],[127.331459,36.267411],[127.330295,36.266942],[127.330204,36.266866],[127.330362,36.266863],[127.330502,36.266881],[127.330625,36.266946],[127.330645,36.266921],[127.331118,36.267173],[127.331206,36.267173],[127.331458,36.267262],[127.331478,36.267361],[127.33148,36.267412],[127.331757,36.267381],[127.331872,36.267384],[127.332281,36.267527],[127.332528,36.267604],[127.332304,36.267883],[127.332245,36.267983],[127.331419,36.267557]]]]},"properties":{"id":"FLD:30170:36:35221","layer":"FLOOD_TRACE","admin_code":"30170","sido_code":"30","flood_year":"2011","occurred_at":"2011-07-10","ended_at":"2011-07-14","begin_time":"0600","end_time":"1200","disaster_name":"호우","cause_detail":"범람","flood_grade":2,"flood_depth_m":1.866,"flood_area_m2":8530,"source_sn":36,"data_status":"actual","official_data":true,"is_prediction":false,"source":"행정안전부 침수흔적도 · 재난안전데이터공유플랫폼 DSSP-IF-00117","collected_at":"2026-08-19T16:46:51+09:00","source_crs":"EPSG:3857","display_badges":["행안부 침수흔적도","과거 기록"]}},{"type":"Feature","id":"FLD:30170:35:35222","geometry":{"type":"MultiPolygon","coordinates":[[[[127.330096,36.265806],[127.32944,36.265462],[127.329186,36.265285],[127.328374,36.264781],[127.328451,36.264627],[127.329512,36.265172],[127.330235,36.265647],[127.330096,36.265806]]]]},"properties":{"id":"FLD:30170:35:35222","layer":"FLOOD_TRACE","admin_code":"30170","sido_code":"30","flood_year":"2011","occurred_at":"2011-07-10","ended_at":"2011-07-14","begin_time":"0600","end_time":"1200","disaster_name":"호우","cause_detail":"범람","flood_grade":3,"flood_depth_m":1.258,"flood_area_m2":8530,"source_sn":35,"data_status":"actual","official_data":true,"is_prediction":false,"source":"행정안전부 침수흔적도 · 재난안전데이터공유플랫폼 DSSP-IF-00117","collected_at":"2026-08-19T16:46:51+09:00","source_crs":"EPSG:3857","display_badges":["행안부 침수흔적도","과거 기록"]}},{"type":"Feature","id":"FLD:30170:38:35223","geometry":{"type":"MultiPolygon","coordinates":[[[[127.330235,36.265647],[127.330903,36.266087],[127.331528,36.266217],[127.331723,36.266299],[127.331887,36.2664],[127.332014,36.2665],[127.331896,36.266684],[127.331312,36.26646],[127.331093,36.266248],[127.330801,36.266177],[127.330096,36.265806],[127.330235,36.265647]]]]},"properties":{"id":"FLD:30170:38:35223","layer":"FLOOD_TRACE","admin_code":"30170","sido_code":"30","flood_year":"2011","occurred_at":"2011-07-10","ended_at":"2011-07-14","begin_time":"0600","end_time":"1200","disaster_name":"호우","cause_detail":"범람","flood_grade":2,"flood_depth_m":1.876,"flood_area_m2":8530,"source_sn":38,"data_status":"actual","official_data":true,"is_prediction":false,"source":"행정안전부 침수흔적도 · 재난안전데이터공유플랫폼 DSSP-IF-00117","collected_at":"2026-08-19T16:46:51+09:00","source_crs":"EPSG:3857","display_badges":["행안부 침수흔적도","과거 기록"]}},{"type":"Feature","id":"FLD:30170:37:35224","geometry":{"type":"MultiPolygon","coordinates":[[[[127.331459,36.267411],[127.331419,36.267557],[127.332245,36.267983],[127.332162,36.268125],[127.331516,36.267773],[127.331338,36.26765],[127.330813,36.267317],[127.330661,36.267204],[127.33056,36.267158],[127.330495,36.26711],[127.330295,36.266942],[127.331459,36.267411]]]]},"properties":{"id":"FLD:30170:37:35224","layer":"FLOOD_TRACE","admin_code":"30170","sido_code":"30","flood_year":"2011","occurred_at":"2011-07-10","ended_at":"2011-07-14","begin_time":"0600","end_time":"1200","disaster_name":"호우","cause_detail":"범람","flood_grade":2,"flood_depth_m":1.535,"flood_area_m2":8530,"source_sn":37,"data_status":"actual","official_data":true,"is_prediction":false,"source":"행정안전부 침수흔적도 · 재난안전데이터공유플랫폼 DSSP-IF-00117","collected_at":"2026-08-19T16:46:51+09:00","source_crs":"EPSG:3857","display_badges":["행안부 침수흔적도","과거 기록"]}},{"type":"Feature","id":"FLD:30170:41:35233","geometry":{"type":"MultiPolygon","coordinates":[[[[127.356312,36.286101],[127.35634,36.286086],[127.356472,36.28607],[127.356614,36.287001],[127.356385,36.286989],[127.356347,36.286964],[127.356327,36.286741],[127.356312,36.286101]]]]},"properties":{"id":"FLD:30170:41:35233","layer":"FLOOD_TRACE","admin_code":"30170","sido_code":"30","flood_year":"2011","occurred_at":"2011-07-10","ended_at":"2011-07-11","begin_time":"0600","end_time":"1200","disaster_name":"호우","cause_detail":"범람","flood_grade":2,"flood_depth_m":1.707,"flood_area_m2":2169.6,"source_sn":41,"data_status":"actual","official_data":true,"is_prediction":false,"source":"행정안전부 침수흔적도 · 재난안전데이터공유플랫폼 DSSP-IF-00117","collected_at":"2026-08-19T16:46:51+09:00","source_crs":"EPSG:3857","display_badges":["행안부 침수흔적도","과거 기록"]}},{"type":"Feature","id":"FLD:30170:39:35234","geometry":{"type":"MultiPolygon","coordinates":[[[[127.355792,36.283802],[127.355864,36.283438],[127.355905,36.283402],[127.355995,36.283221],[127.356056,36.283797],[127.355792,36.283802]]]]},"properties":{"id":"FLD:30170:39:35234","layer":"FLOOD_TRACE","admin_code":"30170","sido_code":"30","flood_year":"2011","occurred_at":"2011-07-10","ended_at":"2011-07-11","begin_time":"0600","end_time":"1200","disaster_name":"호우","cause_detail":"범람","flood_grade":3,"flood_depth_m":1.032,"flood_area_m2":2169.6,"source_sn":39,"data_status":"actual","official_data":true,"is_prediction":false,"source":"행정안전부 침수흔적도 · 재난안전데이터공유플랫폼 DSSP-IF-00117","collected_at":"2026-08-19T16:46:51+09:00","source_crs":"EPSG:3857","display_badges":["행안부 침수흔적도","과거 기록"]}},{"type":"Feature","id":"FLD:30170:40:35235","geometry":{"type":"MultiPolygon","coordinates":[[[[127.356327,36.286741],[127.356049,36.286359],[127.356013,36.286295],[127.355997,36.286226],[127.355993,36.286125],[127.356312,36.286101],[127.356327,36.286741]]]]},"properties":{"id":"FLD:30170:40:35235","layer":"FLOOD_TRACE","admin_code":"30170","sido_code":"30","flood_year":"2011","occurred_at":"2011-07-10","ended_at":"2011-07-11","begin_time":"0600","end_time":"1200","disaster_name":"호우","cause_detail":"범람","flood_grade":2,"flood_depth_m":0.725,"flood_area_m2":2169.6,"source_sn":40,"data_status":"actual","official_data":true,"is_prediction":false,"source":"행정안전부 침수흔적도 · 재난안전데이터공유플랫폼 DSSP-IF-00117","collected_at":"2026-08-19T16:46:51+09:00","source_crs":"EPSG:3857","display_badges":["행안부 침수흔적도","과거 기록"]}},{"type":"Feature","id":"FLD:30170:42:35236","geometry":{"type":"MultiPolygon","coordinates":[[[[127.354478,36.285104],[127.354518,36.284912],[127.354569,36.284791],[127.354611,36.284641],[127.354649,36.284447],[127.354733,36.284206],[127.354911,36.284234],[127.35483,36.284509],[127.354784,36.284937],[127.354784,36.285157],[127.354478,36.285104]]]]},"properties":{"id":"FLD:30170:42:35236","layer":"FLOOD_TRACE","admin_code":"30170","sido_code":"30","flood_year":"2011","occurred_at":"2011-07-10","ended_at":"2011-07-11","begin_time":"0600","end_time":"1200","disaster_name":"호우","cause_detail":"범람","flood_grade":1,"flood_depth_m":0.466,"flood_area_m2":2169.6,"source_sn":42,"data_status":"actual","official_data":true,"is_prediction":false,"source":"행정안전부 침수흔적도 · 재난안전데이터공유플랫폼 DSSP-IF-00117","collected_at":"2026-08-19T16:46:51+09:00","source_crs":"EPSG:3857","display_badges":["행안부 침수흔적도","과거 기록"]}}]}