{"type":"FeatureCollection","features":[{"type":"Feature","id":"FLD:12110:472:2021","geometry":{"type":"MultiPolygon","coordinates":[[[[126.419442,34.812813],[126.419436,34.812798],[126.419388,34.812708],[126.418393,34.810802],[126.418309,34.810826],[126.418275,34.810836],[126.418264,34.810839],[126.418255,34.810842],[126.417966,34.810924],[126.417498,34.811018],[126.417547,34.811125],[126.417578,34.811191],[126.417587,34.811212],[126.417592,34.811221],[126.417639,34.811313],[126.417728,34.811508],[126.417784,34.811526],[126.417826,34.811618],[126.417882,34.811743],[126.417905,34.811795],[126.417965,34.81193],[126.418019,34.812049],[126.418017,34.812059],[126.418058,34.812139],[126.417986,34.812161],[126.418109,34.812385],[126.418219,34.812641],[126.41822,34.812643],[126.418271,34.81276],[126.418259,34.812766],[126.418283,34.812785],[126.418337,34.812913],[126.418353,34.81295],[126.418357,34.81296],[126.41836,34.812967],[126.419237,34.812877],[126.419247,34.812902],[126.419229,34.812909],[126.419134,34.812949],[126.419063,34.812977],[126.41896,34.813019],[126.418959,34.813022],[126.418958,34.813023],[126.418956,34.813019],[126.418926,34.81307],[126.418927,34.813071],[126.418898,34.813083],[126.418832,34.813109],[126.418752,34.81317],[126.418742,34.813174],[126.418553,34.813228],[126.418485,34.813254],[126.418575,34.813464],[126.418509,34.813487],[126.4185,34.813488],[126.418479,34.813497],[126.418131,34.813612],[126.417784,34.813727],[126.417605,34.813787],[126.417427,34.813847],[126.417417,34.813854],[126.417416,34.813849],[126.417318,34.813884],[126.417233,34.813908],[126.417221,34.81389],[126.416992,34.814007],[126.41697,34.813984],[126.416927,34.814006],[126.416812,34.814059],[126.416707,34.814125],[126.416479,34.814265],[126.416297,34.814395],[126.41619,34.814486],[126.415988,34.814288],[126.416008,34.814272],[126.416182,34.814138],[126.416353,34.814025],[126.416532,34.813909],[126.416722,34.813812],[126.416873,34.813732],[126.416916,34.81371],[126.41694,34.813697],[126.416941,34.813696],[126.416985,34.813665],[126.417001,34.813614],[126.416856,34.813291],[126.416973,34.813261],[126.416795,34.81293],[126.416325,34.811816],[126.416315,34.811727],[126.416327,34.811723],[126.416369,34.811711],[126.416458,34.811684],[126.416575,34.81165],[126.416608,34.81164],[126.416663,34.811624],[126.416829,34.811576],[126.416757,34.811415],[126.416721,34.811468],[126.416673,34.811541],[126.416649,34.811536],[126.416496,34.811516],[126.416526,34.811509],[126.41652,34.811491],[126.416432,34.811412],[126.416434,34.811345],[126.416631,34.811395],[126.416728,34.811419],[126.416745,34.811394],[126.416761,34.811371],[126.416802,34.811305],[126.41685,34.811218],[126.416909,34.81111],[126.416938,34.811059],[126.416992,34.810975],[126.416685,34.810848],[126.416698,34.81083],[126.416718,34.810821],[126.416746,34.810826],[126.416763,34.810766],[126.416856,34.810774],[126.416829,34.81063],[126.416917,34.810581],[126.416897,34.810561],[126.416938,34.810532],[126.416876,34.810444],[126.416841,34.810424],[126.416943,34.810361],[126.416901,34.810313],[126.417168,34.810231],[126.417565,34.810032],[126.418075,34.809884],[126.418235,34.810254],[126.418444,34.810198],[126.419559,34.812808],[126.419452,34.812839],[126.419442,34.812813]]]]},"properties":{"id":"FLD:12110:472:2021","layer":"FLOOD_TRACE","admin_code":"12110","sido_code":"46","flood_year":"2012","occurred_at":"2012-08-30","ended_at":"2012-08-30","begin_time":"1000","end_time":"1500","disaster_name":"태풍 덴빈","cause_detail":"태풍 덴빈에 의한 집중호우","flood_grade":2,"flood_depth_m":0.628,"flood_area_m2":83226,"source_sn":472,"data_status":"actual","official_data":true,"is_prediction":false,"source":"행정안전부 침수흔적도 · 재난안전데이터공유플랫폼 DSSP-IF-00117","collected_at":"2026-08-19T16:46:51+09:00","source_crs":"EPSG:3857","display_badges":["행안부 침수흔적도","과거 기록"]}},{"type":"Feature","id":"FLD:12110:468:2585","geometry":{"type":"MultiPolygon","coordinates":[[[[126.394262,34.800011],[126.395191,34.800057],[126.395183,34.800394],[126.395535,34.800447],[126.395649,34.800286],[126.395517,34.800167],[126.395397,34.800009],[126.39527,34.799822],[126.394622,34.799781],[126.394669,34.799402],[126.394587,34.79926],[126.394461,34.799254],[126.394464,34.799223],[126.394475,34.799115],[126.394504,34.799115],[126.394562,34.799117],[126.394792,34.799126],[126.394944,34.799172],[126.394966,34.799231],[126.39497,34.799239],[126.395113,34.799202],[126.395117,34.79921],[126.395169,34.799322],[126.395179,34.799348],[126.395202,34.799405],[126.395438,34.799397],[126.395432,34.799318],[126.395545,34.799316],[126.395703,34.799314],[126.395849,34.799312],[126.395874,34.799312],[126.395878,34.799466],[126.396024,34.799462],[126.396233,34.799465],[126.396749,34.799455],[126.396869,34.799452],[126.396949,34.799451],[126.397055,34.799449],[126.397157,34.799447],[126.397255,34.799445],[126.39736,34.799443],[126.397508,34.799445],[126.39751,34.79953],[126.397511,34.799572],[126.397513,34.799664],[126.397513,34.799682],[126.397515,34.799779],[126.397517,34.799871],[126.397518,34.799903],[126.397498,34.799977],[126.3975,34.800042],[126.397502,34.800139],[126.397504,34.80025],[126.397506,34.800322],[126.397545,34.800354],[126.397616,34.800353],[126.397725,34.800352],[126.397758,34.800352],[126.397813,34.800351],[126.397822,34.800423],[126.397825,34.800509],[126.397824,34.800528],[126.397824,34.80059],[126.397826,34.800757],[126.397785,34.800829],[126.397788,34.800956],[126.39779,34.801056],[126.397773,34.801056],[126.397776,34.801156],[126.397792,34.801156],[126.397793,34.801174],[126.397793,34.801292],[126.397838,34.801364],[126.397838,34.801484],[126.397836,34.801494],[126.39784,34.801508],[126.397762,34.801619],[126.39779,34.801633],[126.397779,34.801649],[126.397923,34.80172],[126.397951,34.801734],[126.39803,34.801773],[126.398091,34.801806],[126.39811,34.801816],[126.398128,34.801826],[126.398195,34.801861],[126.398253,34.801892],[126.398271,34.801902],[126.398289,34.801912],[126.398361,34.80195],[126.398385,34.801963],[126.398476,34.802012],[126.398419,34.802091],[126.398366,34.802101],[126.398505,34.802175],[126.398439,34.802269],[126.39855,34.802329],[126.39869,34.802403],[126.398706,34.802412],[126.398692,34.802432],[126.398639,34.802503],[126.398623,34.802494],[126.398585,34.802546],[126.398615,34.802561],[126.398558,34.802641],[126.398556,34.802643],[126.398493,34.802731],[126.398442,34.80279],[126.398578,34.802856],[126.398715,34.802922],[126.398744,34.802935],[126.398652,34.803068],[126.398641,34.803084],[126.398627,34.803077],[126.398586,34.803136],[126.398434,34.803063],[126.398358,34.80317],[126.398512,34.803244],[126.398663,34.803316],[126.398776,34.80337],[126.398873,34.803431],[126.39899,34.803492],[126.399024,34.80351],[126.399193,34.803598],[126.399245,34.80359],[126.39938,34.803414],[126.399443,34.803332],[126.39972,34.803473],[126.399849,34.80354],[126.399868,34.803515],[126.400025,34.803599],[126.400156,34.803667],[126.400269,34.803655],[126.40034,34.803665],[126.400324,34.803736],[126.400308,34.803815],[126.400301,34.803814],[126.40028,34.803913],[126.400302,34.803916],[126.400296,34.803986],[126.400274,34.804097],[126.400251,34.804208],[126.400229,34.80432],[126.400206,34.804432],[126.400168,34.804499],[126.400144,34.804616],[126.400123,34.804721],[126.400101,34.804835],[126.400079,34.804943],[126.400095,34.804945],[126.400247,34.804967],[126.400361,34.804982],[126.400347,34.805054],[126.400511,34.805076],[126.400666,34.805098],[126.400818,34.805119],[126.400839,34.805122],[126.401008,34.805146],[126.401182,34.80517],[126.401355,34.805195],[126.401509,34.805216],[126.401544,34.805255],[126.40153,34.80532],[126.401516,34.805387],[126.401595,34.80543],[126.401544,34.805678],[126.401826,34.805718],[126.401852,34.805997],[126.401714,34.805977],[126.40155,34.805954],[126.401501,34.805983],[126.401452,34.806225],[126.401324,34.806206],[126.401199,34.806189],[126.401127,34.806179],[126.400961,34.806156],[126.40095,34.806154],[126.400817,34.806135],[126.400685,34.806117],[126.40063,34.806109],[126.400552,34.806099],[126.400464,34.806087],[126.400442,34.806188],[126.40042,34.806298],[126.400405,34.80637],[126.400512,34.806385],[126.400489,34.806502],[126.400464,34.80662],[126.400439,34.80674],[126.400416,34.806737],[126.40041,34.806769],[126.400392,34.806855],[126.400455,34.806864],[126.400446,34.806937],[126.400292,34.806915],[126.400133,34.806892],[126.400088,34.806921],[126.400078,34.806967],[126.400062,34.807046],[126.400046,34.807124],[126.40003,34.807198],[126.400015,34.807276],[126.400005,34.807322],[126.400038,34.807364],[126.400024,34.807431],[126.399979,34.807459],[126.399964,34.807532],[126.399945,34.807625],[126.399926,34.80772],[126.39991,34.807799],[126.39989,34.807896],[126.399881,34.807949],[126.398733,34.80779],[126.398728,34.807764],[126.398717,34.807706],[126.398707,34.807657],[126.398687,34.807554],[126.398683,34.807535],[126.398651,34.807365],[126.398635,34.807286],[126.398618,34.807205],[126.398604,34.807133],[126.398589,34.807054],[126.398574,34.806979],[126.398559,34.806903],[126.398535,34.806778],[126.398514,34.806673],[126.398495,34.80657],[126.398468,34.806441],[126.398449,34.806343],[126.398431,34.806247],[126.398417,34.806175],[126.398379,34.805988],[126.39833,34.805738],[126.398285,34.805745],[126.39829,34.805702],[126.398528,34.805528],[126.400609,34.805823],[126.400661,34.805555],[126.398651,34.805275],[126.398527,34.805044],[126.398488,34.805001],[126.399404,34.803794],[126.399197,34.80373],[126.398285,34.804931],[126.398238,34.804958],[126.397838,34.80504],[126.397656,34.805241],[126.398108,34.805757],[126.398114,34.805769],[126.398061,34.805777],[126.398056,34.805771],[126.397967,34.805671],[126.397747,34.805418],[126.397618,34.80527],[126.397543,34.80523],[126.397747,34.805016],[126.397995,34.80497],[126.39811,34.804949],[126.398228,34.804928],[126.398313,34.804815],[126.39811,34.804714],[126.398068,34.804692],[126.397958,34.804636],[126.397834,34.804575],[126.397339,34.804324],[126.397234,34.804276],[126.397029,34.804171],[126.397233,34.803888],[126.397518,34.804034],[126.398117,34.80316],[126.398003,34.803104],[126.39846,34.802485],[126.396973,34.801722],[126.396366,34.802538],[126.397517,34.803069],[126.396999,34.803817],[126.397132,34.80388],[126.396949,34.804129],[126.396404,34.803847],[126.396388,34.803839],[126.396296,34.803791],[126.396115,34.803702],[126.396105,34.803697],[126.395968,34.803626],[126.395954,34.803618],[126.395887,34.803635],[126.395796,34.803589],[126.395774,34.803619],[126.395665,34.80377],[126.395569,34.803905],[126.395418,34.803826],[126.395347,34.803789],[126.395283,34.803756],[126.395208,34.803717],[126.395102,34.803662],[126.394993,34.803607],[126.394922,34.80357],[126.394834,34.803525],[126.394736,34.803475],[126.394655,34.803434],[126.394558,34.803384],[126.394483,34.803346],[126.394381,34.803294],[126.394286,34.803246],[126.394181,34.803193],[126.394113,34.803158],[126.394044,34.803123],[126.39391,34.803056],[126.393776,34.802986],[126.393718,34.802956],[126.393728,34.802937],[126.393817,34.802813],[126.393826,34.802801],[126.393732,34.802743],[126.393632,34.802692],[126.393546,34.802648],[126.393441,34.802595],[126.393264,34.802505],[126.393261,34.802504],[126.3931,34.802422],[126.393096,34.802398],[126.39308,34.802298],[126.393067,34.80222],[126.393146,34.802098],[126.393076,34.802062],[126.393189,34.801906],[126.393217,34.801865],[126.393231,34.801847],[126.393254,34.801818],[126.393139,34.801764],[126.393181,34.801708],[126.393213,34.801718],[126.393214,34.801714],[126.393191,34.801704],[126.393155,34.801687],[126.393195,34.801576],[126.39319,34.801574],[126.393183,34.801569],[126.393214,34.801444],[126.393185,34.801431],[126.393234,34.801355],[126.393263,34.801281],[126.393094,34.801199],[126.393018,34.801163],[126.39302,34.801114],[126.393037,34.800694],[126.39314,34.800616],[126.393154,34.800583],[126.39314,34.800569],[126.39313,34.800559],[126.393136,34.800478],[126.393096,34.800458],[126.39309,34.800441],[126.393086,34.800432],[126.393081,34.800401],[126.393171,34.800283],[126.393227,34.800208],[126.393196,34.800193],[126.393233,34.800108],[126.393272,34.800044],[126.393275,34.80001],[126.393279,34.799972],[126.39329,34.799861],[126.39322,34.799782],[126.393225,34.799692],[126.393233,34.799593],[126.393237,34.799538],[126.393266,34.799539],[126.39327,34.799482],[126.393274,34.799418],[126.393256,34.799406],[126.393235,34.799328],[126.393238,34.7993],[126.393242,34.79925],[126.393244,34.799219],[126.393336,34.799226],[126.393337,34.799221],[126.393467,34.799228],[126.393465,34.799256],[126.393473,34.799257],[126.393597,34.799263],[126.393686,34.799255],[126.393729,34.799253],[126.393746,34.799248],[126.39375,34.799246],[126.393838,34.79925],[126.393897,34.799254],[126.393935,34.799256],[126.394028,34.799261],[126.394038,34.799262],[126.394096,34.799265],[126.394122,34.799267],[126.394143,34.799268],[126.394141,34.79929],[126.394293,34.799298],[126.394325,34.7993],[126.394262,34.800011]]]]},"properties":{"id":"FLD:12110:468:2585","layer":"FLOOD_TRACE","admin_code":"12110","sido_code":"46","flood_year":"2012","occurred_at":"2012-08-30","ended_at":"2012-08-30","begin_time":"1000","end_time":"1500","disaster_name":"태풍덴빈","cause_detail":"태풍 덴빈에 의한 집중호우","flood_grade":1,"flood_depth_m":0.434,"flood_area_m2":315240.6,"source_sn":468,"data_status":"actual","official_data":true,"is_prediction":false,"source":"행정안전부 침수흔적도 · 재난안전데이터공유플랫폼 DSSP-IF-00117","collected_at":"2026-08-19T16:46:51+09:00","source_crs":"EPSG:3857","display_badges":["행안부 침수흔적도","과거 기록"]}},{"type":"Feature","id":"FLD:12110:471:2586","geometry":{"type":"MultiPolygon","coordinates":[[[[126.398108,34.805757],[126.397656,34.805241],[126.397838,34.80504],[126.398238,34.804958],[126.398285,34.804931],[126.399197,34.80373],[126.399404,34.803794],[126.398488,34.805001],[126.398527,34.805044],[126.398651,34.805275],[126.400661,34.805555],[126.400609,34.805823],[126.398528,34.805528],[126.39829,34.805702],[126.398285,34.805745],[126.398114,34.805769],[126.398108,34.805757]]]]},"properties":{"id":"FLD:12110:471:2586","layer":"FLOOD_TRACE","admin_code":"12110","sido_code":"46","flood_year":"2012","occurred_at":"2012-08-30","ended_at":"2012-08-30","begin_time":"1000","end_time":"1500","disaster_name":"태풍덴빈","cause_detail":"태풍 덴빈에 의한 집중호우","flood_grade":2,"flood_depth_m":0.681,"flood_area_m2":315240.6,"source_sn":471,"data_status":"actual","official_data":true,"is_prediction":false,"source":"행정안전부 침수흔적도 · 재난안전데이터공유플랫폼 DSSP-IF-00117","collected_at":"2026-08-19T16:46:51+09:00","source_crs":"EPSG:3857","display_badges":["행안부 침수흔적도","과거 기록"]}},{"type":"Feature","id":"FLD:12110:470:2587","geometry":{"type":"MultiPolygon","coordinates":[[[[126.394587,34.79926],[126.394669,34.799402],[126.394622,34.799781],[126.39527,34.799822],[126.395397,34.800009],[126.395517,34.800167],[126.395649,34.800286],[126.395535,34.800447],[126.395183,34.800394],[126.395191,34.800057],[126.394262,34.800011],[126.394325,34.7993],[126.394456,34.799309],[126.394461,34.799254],[126.394587,34.79926]]]]},"properties":{"id":"FLD:12110:470:2587","layer":"FLOOD_TRACE","admin_code":"12110","sido_code":"46","flood_year":"2012","occurred_at":"2012-08-30","ended_at":"2012-08-30","begin_time":"1000","end_time":"1500","disaster_name":"태풍덴빈","cause_detail":"태풍 덴빈에 의한 집중호우","flood_grade":2,"flood_depth_m":0.639,"flood_area_m2":315240.6,"source_sn":470,"data_status":"actual","official_data":true,"is_prediction":false,"source":"행정안전부 침수흔적도 · 재난안전데이터공유플랫폼 DSSP-IF-00117","collected_at":"2026-08-19T16:46:51+09:00","source_crs":"EPSG:3857","display_badges":["행안부 침수흔적도","과거 기록"]}},{"type":"Feature","id":"FLD:12110:469:2588","geometry":{"type":"MultiPolygon","coordinates":[[[[126.397132,34.80388],[126.396999,34.803817],[126.397517,34.803069],[126.396366,34.802538],[126.396973,34.801722],[126.39846,34.802485],[126.398003,34.803104],[126.398117,34.80316],[126.397518,34.804034],[126.397233,34.803888],[126.397029,34.804171],[126.396949,34.804129],[126.397132,34.80388]]]]},"properties":{"id":"FLD:12110:469:2588","layer":"FLOOD_TRACE","admin_code":"12110","sido_code":"46","flood_year":"2012","occurred_at":"2012-08-30","ended_at":"2012-08-30","begin_time":"1000","end_time":"1500","disaster_name":"태풍덴빈","cause_detail":"태풍 덴빈에 의한 집중호우","flood_grade":2,"flood_depth_m":0.689,"flood_area_m2":315240.6,"source_sn":469,"data_status":"actual","official_data":true,"is_prediction":false,"source":"행정안전부 침수흔적도 · 재난안전데이터공유플랫폼 DSSP-IF-00117","collected_at":"2026-08-19T16:46:51+09:00","source_crs":"EPSG:3857","display_badges":["행안부 침수흔적도","과거 기록"]}},{"type":"Feature","id":"FLD:12110:473:2589","geometry":{"type":"MultiPolygon","coordinates":[[[[126.419237,34.812877],[126.41836,34.812967],[126.418357,34.81296],[126.418353,34.81295],[126.418337,34.812913],[126.418283,34.812785],[126.418259,34.812766],[126.418271,34.81276],[126.41822,34.812643],[126.418219,34.812641],[126.418109,34.812385],[126.417986,34.812161],[126.418058,34.812139],[126.418017,34.812059],[126.418019,34.812049],[126.417965,34.81193],[126.417905,34.811795],[126.417882,34.811743],[126.417826,34.811618],[126.417784,34.811526],[126.417728,34.811508],[126.417639,34.811313],[126.417592,34.811221],[126.417587,34.811212],[126.417578,34.811191],[126.417547,34.811125],[126.417498,34.811018],[126.417966,34.810924],[126.418255,34.810842],[126.418264,34.810839],[126.418275,34.810836],[126.418309,34.810826],[126.418393,34.810802],[126.419388,34.812708],[126.419436,34.812798],[126.419442,34.812813],[126.419452,34.812839],[126.419273,34.812891],[126.419247,34.812902],[126.419237,34.812877]]]]},"properties":{"id":"FLD:12110:473:2589","layer":"FLOOD_TRACE","admin_code":"12110","sido_code":"46","flood_year":"2012","occurred_at":"2012-08-30","ended_at":"2012-08-30","begin_time":"1000","end_time":"1500","disaster_name":"태풍 덴빈","cause_detail":"태풍 덴빈에 의한 집중호우","flood_grade":3,"flood_depth_m":1.02,"flood_area_m2":83226,"source_sn":473,"data_status":"actual","official_data":true,"is_prediction":false,"source":"행정안전부 침수흔적도 · 재난안전데이터공유플랫폼 DSSP-IF-00117","collected_at":"2026-08-19T16:46:51+09:00","source_crs":"EPSG:3857","display_badges":["행안부 침수흔적도","과거 기록"]}}]}