{"type":"FeatureCollection","features":[{"type":"Feature","id":"FLD:36110:14:3768","geometry":{"type":"MultiPolygon","coordinates":[[[[127.294959,36.599456],[127.294833,36.599286],[127.29488,36.599134],[127.295085,36.599199],[127.295156,36.599225],[127.295137,36.599397],[127.295107,36.599447],[127.294959,36.599456]]]]},"properties":{"id":"FLD:36110:14:3768","layer":"FLOOD_TRACE","admin_code":"36110","sido_code":"36","flood_year":"2017","occurred_at":"2017-07-16","ended_at":"2017-07-16","begin_time":"0700","end_time":"1000","disaster_name":"2017년 집중호우에 따른 침수","cause_detail":"집중호우에 따른 침수","flood_grade":1,"flood_depth_m":0.321,"flood_area_m2":723.901,"source_sn":14,"data_status":"actual","official_data":true,"is_prediction":false,"source":"행정안전부 침수흔적도 · 재난안전데이터공유플랫폼 DSSP-IF-00117","collected_at":"2026-08-19T16:46:51+09:00","source_crs":"EPSG:3857","display_badges":["행안부 침수흔적도","과거 기록"]}},{"type":"Feature","id":"FLD:36110:15:3769","geometry":{"type":"MultiPolygon","coordinates":[[[[127.294839,36.600221],[127.294757,36.6002],[127.294581,36.600164],[127.29497,36.599778],[127.295053,36.599775],[127.29503,36.599933],[127.294839,36.600221]]]]},"properties":{"id":"FLD:36110:15:3769","layer":"FLOOD_TRACE","admin_code":"36110","sido_code":"36","flood_year":"2017","occurred_at":"2017-07-16","ended_at":"2017-07-16","begin_time":"0700","end_time":"1000","disaster_name":"여름철집중호우에따른침수피해","cause_detail":"집중호우에따른침수피해","flood_grade":1,"flood_depth_m":0.309,"flood_area_m2":900.354,"source_sn":15,"data_status":"actual","official_data":true,"is_prediction":false,"source":"행정안전부 침수흔적도 · 재난안전데이터공유플랫폼 DSSP-IF-00117","collected_at":"2026-08-19T16:46:51+09:00","source_crs":"EPSG:3857","display_badges":["행안부 침수흔적도","과거 기록"]}},{"type":"Feature","id":"FLD:36110:13:3770","geometry":{"type":"MultiPolygon","coordinates":[[[[127.290394,36.632667],[127.289704,36.632603],[127.289851,36.632],[127.289855,36.631751],[127.290349,36.6317],[127.290394,36.632667]]]]},"properties":{"id":"FLD:36110:13:3770","layer":"FLOOD_TRACE","admin_code":"36110","sido_code":"36","flood_year":"2017","occurred_at":"2017-07-16","ended_at":"2017-07-16","begin_time":"0700","end_time":"1100","disaster_name":"2017.7.16 집중호우","cause_detail":"집중호우에 따른  침수","flood_grade":2,"flood_depth_m":0.582,"flood_area_m2":5178.69,"source_sn":13,"data_status":"actual","official_data":true,"is_prediction":false,"source":"행정안전부 침수흔적도 · 재난안전데이터공유플랫폼 DSSP-IF-00117","collected_at":"2026-08-19T16:46:51+09:00","source_crs":"EPSG:3857","display_badges":["행안부 침수흔적도","과거 기록"]}},{"type":"Feature","id":"FLD:36110:16:3771","geometry":{"type":"MultiPolygon","coordinates":[[[[127.290491,36.608168],[127.290361,36.608162],[127.290346,36.608052],[127.290427,36.607981],[127.29049,36.607906],[127.290614,36.60798],[127.290527,36.608084],[127.290491,36.608168]]]]},"properties":{"id":"FLD:36110:16:3771","layer":"FLOOD_TRACE","admin_code":"36110","sido_code":"36","flood_year":"2017","occurred_at":"2017-07-16","ended_at":"2017-07-16","begin_time":"0700","end_time":"1000","disaster_name":"여름철집중호우에따른침수피해","cause_detail":"집중호우에 따른 침수피해","flood_grade":1,"flood_depth_m":0.322,"flood_area_m2":392.768,"source_sn":16,"data_status":"actual","official_data":true,"is_prediction":false,"source":"행정안전부 침수흔적도 · 재난안전데이터공유플랫폼 DSSP-IF-00117","collected_at":"2026-08-19T16:46:51+09:00","source_crs":"EPSG:3857","display_badges":["행안부 침수흔적도","과거 기록"]}},{"type":"Feature","id":"FLD:36110:17:3772","geometry":{"type":"MultiPolygon","coordinates":[[[[127.205828,36.498218],[127.205749,36.498151],[127.205657,36.498129],[127.205609,36.497876],[127.205678,36.497802],[127.206034,36.497976],[127.206241,36.498085],[127.206414,36.498293],[127.206317,36.498425],[127.206266,36.498605],[127.20595,36.498522],[127.205953,36.498431],[127.206023,36.498225],[127.205828,36.498218]]]]},"properties":{"id":"FLD:36110:17:3772","layer":"FLOOD_TRACE","admin_code":"36110","sido_code":"36","flood_year":"2017","occurred_at":"2017-07-16","ended_at":"2017-07-16","begin_time":"0700","end_time":"1000","disaster_name":"여름철 집중호우에따른침수피해","cause_detail":"집중호우에 따른 침수","flood_grade":2,"flood_depth_m":0.51,"flood_area_m2":2956.617,"source_sn":17,"data_status":"actual","official_data":true,"is_prediction":false,"source":"행정안전부 침수흔적도 · 재난안전데이터공유플랫폼 DSSP-IF-00117","collected_at":"2026-08-19T16:46:51+09:00","source_crs":"EPSG:3857","display_badges":["행안부 침수흔적도","과거 기록"]}},{"type":"Feature","id":"FLD:36110:52:7501","geometry":{"type":"MultiPolygon","coordinates":[[[[127.211448,36.502164],[127.211361,36.501897],[127.211585,36.501676],[127.211968,36.501943],[127.211763,36.502156],[127.211448,36.502164]]]]},"properties":{"id":"FLD:36110:52:7501","layer":"FLOOD_TRACE","admin_code":"36110","sido_code":"36","flood_year":"2018","occurred_at":"2018-09-03","ended_at":"2018-09-03","begin_time":"1800","end_time":"2100","disaster_name":"2018집중호우로 인한 침수피해","cause_detail":"집중호우","flood_grade":1,"flood_depth_m":0.423,"flood_area_m2":1830.246,"source_sn":52,"data_status":"actual","official_data":true,"is_prediction":false,"source":"행정안전부 침수흔적도 · 재난안전데이터공유플랫폼 DSSP-IF-00117","collected_at":"2026-08-19T16:46:51+09:00","source_crs":"EPSG:3857","display_badges":["행안부 침수흔적도","과거 기록"]}},{"type":"Feature","id":"FLD:36110:54:7502","geometry":{"type":"MultiPolygon","coordinates":[[[[127.204302,36.688305],[127.204032,36.687864],[127.203962,36.687596],[127.203898,36.687415],[127.203703,36.687383],[127.203777,36.68725],[127.204114,36.687161],[127.20474,36.687205],[127.204775,36.6875],[127.204819,36.687696],[127.204729,36.687677],[127.204569,36.687737],[127.204628,36.687885],[127.204768,36.688209],[127.204302,36.688305]]]]},"properties":{"id":"FLD:36110:54:7502","layer":"FLOOD_TRACE","admin_code":"36110","sido_code":"36","flood_year":"2018","occurred_at":"2018-09-03","ended_at":"2018-09-03","begin_time":"1800","end_time":"2100","disaster_name":"2018집중호우에 따른 침수피해","cause_detail":"집중호우","flood_grade":1,"flood_depth_m":0.339,"flood_area_m2":7683.049,"source_sn":54,"data_status":"actual","official_data":true,"is_prediction":false,"source":"행정안전부 침수흔적도 · 재난안전데이터공유플랫폼 DSSP-IF-00117","collected_at":"2026-08-19T16:46:51+09:00","source_crs":"EPSG:3857","display_badges":["행안부 침수흔적도","과거 기록"]}},{"type":"Feature","id":"FLD:36110:21:9734","geometry":{"type":"MultiPolygon","coordinates":[[[[127.295132,36.595495],[127.29513,36.595545],[127.294968,36.595529],[127.294952,36.595527],[127.294965,36.595457],[127.294992,36.595463],[127.295031,36.595362],[127.295169,36.595393],[127.295132,36.595495]]]]},"properties":{"id":"FLD:36110:21:9734","layer":"FLOOD_TRACE","admin_code":"36110","sido_code":"36","flood_year":"2019","occurred_at":"2019-07-25","ended_at":"2019-07-26","begin_time":"2300","end_time":"0700","disaster_name":"2019년 국지성 집중호우","cause_detail":"빗물받이 배수구 역류","flood_grade":1,"flood_depth_m":0.3,"flood_area_m2":257,"source_sn":21,"data_status":"actual","official_data":true,"is_prediction":false,"source":"행정안전부 침수흔적도 · 재난안전데이터공유플랫폼 DSSP-IF-00117","collected_at":"2026-08-19T16:46:51+09:00","source_crs":"EPSG:3857","display_badges":["행안부 침수흔적도","과거 기록"]}},{"type":"Feature","id":"FLD:36110:22:9735","geometry":{"type":"MultiPolygon","coordinates":[[[[127.211315,36.502187],[127.211239,36.502215],[127.211209,36.502128],[127.211113,36.502084],[127.211095,36.502051],[127.211077,36.502046],[127.211058,36.501982],[127.211281,36.501898],[127.211302,36.502079],[127.211315,36.502187]]]]},"properties":{"id":"FLD:36110:22:9735","layer":"FLOOD_TRACE","admin_code":"36110","sido_code":"36","flood_year":"2019","occurred_at":"2019-07-25","ended_at":"2019-07-26","begin_time":"2300","end_time":"0700","disaster_name":"2019 집중호우","cause_detail":"국지성집중호우","flood_grade":1,"flood_depth_m":0.335,"flood_area_m2":445.2,"source_sn":22,"data_status":"actual","official_data":true,"is_prediction":false,"source":"행정안전부 침수흔적도 · 재난안전데이터공유플랫폼 DSSP-IF-00117","collected_at":"2026-08-19T16:46:51+09:00","source_crs":"EPSG:3857","display_badges":["행안부 침수흔적도","과거 기록"]}},{"type":"Feature","id":"FLD:36110:546:10863","geometry":{"type":"MultiPolygon","coordinates":[[[[127.294734,36.595485],[127.294732,36.595437],[127.29475,36.59534],[127.294813,36.595164],[127.294869,36.595175],[127.294879,36.595202],[127.294864,36.595307],[127.295227,36.595391],[127.29522,36.595412],[127.294857,36.595332],[127.294825,36.595484],[127.294734,36.595485]]]]},"properties":{"id":"FLD:36110:546:10863","layer":"FLOOD_TRACE","admin_code":"36110","sido_code":"36","flood_year":"2020","occurred_at":"2020-08-28","ended_at":"2020-08-28","begin_time":"2000","end_time":"2300","disaster_name":"집중호우","cause_detail":"낮은지대로 호우집중","flood_grade":1,"flood_depth_m":0.11,"flood_area_m2":385.6,"source_sn":546,"data_status":"actual","official_data":true,"is_prediction":false,"source":"행정안전부 침수흔적도 · 재난안전데이터공유플랫폼 DSSP-IF-00117","collected_at":"2026-08-19T16:46:51+09:00","source_crs":"EPSG:3857","display_badges":["행안부 침수흔적도","과거 기록"]}},{"type":"Feature","id":"FLD:36110:549:10864","geometry":{"type":"MultiPolygon","coordinates":[[[[127.15718,36.726035],[127.157575,36.725205],[127.157445,36.724805],[127.157504,36.724516],[127.157683,36.724473],[127.158003,36.724492],[127.158164,36.72481],[127.158528,36.725057],[127.158616,36.725343],[127.159629,36.725779],[127.159566,36.725975],[127.15925,36.72609],[127.159038,36.726155],[127.158596,36.726173],[127.158248,36.726221],[127.15718,36.726035]]]]},"properties":{"id":"FLD:36110:549:10864","layer":"FLOOD_TRACE","admin_code":"36110","sido_code":"36","flood_year":"2020","occurred_at":"2020-08-03","ended_at":"2020-08-03","begin_time":"0000","end_time":"1900","disaster_name":"집중호우","cause_detail":"하천범람","flood_grade":2,"flood_depth_m":0.93,"flood_area_m2":22621.1,"source_sn":549,"data_status":"actual","official_data":true,"is_prediction":false,"source":"행정안전부 침수흔적도 · 재난안전데이터공유플랫폼 DSSP-IF-00117","collected_at":"2026-08-19T16:46:51+09:00","source_crs":"EPSG:3857","display_badges":["행안부 침수흔적도","과거 기록"]}},{"type":"Feature","id":"FLD:36110:548:10865","geometry":{"type":"MultiPolygon","coordinates":[[[[127.163178,36.731305],[127.162838,36.731338],[127.162661,36.731418],[127.162427,36.731309],[127.162475,36.731217],[127.162881,36.73096],[127.163129,36.731139],[127.164067,36.731475],[127.164636,36.731701],[127.16491,36.731825],[127.165029,36.731869],[127.165505,36.732041],[127.165933,36.732318],[127.166922,36.732581],[127.166545,36.733287],[127.165701,36.732493],[127.165122,36.732633],[127.16454,36.732193],[127.164379,36.732309],[127.164094,36.732072],[127.163592,36.732],[127.163334,36.731583],[127.163394,36.731439],[127.163178,36.731305]]]]},"properties":{"id":"FLD:36110:548:10865","layer":"FLOOD_TRACE","admin_code":"36110","sido_code":"36","flood_year":"2020","occurred_at":"2020-08-03","ended_at":"2020-08-03","begin_time":"0000","end_time":"1900","disaster_name":"집중호우","cause_detail":"하천범람","flood_grade":2,"flood_depth_m":0.787,"flood_area_m2":22075.2,"source_sn":548,"data_status":"actual","official_data":true,"is_prediction":false,"source":"행정안전부 침수흔적도 · 재난안전데이터공유플랫폼 DSSP-IF-00117","collected_at":"2026-08-19T16:46:51+09:00","source_crs":"EPSG:3857","display_badges":["행안부 침수흔적도","과거 기록"]}},{"type":"Feature","id":"FLD:36110:550:10866","geometry":{"type":"MultiPolygon","coordinates":[[[[127.155215,36.726248],[127.155236,36.726032],[127.155289,36.725211],[127.155846,36.725228],[127.1559,36.725297],[127.156749,36.725369],[127.156955,36.725605],[127.156785,36.726022],[127.156337,36.726044],[127.155762,36.726123],[127.155618,36.72603],[127.155215,36.726248]]]]},"properties":{"id":"FLD:36110:550:10866","layer":"FLOOD_TRACE","admin_code":"36110","sido_code":"36","flood_year":"2020","occurred_at":"2020-08-03","ended_at":"2020-08-03","begin_time":"1200","end_time":"1900","disaster_name":"집중호우","cause_detail":"하천범람","flood_grade":2,"flood_depth_m":0.567,"flood_area_m2":12506.5,"source_sn":550,"data_status":"actual","official_data":true,"is_prediction":false,"source":"행정안전부 침수흔적도 · 재난안전데이터공유플랫폼 DSSP-IF-00117","collected_at":"2026-08-19T16:46:51+09:00","source_crs":"EPSG:3857","display_badges":["행안부 침수흔적도","과거 기록"]}},{"type":"Feature","id":"FLD:36110:547:10867","geometry":{"type":"MultiPolygon","coordinates":[[[[127.161052,36.727515],[127.160494,36.726833],[127.160707,36.726686],[127.16152,36.727055],[127.161052,36.727515]]]]},"properties":{"id":"FLD:36110:547:10867","layer":"FLOOD_TRACE","admin_code":"36110","sido_code":"36","flood_year":"2020","occurred_at":"2020-08-03","ended_at":"2020-08-03","begin_time":"1200","end_time":"1900","disaster_name":"집중호우","cause_detail":"하천범람","flood_grade":1,"flood_depth_m":0.21,"flood_area_m2":3834.1,"source_sn":547,"data_status":"actual","official_data":true,"is_prediction":false,"source":"행정안전부 침수흔적도 · 재난안전데이터공유플랫폼 DSSP-IF-00117","collected_at":"2026-08-19T16:46:51+09:00","source_crs":"EPSG:3857","display_badges":["행안부 침수흔적도","과거 기록"]}},{"type":"Feature","id":"FLD:36110:53:16420","geometry":{"type":"MultiPolygon","coordinates":[[[[127.210793,36.501069],[127.211164,36.501353],[127.211059,36.501446],[127.210917,36.501458],[127.21063,36.501385],[127.210517,36.501319],[127.21056,36.501151],[127.21063,36.500976],[127.210793,36.501069]]]]},"properties":{"id":"FLD:36110:53:16420","layer":"FLOOD_TRACE","admin_code":"36110","sido_code":"36","flood_year":"2018","occurred_at":"2018-09-03","ended_at":"2018-09-03","begin_time":"1800","end_time":"2100","disaster_name":"침수흔적","cause_detail":"집중호우","flood_grade":1,"flood_depth_m":0.279,"flood_area_m2":1695.766,"source_sn":53,"data_status":"actual","official_data":true,"is_prediction":false,"source":"행정안전부 침수흔적도 · 재난안전데이터공유플랫폼 DSSP-IF-00117","collected_at":"2026-08-19T16:46:51+09:00","source_crs":"EPSG:3857","display_badges":["행안부 침수흔적도","과거 기록"]}},{"type":"Feature","id":"FLD:36110:5610:20230","geometry":{"type":"MultiPolygon","coordinates":[[[[127.295179,36.595411],[127.295139,36.595511],[127.295,36.59548],[127.295038,36.595378],[127.295179,36.595411]]]]},"properties":{"id":"FLD:36110:5610:20230","layer":"FLOOD_TRACE","admin_code":"36110","sido_code":"36","flood_year":"2022","occurred_at":"2022-08-10","ended_at":"2022-08-11","begin_time":"0000","end_time":"1200","disaster_name":"2022년 8월 8일 ~ 17일 집중호우","cause_detail":null,"flood_grade":1,"flood_depth_m":0.304,"flood_area_m2":152.2,"source_sn":5610,"data_status":"actual","official_data":true,"is_prediction":false,"source":"행정안전부 침수흔적도 · 재난안전데이터공유플랫폼 DSSP-IF-00117","collected_at":"2026-08-19T16:46:51+09:00","source_crs":"EPSG:3857","display_badges":["행안부 침수흔적도","과거 기록"]}},{"type":"Feature","id":"FLD:36110:5611:20231","geometry":{"type":"MultiPolygon","coordinates":[[[[127.295274,36.595287],[127.295236,36.595391],[127.29523,36.595396],[127.295108,36.595365],[127.295146,36.595256],[127.295274,36.595287]]]]},"properties":{"id":"FLD:36110:5611:20231","layer":"FLOOD_TRACE","admin_code":"36110","sido_code":"36","flood_year":"2022","occurred_at":"2022-08-10","ended_at":"2022-08-11","begin_time":"1500","end_time":"1200","disaster_name":"2022년 8월 8일 ~ 17일 집중호우","cause_detail":null,"flood_grade":1,"flood_depth_m":0.324,"flood_area_m2":150.2,"source_sn":5611,"data_status":"actual","official_data":true,"is_prediction":false,"source":"행정안전부 침수흔적도 · 재난안전데이터공유플랫폼 DSSP-IF-00117","collected_at":"2026-08-19T16:46:51+09:00","source_crs":"EPSG:3857","display_badges":["행안부 침수흔적도","과거 기록"]}},{"type":"Feature","id":"FLD:36110:61:36564","geometry":{"type":"MultiPolygon","coordinates":[[[[127.285412,36.607249],[127.285454,36.607097],[127.28566,36.607081],[127.285629,36.607222],[127.285593,36.607245],[127.285412,36.607249]]]]},"properties":{"id":"FLD:36110:61:36564","layer":"FLOOD_TRACE","admin_code":"36110","sido_code":"36","flood_year":"2012","occurred_at":"2012-08-15","ended_at":"2012-08-16","begin_time":"1700","end_time":"2400","disaster_name":"집중호우","cause_detail":"집중호우에 의한 주택침수","flood_grade":1,"flood_depth_m":0.248,"flood_area_m2":1299,"source_sn":61,"data_status":"actual","official_data":true,"is_prediction":false,"source":"행정안전부 침수흔적도 · 재난안전데이터공유플랫폼 DSSP-IF-00117","collected_at":"2026-08-19T16:46:51+09:00","source_crs":"EPSG:3857","display_badges":["행안부 침수흔적도","과거 기록"]}},{"type":"Feature","id":"FLD:36110:59:36565","geometry":{"type":"MultiPolygon","coordinates":[[[[127.29341,36.601614],[127.293495,36.601521],[127.293596,36.601592],[127.294064,36.601939],[127.294007,36.602038],[127.29341,36.601614]]]]},"properties":{"id":"FLD:36110:59:36565","layer":"FLOOD_TRACE","admin_code":"36110","sido_code":"36","flood_year":"2012","occurred_at":"2012-08-15","ended_at":"2012-08-16","begin_time":"1700","end_time":"2400","disaster_name":"집중호우","cause_detail":"집중호우에의한 주택침수","flood_grade":1,"flood_depth_m":0.4,"flood_area_m2":664,"source_sn":59,"data_status":"actual","official_data":true,"is_prediction":false,"source":"행정안전부 침수흔적도 · 재난안전데이터공유플랫폼 DSSP-IF-00117","collected_at":"2026-08-19T16:46:51+09:00","source_crs":"EPSG:3857","display_badges":["행안부 침수흔적도","과거 기록"]}},{"type":"Feature","id":"FLD:36110:60:36566","geometry":{"type":"MultiPolygon","coordinates":[[[[127.290902,36.605904],[127.291037,36.605824],[127.291242,36.605718],[127.291318,36.605786],[127.291241,36.605977],[127.290902,36.605904]]]]},"properties":{"id":"FLD:36110:60:36566","layer":"FLOOD_TRACE","admin_code":"36110","sido_code":"36","flood_year":"2012","occurred_at":"2012-08-15","ended_at":"2012-08-15","begin_time":"1700","end_time":"2400","disaster_name":"집중호우","cause_detail":"집중호우에 의한 주택침수","flood_grade":1,"flood_depth_m":0.482,"flood_area_m2":1299,"source_sn":60,"data_status":"actual","official_data":true,"is_prediction":false,"source":"행정안전부 침수흔적도 · 재난안전데이터공유플랫폼 DSSP-IF-00117","collected_at":"2026-08-19T16:46:51+09:00","source_crs":"EPSG:3857","display_badges":["행안부 침수흔적도","과거 기록"]}},{"type":"Feature","id":"FLD:36110:62:36575","geometry":{"type":"MultiPolygon","coordinates":[[[[127.299483,36.607435],[127.299615,36.60741],[127.299655,36.607585],[127.2995,36.607577],[127.299483,36.607435]]]]},"properties":{"id":"FLD:36110:62:36575","layer":"FLOOD_TRACE","admin_code":"36110","sido_code":"36","flood_year":"2012","occurred_at":"2012-08-15","ended_at":"2012-08-16","begin_time":"1700","end_time":"2400","disaster_name":"집중호우","cause_detail":"집중호우에 의한 주택침수","flood_grade":2,"flood_depth_m":0.536,"flood_area_m2":855.2,"source_sn":62,"data_status":"actual","official_data":true,"is_prediction":false,"source":"행정안전부 침수흔적도 · 재난안전데이터공유플랫폼 DSSP-IF-00117","collected_at":"2026-08-19T16:46:51+09:00","source_crs":"EPSG:3857","display_badges":["행안부 침수흔적도","과거 기록"]}},{"type":"Feature","id":"FLD:36110:63:36576","geometry":{"type":"MultiPolygon","coordinates":[[[[127.360825,36.53148],[127.360962,36.531335],[127.360983,36.531256],[127.361049,36.531273],[127.361176,36.53135],[127.361238,36.531429],[127.361113,36.531511],[127.361057,36.53146],[127.36094,36.531599],[127.360825,36.53148]]]]},"properties":{"id":"FLD:36110:63:36576","layer":"FLOOD_TRACE","admin_code":"36110","sido_code":"36","flood_year":"2012","occurred_at":"2012-08-15","ended_at":"2012-08-16","begin_time":"1700","end_time":"2400","disaster_name":"집중호우","cause_detail":"집중호우에 의한 저지대 하수역류","flood_grade":2,"flood_depth_m":0.637,"flood_area_m2":228,"source_sn":63,"data_status":"actual","official_data":true,"is_prediction":false,"source":"행정안전부 침수흔적도 · 재난안전데이터공유플랫폼 DSSP-IF-00117","collected_at":"2026-08-19T16:46:51+09:00","source_crs":"EPSG:3857","display_badges":["행안부 침수흔적도","과거 기록"]}},{"type":"Feature","id":"FLD:36110:64:36577","geometry":{"type":"MultiPolygon","coordinates":[[[[127.212128,36.460018],[127.212033,36.459907],[127.211937,36.459775],[127.211883,36.459676],[127.21185,36.459587],[127.211861,36.459373],[127.211952,36.4593],[127.212403,36.459436],[127.212479,36.459507],[127.212385,36.459726],[127.212333,36.45996],[127.212128,36.460018]]]]},"properties":{"id":"FLD:36110:64:36577","layer":"FLOOD_TRACE","admin_code":"36110","sido_code":"36","flood_year":"2012","occurred_at":"2012-08-15","ended_at":"2012-08-15","begin_time":"1700","end_time":"2400","disaster_name":"집중호우","cause_detail":"집중호우에 의한 저지대 침수","flood_grade":2,"flood_depth_m":0.586,"flood_area_m2":1777,"source_sn":64,"data_status":"actual","official_data":true,"is_prediction":false,"source":"행정안전부 침수흔적도 · 재난안전데이터공유플랫폼 DSSP-IF-00117","collected_at":"2026-08-19T16:46:51+09:00","source_crs":"EPSG:3857","display_badges":["행안부 침수흔적도","과거 기록"]}},{"type":"Feature","id":"FLD:36110:65:36578","geometry":{"type":"MultiPolygon","coordinates":[[[[127.277657,36.593401],[127.278007,36.593261],[127.278221,36.593676],[127.27793,36.593687],[127.27784,36.593716],[127.277657,36.593401]]]]},"properties":{"id":"FLD:36110:65:36578","layer":"FLOOD_TRACE","admin_code":"36110","sido_code":"36","flood_year":"2012","occurred_at":"2012-08-15","ended_at":"2012-08-16","begin_time":"1700","end_time":"2400","disaster_name":"집중호우","cause_detail":"집중호우에 의한 주택침수","flood_grade":1,"flood_depth_m":0.391,"flood_area_m2":429.5,"source_sn":65,"data_status":"actual","official_data":true,"is_prediction":false,"source":"행정안전부 침수흔적도 · 재난안전데이터공유플랫폼 DSSP-IF-00117","collected_at":"2026-08-19T16:46:51+09:00","source_crs":"EPSG:3857","display_badges":["행안부 침수흔적도","과거 기록"]}},{"type":"Feature","id":"FLD:36110:66:36579","geometry":{"type":"MultiPolygon","coordinates":[[[[127.283475,36.583728],[127.283571,36.583567],[127.283759,36.583754],[127.283702,36.583801],[127.283638,36.583787],[127.283616,36.583767],[127.283475,36.583728]]]]},"properties":{"id":"FLD:36110:66:36579","layer":"FLOOD_TRACE","admin_code":"36110","sido_code":"36","flood_year":"2012","occurred_at":"2012-08-15","ended_at":"2012-08-16","begin_time":"1700","end_time":"2400","disaster_name":"집중호우","cause_detail":"집중호우에 의한 주택침수","flood_grade":1,"flood_depth_m":0.458,"flood_area_m2":429.5,"source_sn":66,"data_status":"actual","official_data":true,"is_prediction":false,"source":"행정안전부 침수흔적도 · 재난안전데이터공유플랫폼 DSSP-IF-00117","collected_at":"2026-08-19T16:46:51+09:00","source_crs":"EPSG:3857","display_badges":["행안부 침수흔적도","과거 기록"]}}]}