{"type":"FeatureCollection","features":[{"type":"Feature","id":"FLD:41590:1351:12506","geometry":{"type":"MultiPolygon","coordinates":[[[[127.03409,37.200276],[127.034228,37.200292],[127.034216,37.200354],[127.034079,37.200338],[127.03409,37.200276]]]]},"properties":{"id":"FLD:41590:1351:12506","layer":"FLOOD_TRACE","admin_code":"41590","sido_code":"41","flood_year":"2020","occurred_at":"2020-08-05","ended_at":"2020-08-05","begin_time":"0500","end_time":"1300","disaster_name":"7.27-8.11 집중호우","cause_detail":null,"flood_grade":1,"flood_depth_m":0.26,"flood_area_m2":85.8,"source_sn":1351,"data_status":"actual","official_data":true,"is_prediction":false,"source":"행정안전부 침수흔적도 · 재난안전데이터공유플랫폼 DSSP-IF-00117","collected_at":"2026-08-19T16:46:51+09:00","source_crs":"EPSG:3857","display_badges":["행안부 침수흔적도","과거 기록"]}},{"type":"Feature","id":"FLD:41590:1352:12507","geometry":{"type":"MultiPolygon","coordinates":[[[[126.946283,37.192906],[126.946375,37.192758],[126.946592,37.192831],[126.946516,37.192945],[126.946473,37.192972],[126.946283,37.192906]]]]},"properties":{"id":"FLD:41590:1352:12507","layer":"FLOOD_TRACE","admin_code":"41590","sido_code":"41","flood_year":"2020","occurred_at":"2020-08-06","ended_at":"2020-08-06","begin_time":"0600","end_time":"1000","disaster_name":"7.28~8.11 집중호우","cause_detail":"내수침수","flood_grade":1,"flood_depth_m":0.408,"flood_area_m2":377.2,"source_sn":1352,"data_status":"actual","official_data":true,"is_prediction":false,"source":"행정안전부 침수흔적도 · 재난안전데이터공유플랫폼 DSSP-IF-00117","collected_at":"2026-08-19T16:46:51+09:00","source_crs":"EPSG:3857","display_badges":["행안부 침수흔적도","과거 기록"]}},{"type":"Feature","id":"FLD:41590:1353:12508","geometry":{"type":"MultiPolygon","coordinates":[[[[126.855673,37.251985],[126.85566,37.251878],[126.855711,37.251875],[126.855755,37.251876],[126.855775,37.25192],[126.855782,37.251962],[126.855673,37.251985]]]]},"properties":{"id":"FLD:41590:1353:12508","layer":"FLOOD_TRACE","admin_code":"41590","sido_code":"41","flood_year":"2020","occurred_at":"2020-08-03","ended_at":"2020-08-03","begin_time":"0600","end_time":"1300","disaster_name":"7.28~8.11 집중호우","cause_detail":"국지성집중호우","flood_grade":1,"flood_depth_m":0.393,"flood_area_m2":102.2,"source_sn":1353,"data_status":"actual","official_data":true,"is_prediction":false,"source":"행정안전부 침수흔적도 · 재난안전데이터공유플랫폼 DSSP-IF-00117","collected_at":"2026-08-19T16:46:51+09:00","source_crs":"EPSG:3857","display_badges":["행안부 침수흔적도","과거 기록"]}},{"type":"Feature","id":"FLD:41590:6304:25721","geometry":{"type":"MultiPolygon","coordinates":[[[[127.043964,37.225285],[127.043854,37.225328],[127.043749,37.225159],[127.043858,37.225114],[127.043964,37.225285]]]]},"properties":{"id":"FLD:41590:6304:25721","layer":"FLOOD_TRACE","admin_code":"41590","sido_code":"41","flood_year":"2022","occurred_at":"2022-09-05","ended_at":"2022-09-06","begin_time":"1200","end_time":"0700","disaster_name":"태풍 힌남노","cause_detail":"내수침수","flood_grade":1,"flood_depth_m":0.198,"flood_area_m2":228.8,"source_sn":6304,"data_status":"actual","official_data":true,"is_prediction":false,"source":"행정안전부 침수흔적도 · 재난안전데이터공유플랫폼 DSSP-IF-00117","collected_at":"2026-08-19T16:46:51+09:00","source_crs":"EPSG:3857","display_badges":["행안부 침수흔적도","과거 기록"]}},{"type":"Feature","id":"FLD:41590:6305:25722","geometry":{"type":"MultiPolygon","coordinates":[[[[127.018532,37.217517],[127.018527,37.217625],[127.018527,37.217658],[127.018649,37.217661],[127.018661,37.217833],[127.018678,37.217851],[127.01869,37.217862],[127.018659,37.217875],[127.018321,37.217767],[127.018332,37.217658],[127.018329,37.217575],[127.018352,37.217532],[127.018334,37.217518],[127.018349,37.217491],[127.018532,37.217517]]]]},"properties":{"id":"FLD:41590:6305:25722","layer":"FLOOD_TRACE","admin_code":"41590","sido_code":"41","flood_year":"2022","occurred_at":"2022-08-09","ended_at":"2022-08-09","begin_time":"0100","end_time":"1200","disaster_name":"8.8.~8.17.호우","cause_detail":"내수침수","flood_grade":1,"flood_depth_m":0.299,"flood_area_m2":829,"source_sn":6305,"data_status":"actual","official_data":true,"is_prediction":false,"source":"행정안전부 침수흔적도 · 재난안전데이터공유플랫폼 DSSP-IF-00117","collected_at":"2026-08-19T16:46:51+09:00","source_crs":"EPSG:3857","display_badges":["행안부 침수흔적도","과거 기록"]}},{"type":"Feature","id":"FLD:41590:6306:25764","geometry":{"type":"MultiPolygon","coordinates":[[[[127.019603,37.218658],[127.019624,37.218749],[127.019568,37.218756],[127.019584,37.218781],[127.019595,37.218797],[127.019633,37.218858],[127.019656,37.218896],[127.01967,37.218957],[127.019695,37.21907],[127.019701,37.219097],[127.019604,37.219115],[127.01948,37.219139],[127.019453,37.219145],[127.019406,37.219155],[127.019401,37.219141],[127.019379,37.21908],[127.019332,37.219032],[127.019383,37.219009],[127.019366,37.218982],[127.019359,37.218972],[127.019384,37.218953],[127.019342,37.218888],[127.019324,37.21887],[127.019301,37.218843],[127.01929,37.218831],[127.019235,37.218767],[127.019179,37.2187],[127.019123,37.218637],[127.019076,37.218671],[127.019032,37.218702],[127.019013,37.218672],[127.018989,37.218629],[127.018964,37.218545],[127.018957,37.21852],[127.018951,37.218501],[127.018904,37.218514],[127.018859,37.218526],[127.01883,37.218512],[127.018965,37.218479],[127.019081,37.218451],[127.019131,37.218438],[127.019212,37.218423],[127.019313,37.218371],[127.01934,37.218358],[127.019374,37.218348],[127.019421,37.218336],[127.019496,37.21834],[127.019541,37.218338],[127.01957,37.218491],[127.019485,37.218511],[127.01945,37.218522],[127.019454,37.218527],[127.019577,37.218524],[127.019581,37.218546],[127.019595,37.21862],[127.019596,37.218624],[127.019603,37.218658]]]]},"properties":{"id":"FLD:41590:6306:25764","layer":"FLOOD_TRACE","admin_code":"41590","sido_code":"41","flood_year":"2022","occurred_at":"2022-08-09","ended_at":"2022-08-09","begin_time":"0100","end_time":"1200","disaster_name":"8.8.~8.17.호우","cause_detail":"내수침수","flood_grade":1,"flood_depth_m":0.297,"flood_area_m2":3138.4,"source_sn":6306,"data_status":"actual","official_data":true,"is_prediction":false,"source":"행정안전부 침수흔적도 · 재난안전데이터공유플랫폼 DSSP-IF-00117","collected_at":"2026-08-19T16:46:51+09:00","source_crs":"EPSG:3857","display_badges":["행안부 침수흔적도","과거 기록"]}},{"type":"Feature","id":"FLD:41590:6307:25765","geometry":{"type":"MultiPolygon","coordinates":[[[[126.696904,37.205391],[126.696794,37.205955],[126.696498,37.205919],[126.696602,37.205381],[126.696904,37.205391]]]]},"properties":{"id":"FLD:41590:6307:25765","layer":"FLOOD_TRACE","admin_code":"41590","sido_code":"41","flood_year":"2022","occurred_at":"2022-09-05","ended_at":"2022-09-06","begin_time":"1200","end_time":"0700","disaster_name":"9.3~9.7 태풍힌남노","cause_detail":"태풍으로 인한 내수침수","flood_grade":1,"flood_depth_m":0.2,"flood_area_m2":1645.3,"source_sn":6307,"data_status":"actual","official_data":true,"is_prediction":false,"source":"행정안전부 침수흔적도 · 재난안전데이터공유플랫폼 DSSP-IF-00117","collected_at":"2026-08-19T16:46:51+09:00","source_crs":"EPSG:3857","display_badges":["행안부 침수흔적도","과거 기록"]}},{"type":"Feature","id":"FLD:41590:6308:25766","geometry":{"type":"MultiPolygon","coordinates":[[[[126.736383,37.213197],[126.73654,37.213212],[126.736793,37.21324],[126.736792,37.213464],[126.73679,37.213591],[126.736485,37.213562],[126.736475,37.213531],[126.736513,37.213463],[126.736496,37.213376],[126.736439,37.213348],[126.736418,37.213338],[126.736369,37.213303],[126.736345,37.213286],[126.736244,37.213246],[126.736257,37.213185],[126.736383,37.213197]]]]},"properties":{"id":"FLD:41590:6308:25766","layer":"FLOOD_TRACE","admin_code":"41590","sido_code":"41","flood_year":"2022","occurred_at":"2022-06-30","ended_at":"2022-07-01","begin_time":"0700","end_time":"1500","disaster_name":"사강지구","cause_detail":"내수침수","flood_grade":2,"flood_depth_m":0.5,"flood_area_m2":1302.5,"source_sn":6308,"data_status":"actual","official_data":true,"is_prediction":false,"source":"행정안전부 침수흔적도 · 재난안전데이터공유플랫폼 DSSP-IF-00117","collected_at":"2026-08-19T16:46:51+09:00","source_crs":"EPSG:3857","display_badges":["행안부 침수흔적도","과거 기록"]}}]}