{"type":"FeatureCollection","features":[{"type":"Feature","id":"FLD:26140:3:4256","geometry":{"type":"MultiPolygon","coordinates":[[[[129.025438,35.08135],[129.025468,35.08137],[129.025573,35.081538],[129.025608,35.081604],[129.025639,35.081655],[129.025693,35.081778],[129.025717,35.081855],[129.025778,35.082082],[129.0258,35.08217],[129.025845,35.082374],[129.025902,35.082628],[129.026009,35.083047],[129.026245,35.083992],[129.026248,35.084005],[129.026557,35.085477],[129.026545,35.085477],[129.026534,35.085472],[129.026434,35.08537],[129.026367,35.085302],[129.026307,35.085064],[129.026302,35.085035],[129.026144,35.085077],[129.026024,35.084955],[129.02592,35.084849],[129.025733,35.084659],[129.025465,35.084203],[129.025414,35.084095],[129.025307,35.083869],[129.026115,35.083741],[129.02598,35.08321],[129.025939,35.083047],[129.025842,35.082645],[129.025716,35.082105],[129.025713,35.082092],[129.025691,35.082013],[129.02567,35.08194],[129.025623,35.081788],[129.025616,35.081774],[129.025566,35.081666],[129.025535,35.081595],[129.025453,35.081465],[129.025418,35.081408],[129.025357,35.081401],[129.025438,35.08135]]]]},"properties":{"id":"FLD:26140:3:4256","layer":"FLOOD_TRACE","admin_code":"26140","sido_code":"26","flood_year":"2016","occurred_at":"2016-10-05","ended_at":"2016-10-05","begin_time":"0900","end_time":"1100","disaster_name":"서구 암남동 침수피해","cause_detail":"송도해수욕장 침수","flood_grade":2,"flood_depth_m":0.973,"flood_area_m2":172953.303,"source_sn":3,"data_status":"actual","official_data":true,"is_prediction":false,"source":"행정안전부 침수흔적도 · 재난안전데이터공유플랫폼 DSSP-IF-00117","collected_at":"2026-08-19T16:46:51+09:00","source_crs":"EPSG:3857","display_badges":["행안부 침수흔적도","과거 기록"]}},{"type":"Feature","id":"FLD:26140:2:4731","geometry":{"type":"MultiPolygon","coordinates":[[[[129.022426,35.076837],[129.022391,35.076906],[129.022382,35.076915],[129.022286,35.077015],[129.022255,35.077045],[129.022195,35.076996],[129.022192,35.076994],[129.022189,35.076997],[129.022166,35.077015],[129.022142,35.077035],[129.022155,35.077047],[129.022135,35.077057],[129.022117,35.077036],[129.022116,35.077035],[129.022108,35.077025],[129.0221,35.07703],[129.021963,35.077101],[129.02194,35.077109],[129.021884,35.077131],[129.021941,35.077186],[129.021775,35.077292],[129.021739,35.077296],[129.021729,35.077309],[129.021697,35.077351],[129.021663,35.07735],[129.021612,35.077366],[129.021613,35.077383],[129.021346,35.077555],[129.021336,35.07756],[129.021336,35.077567],[129.021257,35.07764],[129.021349,35.077751],[129.021243,35.077796],[129.02126,35.077825],[129.021288,35.077855],[129.021322,35.077892],[129.02134,35.077913],[129.021364,35.077982],[129.021331,35.077989],[129.021182,35.078021],[129.020986,35.078086],[129.020973,35.07809],[129.020954,35.078096],[129.020944,35.078099],[129.020841,35.07812],[129.020747,35.078129],[129.020472,35.078111],[129.0204,35.078112],[129.020355,35.078093],[129.02027,35.078083],[129.020272,35.078066],[129.020249,35.07806],[129.019926,35.077991],[129.01986,35.077976],[129.019744,35.077917],[129.019519,35.077801],[129.019064,35.077568],[129.019106,35.077543],[129.019091,35.077524],[129.019069,35.077498],[129.018999,35.077411],[129.018982,35.077391],[129.01892,35.077322],[129.018903,35.077296],[129.018846,35.077222],[129.018745,35.077177],[129.018674,35.077185],[129.018648,35.077188],[129.018508,35.077202],[129.018506,35.077227],[129.018182,35.077253],[129.017695,35.077044],[129.017685,35.077011],[129.017602,35.077017],[129.017594,35.077012],[129.017291,35.076787],[129.017263,35.076684],[129.017343,35.076634],[129.017347,35.076632],[129.017431,35.076575],[129.017674,35.076794],[129.017727,35.076838],[129.017777,35.076875],[129.017803,35.076892],[129.017847,35.076918],[129.017875,35.076933],[129.017921,35.076957],[129.017968,35.07698],[129.017988,35.076989],[129.018018,35.076999],[129.01807,35.077016],[129.018142,35.077038],[129.018152,35.07704],[129.018162,35.077042],[129.01829,35.077068],[129.018301,35.07707],[129.018323,35.077073],[129.018356,35.077075],[129.018466,35.077076],[129.018477,35.077076],[129.018498,35.077073],[129.018541,35.077064],[129.018573,35.07706],[129.018606,35.077056],[129.018661,35.077054],[129.018705,35.077056],[129.018749,35.077063],[129.018781,35.07707],[129.018822,35.077084],[129.018852,35.077096],[129.01888,35.077109],[129.018917,35.077131],[129.018933,35.077143],[129.018957,35.077162],[129.018986,35.077189],[129.018992,35.077197],[129.01901,35.077219],[129.019046,35.077276],[129.019057,35.077292],[129.019075,35.077314],[129.019087,35.077329],[129.019101,35.077343],[129.019114,35.077357],[129.019129,35.077371],[129.019143,35.077384],[129.019158,35.077397],[129.019183,35.077416],[129.0192,35.077428],[129.019226,35.077444],[129.019244,35.077454],[129.019301,35.077482],[129.019329,35.077494],[129.01936,35.077506],[129.019401,35.077518],[129.019473,35.077535],[129.019516,35.077547],[129.019555,35.077562],[129.019576,35.077572],[129.019595,35.077582],[129.019602,35.077587],[129.019612,35.077594],[129.019628,35.077606],[129.019635,35.077612],[129.019643,35.077619],[129.01965,35.077626],[129.019656,35.077634],[129.019669,35.077649],[129.019679,35.077665],[129.01969,35.077681],[129.019702,35.077699],[129.019718,35.077719],[129.019738,35.07774],[129.019753,35.077752],[129.019769,35.077765],[129.019786,35.077777],[129.019803,35.077788],[129.019812,35.077792],[129.019822,35.077798],[129.019841,35.077807],[129.019851,35.077811],[129.019861,35.077814],[129.019881,35.077821],[129.019892,35.077823],[129.019935,35.077832],[129.020389,35.077906],[129.0204,35.077907],[129.020432,35.077911],[129.020465,35.077914],[129.020487,35.077915],[129.020498,35.077915],[129.020531,35.077915],[129.020542,35.077914],[129.020553,35.077914],[129.020564,35.077913],[129.020597,35.077911],[129.02069,35.077898],[129.020711,35.077895],[129.020733,35.07789],[129.020775,35.07788],[129.020785,35.077876],[129.020815,35.077866],[129.020835,35.077857],[129.020863,35.077843],[129.020882,35.077833],[129.020961,35.077785],[129.020978,35.077773],[129.021001,35.077753],[129.02105,35.077705],[129.021076,35.077676],[129.021126,35.077617],[129.021254,35.077451],[129.021201,35.077371],[129.021291,35.077277],[129.02142,35.077167],[129.021461,35.077137],[129.021486,35.077119],[129.021539,35.077087],[129.021611,35.077046],[129.02163,35.077036],[129.021685,35.077008],[129.021738,35.076982],[129.021739,35.076979],[129.021764,35.076946],[129.021772,35.076936],[129.021809,35.076888],[129.02182,35.076872],[129.02193,35.076758],[129.02204,35.076622],[129.022321,35.076777],[129.022359,35.076801],[129.02238,35.076812],[129.022426,35.076837]]]]},"properties":{"id":"FLD:26140:2:4731","layer":"FLOOD_TRACE","admin_code":"26140","sido_code":"26","flood_year":"2016","occurred_at":"2016-10-05","ended_at":"2016-10-05","begin_time":"0900","end_time":"1100","disaster_name":"서구 암남동 침수피해","cause_detail":"송도해수욕장 침수","flood_grade":2,"flood_depth_m":0.808,"flood_area_m2":172953.303,"source_sn":2,"data_status":"actual","official_data":true,"is_prediction":false,"source":"행정안전부 침수흔적도 · 재난안전데이터공유플랫폼 DSSP-IF-00117","collected_at":"2026-08-19T16:46:51+09:00","source_crs":"EPSG:3857","display_badges":["행안부 침수흔적도","과거 기록"]}},{"type":"Feature","id":"FLD:26140:6:4749","geometry":{"type":"MultiPolygon","coordinates":[[[[129.020572,35.063343],[129.020618,35.063282],[129.020945,35.062859],[129.021114,35.062641],[129.021125,35.062626],[129.021148,35.062596],[129.02116,35.062581],[129.021251,35.062566],[129.021323,35.06256],[129.02146,35.062529],[129.021548,35.062518],[129.021721,35.06249],[129.021835,35.062551],[129.021046,35.063565],[129.020309,35.064511],[129.020274,35.064466],[129.02022,35.064453],[129.020184,35.064458],[129.02017,35.064424],[129.020127,35.064372],[129.020084,35.064345],[129.020071,35.06424],[129.020097,35.064236],[129.02015,35.064229],[129.020156,35.064169],[129.020137,35.064133],[129.020093,35.064055],[129.020053,35.06401],[129.020046,35.06402],[129.020572,35.063343]]]]},"properties":{"id":"FLD:26140:6:4749","layer":"FLOOD_TRACE","admin_code":"26140","sido_code":"26","flood_year":"2016","occurred_at":"2016-10-05","ended_at":"2016-10-05","begin_time":"0900","end_time":"1100","disaster_name":"서구 암남동 침수피해","cause_detail":"암남공원 침수","flood_grade":2,"flood_depth_m":0.799,"flood_area_m2":16904.685,"source_sn":6,"data_status":"actual","official_data":true,"is_prediction":false,"source":"행정안전부 침수흔적도 · 재난안전데이터공유플랫폼 DSSP-IF-00117","collected_at":"2026-08-19T16:46:51+09:00","source_crs":"EPSG:3857","display_badges":["행안부 침수흔적도","과거 기록"]}},{"type":"Feature","id":"FLD:26140:4:4750","geometry":{"type":"MultiPolygon","coordinates":[[[[129.021148,35.062596],[129.021125,35.062626],[129.021114,35.062641],[129.020945,35.062859],[129.020618,35.063282],[129.020572,35.063343],[129.020046,35.06402],[129.020039,35.063957],[129.020025,35.063817],[129.020008,35.063646],[129.019983,35.063446],[129.020057,35.063349],[129.020086,35.06331],[129.020169,35.063247],[129.020205,35.063158],[129.020464,35.062879],[129.020668,35.062716],[129.020964,35.062609],[129.02116,35.062581],[129.021148,35.062596]]]]},"properties":{"id":"FLD:26140:4:4750","layer":"FLOOD_TRACE","admin_code":"26140","sido_code":"26","flood_year":"2016","occurred_at":"2016-10-05","ended_at":"2016-10-05","begin_time":"0900","end_time":"1100","disaster_name":"서구 암남동 침수피해","cause_detail":"암남공원 침수","flood_grade":1,"flood_depth_m":0.331,"flood_area_m2":16904.685,"source_sn":4,"data_status":"actual","official_data":true,"is_prediction":false,"source":"행정안전부 침수흔적도 · 재난안전데이터공유플랫폼 DSSP-IF-00117","collected_at":"2026-08-19T16:46:51+09:00","source_crs":"EPSG:3857","display_badges":["행안부 침수흔적도","과거 기록"]}},{"type":"Feature","id":"FLD:26140:5:4751","geometry":{"type":"MultiPolygon","coordinates":[[[[129.019257,35.070415],[129.019275,35.070423],[129.019697,35.070624],[129.019777,35.071024],[129.0195,35.071413],[129.019404,35.071367],[129.019662,35.071007],[129.019598,35.070682],[129.01922,35.070503],[129.019181,35.070559],[129.019281,35.070607],[129.019266,35.070631],[129.019165,35.070582],[129.018802,35.071097],[129.018888,35.071138],[129.018857,35.071183],[129.018772,35.071141],[129.018727,35.071202],[129.018701,35.071233],[129.018648,35.071293],[129.01862,35.071317],[129.01857,35.071356],[129.018529,35.071383],[129.018501,35.071401],[129.018472,35.071416],[129.01844,35.071431],[129.018405,35.071445],[129.018226,35.071511],[129.018113,35.071551],[129.017931,35.071614],[129.017721,35.07169],[129.017662,35.071714],[129.017635,35.071726],[129.017602,35.071743],[129.017532,35.071785],[129.017495,35.071808],[129.017455,35.071835],[129.017433,35.071851],[129.017398,35.071879],[129.017364,35.07191],[129.017334,35.07194],[129.017311,35.071966],[129.017289,35.071993],[129.017267,35.072021],[129.017247,35.072049],[129.017218,35.072095],[129.017194,35.07214],[129.017174,35.072182],[129.017073,35.07245],[129.01692,35.072866],[129.016665,35.073622],[129.016669,35.073627],[129.01758,35.073953],[129.017565,35.073981],[129.016782,35.073701],[129.016779,35.073707],[129.016761,35.073701],[129.016747,35.073698],[129.016727,35.073696],[129.016704,35.073696],[129.016677,35.073698],[129.016649,35.073704],[129.016628,35.07371],[129.016605,35.07372],[129.016592,35.073726],[129.016561,35.073745],[129.016595,35.073781],[129.016556,35.073806],[129.016523,35.073771],[129.016457,35.073805],[129.016467,35.073817],[129.016482,35.073838],[129.016492,35.073857],[129.016496,35.073868],[129.016498,35.073881],[129.016502,35.073906],[129.016501,35.07392],[129.016497,35.073941],[129.016492,35.073956],[129.016484,35.073975],[129.016472,35.073992],[129.016458,35.074009],[129.016443,35.074022],[129.016422,35.074036],[129.016442,35.074057],[129.016403,35.074078],[129.016383,35.074073],[129.016365,35.074088],[129.016336,35.074111],[129.016315,35.074132],[129.016304,35.074146],[129.01629,35.074162],[129.016279,35.074178],[129.01627,35.074194],[129.016256,35.074219],[129.016239,35.074262],[129.016232,35.074288],[129.016229,35.074306],[129.016226,35.074332],[129.016226,35.074375],[129.016254,35.074383],[129.016256,35.074395],[129.016262,35.074424],[129.016223,35.074432],[129.016264,35.074556],[129.016296,35.074643],[129.01636,35.074797],[129.016406,35.074899],[129.016451,35.074992],[129.016484,35.075058],[129.016528,35.075141],[129.016548,35.075135],[129.016558,35.075152],[129.016563,35.075162],[129.01657,35.075177],[129.016573,35.075187],[129.016576,35.075195],[129.016582,35.075222],[129.016582,35.075242],[129.016573,35.075276],[129.01657,35.075284],[129.016561,35.075309],[129.016567,35.075315],[129.016579,35.075327],[129.016614,35.075353],[129.016607,35.075358],[129.016628,35.075373],[129.016653,35.075391],[129.016676,35.075411],[129.016697,35.075432],[129.016722,35.075462],[129.016734,35.075477],[129.01675,35.075501],[129.016759,35.075517],[129.016772,35.075543],[129.016783,35.075569],[129.016789,35.075586],[129.016798,35.07562],[129.016804,35.075619],[129.016805,35.075625],[129.016805,35.075653],[129.016799,35.075689],[129.016895,35.075781],[129.016887,35.075786],[129.017082,35.07596],[129.017249,35.076108],[129.017295,35.076143],[129.017314,35.07613],[129.017334,35.076121],[129.017356,35.076113],[129.017378,35.076108],[129.017402,35.076105],[129.017425,35.076104],[129.017448,35.076106],[129.017471,35.07611],[129.017493,35.076116],[129.017514,35.076125],[129.017533,35.076136],[129.017551,35.076148],[129.017567,35.076162],[129.01758,35.076178],[129.017591,35.076195],[129.017599,35.076213],[129.017605,35.076232],[129.017607,35.076251],[129.017607,35.07627],[129.017604,35.076289],[129.017598,35.076308],[129.017589,35.076325],[129.017578,35.076342],[129.017565,35.076358],[129.018032,35.076729],[129.018044,35.076718],[129.018059,35.076729],[129.018071,35.07672],[129.018184,35.076812],[129.018103,35.076884],[129.018121,35.076895],[129.018133,35.076902],[129.01817,35.076922],[129.018199,35.076934],[129.018229,35.076946],[129.01826,35.076955],[129.018302,35.076965],[129.018346,35.076971],[129.018367,35.076973],[129.018401,35.076975],[129.018445,35.076974],[129.018466,35.076972],[129.018488,35.07697],[129.018574,35.076956],[129.018618,35.076952],[129.018641,35.076952],[129.018673,35.076952],[129.0187,35.076954],[129.018697,35.076979],[129.01875,35.076984],[129.018772,35.076988],[129.018793,35.076992],[129.018825,35.077001],[129.018855,35.077011],[129.018885,35.077022],[129.018894,35.077026],[129.018977,35.077072],[129.019003,35.077089],[129.019025,35.077109],[129.019047,35.077129],[129.019083,35.077166],[129.019096,35.077159],[129.019183,35.077263],[129.01921,35.077292],[129.019239,35.077319],[129.019272,35.077343],[129.019308,35.077366],[129.01934,35.077384],[129.019344,35.077378],[129.019393,35.077399],[129.019413,35.077406],[129.019434,35.077412],[129.019475,35.077423],[129.019539,35.077437],[129.01957,35.077447],[129.0196,35.077458],[129.019639,35.077475],[129.019666,35.077491],[129.0197,35.077513],[129.019717,35.077525],[129.019732,35.077538],[129.019757,35.077563],[129.019778,35.077589],[129.019798,35.077618],[129.020463,35.077694],[129.020459,35.077713],[129.020488,35.077716],[129.020484,35.077738],[129.020528,35.077741],[129.020539,35.077741],[129.020571,35.077735],[129.020705,35.077694],[129.020765,35.077672],[129.020804,35.077655],[129.021064,35.077537],[129.021038,35.077497],[129.021184,35.077384],[129.021178,35.077378],[129.021174,35.077367],[129.021175,35.077353],[129.021179,35.077343],[129.021202,35.077313],[129.021237,35.077273],[129.021303,35.077205],[129.021315,35.077169],[129.021141,35.076958],[129.021184,35.076931],[129.021373,35.077158],[129.021411,35.077129],[129.021468,35.077091],[129.021536,35.07705],[129.021615,35.07701],[129.021764,35.076946],[129.021739,35.076979],[129.021738,35.076982],[129.021685,35.077008],[129.02163,35.077036],[129.021611,35.077046],[129.021539,35.077087],[129.021486,35.077119],[129.021461,35.077137],[129.02142,35.077167],[129.021291,35.077277],[129.021201,35.077371],[129.021254,35.077451],[129.021126,35.077617],[129.021076,35.077676],[129.02105,35.077705],[129.021001,35.077753],[129.020978,35.077773],[129.020961,35.077785],[129.020882,35.077833],[129.020863,35.077843],[129.020835,35.077857],[129.020815,35.077866],[129.020785,35.077876],[129.020775,35.07788],[129.020733,35.07789],[129.020711,35.077895],[129.02069,35.077898],[129.020597,35.077911],[129.020564,35.077913],[129.020553,35.077914],[129.020542,35.077914],[129.020531,35.077915],[129.020498,35.077915],[129.020487,35.077915],[129.020465,35.077914],[129.020432,35.077911],[129.0204,35.077907],[129.020389,35.077906],[129.019935,35.077832],[129.019892,35.077823],[129.019881,35.077821],[129.019861,35.077814],[129.019851,35.077811],[129.019841,35.077807],[129.019822,35.077798],[129.019812,35.077792],[129.019803,35.077788],[129.019786,35.077777],[129.019769,35.077765],[129.019753,35.077752],[129.019738,35.07774],[129.019718,35.077719],[129.019702,35.077699],[129.01969,35.077681],[129.019679,35.077665],[129.019669,35.077649],[129.019656,35.077634],[129.01965,35.077626],[129.019643,35.077619],[129.019635,35.077612],[129.019628,35.077606],[129.019612,35.077594],[129.019602,35.077587],[129.019595,35.077582],[129.019576,35.077572],[129.019555,35.077562],[129.019516,35.077547],[129.019473,35.077535],[129.019401,35.077518],[129.01936,35.077506],[129.019329,35.077494],[129.019301,35.077482],[129.019244,35.077454],[129.019226,35.077444],[129.0192,35.077428],[129.019183,35.077416],[129.019158,35.077397],[129.019143,35.077384],[129.019129,35.077371],[129.019114,35.077357],[129.019101,35.077343],[129.019087,35.077329],[129.019075,35.077314],[129.019057,35.077292],[129.019046,35.077276],[129.01901,35.077219],[129.018992,35.077197],[129.018986,35.077189],[129.018957,35.077162],[129.018933,35.077143],[129.018917,35.077131],[129.01888,35.077109],[129.018852,35.077096],[129.018822,35.077084],[129.018781,35.07707],[129.018749,35.077063],[129.018705,35.077056],[129.018661,35.077054],[129.018606,35.077056],[129.018573,35.07706],[129.018541,35.077064],[129.018498,35.077073],[129.018477,35.077076],[129.018466,35.077076],[129.018356,35.077075],[129.018323,35.077073],[129.018301,35.07707],[129.01829,35.077068],[129.018162,35.077042],[129.018152,35.07704],[129.018142,35.077038],[129.01807,35.077016],[129.018018,35.076999],[129.017988,35.076989],[129.017968,35.07698],[129.017921,35.076957],[129.017875,35.076933],[129.017847,35.076918],[129.017803,35.076892],[129.017777,35.076875],[129.017727,35.076838],[129.017674,35.076794],[129.017431,35.076575],[129.017343,35.076634],[129.017333,35.076625],[129.017233,35.076528],[129.017172,35.076531],[129.017125,35.076533],[129.017048,35.076551],[129.017035,35.076536],[129.017008,35.076503],[129.016982,35.07647],[129.01697,35.076455],[129.016944,35.076423],[129.016928,35.076402],[129.016914,35.076383],[129.016899,35.076365],[129.016889,35.076353],[129.016866,35.076323],[129.016833,35.076281],[129.016796,35.076233],[129.016732,35.076154],[129.016614,35.076003],[129.016596,35.076017],[129.01653,35.075947],[129.016449,35.075857],[129.016432,35.075839],[129.016369,35.07577],[129.016344,35.075788],[129.016331,35.075774],[129.016305,35.07575],[129.016285,35.075731],[129.01631,35.075727],[129.016369,35.075688],[129.016314,35.075626],[129.016246,35.075551],[129.016224,35.075429],[129.016166,35.075336],[129.016089,35.075206],[129.016075,35.075185],[129.015935,35.074944],[129.01588,35.074853],[129.015873,35.074833],[129.015811,35.074653],[129.015799,35.074616],[129.015764,35.074597],[129.015764,35.074591],[129.015757,35.074543],[129.015745,35.074438],[129.015737,35.074374],[129.015747,35.074339],[129.015761,35.074302],[129.0158,35.074196],[129.015849,35.074063],[129.015874,35.073996],[129.0159,35.073951],[129.01593,35.073895],[129.015953,35.073832],[129.015984,35.073841],[129.016024,35.073849],[129.016055,35.073806],[129.016094,35.073771],[129.016121,35.073724],[129.016188,35.073677],[129.016254,35.073642],[129.016313,35.073596],[129.016327,35.073589],[129.016335,35.073585],[129.016402,35.07353],[129.016433,35.073504],[129.016436,35.073495],[129.016518,35.07325],[129.016541,35.073183],[129.016562,35.07312],[129.016578,35.073071],[129.016604,35.072995],[129.016699,35.072713],[129.016808,35.072416],[129.016915,35.072133],[129.016945,35.072055],[129.016962,35.072028],[129.017001,35.071966],[129.017045,35.071913],[129.017087,35.071862],[129.017129,35.07181],[129.017174,35.071766],[129.017199,35.071742],[129.017279,35.071676],[129.017369,35.071611],[129.017504,35.071532],[129.017631,35.071472],[129.017724,35.071436],[129.018228,35.071273],[129.018339,35.071233],[129.018411,35.071203],[129.018454,35.071179],[129.018512,35.071142],[129.018363,35.070984],[129.0184,35.070955],[129.018562,35.070824],[129.018574,35.070814],[129.018581,35.070809],[129.01859,35.070801],[129.018597,35.070795],[129.018611,35.070784],[129.018726,35.070694],[129.018742,35.070682],[129.018975,35.070563],[129.018991,35.070554],[129.019032,35.070532],[129.019144,35.070372],[129.019257,35.070415]]]]},"properties":{"id":"FLD:26140:5:4751","layer":"FLOOD_TRACE","admin_code":"26140","sido_code":"26","flood_year":"2016","occurred_at":"2016-10-05","ended_at":"2016-10-05","begin_time":"0900","end_time":"1100","disaster_name":"서구 암남동 침수피해","cause_detail":"송도해수욕장 침수","flood_grade":1,"flood_depth_m":0.451,"flood_area_m2":172953.303,"source_sn":5,"data_status":"actual","official_data":true,"is_prediction":false,"source":"행정안전부 침수흔적도 · 재난안전데이터공유플랫폼 DSSP-IF-00117","collected_at":"2026-08-19T16:46:51+09:00","source_crs":"EPSG:3857","display_badges":["행안부 침수흔적도","과거 기록"]}},{"type":"Feature","id":"FLD:26140:1:4756","geometry":{"type":"MultiPolygon","coordinates":[[[[129.022519,35.076788],[129.022506,35.076815],[129.02248,35.076856],[129.02243,35.076829],[129.022426,35.076837],[129.02238,35.076812],[129.022359,35.076801],[129.022321,35.076777],[129.02204,35.076622],[129.022246,35.076484],[129.022301,35.076482],[129.022312,35.076464],[129.022205,35.076449],[129.02214,35.076447],[129.022092,35.07645],[129.022055,35.076457],[129.022006,35.07647],[129.021939,35.076495],[129.021915,35.076506],[129.021894,35.076517],[129.021876,35.07653],[129.02184,35.076559],[129.021793,35.0766],[129.021604,35.076782],[129.021566,35.076756],[129.021752,35.076582],[129.021819,35.076524],[129.021851,35.076498],[129.021871,35.076485],[129.021914,35.076465],[129.022012,35.076427],[129.02204,35.076418],[129.022082,35.076411],[129.022261,35.076397],[129.022263,35.076354],[129.022283,35.076326],[129.022346,35.076254],[129.022405,35.076196],[129.022494,35.076121],[129.022517,35.076104],[129.022535,35.076093],[129.022563,35.076081],[129.022582,35.076075],[129.022603,35.076072],[129.022627,35.07607],[129.022648,35.076071],[129.022679,35.076077],[129.022708,35.076084],[129.022711,35.076088],[129.022784,35.076043],[129.022823,35.076021],[129.02282,35.076016],[129.02282,35.075984],[129.022823,35.075961],[129.022831,35.075939],[129.022843,35.075918],[129.022858,35.075899],[129.022886,35.075876],[129.022941,35.07585],[129.023023,35.075822],[129.023079,35.075806],[129.023139,35.075794],[129.023181,35.075787],[129.023258,35.075777],[129.023319,35.075773],[129.023432,35.075775],[129.023496,35.07578],[129.023539,35.075786],[129.023586,35.075794],[129.023644,35.075807],[129.023687,35.075818],[129.023743,35.07584],[129.023789,35.075862],[129.023794,35.075857],[129.023818,35.075872],[129.023848,35.075891],[129.023875,35.075913],[129.0239,35.075935],[129.023922,35.07596],[129.023943,35.075986],[129.023962,35.076015],[129.023979,35.076046],[129.023993,35.076078],[129.024004,35.076114],[129.023998,35.076121],[129.023932,35.076152],[129.023935,35.076156],[129.023937,35.076154],[129.023957,35.076183],[129.023965,35.076188],[129.023974,35.076193],[129.024063,35.076238],[129.024457,35.076182],[129.024846,35.077988],[129.024849,35.078005],[129.02485,35.078006],[129.025078,35.079064],[129.025081,35.079082],[129.025529,35.081151],[129.025532,35.081166],[129.025639,35.081655],[129.025608,35.081604],[129.025573,35.081538],[129.025468,35.08137],[129.025438,35.08135],[129.025357,35.081401],[129.025317,35.081339],[129.025227,35.081263],[129.025134,35.081186],[129.024969,35.081066],[129.024952,35.081053],[129.024874,35.080996],[129.024795,35.080954],[129.024623,35.080863],[129.024609,35.080855],[129.024458,35.080775],[129.02429,35.080685],[129.024221,35.080648],[129.024214,35.080644],[129.024037,35.080549],[129.023831,35.080438],[129.023802,35.080442],[129.023725,35.080404],[129.023718,35.080385],[129.023182,35.080116],[129.022825,35.079935],[129.022704,35.079878],[129.022675,35.079865],[129.02266,35.079858],[129.022605,35.079833],[129.022565,35.079815],[129.022198,35.079644],[129.022091,35.079609],[129.022102,35.079579],[129.022077,35.079572],[129.02196,35.079541],[129.021918,35.079444],[129.022361,35.077908],[129.022362,35.07787],[129.022363,35.077821],[129.022408,35.077744],[129.022411,35.077732],[129.022432,35.077672],[129.022439,35.077603],[129.022441,35.077596],[129.022681,35.077471],[129.022862,35.077494],[129.022907,35.077481],[129.02294,35.077469],[129.023042,35.077436],[129.023075,35.077411],[129.023093,35.077398],[129.023145,35.077317],[129.02312,35.077218],[129.023142,35.077167],[129.023136,35.077091],[129.022973,35.07701],[129.023134,35.076669],[129.023242,35.076586],[129.023262,35.076595],[129.023274,35.076577],[129.023328,35.076602],[129.023475,35.076389],[129.023466,35.076385],[129.023455,35.076362],[129.023431,35.076228],[129.023449,35.07621],[129.023444,35.076165],[129.023442,35.076149],[129.02344,35.076137],[129.022888,35.076256],[129.022849,35.076266],[129.022746,35.076331],[129.022678,35.076404],[129.022675,35.076421],[129.022662,35.076509],[129.022597,35.076552],[129.022619,35.076577],[129.022625,35.076572],[129.022651,35.076598],[129.02262,35.076632],[129.022628,35.076638],[129.022613,35.076659],[129.022554,35.076721],[129.022519,35.076788]]]]},"properties":{"id":"FLD:26140:1:4756","layer":"FLOOD_TRACE","admin_code":"26140","sido_code":"26","flood_year":"2016","occurred_at":"2016-10-05","ended_at":"2016-10-05","begin_time":"0900","end_time":"1100","disaster_name":"서구 암남동 침수피해","cause_detail":"송도해수욕장 침수","flood_grade":3,"flood_depth_m":1.088,"flood_area_m2":172953.303,"source_sn":1,"data_status":"actual","official_data":true,"is_prediction":false,"source":"행정안전부 침수흔적도 · 재난안전데이터공유플랫폼 DSSP-IF-00117","collected_at":"2026-08-19T16:46:51+09:00","source_crs":"EPSG:3857","display_badges":["행안부 침수흔적도","과거 기록"]}},{"type":"Feature","id":"FLD:26140:4:11676","geometry":{"type":"MultiPolygon","coordinates":[[[[129.025151,35.080461],[129.024928,35.079441],[129.024828,35.078984],[129.024825,35.078963],[129.024743,35.078582],[129.024626,35.078037],[129.024622,35.078019],[129.02429,35.076465],[129.024193,35.076409],[129.023887,35.076449],[129.023865,35.076457],[129.02384,35.076471],[129.023721,35.076692],[129.02366,35.076783],[129.023601,35.07684],[129.023564,35.07687],[129.023525,35.076888],[129.023448,35.076917],[129.023419,35.076932],[129.023442,35.076899],[129.023523,35.076861],[129.023544,35.076847],[129.023565,35.076833],[129.023597,35.076806],[129.023636,35.076767],[129.023678,35.0767],[129.023792,35.076479],[129.023813,35.076467],[129.023806,35.076456],[129.02384,35.076375],[129.023841,35.076341],[129.023849,35.076338],[129.023876,35.076329],[129.023906,35.076281],[129.023904,35.076278],[129.024442,35.0762],[129.024635,35.077098],[129.024826,35.077991],[129.024829,35.078008],[129.024947,35.078553],[129.024958,35.078606],[129.025057,35.079065],[129.025061,35.079084],[129.02514,35.079441],[129.025341,35.080369],[129.025151,35.080461]]]]},"properties":{"id":"FLD:26140:4:11676","layer":"FLOOD_TRACE","admin_code":"26140","sido_code":"26","flood_year":"2020","occurred_at":"2020-09-07","ended_at":"2020-09-07","begin_time":"0600","end_time":"0900","disaster_name":"20년 9월 태풍 하이선에 의한 침수피해","cause_detail":"하천범람(월류)","flood_grade":1,"flood_depth_m":0.445,"flood_area_m2":9877.6,"source_sn":4,"data_status":"actual","official_data":true,"is_prediction":false,"source":"행정안전부 침수흔적도 · 재난안전데이터공유플랫폼 DSSP-IF-00117","collected_at":"2026-08-19T16:46:51+09:00","source_crs":"EPSG:3857","display_badges":["행안부 침수흔적도","과거 기록"]}},{"type":"Feature","id":"FLD:26140:5:11677","geometry":{"type":"MultiPolygon","coordinates":[[[[129.017001,35.071966],[129.017045,35.071913],[129.017087,35.071862],[129.017129,35.07181],[129.017174,35.071766],[129.017199,35.071742],[129.017279,35.071676],[129.017369,35.071611],[129.017374,35.071608],[129.017504,35.071532],[129.017631,35.071472],[129.017724,35.071436],[129.018228,35.071273],[129.018292,35.07125],[129.018339,35.071233],[129.018411,35.071203],[129.018454,35.071179],[129.018512,35.071142],[129.018717,35.070979],[129.018769,35.071004],[129.018819,35.071029],[129.01875,35.071131],[129.018748,35.071134],[129.01875,35.071136],[129.018729,35.071164],[129.0187,35.071202],[129.018689,35.071217],[129.018651,35.071261],[129.018637,35.071276],[129.018623,35.071289],[129.018586,35.071321],[129.018554,35.071344],[129.018528,35.071361],[129.018484,35.071388],[129.018465,35.071398],[129.018447,35.071407],[129.018427,35.071415],[129.018367,35.071438],[129.018277,35.071472],[129.017742,35.071662],[129.017712,35.071673],[129.017692,35.07168],[129.017662,35.071692],[129.017634,35.071705],[129.017615,35.071714],[129.017596,35.071724],[129.017578,35.071734],[129.017542,35.071755],[129.017524,35.071765],[129.017489,35.071787],[129.017474,35.071799],[129.017457,35.071811],[129.01744,35.071822],[129.017424,35.071834],[129.0174,35.071853],[129.017384,35.071866],[129.01734,35.071906],[129.017327,35.07192],[129.017306,35.071942],[129.017287,35.071964],[129.017275,35.071979],[129.017258,35.072002],[129.01724,35.072024],[129.01723,35.07204],[129.017214,35.072063],[129.017001,35.071966]]]]},"properties":{"id":"FLD:26140:5:11677","layer":"FLOOD_TRACE","admin_code":"26140","sido_code":"26","flood_year":"2020","occurred_at":"2020-07-23","ended_at":"2020-07-23","begin_time":"1700","end_time":"1800","disaster_name":"20년 7월 집중호우에 의한 침수","cause_detail":"배수불량","flood_grade":1,"flood_depth_m":0.456,"flood_area_m2":4063.8,"source_sn":5,"data_status":"actual","official_data":true,"is_prediction":false,"source":"행정안전부 침수흔적도 · 재난안전데이터공유플랫폼 DSSP-IF-00117","collected_at":"2026-08-19T16:46:51+09:00","source_crs":"EPSG:3857","display_badges":["행안부 침수흔적도","과거 기록"]}},{"type":"Feature","id":"FLD:26140:5529:20007","geometry":{"type":"MultiPolygon","coordinates":[[[[129.021125,35.062626],[129.021114,35.062641],[129.021061,35.062709],[129.020945,35.062859],[129.020831,35.063006],[129.020439,35.062807],[129.020668,35.062716],[129.020714,35.062703],[129.020978,35.062641],[129.021014,35.062632],[129.021113,35.062609],[129.021148,35.062596],[129.021125,35.062626]]]]},"properties":{"id":"FLD:26140:5529:20007","layer":"FLOOD_TRACE","admin_code":"26140","sido_code":"26","flood_year":"2022","occurred_at":"2022-09-06","ended_at":"2022-09-06","begin_time":"0400","end_time":"0700","disaster_name":"제11호 태풍 힌남노","cause_detail":"해안가/만조시간 폭풍해일","flood_grade":2,"flood_depth_m":0.5,"flood_area_m2":1210.4,"source_sn":5529,"data_status":"actual","official_data":true,"is_prediction":false,"source":"행정안전부 침수흔적도 · 재난안전데이터공유플랫폼 DSSP-IF-00117","collected_at":"2026-08-19T16:46:51+09:00","source_crs":"EPSG:3857","display_badges":["행안부 침수흔적도","과거 기록"]}},{"type":"Feature","id":"FLD:26140:5530:20121","geometry":{"type":"MultiPolygon","coordinates":[[[[129.020831,35.063006],[129.020618,35.063282],[129.020572,35.063343],[129.020144,35.063894],[129.020134,35.063827],[129.020029,35.06364],[129.020114,35.063495],[129.0201,35.063472],[129.020068,35.063446],[129.020169,35.063247],[129.020205,35.063158],[129.020226,35.063015],[129.02039,35.062826],[129.020439,35.062807],[129.020831,35.063006]]]]},"properties":{"id":"FLD:26140:5530:20121","layer":"FLOOD_TRACE","admin_code":"26140","sido_code":"26","flood_year":"2022","occurred_at":"2022-09-06","ended_at":"2022-09-06","begin_time":"0400","end_time":"0700","disaster_name":"제11호 태풍 힌남노","cause_detail":"해안가/만조시간 폭풍해일","flood_grade":3,"flood_depth_m":1,"flood_area_m2":3878.3,"source_sn":5530,"data_status":"actual","official_data":true,"is_prediction":false,"source":"행정안전부 침수흔적도 · 재난안전데이터공유플랫폼 DSSP-IF-00117","collected_at":"2026-08-19T16:46:51+09:00","source_crs":"EPSG:3857","display_badges":["행안부 침수흔적도","과거 기록"]}},{"type":"Feature","id":"FLD:26140:5531:20122","geometry":{"type":"MultiPolygon","coordinates":[[[[129.025529,35.081151],[129.025532,35.081166],[129.025639,35.081656],[129.025693,35.081778],[129.025717,35.081855],[129.025778,35.082082],[129.0258,35.08217],[129.025845,35.082374],[129.025902,35.082628],[129.026009,35.083047],[129.026245,35.083992],[129.026248,35.084005],[129.026526,35.085329],[129.026461,35.085352],[129.026371,35.085188],[129.026299,35.084884],[129.026186,35.084572],[129.025926,35.08347],[129.025766,35.082774],[129.025554,35.081669],[129.025357,35.081401],[129.024969,35.081066],[129.024952,35.081053],[129.024874,35.080996],[129.024795,35.080954],[129.024623,35.080863],[129.024609,35.080855],[129.024458,35.080775],[129.02429,35.080685],[129.024221,35.080648],[129.024214,35.080644],[129.023802,35.080442],[129.023721,35.080409],[129.023702,35.080399],[129.023682,35.080389],[129.022807,35.079963],[129.022825,35.079935],[129.022853,35.079888],[129.022894,35.079822],[129.022917,35.079783],[129.02293,35.079779],[129.023993,35.07947],[129.024013,35.079466],[129.024078,35.079456],[129.024263,35.079472],[129.024274,35.079472],[129.024285,35.079472],[129.024296,35.079472],[129.024307,35.079472],[129.024318,35.079472],[129.024329,35.079472],[129.02434,35.079473],[129.024351,35.079473],[129.024362,35.079473],[129.024373,35.079474],[129.024384,35.079474],[129.024395,35.079475],[129.024406,35.079476],[129.024417,35.079476],[129.024427,35.079477],[129.024432,35.079478],[129.024443,35.079479],[129.024454,35.07948],[129.024465,35.079481],[129.024476,35.079482],[129.024482,35.079483],[129.024523,35.079482],[129.024533,35.079486],[129.024543,35.079489],[129.024553,35.079493],[129.024563,35.079498],[129.024572,35.079503],[129.024581,35.079507],[129.024589,35.079512],[129.024598,35.079517],[129.024606,35.079523],[129.024615,35.079529],[129.024623,35.079534],[129.024632,35.07954],[129.02464,35.079546],[129.024648,35.079552],[129.024656,35.079558],[129.024664,35.079565],[129.024672,35.079571],[129.024679,35.079578],[129.024687,35.079584],[129.024804,35.079721],[129.024809,35.079729],[129.024814,35.079737],[129.024818,35.079745],[129.024823,35.079753],[129.024827,35.079762],[129.024831,35.07977],[129.024835,35.079778],[129.024839,35.079787],[129.024843,35.079795],[129.024847,35.079804],[129.02485,35.079812],[129.024853,35.07982],[129.024877,35.079883],[129.024883,35.079937],[129.024912,35.08],[129.024966,35.08001],[129.025117,35.080037],[129.024997,35.079432],[129.024947,35.079222],[129.024908,35.079159],[129.024825,35.078963],[129.024662,35.078581],[129.024493,35.077924],[129.024204,35.076553],[129.023959,35.076586],[129.0236,35.077138],[129.023262,35.077649],[129.023001,35.078025],[129.02253,35.079125],[129.02237,35.079436],[129.022237,35.079541],[129.022091,35.079609],[129.022065,35.079602],[129.022051,35.079581],[129.022244,35.079011],[129.022459,35.078464],[129.022693,35.077869],[129.022893,35.077517],[129.022942,35.077504],[129.023063,35.077395],[129.02315,35.077244],[129.023095,35.077219],[129.023166,35.077094],[129.02328,35.076987],[129.023679,35.076432],[129.023626,35.076213],[129.023342,35.076111],[129.023285,35.076109],[129.0232,35.076126],[129.022918,35.076226],[129.022891,35.076282],[129.022855,35.076297],[129.022843,35.076302],[129.022707,35.076423],[129.022704,35.076431],[129.022675,35.076509],[129.0226,35.076527],[129.02253,35.076616],[129.022349,35.076891],[129.022226,35.077015],[129.021959,35.077135],[129.021714,35.077239],[129.021685,35.077245],[129.021625,35.077291],[129.021569,35.077335],[129.021496,35.077392],[129.021358,35.077513],[129.021356,35.077529],[129.021357,35.077541],[129.021372,35.077587],[129.02121,35.077733],[129.021251,35.077798],[129.021256,35.077811],[129.021274,35.077854],[129.021226,35.077895],[129.020933,35.078011],[129.020725,35.078046],[129.02047,35.078055],[129.01986,35.077976],[129.019796,35.077961],[129.019635,35.077873],[129.019528,35.077783],[129.019516,35.077752],[129.019106,35.077543],[129.019091,35.077524],[129.01903,35.077492],[129.019016,35.07747],[129.018982,35.077391],[129.018901,35.077335],[129.01889,35.077316],[129.018885,35.077315],[129.018878,35.077317],[129.018693,35.077225],[129.018683,35.077189],[129.018674,35.077185],[129.018648,35.077188],[129.018506,35.077227],[129.018182,35.077253],[129.017685,35.077011],[129.017614,35.076972],[129.017227,35.076595],[129.017233,35.076528],[129.017265,35.076502],[129.017299,35.076468],[129.017565,35.076358],[129.018032,35.076729],[129.018044,35.076718],[129.018059,35.076729],[129.018071,35.07672],[129.018184,35.076812],[129.018103,35.076884],[129.018121,35.076895],[129.018133,35.076902],[129.01817,35.076922],[129.018199,35.076934],[129.018229,35.076946],[129.01826,35.076955],[129.018302,35.076965],[129.018346,35.076971],[129.018367,35.076973],[129.018401,35.076975],[129.018445,35.076974],[129.018466,35.076972],[129.018488,35.07697],[129.018574,35.076956],[129.018618,35.076952],[129.018641,35.076952],[129.018673,35.076952],[129.0187,35.076954],[129.018697,35.076979],[129.01875,35.076984],[129.018772,35.076988],[129.018793,35.076992],[129.018825,35.077001],[129.018855,35.077011],[129.018885,35.077022],[129.018894,35.077026],[129.018977,35.077072],[129.019003,35.077089],[129.019025,35.077109],[129.019047,35.077129],[129.019083,35.077166],[129.019096,35.077159],[129.019183,35.077263],[129.01921,35.077292],[129.019239,35.077319],[129.019272,35.077343],[129.019308,35.077366],[129.01934,35.077384],[129.019344,35.077378],[129.019393,35.077399],[129.019413,35.077406],[129.019434,35.077412],[129.019475,35.077423],[129.019539,35.077437],[129.01957,35.077447],[129.0196,35.077458],[129.019639,35.077475],[129.019666,35.077491],[129.0197,35.077513],[129.019717,35.077525],[129.019732,35.077538],[129.019757,35.077563],[129.019778,35.077589],[129.019798,35.077618],[129.020463,35.077694],[129.020459,35.077713],[129.020488,35.077716],[129.020484,35.077738],[129.020528,35.077741],[129.020539,35.077741],[129.020571,35.077735],[129.020705,35.077694],[129.020765,35.077672],[129.020804,35.077655],[129.020962,35.077583],[129.021071,35.077536],[129.021046,35.077496],[129.021208,35.077422],[129.021193,35.077392],[129.02119,35.07738],[129.021189,35.077364],[129.021193,35.077355],[129.021196,35.077346],[129.021226,35.077307],[129.021261,35.077268],[129.021322,35.077207],[129.021351,35.077189],[129.021391,35.07716],[129.021433,35.077128],[129.021477,35.077098],[129.021518,35.077072],[129.021572,35.077042],[129.02164,35.077009],[129.021671,35.076994],[129.021783,35.076948],[129.021795,35.076942],[129.021769,35.076915],[129.021824,35.07688],[129.021849,35.076908],[129.021991,35.07684],[129.022117,35.076727],[129.022169,35.076681],[129.022193,35.076644],[129.022258,35.076546],[129.022292,35.076494],[129.022313,35.076463],[129.02233,35.076468],[129.022342,35.076446],[129.022355,35.076426],[129.022359,35.076419],[129.022407,35.076355],[129.022435,35.076322],[129.022492,35.076266],[129.02253,35.076233],[129.022583,35.076189],[129.022646,35.07614],[129.022703,35.076098],[129.022722,35.076085],[129.02275,35.076067],[129.022785,35.076046],[129.022817,35.076027],[129.022838,35.076017],[129.022868,35.076003],[129.022918,35.075982],[129.02297,35.075964],[129.023,35.075956],[129.023085,35.075935],[129.023137,35.075925],[129.023206,35.075914],[129.023259,35.075911],[129.02331,35.07591],[129.023365,35.07591],[129.023435,35.075915],[129.023496,35.075921],[129.023546,35.075929],[129.023601,35.07594],[129.023644,35.075951],[129.023677,35.075963],[129.023748,35.075995],[129.023793,35.076024],[129.023828,35.07605],[129.023862,35.07608],[129.023899,35.076121],[129.023927,35.07616],[129.023932,35.076159],[129.02395,35.07619],[129.024052,35.07624],[129.024457,35.076182],[129.024846,35.077988],[129.024849,35.078005],[129.02485,35.078006],[129.025078,35.079064],[129.025081,35.079082],[129.025159,35.079441],[129.025529,35.081151]]]]},"properties":{"id":"FLD:26140:5531:20122","layer":"FLOOD_TRACE","admin_code":"26140","sido_code":"26","flood_year":"2022","occurred_at":"2022-09-06","ended_at":"2022-09-06","begin_time":"0400","end_time":"0700","disaster_name":"제11호 태풍 힌남노","cause_detail":"해안가/만조시간 폭풍해일","flood_grade":3,"flood_depth_m":1.4,"flood_area_m2":78356.2,"source_sn":5531,"data_status":"actual","official_data":true,"is_prediction":false,"source":"행정안전부 침수흔적도 · 재난안전데이터공유플랫폼 DSSP-IF-00117","collected_at":"2026-08-19T16:46:51+09:00","source_crs":"EPSG:3857","display_badges":["행안부 침수흔적도","과거 기록"]}},{"type":"Feature","id":"FLD:26140:5532:20194","geometry":{"type":"MultiPolygon","coordinates":[[[[129.020309,35.064511],[129.020274,35.064466],[129.02022,35.064453],[129.020184,35.064458],[129.02017,35.064424],[129.020127,35.064372],[129.020084,35.064345],[129.020057,35.064348],[129.02003,35.064358],[129.019996,35.064285],[129.020071,35.06424],[129.020097,35.064236],[129.02013,35.064232],[129.02015,35.064229],[129.020159,35.06421],[129.020176,35.064203],[129.020156,35.064169],[129.020137,35.064133],[129.020093,35.064055],[129.020068,35.064007],[129.020145,35.063901],[129.020144,35.063894],[129.020572,35.063343],[129.020618,35.063282],[129.020831,35.063006],[129.020945,35.062859],[129.021061,35.062709],[129.021114,35.062641],[129.021125,35.062626],[129.021148,35.062596],[129.021243,35.062577],[129.021323,35.06256],[129.02146,35.062529],[129.021548,35.062518],[129.021721,35.06249],[129.021721,35.06249],[129.021739,35.062499],[129.021811,35.062538],[129.021835,35.062551],[129.021046,35.063565],[129.020309,35.064511]]]]},"properties":{"id":"FLD:26140:5532:20194","layer":"FLOOD_TRACE","admin_code":"26140","sido_code":"26","flood_year":"2022","occurred_at":"2022-09-06","ended_at":"2022-09-06","begin_time":"0400","end_time":"0700","disaster_name":"제11호 태풍 힌남노","cause_detail":"해안가/만조시간 폭풍해일","flood_grade":4,"flood_depth_m":1.5,"flood_area_m2":11594.6,"source_sn":5532,"data_status":"actual","official_data":true,"is_prediction":false,"source":"행정안전부 침수흔적도 · 재난안전데이터공유플랫폼 DSSP-IF-00117","collected_at":"2026-08-19T16:46:51+09:00","source_crs":"EPSG:3857","display_badges":["행안부 침수흔적도","과거 기록"]}}]}